%
(OP1 - 1X1,1X0,5)
(MACHINE)
(  VENDOR CALLUM)
(  MODEL MILL R1)
(  DESCRIPTION 14X8X14 MILL)
(T11 D=0.125 CR=0. TAPER=45DEG - ZMIN=0.285 - CHAMFER MILL)
G90 G94 G17 G91.1
G20
G53 G0 Z-0.6
(2D CHAMFER1)
T11 M6
S7500 M3
G17 G90 G94
G55
G64 P0.0004 Q0.0004
M8
G0 X-0.0425 Y-0.4728
G43 Z1.1 H11
G0 Z0.7
G1 Z0.58 F10.
Z0.435
X-0.03
Y-0.02
G2 X0.02 Y0.03 I0.05 J0.
G1 X0.3006
G2 X0.5822 Y-0.1667 I0. J-0.3
G3 X0.77 Y-0.2978 I0.1878 J0.0689
G1 X0.97
G2 X1.07 Y-0.3978 I0. J-0.1
G1 Y-0.5478
G2 X0.97 Y-0.6478 I-0.1 J0.
G1 X0.77
G3 X0.5822 Y-0.7789 I0. J-0.2
G2 X0.3006 Y-0.9755 I-0.2816 J0.1033
G1 X0.02
G2 X-0.03 Y-0.9255 I0. J0.05
G1 Y-0.4728
X-0.0425
G0 Z1.1
X1.0825 Y-0.6018
Z0.7
G1 Z0.58 F10.
Z0.285
X1.07
Y-0.6728
G2 X0.97 Y-0.7728 I-0.1 J0.
G1 X0.87
G2 X0.77 Y-0.6728 I0. J0.1
G1 X0.7575
G0 Z0.7
Y-0.2728
G1 Z0.58 F10.
Z0.285
X0.77
G2 X0.87 Y-0.1728 I0.1 J0.
G1 X0.97
G2 X1.07 Y-0.2728 I0. J-0.1
G1 Y-0.3437
X1.0825
G0 Z1.1
M5
M9
G53 G0 Z-0.6
M30
%
