%
(OP2)
(MACHINE)
(  VENDOR CALLUM)
(  MODEL MILL R1)
(  DESCRIPTION 14X8X14 MILL)
(T11 D=0.125 CR=0. TAPER=45DEG - ZMIN=0.095 - CHAMFER MILL)
(T32 D=0.1875 CR=0. - ZMIN=0.15 - FLAT END MILL)
G90 G94 G17 G91.1
G20
G53 G0 Z-0.6
(ADAPTIVE2)
T32 M6
T11
S7500 M3
G17 G90 G94
G55
G64 P0.004 Q0.004
M8
G0 X0.703 Y0.1231
G43 Z1.09 H32
G0 Z0.69
Z0.1875
G1 Z0.1688 F40.
X0.7033 Y0.123 Z0.1655
X0.7041 Y0.1228 Z0.1623
X0.7054 Y0.1225 Z0.1594
X0.7073 Y0.122 Z0.1567
X0.7095 Y0.1214 Z0.1544
X0.7121 Y0.1208 Z0.1525
X0.715 Y0.12 Z0.1511
X0.718 Y0.1192 Z0.1503
X0.7212 Y0.1184 Z0.15
G3 X0.8232 Y0.1037 I0.1188 J0.4637
G1 X0.9002
X0.9073 Y0.1033
X0.9215 Y0.1024
X0.9286 Y0.101
X0.9302 Y0.1007
X0.9357 Y0.0991
X0.9428 Y0.0968
X0.9501 Y0.0935
X0.957 Y0.0899
X0.9627 Y0.0864
X0.9719 Y0.0793
X0.9783 Y0.0737
X0.9798 Y0.0722
X0.9854 Y0.0657
X0.9925 Y0.0565
X0.9957 Y0.0509
X0.9994 Y0.0438
X1.0025 Y0.0367
X1.0029 Y0.0355
X1.014 Y0.0062
X1.0221 Y-0.024
X1.0274 Y-0.0548
X1.0306 Y-0.086
X1.0326 Y-0.1172
X1.0338 Y-0.1485
X1.0345 Y-0.1797
X1.0349 Y-0.211
X1.0351 Y-0.2423
X1.0353 Y-0.2736
X1.0354 Y-0.3362
X1.0355 Y-0.4927
Y-1.0246
X1.0308 Y-1.0396
X1.0161 Y-1.0672
X0.9937 Y-1.089
X0.9668 Y-1.1051
X0.9376 Y-1.1163
X0.9072 Y-1.1236
X0.8763 Y-1.1283
X0.8451 Y-1.1312
X0.8139 Y-1.133
X0.7826 Y-1.1341
X0.7513 Y-1.1347
X0.72 Y-1.135
X0.6887 Y-1.1352
X0.6574 Y-1.1354
X0.5948 Y-1.1355
X0.4384
X0.1567
X0.0472
X0.0317 Y-1.1334
X0.0024 Y-1.1226
X-0.0217 Y-1.1025
X-0.0398 Y-1.077
X-0.0526 Y-1.0485
X-0.0613 Y-1.0184
X-0.0668 Y-0.9876
X-0.0703 Y-0.9565
X-0.0724 Y-0.9253
X-0.0737 Y-0.894
X-0.0744 Y-0.8627
X-0.0749 Y-0.8314
X-0.0751 Y-0.8002
X-0.0753 Y-0.7689
X-0.0754 Y-0.7063
X-0.0755 Y-0.5811
Y-0.2944
X-0.0768 Y-0.2809
X-0.0808 Y-0.2679
X-0.0872 Y-0.256
X-0.0881 Y-0.2548
X-0.092 Y-0.2477
X-0.0941 Y-0.2435
X-0.0954 Y-0.2405
X-0.0982 Y-0.2334
X-0.1002 Y-0.2263
X-0.1012 Y-0.2225
X-0.1018 Y-0.2192
X-0.1028 Y-0.2121
X-0.1035 Y-0.1979
X-0.1038 Y-0.1908
Y-0.1727
X-0.1095 Y-0.1438 Z0.158
X-0.1096 Y-0.1434
X-0.1412 Y0.0154 F200.
G2 X-0.0565 Y0.1291 I0.0971 J0.0161
G1 X0.8718 Y0.2333
X0.9286 Y0.2326
G2 X0.9499 Y0.2287 I-0.0072 J-0.0982
G1 X0.95 Y0.2286
G2 X1.0138 Y0.1007 I-0.0287 J-0.0942
G1 X1.0066 Y0.0793
G3 X1.0018 Y0.065 I0.0562 J-0.0268
G1 X1.0017 Y0.0646 F40.
G3 X1.0029 Y0.0355 Z0.15 I0.0611 J-0.0121
G1 X1.0048 Y0.0296
X1.0067 Y0.0222
X1.0079 Y0.0154
X1.0089 Y0.0011
X1.0093 Y-0.006
Y-0.1908
X1.009 Y-0.1979
X1.0083 Y-0.2121
X1.0073 Y-0.2192
X1.0041 Y-0.2432
X1.0014 Y-0.2743
X0.9999 Y-0.3056
X0.9991 Y-0.3369
X0.9986 Y-0.3682
X0.9984 Y-0.3995
X0.9982 Y-0.4308
X0.9981 Y-0.4933
X0.998 Y-0.6185
Y-0.9627
X0.99 Y-0.993
X0.9739 Y-1.0198
X0.9517 Y-1.0419
X0.9255 Y-1.059
X0.8969 Y-1.0717
X0.8669 Y-1.0807
X0.8362 Y-1.0868
X0.8052 Y-1.0909
X0.774 Y-1.0936
X0.7428 Y-1.0952
X0.7115 Y-1.0963
X0.7008 Y-1.0965
X0.6962 Y-1.0968
X0.6916 Y-1.0973
X0.6871 Y-1.0982
X0.68 Y-1.0998
X0.6658 Y-1.1026
X0.6587 Y-1.1033
X0.6445 Y-1.1037
X0.6374
X0.2681
X0.261
X0.2468 Y-1.1033
X0.2397 Y-1.1026
X0.2222 Y-1.1011
X0.1909 Y-1.0998
X0.1596 Y-1.0991
X0.1283 Y-1.0986
X0.0971 Y-1.0983
X0.0668 Y-1.0901
X0.0401 Y-1.0739
X0.0181 Y-1.0517
X0.001 Y-1.0255
X-0.0117 Y-0.9968
X-0.0206 Y-0.9669
X-0.0268 Y-0.9362
X-0.0308 Y-0.9052
X-0.0335 Y-0.874
X-0.0352 Y-0.8427
X-0.0363 Y-0.8115
X-0.0369 Y-0.7802
X-0.0373 Y-0.7489
X-0.0376 Y-0.7176
X-0.0377 Y-0.6863
X-0.0379 Y-0.6237
X-0.038 Y-0.4985
Y-0.3421
X-0.0383 Y-0.3327
X-0.0398 Y-0.3207
X-0.0434 Y-0.3091
X-0.0489 Y-0.2983
X-0.0563 Y-0.2887
X-0.0653 Y-0.2805
X-0.0799 Y-0.2774 Z0.1541
X-0.09 Y-0.2832 Z0.1572
X-0.091 Y-0.2859 Z0.158
X-0.0911 Y-0.2863
X-0.1663 Y-0.4893 F200.
X-0.1651 Y-0.8601
X-0.156 Y-0.9514
X-0.155 Y-0.9585
X-0.1328 Y-1.0438
X-0.1083 Y-1.0943
X-0.0789 Y-1.1362
X-0.0444 Y-1.1717
X-0.0089 Y-1.1962
X-0.0054 Y-1.1983
X-0.0018 Y-1.2001
X0.0124 Y-1.2062
G3 X0.0621 Y-1.2205 I0.0512 J0.0841
G1 X0.2255 Y-1.2256
G3 X0.2609 Y-1.2144 I-0.0002 J0.0623
G1 X0.261 Y-1.2143
G3 X0.266 Y-1.1161 I-0.0357 J0.0511
G1 X0.2657 Y-1.1158 F40.
G3 X0.2468 Y-1.1048 Z0.152 I-0.0404 J-0.0474
G1 X0.2397 Y-1.1026 Z0.15
X0.2255 Y-1.0998
X0.2184 Y-1.0982
X0.2011 Y-1.0935
X0.1971 Y-1.0923
X0.19 Y-1.0898
X0.1829 Y-1.0867
X0.1745 Y-1.0832
X0.167 Y-1.0805
X0.137 Y-1.0713
X0.1082 Y-1.0591
X0.0826 Y-1.0412
X0.061 Y-1.0185
X0.0438 Y-0.9924
X0.0306 Y-0.964
X0.0208 Y-0.9343
X0.0139 Y-0.9038
X0.009 Y-0.8728
X0.0058 Y-0.8417
X0.0036 Y-0.8105
X0.0021 Y-0.7793
X0.0012 Y-0.748
X0.0006 Y-0.7167
X0.0002 Y-0.6854
X-0.0001 Y-0.6541
X-0.0002 Y-0.6228
X-0.0004 Y-0.5602
X-0.0005 Y-0.4351
Y-0.4038
X-0.0006 Y-0.3772
X-0.0013 Y-0.3641
X-0.0026 Y-0.3524
X-0.0039 Y-0.3438
X-0.004 Y-0.3432
X-0.0078 Y-0.3306
X-0.014 Y-0.319
X-0.0223 Y-0.3088
X-0.0323 Y-0.3003
X-0.0438 Y-0.2939
X-0.0586 Y-0.2943 Z0.154
X-0.0682 Y-0.3045 Z0.1578
X-0.0684 Y-0.3052 Z0.158
X-0.0685 Y-0.3056
X-0.1298 Y-0.5107 F200.
X-0.1263 Y-0.8234
X-0.1154 Y-0.9173
X-0.0948 Y-1.0011
X-0.0657 Y-1.0623
X-0.0335 Y-1.1078
X-0.0018 Y-1.1375
X0.1261 Y-1.1976
G3 X0.2051 Y-1.1061 I0.0281 J0.0556
G1 X0.2049 Y-1.1058 F40.
G3 X0.19 Y-1.091 Z0.1523 I-0.0507 J-0.0361
G1 X0.1829 Y-1.0867 Z0.15
X0.1824 Y-1.0864
X0.1758 Y-1.0828
X0.1687 Y-1.0782
X0.1616 Y-1.0731
X0.1606 Y-1.0722
X0.1545 Y-1.0666
X0.1386 Y-1.0509
X0.1332 Y-1.0451
X0.132 Y-1.0438
X0.1261 Y-1.0365
X0.1075 Y-1.0114
X0.0905 Y-0.9851
X0.0766 Y-0.957
X0.0656 Y-0.9277
X0.0573 Y-0.8976
X0.0512 Y-0.8669
X0.0467 Y-0.8359
X0.0436 Y-0.8048
X0.0414 Y-0.7735
X0.0399 Y-0.7423
X0.039 Y-0.711
X0.0383 Y-0.6797
X0.0378 Y-0.6484
X0.0375 Y-0.6171
X0.0374 Y-0.5859
X0.0372 Y-0.5546
X0.0371 Y-0.492
X0.037 Y-0.4294
X0.0365 Y-0.4013
X0.0355 Y-0.3868
X0.034 Y-0.3742
X0.0325 Y-0.3655
X0.0305 Y-0.3561
X0.0286 Y-0.349
X0.0275 Y-0.3457
X0.0229 Y-0.3349
X0.0165 Y-0.325
X0.0084 Y-0.3164
X-0.0011 Y-0.3094
X-0.0117 Y-0.3042
X-0.0231 Y-0.301
X-0.0302 Y-0.2991
X-0.0355 Y-0.2974
X-0.0373 Y-0.2968
X-0.0438 Y-0.2939
X-0.0586 Y-0.2943 Z0.154
X-0.0682 Y-0.3045 Z0.1578
Y-0.3052 Z0.158
X-0.0683 Y-0.3056
X-0.0902 Y-0.7523 F200.
X-0.079 Y-0.8732
X-0.0657 Y-0.9391
X0.0192 Y-1.1007
G3 X0.1048 Y-1.122 I0.0534 J0.0321
X0.1261 Y-1.1007 I-0.0321 J0.0534
G1 X0.1348 Y-1.0722
X0.1336 Y-1.0651
X0.1335 Y-1.0647 F40.
X0.1298 Y-1.0438 Z0.1522
X0.1261 Y-1.0365 Z0.15
X0.1216 Y-1.0296
X0.1175 Y-1.0225
X0.1139 Y-1.0154
X0.1119 Y-1.0093
X0.1072 Y-0.994
X0.1053 Y-0.9869
X0.1017 Y-0.9727
X0.1003 Y-0.9656
X0.0994 Y-0.9585
X0.0993 Y-0.9563
X0.0965 Y-0.9252
X0.0924 Y-0.8941
X0.0884 Y-0.8631
X0.085 Y-0.832
X0.0822 Y-0.8008
X0.08 Y-0.7696
X0.0784 Y-0.7384
X0.0772 Y-0.7071
X0.0764 Y-0.6758
X0.0758 Y-0.6445
X0.0754 Y-0.6132
X0.0751 Y-0.582
X0.0749 Y-0.5507
X0.0747 Y-0.4881
X0.0745 Y-0.4568
X0.0738 Y-0.4263
X0.0723 Y-0.4062
X0.0706 Y-0.3916
X0.0685 Y-0.3792
X0.0665 Y-0.3702
X0.0642 Y-0.3617
X0.0617 Y-0.354
X0.0593 Y-0.3479
X0.0578 Y-0.3445
X0.0518 Y-0.3334
X0.0438 Y-0.3237
X0.0342 Y-0.3156
X0.0233 Y-0.3094
X0.0114 Y-0.3053
X-0.001 Y-0.3034
X-0.016 Y-0.3024
X-0.0231 Y-0.301
G3 X-0.0446 Y-0.3181 I-0.0029 J-0.0185
G1 X-0.0449 Y-0.3214 Z0.1503
X-0.0451 Y-0.3245 Z0.1511
X-0.0453 Y-0.3275 Z0.1525
X-0.0455 Y-0.3302 Z0.1544
X-0.0457 Y-0.3325 Z0.1567
X-0.0459 Y-0.3343 Z0.1594
X-0.046 Y-0.3357 Z0.1623
Y-0.3365 Z0.1655
Y-0.3368 Z0.1688
G0 Z0.1875
X0.0828 Y-1.0028
G1 Z0.1688 F40.
X0.083 Y-1.0026 Z0.1655
X0.0834 Y-1.0018 Z0.1623
X0.084 Y-1.0006 Z0.1594
X0.0849 Y-0.999 Z0.1567
X0.086 Y-0.9969 Z0.1544
X0.0873 Y-0.9946 Z0.1525
X0.0887 Y-0.992 Z0.1511
X0.0902 Y-0.9892 Z0.1503
X0.0918 Y-0.9863 Z0.15
G3 X0.0993 Y-0.9563 I-0.0548 J0.0297
G1 X0.0991 Y-0.9514
X0.099 Y-0.9443
Y-0.859
X0.0992 Y-0.8519
X0.1001 Y-0.8376
X0.1011 Y-0.8305
X0.1028 Y-0.8234
X0.1063 Y-0.8045
X0.1088 Y-0.7864
X0.1113 Y-0.7579
X0.1125 Y-0.7266
X0.1129 Y-0.6953
Y-0.664
X0.1128 Y-0.6327
X0.1122 Y-0.5075
X0.1119 Y-0.4763
X0.111 Y-0.445
X0.1092 Y-0.4223
X0.107 Y-0.4046
X0.1045 Y-0.3904
X0.1021 Y-0.3797
X0.0991 Y-0.3691
X0.0966 Y-0.3616
X0.0936 Y-0.3536
X0.0906 Y-0.3469
X0.0878 Y-0.3413
X0.0863 Y-0.3387
X0.0794 Y-0.3287
X0.0709 Y-0.3201
X0.0611 Y-0.3131
X0.0501 Y-0.308
X0.0385 Y-0.3048
X0.0264 Y-0.3038
X0.0053
X-0.001 Y-0.3034
G3 X-0.0209 Y-0.3209 Z0.158 I-0.0011 J-0.0187
G1 Y-0.3214
Y-0.3231 F200.
X-0.0207 Y-0.3248
X0.0554 Y-0.8399
G3 X0.0874 Y-0.8503 I0.0185 J0.0027
G1 X0.0884 Y-0.8492
X0.0887 Y-0.8489 F40.
G3 X0.1028 Y-0.8234 Z0.15 I-0.0459 J0.0421
G1 X0.1048 Y-0.8152
X0.1063 Y-0.8092
X0.1119 Y-0.7899
X0.1127 Y-0.7879
X0.1157 Y-0.7808
X0.1195 Y-0.7737
X0.1203 Y-0.7725
X0.1232 Y-0.7672
X0.1257 Y-0.7618
X0.1283 Y-0.7557
X0.131 Y-0.7481
X0.1338 Y-0.7389
X0.1368 Y-0.7272
X0.1398 Y-0.7119
X0.143 Y-0.6908
X0.1461 Y-0.6597
X0.1478 Y-0.6285
X0.1487 Y-0.5972
X0.1492 Y-0.5659
X0.1493 Y-0.5346
X0.1492 Y-0.5033
X0.1484 Y-0.472
X0.1468 Y-0.4446
X0.1445 Y-0.4231
X0.1418 Y-0.4061
X0.1387 Y-0.3915
X0.1355 Y-0.3791
X0.1325 Y-0.3695
X0.129 Y-0.3598
X0.126 Y-0.3528
X0.1225 Y-0.3455
X0.119 Y-0.3391
X0.1176 Y-0.3368
X0.1091 Y-0.3256
X0.0985 Y-0.3163
X0.0863 Y-0.3094
X0.0729 Y-0.3052
X0.0589 Y-0.3038
X0.0264
G3 X0.0083 Y-0.3231 Z0.158 I0.0007 J-0.0187
G1 X0.0084 Y-0.3235
X0.0086 Y-0.3257 F200.
X0.0862 Y-0.7654
G3 X0.0939 Y-0.7775 I0.0185 J0.0033
G1 X0.0943 Y-0.7777 F40.
G3 X0.1203 Y-0.7725 Z0.15 I0.0104 J0.0156
G1 X0.1239 Y-0.7666
X0.1261 Y-0.7635
X0.1292 Y-0.7595
X0.1354 Y-0.7523
X0.1381 Y-0.7497
X0.1421 Y-0.7452
X0.1459 Y-0.7406
X0.1493 Y-0.7356
X0.1524 Y-0.7305
X0.1554 Y-0.7248
X0.1588 Y-0.7176
X0.162 Y-0.7099
X0.1653 Y-0.7006
X0.1688 Y-0.6888
X0.1723 Y-0.675
X0.1759 Y-0.6567
X0.1796 Y-0.632
X0.1827 Y-0.6009
X0.1844 Y-0.5697
X0.1853 Y-0.5384
X0.1854 Y-0.5071
X0.1846 Y-0.4758
X0.1826 Y-0.4489
X0.18 Y-0.4275
X0.1769 Y-0.4093
X0.1735 Y-0.3942
X0.1698 Y-0.3807
X0.1664 Y-0.3702
X0.1628 Y-0.3608
X0.159 Y-0.352
X0.1559 Y-0.3457
X0.1521 Y-0.339
X0.1502 Y-0.336
X0.1417 Y-0.3251
X0.1312 Y-0.316
X0.119 Y-0.3093
X0.1058 Y-0.3052
X0.092 Y-0.3038
X0.0589
G3 X0.0408 Y-0.3231 Z0.158 I0.0007 J-0.0187
G1 Y-0.3235
X0.041 Y-0.3254 F200.
X0.1068 Y-0.7389
G3 X0.1113 Y-0.7485 I0.0185 J0.0029
G1 X0.1116 Y-0.7488 F40.
G3 X0.1381 Y-0.7497 Z0.15 I0.0137 J0.0128
G1 X0.1497 Y-0.7381
X0.1569 Y-0.731
X0.1616 Y-0.7268
X0.1628 Y-0.726
X0.1674 Y-0.7221
X0.1716 Y-0.7179
X0.1756 Y-0.7134
X0.1792 Y-0.7086
X0.1825 Y-0.7036
X0.1858 Y-0.698
X0.1894 Y-0.691
X0.193 Y-0.6834
X0.1967 Y-0.6743
X0.2008 Y-0.6628
X0.2045 Y-0.6504
X0.2085 Y-0.6341
X0.2123 Y-0.6149
X0.2159 Y-0.5902
X0.2189 Y-0.5594
X0.2204 Y-0.5281
X0.2205 Y-0.4968
X0.2193 Y-0.469
X0.2172 Y-0.4457
X0.2142 Y-0.4248
X0.2109 Y-0.4074
X0.2072 Y-0.3921
X0.2033 Y-0.3788
X0.1996 Y-0.3684
X0.1957 Y-0.3587
X0.1918 Y-0.3503
X0.1885 Y-0.344
X0.1845 Y-0.337
X0.1831 Y-0.3349
X0.1745 Y-0.3243
X0.1641 Y-0.3156
X0.1521 Y-0.3091
X0.1391 Y-0.3051
X0.1255 Y-0.3038
X0.092
G3 X0.0739 Y-0.3231 Z0.158 I0.0007 J-0.0187
G1 Y-0.3235
X0.0741 Y-0.3253 F200.
X0.1335 Y-0.7134
X0.1341 Y-0.7161
X0.1351 Y-0.7186
X0.1364 Y-0.721
X0.1367 Y-0.7213 F40.
G3 X0.1628 Y-0.726 Z0.15 I0.0154 J0.0107
G1 X0.1687 Y-0.7215
X0.1762 Y-0.7168
X0.1829 Y-0.7133
X0.1882 Y-0.7106
X0.1931 Y-0.7072
X0.1977 Y-0.7033
X0.2019 Y-0.699
X0.2059 Y-0.6945
X0.2096 Y-0.6898
X0.2133 Y-0.6844
X0.217 Y-0.6785
X0.2211 Y-0.6711
X0.225 Y-0.6634
X0.2294 Y-0.6535
X0.2334 Y-0.643
X0.2377 Y-0.6298
X0.2418 Y-0.615
X0.2458 Y-0.5967
X0.2492 Y-0.5772
X0.2521 Y-0.5536
X0.254 Y-0.528
X0.2546 Y-0.5026
X0.2541 Y-0.4779
X0.2524 Y-0.4549
X0.2498 Y-0.4338
X0.2467 Y-0.4158
X0.2431 Y-0.3996
X0.2392 Y-0.3853
X0.2352 Y-0.3729
X0.2316 Y-0.3635
X0.2274 Y-0.3539
X0.2237 Y-0.3466
X0.2202 Y-0.3403
X0.2158 Y-0.3332
X0.2072 Y-0.3232
X0.1969 Y-0.3149
X0.1852 Y-0.3088
X0.1725 Y-0.305
X0.1593 Y-0.3038
X0.1255
G3 X0.1074 Y-0.3231 Z0.158 I0.0007 J-0.0187
G1 X0.1075 Y-0.3235
X0.1076 Y-0.325 F200.
X0.1573 Y-0.6984
X0.1577 Y-0.7006
X0.1583 Y-0.7026
X0.1585 Y-0.703 F40.
G3 X0.1829 Y-0.7133 Z0.15 I0.0174 J0.0071
G1 X0.19 Y-0.7102
X0.1971 Y-0.7077
X0.2027 Y-0.706
X0.2084 Y-0.7041
X0.2138 Y-0.7014
X0.2189 Y-0.6982
X0.2236 Y-0.6945
X0.2281 Y-0.6905
X0.2323 Y-0.6863
X0.2363 Y-0.6818
X0.2402 Y-0.6769
X0.2444 Y-0.671
X0.2485 Y-0.6647
X0.2531 Y-0.6569
X0.2573 Y-0.6487
X0.262 Y-0.6386
X0.2662 Y-0.628
X0.2707 Y-0.6149
X0.2749 Y-0.6008
X0.2788 Y-0.5846
X0.2823 Y-0.5658
X0.2851 Y-0.5459
X0.2869 Y-0.5251
X0.2878 Y-0.503
X0.2877 Y-0.4807
X0.2864 Y-0.4591
X0.2843 Y-0.4392
X0.2815 Y-0.421
X0.2781 Y-0.4046
X0.2743 Y-0.3897
X0.2704 Y-0.377
X0.2663 Y-0.3659
X0.2628 Y-0.3573
X0.2586 Y-0.3486
X0.2552 Y-0.3422
X0.2513 Y-0.3359
X0.2501 Y-0.3341
X0.2416 Y-0.3238
X0.2312 Y-0.3153
X0.2193 Y-0.309
X0.2065 Y-0.3051
X0.1931 Y-0.3038
X0.1593
G3 X0.1413 Y-0.3231 Z0.158 I0.0007 J-0.0187
G1 Y-0.3235
Y-0.3244 F200.
X0.1795 Y-0.6898
X0.1799 Y-0.692
X0.18 Y-0.6924 F40.
G3 X0.2027 Y-0.706 Z0.15 I0.0182 J0.0046
G1 X0.2042 Y-0.7056
X0.2184 Y-0.7018
X0.2255 Y-0.7002
X0.2313 Y-0.6987
X0.2369 Y-0.6966
X0.2422 Y-0.6938
X0.2473 Y-0.6906
X0.2521 Y-0.687
X0.2567 Y-0.6831
X0.261 Y-0.679
X0.2651 Y-0.6746
X0.2696 Y-0.6693
X0.2738 Y-0.6637
X0.2785 Y-0.657
X0.283 Y-0.6498
X0.2877 Y-0.6413
X0.2925 Y-0.6318
X0.297 Y-0.6213
X0.3017 Y-0.6089
X0.306 Y-0.5959
X0.3099 Y-0.5812
X0.3136 Y-0.5646
X0.3166 Y-0.5466
X0.3189 Y-0.528
X0.3203 Y-0.5082
X0.3207 Y-0.4879
X0.3201 Y-0.4676
X0.3187 Y-0.4479
X0.3163 Y-0.4295
X0.3134 Y-0.4128
X0.31 Y-0.3975
X0.3062 Y-0.3837
X0.3022 Y-0.3717
X0.2987 Y-0.3626
X0.2945 Y-0.3532
X0.2909 Y-0.3459
X0.2874 Y-0.3398
X0.2832 Y-0.333
X0.2746 Y-0.323
X0.2643 Y-0.3148
X0.2526 Y-0.3088
X0.24 Y-0.305
X0.2269 Y-0.3038
X0.1931
G3 X0.175 Y-0.3231 Z0.158 I0.0007 J-0.0187
G1 Y-0.3235
X0.1751 Y-0.324 F200.
X0.2038 Y-0.6832
X0.2039 Y-0.6844
X0.204 Y-0.6848 F40.
G3 X0.2255 Y-0.7002 Z0.15 I0.0185 J0.0031
G1 X0.2397 Y-0.6974
X0.2468 Y-0.6967
X0.2528 Y-0.6962
X0.2586 Y-0.6947
X0.2642 Y-0.6925
X0.2695 Y-0.6898
X0.2747 Y-0.6867
X0.2796 Y-0.6832
X0.2842 Y-0.6795
X0.2887 Y-0.6754
X0.2932 Y-0.671
X0.2977 Y-0.6659
X0.3024 Y-0.6602
X0.3073 Y-0.6536
X0.312 Y-0.6466
X0.317 Y-0.6383
X0.3219 Y-0.6291
X0.3267 Y-0.6192
X0.3315 Y-0.6076
X0.3361 Y-0.595
X0.3402 Y-0.5816
X0.344 Y-0.5665
X0.3474 Y-0.5499
X0.3501 Y-0.5323
X0.352 Y-0.5143
X0.353 Y-0.4954
X0.3531 Y-0.4761
X0.3523 Y-0.457
X0.3506 Y-0.4387
X0.3482 Y-0.4216
X0.3453 Y-0.406
X0.3418 Y-0.3915
X0.338 Y-0.3788
X0.3341 Y-0.3674
X0.3307 Y-0.359
X0.3266 Y-0.3502
X0.3231 Y-0.3435
X0.3196 Y-0.3374
X0.318 Y-0.3349
X0.3094 Y-0.3243
X0.2989 Y-0.3156
X0.287 Y-0.3091
X0.2739 Y-0.3051
X0.2604 Y-0.3038
X0.2269
G3 X0.2088 Y-0.3231 Z0.158 I0.0007 J-0.0187
G1 Y-0.3235
X0.2281 Y-0.6774 F200.
X0.2282 Y-0.6779 F40.
Y-0.679 Z0.1577
G3 X0.2468 Y-0.6967 Z0.15 I0.0187 J0.001
G1 X0.261 Y-0.6963
X0.2693 Y-0.6962
X0.2753 Y-0.6959
X0.2812 Y-0.6948
X0.2869 Y-0.6931
X0.2924 Y-0.6907
X0.2978 Y-0.688
X0.3029 Y-0.6849
X0.3078 Y-0.6814
X0.3125 Y-0.6777
X0.317 Y-0.6737
X0.3218 Y-0.6692
X0.3267 Y-0.6639
X0.3316 Y-0.6582
X0.3368 Y-0.6514
X0.3419 Y-0.6441
X0.347 Y-0.636
X0.3522 Y-0.6267
X0.3572 Y-0.6167
X0.3621 Y-0.6056
X0.3668 Y-0.5931
X0.3713 Y-0.5794
X0.3752 Y-0.5652
X0.3787 Y-0.5496
X0.3816 Y-0.5328
X0.3837 Y-0.5151
X0.3851 Y-0.4968
X0.3855 Y-0.4783
X0.3851 Y-0.4601
X0.3838 Y-0.4423
X0.3817 Y-0.4253
X0.3789 Y-0.4092
X0.3757 Y-0.3948
X0.3722 Y-0.382
X0.3685 Y-0.3706
X0.3651 Y-0.3619
X0.3611 Y-0.3526
X0.3577 Y-0.3457
X0.3542 Y-0.3395
X0.352 Y-0.336
X0.3434 Y-0.325
X0.3329 Y-0.316
X0.3208 Y-0.3093
X0.3075 Y-0.3052
X0.2937 Y-0.3038
X0.2604
G3 X0.2423 Y-0.323 Z0.158 I0.0007 J-0.0187
G1 Y-0.3231
Y-0.3235
X0.2512 Y-0.6765 F200.
Y-0.6769 F40.
Y-0.678 Z0.1577
G3 X0.2693 Y-0.6962 Z0.15 I0.0187 J0.0005
G1 X0.2951
X0.3011 Y-0.6959
X0.307 Y-0.695
X0.3128 Y-0.6933
X0.3184 Y-0.6912
X0.3238 Y-0.6886
X0.329 Y-0.6857
X0.334 Y-0.6824
X0.3389 Y-0.6788
X0.3437 Y-0.6749
X0.3487 Y-0.6704
X0.3536 Y-0.6655
X0.3589 Y-0.6598
X0.3642 Y-0.6534
X0.3694 Y-0.6464
X0.3749 Y-0.6383
X0.3803 Y-0.6295
X0.3855 Y-0.62
X0.3906 Y-0.6092
X0.3957 Y-0.5972
X0.4003 Y-0.5847
X0.4046 Y-0.5709
X0.4086 Y-0.5558
X0.4119 Y-0.5396
X0.4146 Y-0.5226
X0.4165 Y-0.5051
X0.4176 Y-0.4873
X0.4178 Y-0.4694
X0.4171 Y-0.4516
X0.4156 Y-0.4346
X0.4134 Y-0.4185
X0.4107 Y-0.4036
X0.4074 Y-0.3897
X0.4039 Y-0.3777
X0.4005 Y-0.3678
X0.3968 Y-0.3583
X0.393 Y-0.3501
X0.3899 Y-0.344
X0.3859 Y-0.3372
X0.3847 Y-0.3352
X0.3761 Y-0.3245
X0.3656 Y-0.3157
X0.3536 Y-0.3092
X0.3405 Y-0.3051
X0.3269 Y-0.3038
X0.2937
G3 X0.2756 Y-0.3226 Z0.1578 I0.0007 J-0.0187
G1 Y-0.3231 Z0.158
Y-0.3235
X0.277 Y-0.6765 F200.
Y-0.6769 F40.
Y-0.6776 Z0.1578
G3 X0.2951 Y-0.6962 Z0.15 I0.0187 J0.0001
G1 X0.3235
X0.3295 Y-0.6959
X0.3354 Y-0.6949
X0.3412 Y-0.6933
X0.3468 Y-0.6912
X0.3522 Y-0.6887
X0.3575 Y-0.6858
X0.3625 Y-0.6826
X0.3674 Y-0.6791
X0.3722 Y-0.6753
X0.3774 Y-0.6708
X0.3827 Y-0.6658
X0.3879 Y-0.6602
X0.3935 Y-0.6537
X0.399 Y-0.6466
X0.4044 Y-0.6389
X0.41 Y-0.63
X0.4156 Y-0.6202
X0.4208 Y-0.6098
X0.426 Y-0.5981
X0.431 Y-0.5852
X0.4356 Y-0.5713
X0.4396 Y-0.5569
X0.4431 Y-0.5413
X0.446 Y-0.5248
X0.4482 Y-0.5075
X0.4495 Y-0.4899
X0.45 Y-0.4722
X0.4496 Y-0.4548
X0.4484 Y-0.4377
X0.4465 Y-0.4214
X0.444 Y-0.4065
X0.441 Y-0.3929
X0.4376 Y-0.3806
X0.4341 Y-0.3697
X0.4309 Y-0.3612
X0.427 Y-0.3521
X0.4237 Y-0.3456
X0.4203 Y-0.3394
X0.4183 Y-0.3362
X0.4098 Y-0.3252
X0.3992 Y-0.3161
X0.387 Y-0.3093
X0.3737 Y-0.3052
X0.3599 Y-0.3038
X0.3269
G3 X0.3088 Y-0.3223 Z0.1578 I0.0007 J-0.0187
G1 Y-0.3231 Z0.158
Y-0.3235
X0.3054 Y-0.6765 F200.
Y-0.6769 F40.
Y-0.6773 Z0.1579
G3 X0.3235 Y-0.6962 Z0.15 I0.0187 J-0.0002
G1 X0.3519
X0.3579 Y-0.6959
X0.3638 Y-0.695
X0.3696 Y-0.6935
X0.3753 Y-0.6915
X0.3807 Y-0.689
X0.386 Y-0.6862
X0.3912 Y-0.6831
X0.3961 Y-0.6797
X0.401 Y-0.676
X0.4063 Y-0.6716
X0.4116 Y-0.6666
X0.417 Y-0.6611
X0.4227 Y-0.6547
X0.4283 Y-0.6478
X0.434 Y-0.64
X0.4398 Y-0.6312
X0.4455 Y-0.6215
X0.4508 Y-0.6112
X0.4562 Y-0.5998
X0.4613 Y-0.5871
X0.4661 Y-0.5734
X0.4703 Y-0.5592
X0.4741 Y-0.5439
X0.4772 Y-0.5276
X0.4796 Y-0.5107
X0.4813 Y-0.4933
X0.4821 Y-0.4757
X0.482 Y-0.4583
X0.4811 Y-0.4414
X0.4795 Y-0.4252
X0.4772 Y-0.41
X0.4744 Y-0.3963
X0.4713 Y-0.3838
X0.4678 Y-0.3726
X0.4647 Y-0.3638
X0.4608 Y-0.3545
X0.4576 Y-0.3476
X0.4543 Y-0.3415
X0.45 Y-0.3344
X0.4415 Y-0.3239
X0.4311 Y-0.3154
X0.4192 Y-0.309
X0.4063 Y-0.3051
X0.3928 Y-0.3038
X0.3599
G3 X0.3418 Y-0.3221 Z0.1577 I0.0007 J-0.0187
G1 Y-0.3231 Z0.158
Y-0.3235
X0.3338 Y-0.6765 F200.
Y-0.6769 F40.
Y-0.6771 Z0.1579
G3 X0.3519 Y-0.6962 Z0.15 I0.0187 J-0.0004
G1 X0.3817
X0.3877 Y-0.6959
X0.3937 Y-0.695
X0.3995 Y-0.6935
X0.4051 Y-0.6915
X0.4106 Y-0.689
X0.4159 Y-0.6863
X0.4211 Y-0.6832
X0.4261 Y-0.6798
X0.4311 Y-0.676
X0.4364 Y-0.6717
X0.442 Y-0.6666
X0.4474 Y-0.6611
X0.4531 Y-0.6548
X0.459 Y-0.6475
X0.4647 Y-0.6399
X0.4705 Y-0.6311
X0.4764 Y-0.6213
X0.482 Y-0.6108
X0.4874 Y-0.5995
X0.4926 Y-0.5869
X0.4975 Y-0.5732
X0.5019 Y-0.5585
X0.5058 Y-0.5434
X0.509 Y-0.5274
X0.5115 Y-0.5106
X0.5132 Y-0.4934
X0.5141 Y-0.476
X0.5142 Y-0.4586
X0.5134 Y-0.4417
X0.5119 Y-0.4256
X0.5098 Y-0.4109
X0.5071 Y-0.3972
X0.504 Y-0.3845
X0.5006 Y-0.3731
X0.4975 Y-0.3642
X0.494 Y-0.3556
X0.4905 Y-0.3479
X0.4874 Y-0.342
X0.4836 Y-0.3356
X0.4831 Y-0.3348
X0.4745 Y-0.3242
X0.4641 Y-0.3155
X0.4521 Y-0.3091
X0.4391 Y-0.3051
X0.4256 Y-0.3038
X0.3928
G3 X0.3747 Y-0.3219 Z0.1577 I0.0007 J-0.0187
G1 Y-0.3231 Z0.158
Y-0.3235
X0.3637 Y-0.6765 F200.
Y-0.6769 F40.
X0.3636
G3 X0.3817 Y-0.6962 Z0.15 I0.0187 J-0.0006
G1 X0.4123
X0.4183 Y-0.6959
X0.4242 Y-0.695
X0.43 Y-0.6934
X0.4356 Y-0.6914
X0.4411 Y-0.689
X0.4465 Y-0.6862
X0.4516 Y-0.6831
X0.4567 Y-0.6797
X0.4618 Y-0.6759
X0.4672 Y-0.6715
X0.4729 Y-0.6664
X0.4784 Y-0.6608
X0.4842 Y-0.6544
X0.4902 Y-0.6471
X0.496 Y-0.6394
X0.5019 Y-0.6306
X0.5079 Y-0.6206
X0.5136 Y-0.6099
X0.519 Y-0.5986
X0.5243 Y-0.586
X0.5292 Y-0.5723
X0.5338 Y-0.5575
X0.5377 Y-0.5421
X0.541 Y-0.5262
X0.5435 Y-0.5095
X0.5453 Y-0.4923
X0.5463 Y-0.475
X0.5464 Y-0.4578
X0.5457 Y-0.4411
X0.5442 Y-0.4252
X0.5422 Y-0.4107
X0.5396 Y-0.397
X0.5365 Y-0.3843
X0.5332 Y-0.3731
X0.5302 Y-0.3644
X0.5267 Y-0.3557
X0.5232 Y-0.3481
X0.5201 Y-0.3423
X0.5163 Y-0.3358
X0.5158 Y-0.335
X0.5073 Y-0.3243
X0.4968 Y-0.3156
X0.4848 Y-0.3091
X0.4718 Y-0.3051
X0.4582 Y-0.3038
X0.4256
G3 X0.4075 Y-0.3218 Z0.1576 I0.0007 J-0.0187
G1 X0.4074 Y-0.3231 Z0.158
Y-0.3235
X0.3942 Y-0.6765 F200.
Y-0.6768 F40.
Y-0.6769
G3 X0.4123 Y-0.6962 Z0.15 I0.0187 J-0.0006
G1 X0.4425
X0.4485 Y-0.6959
X0.4544 Y-0.695
X0.4602 Y-0.6935
X0.4659 Y-0.6916
X0.4714 Y-0.6892
X0.4767 Y-0.6865
X0.4819 Y-0.6834
X0.487 Y-0.68
X0.4921 Y-0.6763
X0.4976 Y-0.6719
X0.5032 Y-0.6669
X0.5089 Y-0.6613
X0.5148 Y-0.6549
X0.5208 Y-0.6477
X0.5266 Y-0.64
X0.5327 Y-0.6312
X0.5387 Y-0.6212
X0.5445 Y-0.6108
X0.5501 Y-0.5993
X0.5555 Y-0.5867
X0.5606 Y-0.5729
X0.5652 Y-0.5584
X0.5692 Y-0.5433
X0.5726 Y-0.5273
X0.5753 Y-0.5107
X0.5772 Y-0.4936
X0.5783 Y-0.4763
X0.5785 Y-0.4592
X0.578 Y-0.4426
X0.5767 Y-0.4266
X0.5747 Y-0.412
X0.5723 Y-0.3984
X0.5693 Y-0.3857
X0.5661 Y-0.3744
X0.5631 Y-0.3655
X0.5597 Y-0.3569
X0.5562 Y-0.349
X0.5531 Y-0.3431
X0.5495 Y-0.3367
X0.5486 Y-0.3354
X0.5401 Y-0.3247
X0.5296 Y-0.3158
X0.5175 Y-0.3092
X0.5044 Y-0.3051
X0.4907 Y-0.3038
X0.4582
G3 X0.4401 Y-0.3217 Z0.1576 I0.0007 J-0.0187
G1 Y-0.3231 Z0.158
Y-0.3235
X0.4244 Y-0.6765 F200.
Y-0.6767 F40.
Y-0.6769
G3 X0.4425 Y-0.6962 Z0.15 I0.0187 J-0.0006
G1 X0.4726
X0.4786 Y-0.6959
X0.4846 Y-0.6951
X0.4904 Y-0.6937
X0.4961 Y-0.6918
X0.5016 Y-0.6895
X0.507 Y-0.6868
X0.5122 Y-0.6838
X0.5173 Y-0.6805
X0.5224 Y-0.6769
X0.528 Y-0.6725
X0.5336 Y-0.6675
X0.5393 Y-0.6621
X0.5452 Y-0.6557
X0.5513 Y-0.6486
X0.5572 Y-0.641
X0.5633 Y-0.6322
X0.5695 Y-0.6223
X0.5753 Y-0.612
X0.581 Y-0.6006
X0.5865 Y-0.5881
X0.5917 Y-0.5744
X0.5964 Y-0.56
X0.6005 Y-0.545
X0.6041 Y-0.5291
X0.6069 Y-0.5125
X0.609 Y-0.4955
X0.6103 Y-0.4783
X0.6107 Y-0.4613
X0.6103 Y-0.4446
X0.6091 Y-0.4286
X0.6073 Y-0.4139
X0.605 Y-0.4003
X0.6021 Y-0.3875
X0.599 Y-0.376
X0.596 Y-0.3669
X0.5927 Y-0.3583
X0.5892 Y-0.3502
X0.5862 Y-0.3442
X0.5826 Y-0.3379
X0.5814 Y-0.336
X0.5729 Y-0.325
X0.5624 Y-0.316
X0.5502 Y-0.3093
X0.537 Y-0.3052
X0.5232 Y-0.3038
X0.4907
G3 X0.4727 Y-0.3215 Z0.1576 I0.0007 J-0.0187
G1 X0.4726 Y-0.3231 Z0.158
Y-0.3235
X0.4546 Y-0.6765 F200.
Y-0.6766 F40.
X0.4545 Y-0.6769
G3 X0.4726 Y-0.6962 Z0.15 I0.0187 J-0.0006
G1 X0.5046
X0.5106 Y-0.6959
X0.5165 Y-0.695
X0.5223 Y-0.6935
X0.528 Y-0.6915
X0.5335 Y-0.6891
X0.5389 Y-0.6864
X0.5441 Y-0.6834
X0.5493 Y-0.68
X0.5546 Y-0.6762
X0.56 Y-0.6718
X0.5659 Y-0.6667
X0.5716 Y-0.6611
X0.5775 Y-0.6547
X0.5837 Y-0.6473
X0.5898 Y-0.6394
X0.5958 Y-0.6306
X0.602 Y-0.6207
X0.608 Y-0.6098
X0.6137 Y-0.5983
X0.6191 Y-0.5858
X0.6242 Y-0.5721
X0.6289 Y-0.5574
X0.6331 Y-0.5418
X0.6366 Y-0.5257
X0.6394 Y-0.5091
X0.6414 Y-0.4921
X0.6425 Y-0.475
X0.6428 Y-0.4582
X0.6424 Y-0.442
X0.6411 Y-0.4264
X0.6393 Y-0.4118
X0.6368 Y-0.3981
X0.634 Y-0.3858
X0.6309 Y-0.3746
X0.628 Y-0.3659
X0.6245 Y-0.3569
X0.6212 Y-0.3494
X0.6182 Y-0.3435
X0.6144 Y-0.3369
X0.6136 Y-0.3357
X0.6051 Y-0.3248
X0.5946 Y-0.3159
X0.5825 Y-0.3092
X0.5693 Y-0.3051
X0.5556 Y-0.3038
X0.5232
G3 X0.5051 Y-0.3215 Z0.1576 I0.0007 J-0.0187
G1 X0.505 Y-0.3231 Z0.158
Y-0.3235
X0.4866 Y-0.6765 F200.
X0.4865 F40.
Y-0.6769
G3 X0.5046 Y-0.6962 Z0.15 I0.0187 J-0.0006
G1 X0.5348
X0.5408 Y-0.6959
X0.5467 Y-0.6951
X0.5526 Y-0.6937
X0.5583 Y-0.6919
X0.5638 Y-0.6896
X0.5692 Y-0.6869
X0.5744 Y-0.684
X0.5796 Y-0.6807
X0.5847 Y-0.6771
X0.5904 Y-0.6727
X0.596 Y-0.6678
X0.6018 Y-0.6623
X0.6079 Y-0.6559
X0.6139 Y-0.6489
X0.62 Y-0.6412
X0.6262 Y-0.6324
X0.6324 Y-0.6226
X0.6383 Y-0.6123
X0.6441 Y-0.6008
X0.6498 Y-0.5881
X0.6552 Y-0.5743
X0.66 Y-0.5601
X0.6642 Y-0.545
X0.6679 Y-0.5291
X0.6708 Y-0.5126
X0.673 Y-0.4957
X0.6744 Y-0.4786
X0.6749 Y-0.4618
X0.6746 Y-0.4452
X0.6736 Y-0.4293
X0.6719 Y-0.4147
X0.6697 Y-0.4011
X0.6669 Y-0.3884
X0.6639 Y-0.3769
X0.6609 Y-0.3677
X0.6577 Y-0.3592
X0.6542 Y-0.3509
X0.6512 Y-0.3449
X0.6478 Y-0.3386
X0.6464 Y-0.3364
X0.6379 Y-0.3253
X0.6273 Y-0.3162
X0.6151 Y-0.3094
X0.6018 Y-0.3052
X0.5879 Y-0.3038
X0.5556
G3 X0.5375 Y-0.3214 Z0.1575 I0.0007 J-0.0187
G1 X0.5374 Y-0.3231 Z0.158
Y-0.3235
X0.5167 Y-0.6764 F200.
Y-0.6769 F40.
G3 X0.5348 Y-0.6962 Z0.15 I0.0187 J-0.0006
G1 X0.5664
X0.5724 Y-0.6959
X0.5783 Y-0.6951
X0.5842 Y-0.6937
X0.5898 Y-0.6918
X0.5954 Y-0.6895
X0.6008 Y-0.6869
X0.606 Y-0.6839
X0.6112 Y-0.6806
X0.6165 Y-0.6769
X0.622 Y-0.6726
X0.6279 Y-0.6675
X0.6336 Y-0.662
X0.6396 Y-0.6557
X0.6459 Y-0.6485
X0.6519 Y-0.6407
X0.6582 Y-0.6319
X0.6644 Y-0.6221
X0.6705 Y-0.6113
X0.6763 Y-0.6
X0.6819 Y-0.5875
X0.6872 Y-0.5739
X0.6921 Y-0.5592
X0.6964 Y-0.5438
X0.7001 Y-0.5279
X0.703 Y-0.5115
X0.7052 Y-0.4946
X0.7065 Y-0.4776
X0.7071 Y-0.4607
X0.7068 Y-0.4444
X0.7057 Y-0.4288
X0.7041 Y-0.4142
X0.7018 Y-0.4006
X0.6991 Y-0.3879
X0.6961 Y-0.3767
X0.6932 Y-0.3677
X0.6898 Y-0.3588
X0.6864 Y-0.3509
X0.6835 Y-0.3449
X0.6799 Y-0.3384
X0.6787 Y-0.3364
X0.6701 Y-0.3253
X0.6596 Y-0.3162
X0.6474 Y-0.3094
X0.6341 Y-0.3052
X0.6202 Y-0.3038
X0.5879
G3 X0.5698 Y-0.3214 Z0.1575 I0.0007 J-0.0187
G1 X0.5697 Y-0.3231 Z0.158
Y-0.3235
X0.5483 Y-0.6764 F200.
Y-0.6769 F40.
G3 X0.5664 Y-0.6962 Z0.15 I0.0187 J-0.0006
G1 X0.5987
X0.6047 Y-0.6959
X0.6106 Y-0.695
X0.6164 Y-0.6935
X0.6221 Y-0.6916
X0.6276 Y-0.6892
X0.633 Y-0.6866
X0.6382 Y-0.6836
X0.6435 Y-0.6802
X0.6488 Y-0.6764
X0.6544 Y-0.672
X0.6603 Y-0.6668
X0.6661 Y-0.6612
X0.6722 Y-0.6548
X0.6785 Y-0.6474
X0.6846 Y-0.6395
X0.6908 Y-0.6306
X0.6971 Y-0.6206
X0.7032 Y-0.6096
X0.709 Y-0.5981
X0.7146 Y-0.5854
X0.7199 Y-0.5717
X0.7247 Y-0.5569
X0.729 Y-0.5414
X0.7326 Y-0.5252
X0.7355 Y-0.5087
X0.7375 Y-0.4918
X0.7388 Y-0.475
X0.7392 Y-0.4583
X0.7388 Y-0.4422
X0.7377 Y-0.4268
X0.736 Y-0.4123
X0.7336 Y-0.3987
X0.7309 Y-0.3865
X0.7279 Y-0.3753
X0.725 Y-0.3666
X0.7216 Y-0.3576
X0.7183 Y-0.3501
X0.7154 Y-0.3442
X0.7117 Y-0.3376
X0.7107 Y-0.336
X0.7022 Y-0.3251
X0.6917 Y-0.316
X0.6795 Y-0.3093
X0.6663 Y-0.3052
X0.6524 Y-0.3038
X0.6202
G3 X0.6021 Y-0.3214 Z0.1575 I0.0007 J-0.0187
G1 X0.602 Y-0.3231 Z0.158
Y-0.3235
X0.5806 Y-0.6764 F200.
Y-0.6769 F40.
G3 X0.5987 Y-0.6962 Z0.15 I0.0187 J-0.0006
G1 X0.6303
X0.6363 Y-0.6959
X0.6422 Y-0.695
X0.648 Y-0.6935
X0.6537 Y-0.6916
X0.6592 Y-0.6893
X0.6646 Y-0.6866
X0.6698 Y-0.6836
X0.6751 Y-0.6802
X0.6804 Y-0.6765
X0.686 Y-0.672
X0.6919 Y-0.6669
X0.6978 Y-0.6613
X0.7039 Y-0.6548
X0.7102 Y-0.6475
X0.7163 Y-0.6396
X0.7226 Y-0.6306
X0.7289 Y-0.6205
X0.735 Y-0.6099
X0.7408 Y-0.5982
X0.7465 Y-0.5854
X0.7518 Y-0.5715
X0.7567 Y-0.5567
X0.761 Y-0.5412
X0.7646 Y-0.5254
X0.7675 Y-0.5089
X0.7696 Y-0.4921
X0.7709 Y-0.4751
X0.7713 Y-0.4584
X0.771 Y-0.4422
X0.7699 Y-0.4268
X0.7682 Y-0.4126
X0.7659 Y-0.399
X0.7631 Y-0.3866
X0.7601 Y-0.3755
X0.7573 Y-0.3667
X0.7539 Y-0.3579
X0.7506 Y-0.3502
X0.7477 Y-0.3443
X0.744 Y-0.3378
X0.743 Y-0.3361
X0.7345 Y-0.3251
X0.7239 Y-0.3161
X0.7118 Y-0.3093
X0.6985 Y-0.3052
X0.6847 Y-0.3038
X0.6524
G3 X0.6344 Y-0.3213 Z0.1575 I0.0007 J-0.0187
G1 X0.6343 Y-0.3231 Z0.158
X0.6342 Y-0.3235
X0.6122 Y-0.6763 F200.
Y-0.6769 F40.
G3 X0.6303 Y-0.6962 Z0.15 I0.0187 J-0.0006
G1 X0.6374
X0.6445 Y-0.6963
X0.6587 Y-0.6967
X0.6647 Y-0.6969
X0.6707 Y-0.6962
X0.6765 Y-0.695
X0.6823 Y-0.6932
X0.6879 Y-0.6911
X0.6933 Y-0.6885
X0.6986 Y-0.6857
X0.7037 Y-0.6826
X0.7091 Y-0.679
X0.7148 Y-0.6747
X0.7204 Y-0.6701
X0.7264 Y-0.6646
X0.7326 Y-0.6584
X0.7386 Y-0.6517
X0.745 Y-0.6439
X0.7514 Y-0.6352
X0.7576 Y-0.626
X0.7638 Y-0.6155
X0.7699 Y-0.604
X0.7759 Y-0.5914
X0.7813 Y-0.5784
X0.7863 Y-0.5644
X0.7909 Y-0.5493
X0.7949 Y-0.5335
X0.7982 Y-0.5171
X0.8007 Y-0.5003
X0.8024 Y-0.4834
X0.8033 Y-0.4666
Y-0.4502
X0.8026 Y-0.4343
X0.8011 Y-0.4191
X0.7992 Y-0.4053
X0.7967 Y-0.3926
X0.7938 Y-0.3809
X0.7908 Y-0.3707
X0.7879 Y-0.3625
X0.7843 Y-0.3537
X0.7813 Y-0.3471
X0.7782 Y-0.3412
X0.7761 Y-0.3376
X0.7676 Y-0.3261
X0.757 Y-0.3167
X0.7446 Y-0.3096
X0.731 Y-0.3052
X0.7168 Y-0.3038
X0.6847
G3 X0.6666 Y-0.3212 Z0.1575 I0.0007 J-0.0187
G1 X0.6665 Y-0.3231 Z0.158
Y-0.3235
X0.6424 Y-0.6754 F200.
Y-0.6758 F40.
X0.6423 Y-0.6768 Z0.1577
G3 X0.6587 Y-0.6967 Z0.15 I0.0187 J-0.0013
G1 X0.6658 Y-0.6974
X0.6786 Y-0.6999
X0.6845 Y-0.7008
X0.6905 Y-0.7012
X0.6965 Y-0.7009
X0.7024 Y-0.7
X0.7083 Y-0.6987
X0.714 Y-0.6968
X0.7196 Y-0.6946
X0.725 Y-0.6921
X0.7303 Y-0.6893
X0.7354 Y-0.6862
X0.7404 Y-0.6829
X0.7453 Y-0.6794
X0.75 Y-0.6756
X0.7546 Y-0.6717
X0.759 Y-0.6677
X0.7632 Y-0.6634
X0.7674 Y-0.6591
X0.7714 Y-0.6546
X0.7752 Y-0.65
X0.7789 Y-0.6453
X0.7825 Y-0.6405
X0.786 Y-0.6356
X0.7893 Y-0.6306
X0.7925 Y-0.6255
X0.7956 Y-0.6204
X0.7986 Y-0.6152
X0.8014 Y-0.6099
X0.8041 Y-0.6045
X0.8067 Y-0.5991
X0.8092 Y-0.5937
X0.8116 Y-0.5882
X0.8139 Y-0.5826
X0.816 Y-0.577
X0.8181 Y-0.5714
X0.82 Y-0.5657
X0.8219 Y-0.56
X0.8236 Y-0.5542
X0.8252 Y-0.5485
X0.8268 Y-0.5427
X0.8282 Y-0.5368
X0.8295 Y-0.531
X0.8307 Y-0.5251
X0.8318 Y-0.5192
X0.8328 Y-0.5133
X0.8338 Y-0.5074
X0.8346 Y-0.5014
X0.8353 Y-0.4955
X0.8359 Y-0.4895
X0.8364 Y-0.4835
X0.8368 Y-0.4775
X0.8371 Y-0.4715
X0.8373 Y-0.4655
X0.8374 Y-0.4595
Y-0.4535
X0.8373 Y-0.4475
X0.8371 Y-0.4416
X0.8367 Y-0.4356
X0.8363 Y-0.4296
X0.8357 Y-0.4236
X0.8351 Y-0.4176
X0.8343 Y-0.4117
X0.8334 Y-0.4058
X0.8323 Y-0.3999
X0.8312 Y-0.394
X0.8299 Y-0.3881
X0.8284 Y-0.3823
X0.8268 Y-0.3765
X0.8251 Y-0.3708
X0.8232 Y-0.3651
X0.8211 Y-0.3594
X0.8188 Y-0.3539
X0.8164 Y-0.3484
X0.8137 Y-0.343
X0.8108 Y-0.3378
X0.8105 Y-0.3372
X0.802 Y-0.3258
X0.7914 Y-0.3165
X0.779 Y-0.3095
X0.7656 Y-0.3052
X0.7515 Y-0.3038
X0.7168
G3 X0.6988 Y-0.3207 Z0.1573 I0.0007 J-0.0187
G1 X0.6986 Y-0.3231 Z0.158
Y-0.3235
X0.6645 Y-0.6769 F200.
Y-0.6773 F40.
X0.6642 Y-0.6799 Z0.1573
G3 X0.6786 Y-0.6999 Z0.15 I0.0187 J-0.0018
G1 X0.68 Y-0.7002
X0.6871 Y-0.7018
X0.7013 Y-0.7056
X0.7025 Y-0.706
X0.7083 Y-0.7073
X0.7143 Y-0.7081
X0.7203 Y-0.7082
X0.7263 Y-0.7076
X0.7322 Y-0.7066
X0.738 Y-0.7051
X0.7437 Y-0.7032
X0.7493 Y-0.701
X0.7547 Y-0.6985
X0.76 Y-0.6957
X0.7652 Y-0.6927
X0.7702 Y-0.6894
X0.7751 Y-0.6859
X0.7799 Y-0.6823
X0.7845 Y-0.6784
X0.7889 Y-0.6744
X0.7933 Y-0.6703
X0.7975 Y-0.666
X0.8015 Y-0.6616
X0.8055 Y-0.657
X0.8093 Y-0.6524
X0.8129 Y-0.6476
X0.8165 Y-0.6428
X0.8209 Y-0.6364
X0.8261 Y-0.6305
X0.8319 Y-0.6252
X0.8382 Y-0.6207
X0.8451 Y-0.6169
X0.8523 Y-0.6138
X0.8598 Y-0.6117
X0.8675 Y-0.6104
X0.8753 Y-0.61
X0.8832 Y-0.6104
X0.8909 Y-0.6118
X0.8984 Y-0.614
X0.9056 Y-0.6171
X0.9124 Y-0.6209
X0.9187 Y-0.6255
X0.9244 Y-0.6308
X0.9296 Y-0.6367
X0.934 Y-0.6432
X0.9376 Y-0.6501
X0.949 Y-0.6793
X0.9522 Y-0.7104
X0.9541 Y-0.7416
X0.9553 Y-0.7729
X0.956 Y-0.8042
X0.9565 Y-0.8355
X0.9567 Y-0.8668
X0.9569 Y-0.8981
X0.9525 Y-0.929
X0.9402 Y-0.9578
X0.9213 Y-0.9827
X0.8975 Y-1.0031
X0.8705 Y-1.0189
X0.8415 Y-1.0307
X0.8114 Y-1.0392
X0.7912 Y-1.0431
X0.7783 Y-1.0469
X0.7665 Y-1.0532
X0.756 Y-1.0617
X0.751 Y-1.0666
X0.745 Y-1.0722
X0.7439 Y-1.0731
X0.7368 Y-1.0782
X0.7297 Y-1.0828
X0.7231 Y-1.0864
X0.7155 Y-1.0898
X0.7084 Y-1.0923
X0.7044 Y-1.0935
X0.6871 Y-1.0982
G3 X0.6747 Y-1.1216 Z0.158 I0.0055 J-0.0179
G1 X0.6748 Y-1.122
G3 X0.6871 Y-1.1341 I0.0178 J0.0059 F200.
G1 X0.8505 Y-1.1544
X0.886 Y-1.1462
X0.9357 Y-1.1255
X0.9392 Y-1.1238
X0.9427 Y-1.122
X0.9925 Y-1.0852
X0.9994 Y-1.0793
G3 X1.0067 Y-1.0722 I-0.0569 J0.0661
G1 X1.0493 Y-1.0152
X1.071 Y-0.9656
X1.0808 Y-0.9087
X1.0787 Y-0.7452
X1.0715 Y-0.682
X1.0554 Y-0.6386
X1.0332 Y-0.6031
X0.9854 Y-0.557
X0.9428 Y-0.5346
X0.8843 Y-0.5195
X0.8363 Y-0.519
X0.8008 Y-0.528
X0.6871 Y-0.595
G3 X0.6774 Y-0.6904 I0.0347 J-0.0517
G1 X0.6777 Y-0.6907 F40.
G3 X0.6942 Y-0.7026 Z0.1524 I0.0442 J0.0439
G1 X0.7025 Y-0.706 Z0.15
X0.7084 Y-0.7077
X0.7155 Y-0.7102
X0.7212 Y-0.7127
X0.7268 Y-0.7149
X0.7326 Y-0.7163
X0.7386 Y-0.7169
X0.7446 Y-0.7168
X0.7506 Y-0.7163
X0.7565 Y-0.7153
X0.7623 Y-0.7138
X0.768 Y-0.712
X0.7753 Y-0.7092
X0.7829 Y-0.7073
X0.7907 Y-0.7063
X0.7985 Y-0.7061
X0.8063 Y-0.7068
X0.8139 Y-0.7084
X0.8214 Y-0.7109
X0.8356 Y-0.7175
X0.8607 Y-0.7361
X0.88 Y-0.7607
X0.8939 Y-0.7888
X0.9034 Y-0.8186
X0.909 Y-0.8494
X0.9074 Y-0.8806
X0.8974 Y-0.9103
X0.8803 Y-0.9365
X0.8578 Y-0.9583
X0.8318 Y-0.9757
X0.8197 Y-0.9823
X0.8104 Y-0.9884
X0.8025 Y-0.9962
X0.7961 Y-1.0052
X0.7916 Y-1.0154
X0.788 Y-1.0225
X0.784 Y-1.0296
X0.7793 Y-1.0367
X0.7735 Y-1.0438
X0.7723 Y-1.0451
X0.7669 Y-1.0509
X0.756 Y-1.0617
G3 X0.7568 Y-1.0882 Z0.158 I0.0136 J-0.0129
G1 X0.7571 Y-1.0884
G3 X0.7723 Y-1.0931 I0.0126 J0.0139 F200.
G1 X0.9073 Y-1.0599
G3 X0.9489 Y-1.0367 I-0.0154 J0.0764
G1 X0.9794 Y-1.0011
X1.003 Y-0.9628
X1.0213 Y-0.9158
X1.0281 Y-0.8661
X1.0224 Y-0.8021
X0.9987 Y-0.731
X0.97 Y-0.6813
X0.9309 Y-0.64
X0.8931 Y-0.6135
X0.8505 Y-0.6054
X0.7581 Y-0.5952
G3 X0.6871 Y-0.667 I-0.0096 J-0.0616
G1 Y-0.6671
G3 X0.6985 Y-0.6938 I0.0614 J0.0104
G1 X0.6987 Y-0.6941 F40.
G3 X0.7212 Y-0.7127 Z0.15 I0.0498 J0.0374
G1 X0.7226 Y-0.7133
X0.7293 Y-0.7168
X0.7368 Y-0.7215
X0.7419 Y-0.7247
X0.7714 Y-0.7353
X0.798 Y-0.7516
X0.8205 Y-0.7734
X0.8373 Y-0.7999
X0.844 Y-0.8304
X0.8401 Y-0.8615
X0.8282 Y-0.8904
X0.8166 Y-0.9094
X0.8112 Y-0.9204
X0.8078 Y-0.9321
X0.8065 Y-0.9443
G3 X0.8256 Y-0.9627 Z0.158 I0.0187 J0.0004
G1 X0.826
G3 X0.8434 Y-0.9488 I-0.0008 J0.0187 F200.
G1 X0.869 Y-0.8376
X0.8613 Y-0.8021
X0.8193 Y-0.667
G3 X0.7543 Y-0.6315 I-0.0499 J-0.0141
X0.7201 Y-0.6973 I0.0151 J-0.0496
G1 X0.7202 Y-0.6977 F40.
G3 X0.7368 Y-0.7215 Z0.15 I0.0492 J0.0165
G1 X0.7439 Y-0.7268
X0.7486 Y-0.731
X0.7652 Y-0.7475
X0.7701 Y-0.7523
X0.7763 Y-0.7595
X0.7794 Y-0.7635
X0.7816 Y-0.7666
X0.786 Y-0.7737
X0.7898 Y-0.7808
X0.7928 Y-0.7879
X0.7936 Y-0.7899
X0.7992 Y-0.8092
X0.801 Y-0.8163
X0.8044 Y-0.8305
X0.8054 Y-0.8376
X0.8063 Y-0.8519
X0.8065 Y-0.859
Y-0.9455
X0.8064 Y-0.9514
X0.8061 Y-0.9585
X0.8052 Y-0.9656
X0.8038 Y-0.9727
X0.8002 Y-0.9869
X0.7983 Y-0.994
X0.7936 Y-1.0093
X0.7916 Y-1.0154
G3 X0.804 Y-1.0388 Z0.158 I0.0179 J-0.0055
G1 X0.8044 Y-1.0389
G3 X0.8261 Y-1.0296 I0.0051 J0.018 F200.
G1 X0.8979 Y-0.8661
X1.1264 Y-0.2548
G3 X1.0204 Y-0.1927 I-0.0583 J0.022
G1 X1.0201 Y-0.193 F40.
G3 X1.0073 Y-0.2192 Z0.15 I0.048 J-0.0397
G1 X1.0067 Y-0.2225
X1.0057 Y-0.2263
X1.0037 Y-0.2334
X1.0009 Y-0.2405
X0.9996 Y-0.2435
X0.9976 Y-0.2477
X0.9936 Y-0.2548
X0.9925 Y-0.2563
X0.9894 Y-0.2615
X0.9868 Y-0.2669
X0.9838 Y-0.2741
X0.9799 Y-0.2809
X0.9754 Y-0.2873
X0.9701 Y-0.293
X0.9642 Y-0.2982
X0.9578 Y-0.3026
X0.9509 Y-0.3063
X0.9436 Y-0.3092
X0.936 Y-0.3112
X0.9283 Y-0.3124
X0.897 Y-0.3135
X0.8755 Y-0.3068
X0.8688 Y-0.3051
X0.862 Y-0.3041
X0.8551 Y-0.3038
G3 X0.8371 Y-0.3231 Z0.158 I0.0007 J-0.0187
G1 Y-0.3235
G3 X0.8622 Y-0.3401 I0.0187 J0.0011 F200.
G1 X1.0141 Y-0.285
G3 X1.019 Y-0.2524 I-0.0064 J0.0176
G1 X1.0187 Y-0.2522 F40.
G3 X0.9925 Y-0.2563 Z0.15 I-0.011 J-0.0152
G1 X0.9888 Y-0.2619
X0.9829 Y-0.269
X0.9783 Y-0.2739
X0.9712 Y-0.2802
X0.9673 Y-0.2832
X0.9641 Y-0.2855
X0.957 Y-0.2897
X0.9499 Y-0.2937
X0.9428 Y-0.2968
X0.941 Y-0.2974
X0.9357 Y-0.2991
X0.9286 Y-0.301
X0.9215 Y-0.3024
X0.9073 Y-0.3033
X0.9002 Y-0.3038
X0.7515
X0.751 Z0.1501
X0.7489 Y-0.304 Z0.1507
X0.7468 Y-0.3045 Z0.1513
X0.7439 Y-0.3056 Z0.1522
X0.7413 Y-0.3072 Z0.153
X0.7389 Y-0.3092 Z0.1539
X0.7369 Y-0.3116 Z0.1548
X0.7342 Y-0.3236 Z0.1584
X0.7341 Y-0.3239
X0.7337 Y-0.3258 F200.
X0.9181 Y-0.7523 Z0.2248
X0.9325 Y-0.8092 Z0.2364
X0.9367 Y-0.9016 Z0.2538
X0.9353 Y-0.9747 Z0.266
X0.929 Y-1.0082 Z0.2711
G2 X0.8292 Y-1.086 Z0.2846 I-0.0962 J0.0206
G1 X0.7651 Y-1.0814 Z0.2869
X0.7553 Y-1.0807 Z0.2873 F40.
X0.7355 Y-1.0793 Z0.28
X0.7043
X0.688 Y-1.0762
X0.6646 Y-1.0729
X0.6335 Y-1.07
X0.6022 Y-1.0684
X0.571 Y-1.0675
X0.5397 Y-1.067
X0.5084 Y-1.0667
X0.4771 Y-1.0665
X0.4458 Y-1.0664
X0.3832 Y-1.0663
X0.3206
X0.2893 Y-1.0656
X0.2583 Y-1.0619
X0.2286 Y-1.0519
X0.2023 Y-1.0349
X0.1811 Y-1.0119
X0.1656 Y-0.9847
X0.1549 Y-0.9553
X0.1478 Y-0.9249
X0.144 Y-0.8938
X0.1444 Y-0.8625
X0.152 Y-0.8322
X0.1671 Y-0.8048
X0.1889 Y-0.7823
X0.2154 Y-0.7657
X0.2445 Y-0.754
X0.2748 Y-0.7463
X0.3057 Y-0.7414
X0.3368 Y-0.7383
X0.3681 Y-0.7364
X0.3993 Y-0.7353
X0.4306 Y-0.7347
X0.4619 Y-0.7343
X0.4932 Y-0.7341
X0.5245 Y-0.7339
X0.5871 Y-0.7338
X0.6184 Y-0.7346
X0.6494 Y-0.7387
X0.6789 Y-0.749
X0.7049 Y-0.7665
X0.7257 Y-0.7899
X0.7408 Y-0.8173
X0.7512 Y-0.8468
X0.7581 Y-0.8773
X0.7617 Y-0.9084
X0.7614 Y-0.9162
X0.7603 Y-0.924
X0.7564 Y-0.9391
X0.7418 Y-0.9668
X0.719 Y-0.9883
X0.6917 Y-1.0035
X0.6621 Y-1.0137
X0.6315 Y-1.0201
X0.6004 Y-1.0239
X0.5692 Y-1.0261
X0.5379 Y-1.0273
X0.5067 Y-1.028
X0.4754 Y-1.0284
X0.4441 Y-1.0285
X0.4128 Y-1.0286
X0.3815 Y-1.0287
X0.3502 Y-1.0286
X0.3189 Y-1.0274
X0.2887 Y-1.0194
X0.2614 Y-1.004
X0.2386 Y-0.9826
X0.2207 Y-0.9569
X0.2149 Y-0.9424
X0.2114 Y-0.9271
X0.2109 Y-0.9115
X0.2157 Y-0.8805
X0.2305 Y-0.853
X0.2522 Y-0.8304
X0.2783 Y-0.8131
X0.3069 Y-0.8005
X0.3369 Y-0.7916
X0.3676 Y-0.7856
X0.3987 Y-0.7816
X0.4298 Y-0.779
X0.4611 Y-0.7774
X0.4924 Y-0.7763
X0.5236 Y-0.7757
X0.5549 Y-0.7754
X0.5862 Y-0.7767
X0.6167 Y-0.7838
X0.6441 Y-0.7989
X0.6671 Y-0.8202
X0.671 Y-0.8269
X0.6741 Y-0.8341
X0.6764 Y-0.8415
X0.6779 Y-0.8492
X0.6785 Y-0.857
X0.6781 Y-0.8649
X0.6769 Y-0.8726
X0.6728 Y-0.8877
X0.6579 Y-0.9152
X0.6357 Y-0.9373
X0.6092 Y-0.9538
X0.5802 Y-0.9656
X0.5499 Y-0.9736
X0.5191 Y-0.979
X0.488 Y-0.9824
X0.4568 Y-0.9845
X0.4255 Y-0.9858
X0.3942 Y-0.9865
X0.363 Y-0.9847
X0.3556 Y-0.9823
X0.3485 Y-0.979
X0.3418 Y-0.9749
X0.3356 Y-0.9701
X0.33 Y-0.9646
X0.3251 Y-0.9585
X0.3209 Y-0.9519
X0.3175 Y-0.9449
X0.3149 Y-0.9375
X0.3131 Y-0.9299
X0.3123 Y-0.9221
Y-0.9143
X0.3132 Y-0.9065
X0.315 Y-0.8989
X0.3176 Y-0.8915
X0.3211 Y-0.8845
X0.3253 Y-0.8779
X0.3303 Y-0.8719
X0.3359 Y-0.8664
X0.3607 Y-0.8473
X0.3902 Y-0.837
X0.4207 Y-0.8298
X0.4516 Y-0.8249
X0.4827 Y-0.8216
X0.4866 Y-0.8214
X0.4977 Y-0.8163 Z0.2833
X0.5035 Y-0.8021 Z0.2877
X0.5026 Y-0.8004 Z0.2882
X0.5025 Y-0.8001
X0.4954 Y-0.7871 Z0.2885 F200.
X0.0168 Y-0.3756 Z0.3363
G2 X-0.0119 Y-0.3309 Z0.3377 I0.0653 J0.0736
G1 X-0.0125 Y-0.3288 Z0.3378 F40.
X-0.0133 Y-0.3258 Z0.337
X-0.0192 Y-0.302 Z0.33
Y-0.2984
X-0.035 Y-0.2714
X-0.0464 Y-0.2422
X-0.0546 Y-0.212
X-0.0625 Y-0.1818
X-0.0676 Y-0.1509
X-0.0708 Y-0.1198
X-0.0727 Y-0.0885
X-0.0738 Y-0.0572
X-0.074 Y-0.0494
X-0.0733 Y-0.0416
X-0.0701 Y-0.0263
X-0.0574 Y0.0023
X-0.0362 Y0.0253
X-0.01 Y0.0424
X0.0189 Y0.0544
X0.0492 Y0.0625
X0.08 Y0.0676
X0.1112 Y0.0708
X0.1424 Y0.0727
X0.1737 Y0.0739
X0.2049 Y0.0746
X0.2362 Y0.075
X0.2675 Y0.0752
X0.2988 Y0.0754
X0.3614 Y0.0755
X0.5179
X0.7369
X0.768 Y0.0722
X0.7992 Y0.0697
X0.8305 Y0.0682
X0.8617 Y0.0672
X0.8766 Y0.0623
X0.9041 Y0.0474
X0.9258 Y0.0248
X0.9417 Y-0.0021
X0.9527 Y-0.0314
X0.96 Y-0.0619
X0.9647 Y-0.0928
X0.9675 Y-0.124
X0.9683 Y-0.1396
X0.9669 Y-0.1552
X0.9623 Y-0.1701
X0.9476 Y-0.1978
X0.9252 Y-0.2196
X0.8984 Y-0.2357
X0.8692 Y-0.2469
X0.8388 Y-0.2543
X0.8078 Y-0.259
X0.7767 Y-0.2619
X0.7454 Y-0.2637
X0.7142 Y-0.2648
X0.6829 Y-0.2654
X0.6516 Y-0.2657
X0.6203 Y-0.266
X0.589 Y-0.2661
X0.5577
X0.4638 Y-0.2662
X0.0883
X0.0588 Y-0.2559
X0.0333 Y-0.2377
X0.0127 Y-0.2142
X-0.003 Y-0.1871
X-0.0145 Y-0.158
X-0.0226 Y-0.1278
X-0.0261 Y-0.0967
X-0.0192 Y-0.0662
X-0.0034 Y-0.0392
X0.0187 Y-0.017
X0.045 Y0.
X0.0736 Y0.0125
X0.1037 Y0.0213
X0.1344 Y0.0273
X0.1654 Y0.0312
X0.1966 Y0.0338
X0.2279 Y0.0354
X0.2591 Y0.0364
X0.2904 Y0.0371
X0.3217 Y0.0374
X0.353 Y0.0377
X0.3843 Y0.0378
X0.4469 Y0.038
X0.5721
X0.6659
X0.6972 Y0.0377
X0.7285 Y0.0362
X0.7597 Y0.0344
X0.791 Y0.0328
X0.8217 Y0.0267
X0.8495 Y0.0123
X0.8728 Y-0.0086
X0.8912 Y-0.0339
X0.9049 Y-0.062
X0.908 Y-0.0773
X0.9082 Y-0.093
X0.9029 Y-0.1238
X0.8879 Y-0.1513
X0.8662 Y-0.1738
X0.8401 Y-0.191
X0.8114 Y-0.2036
X0.7814 Y-0.2124
X0.7506 Y-0.2183
X0.7196 Y-0.2222
X0.6883 Y-0.2233
X0.657 Y-0.224
X0.6257 Y-0.2245
X0.5944 Y-0.2248
X0.5632 Y-0.225
X0.5319 Y-0.2252
X0.4693 Y-0.2253
X0.3441 Y-0.2254
X0.1564
X0.1256 Y-0.2198
X0.0973 Y-0.2063
X0.0732 Y-0.1864
X0.069 Y-0.1798
X0.0655 Y-0.1728
X0.0629 Y-0.1654
X0.0611 Y-0.1578
X0.0602 Y-0.15
X0.0601 Y-0.1344
X0.0665 Y-0.1037
X0.0828 Y-0.077
X0.1055 Y-0.0554
X0.1321 Y-0.0391
X0.1611 Y-0.0272
X0.1913 Y-0.0189
X0.222 Y-0.0133
X0.2531 Y-0.0095
X0.2843 Y-0.0071
X0.3156 Y-0.0055
X0.3468 Y-0.0045
X0.3781 Y-0.0039
X0.4094 Y-0.0035
X0.4407 Y-0.0032
X0.472 Y-0.0031
X0.5346 Y-0.0029
X0.5972
X0.6285
X0.6598 Y-0.0032
X0.691 Y-0.004
X0.7223 Y-0.0052
X0.7535 Y-0.008
X0.7683 Y-0.0129
X0.7752 Y-0.0167
X0.7815 Y-0.0213
X0.7873 Y-0.0266
X0.7925 Y-0.0324
X0.7969 Y-0.0389
X0.8006 Y-0.0458
X0.8035 Y-0.053
X0.8056 Y-0.0606
X0.8068 Y-0.0683
X0.8071 Y-0.0761
X0.8065 Y-0.0839
X0.805 Y-0.0916
X0.8026 Y-0.0991
X0.7995 Y-0.1062
X0.7955 Y-0.113
X0.7908 Y-0.1192
X0.7692 Y-0.1419
X0.7413 Y-0.1561
X0.7116 Y-0.1659
X0.6811 Y-0.1726
X0.6501 Y-0.177
X0.6189 Y-0.1798
X0.5877 Y-0.1815
X0.5564 Y-0.1827
X0.5251 Y-0.1834
X0.4938 Y-0.1838
X0.4625 Y-0.1841
X0.4312 Y-0.1842
X0.3687 Y-0.1844
X0.2435 Y-0.1845
X0.2357
G3 X0.2176 Y-0.2052 I0.0006 J-0.0187
G1 X0.2179 Y-0.2085 Z0.3303
X0.2183 Y-0.2116 Z0.3311
X0.2186 Y-0.2145 Z0.3325
X0.2189 Y-0.2172 Z0.3344
X0.2191 Y-0.2195 Z0.3367
X0.2193 Y-0.2214 Z0.3394
X0.2195 Y-0.2227 Z0.3423
X0.2196 Y-0.2236 Z0.3455
Y-0.2239 Z0.3488
G0 Z1.09
(2D CONTOUR5)
G64 P0.0004 Q0.0004
G0 X0.0522 Y-0.8606
Z1.09
Z0.69
G1 Z0.5275 F80.
Z0.1687
X0.0524 Z0.1655 F40.
X0.0533 Y-0.8607 Z0.1623
X0.0547 Z0.1594
X0.0565 Y-0.8608 Z0.1567
X0.0589 Y-0.8609 Z0.1544
X0.0615 Y-0.861 Z0.1525
X0.0645 Y-0.8611 Z0.1511
X0.0676 Y-0.8613 Z0.1503
X0.0709 Y-0.8614 Z0.15
X0.0896 Y-0.8621
G3 X0.1091 Y-0.8442 I0.0008 J0.0187
G2 X0.2528 Y-0.7062 I0.1436 J-0.0058
G1 X0.6528
G2 X0.7965 Y-0.85 I0. J-0.1438
G1 Y-0.95
G2 X0.6528 Y-1.0938 I-0.1438 J0.
G1 X0.2528
G2 X0.109 Y-0.95 I0. J0.1438
G1 Y-0.85
G2 X0.2528 Y-0.7062 I0.1438 J0.
G1 X0.6528
G2 X0.7965 Y-0.85 I0. J-0.1438
G1 Y-0.95
G2 X0.6528 Y-1.0938 I-0.1438 J0.
G1 X0.2528
G2 X0.109 Y-0.95 I0. J0.1438
G1 Y-0.85
X0.1091 Y-0.8442
G3 X0.0911 Y-0.8247 I-0.0187 J0.0008
G1 X0.0724 Y-0.8239
X0.0692 Y-0.8238 Z0.1503
X0.066 Y-0.8237 Z0.1511
X0.063 Y-0.8235 Z0.1525
X0.0604 Y-0.8234 Z0.1544
X0.0581 Y-0.8233 Z0.1567
X0.0562 Z0.1594
X0.0548 Y-0.8232 Z0.1623
X0.054 Z0.1655
X0.0537 Z0.1687
G0 Z0.69
X0.9243 Y-0.35
G1 Z0.5275 F80.
Z0.1687
G19 G3 Y-0.3312 Z0.15 J0.0188 K0. F40.
G1 Y-0.3125
G17 G3 X0.9055 Y-0.2937 I-0.0187 J0.
G1 X0.
G3 X-0.0187 Y-0.3125 I0. J-0.0188
G1 Y-0.3312
G19 G2 Y-0.35 Z0.1687 J0. K0.0188
G0 Z0.69
X0.9243
G1 Z0.5275 F80.
Z0.1687
G3 Y-0.3312 Z0.15 J0.0188 K0. F40.
G1 Y-0.3125
G17 G3 X0.9055 Y-0.2937 I-0.0187 J0.
G1 X0.
G3 X-0.0187 Y-0.3125 I0. J-0.0188
G1 Y-0.3312
G19 G2 Y-0.35 Z0.1687 J0. K0.0188
G0 Z1.09
G17
M5
G53 G0 Z-0.6
(2D CHAMFER2)
M9
M1
T11 M6
T32
S7500 M3
G17 G90 G94
G55
M8
G0 X0.9055 Y-0.2625
G43 Z1.09 H11
G0 Z0.69
G1 Z0.57 F80.
Z0.275
Y-0.25 F20.
X0.
G2 X-0.05 Y-0.2 I0. J0.05
G1 Y0.
G2 X0. Y0.05 I0.05 J0.
G1 X0.9055
G2 X0.9555 Y0. I0. J-0.05
G1 Y-0.2
G2 X0.9055 Y-0.25 I-0.05 J0.
G1 Y-0.2625
G0 Z1.09
X0.2528 Y-0.7375
Z0.69
G1 Z0.57 F80.
Z0.225
Y-0.75 F20.
X0.6528
G2 X0.7528 Y-0.85 I0. J-0.1
G1 Y-0.95
G2 X0.6528 Y-1.05 I-0.1 J0.
G1 X0.2528
G2 X0.1528 Y-0.95 I0. J0.1
G1 Y-0.85
G2 X0.2528 Y-0.75 I0.1 J0.
G1 Y-0.7375
G0 Z1.09
X0.2648 Y-0.7373
Z0.69
G1 Z0.57 F80.
Z0.095
X0.2773 Y-0.7365 F20.
G3 X0.1467 Y-0.5622 I-0.1995 J-0.0135
G2 X-0.05 Y-0.2806 I0.1033 J0.2816
G1 Y-0.2392
X-0.0625
G0 Z0.69
X0.968
G1 Z0.57 F80.
Z0.095
X0.9555 F20.
Y-0.2806
G2 X0.7589 Y-0.5622 I-0.3 J0.
G3 X0.6282 Y-0.7365 I0.0689 J-0.1878
G1 X0.6407 Y-0.7373
G0 Z1.09
M5
M9
G53 G0 Z-0.6
M30
%
