%
(OP1)
(MACHINE)
(  VENDOR CALLUM)
(  MODEL MILL R1)
(  DESCRIPTION 14X8X14 MILL)
(T12 D=0.2362 CR=0. TAPER=45DEG - ZMIN=-0.11 - CHAMFER MILL)
(T36 D=0.375 CR=0. - ZMIN=-1.073 - FLAT END MILL)
G90 G94 G17 G91.1
G20
G53 G0 Z-0.6
(FACE1)
T36 M6
T12
S5000 M3
G17 G90 G94
G54
G64 P0.0004 Q0.0004
M8
G0 X0.4844 Y-0.3714
G43 Z0.6 H36
G0 Z0.2
G1 Z0.0275 F80.
G18 G3 X0.4469 Z-0.01 I-0.0375 K0. F50.
G1 X0.4267
X-0.4267
X-0.475
G17 G2 Y-0.1828 I0. J0.0943
G1 X0.475
G3 Y0.0058 I0. J0.0943
G1 X-0.475
G2 Y0.1944 I0. J0.0943
G1 X-0.4748
X0.4748
G18 G2 X0.5123 Z0.0275 I0. K0.0375
G0 Z0.6
G17
(2D CONTOUR1)
G0 X-0.0375 Y0.6327
Z0.6
Z0.2
G1 Z0.0394 F80.
Z-1.0355
G19 G2 Y0.5952 Z-1.073 J-0.0375 K0. F40.
G1 Y0.5577
G17 G3 X0. Y0.5202 I0.0375 J0.
G2 Y-0.5202 I0. J-0.5202
Y0.5202 I0. J0.5202
Y-0.5202 I0. J-0.5202
Y0.5202 I0. J0.5202
G3 X0.0375 Y0.5577 I0. J0.0375
G1 Y0.5952
G19 G3 Y0.6327 Z-1.0355 J0. K0.0375
G0 Z0.6
G17
M5
G53 G0 Z-0.6
(2D CHAMFER1)
M9
M1
T12 M6
T36
S7500 M3
G17 G90 G94
G54
M8
G0 X0. Y-0.3963
G43 Z0.6 H12
G0 Z0.2
G1 Z0.08 F80.
Z-0.11
Y-0.3727 F30.
G2 Y0.3727 I0. J0.3727
Y-0.3727 I0. J-0.3727
G1 Y-0.3963
G0 Z0.6
M5
M9
G53 G0 Z-0.6
M30
%
