%
(OP2)
(T12 D=0.2362 CR=0. TAPER=45DEG - ZMIN=-0.08 - CHAMFER MILL)
(T36 D=0.375 CR=0. - ZMIN=0. - FLAT END MILL)
(T101 D=0.1 CR=0. TAPER=135DEG - ZMIN=-0.315 - DRILL)
(T103 D=0.3 CR=0. TAPER=135DEG - ZMIN=-1.063 - DRILL)
G90 G94 G17 G91.1
G20
G53 G0 Z0.
(ADAPTIVE1)
T36 M6
T103
S5000 M3
G17 G90 G94
G54
G64 P0.004 Q0.004
M8
G0 X-0.4134 Y-0.6599
G43 Z0.9483 H36
G0 Z0.075
G1 Z0.0375 F40.
X-0.4133 Y-0.6596 Z0.033
X-0.4131 Y-0.6588 Z0.0285
X-0.4128 Y-0.6575 Z0.0242
X-0.4123 Y-0.6557 Z0.0201
X-0.4117 Y-0.6535 Z0.0162
X-0.411 Y-0.6508 Z0.0126
X-0.4103 Y-0.6477 Z0.0094
X-0.4094 Y-0.6442 Z0.0066
X-0.4084 Y-0.6404 Z0.0043
X-0.4074 Y-0.6364 Z0.0024
X-0.4063 Y-0.6323 Z0.0011
X-0.4052 Y-0.6279 Z0.0003
X-0.4041 Y-0.6236 Z0.
G3 X-0.3747 Y-0.4194 I-0.9274 J0.2376
X-0.3775 Y-0.367 I-0.2205 J0.0146
G1 X-0.3825 Y-0.3411
X-0.3933 Y-0.2981
G2 X-0.4372 Y-0.1262 I1.3808 J0.4438
G1 X-0.4425 Y-0.0822
X-0.4447 Y-0.0378
X-0.4432 Y0.0065
X-0.4382 Y0.0506
X-0.4289 Y0.094
X-0.416 Y0.1365
X-0.3991 Y0.1775
X-0.3782 Y0.2166
X-0.3538 Y0.2537
X-0.3257 Y0.288
X-0.2945 Y0.3196
X-0.2603 Y0.3478
X-0.2232 Y0.3722
X-0.184 Y0.393
X-0.1429 Y0.4098
X-0.1004 Y0.4222
X-0.0567 Y0.43
X-0.0124 Y0.4334
X0.0319 Y0.4322
X0.0759 Y0.4265
X0.1191 Y0.4163
X0.1611 Y0.402
X0.2014 Y0.3835
X0.2396 Y0.3608
X0.2752 Y0.3343
X0.308 Y0.3044
X0.3376 Y0.2714
X0.3635 Y0.2354
X0.3858 Y0.197
X0.4041 Y0.1566
X0.418 Y0.1144
X0.4274 Y0.0711
X0.4326 Y0.027
X0.4328 Y-0.0174
X0.4288 Y-0.0616
X0.42 Y-0.1051
X0.4072 Y-0.1476
X0.3901 Y-0.1885
X0.3686 Y-0.2273
X0.3435 Y-0.2639
X0.3146 Y-0.2976
X0.2826 Y-0.3283
X0.2476 Y-0.3555
X0.2099 Y-0.379
X0.17 Y-0.3985
X0.1284 Y-0.4139
X0.0854 Y-0.4248
X0.0415 Y-0.4313
X-0.0028 Y-0.4331
X-0.0471 Y-0.4306
X-0.0909 Y-0.4233
X-0.1313 Y-0.4049
X-0.1675 Y-0.3792
X-0.1995 Y-0.3485
X-0.2275 Y-0.3141
X-0.252 Y-0.2771
X-0.2728 Y-0.2379
X-0.29 Y-0.197
X-0.3033 Y-0.1547
X-0.3124 Y-0.1112
X-0.317 Y-0.0671
X-0.3168 Y-0.0227
X-0.3114 Y0.0213
X-0.3009 Y0.0644
X-0.2849 Y0.1058
X-0.2638 Y0.1448
X-0.2375 Y0.1806
X-0.2067 Y0.2125
X-0.1715 Y0.2396
X-0.1329 Y0.2615
X-0.0915 Y0.2774
X-0.0482 Y0.2871
X-0.0039 Y0.2903
X0.0403 Y0.2868
X0.0835 Y0.2768
X0.1248 Y0.2604
X0.163 Y0.2379
X0.1975 Y0.21
X0.2272 Y0.177
X0.2516 Y0.14
X0.2699 Y0.0996
X0.282 Y0.0568
X0.2872 Y0.0128
X0.2857 Y-0.0316
X0.275 Y-0.0746
X0.2583 Y-0.1157
X0.2357 Y-0.1539
X0.2076 Y-0.1882
X0.1746 Y-0.2179
X0.1374 Y-0.2421
X0.0961 Y-0.2585
X0.0519 Y-0.2626
X0.0082 Y-0.2554
X-0.0328 Y-0.2382
X-0.0692 Y-0.2129
X-0.0997 Y-0.1807
X-0.123 Y-0.1429
X-0.1377 Y-0.101
X-0.1421 Y-0.0569
X-0.1346 Y-0.0131
G2 X-0.0817 Y0.042 I0.1101 J-0.0527
G1 X-0.078 Y0.0444
X-0.0746 Y0.0472
X-0.0716 Y0.0504
X-0.069 Y0.054
X-0.0668 Y0.0578
X-0.065 Y0.0618
X-0.0638 Y0.0661
X-0.0628 Y0.0705 Z0.0003
X-0.0618 Y0.0748 Z0.0011
X-0.0608 Y0.079 Z0.0024
X-0.0599 Y0.0831 Z0.0043
X-0.059 Y0.0868 Z0.0066
X-0.0582 Y0.0903 Z0.0094
X-0.0575 Y0.0934 Z0.0126
X-0.0569 Y0.0962 Z0.0162
X-0.0564 Y0.0984 Z0.0201
X-0.056 Y0.1003 Z0.0242
X-0.0557 Y0.1016 Z0.0285
X-0.0555 Y0.1024 Z0.033
X-0.0554 Y0.1026 Z0.0375
G0 Z0.9483
M5
G53 G0 Z0.
(DRILL2)
M9
M1
T103 M6
T101
S3000 M3
G17 G90 G94
G54
M8
G0 X0. Y0.
G43 Z0.9483 H103
G0 Z0.5483
Z0.2
Z0.08
G1 Z-0.2 F10.
G0 Z0.2
Z-0.12
G1 Z-0.4 F10.
G0 Z0.2
Z-0.32
G1 Z-0.6 F10.
G0 Z0.2
Z-0.52
G1 Z-0.8 F10.
G0 Z0.2
Z-0.72
G1 Z-1. F10.
G0 Z0.2
Z-0.92
G1 Z-1.063 F10.
G4 P0.05
G0 Z0.5483
Z0.9483
M5
G53 G0 Z0.
(DRILL3)
M9
M1
T101 M6
T12
S5000 M3
G17 G90 G94
G54
M8
G0 X-0.2598 Y0.
G43 Z0.9483 H101
G0 Z0.5483
Z0.2
Z0.08
G1 Z-0.06 F15.
G0 Z0.2
Z0.02
G1 Z-0.12 F15.
G0 Z0.2
Z-0.04
G1 Z-0.18 F15.
G0 Z0.2
Z-0.1
G1 Z-0.24 F15.
G0 Z0.2
Z-0.16
G1 Z-0.3 F15.
G0 Z0.2
Z-0.22
G1 Z-0.315 F15.
G4 P0.05
G0 Z0.5483
X0.2598
Z0.2
Z0.08
G1 Z-0.06 F15.
G0 Z0.2
Z0.02
G1 Z-0.12 F15.
G0 Z0.2
Z-0.04
G1 Z-0.18 F15.
G0 Z0.2
Z-0.1
G1 Z-0.24 F15.
G0 Z0.2
Z-0.16
G1 Z-0.3 F15.
G0 Z0.2
Z-0.22
G1 Z-0.315 F15.
G4 P0.05
G0 Z0.5483
Z0.9483
M5
G53 G0 Z0.
(2D CHAMFER1 2)
M9
M1
T12 M6
T36
S7500 M3
G17 G90 G94
G54
G64 P0.0004 Q0.0004
M8
G0 X0.0926 Y0.
G43 Z0.9483 H12
G0 Z0.5483
G1 Z0.4283 F80.
Z-0.08
X0.1162 F30.
G3 X-0.1162 I-0.1162 J0.
X0.1162 I0.1162 J0.
G1 X0.0926
G0 Z0.9483
(2D CHAMFER1 3)
G0 X0. Y-0.4576
Z0.9483
Z0.5483
G1 Z0.4283 F80.
Z-0.075
Y-0.434 F40.
G2 Y0.434 I0. J0.434
Y-0.434 I0. J-0.434
G1 Y-0.4576
G0 Z0.9483
M5
M9
G53 G0 Z0.
M30
%
