%
(8 MM ID SPACERS)
(T33 D=0.25 CR=0. - ZMIN=-0.9921 - FLAT END MILL)
(T54 D=0.3125 CR=0. TAPER=118DEG - ZMIN=-0.686 - DRILL)
G90 G94 G17 G91.1
G20
G53 G0 Z0.
(FACE1)
T33 M6
T54
S7500 M3
G17 G90 G94
G54
G64 P0.0004 Q0.0004
M8
G0 X0.3615 Y-0.2056
G43 Z0.6 H33
G0 Z0.2
G1 Z0.0171 F80.
G18 G3 X0.3365 Z-0.0079 I-0.025 K0. F50.
G1 X-0.3365
G3 X-0.3615 Z0.0171 I0. K0.025
G0 Z0.2
X0.4105 Y-0.0381
G1 Z0.0171 F80.
G3 X0.3855 Z-0.0079 I-0.025 K0. F50.
G1 X0.35
X-0.35
G3 X-0.375 Z0.0171 I0. K0.025
G0 Z0.2
X0.39 Y0.1294
G1 Z0.0171 F80.
G3 X0.365 Z-0.0079 I-0.025 K0. F50.
G1 X0.3498
X-0.3498
G3 X-0.3748 Z0.0171 I0. K0.025
G0 Z0.6
G17
(2D CONTOUR1)
G0 X-0.025 Y0.4362
Z0.6
Z0.2
G1 Z0.0394 F80.
Z-0.4711
G19 G2 Y0.4112 Z-0.4961 J-0.025 K0. F50.
G1 Y0.3862
G17 G3 X0. Y0.3612 I0.025 J0.
G2 Y-0.3612 I0. J-0.3612
Y0.3612 I0. J0.3612
Y-0.3612 I0. J-0.3612
Y0.3612 I0. J0.3612
G3 X0.025 Y0.3862 I0. J0.025
G1 Y0.4112
G19 G3 Y0.4362 Z-0.4711 J0. K0.025
G0 Z0.2
X-0.025
G1 Z-0.4567 F80.
Z-0.9671
G2 Y0.4112 Z-0.9921 J-0.025 K0. F50.
G1 Y0.3862
G17 G3 X0. Y0.3612 I0.025 J0.
G2 Y-0.3612 I0. J-0.3612
Y0.3612 I0. J0.3612
Y-0.3612 I0. J-0.3612
Y0.3612 I0. J0.3612
G3 X0.025 Y0.3862 I0. J0.025
G1 Y0.4112
G19 G3 Y0.4362 Z-0.9671 J0. K0.025
G0 Z0.6
G17
M5
G53 G0 Z0.
(DRILL1)
M9
M1
T54 M6
T33
S5000 M3
G17 G90 G94
G54
M8
G0 X0. Y0.
G43 Z0.6 H54
G0 Z0.2
G98 G81 X0. Y0. Z-0.686 R0.1921 F40.
G80
G0 Z0.6
M5
M9
G53 G0 Z0.
M30
%
