%
(SS FIXTURE PLATE SETUP)
(T32 D=0.1875 CR=0. - ZMIN=-0.52 - FLAT END MILL)
(T51 D=0.201 CR=0. TAPER=118DEG - ZMIN=-0.6604 - DRILL)
G90 G94 G17 G91.1
G20
G53 G0 Z0.
(DRILL15)
T51 M6
T32
S5000 M3
G17 G90 G94
G54
M8
G0 X1.3344 Y-0.4724
G43 Z1.2982 H51
G0 Z0.8982
G98 G81 X1.3344 Y-0.4724 Z-0.6604 R0.2 F25.
X9.6021
G80
G0 Z1.2982
M5
G53 G0 Z0.
(2D CONTOUR23)
M9
M1
T32 M6
T51
S7500 M3
G17 G90 G94
G54
G64 P0.0004 Q0.0004
M8
G0 X1.358 Y-0.4783
G43 Z1.2981 H32
G0 Z0.2
G1 Z0.0375 F80.
Z-0.0867
G3 X1.3108 Y-0.4665 I-0.0236 J0.0059 F15.
X1.358 Y-0.4783 I0.0236 J-0.0059
X1.3108 Y-0.4665 I-0.0236 J0.0059
X1.358 Y-0.4783 I0.0236 J-0.0059
G1 Z-0.1733 F80.
G3 X1.3108 Y-0.4665 I-0.0236 J0.0059 F15.
X1.358 Y-0.4783 I0.0236 J-0.0059
X1.3108 Y-0.4665 I-0.0236 J0.0059
X1.358 Y-0.4783 I0.0236 J-0.0059
G1 Z-0.26 F80.
G3 X1.3108 Y-0.4665 I-0.0236 J0.0059 F15.
X1.358 Y-0.4783 I0.0236 J-0.0059
X1.3108 Y-0.4665 I-0.0236 J0.0059
X1.358 Y-0.4783 I0.0236 J-0.0059
G1 Z-0.3467 F80.
G3 X1.3108 Y-0.4665 I-0.0236 J0.0059 F15.
X1.358 Y-0.4783 I0.0236 J-0.0059
X1.3108 Y-0.4665 I-0.0236 J0.0059
X1.358 Y-0.4783 I0.0236 J-0.0059
G1 Z-0.4333 F80.
G3 X1.3108 Y-0.4665 I-0.0236 J0.0059 F15.
X1.358 Y-0.4783 I0.0236 J-0.0059
X1.3108 Y-0.4665 I-0.0236 J0.0059
X1.358 Y-0.4783 I0.0236 J-0.0059
G1 Z-0.52 F80.
G3 X1.3108 Y-0.4665 I-0.0236 J0.0059 F15.
X1.358 Y-0.4783 I0.0236 J-0.0059
X1.3108 Y-0.4665 I-0.0236 J0.0059
X1.358 Y-0.4783 I0.0236 J-0.0059
G0 Z0.8981
X9.6232 Y-0.4847
Z0.2
G1 Z0.0375 F80.
Z-0.0867
G3 X9.5811 Y-0.4602 I-0.0211 J0.0122 F15.
X9.6232 Y-0.4847 I0.0211 J-0.0122
X9.5811 Y-0.4602 I-0.0211 J0.0122
X9.6232 Y-0.4847 I0.0211 J-0.0122
G1 Z-0.1733 F80.
G3 X9.5811 Y-0.4602 I-0.0211 J0.0122 F15.
X9.6232 Y-0.4847 I0.0211 J-0.0122
X9.5811 Y-0.4602 I-0.0211 J0.0122
X9.6232 Y-0.4847 I0.0211 J-0.0122
G1 Z-0.26 F80.
G3 X9.5811 Y-0.4602 I-0.0211 J0.0122 F15.
X9.6232 Y-0.4847 I0.0211 J-0.0122
X9.5811 Y-0.4602 I-0.0211 J0.0122
X9.6232 Y-0.4847 I0.0211 J-0.0122
G1 Z-0.3467 F80.
G3 X9.5811 Y-0.4602 I-0.0211 J0.0122 F15.
X9.6232 Y-0.4847 I0.0211 J-0.0122
X9.5811 Y-0.4602 I-0.0211 J0.0122
X9.6232 Y-0.4847 I0.0211 J-0.0122
G1 Z-0.4333 F80.
G3 X9.5811 Y-0.4602 I-0.0211 J0.0122 F15.
X9.6232 Y-0.4847 I0.0211 J-0.0122
X9.5811 Y-0.4602 I-0.0211 J0.0122
X9.6232 Y-0.4847 I0.0211 J-0.0122
G1 Z-0.52 F80.
G3 X9.5811 Y-0.4602 I-0.0211 J0.0122 F15.
X9.6232 Y-0.4847 I0.0211 J-0.0122
X9.5811 Y-0.4602 I-0.0211 J0.0122
X9.6232 Y-0.4847 I0.0211 J-0.0122
G0 Z1.2981
M5
M9
G53 G0 Z0.
M30
%
