%
(SS OP3 - ROCKER END)
(T33 D=0.25 CR=0. - ZMIN=-0.0718 - FLAT END MILL)
(T51 D=0.201 CR=0. TAPER=118DEG - ZMIN=-0.0604 - DRILL)
(T72 D=0.1875 CR=0.0937 - ZMIN=0.2036 - BALL END MILL)
G90 G94 G17 G91.1
G20
G53 G0 Z0.
(2D CONTOUR24)
T33 M6
T51
S7500 M3
G17 G90 G94
G54
G64 P0.0004 Q0.0004
M8
G0 X0.4752 Y-0.4824
G43 Z2.6485 H33
G0 Z2.2485
G1 Z-0.0618 F80.
G18 G2 X0.4852 Z-0.0718 I0.01 K0. F5.
G1 X0.4952
G17 G3 X0.5052 Y-0.4724 I0. J0.01
X0.4397 I-0.0328 J0.
X0.5052 I0.0328 J0.
X0.4397 I-0.0328 J0.
X0.5052 I0.0328 J0.
X0.4952 Y-0.4624 I-0.01 J0.
G1 X0.4852
G18 G3 X0.4752 Z-0.0618 I0. K0.01
G0 Z2.6485
G17
(2D CONTOUR24 2)
G0 X1.4595 Y-0.4824
Z2.6485
Z2.2485
G1 Z0.4034 F80.
G18 G2 X1.4695 Z0.3934 I0.01 K0. F5.
G1 X1.4795
G17 G3 X1.4895 Y-0.4724 I0. J0.01
X1.3452 I-0.0722 J0.
X1.4895 I0.0722 J0.
X1.3452 I-0.0722 J0.
X1.4895 I0.0722 J0.
X1.4795 Y-0.4624 I-0.01 J0.
G1 X1.4695
G18 G3 X1.4595 Z0.4034 I0. K0.01
G0 Z2.6485
G17
(2D CONTOUR25)
G0 X0.5382 Y-0.4974
Z2.6485
Z2.2485
G1 Z2.0879 F80.
Z0.2612
G18 G2 X0.5632 Z0.2362 I0.025 K0. F20.
G1 X0.5882
G17 G3 X0.6132 Y-0.4724 I0. J0.025
X0.3317 I-0.1407 J0.
X0.6132 I0.1407 J0.
X0.3317 I-0.1407 J0.
X0.6132 I0.1407 J0.
X0.5882 Y-0.4474 I-0.025 J0.
G1 X0.5632
G18 G3 X0.5382 Z0.2612 I0. K0.025
G0 Z2.6485
G17
M5
G53 G0 Z0.
(DRILL20)
M9
M1
T51 M6
T72
S5000 M3
G17 G90 G94
G54
M8
G0 X1.4173 Y-0.4724
G43 Z2.6485 H51
G0 Z2.2485
G98 G81 X1.4173 Y-0.4724 Z-0.0604 R0.5937 F25.
G80
G0 Z2.6485
M5
G53 G0 Z0.
(2D CONTOUR31)
M9
M1
T72 M6
T33
S7500 M3
G17 G90 G94
G54
G64 P0.0004 Q0.0004
M8
G0 X0.5126 Y-0.4912
G43 Z2.6485 H72
G0 Z2.2485
G1 Z0.2223 F200.
G18 G2 X0.5313 Z0.2036 I0.0187 K0. F30.
G1 X0.5501
G17 G3 X0.5688 Y-0.4724 I0. J0.0187
X0.3761 I-0.0964 J0.
X0.5688 I0.0964 J0.
X0.3761 I-0.0964 J0.
X0.5688 I0.0964 J0.
X0.5501 Y-0.4537 I-0.0188 J0.
G1 X0.5313
G18 G3 X0.5126 Z0.2223 I0. K0.0188
G0 Z2.6485
G17
(SCALLOP7)
G0 X0.2165 Y-0.5046
Z2.6485
Z0.5946
G1 Z0.5272 F200.
Y-0.5049 Z0.5239 F30.
X0.2167 Y-0.5058 Z0.5207
X0.217 Y-0.5072 Z0.5177
X0.2174 Y-0.5091 Z0.5149
X0.2179 Y-0.5114 Z0.5126
X0.2185 Y-0.5141 Z0.5108
X0.2191 Y-0.5171 Z0.5094
X0.2198 Y-0.5203 Z0.5086
X0.2205 Y-0.5235 Z0.5085
X0.223 Y-0.5343 Z0.5088
X0.2252 Y-0.542 Z0.5089
X0.2282 Y-0.5522 Z0.5094
X0.23 Y-0.5574 Z0.5096
X0.2327 Y-0.5652 Z0.5101
X0.236 Y-0.5729 Z0.5105
X0.2395 Y-0.5806 Z0.5109
X0.2437 Y-0.5889 Z0.5114
X0.2477 Y-0.5961 Z0.5119
X0.252 Y-0.6038 Z0.5125
X0.2569 Y-0.6116 Z0.5131
X0.2621 Y-0.6193 Z0.5139
X0.268 Y-0.627 Z0.5146
X0.2746 Y-0.6353 Z0.5155
X0.2808 Y-0.6425 Z0.5164
X0.2884 Y-0.6502 Z0.5172
X0.2962 Y-0.6579 Z0.5183
X0.3055 Y-0.6661 Z0.5194
X0.3145 Y-0.6734 Z0.5207
X0.3251 Y-0.6811 Z0.522
X0.3287 Y-0.6837 Z0.5226
X0.3371 Y-0.6889 Z0.5236
X0.3442 Y-0.6929 Z0.5244
X0.3519 Y-0.6969 Z0.5254
X0.3596 Y-0.7009 Z0.5264
X0.3673 Y-0.7045 Z0.5274
X0.3751 Y-0.7077 Z0.5285
X0.3873 Y-0.7121 Z0.53
X0.3905 Y-0.7132 Z0.5304
X0.3983 Y-0.7155 Z0.5314
X0.406 Y-0.7174 Z0.5324
X0.4156 Y-0.7198 Z0.5337
X0.4214 Y-0.7209 Z0.5344
X0.4292 Y-0.7222 Z0.5354
X0.4369 Y-0.7233 Z0.5364
X0.4446 Y-0.7242 Z0.5375
X0.4523 Y-0.7249 Z0.5384
X0.4601 Y-0.7252 Z0.5394
X0.4678 Y-0.7254 Z0.5405
X0.4755 Y-0.7253 Z0.5414
X0.491 Y-0.7243 Z0.5434
X0.4987 Y-0.7236 Z0.5444
X0.5064 Y-0.7225 Z0.5454
X0.5142 Y-0.7211 Z0.5463
X0.5219 Y-0.7195 Z0.5473
X0.5296 Y-0.7177 Z0.5483
X0.5373 Y-0.7156 Z0.5492
X0.5451 Y-0.7132 Z0.5503
X0.5486 Y-0.7121 Z0.5507
X0.5605 Y-0.7077 Z0.5522
X0.5691 Y-0.7043 Z0.5535
X0.576 Y-0.701 Z0.5543
X0.5848 Y-0.6966 Z0.5554
X0.5914 Y-0.693 Z0.5562
X0.5992 Y-0.6885 Z0.5572
X0.6069 Y-0.6838 Z0.5583
X0.6146 Y-0.6783 Z0.5592
X0.6213 Y-0.6734 Z0.5601
X0.6307 Y-0.6657 Z0.5612
X0.6397 Y-0.6579 Z0.5624
X0.6455 Y-0.6527 Z0.5632
X0.6533 Y-0.6445 Z0.5641
X0.6551 Y-0.6425 Z0.5644
X0.6617 Y-0.6348 Z0.5652
X0.6679 Y-0.627 Z0.5659
X0.6764 Y-0.6152 Z0.567
X0.679 Y-0.6116 Z0.5674
X0.6842 Y-0.6033 Z0.5681
X0.6883 Y-0.5961 Z0.5686
X0.6924 Y-0.5884 Z0.5691
X0.6962 Y-0.5806 Z0.5696
X0.6998 Y-0.5729 Z0.5701
X0.703 Y-0.5652 Z0.5705
X0.7057 Y-0.5574 Z0.5707
X0.7083 Y-0.5497 Z0.571
X0.7107 Y-0.542 Z0.5714
X0.7129 Y-0.5343 Z0.5717
X0.7151 Y-0.5246 Z0.5719
X0.7178 Y-0.5111 Z0.5724
X0.7187 Y-0.5033
X0.7195 Y-0.4956 Z0.5725
X0.7202 Y-0.4879 Z0.5726
X0.7209 Y-0.4724 Z0.5728
X0.7202 Y-0.4569 Z0.5727
X0.7195 Y-0.4492 Z0.5725
X0.7187 Y-0.4415 Z0.5724
X0.7179 Y-0.4338
X0.7151 Y-0.4196 Z0.572
X0.713 Y-0.4106 Z0.5717
X0.7108 Y-0.4028 Z0.5714
X0.7085 Y-0.3951 Z0.5711
X0.7074 Y-0.3913 Z0.571
X0.706 Y-0.3874 Z0.5708
X0.7031 Y-0.3796 Z0.5705
X0.6996 Y-0.3713 Z0.57
X0.6963 Y-0.3642 Z0.5696
X0.6919 Y-0.3553 Z0.569
X0.6883 Y-0.3487 Z0.5686
X0.6839 Y-0.341 Z0.568
X0.679 Y-0.3333 Z0.5674
X0.6764 Y-0.3297 Z0.567
X0.6679 Y-0.3178 Z0.5659
X0.661 Y-0.3093 Z0.565
X0.655 Y-0.3023 Z0.5644
X0.6533 Y-0.3004 Z0.5641
X0.6455 Y-0.2921 Z0.5633
X0.6378 Y-0.2851 Z0.5622
X0.6301 Y-0.2784 Z0.5612
X0.6223 Y-0.2721 Z0.5602
X0.6146 Y-0.2664 Z0.5592
X0.6069 Y-0.2608 Z0.5584
X0.5986 Y-0.2559 Z0.5572
X0.5914 Y-0.2518 Z0.5562
X0.5837 Y-0.2477 Z0.5552
X0.576 Y-0.2438 Z0.5542
X0.5683 Y-0.2401 Z0.5534
X0.5605 Y-0.2371 Z0.5522
X0.5483 Y-0.2328 Z0.5506
X0.5373 Y-0.2293 Z0.5492
X0.5296 Y-0.2272 Z0.5483
X0.5219 Y-0.2254 Z0.5473
X0.5142 Y-0.2239 Z0.5463
X0.5064 Y-0.2224 Z0.5454
X0.4987 Y-0.2213 Z0.5444
X0.491 Y-0.2205 Z0.5434
X0.4755 Y-0.2196 Z0.5414
X0.4678 Y-0.2194 Z0.5405
X0.4601 Y-0.2196 Z0.5394
X0.4523 Y-0.2199 Z0.5385
X0.4446 Y-0.2205 Z0.5375
X0.4369 Y-0.2214 Z0.5364
X0.4292 Y-0.2225 Z0.5354
X0.4214 Y-0.2239 Z0.5344
X0.4152 Y-0.225 Z0.5336
X0.406 Y-0.2273 Z0.5324
X0.3983 Y-0.2293 Z0.5315
X0.3905 Y-0.2316 Z0.5305
X0.3828 Y-0.2343 Z0.5295
X0.3751 Y-0.2372 Z0.5285
X0.3673 Y-0.2405 Z0.5274
X0.3596 Y-0.2442 Z0.5263
X0.3516 Y-0.2482 Z0.5253
X0.3442 Y-0.2521 Z0.5244
X0.3364 Y-0.2565 Z0.5235
X0.3287 Y-0.2613 Z0.5226
X0.3252 Y-0.2637 Z0.5221
X0.321 Y-0.2667 Z0.5215
X0.3146 Y-0.2714 Z0.5206
X0.3051 Y-0.2791 Z0.5193
X0.2963 Y-0.2869 Z0.5182
X0.2884 Y-0.2946 Z0.5172
X0.2807 Y-0.3023 Z0.5163
X0.2741 Y-0.3101 Z0.5154
X0.2669 Y-0.3193 Z0.5144
X0.2622 Y-0.3255 Z0.5139
X0.2569 Y-0.3333 Z0.5132
X0.2521 Y-0.341 Z0.5125
X0.2478 Y-0.3487 Z0.5119
X0.2436 Y-0.3564 Z0.5113
X0.2397 Y-0.3642 Z0.5109
X0.236 Y-0.3723 Z0.5105
X0.2328 Y-0.3796 Z0.5101
X0.2301 Y-0.3874 Z0.5096
X0.2276 Y-0.3951 Z0.5092
X0.2251 Y-0.4028 Z0.509
X0.223 Y-0.4106 Z0.5087
X0.2205 Y-0.4209 Z0.5084
X0.2195 Y-0.426 Z0.5083
X0.218 Y-0.4338 Z0.5082
X0.2172 Y-0.4415 Z0.508
X0.2164 Y-0.4492 Z0.5078
X0.2157 Y-0.4569
X0.2154 Y-0.4647
X0.2152 Y-0.4724 Z0.5077
X0.2154 Y-0.4801 Z0.5078
X0.2158 Y-0.4879
X0.2165 Y-0.4956
X0.2173 Y-0.5033 Z0.508
X0.2182 Y-0.5111 Z0.5082
X0.2195 Y-0.5188 Z0.5084
X0.2205 Y-0.5235 Z0.5085
X0.2212 Y-0.5262
X0.2221 Y-0.5288 Z0.5084
X0.2231 Y-0.5314 Z0.5082
X0.2243 Y-0.5339 Z0.5079
X0.227 Y-0.5388 Z0.5073
X0.2299 Y-0.5435 Z0.5064
X0.2329 Y-0.5482 Z0.5056
X0.2359 Y-0.5529 Z0.5049
X0.2386 Y-0.5578 Z0.5045
X0.2398 Y-0.5604
X0.2409 Y-0.563 Z0.5046
X0.2417 Y-0.5652 Z0.5047
X0.2437 Y-0.5698 Z0.5049
X0.2451 Y-0.5729 Z0.5051
X0.2488 Y-0.5806 Z0.5055
X0.2514 Y-0.5858 Z0.5058
X0.2571 Y-0.5961 Z0.5066
X0.2592 Y-0.5997 Z0.5069
X0.2618 Y-0.6038 Z0.5073
X0.2669 Y-0.6116 Z0.508
X0.2725 Y-0.6193 Z0.5087
X0.2786 Y-0.627 Z0.5095
X0.2823 Y-0.6316 Z0.51
X0.285 Y-0.6348 Z0.5104
X0.2901 Y-0.6402 Z0.511
X0.2923 Y-0.6425 Z0.5113
X0.3001 Y-0.6502 Z0.5123
X0.3055 Y-0.6552 Z0.5131
X0.3087 Y-0.6579 Z0.5134
X0.3132 Y-0.6618 Z0.514
X0.318 Y-0.6657 Z0.5147
X0.321 Y-0.668 Z0.5151
X0.3287 Y-0.6736 Z0.5161
X0.3364 Y-0.6789 Z0.5172
X0.3401 Y-0.6811 Z0.5176
X0.3442 Y-0.6835 Z0.5181
X0.3519 Y-0.6877 Z0.519
X0.3596 Y-0.6918 Z0.52
X0.3697 Y-0.6966 Z0.5215
X0.3751 Y-0.6989 Z0.5222
X0.3828 Y-0.7019 Z0.5232
X0.3905 Y-0.7046 Z0.5242
X0.3983 Y-0.707 Z0.5252
X0.406 Y-0.7091 Z0.5262
X0.4181 Y-0.7121 Z0.5278
X0.4292 Y-0.7141 Z0.5292
X0.4369 Y-0.7152 Z0.5303
X0.4446 Y-0.7161 Z0.5314
X0.4523 Y-0.7168 Z0.5324
X0.4601 Y-0.7171 Z0.5334
X0.4678 Y-0.7174 Z0.5344
X0.4755 Y-0.7172 Z0.5354
X0.4833 Y-0.7168 Z0.5364
X0.491 Y-0.7163 Z0.5374
X0.4987 Y-0.7155 Z0.5385
X0.5064 Y-0.7144 Z0.5395
X0.5142 Y-0.713 Z0.5403
X0.5219 Y-0.7114 Z0.5414
X0.5296 Y-0.7095 Z0.5424
X0.5373 Y-0.7073 Z0.5434
X0.5469 Y-0.7043 Z0.5446
X0.5605 Y-0.6992 Z0.5464
X0.567 Y-0.6966 Z0.5474
X0.576 Y-0.6922 Z0.5485
X0.5837 Y-0.6883 Z0.5495
X0.5914 Y-0.684 Z0.5504
X0.5992 Y-0.6793 Z0.5515
X0.6069 Y-0.6742 Z0.5526
X0.6146 Y-0.6686 Z0.5535
X0.6185 Y-0.6657 Z0.554
X0.6223 Y-0.6626 Z0.5544
X0.6301 Y-0.6561 Z0.5554
X0.6378 Y-0.6492 Z0.5566
X0.6455 Y-0.6414 Z0.5575
X0.6516 Y-0.6348 Z0.5583
X0.6581 Y-0.627 Z0.5591
X0.661 Y-0.6233 Z0.5595
X0.664 Y-0.6193 Z0.5598
X0.6696 Y-0.6116 Z0.5605
X0.6748 Y-0.6038 Z0.5613
X0.6764 Y-0.6012 Z0.5615
X0.6794 Y-0.5961 Z0.5619
X0.6842 Y-0.5875 Z0.5625
X0.6877 Y-0.5806 Z0.5629
X0.6919 Y-0.5717 Z0.5635
X0.6947 Y-0.5652 Z0.5639
X0.6976 Y-0.5574 Z0.5642
X0.7002 Y-0.5497 Z0.5645
X0.7027 Y-0.542 Z0.5648
X0.7049 Y-0.5343 Z0.5652
X0.7074 Y-0.5242 Z0.5655
X0.7085 Y-0.5188 Z0.5656
X0.71 Y-0.5111 Z0.5659
X0.711 Y-0.5033 Z0.566
X0.7118 Y-0.4956
X0.7125 Y-0.4879 Z0.5662
X0.7129 Y-0.4801 Z0.5663
X0.7132 Y-0.4724 Z0.5664
X0.7129 Y-0.4647 Z0.5663
X0.7126 Y-0.4569 Z0.5662
X0.7119 Y-0.4492 Z0.566
X0.7111 Y-0.4415
X0.7101 Y-0.4338 Z0.5659
X0.7086 Y-0.426 Z0.5656
X0.707 Y-0.4183 Z0.5655
X0.7051 Y-0.4106 Z0.5652
X0.7028 Y-0.4028 Z0.5648
X0.7005 Y-0.3951 Z0.5646
X0.6996 Y-0.3925 Z0.5645
X0.6978 Y-0.3874 Z0.5643
X0.6948 Y-0.3796 Z0.5639
X0.6914 Y-0.3719 Z0.5635
X0.6878 Y-0.3642 Z0.5629
X0.6838 Y-0.3564 Z0.5624
X0.6795 Y-0.3487 Z0.5619
X0.6764 Y-0.3436 Z0.5615
X0.6748 Y-0.341 Z0.5613
X0.6687 Y-0.3321 Z0.5604
X0.664 Y-0.3255 Z0.5598
X0.661 Y-0.3216 Z0.5595
X0.658 Y-0.3178 Z0.5591
X0.6515 Y-0.3101 Z0.5583
X0.6445 Y-0.3023 Z0.5575
X0.6378 Y-0.2955 Z0.5566
X0.6301 Y-0.2886 Z0.5555
X0.6223 Y-0.2821 Z0.5545
X0.6187 Y-0.2791 Z0.5541
X0.6146 Y-0.2761 Z0.5535
X0.6069 Y-0.2704 Z0.5526
X0.5992 Y-0.2654 Z0.5516
X0.5914 Y-0.2608 Z0.5504
X0.5826 Y-0.2559 Z0.5493
X0.576 Y-0.2526 Z0.5484
X0.5671 Y-0.2482 Z0.5474
X0.5605 Y-0.2456 Z0.5464
X0.5466 Y-0.2405 Z0.5445
X0.5373 Y-0.2375 Z0.5434
X0.5296 Y-0.2354 Z0.5424
X0.5219 Y-0.2335 Z0.5413
X0.5142 Y-0.232 Z0.5403
X0.5064 Y-0.2305 Z0.5395
X0.4987 Y-0.2293 Z0.5385
X0.491 Y-0.2286 Z0.5374
X0.4833 Y-0.228 Z0.5364
X0.4755 Y-0.2276 Z0.5354
X0.4678 Y-0.2275 Z0.5345
X0.4601 Y-0.2277 Z0.5334
X0.4523 Y-0.228 Z0.5324
X0.4446 Y-0.2286 Z0.5314
X0.4369 Y-0.2296 Z0.5303
X0.4292 Y-0.2307 Z0.5292
X0.4177 Y-0.2328 Z0.5278
X0.406 Y-0.2356 Z0.5262
X0.3983 Y-0.2378 Z0.5253
X0.3896 Y-0.2405 Z0.5242
X0.3828 Y-0.2429 Z0.5232
X0.3751 Y-0.246 Z0.5222
X0.3701 Y-0.2482 Z0.5215
X0.3596 Y-0.2533 Z0.52
X0.3519 Y-0.2572 Z0.519
X0.3442 Y-0.2615 Z0.5182
X0.3403 Y-0.2637 Z0.5177
X0.3364 Y-0.2661 Z0.5172
X0.3285 Y-0.2714 Z0.5161
X0.321 Y-0.2769 Z0.5151
X0.3132 Y-0.2831 Z0.514
X0.3087 Y-0.2869 Z0.5134
X0.3055 Y-0.2897 Z0.513
X0.3001 Y-0.2946 Z0.5123
X0.2923 Y-0.3023 Z0.5112
X0.2901 Y-0.3046 Z0.511
X0.2849 Y-0.3101 Z0.5104
X0.2823 Y-0.3131 Z0.51
X0.2785 Y-0.3178 Z0.5095
X0.2725 Y-0.3255 Z0.5087
X0.2669 Y-0.3334 Z0.508
X0.2619 Y-0.341 Z0.5073
X0.2592 Y-0.3454 Z0.5069
X0.2573 Y-0.3487 Z0.5066
X0.2514 Y-0.3593 Z0.5058
X0.249 Y-0.3642 Z0.5055
X0.2453 Y-0.3719 Z0.5051
X0.2418 Y-0.3796 Z0.5047
X0.2389 Y-0.3874 Z0.5042
X0.236 Y-0.3961 Z0.5037
X0.2338 Y-0.4028 Z0.5035
X0.2316 Y-0.4106 Z0.5033
X0.2297 Y-0.4183 Z0.503
X0.228 Y-0.426 Z0.5028
X0.2265 Y-0.4338 Z0.5027
X0.2255 Y-0.4415 Z0.5025
X0.2248 Y-0.4492 Z0.5023
X0.2241 Y-0.4569
X0.2237 Y-0.4647
X0.2236 Y-0.4724 Z0.5022
X0.2237 Y-0.4801 Z0.5023
X0.2242 Y-0.4879
X0.2248 Y-0.4956
X0.2257 Y-0.5033 Z0.5025
X0.2266 Y-0.5111 Z0.5027
X0.2282 Y-0.5198 Z0.5029
X0.2297 Y-0.5265 Z0.5031
X0.2316 Y-0.5343 Z0.5033
X0.2338 Y-0.542 Z0.5034
X0.2362 Y-0.5497 Z0.5038
X0.2388 Y-0.5574 Z0.5043
X0.2409 Y-0.563 Z0.5046
X0.2434 Y-0.5683
X0.2446 Y-0.5704 Z0.5045
X0.2461 Y-0.5727 Z0.5043
X0.2495 Y-0.5771 Z0.5036
X0.2531 Y-0.5813 Z0.5028
X0.2569 Y-0.5854 Z0.5019
X0.2606 Y-0.5896 Z0.5012
X0.2642 Y-0.5939 Z0.5007
X0.2659 Y-0.5962 Z0.5006
X0.2675 Y-0.5985 Z0.5007
X0.2709 Y-0.6038 Z0.5012
X0.2746 Y-0.6093 Z0.5017
X0.2763 Y-0.6116 Z0.5019
X0.2823 Y-0.6195 Z0.5027
X0.2885 Y-0.627 Z0.5036
X0.2901 Y-0.6289 Z0.5038
X0.2954 Y-0.6348 Z0.5045
X0.2978 Y-0.6372 Z0.5048
X0.3055 Y-0.6449 Z0.5058
X0.3114 Y-0.6502 Z0.5066
X0.3132 Y-0.6519 Z0.5068
X0.321 Y-0.6583 Z0.5079
X0.3287 Y-0.6643 Z0.509
X0.3364 Y-0.6698 Z0.51
X0.3419 Y-0.6734 Z0.5108
X0.3442 Y-0.6748 Z0.511
X0.3519 Y-0.6792 Z0.5119
X0.3554 Y-0.6811 Z0.5124
X0.3596 Y-0.6833 Z0.5129
X0.3673 Y-0.6872 Z0.514
X0.3709 Y-0.6889 Z0.5145
X0.3751 Y-0.6908 Z0.5151
X0.3828 Y-0.6939 Z0.5161
X0.3905 Y-0.6967 Z0.5172
X0.3983 Y-0.6992 Z0.5182
X0.406 Y-0.7015 Z0.5192
X0.4176 Y-0.7043 Z0.5207
X0.4214 Y-0.7052 Z0.5213
X0.4292 Y-0.7066 Z0.5223
X0.4369 Y-0.7077 Z0.5234
X0.4446 Y-0.7087 Z0.5244
X0.4523 Y-0.7094 Z0.5255
X0.4601 Y-0.7098 Z0.5265
X0.4678 Y-0.71 Z0.5276
X0.4755 Y-0.7099 Z0.5285
X0.4833 Y-0.7095 Z0.5295
X0.491 Y-0.709 Z0.5306
X0.4987 Y-0.7082 Z0.5317
X0.5064 Y-0.7071 Z0.5327
X0.5142 Y-0.7056 Z0.5336
X0.5219 Y-0.704 Z0.5346
X0.5296 Y-0.702 Z0.5357
X0.5373 Y-0.6998 Z0.5367
X0.5451 Y-0.6974 Z0.5377
X0.5528 Y-0.6945 Z0.5387
X0.5605 Y-0.6915 Z0.5398
X0.5667 Y-0.6889 Z0.5407
X0.576 Y-0.6842 Z0.5418
X0.5837 Y-0.6801 Z0.5429
X0.5914 Y-0.6757 Z0.5439
X0.5952 Y-0.6734 Z0.5444
X0.5992 Y-0.6709 Z0.545
X0.6069 Y-0.6655 Z0.5459
X0.6146 Y-0.6597 Z0.547
X0.6168 Y-0.6579 Z0.5472
X0.6261 Y-0.6502 Z0.5484
X0.6301 Y-0.6466 Z0.549
X0.6346 Y-0.6425 Z0.5496
X0.6378 Y-0.6392 Z0.5501
X0.6421 Y-0.6348 Z0.5506
X0.6455 Y-0.631 Z0.551
X0.649 Y-0.627 Z0.5515
X0.6533 Y-0.6218 Z0.552
X0.6552 Y-0.6193 Z0.5523
X0.661 Y-0.6116 Z0.553
X0.6664 Y-0.6038 Z0.5537
X0.6687 Y-0.6003 Z0.5541
X0.6714 Y-0.5961 Z0.5544
X0.6764 Y-0.5872 Z0.5551
X0.6799 Y-0.5806 Z0.5555
X0.6842 Y-0.5718 Z0.5561
X0.6872 Y-0.5652 Z0.5566
X0.6902 Y-0.5574 Z0.5569
X0.6919 Y-0.5528 Z0.5571
X0.6954 Y-0.542 Z0.5575
X0.6977 Y-0.5343 Z0.5579
X0.6997 Y-0.5265 Z0.5582
X0.7014 Y-0.5188 Z0.5584
X0.7029 Y-0.5111 Z0.5587
X0.704 Y-0.5033 Z0.5588
X0.7049 Y-0.4956
X0.7056 Y-0.4879 Z0.559
X0.706 Y-0.4801
X0.7063 Y-0.4724 Z0.5592
X0.706 Y-0.4647 Z0.559
X0.7056 Y-0.4569
X0.7049 Y-0.4492 Z0.5588
X0.7041 Y-0.4415
X0.703 Y-0.4338 Z0.5587
X0.7015 Y-0.426 Z0.5584
X0.6996 Y-0.4174 Z0.5581
X0.6979 Y-0.4106 Z0.5579
X0.6956 Y-0.4028 Z0.5575
X0.6932 Y-0.3951 Z0.5573
X0.6919 Y-0.3914 Z0.5571
X0.6904 Y-0.3874 Z0.557
X0.6873 Y-0.3796 Z0.5565
X0.6838 Y-0.3719 Z0.556
X0.6799 Y-0.3642 Z0.5556
X0.6758 Y-0.3564 Z0.555
X0.6714 Y-0.3487 Z0.5544
X0.6687 Y-0.3445 Z0.5541
X0.6663 Y-0.341 Z0.5537
X0.6609 Y-0.3333 Z0.553
X0.6552 Y-0.3255 Z0.5523
X0.6489 Y-0.3178 Z0.5514
X0.6421 Y-0.3101 Z0.5506
X0.6378 Y-0.3056 Z0.5501
X0.6347 Y-0.3023 Z0.5497
X0.6301 Y-0.2981 Z0.5491
X0.6262 Y-0.2946 Z0.5485
X0.617 Y-0.2869 Z0.5473
X0.6146 Y-0.285 Z0.547
X0.6068 Y-0.2791 Z0.546
X0.5992 Y-0.2739 Z0.545
X0.5953 Y-0.2714 Z0.5445
X0.5914 Y-0.2691 Z0.5439
X0.5819 Y-0.2637 Z0.5426
X0.576 Y-0.2606 Z0.5418
X0.5667 Y-0.2559 Z0.5407
X0.5605 Y-0.2533 Z0.5398
X0.5528 Y-0.2504 Z0.5387
X0.5451 Y-0.2475 Z0.5376
X0.5373 Y-0.2451 Z0.5366
X0.5296 Y-0.2429 Z0.5356
X0.5219 Y-0.2409 Z0.5346
X0.5142 Y-0.2393 Z0.5336
X0.5064 Y-0.2379 Z0.5327
X0.4987 Y-0.2367 Z0.5317
X0.491 Y-0.2359 Z0.5306
X0.4833 Y-0.2354 Z0.5295
X0.4755 Y-0.2349 Z0.5286
X0.4678 Y-0.2348 Z0.5276
X0.4601 Y-0.235 Z0.5265
X0.4523 Y-0.2354 Z0.5255
X0.4446 Y-0.2361 Z0.5244
X0.4369 Y-0.237 Z0.5234
X0.4292 Y-0.2382 Z0.5223
X0.4214 Y-0.2396 Z0.5213
X0.4173 Y-0.2405 Z0.5207
X0.406 Y-0.2433 Z0.5192
X0.3983 Y-0.2455 Z0.5182
X0.3902 Y-0.2482 Z0.5172
X0.3828 Y-0.251 Z0.5162
X0.3751 Y-0.2542 Z0.5151
X0.3673 Y-0.2579 Z0.5139
X0.3596 Y-0.2617 Z0.5129
X0.3558 Y-0.2637 Z0.5124
X0.3519 Y-0.2658 Z0.512
X0.3442 Y-0.2702 Z0.511
X0.3421 Y-0.2714 Z0.5108
X0.3364 Y-0.2752 Z0.51
X0.3287 Y-0.2806 Z0.509
X0.3206 Y-0.2869 Z0.5078
X0.3132 Y-0.293 Z0.5068
X0.3055 Y-0.3 Z0.5057
X0.2978 Y-0.3076 Z0.5047
X0.2954 Y-0.3101 Z0.5045
X0.2901 Y-0.3158 Z0.5038
X0.2884 Y-0.3178 Z0.5036
X0.2821 Y-0.3255 Z0.5026
X0.2763 Y-0.3333 Z0.5018
X0.2746 Y-0.3357 Z0.5017
X0.271 Y-0.341 Z0.5012
X0.2661 Y-0.3487 Z0.5005
X0.2617 Y-0.3564 Z0.4998
X0.2592 Y-0.3611 Z0.4995
X0.2576 Y-0.3642 Z0.4993
X0.2537 Y-0.3719 Z0.4988
X0.2502 Y-0.3796 Z0.4984
X0.2471 Y-0.3874 Z0.498
X0.2444 Y-0.3951 Z0.4975
X0.2419 Y-0.4028 Z0.4971
X0.2396 Y-0.4106 Z0.4969
X0.2376 Y-0.4183 Z0.4967
X0.2358 Y-0.426 Z0.4965
X0.2343 Y-0.4338 Z0.4964
X0.2333 Y-0.4415 Z0.4961
X0.2325 Y-0.4492 Z0.4959
X0.2318 Y-0.4569
X0.2314 Y-0.4647
X0.2313 Y-0.4724 Z0.4958
X0.2315 Y-0.4801 Z0.4959
X0.2319 Y-0.4879
X0.2326 Y-0.4956
X0.2334 Y-0.5033 Z0.4961
X0.2345 Y-0.5111 Z0.4964
X0.2362 Y-0.5201 Z0.4965
X0.2376 Y-0.5265 Z0.4967
X0.2396 Y-0.5343 Z0.4969
X0.2419 Y-0.542 Z0.4971
X0.2443 Y-0.5497 Z0.4975
X0.247 Y-0.5574 Z0.498
X0.2501 Y-0.5652 Z0.4984
X0.2514 Y-0.5683 Z0.4986
X0.2536 Y-0.5729 Z0.4988
X0.2574 Y-0.5806 Z0.4993
X0.2592 Y-0.584 Z0.4995
X0.2616 Y-0.5884 Z0.4998
X0.266 Y-0.5961 Z0.5005
X0.2675 Y-0.5985 Z0.5007
X0.2708 Y-0.6029 Z0.5008
X0.2726 Y-0.605 Z0.5007
X0.2745 Y-0.607 Z0.5005
X0.2786 Y-0.6108 Z0.4998
X0.2829 Y-0.6143 Z0.499
X0.2873 Y-0.6178 Z0.4983
X0.2917 Y-0.6213 Z0.4977
X0.2959 Y-0.6249 Z0.4974
X0.298 Y-0.6268
X0.3 Y-0.6288 Z0.4976
X0.3057 Y-0.6348 Z0.4983
X0.3137 Y-0.6425 Z0.4994
X0.3227 Y-0.6502 Z0.5006
X0.3287 Y-0.6551 Z0.5015
X0.3324 Y-0.6579 Z0.502
X0.3364 Y-0.6609 Z0.5026
X0.3442 Y-0.6661 Z0.5037
X0.3519 Y-0.6708 Z0.5046
X0.3596 Y-0.6751 Z0.5056
X0.3673 Y-0.6791 Z0.5066
X0.3714 Y-0.6811 Z0.5072
X0.3751 Y-0.6828 Z0.5077
X0.3828 Y-0.6861 Z0.5088
X0.3905 Y-0.6891 Z0.5098
X0.3983 Y-0.6917 Z0.5109
X0.406 Y-0.694 Z0.5119
X0.4137 Y-0.696 Z0.5129
X0.4214 Y-0.6978 Z0.514
X0.4292 Y-0.6993 Z0.5151
X0.4369 Y-0.7005 Z0.5161
X0.4446 Y-0.7015 Z0.5172
X0.4523 Y-0.7023 Z0.5183
X0.4601 Y-0.7027 Z0.5193
X0.4678 Y-0.7029 Z0.5204
X0.4755 Y-0.7028 Z0.5214
X0.4833 Y-0.7025 Z0.5224
X0.491 Y-0.7019 Z0.5235
X0.4987 Y-0.7011 Z0.5246
X0.5064 Y-0.7 Z0.5256
X0.5142 Y-0.6985 Z0.5266
X0.5227 Y-0.6966 Z0.5277
X0.5296 Y-0.6948 Z0.5286
X0.5373 Y-0.6925 Z0.5297
X0.5451 Y-0.69 Z0.5307
X0.5528 Y-0.6871 Z0.5318
X0.5605 Y-0.684 Z0.5329
X0.5668 Y-0.6811 Z0.5338
X0.576 Y-0.6765 Z0.5349
X0.5837 Y-0.6722 Z0.536
X0.5914 Y-0.6677 Z0.5371
X0.5946 Y-0.6657 Z0.5375
X0.5992 Y-0.6626 Z0.5381
X0.6069 Y-0.657 Z0.5391
X0.6155 Y-0.6502 Z0.5402
X0.6223 Y-0.6444 Z0.5411
X0.6301 Y-0.6374 Z0.5423
X0.6327 Y-0.6348 Z0.5426
X0.6378 Y-0.6294 Z0.5433
X0.64 Y-0.627 Z0.5436
X0.6466 Y-0.6193 Z0.5444
X0.6533 Y-0.6108 Z0.5452
X0.6582 Y-0.6038 Z0.5459
X0.6635 Y-0.5961 Z0.5467
X0.6687 Y-0.5873 Z0.5474
X0.6723 Y-0.5806 Z0.5479
X0.6764 Y-0.5725 Z0.5484
X0.6798 Y-0.5652 Z0.5489
X0.6842 Y-0.5546 Z0.5495
X0.6859 Y-0.5497 Z0.5497
X0.6884 Y-0.542 Z0.5499
X0.6908 Y-0.5343 Z0.5503
X0.6929 Y-0.5265 Z0.5506
X0.6946 Y-0.5188 Z0.5508
X0.6962 Y-0.5111 Z0.5511
X0.6973 Y-0.5033 Z0.5513
X0.6982 Y-0.4956
X0.6989 Y-0.4879 Z0.5515
X0.6994 Y-0.4801
X0.6996 Y-0.472 Z0.5517
X0.6994 Y-0.4647 Z0.5515
X0.6989 Y-0.4569
X0.6982 Y-0.4492 Z0.5513
X0.6974 Y-0.4415
X0.6962 Y-0.4338 Z0.5511
X0.6947 Y-0.426 Z0.5509
X0.693 Y-0.4183 Z0.5506
X0.6909 Y-0.4106 Z0.5503
X0.6886 Y-0.4028 Z0.55
X0.6861 Y-0.3951 Z0.5498
X0.6842 Y-0.3898 Z0.5495
X0.6799 Y-0.3796 Z0.5489
X0.6763 Y-0.3719 Z0.5484
X0.6724 Y-0.3642 Z0.5479
X0.6681 Y-0.3564 Z0.5473
X0.6634 Y-0.3487 Z0.5467
X0.6582 Y-0.341 Z0.5459
X0.6526 Y-0.3333 Z0.5452
X0.6455 Y-0.3243 Z0.5443
X0.6399 Y-0.3178 Z0.5436
X0.6378 Y-0.3154 Z0.5433
X0.6327 Y-0.3101 Z0.5427
X0.6301 Y-0.3074 Z0.5423
X0.6223 Y-0.3003 Z0.5412
X0.6146 Y-0.2937 Z0.5402
X0.6058 Y-0.2869 Z0.539
X0.5992 Y-0.2821 Z0.5381
X0.5947 Y-0.2791 Z0.5376
X0.5914 Y-0.2771 Z0.5371
X0.5817 Y-0.2714 Z0.5357
X0.576 Y-0.2683 Z0.5349
X0.5668 Y-0.2637 Z0.5337
X0.5605 Y-0.2608 Z0.5329
X0.5528 Y-0.2578 Z0.5317
X0.5451 Y-0.2549 Z0.5307
X0.5373 Y-0.2523 Z0.5296
X0.5296 Y-0.2501 Z0.5286
X0.5219 Y-0.2481 Z0.5276
X0.5142 Y-0.2465 Z0.5265
X0.5064 Y-0.245 Z0.5256
X0.4987 Y-0.2438 Z0.5246
X0.491 Y-0.2429 Z0.5235
X0.4833 Y-0.2424 Z0.5224
X0.4755 Y-0.242 Z0.5214
X0.4678 Y-0.2419 Z0.5204
X0.4601 Y-0.2421 Z0.5193
X0.4523 Y-0.2425 Z0.5183
X0.4446 Y-0.2432 Z0.5172
X0.4369 Y-0.2442 Z0.5161
X0.4292 Y-0.2454 Z0.5151
X0.4214 Y-0.2469 Z0.514
X0.4137 Y-0.2487 Z0.513
X0.406 Y-0.2508 Z0.5119
X0.3983 Y-0.2531 Z0.5109
X0.39 Y-0.2559 Z0.5098
X0.3828 Y-0.2588 Z0.5088
X0.3751 Y-0.2622 Z0.5076
X0.3673 Y-0.2659 Z0.5065
X0.3596 Y-0.2698 Z0.5056
X0.3519 Y-0.2741 Z0.5046
X0.3436 Y-0.2791 Z0.5036
X0.3364 Y-0.284 Z0.5026
X0.3325 Y-0.2869 Z0.502
X0.3287 Y-0.2898 Z0.5014
X0.321 Y-0.2961 Z0.5003
X0.3132 Y-0.3028 Z0.4993
X0.3055 Y-0.3102 Z0.4982
X0.2978 Y-0.3182 Z0.4973
X0.2916 Y-0.3255 Z0.4964
X0.2855 Y-0.3333 Z0.4955
X0.2823 Y-0.3375 Z0.4951
X0.2799 Y-0.341 Z0.4948
X0.2746 Y-0.3491 Z0.4941
X0.2702 Y-0.3564 Z0.4934
X0.2659 Y-0.3642 Z0.4928
X0.262 Y-0.3719 Z0.4923
X0.2583 Y-0.3796 Z0.4919
X0.2551 Y-0.3874 Z0.4914
X0.2523 Y-0.3951 Z0.4909
X0.2497 Y-0.4028 Z0.4905
X0.2473 Y-0.4106 Z0.4903
X0.2452 Y-0.4183 Z0.49
X0.2434 Y-0.426 Z0.4898
X0.2419 Y-0.4338 Z0.4897
X0.2408 Y-0.4415 Z0.4895
X0.24 Y-0.4492 Z0.4893
X0.2393 Y-0.4569 Z0.4892
X0.2389 Y-0.4647
X0.2387 Y-0.4724
X0.2389 Y-0.4801
X0.2394 Y-0.4879
X0.2401 Y-0.4956 Z0.4893
X0.2409 Y-0.5033 Z0.4895
X0.242 Y-0.5111 Z0.4897
X0.2437 Y-0.5196 Z0.4899
X0.2453 Y-0.5265 Z0.49
X0.2473 Y-0.5343 Z0.4903
X0.2496 Y-0.542 Z0.4906
X0.2514 Y-0.5476 Z0.4909
X0.2521 Y-0.5497 Z0.491
X0.255 Y-0.5574 Z0.4914
X0.2582 Y-0.5652 Z0.4919
X0.2592 Y-0.5674 Z0.492
X0.2618 Y-0.5729 Z0.4923
X0.2669 Y-0.5827 Z0.4929
X0.2701 Y-0.5884 Z0.4934
X0.2747 Y-0.5961 Z0.4941
X0.2799 Y-0.6038 Z0.4948
X0.2823 Y-0.6073 Z0.4951
X0.2855 Y-0.6116 Z0.4955
X0.2916 Y-0.6193 Z0.4964
X0.2983 Y-0.627 Z0.4973
X0.3 Y-0.6288 Z0.4976
X0.3041 Y-0.6326 Z0.4978
X0.3063 Y-0.6342 Z0.4977
X0.3086 Y-0.6358 Z0.4975
X0.3133 Y-0.6388 Z0.497
X0.3181 Y-0.6415 Z0.4963
X0.3231 Y-0.6441 Z0.4956
X0.328 Y-0.6468 Z0.4951
X0.3329 Y-0.6496 Z0.495
X0.3353 Y-0.6511
X0.3376 Y-0.6526 Z0.4952
X0.3451 Y-0.6579 Z0.4963
X0.3519 Y-0.6624 Z0.4972
X0.3575 Y-0.6657 Z0.4979
X0.3673 Y-0.671 Z0.4992
X0.3751 Y-0.6748 Z0.5003
X0.3828 Y-0.6783 Z0.5014
X0.3905 Y-0.6814 Z0.5025
X0.3983 Y-0.6841 Z0.5036
X0.406 Y-0.6865 Z0.5046
X0.4147 Y-0.6889 Z0.5058
X0.4214 Y-0.6905 Z0.5067
X0.4292 Y-0.692 Z0.5078
X0.4369 Y-0.6933 Z0.5089
X0.4446 Y-0.6943 Z0.51
X0.4523 Y-0.6951 Z0.5111
X0.4601 Y-0.6956 Z0.5122
X0.4678 Y-0.6958 Z0.5133
X0.4755 Z0.5143
X0.4833 Y-0.6954 Z0.5153
X0.491 Y-0.6948 Z0.5164
X0.4987 Y-0.694 Z0.5176
X0.5064 Y-0.6928 Z0.5186
X0.5142 Y-0.6913 Z0.5196
X0.5219 Y-0.6896 Z0.5206
X0.5296 Y-0.6876 Z0.5217
X0.5373 Y-0.6852 Z0.5227
X0.5451 Y-0.6826 Z0.5238
X0.5528 Y-0.6796 Z0.5248
X0.5605 Y-0.6764 Z0.526
X0.5683 Y-0.6727 Z0.527
X0.576 Y-0.6687 Z0.528
X0.5837 Y-0.6643 Z0.5291
X0.5914 Y-0.6596 Z0.5302
X0.5992 Y-0.6542 Z0.5312
X0.6046 Y-0.6502 Z0.532
X0.6069 Y-0.6484 Z0.5323
X0.6146 Y-0.6421 Z0.5333
X0.6229 Y-0.6348 Z0.5345
X0.6308 Y-0.627 Z0.5356
X0.6378 Y-0.6193 Z0.5365
X0.6441 Y-0.6116 Z0.5373
X0.65 Y-0.6038 Z0.5381
X0.6533 Y-0.5992 Z0.5386
X0.6554 Y-0.5961 Z0.5389
X0.661 Y-0.5872 Z0.5397
X0.6647 Y-0.5806 Z0.5402
X0.6688 Y-0.5729 Z0.5407
X0.6725 Y-0.5652 Z0.5413
X0.6764 Y-0.556 Z0.5418
X0.6788 Y-0.5497 Z0.5421
X0.6814 Y-0.542 Z0.5424
X0.6842 Y-0.5332 Z0.5428
X0.686 Y-0.5265 Z0.5431
X0.6878 Y-0.5188 Z0.5433
X0.6894 Y-0.5111 Z0.5436
X0.6906 Y-0.5033 Z0.5438
X0.6915 Y-0.4956
X0.6922 Y-0.4879 Z0.544
X0.6927 Y-0.4801 Z0.5441
X0.693 Y-0.4724 Z0.5442
X0.6927 Y-0.4647 Z0.5441
X0.6923 Y-0.4569 Z0.544
X0.6915 Y-0.4492 Z0.5439
X0.6907 Y-0.4415 Z0.5438
X0.6895 Y-0.4338 Z0.5436
X0.6879 Y-0.426 Z0.5434
X0.6861 Y-0.4183 Z0.5431
X0.684 Y-0.4106 Z0.5428
X0.6817 Y-0.4028 Z0.5425
X0.679 Y-0.3951 Z0.5422
X0.676 Y-0.3874 Z0.5417
X0.6726 Y-0.3796 Z0.5413
X0.6687 Y-0.3717 Z0.5407
X0.6648 Y-0.3642 Z0.5402
X0.6603 Y-0.3564 Z0.5396
X0.6553 Y-0.3487 Z0.5389
X0.6533 Y-0.3457 Z0.5386
X0.6499 Y-0.341 Z0.5381
X0.6441 Y-0.3333 Z0.5373
X0.6377 Y-0.3255 Z0.5365
X0.6301 Y-0.3171 Z0.5356
X0.6223 Y-0.3095 Z0.5345
X0.6143 Y-0.3023 Z0.5333
X0.6069 Y-0.2963 Z0.5323
X0.6047 Y-0.2946 Z0.532
X0.5992 Y-0.2905 Z0.5313
X0.5914 Y-0.2852 Z0.5303
X0.5837 Y-0.2805 Z0.5291
X0.576 Y-0.2761 Z0.528
X0.5669 Y-0.2714 Z0.5268
X0.5605 Y-0.2684 Z0.526
X0.5528 Y-0.2652 Z0.5248
X0.5451 Y-0.2623 Z0.5237
X0.5373 Y-0.2597 Z0.5227
X0.5296 Y-0.2573 Z0.5216
X0.5219 Y-0.2553 Z0.5206
X0.5142 Y-0.2536 Z0.5195
X0.5064 Y-0.2521 Z0.5186
X0.4987 Y-0.2509 Z0.5176
X0.491 Y-0.25 Z0.5165
X0.4833 Y-0.2495 Z0.5153
X0.4755 Y-0.2491 Z0.5143
X0.4678 Y-0.249 Z0.5133
X0.4601 Y-0.2492 Z0.5122
X0.4523 Y-0.2497 Z0.5111
X0.4446 Y-0.2504 Z0.51
X0.4369 Y-0.2515 Z0.5089
X0.4292 Y-0.2527 Z0.5078
X0.4214 Y-0.2542 Z0.5068
X0.4137 Y-0.2561 Z0.5057
X0.406 Y-0.2582 Z0.5046
X0.3983 Y-0.2607 Z0.5036
X0.39 Y-0.2637 Z0.5025
X0.3828 Y-0.2667 Z0.5014
X0.3726 Y-0.2714 Z0.4999
X0.3673 Y-0.274 Z0.4992
X0.3577 Y-0.2791 Z0.498
X0.3519 Y-0.2826 Z0.4972
X0.3442 Y-0.2876 Z0.4962
X0.3364 Y-0.2931 Z0.495
X0.3287 Y-0.2992 Z0.4939
X0.321 Y-0.3058 Z0.4928
X0.3163 Y-0.3101 Z0.4921
X0.3084 Y-0.3178 Z0.4911
X0.3055 Y-0.3208 Z0.4908
X0.3013 Y-0.3255 Z0.4902
X0.2978 Y-0.3296 Z0.4897
X0.2949 Y-0.3333 Z0.4892
X0.289 Y-0.341 Z0.4884
X0.2823 Y-0.3507 Z0.4875
X0.2788 Y-0.3564 Z0.487
X0.2744 Y-0.3642 Z0.4863
X0.2703 Y-0.3719 Z0.4858
X0.2665 Y-0.3796 Z0.4853
X0.2631 Y-0.3874 Z0.4848
X0.2602 Y-0.3951 Z0.4844
X0.2575 Y-0.4028 Z0.484
X0.2551 Y-0.4106 Z0.4837
X0.2529 Y-0.4183 Z0.4834
X0.2511 Y-0.426 Z0.4832
X0.2495 Y-0.4338 Z0.4831
X0.2483 Y-0.4415 Z0.4828
X0.2475 Y-0.4492 Z0.4826
X0.2468 Y-0.4569
X0.2463 Y-0.4647 Z0.4825
X0.2462 Y-0.4724
X0.2464 Y-0.4801 Z0.4826
X0.2469 Y-0.4879
X0.2476 Y-0.4956
X0.2485 Y-0.5033 Z0.4828
X0.2496 Y-0.5111 Z0.4831
X0.2514 Y-0.52 Z0.4833
X0.253 Y-0.5265 Z0.4834
X0.2551 Y-0.5343 Z0.4837
X0.2575 Y-0.542 Z0.484
X0.2592 Y-0.5472 Z0.4843
X0.2601 Y-0.5497 Z0.4844
X0.263 Y-0.5574 Z0.4849
X0.2663 Y-0.5652 Z0.4853
X0.2701 Y-0.5729 Z0.4857
X0.2746 Y-0.5813 Z0.4864
X0.2787 Y-0.5884 Z0.487
X0.2823 Y-0.5943 Z0.4875
X0.2889 Y-0.6038 Z0.4885
X0.2949 Y-0.6116 Z0.4893
X0.2978 Y-0.6152 Z0.4897
X0.3013 Y-0.6193 Z0.4902
X0.3057 Y-0.6242 Z0.4908
X0.3085 Y-0.627 Z0.4911
X0.3132 Y-0.6318 Z0.4918
X0.3162 Y-0.6348 Z0.4922
X0.321 Y-0.6391 Z0.4929
X0.3287 Y-0.6457 Z0.494
X0.3364 Y-0.6518 Z0.4951
X0.3376 Y-0.6526 Z0.4952
X0.3399 Y-0.6541 Z0.4954
X0.3424 Y-0.6553
X0.3449 Y-0.6564 Z0.4951
X0.3475 Y-0.6572 Z0.4947
X0.3502 Y-0.6578 Z0.4941
X0.3529 Y-0.6583 Z0.4934
X0.3556 Y-0.6586 Z0.4927
X0.3582 Y-0.6588 Z0.4918
X0.3638 Y-0.6589 Z0.4898
X0.3694 Y-0.6588 Z0.4877
X0.3749 Y-0.6586 Z0.4856
X0.3806 Y-0.6585 Z0.4837
X0.3828 Z0.4831
X0.3867 Y-0.6583 Z0.4818
X0.3905 Y-0.6641 Z0.4862
X0.392 Y-0.6657 Z0.4873
X0.3983 Y-0.6716 Z0.4916
X0.4009 Y-0.6734 Z0.4928
X0.4091 Y-0.6779 Z0.4958
X0.4137 Y-0.6796 Z0.4968
X0.4188 Y-0.6811 Z0.4978
X0.4214 Y-0.6818 Z0.4982
X0.4292 Y-0.6837 Z0.4995
X0.4369 Y-0.685 Z0.5006
X0.4446 Y-0.686 Z0.5017
X0.4523 Y-0.6867 Z0.5027
X0.4601 Y-0.6871 Z0.5036
X0.4678 Y-0.6862
X0.4755 Y-0.6845 Z0.5029
X0.4794 Y-0.6833 Z0.5025
X0.4838 Y-0.6811 Z0.5011
X0.491 Y-0.6771 Z0.4987
X0.4962 Y-0.6734 Z0.4963
X0.4987 Y-0.671 Z0.4947
X0.5028 Y-0.6657 Z0.4904
X0.5064 Y-0.6604 Z0.4855
X0.5096 Y-0.6579 Z0.4835
X0.5118 Y-0.6564 Z0.4823
X0.5142 Y-0.6581 Z0.4858
X0.518 Y-0.6619 Z0.492
X0.5219 Y-0.6645 Z0.4963
X0.5241 Y-0.6657 Z0.4983
X0.5296 Y-0.6679 Z0.5027
X0.5335 Y-0.6689 Z0.5054
X0.5373 Y-0.6692 Z0.5075
X0.5451 Y-0.6693 Z0.5113
X0.5528 Y-0.6682 Z0.5143
X0.5605 Y-0.6658 Z0.5164
X0.5683 Y-0.6621 Z0.5176
X0.576 Y-0.6578 Z0.5186
X0.5837 Y-0.653 Z0.5196
X0.588 Y-0.6502 Z0.5201
X0.5914 Y-0.6478 Z0.5205
X0.5981 Y-0.6425 Z0.5211
X0.5992 Y-0.6416 Z0.5212
X0.6059 Y-0.6348 Z0.5209
X0.6069 Y-0.6334 Z0.5207
X0.6113 Y-0.627 Z0.5194
X0.6146 Y-0.621 Z0.5178
X0.6153 Y-0.6193 Z0.5172
X0.6177 Y-0.6116 Z0.5139
X0.6188 Y-0.6038 Z0.5096
X0.6191 Y-0.6 Z0.5073
X0.619 Y-0.5961 Z0.5044
X0.6185 Y-0.5922 Z0.5009
X0.6184 Y-0.5908 Z0.4995
X0.6181 Y-0.5896 Z0.4981
X0.6194 Y-0.5891 Z0.4993
X0.6223 Y-0.5889 Z0.5026
X0.6262 Y-0.5884 Z0.5065
X0.6301 Y-0.5876 Z0.51
X0.6378 Y-0.5856 Z0.5162
X0.6455 Y-0.5814 Z0.5215
X0.6467 Y-0.5806 Z0.5223
X0.6533 Y-0.5744 Z0.5257
X0.6566 Y-0.5709 Z0.5274
X0.661 Y-0.5647 Z0.5292
X0.6631 Y-0.5613 Z0.53
X0.6649 Y-0.5574 Z0.5302
X0.6687 Y-0.548 Z0.5308
X0.6709 Y-0.542 Z0.5311
X0.6734 Y-0.5343 Z0.5314
X0.6755 Y-0.5265 Z0.5317
X0.6764 Y-0.523 Z0.5318
X0.6774 Y-0.5188 Z0.5319
X0.679 Y-0.5111 Z0.5321
X0.6802 Y-0.5033 Z0.5322
X0.681 Y-0.4956 Z0.5321
X0.6817 Y-0.4879 Z0.5322
X0.6823 Y-0.4801 Z0.5324
X0.6826 Y-0.4724 Z0.5326
Y-0.4647 Z0.5327
X0.6822 Y-0.4569
X0.6814 Y-0.4492 Z0.5325
X0.6803 Y-0.4415 Z0.5323
X0.6787 Y-0.4338 Z0.5317
X0.6764 Y-0.4258 Z0.5308
X0.6724 Y-0.4183 Z0.5281
X0.6687 Y-0.4125 Z0.5257
X0.6672 Y-0.4106 Z0.5246
X0.661 Y-0.4046 Z0.5198
X0.6593 Y-0.4028 Z0.5186
X0.6603 Y-0.399 Z0.5209
X0.6604 Y-0.3951 Z0.5225
X0.6601 Y-0.3874 Z0.5252
X0.6592 Y-0.3796 Z0.5275
X0.6567 Y-0.3719 Z0.5284
X0.6533 Y-0.3639 Z0.5289
X0.6516 Y-0.3609 Z0.5287
X0.6484 Y-0.3564 Z0.528
X0.6455 Y-0.3527 Z0.5272
X0.6422 Y-0.3487 Z0.5264
X0.6378 Y-0.3448 Z0.5245
X0.6329 Y-0.341 Z0.5223
X0.6301 Y-0.3394 Z0.5208
X0.6223 Y-0.336 Z0.5161
X0.6146 Y-0.3345 Z0.5104
X0.6127 Y-0.3342 Z0.509
X0.6121 Y-0.3337 Z0.5088
X0.6103 Y-0.3255 Z0.513
X0.6074 Y-0.3178 Z0.5163
X0.6069 Y-0.3166 Z0.5168
X0.6029 Y-0.3101 Z0.5186
X0.5992 Y-0.305 Z0.5197
X0.5968 Y-0.3023 Z0.5201
X0.5914 Y-0.2972 Z0.5203
X0.5878 Y-0.2946 Z0.52
X0.5837 Y-0.2918 Z0.5195
X0.5758 Y-0.2869 Z0.5186
X0.5683 Y-0.283 Z0.5173
X0.5605 Y-0.2802 Z0.5153
X0.5554 Y-0.2791 Z0.5134
X0.5528 Y-0.2789 Z0.5123
X0.5451 Y-0.2785 Z0.5086
X0.5373 Y-0.2797 Z0.5037
X0.5348 Y-0.2804 Z0.5018
X0.5335 Y-0.2806 Z0.501
X0.5323 Y-0.2791 Z0.5018
X0.5296 Y-0.2763 Z0.5034
X0.5237 Y-0.2714 Z0.5056
X0.5219 Y-0.2701 Z0.5063
X0.5142 Y-0.2651 Z0.5082
X0.5107 Y-0.2637 Z0.5085
X0.5064 Y-0.2622 Z0.5086
X0.4987 Y-0.26 Z0.5085
X0.491 Y-0.2589 Z0.5076
X0.4833 Y-0.2581 Z0.5066
X0.4755 Y-0.2577 Z0.5056
X0.4678 Y-0.2576 Z0.5046
X0.4601 Y-0.2581 Z0.5032
X0.4523 Y-0.2592 Z0.5015
X0.4446 Y-0.262 Z0.4984
X0.4411 Y-0.2637 Z0.4967
X0.4369 Y-0.2659 Z0.4945
X0.4292 Y-0.2711 Z0.4896
X0.4243 Y-0.2753 Z0.4858
X0.4214 Y-0.2787 Z0.4827
X0.4137 Y-0.276 Z0.4863
X0.4098 Y-0.2747 Z0.4881
X0.406 Y-0.2743 Z0.4892
X0.3983 Y-0.2739 Z0.491
X0.3905 Y-0.2742 Z0.4924
X0.3828 Y-0.2761 Z0.4926
X0.3746 Y-0.2791 Z0.4922
X0.3673 Y-0.2826 Z0.4915
X0.3595 Y-0.2869 Z0.4905
X0.3519 Y-0.2915 Z0.4895
X0.3473 Y-0.2946 Z0.4889
X0.3442 Y-0.2969 Z0.4884
X0.3376 Y-0.3023 Z0.487
X0.3339 Y-0.3062 Z0.4857
X0.3311 Y-0.3101 Z0.4841
X0.3287 Y-0.3136 Z0.4827
X0.3267 Y-0.3178 Z0.4806
X0.3242 Y-0.3255 Z0.4763
X0.3233 Y-0.3333 Z0.4712
X0.3232 Y-0.3371 Z0.4685
X0.3237 Y-0.341 Z0.4654
X0.3251 Y-0.3449 Z0.4613
X0.3269 Y-0.3487 Z0.4562
X0.3279 Y-0.3505 Z0.4535
X0.3272 Y-0.3509 Z0.4539
X0.3263 Y-0.3506 Z0.4551
X0.3243 Y-0.3504 Z0.4572
X0.321 Y-0.3505 Z0.46
X0.3132 Y-0.351 Z0.4657
X0.3055 Y-0.3526 Z0.47
X0.2978 Y-0.3557 Z0.4736
X0.2964 Y-0.3564 Z0.4742
X0.2901 Y-0.361 Z0.4763
X0.286 Y-0.3642 Z0.4776
X0.2823 Y-0.3678 Z0.4785
X0.279 Y-0.3719 Z0.479
X0.2746 Y-0.379 Z0.4792
X0.2705 Y-0.3874 Z0.4789
X0.2669 Y-0.3961 Z0.4785
X0.2644 Y-0.4028 Z0.4782
X0.262 Y-0.4106 Z0.4778
X0.2598 Y-0.4183 Z0.4775
X0.2592 Y-0.4213 Z0.4773
X0.2582 Y-0.426 Z0.4771
X0.2569 Y-0.4338 Z0.4766
X0.2566 Y-0.4415 Z0.4755
X0.2563 Y-0.4492 Z0.4748
X0.2547 Y-0.4569 Z0.4755
X0.2535 Y-0.4647 Z0.4762
X0.253 Y-0.4724 Z0.4764
Y-0.4801 Z0.4767
X0.2532 Y-0.4879 Z0.477
X0.2539 Y-0.4956 Z0.4771
X0.2549 Y-0.5033 Z0.4772
X0.2561 Y-0.5111 Z0.4774
X0.2578 Y-0.5188 Z0.4775
X0.2592 Y-0.524
X0.2599 Y-0.5265
X0.2628 Y-0.5343 Z0.4771
X0.2643 Y-0.5377 Z0.4769
X0.2669 Y-0.542 Z0.4761
X0.2724 Y-0.5497 Z0.4743
X0.2746 Y-0.5521 Z0.4734
X0.2809 Y-0.5574 Z0.4704
X0.2823 Y-0.5583 Z0.4697
X0.2901 Y-0.5622 Z0.4653
X0.2939 Y-0.5636 Z0.4629
X0.2984 Y-0.5647 Z0.4595
X0.2982 Y-0.5652 Z0.46
X0.2978 Y-0.5663 Z0.461
X0.2959 Y-0.5729 Z0.4661
X0.2949 Y-0.5768 Z0.4688
X0.2948 Y-0.5806 Z0.471
X0.2951 Y-0.5884 Z0.4751
X0.2965 Y-0.5961 Z0.4785
X0.2978 Y-0.5996 Z0.4798
X0.3001 Y-0.6038 Z0.4809
X0.3055 Y-0.6125 Z0.483
X0.311 Y-0.6193 Z0.4842
X0.3132 Y-0.6217 Z0.4845
X0.3186 Y-0.627 Z0.4852
X0.321 Y-0.6293 Z0.4855
X0.3287 Y-0.6361 Z0.4864
X0.3368 Y-0.6425 Z0.4874
X0.3442 Y-0.6476 Z0.488
X0.3485 Y-0.6502 Z0.4883
X0.3519 Y-0.652
X0.3596 Y-0.6555 Z0.4882
X0.3673 Y-0.6579 Z0.4875
X0.3751 Y-0.6585 Z0.4854
X0.3806 Z0.4837
X0.3835 Y-0.6587 Z0.483
X0.3859 Y-0.6591 Z0.4828
X0.3885 Y-0.6598 Z0.4827
X0.3911 Y-0.6606 Z0.4828
X0.3938 Y-0.6616 Z0.4831
X0.3963 Y-0.6627 Z0.4836
X0.4012 Y-0.6651 Z0.4848
X0.4112 Y-0.6704 Z0.4882
X0.4164 Y-0.6727 Z0.4898
X0.419 Y-0.6737 Z0.4904
X0.4218 Y-0.6745 Z0.4909
X0.4292 Y-0.6764 Z0.4923
X0.4369 Y-0.6778 Z0.4934
X0.4446 Y-0.6789 Z0.4945
X0.4523 Y-0.6796 Z0.4955
X0.4601 Y-0.68 Z0.4965
X0.4678 Y-0.6792
X0.4755 Y-0.6772 Z0.4956
X0.4829 Y-0.6734 Z0.4933
X0.4887 Y-0.6697 Z0.4908
X0.491 Y-0.6678 Z0.4893
X0.4928 Y-0.6657 Z0.4874
X0.4967 Y-0.6608 Z0.4825
X0.4987 Y-0.6579 Z0.479
X0.5064 Y-0.653 Z0.4745
X0.5103 Y-0.6502 Z0.4714
X0.5142 Y-0.6472 Z0.4675
X0.5148 Y-0.6466 Z0.4667
X0.5167 Y-0.6448 Z0.4637
X0.5186 Y-0.6425 Z0.459
X0.5188 Z0.4592
X0.5189 Y-0.6448 Z0.4656
X0.5193 Y-0.6466 Z0.47
X0.5207 Y-0.6502 Z0.4777
X0.5219 Y-0.6526 Z0.4821
X0.5259 Y-0.6564 Z0.4893
X0.5296 Y-0.6586 Z0.4938
X0.5335 Y-0.6603 Z0.4972
X0.5373 Y-0.6613 Z0.5001
X0.5451 Y-0.6618 Z0.5045
X0.5528 Y-0.6608 Z0.5075
X0.5567 Y-0.6598 Z0.5088
X0.5614 Y-0.6579 Z0.5098
X0.5683 Y-0.6544 Z0.5108
X0.576 Y-0.6499 Z0.5118
X0.5837 Y-0.6448 Z0.5127
X0.5871 Y-0.6425 Z0.5132
X0.5914 Y-0.6392 Z0.5136
X0.5967 Y-0.6348 Z0.514
X0.5992 Y-0.6322 Z0.5139
X0.6032 Y-0.627 Z0.513
X0.6069 Y-0.6208 Z0.5115
X0.6075 Y-0.6193 Z0.5109
X0.609 Y-0.6154 Z0.5094
X0.61 Y-0.6116 Z0.5074
X0.6112 Y-0.6038 Z0.5025
X0.6113 Y-0.6 Z0.4992
X0.611 Y-0.5961 Z0.4952
X0.6104 Y-0.5914 Z0.4891
X0.6089 Y-0.5884 Z0.4824
X0.6074 Y-0.5864 Z0.4761
X0.6072 Y-0.5845 Z0.4715
X0.6074 Y-0.5835 Z0.4698
X0.608 Y-0.5826 Z0.4692
X0.6094 Y-0.5806 Z0.4691
X0.6108 Y-0.5786 Z0.4687
X0.6116 Y-0.5774
X0.6125 Y-0.579 Z0.4747
X0.6146 Y-0.5801 Z0.4818
X0.6185 Y-0.5806 Z0.4897
X0.6223 Y-0.5804 Z0.4954
X0.6262 Y-0.5798 Z0.5003
X0.6301 Y-0.5791 Z0.5045
X0.6378 Y-0.5768 Z0.5115
X0.6445 Y-0.5729 Z0.5163
X0.6455 Y-0.572 Z0.5169
X0.6523 Y-0.5652 Z0.5205
X0.6533 Y-0.5641 Z0.521
X0.6576 Y-0.5574 Z0.5226
X0.661 Y-0.5495 Z0.5231
X0.6638 Y-0.542 Z0.5235
X0.6664 Y-0.5343 Z0.5239
X0.6687 Y-0.5263 Z0.5242
X0.6706 Y-0.5188 Z0.5244
X0.6722 Y-0.5111 Z0.5247
X0.6735 Y-0.5033
X0.6744 Y-0.4956
X0.6751 Y-0.4879
X0.6756 Y-0.4801 Z0.5249
X0.676 Y-0.4724 Z0.5251
Y-0.4647 Z0.5253
X0.6755 Y-0.4569 Z0.5252
X0.6747 Y-0.4492 Z0.525
X0.6736 Y-0.4415 Z0.5248
X0.6718 Y-0.4338 Z0.5241
X0.6708 Y-0.4299 Z0.5237
X0.6687 Y-0.4259 Z0.5223
X0.6641 Y-0.4183 Z0.519
X0.661 Y-0.415 Z0.5166
X0.6562 Y-0.4106 Z0.5126
X0.6533 Y-0.4086 Z0.5099
X0.6503 Y-0.4071 Z0.5068
X0.6513 Y-0.4028 Z0.5098
X0.6532 Y-0.3951 Z0.515
X0.6533 Y-0.3925 Z0.516
X0.653 Y-0.3874 Z0.5179
X0.6522 Y-0.3796 Z0.5204
X0.6496 Y-0.3719 Z0.5213
X0.6479 Y-0.368 Z0.5215
X0.6455 Y-0.3639 Z0.5212
X0.6398 Y-0.3564 Z0.5197
X0.6378 Y-0.3541 Z0.5192
X0.6313 Y-0.3487 Z0.5162
X0.6301 Y-0.348 Z0.5155
X0.6262 Y-0.3459 Z0.5133
X0.6223 Y-0.3444 Z0.5108
X0.6146 Y-0.3429 Z0.5045
X0.6108 Y-0.3428 Z0.5005
X0.6069 Y-0.3433 Z0.4955
X0.6059 Y-0.3435 Z0.4941
X0.6052 Y-0.3432 Z0.4935
X0.6054 Y-0.341 Z0.4961
X0.6052 Y-0.3371 Z0.4995
X0.6044 Y-0.3333 Z0.5022
X0.6026 Y-0.3255 Z0.5067
X0.5995 Y-0.3178 Z0.5101
X0.5992 Y-0.3171 Z0.5103
X0.5945 Y-0.3101 Z0.5123
X0.5914 Y-0.3065 Z0.5128
X0.5869 Y-0.3023 Z0.513
X0.5837 Y-0.3 Z0.5127
X0.5755 Y-0.2946 Z0.5117
X0.5683 Y-0.2905 Z0.5107
X0.5605 Y-0.2876 Z0.5086
X0.5568 Y-0.2869 Z0.5072
X0.5528 Y-0.2864 Z0.5054
X0.5489 Y-0.2862 Z0.5035
X0.544 Y-0.2869 Z0.5003
X0.5413 Y-0.2873 Z0.4984
X0.5373 Y-0.2888 Z0.4949
X0.535 Y-0.2898 Z0.4926
X0.5327 Y-0.2915 Z0.4894
X0.5324 Y-0.2919 Z0.4887
X0.532 Y-0.2914 Z0.4891
X0.5296 Y-0.2876 Z0.4922
X0.5253 Y-0.2825 Z0.4956
X0.5219 Y-0.279 Z0.4976
X0.5142 Y-0.2733 Z0.5003
X0.5112 Y-0.2714 Z0.5011
X0.5064 Y-0.2695 Z0.5014
X0.4987 Y-0.2671
X0.491 Y-0.2659 Z0.5005
X0.4833 Y-0.2652 Z0.4996
X0.4755 Y-0.2648 Z0.4985
X0.4678 Y-0.2647 Z0.4975
X0.4601 Y-0.2653 Z0.496
X0.4562 Y-0.2658 Z0.4951
X0.4523 Y-0.267 Z0.4937
X0.4446 Y-0.2706 Z0.4898
X0.4432 Y-0.2714 Z0.489
X0.4369 Y-0.2754 Z0.485
X0.4323 Y-0.2791 Z0.4813
X0.4292 Y-0.2827 Z0.4776
X0.4258 Y-0.2869 Z0.4729
X0.4236 Y-0.2892 Z0.4701
X0.4214 Y-0.2876 Z0.4727
X0.4201 Y-0.2869 Z0.4739
X0.4137 Y-0.2843 Z0.478
X0.406 Y-0.2817 Z0.4821
X0.3983 Y-0.2812 Z0.4841
X0.3905 Y-0.2815 Z0.4856
X0.3828 Y-0.2836 Z0.4857
X0.3749 Y-0.2869 Z0.4851
X0.3673 Y-0.2908 Z0.4842
X0.3596 Y-0.2952 Z0.4832
X0.3519 Y-0.3003 Z0.4821
X0.3491 Y-0.3023 Z0.4816
X0.3442 Y-0.3063 Z0.4806
X0.3405 Y-0.3101 Z0.4793
X0.3364 Y-0.3159 Z0.4768
X0.3355 Y-0.3178 Z0.4759
X0.3329 Y-0.3255 Z0.4714
X0.3321 Y-0.3333 Z0.4658
X0.3324 Y-0.3371 Z0.4622
X0.3338 Y-0.341 Z0.4575
X0.3364 Y-0.3458 Z0.4496
X0.3394 Y-0.3487 Z0.442
X0.3419 Y-0.3506 Z0.435
X0.3433 Y-0.3516 Z0.4304
X0.3422 Y-0.3526 Z0.4306
X0.3364 Y-0.3579 Z0.432
X0.3316 Y-0.3625 Z0.4336
X0.3306 Y-0.3623 Z0.4357
X0.3287 Y-0.3614 Z0.4401
X0.3251 Y-0.36 Z0.4469
X0.321 Y-0.3588 Z0.4529
X0.3132 Y-0.3593 Z0.4599
X0.3055 Y-0.3611 Z0.4649
X0.2987 Y-0.3642 Z0.4683
X0.2978 Y-0.3648 Z0.4687
X0.2901 Y-0.3706 Z0.4712
X0.2888 Y-0.3719 Z0.4715
X0.286 Y-0.3749 Z0.4723
X0.2827 Y-0.3796 Z0.4726
X0.2786 Y-0.3874 Z0.4724
X0.2753 Y-0.3951 Z0.472
X0.2723 Y-0.4028 Z0.4716
X0.2697 Y-0.4106 Z0.4713
X0.2675 Y-0.4183 Z0.4709
X0.2658 Y-0.426 Z0.4705
X0.2644 Y-0.4338 Z0.4701
X0.2642 Y-0.4415 Z0.4689
X0.264 Y-0.4492 Z0.468
X0.2623 Y-0.4569 Z0.4687
X0.261 Y-0.4647 Z0.4695
X0.2605 Y-0.4724 Z0.4698
Y-0.4801 Z0.47
X0.2606 Y-0.4879 Z0.4703
X0.2614 Y-0.4956 Z0.4704
X0.2624 Y-0.5033 Z0.4706
X0.2637 Y-0.5111 Z0.4708
X0.2654 Y-0.5188 Z0.4709
X0.2669 Y-0.5239
X0.2677 Y-0.5265 Z0.4708
X0.2709 Y-0.5343 Z0.4703
X0.2746 Y-0.5401 Z0.4691
X0.276 Y-0.542 Z0.4686
X0.2781 Y-0.5446 Z0.4678
X0.2823 Y-0.5484 Z0.4656
X0.2839 Y-0.5497 Z0.4649
X0.2901 Y-0.5531 Z0.4611
X0.2939 Y-0.5547 Z0.4584
X0.2978 Y-0.5557 Z0.455
X0.3015 Y-0.5562 Z0.4511
X0.3055 Y-0.5558 Z0.4457
X0.308 Y-0.5552 Z0.4416
X0.3093 Y-0.5549 Z0.4392
X0.3099 Y-0.5563 Z0.4395
X0.3102 Y-0.5574 Z0.4401
X0.311 Y-0.5612 Z0.4424
X0.3082 Y-0.5652 Z0.4495
X0.3055 Y-0.5712 Z0.4569
X0.305 Y-0.5729 Z0.4585
X0.3032 Y-0.5806 Z0.4648
X0.3033 Y-0.5884 Z0.4693
X0.3048 Y-0.5961 Z0.473
X0.3055 Y-0.5981 Z0.4737
X0.3088 Y-0.6038 Z0.4751
X0.3139 Y-0.6116 Z0.477
X0.3211 Y-0.6193 Z0.4781
X0.3294 Y-0.627 Z0.4791
X0.3364 Y-0.633 Z0.48
X0.3387 Y-0.6348 Z0.4803
X0.3442 Y-0.6388 Z0.4808
X0.3497 Y-0.6425 Z0.4813
X0.3519 Y-0.6438 Z0.4814
X0.3596 Y-0.6478 Z0.4815
X0.3664 Y-0.6502 Z0.481
X0.3673 Y-0.6504 Z0.4809
X0.3751 Y-0.6511 Z0.4787
X0.3828 Y-0.651 Z0.4761
X0.386 Y-0.6502 Z0.4743
X0.3905 Y-0.649 Z0.4715
X0.392 Y-0.6486 Z0.4704
X0.3923 Y-0.6493 Z0.4711
X0.3926 Y-0.6502 Z0.4721
X0.3943 Y-0.6541 Z0.4757
X0.3964 Y-0.6579 Z0.479
X0.3983 Y-0.6605 Z0.481
X0.4033 Y-0.6657 Z0.485
X0.406 Y-0.6676 Z0.4863
X0.4137 Y-0.6719 Z0.4893
X0.4181 Y-0.6734 Z0.4902
X0.4218 Y-0.6745 Z0.4909
X0.4272 Y-0.6755 Z0.4916
X0.43 Y-0.6758 Z0.4918
X0.4328 Y-0.6759
X0.4384 Y-0.6758 Z0.4916
X0.4439 Y-0.6754 Z0.4912
X0.4496 Y-0.6747 Z0.4906
X0.4552 Y-0.6738 Z0.49
X0.4608 Y-0.673 Z0.4896
X0.4665 Y-0.6722 Z0.4894
X0.4678 Y-0.672
X0.4717 Y-0.6709 Z0.4888
X0.4755 Y-0.6693 Z0.4876
X0.4817 Y-0.6657 Z0.4849
X0.4833 Y-0.6645 Z0.4838
X0.4869 Y-0.6608 Z0.4797
X0.489 Y-0.6579 Z0.4759
X0.491 Y-0.6555 Z0.4724
X0.4919 Y-0.6545 Z0.4709
X0.4929 Y-0.654 Z0.4704
X0.4948 Y-0.6533 Z0.4697
X0.4987 Y-0.6515 Z0.4679
X0.5013 Y-0.6502 Z0.4664
X0.5064 Y-0.6468 Z0.4612
X0.5086 Y-0.645 Z0.4579
X0.5108 Y-0.6425 Z0.4507
X0.5116 Y-0.6415 Z0.4469
X0.5122 Y-0.6404 Z0.4409
X0.5127 Y-0.6401 Z0.4399
X0.5142 Y-0.6397 Z0.4393
X0.5219 Y-0.6373 Z0.4369
X0.5258 Y-0.636 Z0.4359
X0.527 Y-0.6359 Z0.4417
X0.5277 Y-0.6362 Z0.4459
X0.5281 Y-0.6367 Z0.4497
X0.5282 Y-0.6377 Z0.4542
Y-0.6396 Z0.4609
X0.5284 Y-0.6425 Z0.4686
X0.5296 Y-0.6458 Z0.4762
X0.5306 Y-0.648 Z0.4807
X0.5328 Y-0.6502 Z0.4854
X0.5373 Y-0.6527 Z0.4914
X0.5412 Y-0.6538 Z0.4948
X0.5451 Y-0.6542 Z0.4973
X0.5489 Y-0.6541 Z0.4993
X0.5528 Y-0.6533 Z0.5009
X0.5567 Y-0.6523 Z0.5022
X0.5605 Y-0.6507 Z0.5029
X0.5615 Y-0.6502 Z0.5031
X0.5683 Y-0.6464 Z0.504
X0.576 Y-0.6418 Z0.5049
X0.5837 Y-0.6365 Z0.506
X0.5861 Y-0.6348 Z0.5063
X0.5914 Y-0.6304 Z0.5066
X0.5947 Y-0.627
X0.5992 Y-0.6207 Z0.5051
X0.5998 Y-0.6193 Z0.5045
X0.6015 Y-0.6154 Z0.5028
X0.6025 Y-0.6116 Z0.5005
X0.6033 Y-0.6077 Z0.4977
X0.6037 Y-0.6038 Z0.494
X0.6036 Y-0.6007 Z0.4902
X0.6035 Y-0.5982 Z0.487
X0.6025 Y-0.5961 Z0.4824
X0.6005 Y-0.5935 Z0.4737
Y-0.5914 Z0.4685
X0.6014 Y-0.5884 Z0.4626
X0.6025 Y-0.5864 Z0.4596
X0.6071 Y-0.5806 Z0.4594
X0.6099 Y-0.5768 Z0.4585
X0.6146 Y-0.5696 Z0.4554
X0.6173 Y-0.5652 Z0.4532
X0.6177 Y-0.5646 Z0.4541
X0.6182 Y-0.5649 Z0.4606
X0.6181 Y-0.5652 Z0.461
X0.6172 Y-0.569 Z0.4686
X0.6185 Y-0.5712 Z0.4771
X0.6204 Y-0.5718 Z0.4825
X0.6223 Y-0.5719 Z0.4867
X0.6268 Y-0.5714 Z0.494
X0.6301 Y-0.5706 Z0.4983
X0.6339 Y-0.5696 Z0.5029
X0.6378 Y-0.568 Z0.5068
X0.6423 Y-0.5652 Z0.5104
X0.6455 Y-0.5622 Z0.5123
X0.6496 Y-0.5574 Z0.5144
X0.6521 Y-0.5532 Z0.5154
X0.6537 Y-0.5497 Z0.5156
X0.6567 Y-0.542 Z0.516
X0.6594 Y-0.5343 Z0.5164
X0.661 Y-0.5291 Z0.5166
X0.6638 Y-0.5188 Z0.5169
X0.6654 Y-0.5111 Z0.5172
X0.6668 Y-0.5033 Z0.5173
X0.6677 Y-0.4956 Z0.5172
X0.6684 Y-0.4879
X0.6693 Y-0.4724 Z0.5177
X0.6692 Y-0.4647 Z0.5179
X0.6687 Y-0.4554 Z0.5177
X0.668 Y-0.4492 Z0.5176
X0.6668 Y-0.4415 Z0.5173
X0.6649 Y-0.4338 Z0.5166
X0.6608 Y-0.426 Z0.5136
X0.6564 Y-0.4209 Z0.5096
X0.6533 Y-0.418 Z0.5064
X0.6499 Y-0.416 Z0.5023
X0.6477 Y-0.4149 Z0.4992
X0.6455 Y-0.4145 Z0.4956
X0.6436 Y-0.4146 Z0.4918
X0.6417 Y-0.4154 Z0.4869
X0.6397 Y-0.4168 Z0.4806
X0.6378 Y-0.4176 Z0.4728
X0.637 Y-0.4175 Z0.4693
X0.6364 Y-0.4169 Z0.4669
X0.6363 Y-0.4144 Z0.4708
X0.6365 Y-0.4101 Z0.4774
X0.6371 Y-0.4099 Z0.4796
X0.6378 Y-0.41 Z0.4816
X0.6391 Y-0.4098 Z0.4852
X0.6404 Y-0.409 Z0.4889
X0.6423 Y-0.4067 Z0.4945
X0.6439 Y-0.4028 Z0.4996
X0.6455 Y-0.3951 Z0.5062
X0.6462 Y-0.3912 Z0.509
X0.646 Y-0.3874 Z0.5106
X0.6455 Y-0.3816 Z0.5127
X0.6452 Y-0.3796 Z0.5133
X0.6423 Y-0.3719 Z0.5141
X0.6402 Y-0.368 Z0.5139
X0.6372 Y-0.3642 Z0.5131
X0.6341 Y-0.3603 Z0.5123
X0.6301 Y-0.3568 Z0.5104
X0.6266 Y-0.3546 Z0.5083
X0.6223 Y-0.3528 Z0.5053
X0.6185 Y-0.3518 Z0.5018
X0.6146 Y-0.3514 Z0.4973
X0.612 Y-0.3517 Z0.4936
X0.6095 Y-0.3521 Z0.4893
X0.6069 Y-0.3537 Z0.4828
X0.6053 Y-0.3544 Z0.4787
X0.6037 Y-0.3542 Z0.4754
X0.602 Y-0.3539 Z0.4717
X0.6007 Z0.4679
X0.5992 Y-0.3546 Z0.4601
X0.5982 Y-0.3548 Z0.4526
X0.5972 Y-0.3536 Z0.4541
X0.5937 Y-0.3487 Z0.4603
X0.5924 Y-0.3466 Z0.4632
X0.5937 Y-0.346 Z0.4688
X0.595 Y-0.3447 Z0.4749
X0.5967 Y-0.3426 Z0.4819
X0.5975 Y-0.341 Z0.4856
X0.5977 Y-0.3365 Z0.4916
X0.5973 Y-0.3333 Z0.4948
X0.595 Y-0.3255 Z0.5001
X0.5931 Y-0.3207 Z0.5029
X0.5914 Y-0.3178 Z0.504
X0.5892 Y-0.3144 Z0.505
X0.5854 Y-0.3101 Z0.5057
X0.5837 Y-0.3085 Z0.5058
X0.575 Y-0.3023 Z0.5048
X0.5683 Y-0.2983 Z0.504
X0.5644 Y-0.2965 Z0.5032
X0.5605 Y-0.2951 Z0.502
X0.5581 Y-0.2946 Z0.501
X0.5528 Y-0.294 Z0.4986
X0.5466 Y-0.2946 Z0.4941
X0.5451 Y-0.295 Z0.4927
X0.5415 Y-0.2964 Z0.4887
X0.5373 Y-0.3003 Z0.4801
X0.5321 Y-0.3023 Z0.472
X0.5296 Y-0.3036 Z0.4668
X0.528 Y-0.3049 Z0.4617
X0.5275 Y-0.3023 Z0.4677
X0.5269 Y-0.2979 Z0.4764
X0.5255 Y-0.2946 Z0.4808
X0.5219 Y-0.2894 Z0.4861
X0.5195 Y-0.2869 Z0.4881
X0.5165 Y-0.2838 Z0.4905
X0.5142 Y-0.282 Z0.4916
X0.5101 Y-0.2791 Z0.4932
X0.5064 Y-0.2769 Z0.4942
X0.4987 Y-0.2742 Z0.4944
X0.491 Y-0.2731 Z0.4936
X0.4833 Y-0.2723 Z0.4925
X0.4755 Y-0.2719 Z0.4915
X0.4678 Y-0.2718 Z0.4904
X0.4601 Y-0.2726 Z0.4888
X0.4562 Y-0.2736 Z0.4873
X0.4523 Y-0.2754 Z0.4853
X0.4454 Y-0.2791 Z0.481
X0.4405 Y-0.2827 Z0.4767
X0.4369 Y-0.2863 Z0.4721
X0.4334 Y-0.2903 Z0.4667
X0.4319 Y-0.292 Z0.4641
X0.4303 Y-0.2946 Z0.4598
X0.4298 Y-0.2985 Z0.4518
X0.4299 Y-0.2993 Z0.4497
X0.4317 Y-0.3012 Z0.4433
X0.4343 Y-0.3023 Z0.4372
X0.4351 Y-0.3028 Z0.4345
X0.4357 Y-0.3036 Z0.4285
X0.4351 Y-0.3044 Z0.422
X0.4343 Y-0.3046 Z0.4214
X0.4317 Y-0.3052
X0.4292 Y-0.3058 Z0.4215
X0.4282 Y-0.306 Z0.4217
X0.4272 Z0.425
X0.4263 Y-0.3056 Z0.4293
X0.4253 Y-0.3049 Z0.4343
X0.424 Y-0.3034 Z0.4413
X0.4235 Y-0.3023 Z0.445
X0.4214 Y-0.2995 Z0.4532
X0.4199 Y-0.2973 Z0.4582
X0.419 Y-0.296 Z0.4609
X0.4173 Y-0.2946 Z0.4638
X0.4137 Y-0.2923 Z0.4684
X0.406 Y-0.2897 Z0.4739
X0.4021 Y-0.2886 Z0.476
X0.3983 Y-0.2885 Z0.4771
X0.3905 Y-0.2889 Z0.4788
X0.3828 Y-0.2911
X0.3751 Y-0.295 Z0.4779
X0.3673 Y-0.2991 Z0.4768
X0.3596 Y-0.3039 Z0.4759
X0.3519 Y-0.3094 Z0.4746
X0.3511 Y-0.3101 Z0.4744
X0.347 Y-0.3142 Z0.473
X0.3445 Y-0.3178 Z0.4712
X0.3442 Y-0.3184 Z0.4709
X0.3416 Y-0.3255 Z0.4664
X0.3409 Y-0.3294 Z0.4632
X0.3411 Y-0.3333 Z0.4592
X0.3425 Y-0.3366 Z0.4542
X0.3442 Y-0.3395 Z0.449
X0.3456 Y-0.341 Z0.4452
X0.349 Y-0.3437 Z0.4359
X0.3509 Y-0.345 Z0.4293
X0.3519 Y-0.3456 Z0.4254
Y-0.3465 Z0.4227
X0.3498 Y-0.3487 Z0.4216
X0.3461 Y-0.3526 Z0.4206
X0.3442 Y-0.3545 Z0.4208
X0.3422 Y-0.3564 Z0.4213
X0.3364 Y-0.3623 Z0.4229
X0.3346 Y-0.3642 Z0.4236
X0.3287 Y-0.3705 Z0.4259
X0.3278 Y-0.3715 Z0.4264
X0.3269 Y-0.3713 Z0.4289
X0.3251 Y-0.3705 Z0.4338
X0.321 Y-0.3686 Z0.443
X0.3166 Y-0.3673 Z0.45
X0.3132 Y-0.3675 Z0.4536
X0.3094 Y-0.3684 Z0.457
X0.3055 Y-0.3697 Z0.4598
X0.3009 Y-0.3719 Z0.4624
X0.2978 Y-0.3741 Z0.4636
X0.2956 Y-0.3759 Z0.4645
X0.2918 Y-0.3796 Z0.4656
X0.2901 Y-0.3818 Z0.466
X0.2868 Y-0.3874 Z0.4659
X0.2834 Y-0.3951 Z0.4656
X0.2823 Y-0.3975 Z0.4654
X0.2803 Y-0.4028 Z0.4651
X0.2776 Y-0.4106 Z0.4648
X0.2753 Y-0.4183 Z0.4644
X0.2734 Y-0.426 Z0.464
X0.2719 Y-0.4338 Z0.4635
X0.2717 Y-0.4415 Z0.4623
Y-0.4492 Z0.4612
X0.27 Y-0.4569 Z0.462
X0.2685 Y-0.4647 Z0.4629
X0.268 Y-0.4724 Z0.4631
Y-0.4801 Z0.4635
X0.2681 Y-0.4879 Z0.4637
X0.269 Y-0.4956 Z0.4639
X0.2699 Y-0.5033 Z0.464
X0.2713 Y-0.5111 Z0.4642
X0.2731 Y-0.5188
X0.2746 Y-0.5235
X0.2757 Y-0.5265 Z0.4641
X0.2781 Y-0.5319 Z0.4635
X0.2823 Y-0.5377 Z0.4619
X0.2869 Y-0.542 Z0.4593
X0.2901 Y-0.5439 Z0.457
X0.2939 Y-0.5458 Z0.4537
X0.2978 Y-0.5469 Z0.4498
X0.3006 Y-0.547 Z0.4462
X0.3055 Y-0.5457 Z0.4376
X0.3094 Y-0.5448 Z0.4289
X0.3113 Y-0.5454 Z0.4249
X0.312 Y-0.5459 Z0.4239
X0.3122 Y-0.5472 Z0.4249
X0.3128 Y-0.5497 Z0.4266
X0.3132 Y-0.5513 Z0.4276
X0.3152 Y-0.5574 Z0.4309
X0.3168 Y-0.5622 Z0.4335
X0.3182 Y-0.5683 Z0.4383
X0.3158 Y-0.5709 Z0.4446
X0.3145 Y-0.5729 Z0.4483
X0.3132 Y-0.5759 Z0.4523
X0.312 Y-0.5806 Z0.4573
X0.3115 Y-0.5845 Z0.4608
X0.3116 Y-0.5884 Z0.4634
X0.3121 Y-0.5922 Z0.4657
X0.3132 Y-0.5965 Z0.4675
X0.3177 Y-0.6038 Z0.4696
X0.321 Y-0.6085 Z0.4706
X0.3238 Y-0.6116 Z0.471
X0.3287 Y-0.6163 Z0.4717
X0.3319 Y-0.6193 Z0.472
X0.3364 Y-0.6234 Z0.4726
X0.3408 Y-0.627 Z0.4732
X0.3442 Y-0.6297 Z0.4736
X0.3519 Y-0.6353 Z0.4744
X0.3596 Y-0.6399 Z0.4748
X0.366 Y-0.6425 Z0.4745
X0.3673 Y-0.6428 Z0.4743
X0.3751 Y-0.6437 Z0.4718
X0.3789 Y-0.6438 Z0.4703
X0.3828 Y-0.643 Z0.4677
X0.3854 Y-0.6425 Z0.4658
X0.3905 Y-0.6412 Z0.4616
X0.3944 Y-0.6392 Z0.4563
X0.3959 Y-0.6377 Z0.4526
X0.3983 Y-0.6351 Z0.4454
X0.4002 Y-0.633 Z0.438
X0.4011 Y-0.6326 Z0.4352
X0.406 Y-0.6343 Z0.4349
X0.4099 Y-0.6357 Z0.4351
X0.4092 Y-0.6367 Z0.4392
X0.4079 Y-0.6382 Z0.4448
X0.406 Y-0.6395 Z0.4494
X0.4024 Y-0.6425 Z0.4573
X0.4017 Y-0.6464 Z0.4637
X0.402 Y-0.6502 Z0.4688
X0.4042 Y-0.6545 Z0.4735
X0.406 Y-0.6568 Z0.4757
X0.4069 Y-0.6579 Z0.4768
X0.4098 Y-0.6609 Z0.4792
X0.4137 Y-0.6636 Z0.4812
X0.4181 Y-0.6657 Z0.4828
X0.4214 Y-0.6668 Z0.4835
X0.4292 Y-0.669 Z0.485
X0.4369 Y-0.6706 Z0.4863
X0.4446 Y-0.6717 Z0.4873
X0.4523 Y-0.6725 Z0.4885
X0.4601 Y-0.673 Z0.4894
X0.4665 Y-0.6722
X0.4677 Y-0.6719 Z0.4893
X0.4693 Y-0.6714 Z0.489
X0.4704 Y-0.6708 Z0.4886
X0.4717 Y-0.67 Z0.4878
X0.4729 Y-0.669 Z0.487
X0.4735 Y-0.6685 Z0.4865
X0.4745 Y-0.6674 Z0.4854
X0.4753 Y-0.6663 Z0.4842
X0.476 Y-0.6652 Z0.483
X0.4773 Y-0.6625 Z0.4798
X0.4785 Y-0.66 Z0.4766
X0.4796 Y-0.6576 Z0.473
X0.4803 Y-0.6564 Z0.4712
X0.4807 Y-0.6559 Z0.4703
X0.4813 Y-0.6554 Z0.4695
X0.4833 Y-0.6532 Z0.4659
X0.4854 Y-0.6518 Z0.4635
X0.4875 Y-0.651 Z0.4624
X0.491 Y-0.6501 Z0.4611
X0.4948 Y-0.6485 Z0.4589
X0.4987 Y-0.6464 Z0.4549
X0.4999 Y-0.6456 Z0.453
X0.5011 Y-0.6444 Z0.4493
X0.5019 Y-0.6435 Z0.4455
X0.5024 Y-0.6425 Z0.44
X0.5034 Y-0.6418 Z0.4353
X0.5044 Y-0.6415 Z0.4338
X0.5064 Y-0.6411 Z0.4316
X0.5142 Y-0.6392 Z0.4286
X0.5219 Y-0.6371 Z0.4266
X0.5258 Y-0.6359 Z0.4257
X0.5291 Y-0.6348 Z0.4262
X0.5296 Y-0.6346 Z0.4264
X0.5316 Y-0.6338 Z0.4274
X0.5335 Y-0.633 Z0.4296
X0.5344 Y-0.6327 Z0.4316
X0.5354 Y-0.6323 Z0.4358
X0.5364 Y-0.6322 Z0.4417
X0.5373 Y-0.6326 Z0.4488
X0.5375 Y-0.6339 Z0.4552
X0.5374 Y-0.6348 Z0.4584
X0.5375 Y-0.6367 Z0.4645
X0.5376 Y-0.6387 Z0.4695
X0.539 Y-0.6425 Z0.4783
X0.5398 Y-0.6439 Z0.4812
X0.5415 Y-0.6453 Z0.4845
X0.5451 Y-0.6467 Z0.4889
X0.5499 Y-0.6468 Z0.4925
X0.5528 Y-0.6462 Z0.4938
X0.5567 Y-0.6452 Z0.4952
X0.5605 Y-0.6433 Z0.4959
X0.5683 Y-0.6387 Z0.4969
X0.5747 Y-0.6348 Z0.4977
X0.576 Y-0.6339 Z0.4979
X0.5856 Y-0.627 Z0.499
X0.5896 Y-0.6232
X0.5914 Y-0.6208 Z0.4985
X0.5924 Y-0.6193 Z0.4978
X0.5944 Y-0.6154 Z0.4958
X0.5955 Y-0.6116 Z0.4928
X0.596 Y-0.6077 Z0.4889
Y-0.6038 Z0.4835
X0.5944 Y-0.6017 Z0.477
X0.5934 Y-0.6007 Z0.4731
X0.5933 Y-0.5997 Z0.4704
Y-0.5982 Z0.4666
X0.5938 Y-0.5961 Z0.4613
X0.5953 Y-0.5935 Z0.4564
X0.5969 Y-0.5914 Z0.4525
X0.5995 Y-0.5884 Z0.4498
X0.6061 Y-0.5806 Z0.4494
X0.6069 Y-0.5797
X0.612 Y-0.5729 Z0.4463
X0.6146 Y-0.5691 Z0.4443
X0.6172 Y-0.5652 Z0.4424
X0.6184 Y-0.5632 Z0.4423
X0.6196 Y-0.5613 Z0.4431
X0.6207 Y-0.5594 Z0.4445
X0.6217 Y-0.5574 Z0.4471
X0.6223 Y-0.5563 Z0.4495
X0.6229 Y-0.5557 Z0.4559
X0.6234 Y-0.5561 Z0.4625
X0.6233 Y-0.5569 Z0.4643
X0.6227 Y-0.5594 Z0.4681
Y-0.5613 Z0.4719
X0.6235 Y-0.5626 Z0.4767
X0.6246 Y-0.5629 Z0.4803
X0.6268 Y-0.563 Z0.4856
X0.6301 Y-0.5623 Z0.4915
X0.6352 Y-0.5607 Z0.4986
X0.6378 Y-0.5595 Z0.5015
X0.6408 Y-0.5574 Z0.5042
X0.6443 Y-0.5536 Z0.5067
X0.6455 Y-0.5516 Z0.5073
X0.6466 Y-0.5497 Z0.5078
X0.6499 Y-0.542 Z0.5083
X0.6533 Y-0.5325 Z0.5087
X0.6551 Y-0.5265 Z0.509
X0.6572 Y-0.5188 Z0.5093
X0.6589 Y-0.5111 Z0.5095
X0.6603 Y-0.5033 Z0.5096
X0.661 Y-0.4983 Z0.5095
X0.662 Y-0.4879
X0.6625 Y-0.4801 Z0.5098
X0.6629 Y-0.4724 Z0.51
X0.6628 Y-0.4647 Z0.5102
X0.6624 Y-0.4569 Z0.5101
X0.6615 Y-0.4492 Z0.5099
X0.6604 Y-0.4415 Z0.5096
X0.6596 Y-0.4381 Z0.5093
X0.6576 Y-0.4338 Z0.5077
X0.6562 Y-0.4312 Z0.5063
X0.6533 Y-0.4278 Z0.5029
X0.6515 Y-0.426 Z0.5006
X0.648 Y-0.4242 Z0.4954
X0.6455 Y-0.4243 Z0.4901
X0.6434 Y-0.426 Z0.4837
X0.6408 Y-0.4272 Z0.4739
X0.6398 Y-0.4271 Z0.469
X0.6389 Y-0.4266 Z0.4641
X0.6384 Y-0.426 Z0.461
X0.6378 Y-0.4248 Z0.4576
X0.637 Y-0.4225 Z0.4555
X0.6365 Y-0.421 Z0.4544
X0.6361 Y-0.4195 Z0.4542
X0.6357 Y-0.4183
X0.6344 Y-0.4144 Z0.4555
X0.6337 Y-0.4125 Z0.4567
X0.6332 Y-0.4106 Z0.4592
X0.6325 Y-0.4067 Z0.4657
X0.632 Y-0.4028 Z0.472
X0.6321 Y-0.4017 Z0.474
X0.6325 Y-0.4007 Z0.477
X0.6333 Y-0.4005 Z0.4797
X0.6349 Y-0.4006 Z0.4839
X0.6359 Y-0.4004 Z0.4864
X0.6373 Y-0.399 Z0.4906
X0.6378 Y-0.3977 Z0.4927
X0.6386 Y-0.3951 Z0.4961
X0.6396 Y-0.3874 Z0.5026
X0.6384 Y-0.3796 Z0.5059
X0.6378 Y-0.3779 Z0.5062
X0.6365 Y-0.3747 Z0.5065
X0.6349 Y-0.3719 Z0.5063
X0.6301 Y-0.3656 Z0.5048
X0.6284 Y-0.3642 Z0.5039
X0.6266 Y-0.3628 Z0.5027
X0.6223 Y-0.3606 Z0.499
X0.6181 Y-0.3601 Z0.4937
X0.6146 Y-0.3605 Z0.4878
X0.6127 Y-0.3619 Z0.4824
X0.6108 Y-0.3627 Z0.4769
X0.6069 Y-0.3618 Z0.4677
X0.6059 Y-0.362 Z0.4627
X0.6055 Y-0.3623 Z0.4594
X0.605 Y-0.3626 Z0.4543
X0.6049 Y-0.3628 Z0.4503
X0.6047 Y-0.3627 Z0.4454
X0.6037 Y-0.3614 Z0.4426
X0.602 Y-0.3593 Z0.4406
X0.5994 Y-0.3564 Z0.4397
X0.5992 Y-0.3562 Z0.4398
X0.5959 Y-0.3528 Z0.4415
X0.5914 Y-0.3482 Z0.4479
X0.5882 Y-0.3447 Z0.4529
X0.5852 Y-0.341 Z0.4585
X0.5846 Y-0.34 Z0.4606
X0.5856 Y-0.3392 Z0.4665
X0.5865 Y-0.3391 Z0.4689
X0.5885 Y-0.3371 Z0.4771
X0.5899 Y-0.3352 Z0.4827
Y-0.3333 Z0.4857
X0.5898 Y-0.3312 Z0.4884
X0.5893 Y-0.3294 Z0.4901
X0.5878 Y-0.3255 Z0.4931
X0.586 Y-0.3214 Z0.4959
X0.5837 Y-0.3178 Z0.4974
X0.5798 Y-0.3137 Z0.4982
X0.576 Y-0.311 Z0.4979
X0.5683 Y-0.3059 Z0.497
X0.5644 Y-0.3038 Z0.4964
X0.5605 Y-0.3023 Z0.4951
X0.5567 Y-0.3014 Z0.4931
X0.5528 Y-0.3015 Z0.4904
X0.5493 Y-0.3023 Z0.4867
X0.5478 Y-0.3035 Z0.4838
X0.5451 Y-0.3062 Z0.4769
X0.5412 Y-0.3073 Z0.4704
X0.5393 Y-0.3076 Z0.4675
X0.5373 Y-0.3087 Z0.4621
X0.5361 Y-0.3101 Z0.4556
X0.5354 Y-0.311 Z0.4499
X0.5344 Y-0.3115 Z0.4436
X0.5335 Y-0.3113 Z0.4417
X0.5316 Y-0.3108 Z0.4394
X0.5295 Y-0.3101 Z0.4384
X0.5258 Y-0.3088 Z0.4377
X0.5238 Y-0.3081 Z0.4383
X0.5219 Y-0.3074 Z0.4396
X0.52 Y-0.3066 Z0.4416
X0.5188 Y-0.3057 Z0.4454
X0.5184 Y-0.3049 Z0.4493
X0.5182 Y-0.3035 Z0.4551
X0.5181 Y-0.3023 Z0.4588
X0.518 Y-0.2985 Z0.4687
X0.5179 Y-0.297 Z0.4717
X0.517 Y-0.2946 Z0.4756
X0.5142 Y-0.291 Z0.48
X0.5097 Y-0.2869 Z0.4839
X0.5064 Y-0.2847 Z0.4854
X0.5026 Y-0.2824 Z0.4868
X0.4987 Y-0.2811 Z0.4871
X0.491 Y-0.2799 Z0.4862
X0.4833 Y-0.2791 Z0.4852
X0.4755 Y-0.2787 Z0.4841
X0.4678 Y-0.2786 Z0.483
X0.4632 Y-0.2791 Z0.4819
X0.4601 Y-0.28 Z0.4806
X0.4523 Y-0.2837 Z0.4754
X0.4473 Y-0.2869 Z0.4707
X0.4446 Y-0.2897 Z0.4662
X0.441 Y-0.2931 Z0.4602
X0.44 Y-0.2946 Z0.4573
X0.4397 Y-0.2965 Z0.4529
Y-0.2975 Z0.4505
X0.4404 Y-0.2985 Z0.4475
X0.4425 Y-0.2995 Z0.4432
X0.4446 Y-0.3007 Z0.4373
X0.4456 Y-0.3016 Z0.432
Y-0.3023 Z0.4251
X0.4446 Y-0.3027 Z0.4188
X0.4436 Y-0.3029 Z0.4157
X0.4408 Y-0.3034 Z0.4124
X0.4369 Y-0.3042 Z0.4114
X0.4292 Y-0.306
X0.4253 Y-0.3071 Z0.4121
X0.4234 Y-0.3078 Z0.4125
X0.4214 Y-0.3084 Z0.414
X0.4202 Y-0.3088 Z0.4157
X0.4189 Y-0.309 Z0.4192
X0.4176 Z0.424
X0.4164 Y-0.3084 Z0.4301
X0.4151 Y-0.3072 Z0.4371
X0.4144 Y-0.3062 Z0.441
X0.4137 Y-0.3047 Z0.4457
X0.4118 Y-0.3023 Z0.4525
X0.4098 Y-0.2994 Z0.459
X0.406 Y-0.2971 Z0.4643
X0.3983 Y-0.2952 Z0.4696
X0.3905 Y-0.2959 Z0.4717
X0.3867 Y-0.297
X0.3828 Y-0.2989 Z0.4713
X0.3751 Y-0.3029 Z0.4703
X0.3673 Y-0.3074 Z0.4693
X0.3596 Y-0.3122 Z0.4682
X0.3558 Y-0.3154 Z0.4673
X0.3536 Y-0.3178 Z0.4663
X0.3519 Y-0.3202 Z0.4649
X0.3498 Y-0.3255 Z0.4607
X0.3499 Y-0.3294 Z0.4564
X0.352 Y-0.3333 Z0.4494
X0.3538 Y-0.3351 Z0.4444
X0.3558 Y-0.3366 Z0.4393
X0.3577 Y-0.338 Z0.4333
X0.3596 Y-0.3393 Z0.4257
X0.3603 Y-0.34 Z0.421
X0.3601 Y-0.341 Z0.4174
X0.3596 Y-0.3416 Z0.4164
X0.3558 Y-0.3453 Z0.4135
X0.3522 Y-0.3487 Z0.4117
X0.3484 Y-0.3526 Z0.4107
X0.3447 Y-0.3564 Z0.411
X0.3374 Y-0.3642 Z0.4131
X0.3364 Y-0.3654 Z0.4134
X0.3309 Y-0.3719 Z0.4158
X0.3287 Y-0.3746 Z0.4168
X0.3265 Y-0.3774 Z0.4182
X0.3241 Y-0.3796 Z0.4213
X0.3231 Y-0.3801 Z0.4232
X0.3214 Y-0.3796 Z0.4285
X0.321 Y-0.3795 Z0.4297
X0.3187 Y-0.3784 Z0.4358
X0.3164 Y-0.3773 Z0.4409
X0.3132 Y-0.3761 Z0.4465
X0.3094 Y-0.3764 Z0.451
X0.3055 Y-0.3779 Z0.4541
X0.3024 Y-0.3796 Z0.4562
X0.2978 Y-0.3836 Z0.4585
X0.2948 Y-0.3874 Z0.4591
X0.2912 Y-0.3951 Z0.4588
X0.2879 Y-0.4028 Z0.4583
X0.2852 Y-0.4106 Z0.458
X0.2827 Y-0.4183 Z0.4576
X0.2808 Y-0.426 Z0.4572
X0.2792 Y-0.4338 Z0.4566
X0.2789 Y-0.4415 Z0.4552
X0.2787 Y-0.4492 Z0.454
X0.2783 Y-0.4531 Z0.4539
X0.2773 Y-0.4569 Z0.4546
X0.2757 Y-0.4647 Z0.4559
X0.2752 Y-0.4724 Z0.4562
Y-0.4801 Z0.4566
X0.2754 Y-0.4879 Z0.4568
X0.2763 Y-0.4956 Z0.457
X0.2773 Y-0.5033 Z0.4571
X0.2787 Y-0.5111 Z0.4574
X0.2806 Y-0.5188
X0.2823 Y-0.5238 Z0.4572
X0.2834 Y-0.5265 Z0.457
X0.2868 Y-0.5318 Z0.4552
X0.2894 Y-0.5343 Z0.4535
X0.2901 Y-0.5348 Z0.453
X0.2939 Y-0.5369 Z0.4493
X0.2959 Y-0.5375 Z0.4471
X0.2978 Z0.4444
X0.3018 Y-0.5365 Z0.4373
X0.3055 Y-0.5354 Z0.4288
X0.3075 Y-0.5356 Z0.4241
X0.3094 Y-0.5369 Z0.4197
X0.311 Y-0.5386 Z0.4161
X0.312 Y-0.54 Z0.4147
X0.3131 Y-0.542 Z0.4137
X0.3132 Y-0.5423 Z0.4136
X0.3149 Y-0.5459 Z0.4139
X0.3164 Y-0.5497 Z0.4156
X0.3172 Y-0.5526 Z0.4181
X0.319 Y-0.5574 Z0.4212
X0.321 Y-0.5622 Z0.4238
X0.3223 Y-0.5652 Z0.4256
X0.3248 Y-0.5729 Z0.4323
X0.3252 Y-0.5748 Z0.4344
X0.3246 Y-0.5768 Z0.4381
X0.322 Y-0.5787 Z0.4444
X0.321 Y-0.5808 Z0.448
X0.3201 Y-0.5841 Z0.4523
X0.3196 Y-0.5884 Z0.4565
X0.32 Y-0.5926 Z0.4596
X0.3212 Y-0.5961 Z0.4614
X0.3264 Y-0.6038 Z0.4636
X0.3287 Y-0.6064 Z0.4639
X0.334 Y-0.6116 Z0.4647
X0.3364 Y-0.6138 Z0.465
X0.3426 Y-0.6193 Z0.4658
X0.3442 Y-0.6206 Z0.466
X0.3523 Y-0.627 Z0.4669
X0.3596 Y-0.632 Z0.4677
X0.3648 Y-0.6348 Z0.4676
X0.3673 Y-0.6357 Z0.4673
X0.3751 Y-0.6368 Z0.4644
X0.3828 Y-0.6357 Z0.4582
X0.3856 Y-0.6348 Z0.4548
X0.3879 Y-0.6325 Z0.449
X0.3905 Y-0.6294 Z0.4394
X0.392 Y-0.6281 Z0.4333
X0.3935 Y-0.6277 Z0.4292
X0.3954 Y-0.6281 Z0.4272
X0.3983 Y-0.6291 Z0.4257
X0.406 Y-0.6322 Z0.425
X0.413 Y-0.6348 Z0.4254
X0.4158 Y-0.6357 Z0.4266
X0.4176 Y-0.6365 Z0.428
X0.4185 Y-0.6369 Z0.4291
X0.4194 Y-0.6377 Z0.4316
X0.4196 Y-0.6386 Z0.4357
X0.4181 Y-0.6406 Z0.4436
X0.4163 Y-0.6425 Z0.4498
X0.4137 Y-0.6439 Z0.4542
X0.4118 Y-0.6455 Z0.4582
X0.4115 Y-0.6472 Z0.4612
X0.4116 Y-0.6502 Z0.4659
X0.4124 Y-0.652 Z0.4682
X0.4137 Y-0.6537 Z0.47
X0.4161 Y-0.6564 Z0.4728
X0.4185 Y-0.6579 Z0.4743
X0.4214 Y-0.6595 Z0.4757
X0.4292 Y-0.6619 Z0.4775
X0.4369 Y-0.6636 Z0.4789
X0.4446 Y-0.6648 Z0.4799
X0.4538 Y-0.6657 Z0.4813
X0.4601 Y-0.6662 Z0.4821
X0.4652 Y-0.6657 Z0.4822
X0.4678 Y-0.6651 Z0.4817
X0.4717 Y-0.6636 Z0.4803
X0.4755 Y-0.6616 Z0.4782
X0.4775 Y-0.6599 Z0.4761
X0.4791 Y-0.6579 Z0.4735
X0.4813 Y-0.6554 Z0.4695
X0.4817 Y-0.6547 Z0.4684
X0.4822 Y-0.654 Z0.4672
X0.4832 Y-0.6528 Z0.4649
X0.4847 Y-0.6504 Z0.46
X0.486 Y-0.6484 Z0.4549
X0.4873 Y-0.6467 Z0.4497
X0.4887 Y-0.6453 Z0.4444
X0.4904 Y-0.6442 Z0.4392
X0.4914 Y-0.6438 Z0.4366
X0.4926 Y-0.6434 Z0.4341
X0.4939 Y-0.6431 Z0.4317
X0.4954 Y-0.6429 Z0.4293
X0.4977 Y-0.6425 Z0.426
X0.4987 Y-0.6423 Z0.4249
X0.5026 Y-0.6417 Z0.4221
X0.5064 Y-0.641 Z0.4206
X0.5142 Y-0.6392 Z0.4182
X0.5219 Y-0.6371 Z0.4163
X0.5258 Y-0.6359 Z0.4155
X0.5291 Y-0.6348 Z0.4159
X0.5335 Y-0.633 Z0.4171
X0.5373 Y-0.6314 Z0.4194
X0.5412 Y-0.6298 Z0.4239
X0.5431 Y-0.6291 Z0.4281
X0.5441 Y-0.6286 Z0.4314
X0.5451 Y-0.6282 Z0.4383
X0.546 Y-0.628 Z0.4439
X0.5466 Y-0.6286 Z0.4509
Y-0.6292 Z0.4535
X0.5465 Y-0.63 Z0.4573
Y-0.6316 Z0.4627
X0.5467 Y-0.6348 Z0.4709
X0.5473 Y-0.6367 Z0.4756
X0.5486 Y-0.6391 Z0.481
X0.5507 Y-0.6399 Z0.4841
X0.5528 Z0.4859
X0.5567 Y-0.6388 Z0.4875
X0.5605 Y-0.6366 Z0.4881
X0.5683 Y-0.632 Z0.4891
X0.576 Y-0.627 Z0.4902
X0.5837 Y-0.6212 Z0.491
X0.5854 Y-0.6193 Z0.4906
X0.5867 Y-0.6174 Z0.4897
X0.5875 Y-0.6154 Z0.4882
X0.5884 Y-0.6116 Z0.4837
Y-0.6096 Z0.4806
X0.5861 Y-0.6077 Z0.4729
X0.5858 Y-0.6058 Z0.4675
X0.586 Y-0.6038 Z0.462
X0.5868 Y-0.6021 Z0.4574
X0.5881 Y-0.6002 Z0.4534
X0.5897 Y-0.5982 Z0.4492
X0.5914 Y-0.5963 Z0.4454
X0.5951 Y-0.5927 Z0.4418
X0.5973 Y-0.5906 Z0.44
X0.5992 Y-0.5886 Z0.4394
X0.6029 Y-0.5845 Z0.4395
X0.6061 Y-0.5806 Z0.4394
X0.6069 Y-0.5796 Z0.4391
X0.612 Y-0.5729 Z0.4354
X0.6146 Y-0.5691 Z0.4334
X0.6172 Y-0.5652 Z0.4319
X0.6196 Y-0.5613 Z0.4324
X0.6207 Y-0.5594 Z0.4327
X0.624 Y-0.5532 Z0.4371
X0.6247 Y-0.5518 Z0.4386
X0.6258 Y-0.5497 Z0.4422
X0.6268 Y-0.5479 Z0.4461
X0.6271 Y-0.5473 Z0.4482
X0.6272 Y-0.547 Z0.4502
X0.6276 Y-0.5467 Z0.4579
X0.6281 Y-0.5473 Z0.4641
Y-0.5477 Z0.4652
Y-0.5486 Z0.4675
X0.628 Y-0.5497 Z0.4695
X0.6276 Y-0.5518 Z0.4724
X0.6277 Y-0.5532 Z0.475
X0.6283 Y-0.5539 Z0.4778
X0.6291 Z0.4802
X0.6301 Y-0.554 Z0.4827
X0.6339 Y-0.553 Z0.4901
X0.6378 Y-0.5513 Z0.4959
X0.6397 Y-0.5497 Z0.498
X0.6412 Y-0.5478 Z0.4992
X0.6423 Y-0.5459 Z0.4996
X0.644 Y-0.542 Z0.4998
X0.6468 Y-0.5343 Z0.5003
X0.6493 Y-0.5265 Z0.5006
X0.6514 Y-0.5188 Z0.5009
X0.6533 Y-0.5111 Z0.5012
X0.6547 Y-0.5033 Z0.5013
X0.6558 Y-0.4956 Z0.5011
X0.6565 Y-0.4879
X0.657 Y-0.4801 Z0.5014
X0.6574 Y-0.4724 Z0.5016
X0.6573 Y-0.4647 Z0.5019
X0.6569 Y-0.4569 Z0.5018
X0.6559 Y-0.4492 Z0.5016
X0.6548 Y-0.4415 Z0.5012
X0.6533 Y-0.4381 Z0.4997
X0.6509 Y-0.4351 Z0.4965
X0.6487 Y-0.4338 Z0.4926
X0.6483 Z0.4918
X0.6455 Y-0.4359 Z0.4838
X0.6429 Y-0.437 Z0.474
X0.6418 Y-0.4369 Z0.4683
X0.6411 Y-0.4365 Z0.4642
X0.6405 Y-0.4357 Z0.459
X0.6399 Y-0.4338 Z0.4533
X0.6395 Y-0.4318 Z0.4505
X0.639 Y-0.4299 Z0.4487
X0.638 Y-0.426 Z0.4457
X0.6378 Y-0.4252 Z0.4452
X0.6368 Y-0.422 Z0.4443
X0.6356 Y-0.4183 Z0.4442
X0.6343 Y-0.4144 Z0.4445
X0.6329 Y-0.4106 Z0.4463
X0.6313 Y-0.4067 Z0.4488
X0.6301 Y-0.4041 Z0.4519
X0.6295 Y-0.4028 Z0.4539
X0.6283 Y-0.399 Z0.4609
X0.6276 Y-0.3951 Z0.4675
X0.6275 Y-0.3932 Z0.4709
X0.6282 Y-0.3917 Z0.476
X0.6292 Y-0.3912 Z0.4798
X0.6301 Y-0.3913 Z0.4819
X0.6317 Z0.4858
X0.6323 Y-0.3908 Z0.4878
X0.6329 Y-0.3893 Z0.4902
X0.633 Y-0.3874 Z0.4923
X0.6332 Y-0.3835 Z0.4959
X0.6325 Y-0.3796 Z0.4979
X0.6315 Y-0.3772 Z0.4982
X0.6301 Y-0.3747 Z0.498
X0.628 Y-0.3719 Z0.4973
X0.6266 Y-0.3706 Z0.4965
X0.6245 Y-0.3693 Z0.4945
X0.6223 Y-0.3688 Z0.4915
X0.6204 Y-0.3689 Z0.4881
X0.6195 Y-0.3691 Z0.4861
X0.6185 Y-0.37 Z0.4829
X0.6166 Y-0.3711 Z0.4766
X0.6146 Y-0.3708 Z0.4714
X0.6127 Y-0.3698 Z0.4667
X0.6118 Y-0.3701 Z0.4621
X0.6111 Y-0.3705 Z0.4549
X0.611 Y-0.3707 Z0.4509
Z0.4434
X0.6108 Y-0.3705 Z0.4426
X0.6087 Y-0.3679 Z0.4366
X0.6069 Y-0.3655 Z0.4338
X0.6044 Y-0.3622 Z0.4311
X0.6028 Y-0.3603 Z0.4302
X0.5992 Y-0.3562 Z0.4297
X0.5959 Y-0.3528 Z0.4303
X0.5918 Y-0.3487 Z0.4332
X0.5914 Y-0.3483 Z0.4336
X0.5876 Y-0.3447 Z0.4388
X0.5831 Y-0.341 Z0.445
X0.579 Y-0.3371 Z0.4512
X0.5774 Y-0.3352 Z0.4552
X0.5768 Y-0.3341 Z0.4579
X0.5769 Y-0.3333 Z0.4618
X0.5779 Y-0.3324 Z0.4669
X0.5795 Y-0.3322 Z0.4708
X0.582 Y-0.3294 Z0.4807
X0.5819 Y-0.3275 Z0.4836
X0.5811 Y-0.3255 Z0.4854
X0.5792 Y-0.3217 Z0.4885
X0.5778 Y-0.3197 Z0.4896
X0.5758 Y-0.3178 Z0.49
X0.5683 Y-0.3126 Z0.4891
X0.5639 Y-0.3101 Z0.4886
X0.5605 Y-0.3087 Z0.4874
X0.5586 Y-0.3084 Z0.486
X0.5567 Y-0.3085 Z0.484
X0.5547 Y-0.3101 Z0.4795
X0.5528 Y-0.3122 Z0.4734
X0.5489 Y-0.3129 Z0.4671
X0.5469 Y-0.313 Z0.4639
X0.5462 Y-0.3133 Z0.4618
X0.5451 Y-0.3145 Z0.4556
X0.5445 Y-0.3152 Z0.4508
X0.5441 Y-0.3157 Z0.4459
X0.5431 Z0.4406
X0.5412 Y-0.3149 Z0.4362
X0.5373 Y-0.3132 Z0.4315
X0.5335 Y-0.3117 Z0.4291
X0.5291 Y-0.3101 Z0.428
X0.5258 Y-0.309 Z0.4276
X0.5219 Y-0.3078 Z0.4283
X0.518 Y-0.3067 Z0.43
X0.5142 Y-0.3057 Z0.4332
X0.5114 Y-0.3049 Z0.4363
X0.5099 Y-0.3043 Z0.4396
X0.5089 Y-0.3032 Z0.4454
X0.5087 Y-0.3023 Z0.4494
X0.5085 Y-0.3004 Z0.4565
Y-0.2985 Z0.4621
X0.5083 Y-0.2946 Z0.4707
X0.5064 Y-0.2924 Z0.4738
X0.5026 Y-0.2892 Z0.4773
X0.4987 Y-0.2872 Z0.4789
X0.4976 Y-0.2869 Z0.479
X0.491 Y-0.2859 Z0.4783
X0.4833 Y-0.2851 Z0.4772
X0.4755 Y-0.2847 Z0.4761
X0.4678 Z0.475
X0.4639 Y-0.2856 Z0.4732
X0.4601 Y-0.2873 Z0.4701
X0.4562 Y-0.2892 Z0.4667
X0.4523 Y-0.2927 Z0.46
X0.4499 Y-0.2946 Z0.4559
X0.4496 Y-0.2965 Z0.4509
X0.4523 Y-0.2981 Z0.4455
X0.4536 Y-0.2989 Z0.4423
X0.4549 Y-0.2999 Z0.4372
X0.4557 Y-0.3007 Z0.4317
X0.4556 Y-0.3013 Z0.4258
X0.4552 Y-0.3015 Z0.421
X0.4536 Y-0.3017 Z0.4134
X0.4523 Y-0.3018 Z0.4107
X0.4474 Y-0.3023 Z0.4048
X0.4446 Y-0.3027 Z0.4031
X0.4369 Y-0.3042 Z0.4011
X0.4292 Y-0.306 Z0.4012
X0.4214 Y-0.3084 Z0.4026
X0.4189 Y-0.3092 Z0.4035
X0.4164 Y-0.3101 Z0.4054
X0.4137 Y-0.3109 Z0.4078
X0.4118 Y-0.3117 Z0.4109
X0.4098 Y-0.3123 Z0.4165
X0.4079 Z0.424
X0.4069 Y-0.3118 Z0.4294
X0.406 Y-0.3108 Z0.4348
X0.4053 Y-0.3101 Z0.4382
X0.4044 Y-0.3081 Z0.4445
X0.4028 Y-0.3062 Z0.4502
X0.4011 Y-0.3034 Z0.4565
X0.3989 Y-0.3023 Z0.4596
X0.3983 Y-0.3022 Z0.4602
X0.3944 Y-0.3016 Z0.4629
X0.3905 Y-0.3022 Z0.4639
X0.39 Y-0.3023
X0.3828 Y-0.3058 Z0.4631
X0.3749 Y-0.3101 Z0.4621
X0.3673 Y-0.3148 Z0.461
X0.3627 Y-0.3178 Z0.4604
X0.3607 Y-0.3197 Z0.4595
X0.3596 Y-0.3211 Z0.4586
X0.3587 Y-0.3233 Z0.4566
Y-0.3255 Z0.4537
X0.3596 Y-0.3269 Z0.4509
X0.3615 Y-0.3289 Z0.4456
X0.3635 Y-0.3304 Z0.4405
X0.3654 Y-0.3318 Z0.4347
X0.3673 Y-0.333 Z0.4273
X0.3676 Y-0.3333 Z0.4259
X0.3686 Y-0.3342 Z0.4188
X0.3683 Y-0.335 Z0.4155
X0.3673 Y-0.336 Z0.4124
X0.3654 Y-0.3378 Z0.4091
X0.3635 Y-0.3396 Z0.407
X0.3596 Y-0.3429 Z0.4046
X0.3558 Y-0.3462 Z0.4024
X0.3519 Y-0.3498 Z0.4013
X0.3492 Y-0.3526 Z0.4006
X0.3455 Y-0.3564
X0.3442 Y-0.3579 Z0.4011
X0.3387 Y-0.3642 Z0.403
X0.3364 Y-0.3671 Z0.4034
X0.3326 Y-0.3719 Z0.4051
X0.3272 Y-0.3796 Z0.408
X0.3243 Y-0.3835 Z0.4103
X0.3208 Y-0.3874 Z0.4157
X0.3199 Y-0.3881 Z0.4178
X0.3188 Y-0.3887 Z0.4202
X0.3175 Z0.4241
X0.3143 Y-0.3874 Z0.4334
X0.3132 Y-0.3868 Z0.436
X0.3094 Y-0.3849 Z0.444
X0.3075 Y-0.3852 Z0.4465
X0.3055 Y-0.3861 Z0.4484
X0.3035 Y-0.3874 Z0.45
X0.3014 Y-0.3893 Z0.4511
X0.3 Y-0.3912 Z0.4515
X0.2978 Y-0.396 Z0.4513
X0.2949 Y-0.4028 Z0.4508
X0.292 Y-0.4106 Z0.4505
X0.2894 Y-0.4183 Z0.4501
X0.2874 Y-0.426 Z0.4496
X0.2857 Y-0.4338 Z0.4491
X0.2853 Y-0.4415 Z0.4475
X0.285 Y-0.4492 Z0.4461
X0.2847 Y-0.4531 Z0.4458
X0.2839 Y-0.4569 Z0.4464
X0.2821 Y-0.4647 Z0.4482
X0.2816 Y-0.4724 Z0.4486
X0.2817 Y-0.4801 Z0.449
X0.2819 Y-0.4879 Z0.4493
X0.2823 Y-0.4919 Z0.4494
X0.2839 Y-0.5033 Z0.4496
X0.2853 Y-0.5111 Z0.4499
X0.2873 Y-0.5188 Z0.4498
X0.2889 Y-0.523 Z0.4494
X0.2901 Y-0.5249 Z0.4487
X0.2915 Y-0.5265 Z0.4475
X0.2939 Y-0.528 Z0.4447
X0.2959 Z0.4417
X0.2978 Y-0.5273 Z0.4381
X0.2999 Y-0.5265 Z0.4337
X0.3024 Y-0.5259 Z0.4276
X0.3036 Y-0.5258 Z0.4245
X0.3052 Y-0.5265 Z0.4207
X0.3072 Y-0.5281 Z0.4155
X0.3089 Y-0.53 Z0.4112
X0.3103 Y-0.5321 Z0.4082
X0.3113 Y-0.5343 Z0.4064
X0.3132 Y-0.5386 Z0.4041
X0.3148 Y-0.542 Z0.4036
X0.3165 Y-0.5459 Z0.4037
X0.3182 Y-0.5497 Z0.4051
X0.3196 Y-0.5526 Z0.4061
X0.321 Y-0.5558 Z0.4089
X0.3217 Y-0.5574 Z0.4106
X0.3235 Y-0.5613 Z0.4131
X0.3271 Y-0.5683 Z0.4173
X0.3287 Y-0.5717 Z0.4202
X0.331 Y-0.5768 Z0.4253
X0.3322 Y-0.5806 Z0.43
X0.3321 Y-0.5826 Z0.4334
X0.3312 Y-0.5845 Z0.4379
X0.3287 Y-0.5861 Z0.4438
X0.3278 Y-0.5884 Z0.4475
X0.3277 Y-0.5922 Z0.452
X0.3279 Y-0.5942 Z0.4537
X0.3287 Y-0.5961 Z0.4549
X0.3315 Y-0.6 Z0.4559
X0.3351 Y-0.6038 Z0.4565
X0.3364 Y-0.6051 Z0.4567
X0.3442 Y-0.6124 Z0.4576
X0.3524 Y-0.6193 Z0.4588
X0.3596 Y-0.6245 Z0.4595
X0.3634 Y-0.627 Z0.4599
X0.3673 Y-0.6292 Z0.4597
X0.3712 Y-0.63 Z0.4581
X0.3751 Y-0.6297 Z0.455
X0.3775 Y-0.6294 Z0.4524
X0.3799 Y-0.627 Z0.446
X0.3812 Y-0.6253 Z0.4408
X0.3828 Y-0.6235 Z0.4341
X0.3845 Y-0.6226 Z0.4278
X0.3867 Y-0.6229 Z0.4236
X0.3905 Y-0.6243 Z0.4191
X0.3966 Y-0.627 Z0.4158
X0.3983 Y-0.6278 Z0.4153
X0.406 Y-0.6311 Z0.4151
X0.4137 Y-0.6341 Z0.4153
X0.4157 Y-0.6348 Z0.4158
X0.4214 Y-0.6366 Z0.4181
X0.4253 Y-0.6379 Z0.4215
X0.4274 Y-0.6388 Z0.4246
X0.4292 Y-0.6398 Z0.4297
X0.4295 Y-0.6405 Z0.4333
X0.4292 Y-0.6413 Z0.4373
X0.4282 Y-0.6425 Z0.4423
X0.4268 Y-0.6444 Z0.4487
X0.4253 Y-0.6458 Z0.4527
X0.4214 Y-0.6482 Z0.4591
X0.4211 Y-0.6502 Z0.4627
X0.4214 Y-0.6511 Z0.464
X0.4239 Y-0.6535 Z0.4672
X0.4265 Y-0.6547 Z0.4685
X0.4292 Y-0.6556 Z0.4692
X0.4369 Y-0.6574 Z0.4708
X0.4446 Y-0.6586 Z0.4718
X0.4523 Y-0.6594 Z0.4729
X0.4601 Y-0.6602 Z0.4741
X0.4639 Y-0.6599
X0.4678 Y-0.6585 Z0.4725
X0.4688 Y-0.6579 Z0.4717
X0.4723 Y-0.6541 Z0.4651
X0.4755 Y-0.6512 Z0.4592
X0.4776 Y-0.6502 Z0.4571
X0.479 Y-0.6497 Z0.4561
X0.4833 Y-0.6483 Z0.4536
X0.4871 Y-0.6474 Z0.4522
X0.489 Y-0.6468 Z0.451
X0.491 Y-0.646 Z0.4485
X0.492 Y-0.645 Z0.4446
X0.4927 Y-0.6438 Z0.4377
X0.4935 Y-0.6433 Z0.4329
X0.4944 Y-0.643 Z0.4309
X0.4954 Y-0.6429 Z0.4293
G0 Z2.2485
X0.2871 Y-0.5956
Z0.5864
G1 Z0.4963 F200.
X0.287 Y-0.5953 Z0.4929 F30.
Y-0.5944 Z0.4896
X0.2869 Y-0.5929 Z0.4865
X0.2868 Y-0.5909 Z0.4838
X0.2867 Y-0.5884 Z0.4814
X0.2866 Y-0.5855 Z0.4796
X0.2865 Y-0.5806 Z0.4771
X0.2867 Y-0.5729 Z0.473
X0.2871 Y-0.5699 Z0.4713
X0.2823 Y-0.5676 Z0.4738
X0.278 Y-0.5652 Z0.4761
X0.2732 Y-0.5613 Z0.4782
X0.2731 Y-0.562 Z0.4786
X0.2746 Y-0.5652 Z0.4788
X0.2785 Y-0.5729 Z0.4793
X0.2828 Y-0.5806 Z0.4799
X0.2846 Y-0.5839 Z0.4802
X0.2863 Y-0.5866 Z0.4804
X0.2866 Y-0.5855 Z0.4796
X0.2869 Y-0.5848 Z0.479
X0.2874 Y-0.5842 Z0.4784
X0.2881 Y-0.5836 Z0.4776
X0.2891 Y-0.5831 Z0.4769
X0.2907 Y-0.5826 Z0.4758
X0.2924 Y-0.5825 Z0.4747
X0.2942 Y-0.5826 Z0.4739
X0.2956 Y-0.5828 Z0.4733
X0.297 Y-0.583 Z0.4727
X0.2998 Y-0.5838 Z0.4717
X0.3012 Y-0.5843 Z0.4713
X0.3025 Y-0.5849 Z0.4709
X0.3039 Y-0.5855 Z0.4706
X0.3052 Y-0.5862 Z0.4704
X0.3117 Y-0.5902 Z0.4694
X0.3149 Y-0.5924 Z0.4692
X0.318 Y-0.5947 Z0.469
X0.3238 Y-0.5997 Z0.4691
X0.3266 Y-0.6023 Z0.4694
X0.3292 Y-0.6051 Z0.4699
X0.3329 Y-0.6093 Z0.4707
X0.3366 Y-0.6135 Z0.4716
X0.3402 Y-0.6178 Z0.4726
X0.3438 Y-0.6221 Z0.4736
X0.3473 Y-0.6264 Z0.4747
X0.3508 Y-0.6307 Z0.4759
X0.3543 Y-0.635 Z0.4772
X0.3578 Y-0.6393 Z0.4786
X0.3612 Y-0.6435 Z0.4801
X0.3647 Y-0.6477 Z0.4816
X0.3682 Y-0.6518 Z0.4833
X0.3717 Y-0.6559 Z0.4852
X0.3753 Y-0.6598 Z0.4871
X0.3788 Y-0.6637 Z0.4892
X0.3824 Y-0.6674 Z0.4914
X0.3861 Y-0.671 Z0.4938
X0.3867 Y-0.6716 Z0.4942
X0.3861 Y-0.6718 Z0.4945
X0.3809 Y-0.6695 Z0.4938
X0.3789 Y-0.6686 Z0.4935
X0.3743 Y-0.6663 Z0.4928
X0.3751 Y-0.666 Z0.4922
X0.3789 Y-0.6661 Z0.4911
X0.3809 Y-0.666 Z0.4906
X0.3828 Y-0.6676 Z0.4915
X0.3847 Y-0.6697 Z0.4929
X0.3861 Y-0.671 Z0.4938
X0.3913 Y-0.6753 Z0.4967
X0.3941 Y-0.6772 Z0.498
X0.3971 Y-0.6789 Z0.4992
X0.4034 Y-0.682 Z0.5012
X0.4067 Y-0.6834 Z0.5021
X0.4101 Y-0.6846 Z0.5029
X0.4171 Y-0.6867 Z0.5042
X0.4243 Y-0.6883 Z0.5053
X0.4316 Y-0.6894 Z0.5061
X0.439 Y-0.6902 Z0.5068
X0.4468 Y-0.6906 Z0.5072
X0.4547 Y-0.6907 Z0.5076
X0.4626 Y-0.6905 Z0.508
X0.4704 Y-0.6901 Z0.5083
X0.4783 Y-0.6895 Z0.5087
X0.4861 Y-0.6886 Z0.5093
X0.4939 Y-0.6876 Z0.51
X0.5016 Y-0.6865 Z0.5109
X0.5064 Y-0.6857 Z0.5116
X0.5142 Y-0.6842 Z0.5125
X0.5219 Y-0.6824 Z0.5136
X0.5267 Y-0.6811 Z0.5143
X0.5296 Y-0.6803 Z0.5147
X0.5389 Y-0.6774 Z0.516
X0.5373 Y-0.6768 Z0.5147
X0.5296 Y-0.6763 Z0.5109
X0.5219 Y-0.674 Z0.5055
X0.5203 Y-0.6734 Z0.5043
X0.5142 Y-0.6703 Z0.4989
X0.511 Y-0.6681 Z0.4957
X0.5071 Y-0.6734 Z0.4996
X0.5064 Y-0.6742 Z0.5002
X0.503 Y-0.6775 Z0.5024
X0.4981 Y-0.6811 Z0.5046
X0.491 Y-0.6855 Z0.5071
X0.4878 Y-0.6872 Z0.5081
X0.487 Y-0.6876 Z0.5083
X0.4883 Y-0.6879 Z0.509
X0.491 Y-0.6877 Z0.5094
X0.4987 Y-0.6869 Z0.5105
X0.5016 Y-0.6865 Z0.5109
X0.5061 Y-0.6857 Z0.5115
X0.5105 Y-0.6849 Z0.5121
X0.515 Y-0.6839 Z0.5127
X0.5194 Y-0.6829 Z0.5133
X0.5238 Y-0.6817 Z0.5139
X0.5281 Y-0.6805 Z0.5145
X0.5325 Y-0.6792 Z0.5151
X0.5368 Y-0.6777 Z0.5157
X0.5411 Y-0.6762 Z0.5163
X0.5453 Y-0.6746 Z0.5169
X0.5495 Y-0.6729 Z0.5175
X0.5537 Y-0.6712 Z0.5181
X0.5579 Y-0.6693 Z0.5187
X0.562 Y-0.6674 Z0.5193
X0.5661 Y-0.6654 Z0.5198
X0.5701 Y-0.6633 Z0.5204
X0.5741 Y-0.6611 Z0.521
X0.5781 Y-0.6589 Z0.5215
X0.582 Y-0.6565 Z0.5221
X0.5859 Y-0.6541 Z0.5226
X0.5897 Y-0.6517 Z0.5231
X0.5935 Y-0.6491 Z0.5237
X0.5972 Y-0.6465 Z0.5242
X0.6009 Y-0.6438 Z0.5247
X0.6045 Y-0.6411 Z0.5252
X0.6081 Y-0.6382 Z0.5257
X0.6116 Y-0.6353 Z0.5262
X0.615 Y-0.6323 Z0.5267
X0.6184 Y-0.6293 Z0.5272
X0.6218 Y-0.6262 Z0.5276
X0.625 Y-0.623 Z0.5281
X0.6282 Y-0.6197 Z0.5285
X0.6301 Y-0.6177 Z0.5288
X0.6354 Y-0.6116 Z0.5295
X0.6378 Y-0.6087 Z0.5298
X0.6416 Y-0.6038 Z0.5303
X0.6472 Y-0.5961 Z0.5311
X0.6533 Y-0.587 Z0.5319
X0.656 Y-0.5823 Z0.5324
X0.6559 Y-0.5818 Z0.5319
X0.6533 Y-0.5843 Z0.5306
X0.6487 Y-0.5884 Z0.5283
X0.6455 Y-0.5903 Z0.5262
X0.6378 Y-0.5944 Z0.5212
X0.6301 Y-0.5963 Z0.5151
X0.6281 Y-0.5968 Z0.5136
X0.627 Y-0.5971 Z0.5128
X0.6268 Y-0.6001 Z0.5144
X0.6264 Y-0.6038 Z0.5165
X0.6253 Y-0.6116 Z0.5204
X0.623 Y-0.6193 Z0.5237
X0.6223 Y-0.6208 Z0.5242
X0.6192 Y-0.627 Z0.5259
X0.6177 Y-0.6297 Z0.5266
X0.6182 Y-0.6298 Z0.5271
X0.6223 Y-0.6259 Z0.5277
X0.6282 Y-0.6197 Z0.5285
X0.6332 Y-0.6143 Z0.5292
X0.6379 Y-0.6087 Z0.5298
X0.6423 Y-0.6029 Z0.5304
X0.6466 Y-0.597 Z0.531
X0.6506 Y-0.5908 Z0.5316
X0.6543 Y-0.5845 Z0.5321
X0.6579 Y-0.5781 Z0.5326
X0.6612 Y-0.5715 Z0.533
X0.6642 Y-0.5648 Z0.5334
X0.6671 Y-0.558 Z0.5338
X0.6697 Y-0.5511 Z0.5342
X0.6722 Y-0.5442 Z0.5345
X0.6744 Y-0.5371 Z0.5348
X0.6763 Y-0.53 Z0.5351
X0.6781 Y-0.5228 Z0.5353
X0.6797 Y-0.5156 Z0.5355
X0.681 Y-0.5083 Z0.5357
X0.6821 Y-0.501 Z0.5359
X0.683 Y-0.4937 Z0.536
X0.6837 Y-0.4863 Z0.5361
X0.6842 Y-0.4789
X0.6844 Y-0.4715 Z0.5362
Y-0.4641
X0.6842 Y-0.4567
X0.6837 Y-0.4493 Z0.5361
X0.683 Y-0.4419 Z0.536
X0.682 Y-0.4346 Z0.5359
X0.6808 Y-0.4273 Z0.5357
X0.6793 Y-0.4201 Z0.5355
X0.6776 Y-0.4129 Z0.5353
X0.6755 Y-0.4058 Z0.5351
X0.6732 Y-0.3988 Z0.5348
X0.6719 Y-0.3951 Z0.5346
X0.6679 Y-0.3855 Z0.534
X0.667 Y-0.3836 Z0.5339
X0.6668 Y-0.385 Z0.5331
X0.6671 Y-0.3874 Z0.5325
X0.6674 Y-0.3951 Z0.5299
Y-0.3994 Z0.5284
X0.6676 Y-0.4004 Z0.5283
X0.6702 Y-0.4028 Z0.5302
X0.6734 Y-0.4067 Z0.5324
X0.6774 Y-0.413 Z0.535
X0.6776 Y-0.4124 Z0.5353
X0.6759 Y-0.4067 Z0.5351
X0.6746 Y-0.4028 Z0.5349
X0.6732 Y-0.3988 Z0.5348
X0.6712 Y-0.3935 Z0.5345
X0.6691 Y-0.3883 Z0.5342
X0.6668 Y-0.3831 Z0.5339
X0.6644 Y-0.378 Z0.5336
X0.6619 Y-0.373 Z0.5332
X0.6592 Y-0.368 Z0.5329
X0.6564 Y-0.3631 Z0.5325
X0.6535 Y-0.3582 Z0.532
X0.6505 Y-0.3535 Z0.5316
X0.6473 Y-0.3488 Z0.5312
X0.644 Y-0.3442 Z0.5307
X0.6406 Y-0.3397 Z0.5302
X0.6371 Y-0.3353 Z0.5297
X0.6335 Y-0.331 Z0.5292
X0.6297 Y-0.3267 Z0.5287
X0.6259 Y-0.3226 Z0.5282
X0.6212 Y-0.3178 Z0.5276
X0.6146 Y-0.3117 Z0.5266
X0.6101 Y-0.3078 Z0.526
X0.6099 Y-0.3082 Z0.5255
X0.611 Y-0.3101 Z0.525
X0.6146 Y-0.3164 Z0.5231
X0.6152 Y-0.3178 Z0.5226
X0.618 Y-0.3255 Z0.5194
X0.6183 Y-0.3265 Z0.519
X0.6193 Y-0.3269 Z0.5196
X0.6223 Y-0.3277 Z0.5217
X0.6301 Y-0.331 Z0.5262
X0.6348 Y-0.3336 Z0.5288
X0.6354 Y-0.334 Z0.529
X0.6358 Y-0.3338 Z0.5295
X0.6287 Y-0.3255 Z0.5286
X0.6259 Y-0.3226 Z0.5282
X0.6211 Y-0.3177 Z0.5276
X0.6161 Y-0.313 Z0.5269
X0.6109 Y-0.3085 Z0.5262
X0.6057 Y-0.3041 Z0.5254
X0.6002 Y-0.2999 Z0.5247
X0.5947 Y-0.2959 Z0.5239
X0.589 Y-0.2921 Z0.5231
X0.5833 Y-0.2884 Z0.5222
X0.5774 Y-0.2849 Z0.5214
X0.5714 Y-0.2816 Z0.5205
X0.5653 Y-0.2785 Z0.5197
X0.5591 Y-0.2756 Z0.5188
X0.5529 Y-0.2728 Z0.5179
X0.5465 Y-0.2703 Z0.517
X0.5401 Y-0.268 Z0.5161
X0.5336 Y-0.2658 Z0.5152
X0.5264 Y-0.2637 Z0.5142
X0.5251 Z0.5137
X0.5296 Y-0.267 Z0.5124
X0.5349 Y-0.2714 Z0.5104
X0.5373 Y-0.2715 Z0.5114
X0.5412 Y-0.2709 Z0.5138
X0.5465 Y-0.271 Z0.5163
X0.5476 Y-0.2706 Z0.5172
X0.5412 Y-0.2683 Z0.5162
X0.5373 Y-0.267 Z0.5157
X0.5336 Y-0.2658 Z0.5152
X0.5265 Y-0.2638 Z0.5142
X0.5194 Y-0.262 Z0.5132
X0.5122 Y-0.2604 Z0.5122
X0.5049 Y-0.2591 Z0.5112
X0.4976 Y-0.2581 Z0.5102
X0.4903 Y-0.2573 Z0.5092
X0.483 Y-0.2567 Z0.5082
X0.4756 Y-0.2564 Z0.5072
X0.4683 Y-0.2563 Z0.5061
X0.4609 Y-0.2565 Z0.5051
X0.4536 Y-0.2569 Z0.5041
X0.4462 Y-0.2575 Z0.503
X0.4389 Y-0.2584 Z0.502
X0.4317 Y-0.2596 Z0.501
X0.4244 Y-0.261 Z0.5
X0.4173 Y-0.2627 Z0.4989
X0.4133 Y-0.2637 Z0.4984
X0.4042 Y-0.2664 Z0.4971
X0.406 Y-0.2669 Z0.4962
X0.4137 Y-0.2678 Z0.4943
X0.4176 Y-0.2691 Z0.4925
X0.4185 Y-0.2694 Z0.4921
X0.4214 Y-0.2669 Z0.4944
X0.4259 Y-0.2637 Z0.4971
X0.4302 Y-0.2607 Z0.4998
X0.4317 Y-0.2599 Z0.5006
X0.431 Y-0.2597 Z0.5009
X0.4214 Y-0.2616 Z0.4995
X0.4173 Y-0.2627 Z0.4989
X0.4094 Y-0.2649 Z0.4978
X0.4015 Y-0.2674 Z0.4967
X0.3938 Y-0.2702 Z0.4956
X0.3862 Y-0.2733 Z0.4945
X0.3787 Y-0.2766 Z0.4935
X0.3714 Y-0.2803 Z0.4924
X0.3642 Y-0.2842 Z0.4914
X0.3571 Y-0.2884 Z0.4904
X0.3502 Y-0.2929 Z0.4895
X0.3434 Y-0.2976 Z0.4885
X0.3368 Y-0.3025 Z0.4876
X0.3304 Y-0.3077 Z0.4867
X0.3241 Y-0.3131 Z0.4858
X0.3181 Y-0.3187 Z0.485
X0.3123 Y-0.3245 Z0.4842
X0.3067 Y-0.3306 Z0.4834
X0.3044 Y-0.3333 Z0.483
X0.2978 Y-0.3416 Z0.4821
X0.2919 Y-0.3497 Z0.4812
X0.2923 Y-0.35 Z0.4808
X0.2943 Y-0.3487 Z0.4802
X0.2978 Y-0.3471 Z0.4787
X0.3055 Y-0.3441 Z0.4753
X0.3132 Y-0.3426 Z0.4712
X0.3146 Y-0.342 Z0.4706
X0.3145 Y-0.341 Z0.4714
X0.3146 Y-0.3333 Z0.4766
X0.3156 Y-0.3255 Z0.4814
X0.3172 Y-0.3202 Z0.4842
X0.3169 Y-0.3197 Z0.4847
X0.3132 Y-0.3234 Z0.4843
X0.3112 Y-0.3255 Z0.484
X0.3067 Y-0.3306 Z0.4834
X0.3046 Y-0.3329 Z0.4833
X0.3026 Y-0.3352 Z0.4838
X0.3006 Y-0.3374 Z0.4848
X0.2988 Y-0.3395 Z0.4863
X0.2971 Y-0.3413 Z0.4882
X0.2957 Y-0.3429 Z0.4905
X0.2946 Y-0.3442 Z0.4931
X0.2937 Y-0.3451 Z0.4959
X0.2932 Y-0.3457 Z0.4989
X0.2931 Y-0.3459 Z0.502
G0 Z2.6485
(TRACE2)
G0 X1.5418 Y-0.4182
Z2.6485
Z0.69
G1 Z0.5753 F30.
X1.535 Y-0.4048 Z0.5746
X1.5237 Y-0.3881 Z0.5747
X1.5108 Y-0.374 Z0.5753
X1.4956 Y-0.3616 Z0.5762
X1.4783 Y-0.3512 Z0.5768
X1.4646 Y-0.3452
X1.4452 Y-0.3396 Z0.5759
X1.4256 Y-0.337 Z0.5738
X1.4068 Y-0.3371 Z0.5705
X1.3873 Y-0.3401 Z0.5659
X1.3684 Y-0.3458 Z0.5604
X1.3507 Y-0.3542 Z0.5542
X1.3343 Y-0.3651 Z0.5479
X1.3202 Y-0.3776 Z0.5423
X1.3078 Y-0.3923 Z0.5376
X1.2996 Y-0.4049 Z0.5349
X1.293 Y-0.4179 Z0.5333
X1.2901 Y-0.4252 Z0.5328
X1.2876 Y-0.4325 Z0.5324
X1.2856 Y-0.4398 Z0.532
X1.2839 Y-0.4473 Z0.5318
X1.2827 Y-0.4548 Z0.5316
X1.2819 Y-0.4624 Z0.5314
X1.2816 Y-0.4701
X1.2817 Y-0.4777
X1.2822 Y-0.4853 Z0.5315
X1.2831 Y-0.4929 Z0.5316
X1.2845 Y-0.5004 Z0.5318
X1.2863 Y-0.5078 Z0.5322
X1.2929 Y-0.5267 Z0.5333
X1.2996 Y-0.54 Z0.5349
X1.3078 Y-0.5526 Z0.5376
X1.3202 Y-0.5673 Z0.5423
X1.3343 Y-0.5798 Z0.5479
X1.3507 Y-0.5907 Z0.5542
X1.3684 Y-0.5991 Z0.5604
X1.3873 Y-0.6048 Z0.5659
X1.4068 Y-0.6078 Z0.5705
X1.4256 Y-0.6079 Z0.5738
X1.4452 Y-0.6052 Z0.5759
X1.4646 Y-0.5997 Z0.5768
X1.4827 Y-0.5914 Z0.5767
X1.4996 Y-0.5803 Z0.576
X1.5141 Y-0.5676 Z0.5751
X1.5267 Y-0.5528 Z0.5746
X1.5374 Y-0.5357 Z0.5748
X1.5446 Y-0.5197 Z0.5758
X1.547 Y-0.5124 Z0.5762
X1.5491 Y-0.5051 Z0.5765
X1.5507 Y-0.4976 Z0.5768
X1.5519 Y-0.4901 Z0.577
X1.5527 Y-0.4825 Z0.5771
X1.553 Y-0.4748 Z0.5772
Y-0.4672
X1.5525 Y-0.4596 Z0.5771
X1.5515 Y-0.452 Z0.5769
X1.5502 Y-0.4445 Z0.5767
X1.5484 Y-0.4371 Z0.5764
X1.5462 Y-0.4297 Z0.576
X1.5435 Y-0.4223 Z0.5756
X1.5418 Y-0.4182 Z0.5753
Z0.69
G0 Z2.6485
M5
M9
G53 G0 Z0.
M30
%
