%
(SS OP4 - DROPOUT END)
(T32 D=0.1875 CR=0. - ZMIN=0.1378 - FLAT END MILL)
(T35 D=0.375 CR=0. - ZMIN=-0.02 - FLAT END MILL)
(T51 D=0.201 CR=0. TAPER=118DEG - ZMIN=-0.1123 - DRILL)
(T101 D=0.1 CR=0. TAPER=135DEG - ZMIN=0.1171 - DRILL)
G90 G94 G17 G91.1
G20
G53 G0 Z0.
(2D CONTOUR29)
T35 M6
T51
S7500 M3
G17 G90 G94
G54
G64 P0.0004 Q0.0004
M8
G0 X-0.1856 Y-1.0824
G43 Z2.8465 H35
G0 Z2.4465
G1 Z2.2859 F80.
Z0.3918
G18 G2 X-0.1481 Z0.3543 I0.0375 K0. F60.
G1 X-0.1106
G17 G3 X-0.0731 Y-1.0449 I0. J0.0375
G1 Y0.1
G3 X-0.1106 Y0.1375 I-0.0375 J0.
G1 X-0.1481
G18 G3 X-0.1856 Z0.3918 I0. K0.0375
G0 Z2.4465
X-0.0076 Y-1.0824
G1 Z2.2859 F80.
Z0.3918
G2 X0.0299 Z0.3543 I0.0375 K0. F60.
G1 X0.0674
G17 G3 X0.1049 Y-1.0449 I0. J0.0375
G1 Y0.1
G3 X0.0674 Y0.1375 I-0.0375 J0.
G1 X0.0299
G18 G3 X-0.0076 Z0.3918 I0. K0.0375
G0 Z2.4465
X0.1724 Y-1.0824
G1 Z2.2859 F80.
Z0.3918
G2 X0.2099 Z0.3543 I0.0375 K0. F60.
G1 X0.2474
G17 G3 X0.2849 Y-1.0449 I0. J0.0375
G1 Y0.1
G3 X0.2474 Y0.1375 I-0.0375 J0.
G1 X0.2099
G18 G3 X0.1724 Z0.3918 I0. K0.0375
G0 Z2.4465
Y-1.0824
G1 Z2.2859 F80.
Z0.3918
G2 X0.2099 Z0.3543 I0.0375 K0. F60.
G1 X0.2474
G17 G3 X0.2849 Y-1.0449 I0. J0.0375
G1 Y0.1
G3 X0.2474 Y0.1375 I-0.0375 J0.
G1 X0.2099
G18 G3 X0.1724 Z0.3918 I0. K0.0375
G0 Z2.8465
G17
(2D CONTOUR30)
G0 X-0.3 Y-1.0536
Z2.8465
Z2.4465
G1 Z2.2859 F80.
Z0.0175
G18 G2 X-0.2625 Z-0.02 I0.0375 K0. F60.
G1 X-0.225
G17 G3 X-0.1875 Y-1.0161 I0. J0.0375
G1 Y0.0713
G3 X-0.225 Y0.1088 I-0.0375 J0.
G1 X-0.2625
G18 G3 X-0.3 Z0.0175 I0. K0.0375
G0 Z2.4465
Y-1.0536
G1 Z2.2859 F80.
Z0.0175
G2 X-0.2625 Z-0.02 I0.0375 K0. F60.
G1 X-0.225
G17 G3 X-0.1875 Y-1.0161 I0. J0.0375
G1 Y0.0713
G3 X-0.225 Y0.1088 I-0.0375 J0.
G1 X-0.2625
G18 G3 X-0.3 Z0.0175 I0. K0.0375
G0 Z2.8465
G17
M5
G53 G0 Z0.
(DRILL2 3)
M9
M1
T51 M6
T101
S5000 M3
G17 G90 G94
G54
M8
G0 X0.2362 Y-0.7087
G43 Z2.8465 H51
G0 Z2.4465
G98 G81 X0.2362 Y-0.7087 Z0.3343 R0.5543 F25.
Y-0.4724
Y-0.2362
G80
G0 Z2.8465
(DRILL3 3)
G0 X0.2362 Y-0.7087
Z2.8465
Z2.4465
G81 X0.2362 Y-0.7087 Z-0.1123 R0.5543 F25.
Y-0.2362
G80
G0 Z2.8465
M5
G53 G0 Z0.
(DRILL4 3)
M9
M1
T101 M6
T32
S5000 M3
G17 G90 G94
G54
M8
G0 X0.2362 Y-0.4724
G43 Z2.8465 H101
G0 Z2.4465
G81 X0.2362 Y-0.4724 Z0.1171 R0.5543 F15.
G80
G0 Z2.8465
M5
G53 G0 Z0.
(2D CONTOUR36)
M9
M1
T32 M6
T35
S7500 M3
G17 G90 G94
G54
G64 P0.0004 Q0.0004
M8
G0 X0.2374 Y-0.4724
G43 Z2.8465 H32
G0 Z2.4465
G1 Z0.1378 F10.
X0.2371 Y-0.4717 F2.
X0.2364 Y-0.4713
X0.2356 Y-0.4714
X0.2351 Y-0.472
Y-0.4729
X0.2356 Y-0.4735
X0.2364 Y-0.4736
X0.2371 Y-0.4732
X0.2374 Y-0.4724
X0.2371 Y-0.4717
X0.2364 Y-0.4713
X0.2356 Y-0.4714
X0.2351 Y-0.472
Y-0.4729
X0.2356 Y-0.4735
X0.2364 Y-0.4736
X0.2371 Y-0.4732
X0.2374 Y-0.4724
G0 Z2.8465
M5
M9
G53 G0 Z0.
M30
%
