%
(SS OP5 - CHAMFERS)
(T32 D=0.1875 CR=0. - ZMIN=-0.1575 - FLAT END MILL)
(T72 D=0.1875 CR=0.0937 - ZMIN=-0.1284 - BALL END MILL)
G90 G94 G17 G91.1
G20
G53 G0 Z0.
(2D CONTOUR33)
T32 M6
T72
S7500 M3
G17 G90 G94
G54
G64 P0.0004 Q0.0004
M8
G0 X0.2634 Y-0.7274
G43 Z0.6308 H32
G0 Z0.2308
G1 Z0.0683 F80.
Z-0.1387
G18 G2 X0.2821 Z-0.1575 I0.0188 K0. F40.
G1 X0.3009
G17 G3 X0.3196 Y-0.7087 I0. J0.0187
X0.1528 I-0.0834 J0.
X0.3196 I0.0834 J0.
X0.1528 I-0.0834 J0.
X0.3196 I0.0834 J0.
X0.3009 Y-0.6899 I-0.0188 J0.
G1 X0.2821
G18 G3 X0.2634 Z-0.1387 I0. K0.0187
G0 Z0.2308
Y-0.255
G1 Z0.0683 F80.
Z-0.1387
G2 X0.2821 Z-0.1575 I0.0187 K0. F40.
G1 X0.3009
G17 G3 X0.3196 Y-0.2362 I0. J0.0188
X0.1528 I-0.0834 J0.
X0.3196 I0.0834 J0.
X0.1528 I-0.0834 J0.
X0.3196 I0.0834 J0.
X0.3009 Y-0.2175 I-0.0188 J0.
G1 X0.2821
G18 G3 X0.2634 Z-0.1387 I0. K0.0187
G0 Z0.6308
G17
M5
G53 G0 Z0.
(TRACE1)
M9
M1
T72 M6
T32
S7500 M3
G17 G90 G94
G54
M8
G0 X0.3286 Y-0.7908
G43 Z0.6308 H72
G0 Z0.0372
G1 Z-0.0831 F30.
X0.3239 Y-0.7959 Z-0.0892
X0.3191 Y-0.8004 Z-0.0949
X0.3142 Y-0.8046 Z-0.1002
X0.3092 Y-0.8085 Z-0.105
X0.3039 Y-0.8121 Z-0.1093
X0.2985 Y-0.8154 Z-0.1133
X0.293 Y-0.8185 Z-0.1167
X0.2874 Y-0.8212 Z-0.1197
X0.2816 Y-0.8236 Z-0.1223
X0.2758 Y-0.8258 Z-0.1244
X0.2699 Y-0.8276 Z-0.1261
X0.2639 Y-0.8292 Z-0.1273
X0.2578 Y-0.8304 Z-0.128
X0.2517 Y-0.8313 Z-0.1284
X0.2456 Y-0.8319 Z-0.1282
X0.2395 Y-0.8323 Z-0.1277
X0.2333 Z-0.1266
X0.2271 Y-0.832 Z-0.1252
X0.221 Y-0.8314 Z-0.1233
X0.2148 Y-0.8304 Z-0.1209
X0.2087 Y-0.8292 Z-0.1181
X0.2026 Y-0.8277 Z-0.1149
X0.1967 Y-0.8258 Z-0.1112
X0.1907 Y-0.8236 Z-0.1071
X0.1849 Y-0.8211 Z-0.1025
X0.1791 Y-0.8183 Z-0.0975
X0.1735 Y-0.8152 Z-0.092
X0.168 Y-0.8118 Z-0.0862
X0.1626 Y-0.808 Z-0.0799
X0.1574 Y-0.804 Z-0.0731
X0.1524 Y-0.7996 Z-0.066
X0.1475 Y-0.7948 Z-0.0584
X0.1442 Y-0.7913 Z-0.0524
X0.1393 Y-0.7855 Z-0.0516
X0.1349 Y-0.7796 Z-0.0508
X0.1309 Y-0.7735 Z-0.0502
X0.1273 Y-0.7671 Z-0.0495
X0.124 Y-0.7605 Z-0.049
X0.1211 Y-0.7538 Z-0.0485
X0.1186 Y-0.7469 Z-0.0481
X0.1166 Y-0.7398 Z-0.0478
X0.1149 Y-0.7327 Z-0.0475
X0.1137 Y-0.7255 Z-0.0473
X0.1129 Y-0.7182 Z-0.0472
X0.1126 Y-0.7108 Z-0.0471
X0.1127 Y-0.7035
X0.1132 Y-0.6962 Z-0.0472
X0.1142 Y-0.6889 Z-0.0474
X0.1156 Y-0.6817 Z-0.0476
X0.1174 Y-0.6746 Z-0.0479
X0.1196 Y-0.6676 Z-0.0483
X0.1222 Y-0.6608 Z-0.0487
X0.1253 Y-0.6541 Z-0.0492
X0.1287 Y-0.6476 Z-0.0498
X0.1325 Y-0.6414 Z-0.0504
X0.1367 Y-0.6353 Z-0.0511
X0.1412 Y-0.6295 Z-0.0519
X0.1461 Y-0.6241 Z-0.0527
X0.1513 Y-0.6188 Z-0.0535
X0.1567 Y-0.614 Z-0.0545
X0.1625 Y-0.6094 Z-0.0554
X0.1685 Y-0.6052 Z-0.0564
X0.1748 Y-0.6014 Z-0.0575
X0.1813 Y-0.5979 Z-0.0586
X0.188 Y-0.5948 Z-0.0597
X0.1948 Y-0.5922 Z-0.0608
X0.2018 Y-0.5899 Z-0.062
X0.2089 Y-0.5881 Z-0.0632
X0.2161 Y-0.5867 Z-0.0644
X0.2234 Y-0.5857 Z-0.0656
X0.2308 Y-0.5851 Z-0.0668
X0.2381 Y-0.585 Z-0.068
X0.2455 Y-0.5854 Z-0.0693
X0.2528 Y-0.5861 Z-0.0705
X0.26 Y-0.5873 Z-0.0717
X0.2672 Y-0.589 Z-0.0729
X0.2743 Y-0.591 Z-0.0741
X0.2812 Y-0.5935 Z-0.0752
X0.288 Y-0.5964 Z-0.0764
X0.2945 Y-0.5996 Z-0.0775
X0.3009 Y-0.6033 Z-0.0785
X0.3071 Y-0.6073 Z-0.0795
X0.313 Y-0.6117 Z-0.0805
X0.3186 Y-0.6165 Z-0.0815
X0.3239 Y-0.6215 Z-0.0824
X0.3289 Y-0.6269 Z-0.0832
X0.3336 Y-0.6325 Z-0.084
X0.338 Y-0.6384 Z-0.0847
X0.342 Y-0.6446 Z-0.0854
X0.3456 Y-0.651 Z-0.086
X0.3488 Y-0.6576 Z-0.0865
X0.3516 Y-0.6643 Z-0.087
X0.3541 Y-0.6713 Z-0.0874
X0.3561 Y-0.6783 Z-0.0877
X0.3577 Y-0.6855 Z-0.088
X0.3588 Y-0.6927 Z-0.0882
X0.3596 Y-0.7 Z-0.0883
X0.3598 Y-0.7073 Z-0.0884
X0.3597 Y-0.7147 Z-0.0883
X0.3591 Y-0.722 Z-0.0882
X0.3581 Y-0.7292 Z-0.0881
X0.3567 Y-0.7364 Z-0.0878
X0.3548 Y-0.7435 Z-0.0875
X0.3526 Y-0.7505 Z-0.0871
X0.3499 Y-0.7573 Z-0.0867
X0.3468 Y-0.764 Z-0.0862
X0.3433 Y-0.7704 Z-0.0856
X0.3395 Y-0.7767 Z-0.085
X0.3353 Y-0.7827 Z-0.0842
X0.3304 Y-0.7887 Z-0.0835
X0.3286 Y-0.7908 Z-0.0831
Z0.0372
G0 Z0.2308
X0.2635 Y-0.3568
Z0.0695
G1 Z-0.0723 F30.
X0.2563 Y-0.3582 Z-0.0711
X0.249 Y-0.3592 Z-0.0699
X0.2417 Y-0.3597 Z-0.0686
X0.2343 Y-0.3598 Z-0.0674
X0.227 Y-0.3595 Z-0.0662
X0.2197 Y-0.3587 Z-0.065
X0.2124 Y-0.3575 Z-0.0638
X0.2052 Y-0.3559 Z-0.0626
X0.1982 Y-0.3539 Z-0.0614
X0.1912 Y-0.3514 Z-0.0602
X0.1845 Y-0.3485 Z-0.0591
X0.1779 Y-0.3452 Z-0.058
X0.1715 Y-0.3416 Z-0.0569
X0.1654 Y-0.3375 Z-0.0559
X0.1595 Y-0.3332 Z-0.0549
X0.1539 Y-0.3284 Z-0.054
X0.1485 Y-0.3234 Z-0.0531
X0.1435 Y-0.318 Z-0.0523
X0.1388 Y-0.3124 Z-0.0515
X0.1345 Y-0.3064 Z-0.0507
X0.1305 Y-0.3003 Z-0.0501
X0.1269 Y-0.2939 Z-0.0495
X0.1236 Y-0.2873 Z-0.0489
X0.1208 Y-0.2805 Z-0.0485
X0.1184 Y-0.2736 Z-0.0481
X0.1164 Y-0.2666 Z-0.0477
X0.1148 Y-0.2594 Z-0.0475
X0.1136 Y-0.2522 Z-0.0473
X0.1129 Y-0.2449 Z-0.0471
X0.1126 Y-0.2376
X0.1127 Y-0.2302
X0.1133 Y-0.2229 Z-0.0472
X0.1143 Y-0.2157 Z-0.0474
X0.1157 Y-0.2085 Z-0.0476
X0.1176 Y-0.2014 Z-0.0479
X0.1199 Y-0.1944 Z-0.0483
X0.1226 Y-0.1876 Z-0.0488
X0.1256 Y-0.1809 Z-0.0493
X0.1291 Y-0.1745 Z-0.0499
X0.133 Y-0.1682 Z-0.0505
X0.1372 Y-0.1622 Z-0.0512
X0.142 Y-0.1561 Z-0.052
X0.1438 Y-0.1541 Z-0.0524
X0.1488 Y-0.1488 Z-0.0603
X0.1537 Y-0.1442 Z-0.0678
X0.1588 Y-0.1398 Z-0.0749
X0.1641 Y-0.1358 Z-0.0816
X0.1695 Y-0.1321 Z-0.0879
X0.1751 Y-0.1287 Z-0.0937
X0.1808 Y-0.1257 Z-0.099
X0.1866 Y-0.123 Z-0.1039
X0.1925 Y-0.1206 Z-0.1084
X0.1985 Y-0.1185 Z-0.1124
X0.2046 Y-0.1167 Z-0.116
X0.2107 Y-0.1153 Z-0.1191
X0.2168 Y-0.1141 Z-0.1217
X0.223 Y-0.1133 Z-0.1239
X0.2292 Y-0.1128 Z-0.1257
X0.2354 Y-0.1126 Z-0.127
X0.2415 Y-0.1127 Z-0.1279
X0.2477 Y-0.1131 Z-0.1283
X0.2538 Y-0.1138
X0.2599 Y-0.1149 Z-0.1278
X0.2659 Y-0.1162 Z-0.1269
X0.2719 Y-0.1178 Z-0.1256
X0.2777 Y-0.1198 Z-0.1237
X0.2835 Y-0.122 Z-0.1215
X0.2892 Y-0.1245 Z-0.1188
X0.2948 Y-0.1273 Z-0.1157
X0.3003 Y-0.1305 Z-0.1121
X0.3056 Y-0.1339 Z-0.1081
X0.3107 Y-0.1375 Z-0.1036
X0.3157 Y-0.1415 Z-0.0987
X0.3205 Y-0.1458 Z-0.0933
X0.3253 Y-0.1505 Z-0.0876
X0.3282 Y-0.1536 Z-0.0831
X0.3331 Y-0.1594 Z-0.0839
X0.3375 Y-0.1653 Z-0.0846
X0.3415 Y-0.1714 Z-0.0853
X0.3452 Y-0.1778 Z-0.0859
X0.3485 Y-0.1844 Z-0.0864
X0.3513 Y-0.1911 Z-0.0869
X0.3538 Y-0.198 Z-0.0873
X0.3559 Y-0.205 Z-0.0877
X0.3575 Y-0.2122 Z-0.088
X0.3587 Y-0.2194 Z-0.0882
X0.3595 Y-0.2267 Z-0.0883
X0.3598 Y-0.234
Y-0.2414
X0.3592 Y-0.2487 Z-0.0882
X0.3583 Y-0.2559 Z-0.0881
X0.3569 Y-0.2632 Z-0.0879
X0.3551 Y-0.2703 Z-0.0876
X0.3529 Y-0.2772 Z-0.0872
X0.3502 Y-0.2841 Z-0.0867
X0.3472 Y-0.2908 Z-0.0862
X0.3437 Y-0.2973 Z-0.0857
X0.3399 Y-0.3035 Z-0.085
X0.3358 Y-0.3096 Z-0.0843
X0.3312 Y-0.3153 Z-0.0836
X0.3264 Y-0.3208 Z-0.0828
X0.3212 Y-0.326 Z-0.0819
X0.3157 Y-0.3309 Z-0.081
X0.3099 Y-0.3355 Z-0.08
X0.3039 Y-0.3397 Z-0.079
X0.2977 Y-0.3435 Z-0.078
X0.2912 Y-0.347 Z-0.0769
X0.2845 Y-0.35 Z-0.0758
X0.2776 Y-0.3527 Z-0.0746
X0.2706 Y-0.355 Z-0.0735
X0.2635 Y-0.3568 Z-0.0723
Z0.0695
G0 Z0.6308
M5
M9
G53 G0 Z0.
M30
%
