%
(CS YOKE OP4)
(T13 D=0.375 CR=0. TAPER=45DEG - ZMIN=2.8534 - CHAMFER MILL)
(T32 D=0.1875 CR=0. - ZMIN=2.5591 - FLAT END MILL)
(T33 D=0.25 CR=0. - ZMIN=2.4016 - FLAT END MILL)
(T54 D=0.3125 CR=0. TAPER=118DEG - ZMIN=2.4016 - DRILL)
(T101 D=0.1 CR=0. TAPER=135DEG - ZMIN=2.4991 - DRILL)
G90 G94 G17 G91.1
G20
G53 G0 Z0.
(DRILL12 2)
T54 M6
T101
S5000 M3
G17 G90 G94
G54
M8
G0 X-2.9303 Y-0.2756
G43 Z3.5568 H54
G0 Z3.1568
G98 G81 X-2.9303 Y-0.2756 Z2.4017 R3.1135 F40.
G80
G0 X-2.6311 Y-0.6755 Z3.1568
G81 X-2.6311 Y-0.6755 Z2.4016 R3.1135 F40.
G80
G0 X-2.0929 Y-0.5906 Z3.1568
G81 X-2.0929 Y-0.5906 Z2.4016 R3.1134 F40.
G80
G0 X-2.0142 Y-0.2756 Z3.1568
G81 X-2.0142 Y-0.2756 Z2.4016 R3.1134 F40.
G80
G0 Z3.5568
(DRILL13 3)
G0 X-0.4724 Y-0.4724
Z3.5568
Z3.1568
G81 X-0.4724 Y-0.4724 Z2.5833 R3.1134 F10.
G80
G0 Z3.5568
(DRILL13 4)
G0 X-3.4791 Y-0.3307
Z3.5568
Z3.1568
G81 X-3.4791 Y-0.3307 Z2.8885 R3.1135 F40.
G80
G0 X-3.8574 Y-0.6137 Z3.1568
G81 X-3.8574 Y-0.6137 Z2.8885 R3.1135 F40.
G80
G0 X-3.5197 Y-0.6708 Z3.1568
G81 X-3.5197 Y-0.6708 Z2.8885 R3.1135 F40.
G80
G0 X-3.3145 Y-0.945 Z3.1568
G81 X-3.3145 Y-0.945 Z2.8885 R3.1135 F40.
G80
G0 Z3.5568
M5
G53 G0 Z0.
(DRILL14 2)
M9
M1
T101 M6
T32
S5000 M3
G17 G90 G94
G54
M8
G0 X-3.5197 Y-0.6708
G43 Z3.5568 H101
G0 Z3.1568
G81 X-3.5197 Y-0.6708 Z2.5384 R3.1135 F15.
G80
G0 Z3.5568
(DRILL11 2)
G0 X-3.3145 Y-0.945
Z3.5568
Z3.1568
G81 X-3.3145 Y-0.945 Z2.4991 R3.1135 F15.
G80
G0 X-3.4791 Y-0.3307 Z3.1568
G81 X-3.4791 Y-0.3307 Z2.4991 R3.1135 F15.
G80
G0 X-3.8574 Y-0.6137 Z3.1568
G81 X-3.8574 Y-0.6137 Z2.4991 R3.1135 F15.
G80
G0 Z3.5568
M5
G53 G0 Z0.
(2D CONTOUR7 3)
M9
M1
T32 M6
T33
S7500 M3
G17 G90 G94
G54
G64 P0.0004 Q0.0004
M8
G0 X-3.5185 Y-0.6708
G43 Z3.5568 H32
G0 Z3.1568
G1 Z2.8574 F10.
G3 X-3.5209 I-0.0012 J0. F1.
X-3.5185 I0.0012 J0.
G1 Z2.758 F10.
G3 X-3.5209 I-0.0012 J0. F1.
X-3.5185 I0.0012 J0.
G1 Z2.6586 F10.
G3 X-3.5209 I-0.0012 J0. F1.
X-3.5185 I0.0012 J0.
G1 Z2.5591 F10.
X-3.5188 Y-0.67 F1.
X-3.5195 Y-0.6696
X-3.5203 Y-0.6697
X-3.5209 Y-0.6703
Y-0.6712
X-3.5203 Y-0.6718
X-3.5195 Y-0.6719
X-3.5188 Y-0.6715
X-3.5185 Y-0.6708
X-3.5188 Y-0.67
X-3.5195 Y-0.6696
X-3.5203 Y-0.6697
X-3.5209 Y-0.6703
Y-0.6712
X-3.5203 Y-0.6718
X-3.5195 Y-0.6719
X-3.5188 Y-0.6715
X-3.5185 Y-0.6708
G0 Z3.5568
M5
G53 G0 Z0.
(2D POCKET1 2)
M9
M1
T33 M6
T13
S7500 M3
G17 G90 G94
G54
G64 P0.004 Q0.004
M8
G0 X-2.4871 Y-0.4478
G43 Z3.5568 H33
G0 Z3.1568
G1 Z3.0817 F80.
X-2.4881 Y-0.4474 Z3.0744 F40.
X-2.4911 Y-0.4461 Z3.0677
X-2.4957 Y-0.4443 Z3.0623
X-2.5018 Y-0.4423 Z3.0585
X-2.5087 Y-0.4405 Z3.0568
G3 X-2.5359 Y-0.4373 Z3.0544 I-0.0272 J-0.1156
Y-0.6748 Z3.0218 I0. J-0.1187
Y-0.4373 Z2.9891 I0. J0.1187
Y-0.6748 Z2.9565 I0. J-0.1187
Y-0.4373 Z2.9238 I0. J0.1187
Y-0.6748 Z2.8912 I0. J-0.1187
Y-0.4373 Z2.8586 I0. J0.1187
Y-0.6748 Z2.8259 I0. J-0.1187
Y-0.4373 Z2.7933 I0. J0.1187
Y-0.6748 Z2.7606 I0. J-0.1187
Y-0.4373 Z2.728 I0. J0.1187
Y-0.6748 Z2.6954 I0. J-0.1187
Y-0.4373 Z2.6627 I0. J0.1187
Y-0.6748 Z2.6301 I0. J-0.1187
Y-0.4373 Z2.5975 I0. J0.1187
Y-0.6748 Z2.5648 I0. J-0.1187
Y-0.4373 Z2.5322 I0. J0.1187
Y-0.6748 Z2.4995 I0. J-0.1187
Y-0.4373 Z2.4669 I0. J0.1187
Y-0.6748 Z2.4343 I0. J-0.1187
Y-0.4373 Z2.4016 I0. J0.1187
G1 X-2.594 F50.
G3 X-2.5994 Y-0.448 I0. J-0.0067
G1 X-2.5635 Y-0.496
G3 X-2.5361 Y-0.5089 I0.0259 J0.0194
G2 X-2.3624 Y-0.5062 I0.1296 J-2.7018
G3 X-2.1887 Y-0.5076 I0.1737 J10.6562
X-2.1759 Y-0.4948 I0. J0.0128
G1 Y-0.4501
G3 X-2.1887 Y-0.4373 I-0.0128 J0.
G1 X-2.5359
G2 X-2.5704 Y-0.4143 I0. J0.0374
G3 X-2.6049 Y-0.3913 I-0.0345 J-0.0144
G1 X-2.6859
G3 X-2.6913 Y-0.402 I0. J-0.0067
G1 X-2.5857 Y-0.5431
G3 X-2.5583 Y-0.556 I0.0259 J0.0194
X-2.5295 Y-0.5536 I-0.0184 J0.383
G2 X-2.5006 Y-0.5518 I0.0288 J-0.2327
X-2.3217 Y-0.5527 I0. J-17.7965
G3 X-2.1427 Y-0.5536 I0.179 J17.7956
X-2.1299 Y-0.5408 I0. J0.0128
G1 Y-0.4041
G3 X-2.1427 Y-0.3913 I-0.0128 J0.
G1 X-2.6049
G2 X-2.6394 Y-0.3683 I0. J0.0374
G3 X-2.6739 Y-0.3453 I-0.0345 J-0.0144
G1 X-2.7778
G3 X-2.7831 Y-0.356 I0. J-0.0067
G1 X-2.6079 Y-0.5902
G3 X-2.5805 Y-0.6031 I0.0259 J0.0194
X-2.5406 Y-0.6 I-0.0307 J0.6404
G2 X-2.5006 Y-0.5978 I0.0399 J-0.3605
X-2.4515 Y-0.5986 I0. J-1.3829
G3 X-2.4024 Y-0.5979 I0.0175 J0.4913
G2 X-2.3287 Y-0.5981 I0.0359 J-0.5566
G3 X-2.255 Y-0.5982 I0.0378 J0.5565
G2 X-2.1814 Y-0.5983 I0.0359 J-0.5566
G3 X-2.1077 Y-0.5984 I0.0378 J0.5565
G1 X-2.0994 Y-0.598
X-2.0953 Y-0.5976
X-2.0913 Y-0.5968
X-2.0897 Y-0.5962
X-2.0883 Y-0.5953
X-2.0872 Y-0.594
X-2.0865 Y-0.5924
X-2.0857 Y-0.5895
X-2.0852 Y-0.5864
X-2.0842 Y-0.5801
X-2.0839 Y-0.5766
Y-0.3581
G3 X-2.0967 Y-0.3453 I-0.0128 J0.
G1 X-2.6739
G2 X-2.7084 Y-0.3223 I0. J0.0374
G3 X-2.7429 Y-0.2993 I-0.0345 J-0.0144
G1 X-2.8696
G3 X-2.875 Y-0.31 I0. J-0.0067
G1 X-2.6301 Y-0.6373
G3 X-2.6027 Y-0.6503 I0.0259 J0.0194
X-2.5517 Y-0.6464 I-0.0445 J0.9271
G2 X-2.5006 Y-0.6438 I0.051 J-0.4938
X-2.4512 Y-0.6446 I0. J-1.5361
G3 X-2.4017 Y-0.6438 I0.0165 J0.5119
G2 X-2.3274 I0.0371 J-0.5751
G3 X-2.2532 I0.0371 J0.5751
G2 X-2.179 I0.0371 J-0.5751
G3 X-2.1047 I0.0371 J0.5751
X-2.0731 Y-0.6376 I-0.0082 J0.1269
X-2.0479 Y-0.6175 I-0.0145 J0.0439
X-2.0417 Y-0.6022 I-0.0464 J0.0278
G1 X-2.0385 Y-0.5859
X-2.0381 Y-0.5819
X-2.0379 Y-0.5778
Y-0.3121
G3 X-2.0507 Y-0.2993 I-0.0128 J0.
G1 X-2.7429
G2 X-2.7776 Y-0.2762 I0. J0.0375
G3 X-2.8122 Y-0.2531 I-0.0346 J-0.0144
G1 X-2.9197
X-2.9368 Y-0.2558
G3 X-2.95 Y-0.2822 I0.0065 J-0.0197
G1 X-2.942 Y-0.2975
X-2.6555 Y-0.6805
X-2.6431 Y-0.6925
X-2.6372 Y-0.6954
X-2.6226 Y-0.6975
X-2.5071 Y-0.6919
X-2.5006 Y-0.6918
X-2.1016
X-2.0674 Y-0.6873
X-2.0436 Y-0.6776
X-2.023 Y-0.6622
X-2.0071 Y-0.642
X-1.9968 Y-0.6184
X-1.9917 Y-0.5854
Y-0.2863
X-1.9944 Y-0.2691
X-1.9974 Y-0.2633
X-2.0021 Y-0.2587
X-2.0082 Y-0.2557
X-2.0246 Y-0.2531
X-2.8122
X-2.8161 Y-0.2535 Z2.4022
X-2.8198 Y-0.2545 Z2.4028
X-2.823 Y-0.2559 Z2.4046
X-2.8259 Y-0.2578 Z2.4064
X-2.8281 Y-0.2595 Z2.4092
X-2.83 Y-0.2615 Z2.4119
X-2.8321 Y-0.2643 Z2.4189
X-2.8328 Y-0.2654 Z2.4266
G0 Z3.5568
(2D CONTOUR16 2)
G64 P0.0004 Q0.0004
G0 X-2.5585 Y-0.6277
Z3.5568
Z3.1568
G1 Z2.9962 F80.
Z2.4266
Y-0.628 Z2.4227 F50.
Y-0.6289 Z2.4189
X-2.5584 Y-0.6304 Z2.4153
Y-0.6325 Z2.4119
X-2.5583 Y-0.635 Z2.4089
Y-0.638 Z2.4064
X-2.5582 Y-0.6413 Z2.4043
X-2.5581 Y-0.645 Z2.4028
Y-0.6488 Z2.4019
X-2.558 Y-0.6527 Z2.4016
X-2.5574 Y-0.6777
G3 X-2.5319 Y-0.7021 I0.025 J0.0005
G1 X-2.5307
X-2.5021 Y-0.7018
X-2.5006
X-2.0955
X-2.0839 Y-0.7013
X-2.0749 Y-0.7002
X-2.066 Y-0.6984
X-2.0574 Y-0.6958
X-2.0489 Y-0.6926
X-2.0407 Y-0.6886
X-2.0329 Y-0.6841
X-2.0255 Y-0.6789
X-2.0186 Y-0.6731
X-2.0121 Y-0.6668
X-2.0062 Y-0.6599
X-2.0008 Y-0.6526
X-1.996 Y-0.6449
X-1.9919 Y-0.6369
X-1.9885 Y-0.6285
X-1.9858 Y-0.6199
X-1.9837 Y-0.611
X-1.9824 Y-0.6021
X-1.9817 Y-0.5912
Y-0.5899
Y-0.2787
X-1.982 Y-0.2724
X-1.9825 Y-0.2692
X-1.9833 Y-0.2661
X-1.9844 Y-0.263
X-1.9858 Y-0.2601
X-1.9875 Y-0.2574
X-1.9894 Y-0.2548
X-1.9916 Y-0.2524
X-1.9941 Y-0.2503
X-1.9967 Y-0.2484
X-1.9995 Y-0.2468
X-2.0024 Y-0.2455
X-2.0055 Y-0.2445
X-2.0086 Y-0.2438
X-2.0126 Y-0.2433
X-2.0165 Y-0.2431
X-2.9272
X-2.9336 Y-0.2434
X-2.9367 Y-0.2439
X-2.9399 Y-0.2447
X-2.9429 Y-0.2458
X-2.9458 Y-0.2472
X-2.9486 Y-0.2489
X-2.9511 Y-0.2508
X-2.9535 Y-0.253
X-2.9556 Y-0.2555
X-2.9575 Y-0.2581
X-2.9591 Y-0.2609
X-2.9604 Y-0.2638
X-2.9615 Y-0.2669
X-2.9622 Y-0.27
X-2.9626 Y-0.2732
Y-0.2764
X-2.9624 Y-0.2796
X-2.9618 Y-0.2828
X-2.961 Y-0.2859
X-2.9598 Y-0.2889
X-2.9583 Y-0.2918
X-2.9552 Y-0.2965
X-2.659 Y-0.6925
X-2.6549 Y-0.6974
X-2.6526 Y-0.6997
X-2.6501 Y-0.7017
X-2.6474 Y-0.7034
X-2.6446 Y-0.7049
X-2.6416 Y-0.7061
X-2.6385 Y-0.707
X-2.6353 Y-0.7076
X-2.6321 Y-0.7079
X-2.6265 Y-0.7077
X-2.6263
X-2.6258
X-2.5824 Y-0.7043
X-2.5779 Y-0.704
X-2.5345 Y-0.7022
X-2.5307 Y-0.7021
X-2.5021 Y-0.7018
X-2.5006
X-2.0955
X-2.0839 Y-0.7013
X-2.0749 Y-0.7002
X-2.066 Y-0.6984
X-2.0574 Y-0.6958
X-2.0489 Y-0.6926
X-2.0407 Y-0.6886
X-2.0329 Y-0.6841
X-2.0255 Y-0.6789
X-2.0186 Y-0.6731
X-2.0121 Y-0.6668
X-2.0062 Y-0.6599
X-2.0008 Y-0.6526
X-1.996 Y-0.6449
X-1.9919 Y-0.6369
X-1.9885 Y-0.6285
X-1.9858 Y-0.6199
X-1.9837 Y-0.611
X-1.9824 Y-0.6021
X-1.9817 Y-0.5912
Y-0.5899
Y-0.2787
X-1.982 Y-0.2724
X-1.9825 Y-0.2692
X-1.9833 Y-0.2661
X-1.9844 Y-0.263
X-1.9858 Y-0.2601
X-1.9875 Y-0.2574
X-1.9894 Y-0.2548
X-1.9916 Y-0.2524
X-1.9941 Y-0.2503
X-1.9967 Y-0.2484
X-1.9995 Y-0.2468
X-2.0024 Y-0.2455
X-2.0055 Y-0.2445
X-2.0086 Y-0.2438
X-2.0126 Y-0.2433
X-2.0165 Y-0.2431
X-2.9272
X-2.9336 Y-0.2434
X-2.9367 Y-0.2439
X-2.9399 Y-0.2447
X-2.9429 Y-0.2458
X-2.9458 Y-0.2472
X-2.9486 Y-0.2489
X-2.9511 Y-0.2508
X-2.9535 Y-0.253
X-2.9556 Y-0.2555
X-2.9575 Y-0.2581
X-2.9591 Y-0.2609
X-2.9604 Y-0.2638
X-2.9615 Y-0.2669
X-2.9622 Y-0.27
X-2.9626 Y-0.2732
Y-0.2764
X-2.9624 Y-0.2796
X-2.9618 Y-0.2828
X-2.961 Y-0.2859
X-2.9598 Y-0.2889
X-2.9583 Y-0.2918
X-2.9552 Y-0.2965
X-2.659 Y-0.6925
X-2.6549 Y-0.6974
X-2.6526 Y-0.6997
X-2.6501 Y-0.7017
X-2.6474 Y-0.7034
X-2.6446 Y-0.7049
X-2.6416 Y-0.7061
X-2.6385 Y-0.707
X-2.6353 Y-0.7076
X-2.6321 Y-0.7079
X-2.6265 Y-0.7077
X-2.6263
X-2.6258
X-2.5824 Y-0.7043
X-2.5779 Y-0.704
X-2.5345 Y-0.7022
X-2.5319 Y-0.7021
G3 X-2.5074 Y-0.6766 I-0.0005 J0.025
G1 X-2.508 Y-0.6516
X-2.5081 Y-0.6477 Z2.4019
Y-0.6439 Z2.4028
X-2.5082 Y-0.6403 Z2.4043
X-2.5083 Y-0.6369 Z2.4064
X-2.5084 Y-0.6339 Z2.4089
Y-0.6314 Z2.4119
X-2.5085 Y-0.6293 Z2.4153
Y-0.6278 Z2.4189
Y-0.6269 Z2.4227
Y-0.6266 Z2.4266
G0 Z3.5568
(2D POCKET2 2)
G64 P0.004 Q0.004
G0 X-0.4621 Y-0.4974
Z3.5568
Z3.1568
G1 Z2.6722 F80.
G19 G3 Y-0.4724 Z2.6472 J0.025 K0.
G17 G3 X-0.4828 I-0.0103 J0. F20.
X-0.4121 I0.0353 J0.
X-0.5328 I-0.0603 J0.
X-0.3621 I0.0853 J0.
X-0.5828 I-0.1103 J0.
X-0.3621 I0.1103 J0.
G2 X-0.3423 Y-0.4396 I0.0372 J0.
G3 X-0.3301 Y-0.4031 I-0.013 J0.0246
G1 X-0.337 Y-0.3885
X-0.3598 Y-0.3597
X-0.3885 Y-0.337
X-0.4217 Y-0.3214
X-0.4576 Y-0.3138
X-0.4942 Y-0.3146
X-0.5297 Y-0.3237
X-0.5663 Y-0.3429
X-0.5959 Y-0.3717
X-0.6157 Y-0.4026
X-0.6279 Y-0.4372
X-0.6318 Y-0.4736
X-0.6273 Y-0.51
X-0.6146 Y-0.5444
X-0.5944 Y-0.575
X-0.5678 Y-0.6002
X-0.5361 Y-0.6186
X-0.501 Y-0.6292
X-0.4644 Y-0.6316
X-0.4282 Y-0.6256
X-0.3944 Y-0.6114
X-0.3647 Y-0.5899
X-0.3407 Y-0.5621
X-0.3237 Y-0.5297
X-0.3146 Y-0.4942
X-0.3138 Y-0.4575
X-0.3214 Y-0.4216
X-0.3301 Y-0.4031
X-0.3321 Y-0.3998 Z2.6478
X-0.3346 Y-0.3969 Z2.6484
X-0.3372 Y-0.3946 Z2.6502
X-0.3401 Y-0.3927 Z2.652
X-0.3426 Y-0.3915 Z2.6547
X-0.3452 Y-0.3906 Z2.6575
X-0.3487 Y-0.3899 Z2.6645
X-0.3499 Y-0.3898 Z2.6722
G0 Z3.5568
(2D CONTOUR17 3)
G64 P0.0004 Q0.0004
G0 X-0.4733 Y-0.5712
Z3.5568
Z3.1568
G1 Z2.9962 F80.
Z2.6722
X-0.4732 Y-0.5715 Z2.6683 F4.
X-0.473 Y-0.5724 Z2.6645
X-0.4726 Y-0.5739 Z2.6608
X-0.4721 Y-0.5759 Z2.6575
X-0.4715 Y-0.5783 Z2.6545
X-0.4708 Y-0.5812 Z2.652
X-0.47 Y-0.5845 Z2.6499
X-0.4691 Y-0.588 Z2.6484
X-0.4681 Y-0.5917 Z2.6475
X-0.4672 Y-0.5955 Z2.6472
X-0.4611 Y-0.6197
G3 X-0.4307 Y-0.6378 I0.0242 J0.0061
G1 X-0.4247 Y-0.6363
X-0.4129 Y-0.6324
X-0.4014 Y-0.6276
X-0.3903 Y-0.6221
X-0.3796 Y-0.6157
X-0.3694 Y-0.6085
X-0.3598 Y-0.6007
X-0.3507 Y-0.5921
X-0.3423 Y-0.5829
X-0.3346 Y-0.5732
X-0.3277 Y-0.5629
X-0.3215 Y-0.5521
X-0.3161 Y-0.5409
X-0.3115 Y-0.5293
X-0.3078 Y-0.5174
X-0.305 Y-0.5053
X-0.303 Y-0.4931
X-0.302 Y-0.4807
X-0.3018 Y-0.4682
X-0.3026 Y-0.4558
X-0.3042 Y-0.4435
X-0.3068 Y-0.4313
X-0.3102 Y-0.4194
X-0.3145 Y-0.4077
X-0.3196 Y-0.3964
X-0.3256 Y-0.3854
X-0.3323 Y-0.375
X-0.3398 Y-0.365
X-0.348 Y-0.3557
X-0.3568 Y-0.3469
X-0.3662 Y-0.3388
X-0.3763 Y-0.3314
X-0.3868 Y-0.3248
X-0.3978 Y-0.319
X-0.4091 Y-0.3139
X-0.4208 Y-0.3097
X-0.4328 Y-0.3064
X-0.445 Y-0.304
X-0.4574 Y-0.3024
X-0.4698 Y-0.3018
X-0.4822 Y-0.302
X-0.4946 Y-0.3032
X-0.5069 Y-0.3053
X-0.5189 Y-0.3082
X-0.5308 Y-0.312
X-0.5423 Y-0.3167
X-0.5535 Y-0.3222
X-0.5642 Y-0.3285
X-0.5755 Y-0.3363
X-0.5861 Y-0.3451
X-0.5951 Y-0.3537
X-0.6034 Y-0.363
X-0.611 Y-0.3728
X-0.6179 Y-0.3831
X-0.624 Y-0.394
X-0.6293 Y-0.4052
X-0.6338 Y-0.4168
X-0.6374 Y-0.4287
X-0.6402 Y-0.4408
X-0.642 Y-0.4531
X-0.643 Y-0.4655
Y-0.478
X-0.6422 Y-0.4904
X-0.6404 Y-0.5027
X-0.6378 Y-0.5148
X-0.6343 Y-0.5268
X-0.6299 Y-0.5384
X-0.6247 Y-0.5497
X-0.6186 Y-0.5606
X-0.6118 Y-0.571
X-0.6043 Y-0.5809
X-0.596 Y-0.5902
X-0.5871 Y-0.5989
X-0.5776 Y-0.6069
X-0.5675 Y-0.6142
X-0.557 Y-0.6207
X-0.5459 Y-0.6265
X-0.5345 Y-0.6314
X-0.5228 Y-0.6355
X-0.5108 Y-0.6388
X-0.4986 Y-0.6411
X-0.4862 Y-0.6426
X-0.4738 Y-0.6431
X-0.4614 Y-0.6428
X-0.449 Y-0.6415
X-0.4367 Y-0.6394
X-0.4247 Y-0.6363
X-0.4129 Y-0.6324
X-0.4014 Y-0.6276
X-0.3903 Y-0.6221
X-0.3796 Y-0.6157
X-0.3694 Y-0.6085
X-0.3598 Y-0.6007
X-0.3507 Y-0.5921
X-0.3423 Y-0.5829
X-0.3346 Y-0.5732
X-0.3277 Y-0.5629
X-0.3215 Y-0.5521
X-0.3161 Y-0.5409
X-0.3115 Y-0.5293
X-0.3078 Y-0.5174
X-0.305 Y-0.5053
X-0.303 Y-0.4931
X-0.302 Y-0.4807
X-0.3018 Y-0.4682
X-0.3026 Y-0.4558
X-0.3042 Y-0.4435
X-0.3068 Y-0.4313
X-0.3102 Y-0.4194
X-0.3145 Y-0.4077
X-0.3196 Y-0.3964
X-0.3256 Y-0.3854
X-0.3323 Y-0.375
X-0.3398 Y-0.365
X-0.348 Y-0.3557
X-0.3568 Y-0.3469
X-0.3662 Y-0.3388
X-0.3763 Y-0.3314
X-0.3868 Y-0.3248
X-0.3978 Y-0.319
X-0.4091 Y-0.3139
X-0.4208 Y-0.3097
X-0.4328 Y-0.3064
X-0.445 Y-0.304
X-0.4574 Y-0.3024
X-0.4698 Y-0.3018
X-0.4822 Y-0.302
X-0.4946 Y-0.3032
X-0.5069 Y-0.3053
X-0.5189 Y-0.3082
X-0.5308 Y-0.312
X-0.5423 Y-0.3167
X-0.5535 Y-0.3222
X-0.5642 Y-0.3285
X-0.5755 Y-0.3363
X-0.5861 Y-0.3451
X-0.5951 Y-0.3537
X-0.6034 Y-0.363
X-0.611 Y-0.3728
X-0.6179 Y-0.3831
X-0.624 Y-0.394
X-0.6293 Y-0.4052
X-0.6338 Y-0.4168
X-0.6374 Y-0.4287
X-0.6402 Y-0.4408
X-0.642 Y-0.4531
X-0.643 Y-0.4655
Y-0.478
X-0.6422 Y-0.4904
X-0.6404 Y-0.5027
X-0.6378 Y-0.5148
X-0.6343 Y-0.5268
X-0.6299 Y-0.5384
X-0.6247 Y-0.5497
X-0.6186 Y-0.5606
X-0.6118 Y-0.571
X-0.6043 Y-0.5809
X-0.596 Y-0.5902
X-0.5871 Y-0.5989
X-0.5776 Y-0.6069
X-0.5675 Y-0.6142
X-0.557 Y-0.6207
X-0.5459 Y-0.6265
X-0.5345 Y-0.6314
X-0.5228 Y-0.6355
X-0.5108 Y-0.6388
X-0.4986 Y-0.6411
X-0.4862 Y-0.6426
X-0.4738 Y-0.6431
X-0.4614 Y-0.6428
X-0.449 Y-0.6415
X-0.4367 Y-0.6394
X-0.4307 Y-0.6378
G3 X-0.4126 Y-0.6075 I-0.0061 J0.0242
G1 X-0.4187 Y-0.5832
X-0.4197 Y-0.5794 Z2.6475
X-0.4206 Y-0.5757 Z2.6484
X-0.4215 Y-0.5722 Z2.6499
X-0.4223 Y-0.569 Z2.652
X-0.423 Y-0.5661 Z2.6545
X-0.4237 Y-0.5636 Z2.6575
X-0.4242 Y-0.5616 Z2.6608
X-0.4245 Y-0.5602 Z2.6645
X-0.4247 Y-0.5593 Z2.6683
X-0.4248 Y-0.559 Z2.6722
G0 Z3.5568
(2D CONTOUR17 4)
G0 X-0.7115 Y0.382
Z3.5568
Z3.1568
G1 Z2.6472 F80.
G3 X-0.4688 Y0.1249 I0.2499 J-0.0072 F20.
G1 X-0.4416 Y0.1242
X-0.4345 Y0.1237
X-0.4073 Y0.1214
X-0.4002 Y0.1206
X-0.3733 Y0.1167
X-0.3662 Y0.1154
X-0.3395 Y0.11
X-0.3325 Y0.1083
X-0.3062 Y0.1014
X-0.2993 Y0.0993
X-0.2734 Y0.0908
X-0.2666 Y0.0884
X-0.2413 Y0.0784
X-0.2347 Y0.0756
X-0.21 Y0.0642
X-0.2035 Y0.061
X-0.1795 Y0.0482
X-0.1732 Y0.0446
X-0.15 Y0.0305
X-0.144 Y0.0265
X-0.1216 Y0.0111
X-0.1158 Y0.0068
X-0.0943 Y-0.0099
X-0.0888 Y-0.0145
X-0.0683 Y-0.0325
X-0.063 Y-0.0374
X-0.0437 Y-0.0565
X-0.0387 Y-0.0617
X-0.0204 Y-0.0819
X-0.0157 Y-0.0873
X0.0013 Y-0.1085
X0.0057 Y-0.1143
X0.0215 Y-0.1364
X0.0255 Y-0.1424
X0.04 Y-0.1654
X0.0437 Y-0.1716
X0.0569 Y-0.1954
X0.0602 Y-0.2018
X0.0719 Y-0.2264
X0.0749 Y-0.233
X0.0852 Y-0.2581
X0.0877 Y-0.2649
X0.0966 Y-0.2906
X0.0988 Y-0.2975
X0.1061 Y-0.3237
X0.1079 Y-0.3307
X0.1137 Y-0.3572
X0.1151 Y-0.3643
X0.1194 Y-0.3912
X0.1203 Y-0.3983
X0.1231 Y-0.4254
X0.1236 Y-0.4326
X0.1248 Y-0.4598
X0.1249 Y-0.467
X0.1246 Y-0.4942
X0.1243 Y-0.5014
X0.1223 Y-0.5285
X0.1216 Y-0.5357
X0.1181 Y-0.5627
X0.117 Y-0.5698
X0.1119 Y-0.5965
X0.1104 Y-0.6036
X0.1038 Y-0.63
X0.1019 Y-0.6369
X0.0938 Y-0.6629
X0.0914 Y-0.6697
X0.0819 Y-0.6952
X0.0791 Y-0.7019
X0.0681 Y-0.7267
X0.065 Y-0.7332
X0.0526 Y-0.7574
X0.0491 Y-0.7638
X0.0353 Y-0.7872
X0.0315 Y-0.7933
X0.0163 Y-0.8159
X0.0122 Y-0.8218
X-0.0042 Y-0.8435
X-0.0088 Y-0.8491
X-0.0264 Y-0.8698
X-0.0312 Y-0.8752
X-0.05 Y-0.8949
X-0.0551 Y-0.8999
X-0.075 Y-0.9185
X-0.0805 Y-0.9232
X-0.1014 Y-0.9406
X-0.1071 Y-0.9451
X-0.129 Y-0.9612
X-0.1349 Y-0.9653
X-0.1577 Y-0.9802
X-0.1638 Y-0.9839
X-0.1874 Y-0.9975
X-0.1938 Y-1.0009
X-0.2182 Y-1.013
X-0.2247 Y-1.016
X-0.2497 Y-1.0268
X-0.2564 Y-1.0294
X-0.282 Y-1.0387
X-0.2888 Y-1.0409
X-0.3149 Y-1.0487
X-0.3219 Y-1.0506
X-0.3483 Y-1.0568
X-0.3554 Y-1.0583
X-0.3822 Y-1.063
X-0.3893 Y-1.064
X-0.4164 Y-1.0672
X-0.4235 Y-1.0678
G2 X-0.4706 Y-1.0699 I-0.049 J0.5882
G3 X-0.7168 Y-1.3236 I0.0038 J-0.25
G0 Z3.1568
X-0.7115 Y0.382
G1 Z2.6472 F80.
G3 X-0.4688 Y0.1249 I0.2499 J-0.0072 F20.
G1 X-0.4416 Y0.1242
X-0.4345 Y0.1237
X-0.4073 Y0.1214
X-0.4002 Y0.1206
X-0.3733 Y0.1167
X-0.3662 Y0.1154
X-0.3395 Y0.11
X-0.3325 Y0.1083
X-0.3062 Y0.1014
X-0.2993 Y0.0993
X-0.2734 Y0.0908
X-0.2666 Y0.0884
X-0.2413 Y0.0784
X-0.2347 Y0.0756
X-0.21 Y0.0642
X-0.2035 Y0.061
X-0.1795 Y0.0482
X-0.1732 Y0.0446
X-0.15 Y0.0305
X-0.144 Y0.0265
X-0.1216 Y0.0111
X-0.1158 Y0.0068
X-0.0943 Y-0.0099
X-0.0888 Y-0.0145
X-0.0683 Y-0.0325
X-0.063 Y-0.0374
X-0.0437 Y-0.0565
X-0.0387 Y-0.0617
X-0.0204 Y-0.0819
X-0.0157 Y-0.0873
X0.0013 Y-0.1085
X0.0057 Y-0.1143
X0.0215 Y-0.1364
X0.0255 Y-0.1424
X0.04 Y-0.1654
X0.0437 Y-0.1716
X0.0569 Y-0.1954
X0.0602 Y-0.2018
X0.0719 Y-0.2264
X0.0749 Y-0.233
X0.0852 Y-0.2581
X0.0877 Y-0.2649
X0.0966 Y-0.2906
X0.0988 Y-0.2975
X0.1061 Y-0.3237
X0.1079 Y-0.3307
X0.1137 Y-0.3572
X0.1151 Y-0.3643
X0.1194 Y-0.3912
X0.1203 Y-0.3983
X0.1231 Y-0.4254
X0.1236 Y-0.4326
X0.1248 Y-0.4598
X0.1249 Y-0.467
X0.1246 Y-0.4942
X0.1243 Y-0.5014
X0.1223 Y-0.5285
X0.1216 Y-0.5357
X0.1181 Y-0.5627
X0.117 Y-0.5698
X0.1119 Y-0.5965
X0.1104 Y-0.6036
X0.1038 Y-0.63
X0.1019 Y-0.6369
X0.0938 Y-0.6629
X0.0914 Y-0.6697
X0.0819 Y-0.6952
X0.0791 Y-0.7019
X0.0681 Y-0.7267
X0.065 Y-0.7332
X0.0526 Y-0.7574
X0.0491 Y-0.7638
X0.0353 Y-0.7872
X0.0315 Y-0.7933
X0.0163 Y-0.8159
X0.0122 Y-0.8218
X-0.0042 Y-0.8435
X-0.0088 Y-0.8491
X-0.0264 Y-0.8698
X-0.0312 Y-0.8752
X-0.05 Y-0.8949
X-0.0551 Y-0.8999
X-0.075 Y-0.9185
X-0.0805 Y-0.9232
X-0.1014 Y-0.9406
X-0.1071 Y-0.9451
X-0.129 Y-0.9612
X-0.1349 Y-0.9653
X-0.1577 Y-0.9802
X-0.1638 Y-0.9839
X-0.1874 Y-0.9975
X-0.1938 Y-1.0009
X-0.2182 Y-1.013
X-0.2247 Y-1.016
X-0.2497 Y-1.0268
X-0.2564 Y-1.0294
X-0.282 Y-1.0387
X-0.2888 Y-1.0409
X-0.3149 Y-1.0487
X-0.3219 Y-1.0506
X-0.3483 Y-1.0568
X-0.3554 Y-1.0583
X-0.3822 Y-1.063
X-0.3893 Y-1.064
X-0.4164 Y-1.0672
X-0.4235 Y-1.0678
G2 X-0.4706 Y-1.0699 I-0.049 J0.5882
G3 X-0.7168 Y-1.3236 I0.0038 J-0.25
G0 Z3.5568
(2D CONTOUR18 2)
G0 X-4.553 Y-0.5892
Z3.5568
Z3.1568
G1 Z2.9962 F80.
Z2.5963
X-4.5528 Y-0.5895 Z2.5924 F50.
X-4.5523 Y-0.5902 Z2.5886
X-4.5514 Y-0.5914 Z2.585
X-4.5502 Y-0.5931 Z2.5816
X-4.5486 Y-0.5951 Z2.5787
X-4.5469 Y-0.5975 Z2.5761
X-4.5449 Y-0.6002 Z2.5741
X-4.5427 Y-0.6031 Z2.5726
X-4.5404 Y-0.6061 Z2.5716
X-4.5381 Y-0.6093 Z2.5713
X-4.5231 Y-0.6293
G3 X-4.4881 Y-0.6343 I0.02 J0.015
G1 X-3.1861 Y0.3397
G3 X-3.1811 Y0.3747 I-0.015 J0.02
G1 X-3.196 Y0.3947
X-3.1984 Y0.3978 Z2.5716
X-3.2007 Y0.4009 Z2.5726
X-3.2028 Y0.4038 Z2.5741
X-3.2048 Y0.4065 Z2.5761
X-3.2066 Y0.4089 Z2.5787
X-3.2081 Y0.4109 Z2.5816
X-3.2094 Y0.4126 Z2.585
X-3.2103 Y0.4138 Z2.5886
X-3.2108 Y0.4145 Z2.5924
X-3.211 Y0.4147 Z2.5963
G0 Z3.1568
X-4.553 Y-0.5892
G1 Z2.9962 F80.
Z2.5963
X-4.5528 Y-0.5895 Z2.5924 F50.
X-4.5523 Y-0.5902 Z2.5886
X-4.5514 Y-0.5914 Z2.585
X-4.5502 Y-0.5931 Z2.5816
X-4.5486 Y-0.5951 Z2.5787
X-4.5469 Y-0.5975 Z2.5761
X-4.5449 Y-0.6002 Z2.5741
X-4.5427 Y-0.6031 Z2.5726
X-4.5404 Y-0.6061 Z2.5716
X-4.5381 Y-0.6093 Z2.5713
X-4.5231 Y-0.6293
G3 X-4.4881 Y-0.6343 I0.02 J0.015
G1 X-3.1861 Y0.3397
G3 X-3.1811 Y0.3747 I-0.015 J0.02
G1 X-3.196 Y0.3947
X-3.1984 Y0.3978 Z2.5716
X-3.2007 Y0.4009 Z2.5726
X-3.2028 Y0.4038 Z2.5741
X-3.2048 Y0.4065 Z2.5761
X-3.2066 Y0.4089 Z2.5787
X-3.2081 Y0.4109 Z2.5816
X-3.2094 Y0.4126 Z2.585
X-3.2103 Y0.4138 Z2.5886
X-3.2108 Y0.4145 Z2.5924
X-3.211 Y0.4147 Z2.5963
G0 Z3.5568
M5
G53 G0 Z0.
(2D CHAMFER3)
M9
M1
T13 M6
T54
S7500 M3
G17 G90 G94
G54
M8
G0 X-2.5304 Y-0.7706
G43 Z3.5568 H13
G0 Z3.1568
G1 Z2.8534 F80.
X-2.5299 F20.
X-2.5013 Y-0.7703
X-2.5006
X-2.0941
X-2.0783 Y-0.7696
X-2.0638 Y-0.7678
X-2.0494 Y-0.7649
X-2.0354 Y-0.7608
X-2.0217 Y-0.7555
X-2.0085 Y-0.7492
X-1.9959 Y-0.7418
X-1.9839 Y-0.7334
X-1.9727 Y-0.724
X-1.9622 Y-0.7138
X-1.9526 Y-0.7028
X-1.9439 Y-0.691
X-1.9362 Y-0.6785
X-1.9296 Y-0.6655
X-1.9241 Y-0.6519
X-1.9196 Y-0.638
X-1.9163 Y-0.6237
X-1.9142 Y-0.6092
X-1.9132 Y-0.5938
Y-0.5902
Y-0.277
X-1.9138 Y-0.2655
X-1.9153 Y-0.2556
X-1.9178 Y-0.2458
X-1.9212 Y-0.2364
X-1.9256 Y-0.2273
X-1.9308 Y-0.2187
X-1.9369 Y-0.2107
X-1.9438 Y-0.2033
X-1.9513 Y-0.1967
X-1.9595 Y-0.1908
X-1.9682 Y-0.1858
X-1.9774 Y-0.1816
X-1.9869 Y-0.1784
X-1.9968 Y-0.1762
X-2.0071 Y-0.1749
X-2.0152 Y-0.1746
X-2.9289
X-2.9404 Y-0.1752
X-2.9503 Y-0.1767
X-2.9601 Y-0.1792
X-2.9695 Y-0.1826
X-2.9786 Y-0.187
X-2.9872 Y-0.1922
X-2.9952 Y-0.1983
X-3.0026 Y-0.2052
X-3.0093 Y-0.2127
X-3.0151 Y-0.2209
X-3.0202 Y-0.2296
X-3.0243 Y-0.2388
X-3.0275 Y-0.2483
X-3.0297 Y-0.2582
X-3.031 Y-0.2682
X-3.0312 Y-0.2782
X-3.0304 Y-0.2883
X-3.0287 Y-0.2982
X-3.0259 Y-0.3078
X-3.0222 Y-0.3172
X-3.0176 Y-0.3262
X-3.0115 Y-0.3356
X-3.011 Y-0.3363
X-2.7128 Y-0.7349
X-2.7055 Y-0.7437
X-2.6983 Y-0.7508
X-2.6905 Y-0.7571
X-2.6821 Y-0.7626
X-2.6731 Y-0.7673
X-2.6638 Y-0.771
X-2.6541 Y-0.7738
X-2.6442 Y-0.7756
X-2.6342 Y-0.7764
X-2.623 Y-0.7762
X-2.6207 Y-0.776
X-2.6204
X-2.5771 Y-0.7726
X-2.5761 Y-0.7725
X-2.575
X-2.5316 Y-0.7707
X-2.5304 Y-0.7706
G0 Z3.5568
X-0.3045 Y-0.303
Z3.1568
G1 Z2.8534 F80.
X-0.3107 Y-0.2969 F20.
X-0.3239 Y-0.2855
X-0.3379 Y-0.2752
X-0.3526 Y-0.266
X-0.368 Y-0.2578
X-0.3839 Y-0.2507
X-0.4003 Y-0.2449
X-0.417 Y-0.2402
X-0.4341 Y-0.2368
X-0.4513 Y-0.2346
X-0.4687 Y-0.2337
X-0.4861 Y-0.2341
X-0.5034 Y-0.2357
X-0.5206 Y-0.2386
X-0.5375 Y-0.2427
X-0.554 Y-0.2481
X-0.5701 Y-0.2546
X-0.5857 Y-0.2623
X-0.6007 Y-0.2711
X-0.6157 Y-0.2814
X-0.6174 Y-0.2827
X-0.6314 Y-0.2943
X-0.644 Y-0.3064
X-0.6556 Y-0.3193
X-0.6663 Y-0.3331
X-0.6759 Y-0.3475
X-0.6845 Y-0.3627
X-0.6919 Y-0.3784
X-0.6981 Y-0.3946
X-0.7032 Y-0.4113
X-0.7071 Y-0.4282
X-0.7096 Y-0.4454
X-0.711 Y-0.4628
X-0.7111 Y-0.4802
X-0.7099 Y-0.4975
X-0.7074 Y-0.5148
X-0.7037 Y-0.5318
X-0.6988 Y-0.5484
X-0.6926 Y-0.5647
X-0.6853 Y-0.5805
X-0.6769 Y-0.5957
X-0.6674 Y-0.6103
X-0.6568 Y-0.6241
X-0.6453 Y-0.6371
X-0.6328 Y-0.6493
X-0.6195 Y-0.6605
X-0.6054 Y-0.6707
X-0.5907 Y-0.6799
X-0.5752 Y-0.6879
X-0.5593 Y-0.6948
X-0.5429 Y-0.7006
X-0.5261 Y-0.7051
X-0.509 Y-0.7084
X-0.4917 Y-0.7104
X-0.4743 Y-0.7112
X-0.4569 Y-0.7107
X-0.4396 Y-0.7089
X-0.4225 Y-0.7059
X-0.4056 Y-0.7016
X-0.3891 Y-0.6962
X-0.373 Y-0.6895
X-0.3575 Y-0.6817
X-0.3426 Y-0.6728
X-0.3283 Y-0.6628
X-0.3149 Y-0.6518
X-0.3022 Y-0.6398
X-0.2905 Y-0.627
X-0.2797 Y-0.6133
X-0.27 Y-0.5989
X-0.2613 Y-0.5838
X-0.2537 Y-0.5682
X-0.2473 Y-0.552
X-0.2422 Y-0.5354
X-0.2382 Y-0.5185
X-0.2355 Y-0.5013
X-0.234 Y-0.4839
X-0.2338 Y-0.4665
X-0.2348 Y-0.4492
X-0.2372 Y-0.4319
X-0.2407 Y-0.4149
X-0.2455 Y-0.3982
X-0.2515 Y-0.3819
X-0.2587 Y-0.366
X-0.267 Y-0.3508
X-0.2764 Y-0.3361
X-0.2869 Y-0.3222
X-0.2983 Y-0.3091
X-0.3045 Y-0.303
G0 Z3.5568
X0.056 Y-0.495
Z3.1568
G1 Z2.8534 F80.
X0.0559 Y-0.4965 F20.
X0.054 Y-0.5236
X0.0539 Y-0.5247
X0.0538 Y-0.5258
X0.0537 Y-0.5269
X0.0502 Y-0.5539
X0.05 Y-0.555
X0.0499 Y-0.556
X0.0497 Y-0.5571
X0.0446 Y-0.5838
X0.0444 Y-0.5849
X0.0442 Y-0.586
X0.0439 Y-0.587
X0.0373 Y-0.6134
X0.0371 Y-0.6145
X0.0368 Y-0.6155
X0.0365 Y-0.6166
X0.0284 Y-0.6425
X0.028 Y-0.6436
X0.0277 Y-0.6446
X0.0273 Y-0.6456
X0.0178 Y-0.6711
X0.0174 Y-0.6721
X0.017 Y-0.6731
X0.0165 Y-0.6741
X0.0055 Y-0.699
X0.0051 Y-0.7
X0.0046 Y-0.701
X0.0041 Y-0.7019
X-0.0083 Y-0.7261
X-0.0088 Y-0.7271
X-0.0094 Y-0.7281
X-0.0099 Y-0.729
X-0.0237 Y-0.7524
X-0.0243 Y-0.7534
X-0.0249 Y-0.7543
X-0.0254 Y-0.7552
X-0.0406 Y-0.7778
X-0.0412 Y-0.7787
X-0.0418 Y-0.7796
X-0.0425 Y-0.7805
X-0.0589 Y-0.8022
X-0.0595 Y-0.803
X-0.0602 Y-0.8039
X-0.0609 Y-0.8047
X-0.0786 Y-0.8255
X-0.0793 Y-0.8263
X-0.08 Y-0.8271
X-0.0807 Y-0.8279
X-0.0995 Y-0.8475
X-0.1003 Y-0.8483
X-0.1011 Y-0.8491
X-0.1019 Y-0.8498
X-0.1218 Y-0.8684
X-0.1226 Y-0.8691
X-0.1234 Y-0.8698
X-0.1242 Y-0.8705
X-0.1451 Y-0.8879
X-0.146 Y-0.8886
X-0.1468 Y-0.8893
X-0.1477 Y-0.8899
X-0.1696 Y-0.9061
X-0.1705 Y-0.9067
X-0.1714 Y-0.9073
X-0.1723 Y-0.9079
X-0.1951 Y-0.9228
X-0.196 Y-0.9234
X-0.1969 Y-0.924
X-0.1979 Y-0.9245
X-0.2215 Y-0.938
X-0.2224 Y-0.9386
X-0.2234 Y-0.9391
X-0.2244 Y-0.9396
X-0.2487 Y-0.9517
X-0.2497 Y-0.9522
X-0.2507 Y-0.9526
X-0.2517 Y-0.9531
X-0.2767 Y-0.9638
X-0.2777 Y-0.9642
X-0.2787 Y-0.9646
X-0.2797 Y-0.965
X-0.3053 Y-0.9743
X-0.3063 Y-0.9746
X-0.3073 Y-0.975
X-0.3084 Y-0.9753
X-0.3345 Y-0.983
X-0.3355 Y-0.9833
X-0.3366 Y-0.9836
X-0.3376 Y-0.9839
X-0.3641 Y-0.9901
X-0.3652 Y-0.9904
X-0.3662 Y-0.9906
X-0.3673 Y-0.9908
X-0.3941 Y-0.9955
X-0.3952 Y-0.9957
X-0.3962 Y-0.9959
X-0.3973 Y-0.996
X-0.4243 Y-0.9992
X-0.4254 Y-0.9993
X-0.4265 Y-0.9994
X-0.4276 Y-0.9995
X-0.4548 Y-1.0011
X-0.456
X-0.4572 Y-1.0012
X-0.4716 Y-1.0014
X-0.4724
X-2.5001
X-2.5398 Y-1.0021
X-2.5789 Y-1.0044
X-2.6179 Y-1.0081
X-2.6567 Y-1.0133
X-2.6953 Y-1.0199
X-2.7336 Y-1.028
X-2.7716 Y-1.0376
X-2.8091 Y-1.0486
X-2.8463 Y-1.061
X-2.8829 Y-1.0748
X-2.919 Y-1.09
X-2.9545 Y-1.1066
X-2.9893 Y-1.1245
X-3.0235 Y-1.1437
X-3.0568 Y-1.1642
X-3.0894 Y-1.1859
X-3.1194 Y-1.2075
X-3.1199 Y-1.2079
X-3.1422 Y-1.2236
X-3.143 Y-1.2242
X-3.144 Y-1.2248
X-3.1449 Y-1.2254
X-3.168 Y-1.2397
X-3.1689 Y-1.2403
X-3.1698 Y-1.2408
X-3.1708 Y-1.2414
X-3.1947 Y-1.2544
X-3.1957 Y-1.2549
X-3.1966 Y-1.2554
X-3.1976 Y-1.2559
X-3.2222 Y-1.2675
X-3.2232 Y-1.2679
X-3.2242 Y-1.2683
X-3.2252 Y-1.2688
X-3.2504 Y-1.2789
X-3.2515 Y-1.2793
X-3.2525 Y-1.2797
X-3.2535 Y-1.2801
X-3.2793 Y-1.2888
X-3.2803 Y-1.2891
X-3.2814 Y-1.2894
X-3.2824 Y-1.2897
X-3.3086 Y-1.2969
X-3.3097 Y-1.2972
X-3.3108 Y-1.2974
X-3.3118 Y-1.2977
X-3.3384 Y-1.3034
X-3.3395 Y-1.3036
X-3.3406 Y-1.3038
X-3.3416 Y-1.3039
X-3.3685 Y-1.3081
X-3.3696 Y-1.3082
X-3.3707 Y-1.3084
X-3.3718 Y-1.3085
X-3.3989 Y-1.3111
X-3.3999 Y-1.3112
X-3.401
X-3.4021 Y-1.3113
X-3.4293 Y-1.3123
X-3.4304
X-3.4315
X-3.4325
X-3.4598 Y-1.3118
X-3.4608 Y-1.3117
X-3.4619
X-3.463 Y-1.3116
X-3.4901 Y-1.3095
X-3.4912 Y-1.3094
X-3.4923 Y-1.3093
X-3.4934 Y-1.3092
X-3.5203 Y-1.3055
X-3.5214 Y-1.3053
X-3.5225 Y-1.3051
X-3.5236 Y-1.3049
X-3.5503 Y-1.2997
X-3.5513 Y-1.2995
X-3.5524 Y-1.2993
X-3.5534 Y-1.299
X-3.5798 Y-1.2922
X-3.5809 Y-1.292
X-3.5819 Y-1.2917
X-3.5829 Y-1.2914
X-3.6089 Y-1.2831
X-3.6099 Y-1.2828
X-3.6109 Y-1.2824
X-3.6119 Y-1.282
X-3.6374 Y-1.2723
X-3.6384 Y-1.2719
X-3.6394 Y-1.2715
X-3.6404 Y-1.271
X-3.6652 Y-1.2598
X-3.6662 Y-1.2594
X-3.6671 Y-1.2589
X-3.6681 Y-1.2584
X-3.6922 Y-1.2458
X-3.6932 Y-1.2453
X-3.6941 Y-1.2448
X-3.6951 Y-1.2442
X-3.7184 Y-1.2303
X-3.7194 Y-1.2297
X-3.7203 Y-1.2291
X-3.7212 Y-1.2285
X-3.7437 Y-1.2132
X-3.7446 Y-1.2126
X-3.7455 Y-1.212
X-3.7463 Y-1.2113
X-3.7679 Y-1.1948
X-3.7688 Y-1.1941
X-3.7696 Y-1.1934
X-3.7705 Y-1.1927
X-3.7911 Y-1.1749
X-3.7919 Y-1.1742
X-3.7927 Y-1.1735
X-3.7935 Y-1.1727
X-3.813 Y-1.1538
X-3.8138 Y-1.153
X-3.8145 Y-1.1523
X-3.8153 Y-1.1515
X-3.8337 Y-1.1315
X-3.8344 Y-1.1306
X-3.8352 Y-1.1298
X-3.8358 Y-1.129
X-3.8531 Y-1.1079
X-3.8537 Y-1.1071
X-3.8544 Y-1.1063
X-3.8587 Y-1.1006
X-3.859 Y-1.1003
X-4.2334 Y-0.5999
G2 X-4.222 Y-0.5208 I0.0452 J0.0338
G1 X-3.4653 Y0.0452
G2 X-3.4315 Y0.0565 I0.0338 J-0.0452
G1 X-0.4724
X-0.4716
X-0.4708
X-0.4436 Y0.0557
X-0.4425
X-0.4414 Y0.0556
X-0.4404 Y0.0555
X-0.4132 Y0.0532
X-0.4122 Y0.0531
X-0.4111 Y0.0529
X-0.41 Y0.0528
X-0.3831 Y0.0489
X-0.382 Y0.0487
X-0.3809 Y0.0485
X-0.3799 Y0.0483
X-0.3532 Y0.0429
X-0.3521 Y0.0426
X-0.3511 Y0.0424
X-0.35 Y0.0421
X-0.3237 Y0.0351
X-0.3227 Y0.0349
X-0.3216 Y0.0345
X-0.3206 Y0.0342
X-0.2948 Y0.0257
X-0.2937 Y0.0254
X-0.2927 Y0.025
X-0.2917 Y0.0246
X-0.2664 Y0.0147
X-0.2654 Y0.0143
X-0.2644 Y0.0138
X-0.2634 Y0.0134
X-0.2387 Y0.002
X-0.2377 Y0.0015
X-0.2367 Y0.0011
X-0.2357 Y0.0006
X-0.2117 Y-0.0122
X-0.2108 Y-0.0128
X-0.2098 Y-0.0133
X-0.2089 Y-0.0139
X-0.1857 Y-0.028
X-0.1847 Y-0.0286
X-0.1838 Y-0.0292
X-0.1829 Y-0.0298
X-0.1605 Y-0.0453
X-0.1596 Y-0.0459
X-0.1588 Y-0.0465
X-0.1579 Y-0.0472
X-0.1365 Y-0.0639
X-0.1356 Y-0.0646
X-0.1348 Y-0.0653
X-0.1339 Y-0.066
X-0.1135 Y-0.084
X-0.1127 Y-0.0847
X-0.1119 Y-0.0854
X-0.1111 Y-0.0862
X-0.0917 Y-0.1053
X-0.091 Y-0.1061
X-0.0902 Y-0.1068
X-0.0895 Y-0.1076
X-0.0712 Y-0.1278
X-0.0705 Y-0.1286
X-0.0698 Y-0.1295
X-0.0691 Y-0.1303
X-0.052 Y-0.1515
X-0.0514 Y-0.1523
X-0.0507 Y-0.1532
X-0.0501 Y-0.1541
X-0.0342 Y-0.1762
X-0.0336 Y-0.1771
X-0.033 Y-0.178
X-0.0324 Y-0.1789
X-0.0179 Y-0.202
X-0.0173 Y-0.2029
X-0.0168 Y-0.2038
X-0.0163 Y-0.2048
X-0.0031 Y-0.2286
X-0.0026 Y-0.2295
X-0.0021 Y-0.2305
X-0.0016 Y-0.2315
X0.0102 Y-0.256
X0.0106 Y-0.257
X0.0111 Y-0.258
X0.0115 Y-0.259
X0.0218 Y-0.2842
X0.0222 Y-0.2852
X0.0226 Y-0.2862
X0.023 Y-0.2872
X0.0319 Y-0.3129
X0.0322 Y-0.314
X0.0325 Y-0.315
X0.0328 Y-0.316
X0.0402 Y-0.3422
X0.0405 Y-0.3433
X0.0408 Y-0.3443
X0.041 Y-0.3454
X0.0468 Y-0.372
X0.0471 Y-0.373
X0.0473 Y-0.3741
X0.0475 Y-0.3752
X0.0518 Y-0.402
X0.0519 Y-0.4031
X0.0521 Y-0.4042
X0.0522 Y-0.4053
X0.055 Y-0.4323
X0.0551 Y-0.4334
Y-0.4345
X0.0552 Y-0.4356
X0.0564 Y-0.4628
Y-0.4639
Y-0.465
Y-0.466
X0.0561 Y-0.4932
Y-0.4941
X0.056 Y-0.495
G0 Z3.5568
M5
M9
G53 G0 Z0.
M30
%
