%
(CS YOKE OP3)
(T13 D=0.375 CR=0. TAPER=45DEG - ZMIN=-0.0601 - CHAMFER MILL)
(T32 D=0.1875 CR=0. - ZMIN=-0.3544 - FLAT END MILL)
(T33 D=0.25 CR=0. - ZMIN=-0.5119 - FLAT END MILL)
(T54 D=0.3125 CR=0. TAPER=118DEG - ZMIN=-0.5119 - DRILL)
(T101 D=0.1 CR=0. TAPER=135DEG - ZMIN=-0.4145 - DRILL)
G90 G94 G17 G91.1
G20
G53 G0 Z0.
(DRILL12)
T54 M6
T101
S5000 M3
G17 G90 G94
G54
M8
G0 X2.0143 Y-0.2756
G43 Z0.6433 H54
G0 Z0.2433
G98 G81 X2.0143 Y-0.2756 Z-0.5119 R0.1999 F40.
G80
G0 X2.093 Y-0.5906 Z0.2433
G81 X2.093 Y-0.5906 Z-0.5119 R0.1999 F40.
G80
G0 X2.6312 Y-0.6755 Z0.2433
G81 X2.6312 Y-0.6755 Z-0.5119 R0.1999 F40.
G80
G0 X2.9304 Y-0.2756 Z0.2433
G81 X2.9304 Y-0.2756 Z-0.5119 R0.1999 F40.
G80
G0 Z0.6433
(DRILL13)
G0 X0.4725 Y-0.4724
Z0.6433
Z0.2433
G81 X0.4725 Y-0.4724 Z-0.3301 R0.2 F10.
G80
G0 Z0.6433
(DRILL13 2)
G0 X3.3146 Y-0.945
Z0.6433
Z0.2433
G81 X3.3146 Y-0.945 Z-0.0251 R0.1999 F40.
G80
G0 X3.5198 Y-0.6708 Z0.2433
G81 X3.5198 Y-0.6708 Z-0.0251 R0.1999 F40.
G80
G0 X3.8575 Y-0.6137 Z0.2433
G81 X3.8575 Y-0.6137 Z-0.0251 R0.1999 F40.
G80
G0 X3.4792 Y-0.3307 Z0.2433
G81 X3.4792 Y-0.3307 Z-0.0251 R0.1999 F40.
G80
G0 Z0.6433
M5
G53 G0 Z0.
(DRILL11)
M9
M1
T101 M6
T32
S5000 M3
G17 G90 G94
G54
M8
G0 X3.8575 Y-0.6137
G43 Z0.6433 H101
G0 Z0.2433
G81 X3.8575 Y-0.6137 Z-0.4145 R0.1999 F15.
G80
G0 X3.4792 Y-0.3307 Z0.2433
G81 X3.4792 Y-0.3307 Z-0.4145 R0.1999 F15.
G80
G0 X3.3146 Y-0.945 Z0.2433
G81 X3.3146 Y-0.945 Z-0.4145 R0.1999 F15.
G80
G0 Z0.6433
(DRILL14)
G0 X3.5198 Y-0.6708
Z0.6433
Z0.2433
G81 X3.5198 Y-0.6708 Z-0.3751 R0.1999 F15.
G80
G0 Z0.6433
M5
G53 G0 Z0.
(2D CONTOUR7 2)
M9
M1
T32 M6
T33
S7500 M3
G17 G90 G94
G54
G64 P0.0004 Q0.0004
M8
G0 X3.521 Y-0.6708
G43 Z0.6433 H32
G0 Z0.2433
G1 Z-0.0561 F10.
G3 X3.5186 I-0.0012 J0. F1.
X3.521 I0.0012 J0.
G1 Z-0.1556 F10.
G3 X3.5186 I-0.0012 J0. F1.
X3.521 I0.0012 J0.
G1 Z-0.255 F10.
G3 X3.5186 I-0.0012 J0. F1.
X3.521 I0.0012 J0.
G1 Z-0.3544 F10.
X3.5207 Y-0.67 F1.
X3.52 Y-0.6696
X3.5192 Y-0.6697
X3.5187 Y-0.6703
Y-0.6712
X3.5192 Y-0.6718
X3.52 Y-0.6719
X3.5207 Y-0.6715
X3.521 Y-0.6708
X3.5207 Y-0.67
X3.52 Y-0.6696
X3.5192 Y-0.6697
X3.5187 Y-0.6703
Y-0.6712
X3.5192 Y-0.6718
X3.52 Y-0.6719
X3.5207 Y-0.6715
X3.521 Y-0.6708
G0 Z0.6433
M5
G53 G0 Z0.
(2D POCKET1)
M9
M1
T33 M6
T13
S7500 M3
G17 G90 G94
G54
G64 P0.004 Q0.004
M8
G0 X2.5667 Y-0.4479
G43 Z0.6433 H33
G0 Z0.2433
G1 Z0.1682 F80.
X2.5657 Y-0.4474 Z0.1609 F40.
X2.5627 Y-0.4462 Z0.1542
X2.5581 Y-0.4444 Z0.1488
X2.552 Y-0.4424 Z0.145
X2.5451 Y-0.4405 Z0.1433
G3 X2.4903 Y-0.6716 Z0.1107 I-0.0274 J-0.1155
X2.5451 Y-0.4405 Z0.078 I0.0274 J0.1155
X2.4903 Y-0.6716 Z0.0454 I-0.0274 J-0.1155
X2.5451 Y-0.4405 Z0.0128 I0.0274 J0.1155
X2.4903 Y-0.6716 Z-0.0199 I-0.0274 J-0.1155
X2.5451 Y-0.4405 Z-0.0525 I0.0274 J0.1155
X2.4903 Y-0.6716 Z-0.0852 I-0.0274 J-0.1155
X2.5451 Y-0.4405 Z-0.1178 I0.0274 J0.1155
X2.4903 Y-0.6716 Z-0.1504 I-0.0274 J-0.1155
X2.5451 Y-0.4405 Z-0.1831 I0.0274 J0.1155
X2.4903 Y-0.6716 Z-0.2157 I-0.0274 J-0.1155
X2.5451 Y-0.4405 Z-0.2484 I0.0274 J0.1155
X2.4903 Y-0.6716 Z-0.281 I-0.0274 J-0.1155
X2.5451 Y-0.4405 Z-0.3136 I0.0274 J0.1155
X2.4903 Y-0.6716 Z-0.3463 I-0.0274 J-0.1155
X2.5451 Y-0.4405 Z-0.3789 I0.0274 J0.1155
X2.4903 Y-0.6716 Z-0.4116 I-0.0274 J-0.1155
X2.5451 Y-0.4405 Z-0.4442 I0.0274 J0.1155
X2.4903 Y-0.6716 Z-0.4768 I-0.0274 J-0.1155
X2.6356 Y-0.5699 Z-0.4944 I0.0274 J0.1155
X2.5177 Y-0.4373 Z-0.5119 I-0.1179 J0.0138
G1 X2.1887 F50.
G3 X2.176 Y-0.4501 I0. J-0.0128
G1 Y-0.4948
G3 X2.1887 Y-0.5076 I0.0128 J0.
X2.3624 Y-0.5062 I0. J10.6576
G2 X2.5361 Y-0.5089 I0.0441 J-2.7046
G3 X2.5635 Y-0.496 I0.0015 J0.0323
G1 X2.5994 Y-0.448
G3 X2.5941 Y-0.4373 I-0.0053 J0.004
G1 X2.5177
G2 X2.4832 Y-0.4143 I0. J0.0374
G3 X2.4487 Y-0.3913 I-0.0345 J-0.0144
G1 X2.1427
G3 X2.13 Y-0.4041 I0. J-0.0128
G1 Y-0.5408
G3 X2.1427 Y-0.5536 I0.0128 J0.
X2.3217 Y-0.5527 I0. J17.7969
G2 X2.5007 Y-0.5518 I0.179 J-17.796
X2.5295 Y-0.5536 I0. J-0.2344
G3 X2.5583 Y-0.556 I0.0471 J0.3805
X2.5857 Y-0.5431 I0.0015 J0.0323
G1 X2.6913 Y-0.402
G3 X2.6859 Y-0.3913 I-0.0053 J0.004
G1 X2.4487
G2 X2.4142 Y-0.3683 I0. J0.0374
G3 X2.3797 Y-0.3453 I-0.0345 J-0.0144
G1 X2.0967
G3 X2.084 Y-0.3581 I0. J-0.0128
G1 X2.0838 Y-0.3717
X2.0841 Y-0.3853
G2 X2.0844 Y-0.4329 I-0.4019 J-0.0259
G3 X2.0846 Y-0.4806 I0.4022 J-0.0217
G2 X2.0849 Y-0.5282 I-0.4019 J-0.0259
G3 X2.0851 Y-0.5758 I0.4022 J-0.0217
G1 X2.0855 Y-0.584
X2.0859 Y-0.5882
X2.0867 Y-0.5922
X2.0873 Y-0.5938
X2.0883 Y-0.5952
X2.0896 Y-0.5963
X2.0911 Y-0.597
X2.0941 Y-0.5978
X2.0971 Y-0.5983
X2.1035 Y-0.5993
X2.1069 Y-0.5996
X2.5007 Y-0.5978
G2 X2.5406 Y-0.6 I0. J-0.3627
G3 X2.5805 Y-0.6031 I0.0706 J0.6372
X2.6079 Y-0.5902 I0.0015 J0.0323
G1 X2.7832 Y-0.356
G3 X2.7778 Y-0.3453 I-0.0053 J0.004
G1 X2.3797
G2 X2.3452 Y-0.3223 I0. J0.0374
G3 X2.3107 Y-0.2993 I-0.0345 J-0.0144
G1 X2.0507
G3 X2.038 Y-0.3121 I0. J-0.0128
G1 X2.0378 Y-0.3288
X2.0382 Y-0.3454
G2 X2.0386 Y-0.4037 I-0.5047 J-0.0326
G3 X2.039 Y-0.4621 I0.5051 J-0.0258
G2 X2.0394 Y-0.5204 I-0.5047 J-0.0326
G3 X2.0398 Y-0.5787 I0.5051 J-0.0258
X2.0459 Y-0.6104 I0.1269 J0.0082
X2.066 Y-0.6355 I0.0439 J0.0145
X2.0814 Y-0.6418 I0.0278 J0.0465
G1 X2.0976 Y-0.6449
X2.1017 Y-0.6454
X2.1058 Y-0.6456
X2.5007 Y-0.6438
G2 X2.5513 Y-0.6464 I0. J-0.4908
G3 X2.6018 Y-0.6502 I0.0944 J0.9105
X2.6307 Y-0.6366 I0.0016 J0.034
G1 X2.875 Y-0.31
G3 X2.8697 Y-0.2993 I-0.0053 J0.004
G1 X2.3107
G2 X2.276 Y-0.2762 I0. J0.0375
G3 X2.2414 Y-0.2531 I-0.0347 J-0.0144
G1 X2.0249
X2.0078 Y-0.2558
X2.002 Y-0.2588
X1.9974 Y-0.2635
X1.9943 Y-0.2696
X1.9918 Y-0.286
Y-0.5818
X1.9962 Y-0.6161
X2.0059 Y-0.6399
X2.0214 Y-0.6605
X2.0416 Y-0.6764
X2.0652 Y-0.6867
X2.0981 Y-0.6918
X2.5007
X2.5072 Y-0.6919
X2.6151 Y-0.6971
X2.6357 Y-0.6958
X2.6418 Y-0.6934
X2.6526 Y-0.6844
X2.942 Y-0.2976
X2.9501 Y-0.2823
G3 X2.9369 Y-0.2559 I-0.0197 J0.0067
G1 X2.9199 Y-0.2531
X2.2414
X2.2375 Y-0.2535 Z-0.5113
X2.2338 Y-0.2545 Z-0.5107
X2.2306 Y-0.2559 Z-0.5089
X2.2277 Y-0.2578 Z-0.5071
X2.2255 Y-0.2595 Z-0.5043
X2.2236 Y-0.2615 Z-0.5016
X2.2215 Y-0.2643 Z-0.4946
X2.2208 Y-0.2654 Z-0.4869
G0 Z0.6433
(2D CONTOUR16)
G64 P0.0004 Q0.0004
G0 X2.5321 Y-0.3181
Z0.6433
Z0.2433
G1 Z0.0827 F80.
Z-0.4869
G19 G3 Y-0.2931 Z-0.5119 J0.025 K0. F50.
G1 Y-0.2681
G17 G3 X2.5071 Y-0.2431 I-0.025 J0.
G1 X2.0174
X2.011 Y-0.2434
X2.0078 Y-0.2439
X2.0047 Y-0.2447
X2.0017 Y-0.2458
X1.9988 Y-0.2472
X1.996 Y-0.2489
X1.9935 Y-0.2508
X1.9911 Y-0.253
X1.989 Y-0.2555
X1.9871 Y-0.2581
X1.9855 Y-0.2609
X1.9841 Y-0.2638
X1.9831 Y-0.2669
X1.9824 Y-0.27
X1.9819 Y-0.274
X1.9818 Y-0.2779
Y-0.588
X1.9822 Y-0.5996
X1.9833 Y-0.6086
X1.9852 Y-0.6174
X1.9877 Y-0.6261
X1.991 Y-0.6346
X1.9949 Y-0.6427
X1.9995 Y-0.6505
X2.0047 Y-0.658
X2.0104 Y-0.6649
X2.0168 Y-0.6714
X2.0236 Y-0.6773
X2.0309 Y-0.6827
X2.0386 Y-0.6874
X2.0467 Y-0.6916
X2.055 Y-0.695
X2.0637 Y-0.6977
X2.0725 Y-0.6998
X2.0814 Y-0.7011
X2.0923 Y-0.7018
X2.0937
X2.5007
X2.5029
X2.5464 Y-0.7026
X2.5509 Y-0.7027
X2.5944 Y-0.7051
X2.5981 Y-0.7053
X2.6242 Y-0.7075
X2.6313 Y-0.7079
X2.6345 Y-0.7077
X2.6377 Y-0.7072
X2.6408 Y-0.7064
X2.6439 Y-0.7053
X2.6468 Y-0.7039
X2.6495 Y-0.7022
X2.6521 Y-0.7002
X2.6544 Y-0.698
X2.658 Y-0.6939
X2.9545 Y-0.2975
X2.9581 Y-0.2923
X2.9596 Y-0.2894
X2.9608 Y-0.2865
X2.9618 Y-0.2834
X2.9624 Y-0.2802
X2.9627 Y-0.277
Y-0.2738
X2.9623 Y-0.2706
X2.9617 Y-0.2674
X2.9607 Y-0.2643
X2.9594 Y-0.2614
X2.9578 Y-0.2585
X2.956 Y-0.2559
X2.9539 Y-0.2534
X2.9516 Y-0.2512
X2.9491 Y-0.2492
X2.9463 Y-0.2475
X2.9435 Y-0.246
X2.9405 Y-0.2449
X2.9373 Y-0.244
X2.9342 Y-0.2435
X2.9286 Y-0.2431
X2.0174
X2.011 Y-0.2434
X2.0078 Y-0.2439
X2.0047 Y-0.2447
X2.0017 Y-0.2458
X1.9988 Y-0.2472
X1.996 Y-0.2489
X1.9935 Y-0.2508
X1.9911 Y-0.253
X1.989 Y-0.2555
X1.9871 Y-0.2581
X1.9855 Y-0.2609
X1.9841 Y-0.2638
X1.9831 Y-0.2669
X1.9824 Y-0.27
X1.9819 Y-0.274
X1.9818 Y-0.2779
Y-0.588
X1.9822 Y-0.5996
X1.9833 Y-0.6086
X1.9852 Y-0.6174
X1.9877 Y-0.6261
X1.991 Y-0.6346
X1.9949 Y-0.6427
X1.9995 Y-0.6505
X2.0047 Y-0.658
X2.0104 Y-0.6649
X2.0168 Y-0.6714
X2.0236 Y-0.6773
X2.0309 Y-0.6827
X2.0386 Y-0.6874
X2.0467 Y-0.6916
X2.055 Y-0.695
X2.0637 Y-0.6977
X2.0725 Y-0.6998
X2.0814 Y-0.7011
X2.0923 Y-0.7018
X2.0937
X2.5007
X2.5029
X2.5464 Y-0.7026
X2.5509 Y-0.7027
X2.5944 Y-0.7051
X2.5981 Y-0.7053
X2.6242 Y-0.7075
X2.6313 Y-0.7079
X2.6345 Y-0.7077
X2.6377 Y-0.7072
X2.6408 Y-0.7064
X2.6439 Y-0.7053
X2.6468 Y-0.7039
X2.6495 Y-0.7022
X2.6521 Y-0.7002
X2.6544 Y-0.698
X2.658 Y-0.6939
X2.9545 Y-0.2975
X2.9581 Y-0.2923
X2.9596 Y-0.2894
X2.9608 Y-0.2865
X2.9618 Y-0.2834
X2.9624 Y-0.2802
X2.9627 Y-0.277
Y-0.2738
X2.9623 Y-0.2706
X2.9617 Y-0.2674
X2.9607 Y-0.2643
X2.9594 Y-0.2614
X2.9578 Y-0.2585
X2.956 Y-0.2559
X2.9539 Y-0.2534
X2.9516 Y-0.2512
X2.9491 Y-0.2492
X2.9463 Y-0.2475
X2.9435 Y-0.246
X2.9405 Y-0.2449
X2.9373 Y-0.244
X2.9342 Y-0.2435
X2.9286 Y-0.2431
X2.5071
G3 X2.4821 Y-0.2681 I0. J-0.025
G1 Y-0.2931
G19 G2 Y-0.3181 Z-0.4869 J0. K0.025
G0 Z0.6433
G17
(2D POCKET2)
G64 P0.004 Q0.004
G0 X0.4828 Y-0.4974
Z0.6433
Z0.2433
G1 Z-0.2412 F80.
G19 G3 Y-0.4724 Z-0.2662 J0.025 K0.
G17 G3 X0.4622 I-0.0103 J0. F20.
X0.5328 I0.0353 J0.
X0.4122 I-0.0603 J0.
X0.5828 I0.0853 J0.
X0.3622 I-0.1103 J0.
X0.5828 I0.1103 J0.
G2 X0.6034 Y-0.4397 I0.0364 J0.
G3 X0.615 Y-0.4028 I-0.0115 J0.0239
G1 X0.6016 Y-0.3789
X0.5737 Y-0.3485
X0.5383 Y-0.3273
X0.5033 Y-0.3161
X0.4668 Y-0.3132
X0.4305 Y-0.3187
X0.3965 Y-0.3324
X0.3665 Y-0.3534
X0.3421 Y-0.3808
X0.3246 Y-0.413
X0.315 Y-0.4484
X0.3136 Y-0.4851
X0.3207 Y-0.521
X0.3358 Y-0.5544
X0.3582 Y-0.5835
X0.3866 Y-0.6067
X0.4196 Y-0.6228
X0.4553 Y-0.6309
X0.492 Y-0.6306
X0.5276 Y-0.622
X0.5603 Y-0.6054
X0.5884 Y-0.5818
X0.6103 Y-0.5525
X0.625 Y-0.5188
X0.6315 Y-0.4828
X0.6297 Y-0.4461
X0.6195 Y-0.4109
X0.615 Y-0.4028
X0.6127 Y-0.3997 Z-0.2656
X0.61 Y-0.3969 Z-0.265
X0.6073 Y-0.3948 Z-0.2632
X0.6042 Y-0.3931 Z-0.2615
X0.6016 Y-0.3921 Z-0.2587
X0.599 Y-0.3914 Z-0.2559
X0.5954 Y-0.3909 Z-0.249
X0.5942 Z-0.2412
G0 Z0.6433
(2D CONTOUR17)
G64 P0.0004 Q0.0004
G0 X0.5713 Y-0.4701
Z0.6433
Z0.2433
G1 Z0.0827 F80.
Z-0.2412
X0.5716 Y-0.47 Z-0.2451 F4.
X0.5725 Y-0.4697 Z-0.249
X0.5739 Y-0.4693 Z-0.2526
X0.5759 Y-0.4687 Z-0.2559
X0.5783 Y-0.468 Z-0.2589
X0.5812 Y-0.4672 Z-0.2615
X0.5844 Y-0.4663 Z-0.2635
X0.5879 Y-0.4653 Z-0.265
X0.5915 Y-0.4642 Z-0.2659
X0.5953 Y-0.4631 Z-0.2662
X0.6193 Y-0.4562
G3 X0.6364 Y-0.4253 I-0.0069 J0.024
G1 X0.6347 Y-0.4193
X0.6304 Y-0.4077
X0.6253 Y-0.3963
X0.6193 Y-0.3854
X0.6126 Y-0.375
X0.6051 Y-0.365
X0.597 Y-0.3556
X0.5881 Y-0.3469
X0.5777 Y-0.3379
X0.5665 Y-0.3299
X0.5558 Y-0.3235
X0.5448 Y-0.3178
X0.5333 Y-0.3129
X0.5216 Y-0.3089
X0.5095 Y-0.3058
X0.4973 Y-0.3036
X0.4849 Y-0.3022
X0.4725 Y-0.3017
X0.4601 Y-0.3022
X0.4477 Y-0.3036
X0.4355 Y-0.3058
X0.4234 Y-0.309
X0.4117 Y-0.313
X0.4002 Y-0.3178
X0.3891 Y-0.3235
X0.3785 Y-0.33
X0.3684 Y-0.3372
X0.3588 Y-0.3451
X0.3499 Y-0.3537
X0.3415 Y-0.363
X0.3339 Y-0.3728
X0.327 Y-0.3832
X0.3209 Y-0.394
X0.3156 Y-0.4052
X0.3111 Y-0.4168
X0.3075 Y-0.4287
X0.3048 Y-0.4409
X0.3029 Y-0.4532
X0.302 Y-0.4656
X0.3019 Y-0.478
X0.3028 Y-0.4904
X0.3045 Y-0.5027
X0.3072 Y-0.5149
X0.3107 Y-0.5268
X0.3151 Y-0.5384
X0.3203 Y-0.5497
X0.3264 Y-0.5606
X0.3332 Y-0.571
X0.3407 Y-0.5809
X0.349 Y-0.5902
X0.3579 Y-0.5989
X0.3674 Y-0.6069
X0.3775 Y-0.6142
X0.388 Y-0.6208
X0.399 Y-0.6265
X0.4105 Y-0.6315
X0.4222 Y-0.6356
X0.4342 Y-0.6388
X0.4464 Y-0.6411
X0.4588 Y-0.6426
X0.4712 Y-0.6431
X0.4836 Y-0.6428
X0.496 Y-0.6415
X0.5083 Y-0.6393
X0.5203 Y-0.6363
X0.5321 Y-0.6324
X0.5436 Y-0.6276
X0.5547 Y-0.622
X0.5654 Y-0.6157
X0.5756 Y-0.6085
X0.5852 Y-0.6006
X0.5942 Y-0.5921
X0.6026 Y-0.5829
X0.6103 Y-0.5732
X0.6173 Y-0.5628
X0.6235 Y-0.5521
X0.6289 Y-0.5409
X0.6335 Y-0.5293
X0.6372 Y-0.5174
X0.64 Y-0.5053
X0.642 Y-0.493
X0.643 Y-0.4806
X0.6431 Y-0.4682
X0.6424 Y-0.4558
X0.6407 Y-0.4435
X0.6382 Y-0.4313
X0.6347 Y-0.4193
X0.6304 Y-0.4077
X0.6253 Y-0.3963
X0.6193 Y-0.3854
X0.6126 Y-0.375
X0.6051 Y-0.365
X0.597 Y-0.3556
X0.5881 Y-0.3469
X0.5777 Y-0.3379
X0.5665 Y-0.3299
X0.5558 Y-0.3235
X0.5448 Y-0.3178
X0.5333 Y-0.3129
X0.5216 Y-0.3089
X0.5095 Y-0.3058
X0.4973 Y-0.3036
X0.4849 Y-0.3022
X0.4725 Y-0.3017
X0.4601 Y-0.3022
X0.4477 Y-0.3036
X0.4355 Y-0.3058
X0.4234 Y-0.309
X0.4117 Y-0.313
X0.4002 Y-0.3178
X0.3891 Y-0.3235
X0.3785 Y-0.33
X0.3684 Y-0.3372
X0.3588 Y-0.3451
X0.3499 Y-0.3537
X0.3415 Y-0.363
X0.3339 Y-0.3728
X0.327 Y-0.3832
X0.3209 Y-0.394
X0.3156 Y-0.4052
X0.3111 Y-0.4168
X0.3075 Y-0.4287
X0.3048 Y-0.4409
X0.3029 Y-0.4532
X0.302 Y-0.4656
X0.3019 Y-0.478
X0.3028 Y-0.4904
X0.3045 Y-0.5027
X0.3072 Y-0.5149
X0.3107 Y-0.5268
X0.3151 Y-0.5384
X0.3203 Y-0.5497
X0.3264 Y-0.5606
X0.3332 Y-0.571
X0.3407 Y-0.5809
X0.349 Y-0.5902
X0.3579 Y-0.5989
X0.3674 Y-0.6069
X0.3775 Y-0.6142
X0.388 Y-0.6208
X0.399 Y-0.6265
X0.4105 Y-0.6315
X0.4222 Y-0.6356
X0.4342 Y-0.6388
X0.4464 Y-0.6411
X0.4588 Y-0.6426
X0.4712 Y-0.6431
X0.4836 Y-0.6428
X0.496 Y-0.6415
X0.5083 Y-0.6393
X0.5203 Y-0.6363
X0.5321 Y-0.6324
X0.5436 Y-0.6276
X0.5547 Y-0.622
X0.5654 Y-0.6157
X0.5756 Y-0.6085
X0.5852 Y-0.6006
X0.5942 Y-0.5921
X0.6026 Y-0.5829
X0.6103 Y-0.5732
X0.6173 Y-0.5628
X0.6235 Y-0.5521
X0.6289 Y-0.5409
X0.6335 Y-0.5293
X0.6372 Y-0.5174
X0.64 Y-0.5053
X0.642 Y-0.493
X0.643 Y-0.4806
X0.6431 Y-0.4682
X0.6424 Y-0.4558
X0.6407 Y-0.4435
X0.6382 Y-0.4313
X0.6364 Y-0.4253
G3 X0.6055 Y-0.4082 I-0.024 J-0.0069
G1 X0.5815 Y-0.4151
X0.5777 Y-0.4162 Z-0.2659
X0.5741 Y-0.4172 Z-0.265
X0.5706 Y-0.4182 Z-0.2635
X0.5674 Y-0.4192 Z-0.2615
X0.5645 Y-0.42 Z-0.2589
X0.562 Y-0.4207 Z-0.2559
X0.5601 Y-0.4212 Z-0.2526
X0.5586 Y-0.4217 Z-0.249
X0.5578 Y-0.4219 Z-0.2451
X0.5575 Y-0.422 Z-0.2412
G0 Z0.6433
(2D CONTOUR17 2)
G0 X0.7116 Y-1.3269
Z0.6433
Z0.2433
G1 Z-0.2662 F80.
G3 X0.4689 Y-1.0698 I-0.2499 J0.0072 F4.
G1 X0.4417 Y-1.069 F20.
X0.4345 Y-1.0686
X0.4074 Y-1.0663
X0.4003 Y-1.0655
X0.3733 Y-1.0615
X0.3662 Y-1.0603
X0.3395 Y-1.0549
X0.3325 Y-1.0532
X0.3062 Y-1.0462
X0.2993 Y-1.0442
X0.2735 Y-1.0357
X0.2667 Y-1.0333
X0.2414 Y-1.0233
X0.2347 Y-1.0205
X0.21 Y-1.0091
X0.2036 Y-1.0059
X0.1796 Y-0.9931
X0.1733 Y-0.9895
X0.1501 Y-0.9754
X0.144 Y-0.9714
X0.1216 Y-0.9559
X0.1158 Y-0.9517
X0.0944 Y-0.9349
X0.0888 Y-0.9304
X0.0684 Y-0.9124
X0.0631 Y-0.9075
X0.0437 Y-0.8884
X0.0387 Y-0.8832
X0.0205 Y-0.863
X0.0158 Y-0.8575
X-0.0013 Y-0.8363
X-0.0056 Y-0.8306
X-0.0214 Y-0.8085
X-0.0254 Y-0.8025
X-0.04 Y-0.7795
X-0.0436 Y-0.7733
X-0.0568 Y-0.7494
X-0.0601 Y-0.743
X-0.0719 Y-0.7185
X-0.0748 Y-0.7119
X-0.0851 Y-0.6868
X-0.0877 Y-0.68
X-0.0965 Y-0.6543
X-0.0987 Y-0.6474
X-0.1061 Y-0.6212
X-0.1078 Y-0.6142
X-0.1137 Y-0.5876
X-0.115 Y-0.5806
X-0.1193 Y-0.5537
X-0.1203 Y-0.5466
X-0.123 Y-0.5195
X-0.1236 Y-0.5123
X-0.1248 Y-0.4851
X-0.1249 Y-0.4779
X-0.1245 Y-0.4507
X-0.1242 Y-0.4435
X-0.1223 Y-0.4164
X-0.1215 Y-0.4092
X-0.118 Y-0.3822
X-0.1169 Y-0.3751
X-0.1119 Y-0.3483
X-0.1103 Y-0.3413
X-0.1037 Y-0.3149
X-0.1018 Y-0.308
X-0.0937 Y-0.282
X-0.0914 Y-0.2752
X-0.0818 Y-0.2497
X-0.0791 Y-0.243
X-0.0681 Y-0.2181
X-0.065 Y-0.2116
X-0.0525 Y-0.1874
X-0.049 Y-0.1811
X-0.0352 Y-0.1577
X-0.0314 Y-0.1516
X-0.0163 Y-0.129
X-0.0121 Y-0.1231
X0.0043 Y-0.1014
X0.0088 Y-0.0958
X0.0265 Y-0.075
X0.0313 Y-0.0697
X0.0501 Y-0.05
X0.0552 Y-0.045
X0.0751 Y-0.0264
X0.0805 Y-0.0216
X0.1015 Y-0.0042
X0.1071 Y0.0002
X0.129 Y0.0163
X0.1349 Y0.0204
X0.1577 Y0.0353
X0.1639 Y0.0391
X0.1875 Y0.0526
X0.1939 Y0.056
X0.2182 Y0.0681
X0.2247 Y0.0712
X0.2498 Y0.0819
X0.2565 Y0.0845
X0.2821 Y0.0938
X0.2889 Y0.096
X0.315 Y0.1038
X0.3219 Y0.1057
X0.3484 Y0.1119
X0.3555 Y0.1134
X0.3823 Y0.1181
X0.3894 Y0.1191
X0.4164 Y0.1223
X0.4236 Y0.123
G2 X0.4706 Y0.125 I0.0491 J-0.5894
G3 X0.7168 Y0.3788 I-0.0038 J0.25
G0 Z0.2433
X0.7116 Y-1.3269
G1 Z-0.2662 F80.
G3 X0.4689 Y-1.0698 I-0.2499 J0.0072 F4.
G1 X0.4417 Y-1.069 F20.
X0.4345 Y-1.0686
X0.4074 Y-1.0663
X0.4003 Y-1.0655
X0.3733 Y-1.0615
X0.3662 Y-1.0603
X0.3395 Y-1.0549
X0.3325 Y-1.0532
X0.3062 Y-1.0462
X0.2993 Y-1.0442
X0.2735 Y-1.0357
X0.2667 Y-1.0333
X0.2414 Y-1.0233
X0.2347 Y-1.0205
X0.21 Y-1.0091
X0.2036 Y-1.0059
X0.1796 Y-0.9931
X0.1733 Y-0.9895
X0.1501 Y-0.9754
X0.144 Y-0.9714
X0.1216 Y-0.9559
X0.1158 Y-0.9517
X0.0944 Y-0.9349
X0.0888 Y-0.9304
X0.0684 Y-0.9124
X0.0631 Y-0.9075
X0.0437 Y-0.8884
X0.0387 Y-0.8832
X0.0205 Y-0.863
X0.0158 Y-0.8575
X-0.0013 Y-0.8363
X-0.0056 Y-0.8306
X-0.0214 Y-0.8085
X-0.0254 Y-0.8025
X-0.04 Y-0.7795
X-0.0436 Y-0.7733
X-0.0568 Y-0.7494
X-0.0601 Y-0.743
X-0.0719 Y-0.7185
X-0.0748 Y-0.7119
X-0.0851 Y-0.6868
X-0.0877 Y-0.68
X-0.0965 Y-0.6543
X-0.0987 Y-0.6474
X-0.1061 Y-0.6212
X-0.1078 Y-0.6142
X-0.1137 Y-0.5876
X-0.115 Y-0.5806
X-0.1193 Y-0.5537
X-0.1203 Y-0.5466
X-0.123 Y-0.5195
X-0.1236 Y-0.5123
X-0.1248 Y-0.4851
X-0.1249 Y-0.4779
X-0.1245 Y-0.4507
X-0.1242 Y-0.4435
X-0.1223 Y-0.4164
X-0.1215 Y-0.4092
X-0.118 Y-0.3822
X-0.1169 Y-0.3751
X-0.1119 Y-0.3483
X-0.1103 Y-0.3413
X-0.1037 Y-0.3149
X-0.1018 Y-0.308
X-0.0937 Y-0.282
X-0.0914 Y-0.2752
X-0.0818 Y-0.2497
X-0.0791 Y-0.243
X-0.0681 Y-0.2181
X-0.065 Y-0.2116
X-0.0525 Y-0.1874
X-0.049 Y-0.1811
X-0.0352 Y-0.1577
X-0.0314 Y-0.1516
X-0.0163 Y-0.129
X-0.0121 Y-0.1231
X0.0043 Y-0.1014
X0.0088 Y-0.0958
X0.0265 Y-0.075
X0.0313 Y-0.0697
X0.0501 Y-0.05
X0.0552 Y-0.045
X0.0751 Y-0.0264
X0.0805 Y-0.0216
X0.1015 Y-0.0042
X0.1071 Y0.0002
X0.129 Y0.0163
X0.1349 Y0.0204
X0.1577 Y0.0353
X0.1639 Y0.0391
X0.1875 Y0.0526
X0.1939 Y0.056
X0.2182 Y0.0681
X0.2247 Y0.0712
X0.2498 Y0.0819
X0.2565 Y0.0845
X0.2821 Y0.0938
X0.2889 Y0.096
X0.315 Y0.1038
X0.3219 Y0.1057
X0.3484 Y0.1119
X0.3555 Y0.1134
X0.3823 Y0.1181
X0.3894 Y0.1191
X0.4164 Y0.1223
X0.4236 Y0.123
G2 X0.4706 Y0.125 I0.0491 J-0.5894
G3 X0.7168 Y0.3788 I-0.0038 J0.25
G0 Z0.6433
(2D CONTOUR18)
G0 X3.2111 Y0.4147
Z0.6433
Z0.2433
G1 Z0.0827 F80.
Z-0.3172
X3.2109 Y0.4145 Z-0.3212 F50.
X3.2103 Y0.4138 Z-0.325
X3.2094 Y0.4126 Z-0.3286
X3.2082 Y0.4109 Z-0.3319
X3.2067 Y0.4089 Z-0.3349
X3.2049 Y0.4065 Z-0.3375
X3.2029 Y0.4038 Z-0.3395
X3.2007 Y0.4009 Z-0.341
X3.1984 Y0.3978 Z-0.3419
X3.1961 Y0.3947 Z-0.3422
X3.1811 Y0.3747
G3 X3.1862 Y0.3397 I0.02 J-0.015
G1 X4.4881 Y-0.6343
G3 X4.5231 Y-0.6293 I0.015 J0.02
G1 X4.5381 Y-0.6093
X4.5404 Y-0.6061 Z-0.3419
X4.5427 Y-0.6031 Z-0.341
X4.5449 Y-0.6002 Z-0.3395
X4.5469 Y-0.5975 Z-0.3375
X4.5487 Y-0.5951 Z-0.3349
X4.5502 Y-0.5931 Z-0.3319
X4.5514 Y-0.5914 Z-0.3286
X4.5523 Y-0.5902 Z-0.325
X4.5529 Y-0.5895 Z-0.3212
X4.5531 Y-0.5892 Z-0.3172
G0 Z0.2433
X3.2111 Y0.4147
G1 Z0.0827 F80.
Z-0.3172
X3.2109 Y0.4145 Z-0.3212 F50.
X3.2103 Y0.4138 Z-0.325
X3.2094 Y0.4126 Z-0.3286
X3.2082 Y0.4109 Z-0.3319
X3.2067 Y0.4089 Z-0.3349
X3.2049 Y0.4065 Z-0.3375
X3.2029 Y0.4038 Z-0.3395
X3.2007 Y0.4009 Z-0.341
X3.1984 Y0.3978 Z-0.3419
X3.1961 Y0.3947 Z-0.3422
X3.1811 Y0.3747
G3 X3.1862 Y0.3397 I0.02 J-0.015
G1 X4.4881 Y-0.6343
G3 X4.5231 Y-0.6293 I0.015 J0.02
G1 X4.5381 Y-0.6093
X4.5404 Y-0.6061 Z-0.3419
X4.5427 Y-0.6031 Z-0.341
X4.5449 Y-0.6002 Z-0.3395
X4.5469 Y-0.5975 Z-0.3375
X4.5487 Y-0.5951 Z-0.3349
X4.5502 Y-0.5931 Z-0.3319
X4.5514 Y-0.5914 Z-0.3286
X4.5523 Y-0.5902 Z-0.325
X4.5529 Y-0.5895 Z-0.3212
X4.5531 Y-0.5892 Z-0.3172
G0 Z0.6433
M5
G53 G0 Z0.
(2D CHAMFER3 2)
M9
M1
T13 M6
T54
S7500 M3
G17 G90 G94
G54
M8
G0 X0.6732 Y-0.3434
G43 Z0.6433 H13
G0 Z0.2433
G1 Z-0.06 F80.
X0.6685 Y-0.3361 F20.
X0.658 Y-0.3222
X0.6466 Y-0.3091
X0.6342 Y-0.2968
X0.6204 Y-0.285
X0.6188 Y-0.2837
X0.6039 Y-0.2731
X0.5891 Y-0.2641
X0.5736 Y-0.2562
X0.5576 Y-0.2494
X0.5411 Y-0.2438
X0.5243 Y-0.2394
X0.5072 Y-0.2362
X0.4899 Y-0.2343
X0.4725 Y-0.2337
X0.4551 Y-0.2343
X0.4378 Y-0.2362
X0.4207 Y-0.2394
X0.4039 Y-0.2438
X0.3874 Y-0.2494
X0.3714 Y-0.2562
X0.3559 Y-0.2641
X0.3411 Y-0.2732
X0.3269 Y-0.2833
X0.3135 Y-0.2944
X0.301 Y-0.3064
X0.2893 Y-0.3193
X0.2787 Y-0.3331
X0.269 Y-0.3476
X0.2605 Y-0.3627
X0.2531 Y-0.3785
X0.2468 Y-0.3947
X0.2417 Y-0.4113
X0.2379 Y-0.4283
X0.2353 Y-0.4455
X0.234 Y-0.4628
X0.2339 Y-0.4802
X0.2351 Y-0.4976
X0.2376 Y-0.5148
X0.2413 Y-0.5318
X0.2462 Y-0.5485
X0.2524 Y-0.5648
X0.2597 Y-0.5805
X0.2681 Y-0.5958
X0.2776 Y-0.6103
X0.2882 Y-0.6241
X0.2997 Y-0.6372
X0.3122 Y-0.6493
X0.3255 Y-0.6605
X0.3396 Y-0.6707
X0.3543 Y-0.6799
X0.3698 Y-0.6879
X0.3857 Y-0.6948
X0.4021 Y-0.7006
X0.419 Y-0.7051
X0.436 Y-0.7084
X0.4533 Y-0.7104
X0.4707 Y-0.7112
X0.4881 Y-0.7107
X0.5054 Y-0.7089
X0.5225 Y-0.7059
X0.5394 Y-0.7016
X0.5559 Y-0.6961
X0.572 Y-0.6895
X0.5875 Y-0.6817
X0.6024 Y-0.6727
X0.6167 Y-0.6627
X0.6301 Y-0.6517
X0.6428 Y-0.6398
X0.6545 Y-0.627
X0.6653 Y-0.6133
X0.675 Y-0.5989
X0.6837 Y-0.5838
X0.6912 Y-0.5681
X0.6976 Y-0.5519
X0.7028 Y-0.5353
X0.7068 Y-0.5184
X0.7095 Y-0.5012
X0.711 Y-0.4839
X0.7112 Y-0.4665
X0.7101 Y-0.4491
X0.7078 Y-0.4319
X0.7042 Y-0.4149
X0.6994 Y-0.3982
X0.6934 Y-0.3818
X0.6862 Y-0.366
X0.6779 Y-0.3507
X0.6732 Y-0.3434
G0 Z0.6433
X2.5071 Y-0.1746
Z0.2433
G1 Z-0.0601 F80.
X2.0157 F20.
X2.0042 Y-0.1752
X1.9942 Y-0.1767
X1.9845 Y-0.1792
X1.975 Y-0.1826
X1.966 Y-0.187
X1.9574 Y-0.1922
X1.9494 Y-0.1983
X1.942 Y-0.2052
X1.9353 Y-0.2127
X1.9295 Y-0.2209
X1.9244 Y-0.2296
X1.9203 Y-0.2388
X1.9171 Y-0.2483
X1.9149 Y-0.2582
X1.9136 Y-0.2685
X1.9133 Y-0.2766
Y-0.5894
X1.9139 Y-0.6052
X1.9157 Y-0.6197
X1.9187 Y-0.634
X1.9228 Y-0.6481
X1.928 Y-0.6617
X1.9344 Y-0.6749
X1.9418 Y-0.6876
X1.9502 Y-0.6996
X1.9595 Y-0.7108
X1.9697 Y-0.7213
X1.9808 Y-0.7309
X1.9926 Y-0.7395
X2.005 Y-0.7472
X2.0181 Y-0.7539
X2.0316 Y-0.7594
X2.0456 Y-0.7639
X2.0598 Y-0.7671
X2.0743 Y-0.7693
X2.0898 Y-0.7702
X2.0933 Y-0.7703
X2.5007
X2.5017
X2.5452 Y-0.7711
X2.5462
X2.5472
X2.5907 Y-0.7735
X2.5915
X2.5924 Y-0.7736
X2.6198 Y-0.7759
X2.6316 Y-0.7765
X2.6416 Y-0.7759
X2.6516 Y-0.7744
X2.6613 Y-0.7718
X2.6708 Y-0.7684
X2.6798 Y-0.764
X2.6884 Y-0.7587
X2.6964 Y-0.7526
X2.7037 Y-0.7457
X2.711 Y-0.7373
X2.7123 Y-0.7357
X3.0104 Y-0.3372
X3.0168 Y-0.3277
X3.0216 Y-0.3188
X3.0254 Y-0.3095
X3.0283 Y-0.2999
X3.0303 Y-0.29
X3.0312 Y-0.28
X3.0311 Y-0.2699
X3.0301 Y-0.2599
X3.028 Y-0.25
X3.025 Y-0.2405
X3.021 Y-0.2312
X3.0161 Y-0.2224
X3.0104 Y-0.2141
X3.0039 Y-0.2064
X2.9966 Y-0.1995
X2.9887 Y-0.1932
X2.9802 Y-0.1878
X2.9712 Y-0.1833
X2.9618 Y-0.1797
X2.9521 Y-0.177
X2.9422 Y-0.1754
X2.931 Y-0.1746
X2.9302
X2.5071
G0 Z0.6433
X-0.0556 Y-0.4982
Z0.2433
G1 Z-0.0601 F80.
X-0.0563 Y-0.4821 F20.
X-0.0564 Y-0.481
Y-0.4799
Y-0.4788
X-0.056 Y-0.4516
Y-0.4505
X-0.0559 Y-0.4495
Y-0.4484
X-0.0539 Y-0.4212
X-0.0538 Y-0.4202
X-0.0537 Y-0.4191
X-0.0536 Y-0.418
X-0.0501 Y-0.391
X-0.0499 Y-0.3899
X-0.0498 Y-0.3889
X-0.0496 Y-0.3878
X-0.0445 Y-0.361
X-0.0443 Y-0.36
X-0.0441 Y-0.3589
X-0.0438 Y-0.3579
X-0.0373 Y-0.3315
X-0.037 Y-0.3304
X-0.0367 Y-0.3294
X-0.0364 Y-0.3283
X-0.0283 Y-0.3023
X-0.028 Y-0.3013
X-0.0276 Y-0.3003
X-0.0272 Y-0.2993
X-0.0177 Y-0.2738
X-0.0173 Y-0.2728
X-0.0169 Y-0.2718
X-0.0164 Y-0.2708
X-0.0054 Y-0.2459
X-0.005 Y-0.2449
X-0.0045 Y-0.2439
X-0.004 Y-0.2429
X0.0084 Y-0.2187
X0.0089 Y-0.2178
X0.0094 Y-0.2168
X0.01 Y-0.2159
X0.0238 Y-0.1924
X0.0244 Y-0.1915
X0.0249 Y-0.1906
X0.0255 Y-0.1897
X0.0407 Y-0.1671
X0.0413 Y-0.1662
X0.0419 Y-0.1653
X0.0425 Y-0.1644
X0.059 Y-0.1427
X0.0596 Y-0.1418
X0.0603 Y-0.141
X0.061 Y-0.1402
X0.0786 Y-0.1194
X0.0793 Y-0.1186
X0.0801 Y-0.1178
X0.0808 Y-0.117
X0.0996 Y-0.0973
X0.1004 Y-0.0966
X0.1011 Y-0.0958
X0.1019 Y-0.095
X0.1218 Y-0.0765
X0.1226 Y-0.0758
X0.1235 Y-0.075
X0.1243 Y-0.0743
X0.1452 Y-0.0569
X0.1461 Y-0.0563
X0.1469 Y-0.0556
X0.1478 Y-0.0549
X0.1697 Y-0.0388
X0.1706 Y-0.0382
X0.1715 Y-0.0375
X0.1724 Y-0.0369
X0.1952 Y-0.0221
X0.1961 Y-0.0215
X0.197 Y-0.0209
X0.1979 Y-0.0204
X0.2216 Y-0.0069
X0.2225 Y-0.0063
X0.2235 Y-0.0058
X0.2244 Y-0.0053
X0.2488 Y0.0068
X0.2498 Y0.0073
X0.2507 Y0.0078
X0.2517 Y0.0082
X0.2767 Y0.0189
X0.2778 Y0.0193
X0.2788 Y0.0197
X0.2798 Y0.0201
X0.3054 Y0.0294
X0.3064 Y0.0297
X0.3074 Y0.0301
X0.3085 Y0.0304
X0.3345 Y0.0382
X0.3356 Y0.0385
X0.3366 Y0.0387
X0.3377 Y0.039
X0.3642 Y0.0453
X0.3652 Y0.0455
X0.3663 Y0.0457
X0.3674 Y0.0459
X0.3942 Y0.0506
X0.3952 Y0.0508
X0.3963 Y0.051
X0.3974 Y0.0511
X0.4244 Y0.0543
X0.4255 Y0.0544
X0.4266 Y0.0545
X0.4277 Y0.0546
X0.4548 Y0.0562
X0.4561
X0.4573 Y0.0563
X0.4717 Y0.0565
X0.4725
X3.4316
G2 X3.4654 Y0.0452 I0. J-0.0565
G1 X4.222 Y-0.5208
G2 X4.2334 Y-0.5999 I-0.0338 J-0.0452
G1 X3.859 Y-1.1003
X3.8586 Y-1.1009
X3.8581 Y-1.1016
X3.8411 Y-1.1229
X3.8404 Y-1.1237
X3.8397 Y-1.1245
X3.839 Y-1.1254
X3.8209 Y-1.1457
X3.8202 Y-1.1465
X3.8194 Y-1.1473
X3.8187 Y-1.148
X3.7994 Y-1.1673
X3.7986 Y-1.168
X3.7978 Y-1.1688
X3.797 Y-1.1695
X3.7767 Y-1.1876
X3.7759 Y-1.1883
X3.7751 Y-1.189
X3.7742 Y-1.1897
X3.7529 Y-1.2066
X3.752 Y-1.2072
X3.7511 Y-1.2079
X3.7502 Y-1.2085
X3.728 Y-1.2241
X3.7271 Y-1.2247
X3.7262 Y-1.2253
X3.7253 Y-1.2259
X3.7021 Y-1.2402
X3.7012 Y-1.2408
X3.7002 Y-1.2413
X3.6993 Y-1.2419
X3.6754 Y-1.2548
X3.6744 Y-1.2553
X3.6734 Y-1.2558
X3.6725 Y-1.2563
X3.6478 Y-1.2679
X3.6468 Y-1.2683
X3.6458 Y-1.2687
X3.6448 Y-1.2692
X3.6196 Y-1.2793
X3.6186 Y-1.2797
X3.6175 Y-1.28
X3.6165 Y-1.2804
X3.5907 Y-1.2891
X3.5897 Y-1.2894
X3.5886 Y-1.2897
X3.5876 Y-1.29
X3.5613 Y-1.2972
X3.5603 Y-1.2974
X3.5592 Y-1.2977
X3.5582 Y-1.2979
X3.5315 Y-1.3035
X3.5305 Y-1.3038
X3.5294 Y-1.304
X3.5283 Y-1.3041
X3.5014 Y-1.3082
X3.5004 Y-1.3084
X3.4993 Y-1.3085
X3.4982 Y-1.3086
X3.4711 Y-1.3111
X3.47 Y-1.3112
X3.4689 Y-1.3113
X3.4679
X3.4407 Y-1.3123
X3.4396
X3.4385
X3.4374
X3.4102 Y-1.3117
X3.4091
X3.408 Y-1.3116
X3.4069
X3.3798 Y-1.3094
X3.3787 Y-1.3093
X3.3777 Y-1.3092
X3.3766 Y-1.309
X3.3496 Y-1.3053
X3.3485 Y-1.3052
X3.3475 Y-1.305
X3.3464 Y-1.3048
X3.3197 Y-1.2995
X3.3186 Y-1.2993
X3.3176 Y-1.299
X3.3165 Y-1.2988
X3.2902 Y-1.292
X3.2891 Y-1.2917
X3.2881 Y-1.2914
X3.2871 Y-1.2911
X3.2611 Y-1.2828
X3.2601 Y-1.2824
X3.2591 Y-1.2821
X3.2581 Y-1.2817
X3.2327 Y-1.2719
X3.2317 Y-1.2715
X3.2307 Y-1.2711
X3.2297 Y-1.2706
X3.2049 Y-1.2594
X3.2039 Y-1.259
X3.2029 Y-1.2585
X3.202 Y-1.258
X3.1779 Y-1.2453
X3.1769 Y-1.2448
X3.176 Y-1.2443
X3.175 Y-1.2437
X3.1517 Y-1.2297
X3.1508 Y-1.2292
X3.1498 Y-1.2286
X3.1489 Y-1.228
X3.1265 Y-1.2126
X3.1256 Y-1.2121
X3.1248 Y-1.2115
X3.1193 Y-1.2074
X3.0869 Y-1.1841
X3.0542 Y-1.1625
X3.0208 Y-1.1421
X2.9866 Y-1.123
X2.9517 Y-1.1052
X2.9162 Y-1.0888
X2.88 Y-1.0737
X2.8433 Y-1.06
X2.8062 Y-1.0477
X2.7685 Y-1.0368
X2.7305 Y-1.0273
X2.6922 Y-1.0193
X2.6536 Y-1.0128
X2.6148 Y-1.0077
X2.5758 Y-1.0041
X2.5366 Y-1.002
X2.5002 Y-1.0014
X0.4725
X0.4717
X0.4709
X0.4437 Y-1.0006
X0.4426 Y-1.0005
X0.4415
X0.4404 Y-1.0004
X0.4133 Y-0.998
X0.4122 Y-0.9979
X0.4112 Y-0.9978
X0.4101 Y-0.9977
X0.3832 Y-0.9938
X0.3821 Y-0.9936
X0.381 Y-0.9934
X0.3799 Y-0.9932
X0.3533 Y-0.9877
X0.3522 Y-0.9875
X0.3512 Y-0.9873
X0.3501 Y-0.987
X0.3238 Y-0.98
X0.3228 Y-0.9797
X0.3217 Y-0.9794
X0.3207 Y-0.9791
X0.2948 Y-0.9706
X0.2938 Y-0.9703
X0.2928 Y-0.9699
X0.2918 Y-0.9695
X0.2664 Y-0.9596
X0.2654 Y-0.9592
X0.2644 Y-0.9587
X0.2634 Y-0.9583
X0.2387 Y-0.9469
X0.2377 Y-0.9464
X0.2368 Y-0.9459
X0.2358 Y-0.9454
X0.2118 Y-0.9326
X0.2108 Y-0.9321
X0.2099 Y-0.9316
X0.209 Y-0.931
X0.1857 Y-0.9169
X0.1848 Y-0.9163
X0.1839 Y-0.9157
X0.183 Y-0.9151
X0.1606 Y-0.8996
X0.1597 Y-0.899
X0.1589 Y-0.8983
X0.158 Y-0.8977
X0.1365 Y-0.8809
X0.1357 Y-0.8803
X0.1348 Y-0.8796
X0.134 Y-0.8789
X0.1136 Y-0.8609
X0.1128 Y-0.8602
X0.112 Y-0.8595
X0.1112 Y-0.8587
X0.0918 Y-0.8396
X0.091 Y-0.8388
X0.0903 Y-0.838
X0.0895 Y-0.8372
X0.0713 Y-0.8171
X0.0706 Y-0.8163
X0.0699 Y-0.8154
X0.0692 Y-0.8146
X0.0521 Y-0.7934
X0.0514 Y-0.7925
X0.0508 Y-0.7917
X0.0501 Y-0.7908
X0.0343 Y-0.7687
X0.0337 Y-0.7678
X0.0331 Y-0.7669
X0.0325 Y-0.7659
X0.018 Y-0.7429
X0.0174 Y-0.742
X0.0169 Y-0.7411
X0.0163 Y-0.7401
X0.0032 Y-0.7163
X0.0027 Y-0.7153
X0.0022 Y-0.7144
X0.0017 Y-0.7134
X-0.0101 Y-0.6889
X-0.0106 Y-0.6879
X-0.011 Y-0.6869
X-0.0114 Y-0.6859
X-0.0218 Y-0.6607
X-0.0222 Y-0.6597
X-0.0225 Y-0.6587
X-0.0229 Y-0.6577
X-0.0318 Y-0.6319
X-0.0321 Y-0.6309
X-0.0324 Y-0.6299
X-0.0328 Y-0.6288
X-0.0401 Y-0.6026
X-0.0404 Y-0.6016
X-0.0407 Y-0.6005
X-0.0409 Y-0.5995
X-0.0468 Y-0.5729
X-0.047 Y-0.5718
X-0.0472 Y-0.5708
X-0.0474 Y-0.5697
X-0.0517 Y-0.5428
X-0.0519 Y-0.5418
X-0.052 Y-0.5407
X-0.0521 Y-0.5396
X-0.0549 Y-0.5125
X-0.055 Y-0.5115
X-0.0551 Y-0.5104
Y-0.5093
X-0.0556 Y-0.4982
G0 Z0.6433
M5
M9
G53 G0 Z0.
M30
%
