%
(CS YOKE POCKET)
(T36 D=0.375 CR=0. - ZMIN=0.6693 - FLAT END MILL)
(T72 D=0.1875 CR=0.0937 - ZMIN=0.9966 - BALL END MILL)
G90 G94 G17 G91.1
G20
G53 G0 Z0.
(2D ADAPTIVE11)
T36 M6
T72
S5000 M3
G17 G90 G94
G54
G64 P0.004 Q0.004
M8
G0 X0.7758 Y-1.3904
G43 Z3.2233 H36
G0 Z2.8233
Z2.7233
G3 X1.0685 Y-1.5986 Z2.686 I0.2132 J-0.0101 F40.
X1.1357 Y-1.2468 Z2.6486 I-0.0793 J0.1974
X0.789 Y-1.3318 Z2.6113 I-0.1461 J-0.1538
X1.0099 Y-1.6109 Z2.5739 I0.2 J-0.0686
X1.1712 Y-1.2948 Z2.5366 I-0.0208 J0.2098
X0.8178 Y-1.2798 Z2.4992 I-0.1815 J-0.1059
X0.9508 Y-1.6064 Z2.4619 I0.1713 J-0.1206
X1.1916 Y-1.3503 Z2.4246 I0.0382 J0.2053
X0.8596 Y-1.2382 Z2.3872 I-0.202 J-0.0505
X0.8958 Y-1.5857 Z2.3499 I0.1296 J-0.1621
X1.1957 Y-1.4088 Z2.3125 I0.0932 J0.1847
X0.9109 Y-1.2103 Z2.2752 I-0.2061 J0.0078
X0.8492 Y-1.5508 Z2.2378 I0.0784 J-0.1901
X1.1834 Y-1.4655 Z2.2005 I0.1397 J0.1499
X0.9674 Y-1.1979 Z2.1631 I-0.1939 J0.0644
X0.8145 Y-1.5047 Z2.1258 I0.022 J-0.2025
X1.156 Y-1.516 Z2.0884 I0.1744 J0.104
X1.0246 Y-1.2018 Z2.0511 I-0.1666 J0.1149
X0.7944 Y-1.4513 Z2.0137 I-0.035 J-0.1986
X1.1159 Y-1.5564 Z1.9764 I0.1946 J0.0506
X1.0779 Y-1.2213 Z1.9391 I-0.1266 J0.1553
X0.79 Y-1.3949 Z1.9017 I-0.0883 J-0.1792
X1.0667 Y-1.5838 Z1.8644 I0.199 J-0.0056
X1.1231 Y-1.2547 Z1.827 I-0.0774 J0.1827
X0.8014 Y-1.34 Z1.7897 I-0.1335 J-0.146
X1.0122 Y-1.5962 Z1.7523 I0.1877 J-0.0604
X1.1569 Y-1.2989 Z1.715 I-0.0231 J0.1951
X0.8274 Y-1.2911 Z1.6776 I-0.1672 J-0.1019
X0.957 Y-1.5929 Z1.6403 I0.1617 J-0.1093
X1.1768 Y-1.3502 Z1.6029 I0.032 J0.1919
X0.8657 Y-1.2517 Z1.5656 I-0.1872 J-0.0506
X0.9055 Y-1.5745 Z1.5282 I0.1235 J-0.1486
X1.1815 Y-1.4046 Z1.4909 I0.0834 J0.1736
X0.913 Y-1.225 Z1.4536 I-0.1919 J0.0036
X0.8616 Y-1.5427 Z1.4162 I0.0763 J-0.1754
X1.1709 Y-1.4575 Z1.3789 I0.1273 J0.1419
X0.9654 Y-1.2126 Z1.3415 I-0.1814 J0.0565
X0.8287 Y-1.5004 Z1.3042 I0.024 J-0.1878
X1.1462 Y-1.5049 Z1.2668 I0.1602 J0.0997
X1.0186 Y-1.2154 Z1.2295 I-0.1568 J0.1038
X0.8092 Y-1.4511 Z1.1921 I-0.0291 J-0.1851
X1.1096 Y-1.5431 Z1.1548 I0.1798 J0.0504
X1.0684 Y-1.2327 Z1.1174 I-0.1203 J0.142
X0.8042 Y-1.3988 Z1.0801 I-0.0788 J-0.1678
X1.0643 Y-1.5692 Z1.0428 I0.1847 J-0.0017
X1.1109 Y-1.2629 Z1.0054 I-0.075 J0.1681
X0.814 Y-1.3477 Z0.9681 I-0.1212 J-0.1377
X1.014 Y-1.5815 Z0.9307 I0.175 J-0.0527
X1.1429 Y-1.3034 Z0.8934 I-0.0248 J0.1804
X0.8374 Y-1.302 Z0.856 I-0.1532 J-0.0973
X0.9628 Y-1.5793 Z0.8187 I0.1517 J-0.0984
X1.1621 Y-1.3507 Z0.7813 I0.0263 J0.1783
X0.8723 Y-1.265 Z0.744 I-0.1724 J-0.0501
X0.9148 Y-1.563 Z0.7066 I0.1169 J-0.1354
X1.1672 Y-1.4009 Z0.6693 I0.0742 J0.1621
X0.8107 I-0.1782 J0.
X1.1672 I0.1782 J0.
G1 X1.1679 Y-1.3566 F50.
X1.1686 Y-1.3511
X1.169 Y-1.3451
X1.1689 Y-1.3391
X1.1683 Y-1.3331
X1.1674 Y-1.3272
X1.1662 Y-1.3213
X1.1647 Y-1.3155
X1.1629 Y-1.3098
X1.1608 Y-1.3042
X1.1585 Y-1.2986
X1.1559 Y-1.2932
X1.1532 Y-1.2879
X1.1502 Y-1.2827
X1.147 Y-1.2775
X1.1435 Y-1.2724
X1.1397 Y-1.2673
X1.1357 Y-1.2623
X1.1315 Y-1.2573
X1.1269 Y-1.2524
X1.1221 Y-1.2477
X1.1171 Y-1.243
X1.1118 Y-1.2385
X1.1063 Y-1.2342
X1.1006 Y-1.23
X1.0947 Y-1.226
X1.0885 Y-1.2222
X1.0822 Y-1.2186
X1.0757 Y-1.2152
X1.069 Y-1.212
X1.0622 Y-1.2091
X1.0552 Y-1.2065
X1.0481 Y-1.2041
X1.0409 Y-1.2019
X1.0336 Y-1.2001
X1.0261 Y-1.1985
X1.0186 Y-1.1971
X1.0111 Y-1.1961
X1.0034 Y-1.1953
X0.9958 Y-1.1949
X0.988 Y-1.1947
X0.9803 Y-1.1949
X0.9726 Y-1.1953
X0.9649 Y-1.196
X0.9572 Y-1.197
X0.9495 Y-1.1983
X0.9419 Y-1.1999
X0.9344 Y-1.2018
X0.9269 Y-1.204
X0.9195 Y-1.2064
X0.9122 Y-1.2092
X0.9049 Y-1.2122
X0.8979 Y-1.2155
X0.8909 Y-1.2191
X0.8841 Y-1.2229
X0.8774 Y-1.227
X0.8709 Y-1.2314
X0.8645 Y-1.236
X0.8583 Y-1.2408
X0.8523 Y-1.2459
X0.8465 Y-1.2512
X0.8409 Y-1.2567
X0.8355 Y-1.2624
X0.8304 Y-1.2683
X0.8255 Y-1.2745
X0.8208 Y-1.2808
X0.8163 Y-1.2872
X0.8121 Y-1.2939
X0.8082 Y-1.3007
X0.8045 Y-1.3076
X0.801 Y-1.3147
X0.7979 Y-1.3219
X0.795 Y-1.3293
X0.7924 Y-1.3367
X0.7901 Y-1.3442
X0.7881 Y-1.3518
X0.7864 Y-1.3595
X0.785 Y-1.3673
X0.7838 Y-1.375
X0.783 Y-1.3829
X0.7824 Y-1.3907
X0.7822 Y-1.3986
X0.7823 Y-1.4065
X0.7826 Y-1.4143
X0.7833 Y-1.4222
X0.7842 Y-1.43
X0.7855 Y-1.4378
X0.787 Y-1.4455
X0.7889 Y-1.4532
X0.791 Y-1.4607
X0.7934 Y-1.4682
X0.7962 Y-1.4756
X0.7991 Y-1.4829
X0.8024 Y-1.4901
X0.8059 Y-1.4971
X0.8097 Y-1.504
X0.8138 Y-1.5108
X0.8181 Y-1.5174
X0.8226 Y-1.5238
X0.8274 Y-1.53
X0.8325 Y-1.5361
X0.8377 Y-1.542
X0.8432 Y-1.5476
X0.8489 Y-1.5531
X0.8548 Y-1.5583
X0.8609 Y-1.5633
X0.8672 Y-1.568
X0.8736 Y-1.5726
X0.8802 Y-1.5768
X0.887 Y-1.5808
X0.8939 Y-1.5846
X0.901 Y-1.5881
X0.9082 Y-1.5913
X0.9155 Y-1.5942
X0.9229 Y-1.5969
X0.9304 Y-1.5993
X0.938 Y-1.6013
X0.9457 Y-1.6031
X0.9534 Y-1.6046
X0.9612 Y-1.6058
X0.969 Y-1.6068
X0.9769 Y-1.6074
X0.9848 Y-1.6077
X0.9926
X1.0005 Y-1.6074
X1.0084 Y-1.6068
X1.0162 Y-1.6059
X1.024 Y-1.6047
X1.0317 Y-1.6032
X1.0394 Y-1.6015
X1.047 Y-1.5994
X1.0545 Y-1.5971
X1.0619 Y-1.5944
X1.0693 Y-1.5915
X1.0765 Y-1.5883
X1.0835 Y-1.5848
X1.0905 Y-1.5811
X1.0972 Y-1.5771
X1.1039 Y-1.5728
X1.1103 Y-1.5683
X1.1166 Y-1.5636
X1.1227 Y-1.5586
X1.1286 Y-1.5534
X1.1343 Y-1.548
X1.1398 Y-1.5423
X1.1451 Y-1.5365
X1.1502 Y-1.5304
X1.155 Y-1.5242
X1.1596 Y-1.5178
X1.1639 Y-1.5112
X1.168 Y-1.5045
X1.1718 Y-1.4976
X1.1753 Y-1.4905
X1.1786 Y-1.4834
X1.1816 Y-1.4761
X1.1847 Y-1.4677
X1.1881 Y-1.4574
X1.1927 Y-1.441
X1.196 Y-1.4275
X1.1984 Y-1.4158
X1.2001 Y-1.4054
X1.2013 Y-1.3958
X1.2021 Y-1.3867
X1.2025 Y-1.3781
X1.2026 Y-1.3698
X1.2023 Y-1.3617
X1.2018 Y-1.3538
X1.201 Y-1.3461
X1.1999 Y-1.3386
X1.1986 Y-1.3311
X1.1969 Y-1.3238
X1.195 Y-1.3165
X1.1928 Y-1.3093
X1.1904 Y-1.3022
X1.1877 Y-1.2952
X1.1847 Y-1.2883
X1.1814 Y-1.2815
X1.1779 Y-1.2748
X1.174 Y-1.2682
X1.1699 Y-1.2616
X1.1656 Y-1.2553
X1.1609 Y-1.249
X1.156 Y-1.2429
X1.1509 Y-1.2369
X1.1455 Y-1.2311
X1.1398 Y-1.2255
X1.1338 Y-1.22
X1.1277 Y-1.2148
X1.1212 Y-1.2097
X1.1146 Y-1.2049
X1.1078 Y-1.2003
X1.1007 Y-1.196
X1.0934 Y-1.1919
X1.086 Y-1.188
X1.0783 Y-1.1845
X1.0705 Y-1.1812
X1.0626 Y-1.1781
X1.0545 Y-1.1754
X1.0463 Y-1.173
X1.0379 Y-1.1709
X1.0295 Y-1.1691
X1.0209 Y-1.1676
X1.0123 Y-1.1665
X1.0037 Y-1.1657
X0.9949 Y-1.1652
X0.9862 Y-1.165
X0.9774 Y-1.1652
X0.9686 Y-1.1657
X0.9599 Y-1.1665
X0.9511 Y-1.1677
X0.9424 Y-1.1692
X0.9337 Y-1.171
X0.9251 Y-1.1732
X0.9166 Y-1.1757
X0.9082 Y-1.1786
X0.8998 Y-1.1817
X0.8916 Y-1.1852
X0.8835 Y-1.189
X0.8756 Y-1.1931
X0.8678 Y-1.1975
X0.8602 Y-1.2022
X0.8528 Y-1.2072
X0.8455 Y-1.2124
X0.8385 Y-1.218
X0.8316 Y-1.2238
X0.825 Y-1.2299
X0.8186 Y-1.2362
X0.8125 Y-1.2428
X0.8066 Y-1.2496
X0.801 Y-1.2566
X0.7956 Y-1.2638
X0.7906 Y-1.2713
X0.7858 Y-1.2789
X0.7813 Y-1.2867
X0.7771 Y-1.2947
X0.7732 Y-1.3028
X0.7696 Y-1.3111
X0.7663 Y-1.3195
X0.7634 Y-1.328
X0.7608 Y-1.3366
X0.7585 Y-1.3453
X0.7565 Y-1.3541
X0.7549 Y-1.363
X0.7536 Y-1.372
X0.7527 Y-1.3809
X0.7521 Y-1.3899
X0.7518 Y-1.399
X0.7519 Y-1.408
X0.7524 Y-1.417
X0.7532 Y-1.426
X0.7543 Y-1.435
X0.7557 Y-1.4439
X0.7575 Y-1.4527
X0.7597 Y-1.4615
X0.7622 Y-1.4702
X0.765 Y-1.4788
X0.7681 Y-1.4872
X0.7715 Y-1.4956
X0.7753 Y-1.5038
X0.7794 Y-1.5119
X0.7837 Y-1.5198
X0.7884 Y-1.5275
X0.7934 Y-1.535
X0.7986 Y-1.5424
X0.8041 Y-1.5495
X0.8099 Y-1.5565
X0.816 Y-1.5632
X0.8223 Y-1.5696
X0.8288 Y-1.5759
X0.8356 Y-1.5818
X0.8426 Y-1.5875
X0.8498 Y-1.593
X0.8572 Y-1.5981
X0.8648 Y-1.603
X0.8726 Y-1.6076
X0.8806 Y-1.6119
X0.8887 Y-1.6159
X0.897 Y-1.6195
X0.9053 Y-1.6229
X0.9139 Y-1.6259
X0.9225 Y-1.6286
X0.9312 Y-1.631
X0.94 Y-1.633
X0.9489 Y-1.6347
X0.9578 Y-1.636
X0.9668 Y-1.6371
X0.9758 Y-1.6377
X0.9848 Y-1.6381
X0.9938 Y-1.638
X1.0029 Y-1.6377
X1.0119 Y-1.637
X1.0209 Y-1.6359
X1.0298 Y-1.6346
X1.0387 Y-1.6328
X1.0474 Y-1.6308
X1.0562 Y-1.6284
X1.0648 Y-1.6257
X1.0733 Y-1.6226
X1.0817 Y-1.6192
X1.0899 Y-1.6155
X1.098 Y-1.6115
X1.1059 Y-1.6072
X1.1137 Y-1.6026
X1.1213 Y-1.5977
X1.1287 Y-1.5925
X1.1359 Y-1.5871
X1.1429 Y-1.5814
X1.1496 Y-1.5754
X1.1562 Y-1.5691
X1.1625 Y-1.5626
X1.1685 Y-1.5559
X1.1743 Y-1.5489
X1.1799 Y-1.5417
X1.1853 Y-1.5339
X1.1911 Y-1.5252
X1.1966 Y-1.5159
X1.2019 Y-1.5063
X1.207 Y-1.4961
X1.2117 Y-1.4858
X1.216 Y-1.4753
X1.2198 Y-1.4648
X1.2232 Y-1.4544
X1.2261 Y-1.444
X1.2286 Y-1.4337
X1.2306 Y-1.4236
X1.2322 Y-1.4136
X1.2334 Y-1.4037
X1.2342 Y-1.3938
X1.2347 Y-1.3841
X1.2348 Y-1.3745
X1.2345 Y-1.365
X1.2338 Y-1.3557
X1.2328 Y-1.3464
X1.2315 Y-1.3372
X1.2298 Y-1.3282
X1.2278 Y-1.3193
X1.2255 Y-1.3104
X1.2228 Y-1.3017
X1.2198 Y-1.2932
X1.2165 Y-1.2847
X1.2129 Y-1.2764
X1.2089 Y-1.2682
X1.2046 Y-1.2602
X1.2001 Y-1.2523
X1.1952 Y-1.2446
X1.19 Y-1.2371
X1.1845 Y-1.2297
X1.1788 Y-1.2226
X1.1727 Y-1.2156
X1.1664 Y-1.2089
X1.1598 Y-1.2024
X1.1529 Y-1.1961
X1.1457 Y-1.19
X1.1383 Y-1.1842
X1.1307 Y-1.1787
X1.1228 Y-1.1735
X1.1147 Y-1.1685
X1.1064 Y-1.1638
X1.0978 Y-1.1595
X1.0891 Y-1.1554
X1.0802 Y-1.1517
X1.0712 Y-1.1483
X1.062 Y-1.1452
X1.0526 Y-1.1425
X1.0431 Y-1.1401
X1.0336 Y-1.1381
X1.0239 Y-1.1365
X1.0141 Y-1.1352
X1.0043 Y-1.1343
X0.9944 Y-1.1338
X0.9845 Y-1.1336
X0.9746 Y-1.1338
X0.9646 Y-1.1344
X0.9547 Y-1.1354
X0.9448 Y-1.1368
X0.9349 Y-1.1385
X0.9251 Y-1.1406
X0.9154 Y-1.1431
X0.9058 Y-1.146
X0.8962 Y-1.1492
X0.8868 Y-1.1528
X0.8775 Y-1.1568
X0.8684 Y-1.1611
X0.8594 Y-1.1657
X0.8506 Y-1.1707
X0.842 Y-1.1761
X0.8336 Y-1.1818
X0.8254 Y-1.1877
X0.8174 Y-1.194
X0.8097 Y-1.2007
X0.8023 Y-1.2076
X0.795 Y-1.2147
X0.7881 Y-1.2222
X0.7815 Y-1.2299
X0.7751 Y-1.2379
X0.7691 Y-1.2461
X0.7633 Y-1.2546
X0.7579 Y-1.2632
X0.7529 Y-1.2721
X0.7481 Y-1.2811
X0.7437 Y-1.2904
X0.7397 Y-1.2997
X0.736 Y-1.3093
X0.7327 Y-1.319
X0.7298 Y-1.3288
X0.7272 Y-1.3387
X0.725 Y-1.3487
X0.7232 Y-1.3587
X0.7218 Y-1.3689
X0.7208 Y-1.379
X0.7201 Y-1.3893
X0.7199 Y-1.3995
X0.72 Y-1.4097
X0.7205 Y-1.42
X0.7214 Y-1.4302
X0.7227 Y-1.4403
X0.7244 Y-1.4504
X0.7265 Y-1.4605
X0.7289 Y-1.4704
X0.7318 Y-1.4803
X0.735 Y-1.49
X0.7385 Y-1.4996
X0.7425 Y-1.5091
X0.7468 Y-1.5184
X0.7514 Y-1.5275
X0.7564 Y-1.5365
X0.7617 Y-1.5452
X0.7674 Y-1.5538
X0.7734 Y-1.5621
X0.7797 Y-1.5702
X0.7863 Y-1.578
X0.7932 Y-1.5856
X0.8003 Y-1.5929
X0.8078 Y-1.6
X0.8155 Y-1.6067
X0.8234 Y-1.6132
X0.8316 Y-1.6194
X0.8401 Y-1.6252
X0.8487 Y-1.6307
X0.8576 Y-1.6359
X0.8666 Y-1.6407
X0.8758 Y-1.6452
X0.8852 Y-1.6493
X0.8948 Y-1.6531
X0.9044 Y-1.6565
X0.9142 Y-1.6595
X0.9241 Y-1.6622
X0.9341 Y-1.6645
X0.9442 Y-1.6664
X0.9543 Y-1.6679
X0.9645 Y-1.669
X0.9748 Y-1.6697
X0.985 Y-1.6701
X0.9953 Y-1.67
X1.0055 Y-1.6696
X1.0157 Y-1.6688
X1.0259 Y-1.6676
X1.036 Y-1.666
X1.0461 Y-1.664
X1.0561 Y-1.6616
X1.0659 Y-1.6589
X1.0757 Y-1.6557
X1.0854 Y-1.6523
X1.0949 Y-1.6484
X1.1042 Y-1.6442
X1.1134 Y-1.6396
X1.1224 Y-1.6347
X1.1312 Y-1.6295
X1.1398 Y-1.6239
X1.1482 Y-1.618
X1.1564 Y-1.6117
X1.1645 Y-1.605
X1.1724 Y-1.598
X1.1801 Y-1.5905
X1.1877 Y-1.5827
X1.1951 Y-1.5744
X1.2022 Y-1.5657
X1.2092 Y-1.5566
X1.2158 Y-1.5472
X1.2222 Y-1.5374
X1.2282 Y-1.5273
X1.2338 Y-1.5171
X1.239 Y-1.5066
X1.2438 Y-1.4959
X1.2482 Y-1.4852
X1.2521 Y-1.4743
X1.2556 Y-1.4634
X1.2587 Y-1.4524
X1.2613 Y-1.4414
X1.2635 Y-1.4303
X1.2652 Y-1.4193
X1.2665 Y-1.4083
X1.2674 Y-1.3974
X1.2679 Y-1.3865
Y-1.3757
X1.2676 Y-1.3649
X1.2668 Y-1.3542
X1.2656 Y-1.3436
X1.2641 Y-1.3331
X1.2621 Y-1.3227
X1.2598 Y-1.3124
X1.257 Y-1.3023
X1.2539 Y-1.2922
X1.2504 Y-1.2823
X1.2466 Y-1.2726
X1.2424 Y-1.263
X1.2378 Y-1.2535
X1.2328 Y-1.2443
X1.2275 Y-1.2352
X1.2219 Y-1.2264
X1.2159 Y-1.2177
X1.2096 Y-1.2093
X1.2029 Y-1.2011
X1.196 Y-1.1931
X1.1887 Y-1.1854
X1.1811 Y-1.178
X1.1732 Y-1.1709
X1.1651 Y-1.164
X1.1566 Y-1.1574
X1.1479 Y-1.1512
X1.1389 Y-1.1452
X1.1297 Y-1.1396
X1.1203 Y-1.1344
X1.1106 Y-1.1295
X1.1008 Y-1.1249
X1.0907 Y-1.1207
X1.0805 Y-1.1169
X1.0701 Y-1.1135
X1.0595 Y-1.1105
X1.0488 Y-1.1078
X1.038 Y-1.1056
X1.0271 Y-1.1038
X1.0162 Y-1.1024
X1.0051 Y-1.1014
X0.994 Y-1.1008
X0.9829 Y-1.1006
X0.9717 Y-1.1009
X0.9605 Y-1.1016
X0.9494 Y-1.1027
X0.9383 Y-1.1043
X0.9272 Y-1.1063
X0.9162 Y-1.1087
X0.9053 Y-1.1115
X0.8944 Y-1.1148
X0.8837 Y-1.1184
X0.8732 Y-1.1225
X0.8628 Y-1.127
X0.8525 Y-1.1318
X0.8424 Y-1.1371
X0.8326 Y-1.1428
X0.8229 Y-1.1488
X0.8135 Y-1.1552
X0.8043 Y-1.1619
X0.7954 Y-1.169
X0.7867 Y-1.1765
X0.7784 Y-1.1843
X0.7703 Y-1.1924
X0.7625 Y-1.2008
X0.7551 Y-1.2095
X0.748 Y-1.2184
X0.7412 Y-1.2277
X0.7348 Y-1.2372
X0.7287 Y-1.2469
X0.7231 Y-1.2569
X0.7178 Y-1.2671
X0.7129 Y-1.2775
X0.7084 Y-1.288
X0.7043 Y-1.2988
X0.7006 Y-1.3096
X0.6973 Y-1.3207
X0.6945 Y-1.3318
X0.692 Y-1.343
X0.69 Y-1.3544
X0.6885 Y-1.3658
X0.6873 Y-1.3772
X0.6866 Y-1.3887
X0.6864 Y-1.4002
X0.6866 Y-1.4117
X0.6872 Y-1.4232
X0.6883 Y-1.4347
X0.6897 Y-1.4461
X0.6917 Y-1.4574
X0.694 Y-1.4687
X0.6968 Y-1.4799
X0.7 Y-1.491
X0.7037 Y-1.5019
X0.7077 Y-1.5127
X0.7122 Y-1.5233
X0.717 Y-1.5337
X0.7223 Y-1.544
X0.7279 Y-1.5541
X0.7339 Y-1.5639
X0.7403 Y-1.5735
X0.7471 Y-1.5828
X0.7542 Y-1.5919
X0.7616 Y-1.6007
X0.7694 Y-1.6092
X0.7775 Y-1.6174
X0.7859 Y-1.6253
X0.7945 Y-1.6329
X0.8035 Y-1.6401
X0.8128 Y-1.647
X0.8223 Y-1.6536
X0.832 Y-1.6597
X0.842 Y-1.6655
X0.8522 Y-1.6709
X0.8625 Y-1.6759
X0.8731 Y-1.6805
X0.8838 Y-1.6848
X0.8947 Y-1.6886
X0.9057 Y-1.6919
X0.9169 Y-1.6949
X0.9281 Y-1.6974
X0.9395 Y-1.6995
X0.9509 Y-1.7012
X0.9623 Y-1.7024
X0.9738 Y-1.7032
X0.9854 Y-1.7036
X0.9969 Y-1.7035
X1.0084 Y-1.703
X1.0199 Y-1.702
X1.0313 Y-1.7006
X1.0427 Y-1.6988
X1.054 Y-1.6965
X1.0652 Y-1.6938
X1.0763 Y-1.6907
X1.0873 Y-1.6872
X1.0981 Y-1.6832
X1.1088 Y-1.6789
X1.1194 Y-1.6741
X1.1297 Y-1.6689
X1.14 Y-1.6633
X1.15 Y-1.6572
X1.1599 Y-1.6508
X1.1696 Y-1.6439
X1.1791 Y-1.6366
X1.1885 Y-1.6288
X1.1976 Y-1.6207
X1.2064 Y-1.6121
X1.215 Y-1.6031
X1.2233 Y-1.5938
X1.2313 Y-1.5841
X1.2389 Y-1.574
X1.2461 Y-1.5637
X1.253 Y-1.5531
X1.2595 Y-1.5422
X1.2655 Y-1.531
X1.2711 Y-1.5197
X1.2763 Y-1.5082
X1.281 Y-1.4965
X1.2852 Y-1.4846
X1.289 Y-1.4727
X1.2923 Y-1.4607
X1.2951 Y-1.4486
X1.2975 Y-1.4365
X1.2994 Y-1.4243
X1.3008 Y-1.4121
X1.3018 Y-1.3999
X1.3022 Y-1.3878
X1.3023 Y-1.3756
X1.3018 Y-1.3635
X1.3009 Y-1.3515
X1.2996 Y-1.3396
X1.2978 Y-1.3277
X1.2955 Y-1.316
X1.2928 Y-1.3044
X1.2897 Y-1.2929
X1.2862 Y-1.2815
X1.2822 Y-1.2703
X1.2778 Y-1.2593
X1.273 Y-1.2484
X1.2678 Y-1.2378
X1.2621 Y-1.2273
X1.2561 Y-1.2171
X1.2497 Y-1.207
X1.2429 Y-1.1973
X1.2357 Y-1.1878
X1.2282 Y-1.1785
X1.2203 Y-1.1696
X1.2121 Y-1.1609
X1.2035 Y-1.1526
X1.1946 Y-1.1445
X1.1854 Y-1.1368
X1.1759 Y-1.1294
X1.166 Y-1.1224
X1.156 Y-1.1158
X1.1456 Y-1.1095
X1.135 Y-1.1037
X1.1241 Y-1.0982
X1.113 Y-1.0931
X1.1018 Y-1.0884
X1.0903 Y-1.0842
X1.0786 Y-1.0804
X1.0668 Y-1.077
X1.0549 Y-1.0741
X1.0428 Y-1.0717
X1.0306 Y-1.0697
X1.0183 Y-1.0681
X1.006 Y-1.067
X0.9935 Y-1.0664
X0.9811 Y-1.0663
X0.9686 Y-1.0667
X0.9562 Y-1.0675
X0.9437 Y-1.0688
X0.9314 Y-1.0705
X0.919 Y-1.0728
X0.9068 Y-1.0755
X0.8946 Y-1.0787
X0.8825 Y-1.0823
X0.8706 Y-1.0864
X0.8589 Y-1.091
X0.8473 Y-1.096
X0.8359 Y-1.1015
X0.8247 Y-1.1074
X0.8137 Y-1.1137
X0.8029 Y-1.1205
X0.7924 Y-1.1276
X0.7822 Y-1.1352
X0.7723 Y-1.1431
X0.7627 Y-1.1515
X0.7534 Y-1.1602
X0.7444 Y-1.1692
X0.7358 Y-1.1786
X0.7275 Y-1.1883
X0.7196 Y-1.1983
X0.7121 Y-1.2087
X0.705 Y-1.2193
X0.6983 Y-1.2301
X0.692 Y-1.2413
X0.6861 Y-1.2526
X0.6807 Y-1.2642
X0.6757 Y-1.276
X0.6712 Y-1.288
X0.6671 Y-1.3001
X0.6635 Y-1.3124
X0.6603 Y-1.3248
X0.6577 Y-1.3374
X0.6555 Y-1.35
X0.6538 Y-1.3627
X0.6525 Y-1.3755
X0.6518 Y-1.3883
X0.6516 Y-1.4011
X0.6518 Y-1.4139
X0.6525 Y-1.4268
X0.6537 Y-1.4395
X0.6554 Y-1.4523
X0.6576 Y-1.4649
X0.6603 Y-1.4775
X0.6634 Y-1.4899
X0.6671 Y-1.5022
X0.6711 Y-1.5144
X0.6757 Y-1.5264
X0.6807 Y-1.5383
X0.6861 Y-1.5499
X0.692 Y-1.5613
X0.6983 Y-1.5725
X0.7051 Y-1.5835
X0.7122 Y-1.5941
X0.7198 Y-1.6045
X0.7277 Y-1.6146
X0.736 Y-1.6244
X0.7447 Y-1.6339
X0.7538 Y-1.643
X0.7632 Y-1.6518
X0.7729 Y-1.6602
X0.7829 Y-1.6683
X0.7932 Y-1.6759
X0.8039 Y-1.6832
X0.8147 Y-1.69
X0.8259 Y-1.6964
X0.8372 Y-1.7024
X0.8488 Y-1.708
X0.8606 Y-1.7131
X0.8726 Y-1.7178
X0.8848 Y-1.722
X0.8971 Y-1.7257
X0.9095 Y-1.729
X0.922 Y-1.7318
X0.9347 Y-1.7341
X0.9474 Y-1.7359
X0.9602 Y-1.7372
X0.973 Y-1.7381
X0.9859 Y-1.7385
X0.9987 Y-1.7383
X1.0116 Y-1.7377
X1.0244 Y-1.7366
X1.0372 Y-1.735
X1.0498 Y-1.7329
X1.0625 Y-1.7304
X1.075 Y-1.7273
X1.0874 Y-1.7238
X1.0997 Y-1.7198
X1.1119 Y-1.7153
X1.1239 Y-1.7104
X1.1358 Y-1.7049
X1.1475 Y-1.699
X1.159 Y-1.6926
X1.1704 Y-1.6858
X1.1815 Y-1.6785
X1.1924 Y-1.6707
X1.2031 Y-1.6625
X1.2135 Y-1.6538
X1.2235 Y-1.6447
X1.2333 Y-1.6352
X1.2428 Y-1.6253
X1.2519 Y-1.615
X1.2606 Y-1.6043
X1.2689 Y-1.5932
X1.2768 Y-1.5819
X1.2843 Y-1.5702
X1.2913 Y-1.5583
X1.2979 Y-1.5461
X1.304 Y-1.5337
X1.3096 Y-1.521
X1.3147 Y-1.5082
X1.3193 Y-1.4953
X1.3235 Y-1.4821
X1.3271 Y-1.4689
X1.3301 Y-1.4556
X1.3327 Y-1.4422
X1.3348 Y-1.4287
X1.3363 Y-1.4152
X1.3373 Y-1.4017
X1.3378 Y-1.3882
Y-1.3748
X1.3373 Y-1.3613
X1.3362 Y-1.348
X1.3347 Y-1.3347
X1.3326 Y-1.3215
X1.3301 Y-1.3084
X1.3271 Y-1.2954
X1.3236 Y-1.2825
X1.3195 Y-1.2699
X1.3151 Y-1.2573
X1.3101 Y-1.245
X1.3047 Y-1.2329
X1.2988 Y-1.221
X1.2925 Y-1.2093
X1.2857 Y-1.1979
X1.2785 Y-1.1867
X1.2709 Y-1.1758
X1.2629 Y-1.1652
X1.2544 Y-1.1549
X1.2456 Y-1.1449
X1.2364 Y-1.1353
X1.2268 Y-1.126
X1.2168 Y-1.117
X1.2065 Y-1.1085
X1.1959 Y-1.1003
X1.1849 Y-1.0925
X1.1736 Y-1.0852
X1.1621 Y-1.0782
X1.1503 Y-1.0717
X1.1382 Y-1.0656
X1.1258 Y-1.06
X1.1133 Y-1.0549
X1.1005 Y-1.0502
X1.0876 Y-1.046
X1.0744 Y-1.0423
X1.0612 Y-1.0391
X1.0477 Y-1.0364
X1.0342 Y-1.0343
X1.0206 Y-1.0326
X1.0069 Y-1.0314
X0.9931 Y-1.0308
X0.9793 Y-1.0307
X0.9655 Y-1.0311
X0.9517 Y-1.0321
X0.9379 Y-1.0335
X0.9242 Y-1.0355
X0.9106 Y-1.0381
X0.897 Y-1.0411
X0.8835 Y-1.0447
X0.8702 Y-1.0488
X0.857 Y-1.0533
X0.844 Y-1.0584
X0.8312 Y-1.064
X0.8186 Y-1.0701
X0.8062 Y-1.0767
X0.7941 Y-1.0837
X0.7822 Y-1.0912
X0.7706 Y-1.0992
X0.7593 Y-1.1076
X0.7484 Y-1.1164
X0.7378 Y-1.1256
X0.7275 Y-1.1353
X0.7176 Y-1.1453
X0.7081 Y-1.1557
X0.699 Y-1.1665
X0.6903 Y-1.1776
X0.682 Y-1.1891
X0.6741 Y-1.2008
X0.6667 Y-1.2129
X0.6598 Y-1.2252
X0.6534 Y-1.2378
X0.6474 Y-1.2506
X0.6419 Y-1.2637
X0.6369 Y-1.277
X0.6324 Y-1.2904
X0.6285 Y-1.304
X0.625 Y-1.3178
X0.6221 Y-1.3317
X0.6197 Y-1.3456
X0.6179 Y-1.3597
X0.6166 Y-1.3738
X0.6158 Y-1.388
X0.6156 Y-1.4022
X0.6159 Y-1.4164
X0.6167 Y-1.4306
X0.6181 Y-1.4447
X0.62 Y-1.4588
X0.6225 Y-1.4728
X0.6255 Y-1.4867
X0.629 Y-1.5004
X0.633 Y-1.5141
X0.6376 Y-1.5275
X0.6426 Y-1.5408
X0.6482 Y-1.5539
X0.6543 Y-1.5668
X0.6608 Y-1.5794
X0.6679 Y-1.5917
X0.6753 Y-1.6038
X0.6833 Y-1.6156
X0.6917 Y-1.6271
X0.7005 Y-1.6383
X0.7097 Y-1.6491
X0.7194 Y-1.6595
X0.7294 Y-1.6696
X0.7398 Y-1.6793
X0.7506 Y-1.6886
X0.7617 Y-1.6974
X0.7732 Y-1.7059
X0.785 Y-1.7139
X0.797 Y-1.7214
X0.8094 Y-1.7285
X0.822 Y-1.7351
X0.8348 Y-1.7412
X0.8479 Y-1.7468
X0.8612 Y-1.752
X0.8746 Y-1.7566
X0.8882 Y-1.7607
X0.902 Y-1.7642
X0.9159 Y-1.7673
X0.9299 Y-1.7698
X0.944 Y-1.7718
X0.9582 Y-1.7732
X0.9724 Y-1.7741
X0.9866 Y-1.7745
X1.0008 Y-1.7743
X1.0151 Y-1.7736
X1.0293 Y-1.7723
X1.0434 Y-1.7705
X1.0575 Y-1.7682
X1.0715 Y-1.7653
X1.0854 Y-1.7619
X1.0992 Y-1.7579
X1.1129 Y-1.7534
X1.1265 Y-1.7484
X1.1398 Y-1.7428
X1.1531 Y-1.7367
X1.1661 Y-1.7301
X1.1789 Y-1.723
X1.1915 Y-1.7154
X1.2038 Y-1.7072
X1.2158 Y-1.6986
X1.2276 Y-1.6895
X1.239 Y-1.6799
X1.2501 Y-1.6698
X1.2608 Y-1.6593
X1.2711 Y-1.6484
X1.2811 Y-1.6371
X1.2906 Y-1.6253
X1.2997 Y-1.6133
X1.3083 Y-1.6008
X1.3164 Y-1.5881
X1.324 Y-1.575
X1.3312 Y-1.5616
X1.3378 Y-1.5481
X1.3439 Y-1.5342
X1.3495 Y-1.5202
X1.3545 Y-1.506
X1.3589 Y-1.4916
X1.3629 Y-1.4771
X1.3662 Y-1.4624
X1.369 Y-1.4477
X1.3712 Y-1.4329
X1.3728 Y-1.4181
X1.3739 Y-1.4032
X1.3744 Y-1.3883
Y-1.3735
X1.3737 Y-1.3586
X1.3726 Y-1.3439
X1.3708 Y-1.3292
X1.3685 Y-1.3146
X1.3657 Y-1.3001
X1.3623 Y-1.2858
X1.3583 Y-1.2716
X1.3539 Y-1.2575
X1.3489 Y-1.2437
X1.3433 Y-1.23
X1.3373 Y-1.2166
X1.3307 Y-1.2034
X1.3237 Y-1.1905
X1.3162 Y-1.1779
X1.3082 Y-1.1655
X1.2997 Y-1.1535
X1.2908 Y-1.1418
X1.2814 Y-1.1304
X1.2716 Y-1.1194
X1.2613 Y-1.1087
X1.2507 Y-1.0985
X1.2396 Y-1.0886
X1.2282 Y-1.0792
X1.2164 Y-1.0702
X1.2043 Y-1.0616
X1.1918 Y-1.0535
X1.179 Y-1.0459
X1.166 Y-1.0387
X1.1526 Y-1.0321
X1.139 Y-1.0259
X1.1251 Y-1.0203
X1.111 Y-1.0152
X1.0967 Y-1.0106
X1.0822 Y-1.0065
X1.0675 Y-1.0031
X1.0527 Y-1.0001
X1.0378 Y-0.9978
X1.0228 Y-0.996
X1.0077 Y-0.9947
X0.9926 Y-0.9941
X0.9774 Y-0.994
X0.9622 Y-0.9945
X0.947 Y-0.9956
X0.9318 Y-0.9973
X0.9167 Y-0.9995
X0.9017 Y-1.0023
X0.8868 Y-1.0057
X0.872 Y-1.0097
X0.8573 Y-1.0142
X0.8428 Y-1.0193
X0.8286 Y-1.0249
X0.8145 Y-1.0311
X0.8006 Y-1.0379
X0.787 Y-1.0451
X0.7737 Y-1.0529
X0.7607 Y-1.0612
X0.748 Y-1.0699
X0.7356 Y-1.0792
X0.7236 Y-1.0889
X0.7119 Y-1.0991
X0.7007 Y-1.1098
X0.6898 Y-1.1208
X0.6794 Y-1.1323
X0.6694 Y-1.1442
X0.6599 Y-1.1564
X0.6508 Y-1.169
X0.6422 Y-1.182
X0.6342 Y-1.1953
X0.6266 Y-1.2088
X0.6195 Y-1.2227
X0.613 Y-1.2368
X0.607 Y-1.2512
X0.6016 Y-1.2658
X0.5967 Y-1.2806
X0.5924 Y-1.2955
X0.5886 Y-1.3107
X0.5855 Y-1.3259
X0.5829 Y-1.3413
X0.5809 Y-1.3568
X0.5795 Y-1.3723
X0.5787 Y-1.3879
X0.5785 Y-1.4035
X0.5789 Y-1.4191
X0.5798 Y-1.4347
X0.5814 Y-1.4502
X0.5835 Y-1.4657
X0.5863 Y-1.4811
X0.5896 Y-1.4963
X0.5935 Y-1.5115
X0.598 Y-1.5264
X0.6031 Y-1.5412
X0.6087 Y-1.5558
X0.6148 Y-1.5702
X0.6215 Y-1.5843
X0.6288 Y-1.5981
X0.6365 Y-1.6117
X0.6448 Y-1.625
X0.6536 Y-1.6379
X0.6628 Y-1.6505
X0.6726 Y-1.6627
X0.6828 Y-1.6746
X0.6934 Y-1.686
X0.7045 Y-1.6971
X0.7159 Y-1.7077
X0.7278 Y-1.7179
X0.7401 Y-1.7276
X0.7527 Y-1.7368
X0.7657 Y-1.7456
X0.7789 Y-1.7539
X0.7925 Y-1.7616
X0.8064 Y-1.7688
X0.8205 Y-1.7755
X0.8349 Y-1.7816
X0.8495 Y-1.7872
X0.8644 Y-1.7923
X0.8793 Y-1.7967
X0.8945 Y-1.8006
X0.9098 Y-1.8039
X0.9252 Y-1.8067
X0.9407 Y-1.8088
X0.9563 Y-1.8103
X0.9719 Y-1.8113
X0.9876 Y-1.8116
X1.0032 Y-1.8114
X1.0189 Y-1.8106
X1.0346 Y-1.8091
X1.0502 Y-1.8071
X1.0657 Y-1.8044
X1.0812 Y-1.8012
X1.0965 Y-1.7974
X1.1118 Y-1.793
X1.1268 Y-1.788
X1.1418 Y-1.7824
X1.1565 Y-1.7762
X1.1711 Y-1.7695
X1.1854 Y-1.7622
X1.1994 Y-1.7543
X1.2132 Y-1.7458
X1.2267 Y-1.7369
X1.2399 Y-1.7274
X1.2527 Y-1.7173
X1.2652 Y-1.7068
X1.2773 Y-1.6958
X1.289 Y-1.6843
X1.3002 Y-1.6723
X1.311 Y-1.6599
X1.3214 Y-1.6471
X1.3312 Y-1.6339
X1.3406 Y-1.6203
X1.3494 Y-1.6064
X1.3577 Y-1.5921
X1.3654 Y-1.5776
X1.3726 Y-1.5627
X1.3792 Y-1.5476
X1.3852 Y-1.5323
X1.3907 Y-1.5168
X1.3955 Y-1.5011
X1.3997 Y-1.4852
X1.4033 Y-1.4692
X1.4063 Y-1.4531
X1.4087 Y-1.4369
X1.4105 Y-1.4206
X1.4116 Y-1.4044
X1.4121 Y-1.3881
X1.412 Y-1.3718
X1.4113 Y-1.3555
X1.4099 Y-1.3393
X1.408 Y-1.3232
X1.4054 Y-1.3072
X1.4022 Y-1.2913
X1.3984 Y-1.2755
X1.3941 Y-1.2599
X1.3891 Y-1.2445
X1.3836 Y-1.2293
X1.3775 Y-1.2144
X1.3708 Y-1.1996
X1.3635 Y-1.1852
X1.3558 Y-1.171
X1.3474 Y-1.1571
X1.3386 Y-1.1435
X1.3292 Y-1.1303
X1.3194 Y-1.1175
X1.309 Y-1.105
X1.2982 Y-1.0929
X1.2869 Y-1.0813
X1.2752 Y-1.07
X1.2631 Y-1.0592
X1.2505 Y-1.0489
X1.2375 Y-1.039
X1.2242 Y-1.0297
X1.2105 Y-1.0208
X1.1964 Y-1.0125
X1.182 Y-1.0047
X1.1674 Y-0.9974
X1.1524 Y-0.9907
X1.1372 Y-0.9846
X1.1217 Y-0.979
X1.106 Y-0.974
X1.0901 Y-0.9697
X1.074 Y-0.9659
X1.0578 Y-0.9627
X1.0415 Y-0.9602
X1.025 Y-0.9582
X1.0085 Y-0.9569
X0.9919 Y-0.9563
X0.9753 Y-0.9562
X0.9586 Y-0.9568
X0.942 Y-0.9581
X0.9254 Y-0.9599
X0.9089 Y-0.9624
X0.8925 Y-0.9656
X0.8762 Y-0.9693
X0.86 Y-0.9737
X0.844 Y-0.9787
X0.8282 Y-0.9843
X0.8126 Y-0.9905
X0.7972 Y-0.9973
X0.7821 Y-1.0047
X0.7672 Y-1.0127
X0.7527 Y-1.0212
X0.7385 Y-1.0303
X0.7246 Y-1.04
X0.7111 Y-1.0501
X0.698 Y-1.0608
X0.6853 Y-1.072
X0.6731 Y-1.0836
X0.6612 Y-1.0958
X0.6499 Y-1.1083
X0.639 Y-1.1213
X0.6286 Y-1.1348
X0.6187 Y-1.1486
X0.6094 Y-1.1627
X0.6006 Y-1.1773
X0.5924 Y-1.1921
X0.5847 Y-1.2073
X0.5776 Y-1.2228
X0.5711 Y-1.2385
X0.5652 Y-1.2544
X0.5599 Y-1.2706
X0.5553 Y-1.287
X0.5512 Y-1.3035
X0.5478 Y-1.3202
X0.545 Y-1.337
X0.5429 Y-1.3539
X0.5414 Y-1.3709
X0.5406 Y-1.388
X0.5404 Y-1.405
X0.5409 Y-1.4221
X0.542 Y-1.4391
X0.5437 Y-1.4561
X0.5461 Y-1.4729
X0.5492 Y-1.4897
X0.5529 Y-1.5064
X0.5572 Y-1.5229
X0.5621 Y-1.5393
X0.5677 Y-1.5554
X0.5739 Y-1.5713
X0.5806 Y-1.587
X0.588 Y-1.6024
X0.596 Y-1.6175
X0.6045 Y-1.6323
X0.6136 Y-1.6468
X0.6232 Y-1.6609
X0.6333 Y-1.6746
X0.644 Y-1.688
X0.6552 Y-1.7009
X0.6669 Y-1.7134
X0.679 Y-1.7254
X0.6916 Y-1.737
X0.7046 Y-1.7481
X0.718 Y-1.7587
X0.7318 Y-1.7687
X0.746 Y-1.7783
X0.7605 Y-1.7872
X0.7754 Y-1.7957
X0.7906 Y-1.8035
X0.8061 Y-1.8108
X0.8218 Y-1.8174
X0.8378 Y-1.8235
X0.854 Y-1.829
X0.8704 Y-1.8338
X0.887 Y-1.838
X0.9037 Y-1.8416
X0.9205 Y-1.8445
X0.9375 Y-1.8468
X0.9545 Y-1.8484
X0.9717 Y-1.8494
X0.9888 Y-1.8498
X1.006 Y-1.8494
X1.0231 Y-1.8485
X1.0402 Y-1.8469
X1.0573 Y-1.8446
X1.0743 Y-1.8417
X1.0912 Y-1.8381
X1.108 Y-1.8338
X1.1247 Y-1.829
X1.1412 Y-1.8234
X1.1575 Y-1.8173
X1.1736 Y-1.8105
X1.1895 Y-1.8031
X1.2051 Y-1.795
X1.2204 Y-1.7864
X1.2354 Y-1.7772
X1.2501 Y-1.7673
X1.2644 Y-1.7569
X1.2784 Y-1.746
X1.2919 Y-1.7345
X1.305 Y-1.7224
X1.3177 Y-1.7099
X1.3299 Y-1.6969
X1.3416 Y-1.6834
X1.3528 Y-1.6694
X1.3635 Y-1.655
X1.3736 Y-1.6403
X1.3831 Y-1.6251
X1.3921 Y-1.6096
X1.4005 Y-1.5938
X1.4082 Y-1.5776
X1.4153 Y-1.5612
X1.4218 Y-1.5445
X1.4277 Y-1.5276
X1.4329 Y-1.5105
X1.4374 Y-1.4932
X1.4413 Y-1.4758
X1.4445 Y-1.4583
X1.4471 Y-1.4407
X1.4489 Y-1.423
X1.4501 Y-1.4052
X1.4506 Y-1.3875
X1.4505 Y-1.3697
X1.4496 Y-1.352
X1.4481 Y-1.3343
X1.4459 Y-1.3168
X1.4431 Y-1.2993
X1.4395 Y-1.282
X1.4354 Y-1.2648
X1.4306 Y-1.2478
X1.4251 Y-1.231
X1.419 Y-1.2144
X1.4123 Y-1.1981
X1.4049 Y-1.182
X1.397 Y-1.1662
X1.3885 Y-1.1508
X1.3793 Y-1.1356
X1.3696 Y-1.1209
X1.3594 Y-1.1065
X1.3486 Y-1.0925
X1.3373 Y-1.0789
X1.3254 Y-1.0657
X1.3131 Y-1.053
X1.3002 Y-1.0408
X1.2869 Y-1.0291
X1.2732 Y-1.0178
X1.259 Y-1.0071
X1.2444 Y-0.9969
X1.2294 Y-0.9873
X1.2141 Y-0.9783
X1.1984 Y-0.9698
X1.1824 Y-0.9619
X1.166 Y-0.9547
X1.1494 Y-0.948
X1.1325 Y-0.942
X1.1154 Y-0.9366
X1.0981 Y-0.9319
X1.0806 Y-0.9278
X1.0629 Y-0.9245
X1.0451 Y-0.9217
X1.0272 Y-0.9197
X1.0092 Y-0.9183
X0.9911 Y-0.9176
X0.973
X0.9549 Y-0.9183
X0.9368 Y-0.9197
X0.9188 Y-0.9218
X0.9008 Y-0.9246
X0.883 Y-0.928
X0.8652 Y-0.9322
X0.8477 Y-0.937
X0.8303 Y-0.9425
X0.8131 Y-0.9486
X0.7961 Y-0.9554
X0.7794 Y-0.9629
X0.763 Y-0.971
X0.7469 Y-0.9797
X0.7311 Y-0.989
X0.7157 Y-0.9989
X0.7007 Y-1.0095
X0.686 Y-1.0205
X0.6718 Y-1.0322
X0.658 Y-1.0444
X0.6447 Y-1.0571
X0.6319 Y-1.0703
X0.6196 Y-1.084
X0.6078 Y-1.0982
X0.5966 Y-1.1128
X0.5859 Y-1.1278
X0.5758 Y-1.1432
X0.5663 Y-1.1591
X0.5574 Y-1.1752
X0.5491 Y-1.1917
X0.5414 Y-1.2086
X0.5344 Y-1.2257
X0.528 Y-1.243
X0.5223 Y-1.2606
X0.5173 Y-1.2784
X0.513 Y-1.2964
X0.5093 Y-1.3146
X0.5064 Y-1.3329
X0.5041 Y-1.3512
X0.5025 Y-1.3697
X0.5017 Y-1.3882
X0.5015 Y-1.4067
X0.5021 Y-1.4253
X0.5033 Y-1.4438
X0.5053 Y-1.4622
X0.508 Y-1.4805
X0.5113 Y-1.4988
X0.5154 Y-1.5169
X0.5201 Y-1.5348
X0.5255 Y-1.5526
X0.5316 Y-1.5701
X0.5384 Y-1.5874
X0.5458 Y-1.6044
X0.5538 Y-1.6211
X0.5625 Y-1.6375
X0.5718 Y-1.6536
X0.5818 Y-1.6693
X0.5923 Y-1.6846
X0.6033 Y-1.6995
X0.615 Y-1.7139
X0.6272 Y-1.7279
X0.6399 Y-1.7415
X0.6531 Y-1.7545
X0.6668 Y-1.7671
X0.6809 Y-1.7791
X0.6956 Y-1.7905
X0.7106 Y-1.8014
X0.7261 Y-1.8117
X0.7419 Y-1.8214
X0.7581 Y-1.8305
X0.7746 Y-1.839
X0.7914 Y-1.8469
X0.8086 Y-1.8541
X0.826 Y-1.8606
X0.8436 Y-1.8665
X0.8614 Y-1.8717
X0.8795 Y-1.8762
X0.8977 Y-1.8801
X0.916 Y-1.8832
X0.9345 Y-1.8856
X0.953 Y-1.8874
X0.9716 Y-1.8884
X0.9903 Y-1.8887
X1.009 Y-1.8883
X1.0276 Y-1.8872
X1.0463 Y-1.8854
X1.0649 Y-1.8829
X1.0833 Y-1.8796
X1.1017 Y-1.8757
X1.12 Y-1.871
X1.1381 Y-1.8657
X1.156 Y-1.8596
X1.1737 Y-1.8529
X1.1912 Y-1.8454
X1.2084 Y-1.8373
X1.2253 Y-1.8286
X1.2419 Y-1.8191
X1.2582 Y-1.8091
X1.2741 Y-1.7984
X1.2896 Y-1.7871
X1.3047 Y-1.7752
X1.3193 Y-1.7627
X1.3335 Y-1.7496
X1.3471 Y-1.736
X1.3603 Y-1.7218
X1.3729 Y-1.7072
X1.385 Y-1.6921
X1.3965 Y-1.6765
X1.4074 Y-1.6605
X1.4176 Y-1.6441
X1.4273 Y-1.6273
X1.4363 Y-1.6101
X1.4446 Y-1.5926
X1.4523 Y-1.5748
X1.4593 Y-1.5568
X1.4656 Y-1.5385
X1.4711 Y-1.52
X1.476 Y-1.5013
X1.4801 Y-1.4824
X1.4836 Y-1.4634
X1.4863 Y-1.4443
X1.4882 Y-1.4251
X1.4895 Y-1.4059
X1.49 Y-1.3866
X1.4897 Y-1.3674
X1.4888 Y-1.3482
X1.4871 Y-1.329
X1.4846 Y-1.31
X1.4815 Y-1.291
X1.4776 Y-1.2722
X1.4731 Y-1.2536
X1.4678 Y-1.2351
X1.4618 Y-1.2169
X1.4551 Y-1.1989
X1.4478 Y-1.1812
X1.4398 Y-1.1638
X1.4311 Y-1.1467
X1.4218 Y-1.1299
X1.4118 Y-1.1135
X1.4012 Y-1.0975
X1.3901 Y-1.0819
X1.3783 Y-1.0668
X1.366 Y-1.052
X1.3531 Y-1.0378
X1.3396 Y-1.0241
X1.3256 Y-1.0108
X1.3112 Y-0.9981
X1.2962 Y-0.986
X1.2808 Y-0.9744
X1.2649 Y-0.9634
X1.2487 Y-0.953
X1.232 Y-0.9432
X1.2149 Y-0.9341
X1.1975 Y-0.9256
X1.1798 Y-0.9178
X1.1617 Y-0.9106
X1.1434 Y-0.9041
X1.1249 Y-0.8984
X1.1061 Y-0.8933
X1.0871 Y-0.889
X1.0679 Y-0.8853
X1.0486 Y-0.8824
X1.0292 Y-0.8803
X1.0097 Y-0.8788
X0.9901 Y-0.8782
X0.9705
X0.9509 Y-0.879
X0.9313 Y-0.8806
X0.9118 Y-0.8829
X0.8924 Y-0.886
X0.8731 Y-0.8898
X0.8539 Y-0.8943
X0.8349 Y-0.8995
X0.8161 Y-0.9055
X0.7975 Y-0.9122
X0.7791 Y-0.9197
X0.7611 Y-0.9278
X0.7433 Y-0.9366
X0.7259 Y-0.946
X0.7089 Y-0.9562
X0.6922 Y-0.967
X0.676 Y-0.9784
X0.6602 Y-0.9904
X0.6449 Y-1.0031
X0.63 Y-1.0163
X0.6156 Y-1.0301
X0.6018 Y-1.0444
X0.5885 Y-1.0593
X0.5758 Y-1.0746
X0.5637 Y-1.0905
X0.5522 Y-1.1068
X0.5413 Y-1.1235
X0.5311 Y-1.1406
X0.5215 Y-1.1582
X0.5126 Y-1.176
X0.5043 Y-1.1942
X0.4968 Y-1.2128
X0.49 Y-1.2316
X0.4839 Y-1.2506
X0.4785 Y-1.2699
X0.4739 Y-1.2894
X0.47 Y-1.309
X0.4668 Y-1.3288
X0.4644 Y-1.3487
X0.4628 Y-1.3686
X0.4619 Y-1.3887
X0.4618 Y-1.4087
X0.4625 Y-1.4287
X0.4639 Y-1.4487
X0.466 Y-1.4687
X0.469 Y-1.4885
X0.4727 Y-1.5082
X0.4771 Y-1.5278
X0.4823 Y-1.5472
X0.4882 Y-1.5663
X0.4949 Y-1.5853
X0.5022 Y-1.6039
X0.5103 Y-1.6223
X0.519 Y-1.6404
X0.5285 Y-1.6581
X0.5386 Y-1.6754
X0.5494 Y-1.6924
X0.5608 Y-1.7089
X0.5728 Y-1.725
X0.5854 Y-1.7406
X0.5986 Y-1.7557
X0.6124 Y-1.7703
X0.6268 Y-1.7844
X0.6416 Y-1.7979
X0.657 Y-1.8108
X0.6728 Y-1.8232
X0.6891 Y-1.8349
X0.7059 Y-1.846
X0.723 Y-1.8565
X0.7406 Y-1.8663
X0.7585 Y-1.8754
X0.7767 Y-1.8838
X0.7952 Y-1.8916
X0.8141 Y-1.8986
X0.8332 Y-1.9049
X0.8525 Y-1.9105
X0.872 Y-1.9153
X0.8917 Y-1.9194
X0.9116 Y-1.9228
X0.9316 Y-1.9253
X0.9517 Y-1.9272
X0.9718 Y-1.9282
X0.992 Y-1.9285
X1.0123 Y-1.928
X1.0325 Y-1.9268
X1.0526 Y-1.9248
X1.0727 Y-1.922
X1.0928 Y-1.9184
X1.1127 Y-1.9141
X1.1324 Y-1.909
X1.152 Y-1.9031
X1.1713 Y-1.8965
X1.1904 Y-1.8892
X1.2093 Y-1.8811
X1.2279 Y-1.8723
X1.2461 Y-1.8628
X1.264 Y-1.8526
X1.2815 Y-1.8416
X1.2987 Y-1.83
X1.3153 Y-1.8178
X1.3316 Y-1.8049
X1.3473 Y-1.7914
X1.3626 Y-1.7772
X1.3773 Y-1.7625
X1.3914 Y-1.7473
X1.405 Y-1.7314
X1.4179 Y-1.7151
X1.4302 Y-1.6983
X1.4419 Y-1.681
X1.4529 Y-1.6633
X1.4633 Y-1.6452
X1.4729 Y-1.6267
X1.4819 Y-1.6078
X1.4901 Y-1.5886
X1.4975 Y-1.5691
X1.5043 Y-1.5494
X1.5102 Y-1.5294
X1.5154 Y-1.5092
X1.5198 Y-1.4889
X1.5235 Y-1.4683
X1.5263 Y-1.4477
X1.5284 Y-1.427
X1.5296 Y-1.4063
X1.5301 Y-1.3855
X1.5298 Y-1.3647
X1.5287 Y-1.344
X1.5268 Y-1.3233
X1.5241 Y-1.3028
X1.5207 Y-1.2823
X1.5165 Y-1.262
X1.5115 Y-1.2419
X1.5057 Y-1.222
X1.4992 Y-1.2023
X1.4919 Y-1.1829
X1.4839 Y-1.1638
X1.4752 Y-1.145
X1.4658 Y-1.1266
X1.4557 Y-1.1085
X1.4449 Y-1.0908
X1.4334 Y-1.0735
X1.4213 Y-1.0567
X1.4085 Y-1.0404
X1.3951 Y-1.0245
X1.3812 Y-1.0091
X1.3666 Y-0.9943
X1.3515 Y-0.9801
X1.3358 Y-0.9664
X1.3196 Y-0.9533
X1.3029 Y-0.9409
X1.2858 Y-0.929
X1.2682 Y-0.9179
X1.2501 Y-0.9074
X1.2317 Y-0.8975
X1.2129 Y-0.8884
X1.1937 Y-0.88
X1.1742 Y-0.8724
X1.1544 Y-0.8654
X1.1344 Y-0.8593
X1.1141 Y-0.8539
X1.0984 Y-0.8503
X1.0889 Y-0.8485
X1.0793 Y-0.8475
X1.0697 Y-0.8471
X0.9382
X0.9114 Y-0.8484
X0.8952 Y-0.8499
X0.8785 Y-0.852
X0.8616 Y-0.8548
X0.8443 Y-0.8584
X0.8265 Y-0.8627
X0.8084 Y-0.8679
X0.7901 Y-0.8739
X0.7717 Y-0.8807
X0.7533 Y-0.8883
X0.735 Y-0.8968
X0.7168 Y-0.906
X0.6988 Y-0.916
X0.6811 Y-0.9267
X0.6637 Y-0.9382
X0.6467 Y-0.9504
X0.6301 Y-0.9633
X0.6139 Y-0.9768
X0.5982 Y-0.991
X0.583 Y-1.0059
X0.5684 Y-1.0213
X0.5543 Y-1.0373
X0.5409 Y-1.0539
X0.528 Y-1.0709
X0.5158 Y-1.0885
X0.5043 Y-1.1066
X0.4935 Y-1.1251
X0.4833 Y-1.144
X0.4739 Y-1.1633
X0.4652 Y-1.183
X0.4573 Y-1.203
X0.4501 Y-1.2232
X0.4437 Y-1.2438
X0.4429 Y-1.2467
X0.4404 Y-1.2578
X0.4389 Y-1.2691
X0.4384 Y-1.2805
Y-1.4679
X0.4399 Y-1.4976
X0.4411 Y-1.5111
X0.4429 Y-1.5253
X0.4453 Y-1.5399
X0.4485 Y-1.5553
X0.4525 Y-1.5715
X0.4573 Y-1.5882
X0.4628 Y-1.6052
X0.4691 Y-1.6222
X0.4763 Y-1.6395
X0.4843 Y-1.6569
X0.4932 Y-1.6744
X0.5029 Y-1.6919
X0.5134 Y-1.7092
X0.5247 Y-1.7264
X0.5368 Y-1.7432
X0.5496 Y-1.7597
X0.5631 Y-1.7758
X0.5772 Y-1.7915
X0.5921 Y-1.8066
X0.6075 Y-1.8213
X0.6236 Y-1.8354
X0.6402 Y-1.8489
X0.6573 Y-1.8618
X0.6749 Y-1.874
X0.6931 Y-1.8856
X0.7116 Y-1.8965
X0.7306 Y-1.9066
X0.75 Y-1.9161
X0.7698 Y-1.9248
X0.7898 Y-1.9328
X0.8102 Y-1.94
X0.8309 Y-1.9464
X0.8518 Y-1.9521
X0.8729 Y-1.9569
X0.8942 Y-1.961
X0.9156 Y-1.9642
X0.9372 Y-1.9666
X0.9589 Y-1.9682
X0.9806 Y-1.9689
X1.0024
X1.0242 Y-1.968
X1.0459 Y-1.9662
X1.0676 Y-1.9637
X1.0892 Y-1.9603
X1.1107 Y-1.9561
X1.1321 Y-1.9511
X1.1532 Y-1.9452
X1.1742 Y-1.9385
X1.1949 Y-1.9311
X1.2154 Y-1.9228
X1.2355 Y-1.9138
X1.2553 Y-1.9039
X1.2748 Y-1.8933
X1.2938 Y-1.882
X1.3125 Y-1.8699
X1.3307 Y-1.8572
X1.3484 Y-1.8437
X1.3656 Y-1.8295
X1.3822 Y-1.8147
X1.3983 Y-1.7992
X1.4138 Y-1.7832
X1.4287 Y-1.7665
X1.443 Y-1.7493
X1.4566 Y-1.7315
X1.4695 Y-1.7132
X1.4817 Y-1.6945
X1.4932 Y-1.6753
X1.504 Y-1.6556
X1.514 Y-1.6356
X1.5232 Y-1.6152
X1.5317 Y-1.5943
X1.536 Y-1.5799
X1.5386 Y-1.565
X1.5395 Y-1.55
Y-1.2657
X1.5386 Y-1.2484
X1.5377 Y-1.238
X1.5363 Y-1.2268
X1.5342 Y-1.2144
X1.5317 Y-1.2019
X1.5283 Y-1.1883
X1.5242 Y-1.1738
X1.5193 Y-1.1588
X1.5136 Y-1.1436
X1.5071 Y-1.1278
X1.4996 Y-1.1114
X1.4911 Y-1.0948
X1.4818 Y-1.0779
X1.4715 Y-1.0611
X1.4605 Y-1.0443
X1.4487 Y-1.0278
X1.436 Y-1.0115
X1.4226 Y-0.9955
X1.4083 Y-0.9797
X1.3933 Y-0.9644
X1.3776 Y-0.9495
X1.3613 Y-0.9351
X1.3443 Y-0.9213
X1.3267 Y-0.9081
X1.3085 Y-0.8955
X1.2898 Y-0.8836
X1.2706 Y-0.8723
X1.251 Y-0.8618
X1.2479 Y-0.8603
X1.2343 Y-0.8546
X1.2202 Y-0.8504
X1.2057 Y-0.8479
X1.1909 Y-0.8471
X1.0697
G3 X1.0426 Y-0.8601 I0.0013 J-0.0375
X1.0462 Y-0.9127 I0.0284 J-0.0245 F300.
G1 X1.4772 Y-1.2925
G3 X1.5265 Y-1.2928 I0.0248 J0.0281
X1.5395 Y-1.2657 I-0.0245 J0.0284 F50.
G1 Y-1.1758
X1.5388 Y-1.1612
X1.5381 Y-1.154
X1.5372 Y-1.1465
X1.5358 Y-1.1379
X1.534 Y-1.1291
X1.5315 Y-1.1191
X1.5286 Y-1.1089
X1.525 Y-1.0978
X1.5205 Y-1.0858
X1.5155 Y-1.0737
X1.5095 Y-1.0608
X1.5026 Y-1.0471
X1.4948 Y-1.033
X1.4862 Y-1.0189
X1.4765 Y-1.0042
X1.4658 Y-0.9892
X1.454 Y-0.9739
X1.4411 Y-0.9586
X1.4274 Y-0.9435
X1.4129 Y-0.9287
X1.3975 Y-0.9141
X1.3813 Y-0.8998
X1.3641 Y-0.8858
X1.3473 Y-0.8732
X1.3431 Y-0.8703
X1.3261 Y-0.8603
X1.3078 Y-0.853
X1.2887 Y-0.8486
X1.269 Y-0.8471
X1.1909
G3 X1.1638 Y-0.8601 I0.0013 J-0.0375
X1.1666 Y-0.912 I0.0284 J-0.0245 F300.
G1 X1.4764 Y-1.2019
G3 X1.5265 Y-1.2029 I0.0256 J0.0274
X1.5395 Y-1.1758 I-0.0245 J0.0284 F50.
G1 Y-1.1022
X1.539 Y-1.0919
X1.5385 Y-1.0859
X1.5377 Y-1.0796
X1.5365 Y-1.0725
X1.535 Y-1.0653
X1.533 Y-1.057
X1.5305 Y-1.0485
X1.5275 Y-1.0393
X1.5238 Y-1.0293
X1.5196 Y-1.0191
X1.5144 Y-1.0079
X1.5085 Y-0.9963
X1.5019 Y-0.9844
X1.4942 Y-0.9717
X1.4855 Y-0.9585
X1.476 Y-0.9453
X1.4655 Y-0.9318
X1.4539 Y-0.9178
X1.4411 Y-0.9038
X1.4305 Y-0.8929
X1.4193 Y-0.8822
X1.416 Y-0.8794
X1.4011 Y-0.8681
X1.3848 Y-0.8591
X1.3673 Y-0.8525
X1.349 Y-0.8485
X1.3303 Y-0.8471
G3 X1.3032 Y-0.8601 I0.0013 J-0.0375
X1.3022 Y-0.9078 I0.0284 J-0.0245 F300.
G1 X1.4726 Y-1.1241
G3 X1.5265 Y-1.1293 I0.0295 J0.0232
X1.5395 Y-1.1022 I-0.0245 J0.0284 F50.
G1 Y-1.0409
X1.539 Y-1.0305
X1.5385 Y-1.0245
X1.5377 Y-1.0185
X1.5366 Y-1.0124
X1.5351 Y-1.0056
X1.5333 Y-0.9983
X1.5311 Y-0.9907
X1.5282 Y-0.9822
X1.525 Y-0.9736
X1.521 Y-0.9641
X1.5163 Y-0.9542
X1.5111 Y-0.944
X1.5051 Y-0.9335
X1.4984 Y-0.9227
X1.4921 Y-0.9133
X1.4855 Y-0.9042
X1.4787 Y-0.8955
X1.4765 Y-0.8929
X1.4633 Y-0.8795
X1.4484 Y-0.8682
X1.432 Y-0.8591
X1.4145 Y-0.8525
X1.3962 Y-0.8485
X1.3775 Y-0.8471
G3 X1.3504 Y-0.8601 I0.0013 J-0.0375
X1.3494 Y-0.9079 I0.0284 J-0.0245 F300.
G1 X1.4727 Y-1.063
G3 X1.5265 Y-1.068 I0.0294 J0.0233
X1.5395 Y-1.0409 I-0.0245 J0.0284 F50.
G1 Y-0.9814
X1.5392 Y-0.9745
X1.5386 Y-0.9685
X1.5378 Y-0.9626
X1.5368 Y-0.9567
X1.5354 Y-0.9506
X1.5338 Y-0.9443
X1.5318 Y-0.9377
X1.5296 Y-0.9315
X1.5273 Y-0.9255
X1.5243 Y-0.9186
X1.5214 Y-0.9125
X1.5186 Y-0.9072
X1.5085 Y-0.8924
X1.4962 Y-0.8792
X1.4822 Y-0.868
X1.4666 Y-0.859
X1.4499 Y-0.8524
X1.4324 Y-0.8484
X1.4145 Y-0.8471
G3 X1.3874 Y-0.8601 I0.0013 J-0.0375
X1.388 Y-0.9097 I0.0284 J-0.0245 F300.
G1 X1.4742 Y-1.0052
G3 X1.5265 Y-1.0085 I0.0278 J0.0251
X1.5395 Y-0.9814 I-0.0245 J0.0284 F50.
G1 Y-0.9336
X1.5392 Y-0.9276
X1.5386 Y-0.9217
X1.5377 Y-0.9158
X1.5329 Y-0.9016
X1.5258 Y-0.8883
X1.5166 Y-0.8765
X1.5056 Y-0.8663
X1.4931 Y-0.8581
X1.4794 Y-0.852
X1.4648 Y-0.8483
X1.4499 Y-0.8471
G3 X1.4228 Y-0.8601 I0.0013 J-0.0375
X1.4255 Y-0.9119 I0.0284 J-0.0245 F300.
G1 X1.4763 Y-0.9597
G3 X1.5265 Y-0.9607 I0.0257 J0.0273
X1.5395 Y-0.9336 I-0.0245 J0.0284 F50.
G1 Y-0.9061
X1.5394 Y-0.9027
X1.5388 Y-0.8967
X1.5379 Y-0.8908
X1.533 Y-0.879
X1.5259 Y-0.8685
X1.5166 Y-0.8597
X1.5057 Y-0.853
X1.4937 Y-0.8488
X1.481 Y-0.8472
G3 X1.4518 Y-0.8559 I0.0008 J-0.056
X1.4297 Y-0.9234 I0.0301 J-0.0472 F300.
X1.5313 Y-0.9322 I0.0529 J0.0205
X1.5394 Y-0.9027 I-0.0486 J0.0293 F50.
G1 X1.5391 Y-0.8949
X1.538 Y-0.8836
X1.5371 Y-0.878
X1.5354 Y-0.8724
X1.533 Y-0.8676
X1.5309 Y-0.8644
X1.5283 Y-0.8612
X1.525 Y-0.858
X1.5218 Y-0.8554
X1.5162 Y-0.8521
X1.5103 Y-0.8499
X1.4993 Y-0.8482
X1.4881 Y-0.8473
X1.4769 Y-0.8471
X1.269
G3 X1.2481 Y-0.8544 I0.0013 J-0.0375
G1 X1.2413 Y-0.8594
X0.4537 Y-1.439 F300.
X0.4514 Y-1.4408
G3 X0.4384 Y-1.4679 I0.0245 J-0.0284 F50.
G1 Y-1.5803
X0.4392 Y-1.595
X0.4399 Y-1.6027
X0.441 Y-1.6114
X0.4424 Y-1.6204
X0.4445 Y-1.6305
X0.4471 Y-1.6409
X0.4503 Y-1.6523
X0.4544 Y-1.6646
X0.4589 Y-1.6769
X0.4645 Y-1.6902
X0.4709 Y-1.7044
X0.4782 Y-1.7188
X0.4863 Y-1.7333
X0.4954 Y-1.7483
X0.5056 Y-1.7637
X0.5168 Y-1.7793
X0.5289 Y-1.795
X0.5419 Y-1.8105
X0.5557 Y-1.8257
X0.5703 Y-1.8407
X0.5857 Y-1.8553
X0.602 Y-1.8695
X0.6189 Y-1.8834
X0.6366 Y-1.8967
X0.655 Y-1.9094
X0.674 Y-1.9215
X0.6935 Y-1.9329
X0.7135 Y-1.9437
X0.734 Y-1.9537
X0.755 Y-1.963
X0.7763 Y-1.9714
X0.798 Y-1.9791
X0.8201 Y-1.986
X0.8424 Y-1.992
X0.8649 Y-1.9972
X0.8877 Y-2.0015
X0.9107 Y-2.0049
X0.9338 Y-2.0075
X0.957 Y-2.0092
X0.9803 Y-2.01
X1.0036 Y-2.0099
X1.0269 Y-2.009
X1.0502 Y-2.0071
X1.0735 Y-2.0044
X1.0967 Y-2.0008
X1.1197 Y-1.9962
X1.1426 Y-1.9908
X1.1652 Y-1.9846
X1.1877 Y-1.9774
X1.2099 Y-1.9694
X1.2318 Y-1.9606
X1.2534 Y-1.9509
X1.2746 Y-1.9404
X1.2954 Y-1.929
X1.3158 Y-1.9169
X1.3358 Y-1.904
X1.3552 Y-1.8903
X1.3742 Y-1.8759
X1.3926 Y-1.8607
X1.4104 Y-1.8449
X1.4276 Y-1.8283
X1.4442 Y-1.8111
X1.4602 Y-1.7933
X1.4754 Y-1.7749
X1.49 Y-1.7559
X1.5038 Y-1.7363
X1.5169 Y-1.7163
X1.5211 Y-1.7092
X1.529 Y-1.6936
X1.5348 Y-1.6771
X1.5383 Y-1.66
X1.5395 Y-1.6425
Y-1.55
G3 X1.5306 Y-1.527 I-0.0375 J-0.0013
G1 X1.5268 Y-1.5226
X0.9655 Y-0.8603 F300.
X0.9653 Y-0.8601
G3 X0.9382 Y-0.8471 I-0.0284 J-0.0245 F50.
G1 X0.8198
X0.8051 Y-0.8478
X0.7965 Y-0.8486
X0.7878 Y-0.8497
X0.7779 Y-0.8514
X0.7675 Y-0.8535
X0.7563 Y-0.8562
X0.744 Y-0.8597
X0.7316 Y-0.8638
X0.7183 Y-0.8687
X0.7041 Y-0.8746
X0.6895 Y-0.8813
X0.6748 Y-0.8888
X0.6595 Y-0.8973
X0.6439 Y-0.9068
X0.628 Y-0.9172
X0.612 Y-0.9287
X0.5961 Y-0.9411
X0.5804 Y-0.9542
X0.5649 Y-0.9682
X0.5498 Y-0.9829
X0.5351 Y-0.9985
X0.5207 Y-1.0149
X0.5068 Y-1.032
X0.4935 Y-1.0497
X0.4807 Y-1.0681
X0.4686 Y-1.0871
X0.4571 Y-1.1066
X0.4539 Y-1.1127
X0.4472 Y-1.1272
X0.4424 Y-1.1425
X0.4394 Y-1.1582
X0.4384 Y-1.1741
Y-1.2805
G3 X0.4514 Y-1.3076 I0.0375 J0.0013
X0.5042 Y-1.3038 I0.0245 J0.0284 F300.
G1 X0.8468 Y-0.9092
G3 Y-0.8601 I-0.0283 J0.0246
X0.8198 Y-0.8471 I-0.0284 J-0.0245 F50.
G1 X0.7412
X0.7282 Y-0.8478
X0.722 Y-0.8483
X0.7148 Y-0.8492
X0.7075 Y-0.8504
X0.6992 Y-0.8521
X0.6906 Y-0.8542
X0.6811 Y-0.857
X0.671 Y-0.8603
X0.6605 Y-0.8641
X0.649 Y-0.8689
X0.6372 Y-0.8744
X0.6249 Y-0.8806
X0.6118 Y-0.8879
X0.5981 Y-0.8962
X0.5846 Y-0.9051
X0.5706 Y-0.9151
X0.5562 Y-0.9263
X0.5415 Y-0.9386
X0.5268 Y-0.9519
X0.5122 Y-0.9662
X0.4979 Y-0.9812
X0.4839 Y-0.9972
X0.4709 Y-1.0132
X0.4645 Y-1.0217
X0.4553 Y-1.0357
X0.448 Y-1.0508
X0.4427 Y-1.0666
X0.4395 Y-1.0831
X0.4384 Y-1.0998
Y-1.1741
G3 X0.4514 Y-1.2012 I0.0375 J0.0013
X0.5036 Y-1.1981 I0.0245 J0.0284 F300.
G1 X0.7675 Y-0.9099
G3 X0.7683 Y-0.8601 I-0.0277 J0.0253
X0.7412 Y-0.8471 I-0.0284 J-0.0245 F50.
G1 X0.6738
X0.6636 Y-0.8476
X0.6576 Y-0.8481
X0.6516 Y-0.8489
X0.6451 Y-0.85
X0.6379 Y-0.8515
X0.6304 Y-0.8534
X0.6221 Y-0.8558
X0.6136 Y-0.8586
X0.6043 Y-0.8621
X0.5943 Y-0.8662
X0.5842 Y-0.8709
X0.5731 Y-0.8766
X0.5616 Y-0.883
X0.5499 Y-0.8902
X0.5374 Y-0.8984
X0.5244 Y-0.9078
X0.5114 Y-0.9179
X0.4986 Y-0.9287
X0.4878 Y-0.9386
X0.4776 Y-0.9486
X0.4738 Y-0.9526
X0.4615 Y-0.9679
X0.4516 Y-0.9848
X0.4443 Y-1.0031
X0.4399 Y-1.0222
X0.4384 Y-1.0417
G3 X0.4514 Y-1.0688 I0.0375 J0.0013
X0.4992 Y-1.0698 I0.0245 J0.0284 F300.
G1 X0.6958 Y-0.914
G3 X0.7009 Y-0.8601 I-0.0233 J0.0294
X0.6738 Y-0.8471 I-0.0284 J-0.0245 F50.
G1 X0.6127
X0.6051 Y-0.8475
X0.5991 Y-0.848
X0.5931 Y-0.8488
X0.587 Y-0.8499
X0.5806 Y-0.8513
X0.5734 Y-0.8531
X0.5661 Y-0.8553
X0.558 Y-0.8581
X0.5495 Y-0.8613
X0.5407 Y-0.8651
X0.5314 Y-0.8695
X0.5217 Y-0.8745
X0.5126 Y-0.8797
X0.5047 Y-0.8847
X0.4958 Y-0.8907
X0.4884 Y-0.8961
X0.4876 Y-0.8967
X0.4733 Y-0.9099
X0.4611 Y-0.9251
X0.4514 Y-0.942
X0.4442 Y-0.9601
X0.4399 Y-0.9791
X0.4384 Y-0.9985
G3 X0.4514 Y-1.0256 I0.0375 J0.0013
X0.4999 Y-1.026 I0.0245 J0.0284 F300.
G1 X0.6353 Y-0.9134
G3 X0.6398 Y-0.8601 I-0.024 J0.0288
X0.6127 Y-0.8471 I-0.0284 J-0.0245 F50.
G1 X0.5566
X0.5506 Y-0.8474
X0.5446 Y-0.8479
X0.5387 Y-0.8488
X0.5328 Y-0.8499
X0.5269 Y-0.8513
X0.5211 Y-0.8529
X0.5154 Y-0.8547
X0.5096 Y-0.8569
X0.504 Y-0.8592
X0.488 Y-0.8683
X0.4737 Y-0.8799
X0.4615 Y-0.8936
X0.4516 Y-0.9092
X0.4444 Y-0.9261
X0.4399 Y-0.9439
X0.4384 Y-0.9623
G3 X0.4514 Y-0.9894 I0.0375 J0.0013
X0.5019 Y-0.988 I0.0245 J0.0284 F300.
G1 X0.5813 Y-0.9116
G3 X0.5837 Y-0.8601 I-0.026 J0.027
X0.5566 Y-0.8471 I-0.0284 J-0.0245 F50.
G1 X0.5139
X0.508 Y-0.8474
X0.502 Y-0.8482
X0.4961 Y-0.8494
X0.4824 Y-0.8549
X0.47 Y-0.8629
X0.4591 Y-0.8729
X0.4503 Y-0.8847
X0.4438 Y-0.898
X0.4398 Y-0.9122
X0.4384 Y-0.9269
G3 X0.4459 Y-0.9567 I0.0735 J0.0026
X0.5346 Y-0.9942 I0.066 J0.0323 F300.
X0.5438 Y-0.8544 I-0.0233 J0.0717
X0.5139 Y-0.8471 I-0.0325 J-0.0681 F50.
G1 X0.5004
X0.4892 Y-0.8473
X0.4845 Y-0.8477
X0.4786 Y-0.8485
X0.4727 Y-0.8499
X0.4623 Y-0.8552
X0.4533 Y-0.8626
X0.4462 Y-0.8719
X0.4414 Y-0.8825
X0.439 Y-0.8939
G3 X0.4467 Y-0.9233 I0.0484 J-0.0029
X0.5115 Y-0.9389 I0.0407 J0.0265 F300.
X0.5139 Y-0.8555 I-0.0243 J0.0424
X0.4845 Y-0.8477 I-0.0267 J-0.041 F50.
G1 X0.478 Y-0.8483
X0.4678 Y-0.8499
X0.4668 Y-0.8502
X0.4612 Y-0.8525
X0.4556 Y-0.8559
X0.4526 Y-0.8583
X0.4497 Y-0.8612
X0.4466 Y-0.8649
X0.4443 Y-0.8687
X0.4426 Y-0.8724
X0.4408 Y-0.878
X0.4399 Y-0.8836
X0.4389 Y-0.8949
X0.4384 Y-0.9061
Y-1.0998
G3 X0.4503 Y-1.1259 I0.0375 J0.0013
G1 X0.4514 Y-1.1269
G2 X0.5221 Y-1.2303 I-0.2008 J-0.2131 F300.
X0.5249 Y-1.2444 I-0.0348 J-0.014
G1 Y-1.4357
G2 X0.5221 Y-1.4497 I-0.0375 J0.
X0.4514 Y-1.5532 I-0.2715 J0.1097
G1 X0.4503 Y-1.5542 F50.
G3 X0.4384 Y-1.5803 I0.0256 J-0.0274
G1 Y-1.6589
X0.4389 Y-1.6686
X0.4395 Y-1.6746
X0.4403 Y-1.6815
X0.4415 Y-1.6886
X0.4431 Y-1.6966
X0.4452 Y-1.7051
X0.4478 Y-1.7141
X0.4511 Y-1.724
X0.4548 Y-1.7341
X0.4594 Y-1.7451
X0.4648 Y-1.7569
X0.4707 Y-1.7687
X0.4777 Y-1.7813
X0.4858 Y-1.7946
X0.4947 Y-1.808
X0.5044 Y-1.8216
X0.5153 Y-1.8356
X0.5273 Y-1.8499
X0.5404 Y-1.8644
X0.5545 Y-1.8788
X0.5694 Y-1.893
X0.5852 Y-1.9068
X0.6019 Y-1.9204
X0.6196 Y-1.9337
X0.6381 Y-1.9466
X0.6575 Y-1.9589
X0.6776 Y-1.9707
X0.6983 Y-1.9818
X0.7197 Y-1.9923
X0.7416 Y-2.0019
X0.764 Y-2.0108
X0.7868 Y-2.0189
X0.8101 Y-2.0261
X0.8337 Y-2.0325
X0.8576 Y-2.038
X0.8817 Y-2.0426
X0.9061 Y-2.0462
X0.9307 Y-2.049
X0.9554 Y-2.0508
X0.9802 Y-2.0517
X1.005 Y-2.0516
X1.0299 Y-2.0505
X1.0548 Y-2.0486
X1.0796 Y-2.0456
X1.1043 Y-2.0418
X1.1289 Y-2.037
X1.1533 Y-2.0312
X1.1775 Y-2.0245
X1.2014 Y-2.0169
X1.2251 Y-2.0083
X1.2485 Y-1.9989
X1.2715 Y-1.9886
X1.2942 Y-1.9773
X1.3164 Y-1.9652
X1.3381 Y-1.9523
X1.3594 Y-1.9385
X1.3802 Y-1.9239
X1.4004 Y-1.9086
X1.42 Y-1.8924
X1.439 Y-1.8755
X1.4574 Y-1.8579
X1.4751 Y-1.8395
X1.4921 Y-1.8205
X1.5052 Y-1.8046
X1.5127 Y-1.7948
X1.5222 Y-1.7807
X1.5296 Y-1.7655
X1.5351 Y-1.7494
X1.5384 Y-1.7328
X1.5395 Y-1.7158
Y-1.6425
G3 X1.5265 Y-1.6154 I-0.0375 J-0.0013
X1.5014 Y-1.6063 I-0.0245 J-0.0284 F300.
G1 X0.4753 Y-1.6228
G3 X0.4514 Y-1.6318 I0.0006 J-0.0375
X0.4384 Y-1.6589 I0.0245 J-0.0284 F50.
G1 Y-1.7213
X0.439 Y-1.7322
X0.4395 Y-1.7381
X0.4403 Y-1.7442
X0.4414 Y-1.7504
X0.4429 Y-1.7576
X0.4447 Y-1.7648
X0.447 Y-1.7729
X0.4499 Y-1.7814
X0.4532 Y-1.7903
X0.4574 Y-1.8002
X0.462 Y-1.8101
X0.4675 Y-1.8208
X0.4739 Y-1.8323
X0.4809 Y-1.8437
X0.489 Y-1.8558
X0.4982 Y-1.8685
X0.5083 Y-1.8815
X0.5192 Y-1.8943
X0.5313 Y-1.9076
X0.5446 Y-1.9211
X0.5592 Y-1.9347
X0.5748 Y-1.9483
X0.5913 Y-1.9616
X0.6086 Y-1.9745
X0.627 Y-1.9871
X0.6464 Y-1.9994
X0.6668 Y-2.0112
X0.688 Y-2.0224
X0.71 Y-2.033
X0.7326 Y-2.0429
X0.7559 Y-2.052
X0.7798 Y-2.0603
X0.7806 Y-2.0606
X0.7931 Y-2.0637
X0.8058 Y-2.0656
X0.8186 Y-2.0663
X1.1065
X1.1331 Y-2.0649
X1.1466 Y-2.0638
X1.1605 Y-2.062
X1.1761 Y-2.0594
X1.1927 Y-2.056
X1.2097 Y-2.0518
X1.2281 Y-2.0466
X1.2475 Y-2.0402
X1.2677 Y-2.0327
X1.2879 Y-2.0244
X1.3085 Y-2.0149
X1.3294 Y-2.0043
X1.3507 Y-1.9925
X1.3719 Y-1.9796
X1.393 Y-1.9657
X1.4139 Y-1.9507
X1.4344 Y-1.9348
X1.4545 Y-1.918
X1.4733 Y-1.901
X1.4881 Y-1.8865
X1.5004 Y-1.8735
X1.5094 Y-1.8633
X1.5104 Y-1.862
X1.5206 Y-1.8475
X1.5288 Y-1.8318
X1.5347 Y-1.8151
X1.5383 Y-1.7977
X1.5395 Y-1.7801
Y-1.7158
G3 X1.5265 Y-1.6887 I-0.0375 J-0.0013
X1.4788 Y-1.6877 I-0.0245 J-0.0284 F300.
G1 X1.0846 Y-1.9994
G3 X1.0794 Y-2.0533 I0.0233 J-0.0294
X1.1065 Y-2.0663 I0.0284 J0.0245 F50.
G1 X1.2187
X1.2347 Y-2.0655
X1.2434 Y-2.0647
X1.2524 Y-2.0636
X1.2629 Y-2.0618
X1.2736 Y-2.0596
X1.2859 Y-2.0566
X1.2984 Y-2.053
X1.3124 Y-2.0485
X1.3275 Y-2.0429
X1.3427 Y-2.0366
X1.3592 Y-2.029
X1.3769 Y-2.02
X1.3948 Y-2.01
X1.413 Y-1.999
X1.4316 Y-1.9867
X1.4498 Y-1.9737
X1.4668 Y-1.9605
X1.4796 Y-1.9498
X1.4914 Y-1.9391
X1.5002 Y-1.9305
X1.5039 Y-1.9267
X1.5163 Y-1.9114
X1.5263 Y-1.8944
X1.5336 Y-1.8761
X1.538 Y-1.8569
X1.5395 Y-1.8373
Y-1.7801
G3 X1.5265 Y-1.753 I-0.0375 J-0.0013
X1.4773 Y-1.7532 I-0.0245 J-0.0284 F300.
G1 X1.1953 Y-2.0006
G3 X1.1916 Y-2.0533 I0.0247 J-0.0282
X1.2187 Y-2.0663 I0.0284 J0.0245 F50.
G1 X1.3035
X1.3142 Y-2.0657
X1.3213 Y-2.0651
X1.3286 Y-2.0642
X1.337 Y-2.0628
X1.3457 Y-2.061
X1.3556 Y-2.0586
X1.3658 Y-2.0557
X1.377 Y-2.052
X1.3892 Y-2.0475
X1.4016 Y-2.0423
X1.415 Y-2.0362
X1.4286 Y-2.0293
X1.4422 Y-2.0217
X1.4553 Y-2.0138
X1.4664 Y-2.0064
X1.477 Y-1.9989
X1.4866 Y-1.9914
X1.494 Y-1.9852
X1.4968 Y-1.9827
X1.5093 Y-1.9697
X1.5199 Y-1.955
X1.5283 Y-1.9391
X1.5345 Y-1.9221
X1.5382 Y-1.9044
X1.5395 Y-1.8864
G3 X1.5265 Y-1.8593 I-0.0375 J-0.0013
X1.4802 Y-1.8572 I-0.0245 J-0.0284 F300.
G1 X1.283 Y-1.9983
G3 X1.2764 Y-2.0533 I0.0218 J-0.0305
X1.3035 Y-2.0663 I0.0284 J0.0245 F50.
G1 X1.3759
X1.3833 Y-2.0659
X1.3893 Y-2.0654
X1.3956 Y-2.0646
X1.4027 Y-2.0634
X1.4098 Y-2.0619
X1.4176 Y-2.06
X1.4259 Y-2.0577
X1.4342 Y-2.0549
X1.4428 Y-2.0517
X1.4513 Y-2.0482
X1.4588 Y-2.0448
X1.4669 Y-2.0407
X1.4746 Y-2.0364
X1.4812 Y-2.0324
X1.4957 Y-2.0212
X1.5085 Y-2.0082
X1.5194 Y-1.9934
X1.528 Y-1.9773
X1.5344 Y-1.9601
X1.5382 Y-1.9422
X1.5395 Y-1.924
G3 X1.5265 Y-1.8969 I-0.0375 J-0.0013
X1.4781 Y-1.8964 I-0.0245 J-0.0284 F300.
G1 X1.3532 Y-1.9999
G3 X1.3488 Y-2.0533 I0.0239 J-0.0289
X1.3759 Y-2.0663 I0.0284 J0.0245 F50.
G1 X1.432
X1.4412 Y-2.0658
X1.4472 Y-2.0653
X1.4531 Y-2.0644
X1.459 Y-2.0632
X1.4648 Y-2.0617
X1.4705 Y-2.0599
X1.4761 Y-2.0578
X1.4915 Y-2.0496
X1.5053 Y-2.0391
X1.5171 Y-2.0264
X1.5267 Y-2.0119
X1.5338 Y-1.996
X1.5381 Y-1.9791
X1.5395 Y-1.9618
G3 X1.5265 Y-1.9347 I-0.0375 J-0.0013
X1.4761 Y-1.936 I-0.0245 J-0.0284 F300.
G1 X1.4074 Y-2.0017
G3 X1.4049 Y-2.0533 I0.0259 J-0.0271
X1.432 Y-2.0663 I0.0284 J0.0245 F50.
G1 X1.4718
X1.4778 Y-2.066
X1.4838 Y-2.0652
X1.4896 Y-2.0639
X1.5015 Y-2.0588
X1.5123 Y-2.0516
X1.5217 Y-2.0427
X1.5293 Y-2.0322
X1.5349 Y-2.0206
X1.5383 Y-2.0081
X1.5395 Y-1.9952
G3 X1.5313 Y-1.9657 I-0.0658 J-0.0023
X1.4538 Y-1.9347 I-0.0576 J-0.0318 F300.
X1.4422 Y-2.0583 I0.0204 J-0.0642
X1.4718 Y-2.0663 I0.0319 J0.0593 F50.
G1 X1.4769
X1.4881 Y-2.0661
X1.4993 Y-2.0652
X1.5056 Y-2.0639
X1.5156 Y-2.06
X1.5243 Y-2.0539
X1.5313 Y-2.0458
X1.5361 Y-2.0362
X1.5384 Y-2.0258
G3 X1.529 Y-1.9971 I-0.041 J0.0025
X1.4775 Y-1.9873 I-0.0316 J-0.0262 F300.
X1.4708 Y-2.0554 I0.0201 J-0.0364
X1.4993 Y-2.0652 I0.0268 J0.0317 F50.
G1 X1.5103 Y-2.0635
X1.5162 Y-2.0613
X1.5218 Y-2.058
X1.525 Y-2.0554
X1.5283 Y-2.0522
X1.5309 Y-2.049
X1.533 Y-2.0458
X1.5354 Y-2.041
X1.5371 Y-2.0354
X1.538 Y-2.0297
X1.5391 Y-2.0185
X1.5395 Y-2.0073
Y-1.8373
G3 X1.5265 Y-1.8102 I-0.0375 J-0.0013
X1.5062 Y-1.8013 I-0.0245 J-0.0284 F300.
G1 X0.4801 Y-1.6854
G3 X0.4514 Y-1.6942 I-0.0042 J-0.0373
X0.4384 Y-1.7213 I0.0245 J-0.0284 F50.
G1 Y-1.7825
X0.4388 Y-1.7895
X0.4393 Y-1.7955
X0.4401 Y-1.8014
X0.4412 Y-1.8075
X0.4426 Y-1.8138
X0.4444 Y-1.8208
X0.4466 Y-1.8281
X0.4493 Y-1.836
X0.4525 Y-1.8445
X0.4562 Y-1.8531
X0.4608 Y-1.8627
X0.4659 Y-1.8725
X0.4717 Y-1.8827
X0.4786 Y-1.8937
X0.4862 Y-1.9049
X0.4946 Y-1.9164
X0.5043 Y-1.9285
X0.515 Y-1.941
X0.5266 Y-1.9535
X0.5392 Y-1.966
X0.5531 Y-1.9789
X0.5683 Y-1.9919
X0.5847 Y-2.0049
X0.6021 Y-2.0177
X0.6203 Y-2.03
X0.6396 Y-2.042
X0.6523 Y-2.0492
X0.6675 Y-2.0566
X0.6834 Y-2.0619
X0.6999 Y-2.0652
X0.7167 Y-2.0663
X0.8186
G3 X0.8457 Y-2.0533 I-0.0013 J0.0375
X0.8392 Y-1.9983 I-0.0284 J0.0245 F300.
G1 X0.4978 Y-1.7534
G3 X0.4514 Y-1.7554 I-0.0219 J-0.0305
X0.4384 Y-1.7825 I0.0245 J-0.0284 F50.
G1 Y-1.8365
X0.4388 Y-1.8435
X0.4393 Y-1.8494
X0.4401 Y-1.8554
X0.4412 Y-1.8613
X0.4426 Y-1.8673
X0.4443 Y-1.8738
X0.4465 Y-1.8809
X0.449 Y-1.8882
X0.4522 Y-1.8962
X0.4558 Y-1.9045
X0.46 Y-1.9133
X0.4651 Y-1.9228
X0.4706 Y-1.9323
X0.477 Y-1.9425
X0.4845 Y-1.9533
X0.4925 Y-1.9641
X0.5016 Y-1.9754
X0.512 Y-1.9873
X0.5234 Y-1.9995
X0.5355 Y-2.0114
X0.5489 Y-2.0237
X0.5616 Y-2.0344
X0.5671 Y-2.0387
X0.5813 Y-2.0484
X0.5967 Y-2.0561
X0.613 Y-2.0617
X0.6299 Y-2.0651
X0.6471 Y-2.0663
G3 X0.6742 Y-2.0533 I-0.0013 J0.0375
X0.6739 Y-2.0039 I-0.0284 J0.0245 F300.
G1 X0.5039 Y-1.8128
G3 X0.4514 Y-1.8094 I-0.028 J-0.0249
X0.4384 Y-1.8365 I0.0245 J-0.0284 F50.
G1 Y-1.8871
X0.4388 Y-1.895
X0.4394 Y-1.901
X0.4402 Y-1.9069
X0.4413 Y-1.9128
X0.4427 Y-1.9188
X0.4444 Y-1.9249
X0.4465 Y-1.9317
X0.449 Y-1.9388
X0.452 Y-1.9463
X0.4557 Y-1.9545
X0.4597 Y-1.9628
X0.4646 Y-1.9718
X0.4701 Y-1.9812
X0.4762 Y-1.9908
X0.4832 Y-2.0007
X0.4899 Y-2.0096
X0.4971 Y-2.0185
X0.5005 Y-2.0223
X0.5136 Y-2.0352
X0.5283 Y-2.0461
X0.5445 Y-2.0548
X0.5617 Y-2.0611
X0.5796 Y-2.065
X0.5979 Y-2.0663
G3 X0.625 Y-2.0533 I-0.0013 J0.0375
Y-2.0044 I-0.0284 J0.0245 F300.
G1 X0.5044 Y-1.8639
G3 X0.4514 Y-1.86 I-0.0284 J-0.0244
X0.4384 Y-1.8871 I0.0245 J-0.0284 F50.
G1 Y-1.9376
X0.4388 Y-1.9446
X0.4393 Y-1.9505
X0.4402 Y-1.9565
X0.4413 Y-1.9624
X0.4427 Y-1.9682
X0.4443 Y-1.9741
X0.4463 Y-1.9803
X0.4484 Y-1.9861
X0.4508 Y-1.9919
X0.4537 Y-1.9985
X0.4566 Y-2.0043
X0.4665 Y-2.0195
X0.4786 Y-2.0331
X0.4927 Y-2.0447
X0.5084 Y-2.054
X0.5252 Y-2.0607
X0.543 Y-2.0649
X0.5611 Y-2.0663
G3 X0.5882 Y-2.0533 I-0.0013 J0.0375
X0.5872 Y-2.0032 I-0.0284 J0.0245 F300.
G1 X0.5033 Y-1.9133
G3 X0.4514 Y-1.9105 I-0.0274 J-0.0256
X0.4384 Y-1.9376 I0.0245 J-0.0284 F50.
G1 Y-1.9825
X0.4387 Y-1.9885
X0.4393 Y-1.9945
X0.4404 Y-2.0004
X0.4451 Y-2.014
X0.452 Y-2.0267
X0.4609 Y-2.0381
X0.4715 Y-2.0479
X0.4836 Y-2.0558
X0.4969 Y-2.0616
X0.5109 Y-2.0651
X0.5253 Y-2.0663
G3 X0.5552 Y-2.0594 I-0.0028 J0.0813
X0.6003 Y-1.9615 I-0.0328 J0.0744 F300.
X0.4452 Y-1.9525 I-0.0792 J-0.0239
X0.4384 Y-1.9825 I0.0759 J-0.0329 F50.
G1 Y-2.0073
X0.4387 Y-2.0135
X0.4392 Y-2.0194
X0.4403 Y-2.0253
X0.4451 Y-2.0365
X0.4521 Y-2.0464
X0.461 Y-2.0547
X0.4715 Y-2.0609
X0.483 Y-2.0648
X0.495 Y-2.0662
G3 X0.524 Y-2.0569 I-0.0012 J0.0533
X0.5435 Y-1.9934 I-0.0302 J0.0439 F300.
X0.4472 Y-1.9842 I-0.0505 J-0.0198
X0.4387 Y-2.0135 I0.0458 J-0.0291 F50.
G1 X0.4389 Y-2.0185
X0.4399 Y-2.0297
X0.4408 Y-2.0354
X0.4426 Y-2.041
X0.4443 Y-2.0447
X0.4466 Y-2.0485
X0.4497 Y-2.0522
X0.4526 Y-2.0551
X0.4556 Y-2.0575
X0.4612 Y-2.0608
X0.4668 Y-2.0631
X0.4678 Y-2.0635
X0.478 Y-2.0651
X0.4892 Y-2.0661
X0.5004 Y-2.0663
X0.7167
G3 X0.7438 Y-2.0533 I-0.0013 J0.0375
G1 X0.7467 Y-2.0499 Z0.6696
X0.7496 Y-2.0465 Z0.6704
X0.7524 Y-2.0432 Z0.6717
X0.7551 Y-2.0401 Z0.6736
X0.7577 Y-2.0371 Z0.6759
X0.76 Y-2.0344 Z0.6787
X0.7621 Y-2.032 Z0.6819
X0.7639 Y-2.0299 Z0.6855
X0.7654 Y-2.0281 Z0.6894
X0.7667 Y-2.0267 Z0.6935
X0.7675 Y-2.0257 Z0.6978
X0.7681 Y-2.0251 Z0.7023
X0.7682 Y-2.0249 Z0.7068
G0 Z3.2233
(2D CONTOUR34)
G64 P0.0004 Q0.0004
G0 X1.437 Y-1.4351
Z3.2233
Z2.8233
G1 Z2.6627 F80.
Z0.7068
G18 G2 X1.4745 Z0.6693 I0.0375 K0. F50.
G1 X1.512
G17 G3 X1.5495 Y-1.3976 I0. J0.0375
G1 Y-0.8858
G3 X1.5008 Y-0.8371 I-0.0487 J0.
G1 X0.4772
G3 X0.4284 Y-0.8858 I0. J-0.0487
G1 Y-2.0276
G3 X0.4772 Y-2.0763 I0.0487 J0.
G1 X1.5008
G3 X1.5495 Y-2.0276 I0. J0.0487
G1 Y-1.3976
Y-0.8858
G3 X1.5008 Y-0.8371 I-0.0487 J0.
G1 X0.4772
G3 X0.4284 Y-0.8858 I0. J-0.0487
G1 Y-2.0276
G3 X0.4772 Y-2.0763 I0.0487 J0.
G1 X1.5008
G3 X1.5495 Y-2.0276 I0. J0.0487
G1 Y-1.3976
G3 X1.512 Y-1.3601 I-0.0375 J0.
G1 X1.4745
G18 G3 X1.437 Z0.7068 I0. K0.0375
G0 Z3.2233
G17
M5
G53 G0 Z0.
(TRACE6)
M9
M1
T72 M6
T36
S7500 M3
G17 G90 G94
G54
M8
G0 X1.5004 Y-0.7031
G43 Z3.2233 H72
G0 Z1.4582
G1 Z1.3377 F30.
X1.5153 Y-0.7037 Z1.3369
X1.53 Y-0.7055 Z1.3346
X1.5492 Y-0.7097 Z1.3293
X1.5539 Y-0.7111 Z1.3276
X1.572 Y-0.7176 Z1.3194
X1.5763 Y-0.7195 Z1.317
X1.5806 Y-0.7215 Z1.3146
X1.5848 Y-0.7236 Z1.312
X1.6009 Y-0.733 Z1.3008
X1.6154 Y-0.7436 Z1.2887
X1.6219 Y-0.7491 Z1.2824
X1.6281 Y-0.7548 Z1.276
X1.6339 Y-0.7608 Z1.2695
X1.6396 Y-0.7671 Z1.2627
X1.645 Y-0.7738 Z1.2557
X1.6572 Y-0.7916 Z1.2377
X1.6673 Y-0.8107 Z1.2193
X1.6749 Y-0.8309 Z1.201
X1.6762 Y-0.835 Z1.1974
X1.6809 Y-0.8562 Z1.1797
X1.6833 Y-0.8775 Z1.1629
X1.6835 Y-0.8865 Z1.1565
Y-0.9246 Z1.1351
Y-0.9722 Z1.1115
Y-0.9802 Z1.1077
Y-1.029 Z1.0866
Y-1.0787 Z1.0679
Y-1.1292 Z1.0515
Y-1.1805 Z1.0374
Y-1.2323 Z1.0258
Y-1.2846 Z1.0165
Y-1.3374 Z1.0098
Y-1.3903 Z1.0054
Y-1.4434 Z1.0036
Y-1.4965 Z1.0042
Y-1.5496 Z1.0073
Y-1.6024 Z1.0128
Y-1.655 Z1.0208
Y-1.7071 Z1.0313
Y-1.7586 Z1.0441
Y-1.8095 Z1.0594
Y-1.8596 Z1.077
Y-1.9089 Z1.0969
Y-1.9572 Z1.1191
Y-1.9809 Z1.131
Y-2.0198 Z1.1521
Y-2.0269 Z1.1565
X1.6833 Y-2.0359 Z1.1629
X1.6809 Y-2.0573 Z1.1798
X1.6762 Y-2.0786 Z1.1976
X1.6706 Y-2.095 Z1.2122
X1.6613 Y-2.1145 Z1.2307
X1.6499 Y-2.133 Z1.2489
X1.6339 Y-2.1527 Z1.2696
X1.628 Y-2.1586 Z1.2761
X1.6115 Y-2.1727 Z1.292
X1.5966 Y-2.1831 Z1.304
X1.5803 Y-2.192 Z1.3148
X1.576 Y-2.194 Z1.3172
X1.5582 Y-2.201 Z1.3259
X1.5536 Y-2.2024 Z1.3277
X1.549 Y-2.2038 Z1.3294
X1.5443 Y-2.205 Z1.3309
X1.5299 Y-2.2079 Z1.3347
X1.5154 Y-2.2097 Z1.3369
X1.5004 Y-2.2103 Z1.3377
X1.2094
X1.1242 Z1.274
X1.1035 Z1.2588
X1.0609 Z1.23
X1.0391 Z1.2164
X0.9946 Z1.1906
X0.9489 Z1.167
X0.9022 Z1.1456
X0.8545 Z1.1264
X0.8059 Z1.1095
X0.7566 Z1.0949
X0.7067 Z1.0827
X0.6562 Z1.0728
X0.6054 Z1.0653
X0.5542 Z1.0602
X0.5286 Z1.0586
X0.5029 Z1.0576
X0.4652 Y-2.2098 Z1.057
X0.4561 Y-2.209 Z1.0566
X0.4472 Y-2.2077 Z1.0559
X0.4383 Y-2.206 Z1.0549
X0.4295 Y-2.2039 Z1.0537
X0.4208 Y-2.2013 Z1.0522
X0.412 Y-2.1982 Z1.0505
X0.4081 Y-2.1967 Z1.0495
X0.388 Y-2.187 Z1.044
X0.3803 Y-2.1824 Z1.0415
X0.3729 Y-2.1775 Z1.0389
X0.3657 Y-2.1723 Z1.0361
X0.359 Y-2.1668 Z1.0334
X0.3526 Y-2.1612 Z1.0306
X0.3466 Y-2.1554 Z1.0277
X0.3409 Y-2.1492 Z1.0249
X0.3353 Y-2.1427 Z1.022
X0.33 Y-2.1357 Z1.0192
X0.3249 Y-2.1285 Z1.0163
X0.3202 Y-2.1209 Z1.0136
X0.3158 Y-2.1132 Z1.0109
X0.3118 Y-2.1052 Z1.0084
X0.3082 Y-2.0971 Z1.006
X0.305 Y-2.0887 Z1.0039
X0.3022 Y-2.0802 Z1.002
X0.2999 Y-2.0715 Z1.0004
X0.2979 Y-2.0626 Z0.9991
X0.295 Y-2.0405 Z0.9969
X0.2947 Y-2.0362 Z0.9967
X0.2945 Y-2.0318 Z0.9966
Y-2.0272
Y-0.8862
X0.2953 Y-0.8688 Z0.9972
X0.2964 Y-0.8596 Z0.998
X0.2979 Y-0.8507 Z0.9991
X0.2999 Y-0.8419 Z1.0004
X0.3022 Y-0.8332 Z1.002
X0.305 Y-0.8247 Z1.0039
X0.3082 Y-0.8163 Z1.006
X0.3118 Y-0.8082 Z1.0084
X0.3158 Y-0.8002 Z1.0109
X0.3202 Y-0.7924 Z1.0136
X0.3249 Y-0.7849 Z1.0163
X0.33 Y-0.7777 Z1.0192
X0.3353 Y-0.7707 Z1.022
X0.3409 Y-0.7642 Z1.0249
X0.3466 Y-0.758 Z1.0277
X0.3526 Y-0.7522 Z1.0306
X0.359 Y-0.7466 Z1.0334
X0.3657 Y-0.7411 Z1.0361
X0.3729 Y-0.7359 Z1.0389
X0.3803 Y-0.731 Z1.0415
X0.388 Y-0.7264 Z1.044
X0.4081 Y-0.7167 Z1.0495
X0.412 Y-0.7152 Z1.0505
X0.4208 Y-0.7121 Z1.0522
X0.4295 Y-0.7095 Z1.0537
X0.4383 Y-0.7074 Z1.0549
X0.4472 Y-0.7057 Z1.0559
X0.4692 Y-0.7033 Z1.0571
X0.5286 Y-0.7031 Z1.0586
X0.5542 Z1.0602
X0.5798 Z1.0625
X0.6054 Z1.0653
X0.6562 Z1.0728
X0.7067 Z1.0827
X0.7566 Z1.0949
X0.8059 Z1.1095
X0.8545 Z1.1264
X0.9022 Z1.1456
X0.9489 Z1.167
X0.9946 Z1.1906
X1.0391 Z1.2164
X1.0824 Z1.2442
X1.1242 Z1.274
X1.2094 Z1.3377
X1.5004
Z1.4582
G0 Z3.2233
M5
M9
G53 G0 Z0.
M30
%
