%
(DROPOUT YOKE OP1)
(T13 D=0.375 CR=0. TAPER=45DEG - ZMIN=0.9809 - CHAMFER MILL)
(T32 D=0.1875 CR=0. - ZMIN=0.2926 - FLAT END MILL)
(T33 D=0.25 CR=0. - ZMIN=0.1839 - FLAT END MILL)
(T53 D=0.264 CR=0. TAPER=118DEG - ZMIN=0.0945 - DRILL)
(T101 D=0.1 CR=0. TAPER=135DEG - ZMIN=0.1531 - DRILL)
G90 G94 G17 G91.1
G20
G53 G0 Z0.
(FACE3)
T33 M6
T13
S7500 M3
G17 G90 G94
G54
G64 P0.0004 Q0.0004
M8
G0 X1.9825 Y-0.956
G43 Z1.7 H33
G0 Z1.3
G1 Z1.105 F80.
G18 G3 X1.9575 Z1.08 I-0.025 K0. F50.
G1 X1.92
X-0.1
G3 X-0.125 Z1.105 I0. K0.025
G0 Z1.3
X1.9825 Y-0.7889
G1 Z1.105 F80.
G3 X1.9575 Z1.08 I-0.025 K0. F50.
G1 X1.92
X-0.1
G3 X-0.125 Z1.105 I0. K0.025
G0 Z1.3
X1.9825 Y-0.6219
G1 Z1.105 F80.
G3 X1.9575 Z1.08 I-0.025 K0. F50.
G1 X1.92
X-0.1
G3 X-0.125 Z1.105 I0. K0.025
G0 Z1.3
X1.9825 Y-0.4548
G1 Z1.105 F80.
G3 X1.9575 Z1.08 I-0.025 K0. F50.
G1 X1.92
X-0.1
G3 X-0.125 Z1.105 I0. K0.025
G0 Z1.3
X1.9825 Y-0.2878
G1 Z1.105 F80.
G3 X1.9575 Z1.08 I-0.025 K0. F50.
G1 X1.92
X-0.1
G3 X-0.125 Z1.105 I0. K0.025
G0 Z1.3
X1.9825 Y-0.1207
G1 Z1.105 F80.
G3 X1.9575 Z1.08 I-0.025 K0. F50.
G1 X1.92
X-0.1
G3 X-0.125 Z1.105 I0. K0.025
G0 Z1.7
G17
(2D ADAPTIVE9)
G64 P0.004 Q0.004
G0 X1.8396 Y0.2642
Z1.7
Z1.3
Z0.3176
G1 Z0.2926 F50.
Z0.2139
G3 X1.82 Y0.1281 I0.6183 J-0.1584
G1 Y0.1197
X1.8417 Y0.0907
X1.8581 Y0.0584
X1.8699 Y0.0243
X1.8783 Y-0.011
X1.884 Y-0.0467
X1.8878 Y-0.0827
X1.8903 Y-0.1188
X1.892 Y-0.1549
X1.8931 Y-0.1911
X1.8938 Y-0.2272
X1.8942 Y-0.2634
X1.8945 Y-0.2996
X1.8947 Y-0.3358
X1.8948 Y-0.372
X1.8949 Y-0.4443
X1.895 Y-0.6252
Y-0.9147
X1.8887 Y-0.9503
X1.8707 Y-0.9817
X1.8563 Y-0.9963
X1.8487 Y-1.0049
X1.8423 Y-1.0144
X1.8372 Y-1.0246
X1.835 Y-1.0297
X1.8335 Y-1.0328
X1.8308 Y-1.0379
X1.8253 Y-1.0471
X1.8201 Y-1.0543
X1.8171 Y-1.0581
X1.8089 Y-1.0673
X1.8054 Y-1.0707
X1.7959 Y-1.0789
X1.7925 Y-1.0813
X1.7843 Y-1.0868
X1.7761 Y-1.0915
X1.7685 Y-1.0953
X1.7679 Y-1.0956
X1.7597 Y-1.0989
X1.7514 Y-1.1018
X1.7432 Y-1.1039
X1.735 Y-1.1052
X1.7186 Y-1.1071
X1.7104 Y-1.1074
X1.6776
X0.5119
X0.4872 Y-1.1073
X0.479 Y-1.1067
X0.4626 Y-1.1053
X0.4133 Y-1.101
X0.4051 Y-1.1003
X0.3887 Y-1.098
X0.3805 Y-1.0969
X0.3746 Y-1.0953
X0.3466 Y-1.0895
X0.3187 Y-1.0852
X0.2828 Y-1.0814
X0.2467 Y-1.079
X0.2105 Y-1.0775
X0.1743 Y-1.0766
X0.1382 Y-1.076
X0.102 Y-1.0756
X0.0839 Y-1.0755
X0.0484 Y-1.0686
X0.0172 Y-1.0504
X-0.0083 Y-1.0247
X-0.0281 Y-0.9943
X-0.0427 Y-0.9613
X-0.0532 Y-0.9266
X-0.0605 Y-0.8912
X-0.0655 Y-0.8554
X-0.0688 Y-0.8193
X-0.071 Y-0.7832
X-0.0724 Y-0.7471
X-0.0727 Y-0.7354
X-0.0736 Y-0.725
X-0.0756 Y-0.7148
X-0.0788 Y-0.7048
X-0.0802 Y-0.7012
X-0.0828 Y-0.693
X-0.1027 Y-0.6191
X-0.1038 Y-0.613
X-0.1071 Y-0.5944
X-0.108 Y-0.5862
X-0.1137 Y-0.5205
X-0.1144 Y-0.5123
Y-0.4877
X-0.1116 Y-0.4548
X-0.108 Y-0.4138
X-0.1071 Y-0.4056
X-0.1038 Y-0.387
X-0.1027 Y-0.3809
X-0.0983 Y-0.3645
X-0.0907 Y-0.3291
X-0.0876 Y-0.3113
X-0.0832 Y-0.2782
X-0.0801 Y-0.2421
X-0.0782 Y-0.206
X-0.0771 Y-0.1699
X-0.0763 Y-0.1337
X-0.0758 Y-0.0975
X-0.0755 Y-0.0885
X-0.0732 Y-0.0705
X-0.0615 Y-0.0363
X-0.0401 Y-0.0071
X-0.0124 Y0.0162
X0.0191 Y0.034
X0.0528 Y0.047
X0.0878 Y0.0562
X0.1234 Y0.0626
X0.1594 Y0.0669
X0.1954 Y0.0697
X0.2316 Y0.0716
X0.2677 Y0.0728
X0.2814 Y0.0731
X0.2893 Y0.0736
X0.2972 Y0.0749
X0.305 Y0.0767
X0.3066 Y0.0772
X0.3641 Y0.0926
X0.3805 Y0.0969
X0.3887 Y0.098
X0.4051 Y0.1003
X0.4133 Y0.101
X0.4626 Y0.1053
X0.479 Y0.1067
X0.4872 Y0.1073
X0.5119 Y0.1074
X1.694
X1.7104
X1.7186 Y0.1071
X1.735 Y0.1052
X1.7432 Y0.1039
X1.7514 Y0.1018
X1.7597 Y0.0989
X1.7679 Y0.0956
X1.7685 Y0.0953
X1.7761 Y0.0915
X1.7843 Y0.0868
X1.7925 Y0.0813
X1.7959 Y0.0789
X1.8054 Y0.0707
X1.8089 Y0.0673
X1.8171 Y0.0581
X1.8201 Y0.0543
X1.8253 Y0.0471
X1.8308 Y0.0379
X1.8335 Y0.0328
X1.835 Y0.0297
X1.8386 Y0.0214
X1.8416 Y0.0132
X1.8417 Y0.0127
X1.8438 Y0.005
X1.8453 Y-0.0032
X1.8474 Y-0.0196
X1.8478 Y-0.0278
X1.8479 Y-0.0525
Y-0.9475
X1.8478 Y-0.9722
X1.8474 Y-0.9804
X1.853 Y-0.9968
X1.8598 Y-1.0085
X1.891 Y-1.0618 F300.
G2 X1.8664 Y-1.1887 I-0.0852 J-0.0493
G1 X1.8089 Y-1.2198
X1.7679 Y-1.2312
X1.694 Y-1.2384
X0.5119 Y-1.1881
X0.4925 Y-1.1775
X0.4006 Y-1.1118
X0.3805 Y-1.0974 F50.
X0.3746 Y-1.0953
X0.3641 Y-1.0926
X0.3066 Y-1.0772
X0.2984 Y-1.0748
X0.282 Y-1.0693
X0.2738 Y-1.0663
X0.2656 Y-1.0625
X0.2486 Y-1.0556
X0.2379 Y-1.0518
X0.2243 Y-1.0478
X0.207 Y-1.0435
X0.1715 Y-1.0366
X0.136 Y-1.0296
X0.103 Y-1.0147
X0.0741 Y-0.993
X0.0498 Y-0.9662
X0.0302 Y-0.9358
X0.015 Y-0.903
X0.0035 Y-0.8686
X0.0001 Y-0.8577
X-0.0046 Y-0.8473
X-0.0106 Y-0.8375
G3 X-0.0382 Y-0.8288 I-0.02 J-0.015
G1 X-0.0526 Y-0.8408 F300.
X-0.0754 Y-0.9557
G3 X-0.0628 Y-1.018 I0.0825 J-0.0157
G1 X-0.03 Y-1.0613
X0.0193 Y-1.1068
X0.0521 Y-1.1254
X0.2187 Y-1.1775
G3 X0.2887 Y-1.0827 I0.0187 J0.0594
X0.2738 Y-1.0675 I-0.0513 J-0.0353 F50.
G1 X0.2656 Y-1.0625
X0.2128 Y-1.0379
X0.1999 Y-1.0318
X0.1956 Y-1.0297
X0.1753 Y-1.0169
X0.1695 Y-1.0132
X0.1178 Y-0.977
X0.1096 Y-0.9707
X0.101 Y-0.964
X0.0932 Y-0.9572
X0.0424 Y-0.9065
X0.0357 Y-0.8994
X0.0205 Y-0.8818
X-0.014 Y-0.8326
X-0.0197 Y-0.8244
X-0.0306 Y-0.8079
X-0.0357 Y-0.7997
X-0.0399 Y-0.7915
X-0.071 Y-0.7248
X-0.0739 Y-0.7176
X-0.0788 Y-0.7048
G3 X-0.0925 Y-0.6914 I-0.023 J-0.0098
G2 X-0.1028 Y-0.6868 I0.0645 J0.1603
X-0.187 Y-0.5989 I0.0748 J0.1557 F300.
G1 X-0.1879 Y-0.5961
X-0.1886 Y-0.5933
X-0.1889 Y-0.5905
X-0.1946 Y-0.4904
Y-0.4875
X-0.1943 Y-0.4846
X-0.1936 Y-0.4818
G2 X-0.1202 Y-0.385 I0.1656 J-0.0493
X-0.1103 Y-0.3792 I0.0921 J-0.1461 F50.
G3 X-0.0983 Y-0.3645 I-0.0119 J0.022
G1 X-0.0828 Y-0.307
X-0.0802 Y-0.2988
X-0.0739 Y-0.2824
X-0.071 Y-0.2752
X-0.0629 Y-0.2578
X-0.0559 Y-0.2408
X-0.0521 Y-0.2299
X-0.048 Y-0.216
X-0.0437 Y-0.1985
X-0.0368 Y-0.163
X-0.0275 Y-0.1281
X-0.0107 Y-0.096
X0.0124 Y-0.0682
X0.0402 Y-0.045
X0.0713 Y-0.0265
X0.1046 Y-0.0122
X0.1391 Y-0.0014
X0.1481 Y0.0012
X0.1567 Y0.005
X0.1647 Y0.0098
G3 X0.1746 Y0.0298 I-0.015 J0.02
G1 X0.1716 Y0.037
X0.1671 Y0.0477 F300.
X0.1506 Y0.0549
X0.0357 Y0.0732
G3 X-0.0217 Y0.0606 I-0.0121 J-0.082
G1 X-0.0792 Y0.0118
X-0.112 Y-0.0289
X-0.1296 Y-0.0689
X-0.177 Y-0.2085
G3 X-0.083 Y-0.2808 I0.0587 J-0.021
X-0.0679 Y-0.266 I-0.0353 J0.0513 F50.
G1 X-0.0629 Y-0.2578
X-0.0399 Y-0.2085
X-0.0357 Y-0.2003
X-0.0306 Y-0.1921
X-0.0197 Y-0.1756
X-0.0135 Y-0.1667
X0.0205 Y-0.1182
X0.0357 Y-0.1006
X0.0424 Y-0.0935
X0.0932 Y-0.0428
X0.101 Y-0.036
X0.1115 Y-0.0278
X0.1178 Y-0.023
X0.1695 Y0.0132
X0.1753 Y0.0169
X0.1956 Y0.0297
X0.1999 Y0.0318
X0.2245 Y0.0433
X0.2738 Y0.0663
X0.282 Y0.0693
X0.2984 Y0.0748
X0.305 Y0.0767
G3 X0.3222 Y0.1001 I-0.0078 J0.0237
G1 Y0.104 Z0.2142
X0.3223 Y0.1078 Z0.2151
X0.3224 Y0.1114 Z0.2166
Y0.1148 Z0.2186
X0.3225 Y0.1178 Z0.2212
Y0.1203 Z0.2242
Y0.1224 Z0.2275
X0.3226 Y0.1239 Z0.2311
Y0.1248 Z0.2349
Y0.1251 Z0.2389
G0 Z1.7
(2D ADAPTIVE9 2)
G0 X1.395 Y0.2346
Z1.7
Z1.3
Z0.6719
G1 Z0.6469 F50.
Z0.5682
G3 X1.3755 Y0.0985 I0.6183 J-0.1584
G1 Y0.0945
X1.3756 Y0.0926
X1.3804 Y0.089
X1.3854 Y0.0858
X1.3907 Y0.083
X1.397 Y0.08
X1.4048 Y0.0768
X1.4145 Y0.0733
X1.4268 Y0.0696
X1.4424 Y0.0656
X1.4632 Y0.0615
X1.4924 Y0.0571
X1.5284 Y0.0535
X1.5645 Y0.0512
X1.6006 Y0.0498
X1.6368 Y0.049
X1.6716 Y0.0392
X1.7017 Y0.0191
X1.7259 Y-0.0078
X1.7445 Y-0.0389
X1.7582 Y-0.0723
X1.7679 Y-0.1072
X1.7747 Y-0.1427
X1.7793 Y-0.1786
X1.7823 Y-0.2147
X1.7843 Y-0.2508
X1.7856 Y-0.287
X1.7864 Y-0.3231
X1.787 Y-0.3593
X1.7873 Y-0.3955
X1.7875 Y-0.4317
X1.7877 Y-0.4679
X1.7878 Y-0.5402
X1.7879 Y-0.685
Y-0.902
X1.7762 Y-0.9363
X1.7548 Y-0.9654
X1.7271 Y-0.9887
X1.6956 Y-1.0065
X1.6618 Y-1.0195
X1.6268 Y-1.0287
X1.5912 Y-1.0351
X1.5553 Y-1.0394
X1.5192 Y-1.0422
X1.4831 Y-1.0441
X1.4469 Y-1.0453
X1.4329 Y-1.0469
X1.4195 Y-1.0513
X1.4071 Y-1.0581
X1.3963 Y-1.0672
X1.3875 Y-1.0782
X1.3809 Y-1.0907
X1.3768 Y-1.1042
X1.3755 Y-1.1183
X1.3808 Y-1.1328
X1.394 Y-1.1407
X1.3961 Y-1.142 F300.
X1.5934 Y-1.1655
X1.6921 Y-1.1452
X1.7496 Y-1.1253
X1.7513 Y-1.1246
X1.8168 Y-1.0835
X1.8501 Y-1.0506
X1.8872 Y-1.0013
X1.9124 Y-0.9356
X1.9181 Y-0.8862
X1.9147 Y-0.3028
X1.9033 Y-0.1302
X1.8811 Y-0.0316
X1.8483 Y0.0417
X1.8154 Y0.0864
X1.7756 Y0.1246
G3 X1.7662 Y0.1328 I-0.0694 J-0.0698
G1 X1.7029 Y0.1657
X1.651 Y0.1778
X1.429 Y0.154
G3 X1.384 Y0.1239 I0.0087 J-0.0617
X1.3755 Y0.0945 I0.0537 J-0.0316 F50.
G1 Y0.0821
Y0.0806
X1.379 Y0.0757
X1.3829 Y0.0712
X1.3871 Y0.0669
X1.3916 Y0.0629
X1.3964 Y0.0591
X1.4021 Y0.055
X1.4083 Y0.051
X1.4161 Y0.0465
X1.4249 Y0.042
X1.4349 Y0.0374
X1.4476 Y0.0323
X1.4614 Y0.0276
X1.4791 Y0.0224
X1.5001 Y0.0175
X1.5278 Y0.0123
X1.5637 Y0.0074
X1.5978 Y-0.0046
X1.6284 Y-0.024
X1.6544 Y-0.0491
X1.6757 Y-0.0784
X1.6925 Y-0.1104
X1.7054 Y-0.1442
X1.715 Y-0.1791
X1.7219 Y-0.2146
X1.7269 Y-0.2504
X1.7304 Y-0.2865
X1.7328 Y-0.3226
X1.7345 Y-0.3587
X1.7356 Y-0.3949
X1.7364 Y-0.431
X1.7369 Y-0.4672
X1.7372 Y-0.5034
X1.7375 Y-0.5396
X1.7376 Y-0.5758
X1.7378 Y-0.6481
X1.7379 Y-0.7567
Y-0.7928
X1.7348 Y-0.8289
X1.7226 Y-0.8629
X1.7027 Y-0.8932
X1.677 Y-0.9186
X1.6472 Y-0.9392
X1.6148 Y-0.9553
X1.5807 Y-0.9674
X1.5457 Y-0.9764
X1.5101 Y-0.983
X1.4826 Y-0.9879
X1.4677 Y-0.9914
X1.4539 Y-0.9952
X1.4441 Y-0.9985
X1.4339 Y-1.0025
X1.4198 Y-1.0094
X1.4071 Y-1.0186
X1.3962 Y-1.0299
X1.3873 Y-1.0428
X1.3808 Y-1.0571
X1.3768 Y-1.0723
X1.3755 Y-1.0879
X1.3797 Y-1.101
X1.3931 Y-1.1109
X1.3936
X1.6017 Y-1.095 F300.
G3 X1.6181 Y-1.0917 I-0.0109 J0.0978
G1 X1.6839 Y-1.0666
X1.7414 Y-1.0325
X1.7934 Y-0.9849
X1.8192 Y-0.952
X1.8456 Y-0.9027
X1.8601 Y-0.8616
X1.8687 Y-0.7876
X1.8633 Y-0.3439
X1.856 Y-0.2269
X1.8401 Y-0.1455
X1.8204 Y-0.0809
X1.8024 Y-0.0398
X1.8008 Y-0.0356
X1.799 Y-0.0316
X1.7661 Y0.0186
X1.7216 Y0.067
X1.6622 Y0.1081
X1.6263 Y0.1219
X1.4455 Y0.1418
G3 X1.384 Y0.1115 I-0.0077 J-0.0618
X1.3755 Y0.0821 I0.0537 J-0.0316 F50.
G1 Y0.0646
X1.3758 Y0.0586
X1.3785 Y0.0532
X1.3817 Y0.0481
X1.3852 Y0.0432
X1.3889 Y0.0386
X1.3929 Y0.0341
X1.3972 Y0.0298
X1.4016 Y0.0258
X1.4061 Y0.0219
X1.4108 Y0.0182
X1.4157 Y0.0146
X1.4206 Y0.0112
X1.4257 Y0.008
X1.4308 Y0.0049
X1.4361 Y0.002
X1.4414 Y-0.0008
X1.4467 Y-0.0035
X1.4522 Y-0.0061
X1.4576 Y-0.0085
X1.4632 Y-0.0109
X1.4687 Y-0.0131
X1.5024 Y-0.0263
X1.5347 Y-0.0426
X1.5641 Y-0.0637
X1.5897 Y-0.0893
X1.5924 Y-0.0929
X1.595 Y-0.0966
X1.6157 Y-0.1263
X1.6324 Y-0.1584
X1.6455 Y-0.1921
X1.6557 Y-0.2269
X1.6633 Y-0.2622
X1.669 Y-0.2979
X1.6732 Y-0.3339
X1.6762 Y-0.3699
X1.6784 Y-0.4061
X1.6789 Y-0.4196
X1.6803 Y-0.4558
X1.6812 Y-0.4919
X1.6819 Y-0.5281
X1.6824 Y-0.5643
X1.6827 Y-0.6005
X1.6829 Y-0.6367
X1.6831 Y-0.6728
X1.6832 Y-0.709
X1.6816 Y-0.7452
X1.6805 Y-0.7496
X1.6709 Y-0.7844
X1.6538 Y-0.8163
X1.6306 Y-0.8441
X1.6029 Y-0.8674
X1.5722 Y-0.8864
X1.5395 Y-0.9021
X1.506 Y-0.9157
X1.494 Y-0.9205
X1.4829 Y-0.925
X1.4774 Y-0.9273
X1.4718 Y-0.9296
X1.4663 Y-0.932
X1.4609 Y-0.9345
X1.4555 Y-0.9371
X1.4501 Y-0.9397
X1.4447 Y-0.9424
X1.4394 Y-0.9452
X1.4342 Y-0.9481
X1.429 Y-0.9512
X1.4239 Y-0.9543
X1.4189 Y-0.9576
X1.4139 Y-0.961
X1.4129 Y-0.9617
X1.4021 Y-0.9711
X1.3928 Y-0.982
X1.3854 Y-0.9942
X1.3799 Y-1.0074
X1.3766 Y-1.0214
X1.3755 Y-1.0356
X1.3811 Y-1.0506
X1.394 Y-1.0581
X1.3961 Y-1.0594 F300.
X1.5195 Y-1.0461
G3 X1.5606 Y-1.0322 I-0.0101 J0.0979
G1 X1.7332 Y-0.9102
X1.7743 Y-0.8613
X1.7995 Y-0.8041
X1.8114 Y-0.7521
X1.8105 Y-0.4425
X1.799 Y-0.2893
X1.7892 Y-0.237
X1.738 Y-0.0809
X1.7151 Y-0.0398
X1.6672 Y0.0177
X1.6428 Y0.0378
X1.4619 Y0.1198
G3 X1.388 Y0.0999 I-0.0242 J-0.0574
G1 X1.3851 Y0.0936
X1.3768 Y0.0753 F50.
X1.3755 Y0.0646
Y0.041
X1.3758 Y0.035
X1.3776 Y0.0293
X1.3799 Y0.0238
X1.3825 Y0.0184
X1.3856 Y0.0132
X1.3889 Y0.0082
X1.3925 Y0.0034
X1.3963 Y-0.0013
X1.4003 Y-0.0057
X1.4044 Y-0.01
X1.4088 Y-0.0142
X1.4132 Y-0.0182
X1.4178 Y-0.0221
X1.4225 Y-0.0258
X1.4272 Y-0.0295
X1.432 Y-0.0332
X1.4609 Y-0.0549
X1.4644 Y-0.0577
X1.4714 Y-0.0635
X1.4783 Y-0.0694
X1.4845 Y-0.0759
X1.4901 Y-0.0831
X1.4949 Y-0.0907
X1.499 Y-0.0988
X1.5022 Y-0.1072
X1.5046 Y-0.116
X1.5062 Y-0.1249
X1.5068 Y-0.1339
X1.5065 Y-0.1429
X1.502 Y-0.1788
X1.4997 Y-0.1844
X1.4975 Y-0.1899
X1.4959 Y-0.1941
X1.5262 Y-0.2138
X1.5515 Y-0.2397
X1.5716 Y-0.2698
X1.5872 Y-0.3025
X1.5901 Y-0.311
X1.5915 Y-0.3153
X1.5928 Y-0.3197
X1.5954 Y-0.3283
X1.5978 Y-0.337
X1.5993 Y-0.346
X1.6 Y-0.355
X1.5997 Y-0.364
X1.5986 Y-0.373
X1.5966 Y-0.3818
X1.5937 Y-0.3904
X1.59 Y-0.3986
X1.5855 Y-0.4065
X1.5802 Y-0.4139
X1.5743 Y-0.4207
X1.5479 Y-0.4454
X1.5705 Y-0.4737
X1.5878 Y-0.5055
X1.6004 Y-0.5394
X1.6095 Y-0.5744
X1.6103 Y-0.5789
X1.6164 Y-0.6145
X1.6173 Y-0.6235
X1.6174 Y-0.6326
X1.6166 Y-0.6416
X1.6149 Y-0.6505
X1.6124 Y-0.6591
X1.609 Y-0.6675
X1.6047 Y-0.6755
X1.5998 Y-0.6831
X1.5941 Y-0.6901
X1.5877 Y-0.6965
X1.5807 Y-0.7023
X1.5732 Y-0.7073
X1.5414 Y-0.7245
X1.5355 Y-0.7254
X1.5325 Y-0.726
X1.5234 Y-0.7611
X1.5064 Y-0.793
X1.4842 Y-0.8216
X1.4589 Y-0.8474
X1.4275 Y-0.8756
X1.4231 Y-0.8797
X1.4187 Y-0.8838
X1.4144 Y-0.8879
X1.4101 Y-0.8921
X1.4058 Y-0.8963
X1.4016 Y-0.9006
X1.4003 Y-0.902
X1.3917 Y-0.9128
X1.3847 Y-0.9247
X1.3796 Y-0.9376
X1.3765 Y-0.951
X1.3755 Y-0.9648
Y-0.9709
G3 X1.3931 Y-0.9939 I0.025 J0.0009
X1.4102 Y-0.9931 I0.0074 J0.0239 F300.
G1 X1.5319 Y-0.9438
G3 X1.5734 Y-0.916 I-0.0321 J0.093
G1 X1.668 Y-0.7958
X1.7036 Y-0.7465
X1.7061 Y-0.7426
X1.7085 Y-0.7385
X1.7313 Y-0.689
X1.7431 Y-0.6233
X1.7206 Y-0.2945
X1.6971 Y-0.2288
X1.5968 Y-0.0151
X1.5688 Y0.0127
X1.4784 Y0.0861
G3 X1.384 Y0.0704 I-0.0406 J-0.0472
X1.3755 Y0.041 I0.0537 J-0.0316 F50.
G1 Y0.0135
X1.3758 Y0.0075
X1.3771 Y0.0017
X1.3789 Y-0.0041
X1.3811 Y-0.0096
X1.3836 Y-0.0151
X1.3869 Y-0.0213
X1.4054 Y-0.0524
X1.4188 Y-0.086
X1.4278 Y-0.121
X1.4325 Y-0.141
X1.4426 Y-0.1757
X1.4474 Y-0.1913
X1.4515 Y-0.203
X1.4538 Y-0.2085
X1.4566 Y-0.2138
X1.4596 Y-0.219
X1.4824 Y-0.2471
X1.4958 Y-0.2807
X1.5009 Y-0.3166
X1.501 Y-0.3527
X1.4941 Y-0.3882
X1.4832 Y-0.4227
X1.4819 Y-0.4271
X1.4803 Y-0.4331
X1.4788 Y-0.4404
X1.4775 Y-0.4477
X1.4768 Y-0.4537
X1.4769 Y-0.4597
X1.4773 Y-0.4656
X1.4792 Y-0.4713
X1.5025 Y-0.4991
X1.5153 Y-0.5329
X1.5171 Y-0.569
X1.5118 Y-0.6048
X1.5029 Y-0.6399
X1.491 Y-0.6741
X1.4787 Y-0.7081
X1.4621 Y-0.7403
X1.4422 Y-0.7704
X1.42 Y-0.7991
X1.3971 Y-0.8271
X1.3941 Y-0.831
X1.3861 Y-0.8436
X1.3803 Y-0.8572
X1.3767 Y-0.8716
X1.3755 Y-0.8865
Y-0.9648
G3 X1.3931 Y-0.9878 I0.025 J0.0009
X1.4208 Y-0.9785 I0.0074 J0.0239 F300.
G1 X1.5787 Y-0.7999
X1.6099 Y-0.728
X1.6375 Y-0.6397
X1.6472 Y-0.5657
X1.6282 Y-0.2863
X1.6171 Y-0.237
X1.4948 Y0.0364
G3 X1.384 Y0.0429 I-0.0571 J-0.025
X1.3755 Y0.0135 I0.0537 J-0.0316 F50.
G1 Y-0.0316
X1.3773 Y-0.0677
X1.3794 Y-0.0902
X1.3836 Y-0.1192
X1.3884 Y-0.1436
X1.3925 Y-0.1605
X1.3965 Y-0.1738
X1.4 Y-0.184
X1.4137 Y-0.2175
X1.4256 Y-0.2517
X1.4324 Y-0.2872
X1.4342 Y-0.3233
X1.4328 Y-0.3595
X1.4309 Y-0.3907
X1.4307 Y-0.4045
X1.4311 Y-0.416
X1.4319 Y-0.4246
X1.4328 Y-0.4317
X1.4339 Y-0.4376
X1.4354 Y-0.4438
X1.4454 Y-0.4785
X1.451 Y-0.5143
X1.452 Y-0.5505
X1.449 Y-0.5865
X1.4424 Y-0.6221
X1.4319 Y-0.6567
X1.4177 Y-0.69
X1.4007 Y-0.7219
X1.3884 Y-0.7426
X1.3813 Y-0.7574
X1.3769 Y-0.7732
X1.3755 Y-0.7895
Y-0.8865
G3 X1.3931 Y-0.9095 I0.025 J0.0009
X1.4208 Y-0.9001 I0.0074 J0.0239 F300.
G1 X1.5434 Y-0.7219
G3 X1.5523 Y-0.7055 I-0.0815 J0.0553
G1 X1.5728 Y-0.6358
X1.5814 Y-0.5657
X1.5796 Y-0.5
X1.4992 Y-0.0234
G3 X1.384 Y-0.0022 I-0.0614 J-0.0104
X1.3755 Y-0.0316 I0.0537 J-0.0316 F50.
G1 Y-0.1795
X1.3773 Y-0.2156
X1.3796 Y-0.2517
X1.3808 Y-0.2879
Y-0.3241
X1.381 Y-0.3595
X1.3822 Y-0.3804
X1.3859 Y-0.4163
X1.3912 Y-0.4521
X1.3946 Y-0.4882
X1.3952 Y-0.5243
X1.3923 Y-0.5604
X1.3856 Y-0.596
X1.3792 Y-0.6181
X1.3771 Y-0.6265
X1.3759 Y-0.6351
X1.3755 Y-0.6438
Y-0.7895
G3 X1.3931 Y-0.8125 I0.025 J0.0009
X1.4208 Y-0.8031 I0.0074 J0.0239 F300.
G1 X1.4923 Y-0.6972
G3 X1.5092 Y-0.6561 I-0.0803 J0.057
G1 X1.5251 Y-0.5329
X1.5 Y-0.1795
G3 X1.384 Y-0.1501 I-0.0623 J-0.0022
X1.3755 Y-0.1795 I0.0537 J-0.0316 F50.
G1 Y-0.6438
G3 X1.3931 Y-0.6668 I0.025 J0.0009
G1 X1.3968 Y-0.668 Z0.5685
X1.4005 Y-0.6691 Z0.5694
X1.4039 Y-0.6702 Z0.5709
X1.4071 Y-0.6712 Z0.573
X1.41 Y-0.6721 Z0.5755
X1.4124 Y-0.6728 Z0.5785
X1.4144 Y-0.6734 Z0.5818
X1.4158 Y-0.6738 Z0.5855
X1.4167 Y-0.6741 Z0.5893
X1.417 Y-0.6742 Z0.5932
G0 Z1.7
(2D CONTOUR31)
G64 P0.0004 Q0.0004
G0 X1.4405 Y-0.0026
Z1.7
Z1.3
G1 Z1.1394 F80.
Z0.5932
G18 G3 X1.4155 Z0.5682 I-0.025 K0. F50.
G1 X1.3905
G17 G3 X1.3655 Y-0.0276 I0. J-0.025
G1 Y-0.9724
G3 X1.3905 Y-0.9974 I0.025 J0.
G1 X1.4155
G18 G2 X1.4405 Z0.5932 I0. K0.025
G0 Z1.3
Y-0.0026
G1 Z1.1394 F80.
Z0.5932
G3 X1.4155 Z0.5682 I-0.025 K0. F50.
G1 X1.3905
G17 G3 X1.3655 Y-0.0276 I0. J-0.025
G1 Y-0.9724
G3 X1.3905 Y-0.9974 I0.025 J0.
G1 X1.4155
G18 G2 X1.4405 Z0.5932 I0. K0.025
G0 Z1.7
X1.7379 Y-1.1724
Z1.3
G1 Z1.1394 F80.
Z0.2389
G19 G3 Y-1.1474 Z0.2139 J0.025 K0. F50.
G1 Y-1.1224
G17 G3 X1.7129 Y-1.0974 I-0.025 J0.
G1 X0.4924
G2 Y0.0974 I0. J0.5974
G1 X1.7129
G2 X1.8379 Y-0.0276 I0. J-0.125
G1 Y-0.9724
G2 X1.7129 Y-1.0974 I-0.125 J0.
G1 X0.4924
G2 Y0.0974 I0. J0.5974
G1 X1.7129
G2 X1.8379 Y-0.0276 I0. J-0.125
G1 Y-0.9724
G2 X1.7129 Y-1.0974 I-0.125 J0.
G3 X1.6879 Y-1.1224 I0. J-0.025
G1 Y-1.1474
G19 G2 Y-1.1724 Z0.2389 J0. K0.025
G0 Z1.7
G17
M5
G53 G0 Z0.
(2D CHAMFER4)
M9
M1
T13 M6
T53
S7500 M3
G17 G90 G94
G54
M8
G0 X1.297 Y-0.9724
G43 Z1.7 H13
G0 Z1.3
G1 Z1.18 F80.
Z0.9809
G2 X1.2405 Y-1.0289 I-0.0565 J0. F50.
G1 X0.4924
G2 Y0.0289 I0. J0.5289
G1 X1.2405
G2 X1.297 Y-0.0276 I0. J-0.0565
G1 Y-0.9724
G0 Z1.7
M5
G53 G0 Z0.
(DRILL23)
M9
M1
T53 M6
T101
S5000 M3
G17 G90 G94
G54
M8
G0 X0.4143 Y-0.5
G43 Z1.7 H53
G0 Z1.3
G98 G81 X0.4143 Y-0.5 Z0.0945 R1.28 F30.
G80
G0 Z1.7
(DRILL24)
G0 X1.4767 Y-0.2638
Z1.7
Z1.3
G81 X1.4767 Y-0.2638 Z0.5432 R0.7682 F30.
Y-0.5
Y-0.7362
G80
G0 Z1.7
M5
G53 G0 Z0.
(DRILL14 3)
M9
M1
T101 M6
T33
S5000 M3
G17 G90 G94
G54
M8
G0 X1.4767 Y-0.5
G43 Z1.7 H101
G0 Z1.3
G81 X1.4767 Y-0.5 Z0.2719 R0.7682 F15.
G80
G0 Z1.7
(DRILL11 3)
G0 X1.4767 Y-0.2638
Z1.7
Z1.3
G81 X1.4767 Y-0.2638 Z0.1531 R0.7682 F15.
Y-0.7362
G80
G0 Z1.7
M5
G53 G0 Z0.
(2D CONTOUR32)
M9
M1
T33 M6
T32
S7500 M3
G17 G90 G94
G54
G64 P0.0004 Q0.0004
M8
G0 X0.4317 Y-0.505
G43 Z1.7 H33
G0 Z1.3
G1 Z1.1394 F80.
Z0.9218
X0.432 Z0.9202 F5.
X0.4327 Z0.9188
X0.4338 Z0.9177
X0.4352 Z0.917
X0.4367 Z0.9168
X0.4417
X0.4433 Y-0.5048
X0.4447 Y-0.504
X0.4458 Y-0.5029
X0.4465 Y-0.5015
X0.4467 Y-0.5
G3 X0.3818 I-0.0325 J0.
X0.4467 I0.0325 J0.
X0.3818 I-0.0325 J0.
X0.4467 I0.0325 J0.
G1 X0.4465 Y-0.4985
X0.4458 Y-0.4971
X0.4447 Y-0.496
X0.4433 Y-0.4952
X0.4417 Y-0.495
X0.4367
X0.4352 Z0.917
X0.4338 Z0.9177
X0.4327 Z0.9188
X0.432 Z0.9202
X0.4317 Z0.9218
G0 Z1.3
Y-0.505
G1 Z0.9561 F80.
Z0.7385
X0.432 Z0.737 F5.
X0.4327 Z0.7356
X0.4338 Z0.7345
X0.4352 Z0.7338
X0.4367 Z0.7335
X0.4417
X0.4433 Y-0.5048
X0.4447 Y-0.504
X0.4458 Y-0.5029
X0.4465 Y-0.5015
X0.4467 Y-0.5
G3 X0.3818 I-0.0325 J0.
X0.4467 I0.0325 J0.
X0.3818 I-0.0325 J0.
X0.4467 I0.0325 J0.
G1 X0.4465 Y-0.4985
X0.4458 Y-0.4971
X0.4447 Y-0.496
X0.4433 Y-0.4952
X0.4417 Y-0.495
X0.4367
X0.4352 Z0.7338
X0.4338 Z0.7345
X0.4327 Z0.7356
X0.432 Z0.737
X0.4317 Z0.7385
G0 Z1.3
Y-0.505
G1 Z0.7729 F80.
Z0.5553
X0.432 Z0.5538 F5.
X0.4327 Z0.5524
X0.4338 Z0.5513
X0.4352 Z0.5506
X0.4367 Z0.5503
X0.4417
X0.4433 Y-0.5048
X0.4447 Y-0.504
X0.4458 Y-0.5029
X0.4465 Y-0.5015
X0.4467 Y-0.5
G3 X0.3818 I-0.0325 J0.
X0.4467 I0.0325 J0.
X0.3818 I-0.0325 J0.
X0.4467 I0.0325 J0.
G1 X0.4465 Y-0.4985
X0.4458 Y-0.4971
X0.4447 Y-0.496
X0.4433 Y-0.4952
X0.4417 Y-0.495
X0.4367
X0.4352 Z0.5506
X0.4338 Z0.5513
X0.4327 Z0.5524
X0.432 Z0.5538
X0.4317 Z0.5553
G0 Z1.3
Y-0.505
G1 Z0.5897 F80.
Z0.3721
X0.432 Z0.3705 F5.
X0.4327 Z0.3691
X0.4338 Z0.368
X0.4352 Z0.3673
X0.4367 Z0.3671
X0.4417
X0.4433 Y-0.5048
X0.4447 Y-0.504
X0.4458 Y-0.5029
X0.4465 Y-0.5015
X0.4467 Y-0.5
G3 X0.3818 I-0.0325 J0.
X0.4467 I0.0325 J0.
X0.3818 I-0.0325 J0.
X0.4467 I0.0325 J0.
G1 X0.4465 Y-0.4985
X0.4458 Y-0.4971
X0.4447 Y-0.496
X0.4433 Y-0.4952
X0.4417 Y-0.495
X0.4367
X0.4352 Z0.3673
X0.4338 Z0.368
X0.4327 Z0.3691
X0.432 Z0.3705
X0.4317 Z0.3721
G0 Z1.3
Y-0.505
G1 Z0.4065 F80.
Z0.1889
X0.432 Z0.1873 F5.
X0.4327 Z0.1859
X0.4338 Z0.1848
X0.4352 Z0.1841
X0.4367 Z0.1839
X0.4417
X0.4433 Y-0.5048
X0.4447 Y-0.504
X0.4458 Y-0.5029
X0.4465 Y-0.5015
X0.4467 Y-0.5
G3 X0.3818 I-0.0325 J0.
X0.4467 I0.0325 J0.
X0.3818 I-0.0325 J0.
X0.4467 I0.0325 J0.
G1 X0.4465 Y-0.4985
X0.4458 Y-0.4971
X0.4447 Y-0.496
X0.4433 Y-0.4952
X0.4417 Y-0.495
X0.4367
X0.4352 Z0.1841
X0.4338 Z0.1848
X0.4327 Z0.1859
X0.432 Z0.1873
X0.4317 Z0.1889
G0 Z1.7
M5
G53 G0 Z0.
(2D CONTOUR7 4)
M9
M1
T32 M6
T33
S7500 M3
G17 G90 G94
G54
M8
G0 X1.4779 Y-0.5
G43 Z1.7 H32
G0 Z1.3
G1 Z1.0103 F10.
G3 X1.4755 I-0.0012 J0. F1.
X1.4779 I0.0012 J0.
G1 Z0.9206 F10.
G3 X1.4755 I-0.0012 J0. F1.
X1.4779 I0.0012 J0.
G1 Z0.8309 F10.
G3 X1.4755 I-0.0012 J0. F1.
X1.4779 I0.0012 J0.
G1 Z0.7412 F10.
G3 X1.4755 I-0.0012 J0. F1.
X1.4779 I0.0012 J0.
G1 Z0.6514 F10.
G3 X1.4755 I-0.0012 J0. F1.
X1.4779 I0.0012 J0.
G1 Z0.5617 F10.
G3 X1.4755 I-0.0012 J0. F1.
X1.4779 I0.0012 J0.
G1 Z0.472 F10.
G3 X1.4755 I-0.0012 J0. F1.
X1.4779 I0.0012 J0.
G1 Z0.3823 F10.
G3 X1.4755 I-0.0012 J0. F1.
X1.4779 I0.0012 J0.
G1 Z0.2926 F10.
X1.4776 Y-0.4992 F1.
X1.4769 Y-0.4988
X1.4761 Y-0.499
X1.4756 Y-0.4996
Y-0.5004
X1.4761 Y-0.501
X1.4769 Y-0.5012
X1.4776 Y-0.5008
X1.4779 Y-0.5
X1.4776 Y-0.4992
X1.4769 Y-0.4988
X1.4761 Y-0.499
X1.4756 Y-0.4996
Y-0.5004
X1.4761 Y-0.501
X1.4769 Y-0.5012
X1.4776 Y-0.5008
X1.4779 Y-0.5
G0 Z1.7
M5
M9
G53 G0 Z0.
M30
%
