%
(DROPOUT YOKE OP2)
(T13 D=0.375 CR=0. TAPER=45DEG - ZMIN=0.7671 - CHAMFER MILL)
(T33 D=0.25 CR=0. - ZMIN=0.8661 - FLAT END MILL)
G90 G94 G17 G91.1
G20
G53 G0 Z0.
(FACE4)
T33 M6
T13
S7500 M3
G17 G90 G94
G54
G64 P0.0004 Q0.0004
M8
G0 X1.8754 Y-0.9526
G43 Z1.68 H33
G0 Z1.28
G1 Z0.8911 F80.
G18 G3 X1.8504 Z0.8661 I-0.025 K0. F50.
G1 X1.8129
X-0.2071
G3 X-0.2321 Z0.8911 I0. K0.025
G0 Z1.28
X1.8754 Y-0.8093
G1 Z0.8911 F80.
G3 X1.8504 Z0.8661 I-0.025 K0. F50.
G1 X1.8129
X-0.2071
G3 X-0.2321 Z0.8911 I0. K0.025
G0 Z1.28
X1.8754 Y-0.666
G1 Z0.8911 F80.
G3 X1.8504 Z0.8661 I-0.025 K0. F50.
G1 X1.8129
X-0.2071
G3 X-0.2321 Z0.8911 I0. K0.025
G0 Z1.28
X1.8754 Y-0.5227
G1 Z0.8911 F80.
G3 X1.8504 Z0.8661 I-0.025 K0. F50.
G1 X1.8129
X-0.2071
G3 X-0.2321 Z0.8911 I0. K0.025
G0 Z1.28
X1.8754 Y-0.3793
G1 Z0.8911 F80.
G3 X1.8504 Z0.8661 I-0.025 K0. F50.
G1 X1.8129
X-0.2071
G3 X-0.2321 Z0.8911 I0. K0.025
G0 Z1.28
X1.8754 Y-0.236
G1 Z0.8911 F80.
G3 X1.8504 Z0.8661 I-0.025 K0. F50.
G1 X1.8129
X-0.2071
G3 X-0.2321 Z0.8911 I0. K0.025
G0 Z1.28
X1.8754 Y-0.0927
G1 Z0.8911 F80.
G3 X1.8504 Z0.8661 I-0.025 K0. F50.
G1 X1.8129
X-0.2071
G3 X-0.2321 Z0.8911 I0. K0.025
G0 Z1.68
G17
M5
G53 G0 Z0.
(2D CHAMFER4 2)
M9
M1
T13 M6
T33
S7500 M3
G17 G90 G94
G54
M8
G0 X0. Y0.0565
G43 Z1.68 H13
G0 Z1.28
G1 Z1.16 F80.
Z0.7671
X1.2205 F50.
G2 Y-1.0014 I0. J-0.5289
G1 X0.
G0 Z1.68
M5
M9
G53 G0 Z0.
M30
%
