%
(BEARING PULLER ARM OP2)
(T13 D=0.375 CR=0. TAPER=45DEG - ZMIN=1.0211 - CHAMFER MILL)
(T35 D=0.375 CR=0. - ZMIN=1.1811 - FLAT END MILL)
G90 G94 G17 G91.1
G20
G53 G0 Z0.
(2D ADAPTIVE3)
T35 M6
T13
S7500 M3
G17 G90 G94
G54
G64 P0.004 Q0.004
M8
G0 X-4.6544 Y-1.1451
G43 Z2.098 H35
G0 Z1.2973
G1 Z1.1811 F50.
G3 X-4.625 Y-0.941 I-0.9274 J0.2376
G1 Y-0.935
G2 X-4.6498 Y-0.7594 I1.1487 J0.2516
X-4.6604 Y-0.449 I4.5772 J0.3127
X-4.6623 Y-0.0497 I29.9983 J0.3431
G1 X-4.6625 Y0.1722
Y0.5715
X-4.6613 Y0.5826
X-4.6561 Y0.6041
X-4.6356 Y0.6435
X-4.6049 Y0.6755
X-4.5685 Y0.7009
X-4.5289 Y0.7209
X-4.4873 Y0.7364
X-4.4446 Y0.7484
G2 X-4.2692 Y0.7742 I0.2516 J-1.1005
X-3.9588 Y0.7853 I0.3127 J-4.3882
X-3.5595 Y0.7873 I0.3431 J-28.7544
G1 X-3.3376 Y0.7875
X-2.4945
X-2.2726
X-0.2759
X1.7209
X3.7177
X4.4499
X4.4718 Y0.7839
X4.5124 Y0.7661
X4.5456 Y0.7366
X4.5721 Y0.701
X4.5929 Y0.6618
X4.609 Y0.6205
X4.6216 Y0.5779
G2 X4.6486 Y0.4027 I-1.0501 J-0.2515
X4.6602 Y0.0924 I-4.1907 J-0.3128
X4.6623 Y-0.3957 I-32.8609 J-0.3815
G1 X4.6625 Y-0.5732
X4.6609 Y-0.5842
X4.6551 Y-0.6056
X4.6342 Y-0.6448
X4.6032 Y-0.6765
X4.5667 Y-0.7017
X4.527 Y-0.7215
X4.4854 Y-0.7369
X4.4426 Y-0.7488
G2 X4.2671 Y-0.7743 I-0.2516 J1.1111
X3.9568 Y-0.7854 I-0.3127 J4.4295
X3.5574 Y-0.7873 I-0.3431 J29.0248
G1 X3.3356 Y-0.7875
X2.9362
X0.9394
X-1.0574
X-3.0542
X-4.2966
X-4.3181 Y-0.7821
X-4.3581 Y-0.7629
X-4.3911 Y-0.7333
X-4.4177 Y-0.6977
X-4.4388 Y-0.6587
X-4.4554 Y-0.6175
X-4.4684 Y-0.5751
G2 X-4.497 Y-0.4001 I1.0251 J0.2571
X-4.5092 Y-0.1342 I3.5288 J0.2957
X-4.5123 Y0.3982 I29.3748 J0.4359
G1 X-4.4984 Y0.4403
X-4.4741 Y0.4774
X-4.4427 Y0.5088
X-4.4067 Y0.5347
X-4.3677 Y0.5559
X-4.3267 Y0.573
X-4.2845 Y0.5866
G2 X-4.11 Y0.6182 I0.2716 J-1.0016
X-3.7999 Y0.6339 I0.3298 J-3.4454
X-3.1344 Y0.6371 I0.4908 J-32.6591
G1 X-2.6906 Y0.6375
X-1.1376
X-0.1893
X-0.1741 Y0.6388
X-0.1593 Y0.6428
X-0.1455 Y0.6492
X-0.1012 Y0.6748
G2 X0.0737 Y0.6881 I0.1011 J-0.1727
G1 X0.0987 Y0.6798
X0.1418 Y0.6693
G3 X0.3179 Y0.648 I0.2424 J1.2608
X0.6727 Y0.6389 I0.3325 J6.0669
G1 X0.8206 Y0.638
X0.9685 Y0.6375
X1.1164 Y0.6376
X1.5158 Y0.6375
X2.0483
X4.0451
X4.2669
X4.3097 Y0.6256
X4.3476 Y0.6025
X4.3798 Y0.572
X4.4065 Y0.5365
X4.4283 Y0.4979
X4.4459 Y0.4571
X4.46 Y0.4151
G2 X4.4926 Y0.2408 I-0.9674 J-0.2714
X4.5088 Y-0.0692 I-3.3343 J-0.3298
X4.5118 Y-0.3798 I-14.6255 J-0.2976
G1 X4.5037 Y-0.4234
X4.4832 Y-0.4628
X4.4544 Y-0.4966
X4.4201 Y-0.5247
X4.3822 Y-0.5478
X4.342 Y-0.5664
X4.3002 Y-0.5814
G2 X4.1264 Y-0.6162 I-0.2714 J0.9049
X3.9495 Y-0.6296 I-0.2632 J2.2957
X3.5058 Y-0.6366 I-0.3939 J10.9407
G1 X3.4171 Y-0.6371
X3.2839 Y-0.6373
X3.0621 Y-0.6375
X2.3521
X1.9527
X0.1893
X0.1741 Y-0.6388
X0.1593 Y-0.6428
X0.1455 Y-0.6492
X0.1012 Y-0.6748
G2 X-0.0737 Y-0.6881 I-0.1011 J0.1727
G1 X-0.0987 Y-0.6798
X-0.1418 Y-0.6693
G3 X-0.3179 Y-0.648 I-0.2424 J-1.2608
X-0.6727 Y-0.6389 I-0.3325 J-6.0669
G1 X-0.8206 Y-0.638
X-0.9685 Y-0.6375
X-1.1164 Y-0.6376
X-1.5158 Y-0.6375
X-2.0483
X-4.0451
X-4.0894
X-4.1336 Y-0.6327
X-4.1743 Y-0.6151
X-4.2097 Y-0.5884
X-4.2396 Y-0.5556
X-4.2642 Y-0.5187
X-4.2843 Y-0.4791
X-4.3005 Y-0.4378
X-4.3135 Y-0.3954
G2 X-4.3437 Y-0.2207 I1.064 J0.274
X-4.3589 Y0.0895 I3.6023 J0.3322
G1 X-4.3599 Y0.1338
X-4.3605 Y0.1782
X-4.3608 Y0.2226
X-4.3494 Y0.2655
X-4.3278 Y0.3042
X-4.2987 Y0.3378
X-4.2646 Y0.3662
X-4.227 Y0.3897
X-4.1871 Y0.4091
X-4.1456 Y0.4248
G2 X-3.9724 Y0.4624 I0.2815 J-0.8785
X-3.707 Y0.4813 I0.318 J-2.5979
X-3.4851 Y0.4857 I0.2696 J-8.075
G1 X-3.2929 Y0.4869
X-3.1006 Y0.4874
X-2.9083
X-2.4646 Y0.4875
X-1.4884
X-0.4491
X-0.4339 Y0.4888
X-0.4191 Y0.4928
X-0.4053 Y0.4992
X-0.1455 Y0.6492
G3 X-0.1367 Y0.6569 I-0.0199 J0.0318
G2 X-0.1235 Y0.6708 I0.1223 J-0.1026
X-0.1059 Y0.6851 I0.1091 J-0.1165 F300.
X-0.0905 Y0.6914 I0.0215 J-0.0307
G1 X0.0141 Y0.7085
G2 X0.0307 Y0.7074 I0.0061 J-0.037
X0.0461 Y0.7021 I-0.0451 J-0.1531
X0.0688 Y0.6906 I-0.0605 J-0.1478 F50.
G1 X0.0712 Y0.6892
X0.0737 Y0.6881
X0.0787 Y0.6861
X0.09 Y0.6808
X0.1012 Y0.6748
X0.2672 Y0.5789
X0.3057 Y0.5592
X0.3388 Y0.5455
X0.3811 Y0.5318
G3 X0.556 Y0.503 I0.2494 J0.9672
X0.8662 Y0.4902 I0.3184 J3.9581
G1 X1.0215 Y0.4886
X1.1768 Y0.4877
X1.3321 Y0.4873
X1.4875 Y0.4876
X1.9756 Y0.4875
X2.2418
X4.0611
X4.1054 Y0.4855
X4.1477 Y0.472
X4.1855 Y0.4488
X4.2182 Y0.4188
X4.2456 Y0.3839
X4.2684 Y0.3458
X4.287 Y0.3056
X4.3022 Y0.2639
G2 X4.3384 Y0.0904 I-0.9161 J-0.2818
X4.3577 Y-0.2195 I-2.9642 J-0.3398
G1 X4.3475 Y-0.2626
X4.3266 Y-0.3018
X4.2981 Y-0.3358
X4.2643 Y-0.3645
X4.2269 Y-0.3884
X4.1871 Y-0.408
X4.1457 Y-0.4239
G2 X3.9726 Y-0.4621 I-0.2814 J0.8644
X3.7072 Y-0.4812 I-0.3179 J2.5596
X3.2191 Y-0.4868 I-0.4162 J15.0565
G1 X3.1304 Y-0.4872
X2.9529 Y-0.4874
X2.5979 Y-0.4875
X1.1336
X0.4491
X0.4339 Y-0.4888
X0.4191 Y-0.4928
X0.4053 Y-0.4992
X0.1455 Y-0.6492
G3 X0.1367 Y-0.6569 I0.0199 J-0.0318
G2 X0.1235 Y-0.6708 I-0.1223 J0.1026
X0.1059 Y-0.6851 I-0.1091 J0.1165 F300.
X0.0905 Y-0.6914 I-0.0215 J0.0307
G1 X-0.0141 Y-0.7085
G2 X-0.0307 Y-0.7074 I-0.0061 J0.037
X-0.0461 Y-0.7021 I0.0451 J0.1531
X-0.0688 Y-0.6906 I0.0605 J0.1478 F50.
G1 X-0.0712 Y-0.6892
X-0.0737 Y-0.6881
X-0.0787 Y-0.6861
X-0.09 Y-0.6808
X-0.1012 Y-0.6748
X-0.2672 Y-0.5789
X-0.3057 Y-0.5592
X-0.3388 Y-0.5455
X-0.3811 Y-0.5318
G3 X-0.556 Y-0.503 I-0.2494 J-0.9672
X-0.8662 Y-0.4902 I-0.3184 J-3.9581
G1 X-1.0215 Y-0.4886
X-1.1768 Y-0.4877
X-1.3321 Y-0.4873
X-1.4875 Y-0.4876
X-1.9756 Y-0.4875
X-2.2418
X-3.928
X-3.9718 Y-0.4804
X-4.0124 Y-0.4625
X-4.0481 Y-0.4362
X-4.0786 Y-0.404
X-4.1042 Y-0.3677
X-4.1253 Y-0.3286
X-4.1425 Y-0.2878
X-4.1565 Y-0.2457
G2 X-4.19 Y-0.0716 I1.0029 J0.2832
G1 X-4.1948 Y-0.0275
X-4.1985 Y0.0168
X-4.2003 Y0.0611
X-4.1904 Y0.1044
X-4.1702 Y0.1439
X-4.1423 Y0.1784
X-4.109 Y0.2077
X-4.0721 Y0.2323
X-4.0326 Y0.2526
X-3.9914 Y0.2692
G2 X-3.8189 Y0.3095 I0.2861 J-0.8359
X-3.5536 Y0.3303 I0.3233 J-2.4199
X-3.0656 Y0.3367 I0.422 J-13.604
G1 X-2.9768 Y0.3372
X-2.8437 Y0.3373
X-2.6662 Y0.3374
X-2.1337 Y0.3375
X-0.6694
X-0.625
X-0.6193 Y0.3385
X-0.6144 Y0.3414
X-0.6107 Y0.3459
G2 X-0.5284 Y0.4278 I0.1703 J-0.0888
G1 X-0.4053 Y0.4992
G3 X-0.3884 Y0.524 I-0.0199 J0.0318
G1 X-0.3878 Y0.5284 F300.
G2 X-0.2762 Y0.7523 I0.3261 J-0.0228
X-0.2557 Y0.7613 I0.0246 J-0.0283
G1 X0.071 Y0.7978
G2 X0.0929 Y0.7936 I0.0042 J-0.0373
X0.2501 Y0.6037 I-0.1546 J-0.288
G1 X0.2512 Y0.5999 F50.
G3 X0.2672 Y0.5789 I0.0359 J0.0108
G1 X0.5286 Y0.4281
X0.5585 Y0.4124
X0.5914 Y0.3984
X0.6335 Y0.3844
G3 X0.8082 Y0.3543 I0.2529 J0.9467
X1.1184 Y0.3405 I0.3226 J3.771
X1.6508 Y0.3376 I0.4389 J31.6041
G1 X1.9171 Y0.3375
X2.4939
X3.9139
X3.9579 Y0.3318
X3.9992 Y0.3156
X4.036 Y0.2908
X4.0678 Y0.2598
X4.0946 Y0.2245
X4.117 Y0.1861
X4.1354 Y0.1458
X4.1505 Y0.104
X4.1627 Y0.0614
X4.1726 Y0.0182
X4.1806 Y-0.0255
X4.1835 Y-0.0698
X4.173 Y-0.1129
X4.1517 Y-0.1518
X4.1229 Y-0.1856
X4.0889 Y-0.214
X4.0513 Y-0.2377
X4.0115 Y-0.2572
X3.97 Y-0.2731
G2 X3.797 Y-0.3113 I-0.2839 J0.8749
X3.5316 Y-0.3308 I-0.3215 J2.5609
X3.0435 Y-0.3367 I-0.4207 J14.6062
G1 X2.9548 Y-0.3372
X2.8217 Y-0.3374
X2.5554 Y-0.3375
X2.2448
X0.6642
G3 X0.5944 Y-0.3722 I0. J-0.0875
G2 X0.5285 Y-0.428 I-0.1639 J0.1268
G1 X0.4053 Y-0.4992
G3 X0.3884 Y-0.524 I0.0199 J-0.0318
G1 X0.3878 Y-0.5284 F300.
G2 X0.2762 Y-0.7523 I-0.3261 J0.0228
X0.2557 Y-0.7613 I-0.0246 J0.0283
G1 X-0.071 Y-0.7978
G2 X-0.0929 Y-0.7936 I-0.0042 J0.0373
X-0.2501 Y-0.6037 I0.1546 J0.288
G1 X-0.2512 Y-0.5999 F50.
G3 X-0.2672 Y-0.5789 I-0.0359 J-0.0108
G1 X-0.5286 Y-0.4281
X-0.5585 Y-0.4124
X-0.5914 Y-0.3984
X-0.6335 Y-0.3844
G3 X-0.8082 Y-0.3543 I-0.2529 J-0.9467
X-1.1184 Y-0.3405 I-0.3226 J-3.771
X-1.6508 Y-0.3376 I-0.4389 J-31.6041
G1 X-1.9171 Y-0.3375
X-2.4939
X-3.7364
X-3.7808 Y-0.337
X-3.8239 Y-0.3266
X-3.8635 Y-0.3065
X-3.8983 Y-0.279
X-3.9281 Y-0.2461
X-3.9531 Y-0.2095
X-3.9739 Y-0.1703
X-3.991 Y-0.1293
X-3.9959 Y-0.1077
X-3.9972 Y-0.0634
X-3.9836 Y-0.0211
X-3.9596 Y0.0162
X-3.9287 Y0.048
X-3.8932 Y0.0747
X-3.8546 Y0.0966
X-3.8141 Y0.1145
X-3.7721 Y0.1291
G2 X-3.5983 Y0.1638 I0.2831 J-0.9648
X-3.2884 Y0.1825 I0.3436 J-3.1099
X-2.8003 Y0.1869 I0.4149 J-18.9507
G1 X-2.6672 Y0.1873
X-2.4453 Y0.1874
X-1.7797 Y0.1875
X-0.7591
X-0.7182 Y0.189
G3 X-0.6688 Y0.2064 I-0.0049 J0.0925
X-0.6336 Y0.2714 I-0.0524 J0.0704
X-0.6449 Y0.2992 I-0.0375 J0.001
G1 X-0.6482 Y0.3024 Z1.1814
X-0.6514 Y0.3055 Z1.1822
X-0.6545 Y0.3085 Z1.1835
X-0.6574 Y0.3114 Z1.1854
X-0.6602 Y0.3141 Z1.1877
X-0.6627 Y0.3166 Z1.1905
X-0.665 Y0.3188 Z1.1937
X-0.667 Y0.3207 Z1.1973
X-0.6687 Y0.3224 Z1.2012
X-0.67 Y0.3237 Z1.2053
X-0.671 Y0.3246 Z1.2096
X-0.6716 Y0.3252 Z1.2141
X-0.6718 Y0.3254 Z1.2186
G0 Z1.698
X-0.4894 Y-0.4835
Z1.2561
G1 Z1.2186 F50.
X-0.4895 Y-0.4833 Z1.2141
X-0.4899 Y-0.4826 Z1.2096
X-0.4906 Y-0.4814 Z1.2053
X-0.4914 Y-0.4798 Z1.2012
X-0.4926 Y-0.4777 Z1.1973
X-0.4939 Y-0.4753 Z1.1937
X-0.4955 Y-0.4724 Z1.1905
X-0.4972 Y-0.4693 Z1.1877
X-0.499 Y-0.4659 Z1.1854
X-0.501 Y-0.4623 Z1.1835
X-0.5031 Y-0.4585 Z1.1822
X-0.5052 Y-0.4546 Z1.1814
X-0.5074 Y-0.4506 Z1.1811
G3 X-0.5286 Y-0.4281 I-0.0546 J-0.03
G2 X-0.6064 Y-0.3543 I0.0953 J0.1785
G3 X-0.6736 Y-0.2871 I-0.168 J-0.1007
X-0.7935 Y-0.2332 I-0.2295 J-0.3507
X-0.9583 Y-0.1998 I-0.2617 J-0.867
X-1.2022 Y-0.1814 I-0.3002 J-2.355
X-1.5994 Y-0.175 I-0.3614 J-10.0882
G1 X-1.6881 Y-0.1745
X-1.7769 Y-0.1743
X-1.91 Y-0.1741
X-2.1762 Y-0.174
X-2.5312
X-3.5962
X-3.6183 Y-0.1718
X-3.6291 Y-0.1694
X-3.6344 Y-0.1679
G3 X-3.664 Y-0.173 I-0.009 J-0.0364
X-3.6455 Y-0.2417 I0.0206 J-0.0313 F300.
G1 X-0.6415 Y-0.4087
G3 X-0.6042 Y-0.3841 I0.0021 J0.0374
X-0.6061 Y-0.3541 I-0.0352 J0.0128 F50.
G2 X-0.6324 Y-0.2805 I0.1527 J0.0961
G3 X-0.6811 Y-0.1901 I-0.1689 J-0.0327
X-0.7829 Y-0.1171 I-0.2422 J-0.2305
X-0.9066 Y-0.0711 I-0.2692 J-0.5347
G1 X-0.9109 Y-0.0703
X-0.9153 Y-0.0701
X-0.9197 Y-0.0703
X-0.924 Y-0.0711
X-0.9283 Y-0.0723
X-0.9323 Y-0.0741
X-0.9361 Y-0.0763
G3 X-0.9372 Y-0.1378 I0.0209 J-0.0311 F300.
G1 X-0.6917 Y-0.3157
G3 X-0.6409 Y-0.3093 I0.022 J0.0304
X-0.6325 Y-0.2805 I-0.0288 J0.024 F50.
G1 X-0.6334 Y-0.2754
X-0.6348 Y-0.2529
X-0.635 Y-0.2417
Y-0.1905
X-0.6354 Y-0.1816
X-0.6412 Y-0.1376
X-0.6358 Y-0.0935
X-0.6353 Y-0.0895
X-0.6351 Y-0.0854
X-0.635 Y-0.0813
G3 X-0.648 Y-0.0542 I-0.0375 J-0.0013
X-0.71 Y-0.0839 I-0.0245 J-0.0284 F300.
X-0.6578 Y-0.1956 I0.1574 J0.0055
G1 X-0.6539 Y-0.199 F50.
X-0.6517 Y-0.2004
X-0.6492 Y-0.2013
X-0.6465 Y-0.2017
G3 X-0.635 Y-0.1905 I0. J0.0115
G1 Y0.2417
X-0.6348 Y0.2529
X-0.6336 Y0.2714
X-0.641 Y0.2947
X-0.645 Y0.2998
X-0.6788 Y0.3429 F300.
G2 X-0.6686 Y0.4845 I0.0731 J0.0659
G1 X-0.6298 Y0.5172
X-0.154 Y0.7925
X-0.1125 Y0.8127
X-0.0663 Y0.8263
X0.0112 Y0.8313
X0.0676 Y0.8258
X0.1125 Y0.8138
X0.1344 Y0.804
X0.1349 Y0.8038
X0.4048 Y0.6494
G2 X0.4441 Y0.6014 I-0.0527 J-0.0831
G1 X0.5086 Y0.4511
X0.5116 Y0.444 F50.
X0.5286 Y0.4281
G2 X0.6064 Y0.3543 I-0.0953 J-0.1785
G3 X0.6401 Y0.3155 I0.1285 J0.0773
G1 X0.6563 Y0.3023
X0.6762 Y0.2887
X0.7015 Y0.2743
X0.7336 Y0.2593
X0.7751 Y0.2438
X0.8178 Y0.2317
G3 X0.993 Y0.2044 I0.2677 J1.1433
X1.3476 Y0.1902 I0.3564 J4.4723
G1 X1.5029 Y0.1887
X1.6582 Y0.1877
X1.8135 Y0.1874
X1.9688 Y0.1876
X2.3682 Y0.1875
X2.5457
G2 X2.6428 Y0.1838 I0.0165 J-0.8525
G3 X3.0846 Y0.175 I0.3913 J8.5141
G1 X3.1734 Y0.1744
X3.2621 Y0.1742
X3.3952 Y0.1741
X3.7058 Y0.174
X3.7502
X3.7943 Y0.1688
X3.8357 Y0.153
X3.8726 Y0.1282
X3.8884 Y0.1127
G2 X3.904 Y0.0102 I-0.0619 J-0.0618
G1 X3.8809 Y-0.0277
X3.8473 Y-0.0567
X3.8097 Y-0.0803
X3.7697 Y-0.0994
X3.728 Y-0.1147
G2 X3.5544 Y-0.1505 I-0.2754 J0.8965
G1 X3.5104 Y-0.1555
X3.4661 Y-0.1594
X3.4219 Y-0.1625
G2 X3.0227 Y-0.1724 I-0.3849 J7.4691
G1 X2.8896 Y-0.1733
X2.7565 Y-0.1738
X2.6233
X2.4015 Y-0.174
X1.6915
X1.4253
X1.3809
G2 X1.0706 Y-0.1853 I-0.3157 J4.398
X0.8043 Y-0.1871 I-0.2565 J18.4981
G1 X0.76 Y-0.1881
X0.7204 Y-0.1913
X0.7068 Y-0.1934
G3 X0.6334 Y-0.2744 I0.0139 J-0.0864
X0.6447 Y-0.3023 I0.0375 J-0.001
G1 X0.648 Y-0.3054 Z1.1814
X0.6512 Y-0.3086 Z1.1822
X0.6543 Y-0.3116 Z1.1835
X0.6572 Y-0.3145 Z1.1854
X0.66 Y-0.3172 Z1.1877
X0.6625 Y-0.3197 Z1.1905
X0.6648 Y-0.3219 Z1.1937
X0.6668 Y-0.3238 Z1.1973
X0.6685 Y-0.3255 Z1.2012
X0.6698 Y-0.3268 Z1.2053
X0.6708 Y-0.3277 Z1.2096
X0.6714 Y-0.3283 Z1.2141
X0.6716 Y-0.3285 Z1.2186
G0 Z1.698
X0.6002 Y0.4217
Z1.2561
G1 Z1.2186 F50.
Y0.4215 Z1.2141
Y0.4206 Z1.2096
X0.6001 Y0.4193 Z1.2053
Y0.4174 Z1.2012
X0.6 Y0.4151 Z1.1973
Y0.4123 Z1.1937
X0.5999 Y0.4091 Z1.1905
X0.5998 Y0.4055 Z1.1877
X0.5997 Y0.4017 Z1.1854
X0.5996 Y0.3975 Z1.1835
X0.5995 Y0.3932 Z1.1822
X0.5993 Y0.3888 Z1.1814
X0.5992 Y0.3843 Z1.1811
G3 X0.6061 Y0.3541 I0.0623 J-0.0016
G2 X0.6314 Y0.2866 I-0.1494 J-0.0946
G3 X0.6806 Y0.1954 I0.167 J0.0312
X0.7831 Y0.1235 I0.2366 J0.2282
X0.9362 Y0.0724 I0.2779 J0.5779
X1.0372 Y0.0541 I0.2237 J0.9441
G1 X1.0416 Y0.0539
X1.046 Y0.0542
X1.0503 Y0.055
X1.0545 Y0.0563
X1.0585 Y0.0581
X1.0623 Y0.0604
X1.0658 Y0.0631
G3 X1.0589 Y0.1243 I-0.0247 J0.0282 F300.
G1 X0.6865 Y0.3245
G3 X0.6399 Y0.3155 I-0.0178 J-0.033
X0.6315 Y0.2867 I0.0288 J-0.024 F50.
G1 X0.6334 Y0.2754
X0.6348 Y0.2529
X0.635 Y0.2417
Y0.1967
X0.6355 Y0.1872
X0.6368 Y0.1768
X0.6415 Y0.1551
X0.6424 Y0.1107
G3 X0.6349 Y0.0712 I0.1339 J-0.046
G1 X0.6353 Y0.0668
X0.6363 Y0.0625
X0.6377 Y0.0583
X0.6396 Y0.0543
X0.642 Y0.0506
X0.6448 Y0.0472
X0.648 Y0.0441
G3 X0.71 Y0.0725 I0.0245 J0.0284 F300.
G1 Y0.1954
G3 X0.648 Y0.2238 I-0.0375 J0.
X0.635 Y0.1967 I0.0245 J-0.0284 F50.
G1 Y-0.2417
X0.6348 Y-0.2529
X0.6334 Y-0.2744
G3 X0.6447 Y-0.3023 I0.0375 J-0.001
G1 X0.648 Y-0.3054 Z1.1814
X0.6512 Y-0.3086 Z1.1822
X0.6543 Y-0.3116 Z1.1835
X0.6572 Y-0.3145 Z1.1854
X0.66 Y-0.3172 Z1.1877
X0.6625 Y-0.3197 Z1.1905
X0.6648 Y-0.3219 Z1.1937
X0.6668 Y-0.3238 Z1.1973
X0.6685 Y-0.3255 Z1.2012
X0.6698 Y-0.3268 Z1.2053
X0.6708 Y-0.3277 Z1.2096
X0.6714 Y-0.3283 Z1.2141
X0.6716 Y-0.3285 Z1.2186
G0 Z2.098
(2D CONTOUR3)
S5000 M3
G64 P0.0004 Q0.0004
G0 X0.7375 Y0.2901
Z2.098
Z1.698
G1 Z1.5374 F80.
Z1.2186
G18 G3 X0.7 Z1.1811 I-0.0375 K0. F50.
G1 X0.6625
G17 G3 X0.625 Y0.2526 I0. J-0.0375
G1 Y-0.2526
G2 X0.5312 Y-0.415 I-0.1875 J0.
G1 X0.0937 Y-0.6676
G2 X-0.0937 I-0.0937 J0.1624
G1 X-0.5312 Y-0.415
G2 X-0.625 Y-0.2526 I0.0937 J0.1624
G1 Y0.2526
G2 X-0.5312 Y0.415 I0.1875 J0.
G1 X-0.0937 Y0.6676
G2 X0.0937 I0.0937 J-0.1624
G1 X0.5312 Y0.415
G2 X0.625 Y0.2526 I-0.0937 J-0.1624
G1 Y-0.2526
G2 X0.5312 Y-0.415 I-0.1875 J0.
G1 X0.0937 Y-0.6676
G2 X-0.0937 I-0.0937 J0.1624
G1 X-0.5312 Y-0.415
G2 X-0.625 Y-0.2526 I0.0937 J0.1624
G1 Y0.2526
G2 X-0.5312 Y0.415 I0.1875 J0.
G1 X-0.0937 Y0.6676
G2 X0.0937 I0.0937 J-0.1624
G1 X0.5312 Y0.415
G2 X0.625 Y0.2526 I-0.0937 J-0.1624
G3 X0.6625 Y0.2151 I0.0375 J0.
G1 X0.7
G18 G2 X0.7375 Z1.2186 I0. K0.0375
G0 Z2.098
G17
(2D ADAPTIVE5)
G64 P0.004 Q0.004
G0 X-0.4762 Y-0.7102
Z2.098
Z1.698
Z1.5711
G1 Z1.5336 F50.
X-0.4761 Y-0.7099 Z1.529
X-0.4759 Y-0.7091 Z1.5246
X-0.4756 Y-0.7078 Z1.5203
X-0.4751 Y-0.706 Z1.5161
X-0.4745 Y-0.7037 Z1.5123
X-0.4738 Y-0.701 Z1.5087
X-0.473 Y-0.6979 Z1.5055
X-0.4721 Y-0.6945 Z1.5027
X-0.4712 Y-0.6907 Z1.5004
X-0.4702 Y-0.6867 Z1.4985
X-0.4691 Y-0.6825 Z1.4972
X-0.468 Y-0.6782 Z1.4963
X-0.4669 Y-0.6738 Z1.4961
G3 X-0.4375 Y-0.4697 I-0.9274 J0.2376
G1 Y-0.4652
X-0.437 Y-0.4561
X-0.4372 Y-0.4494
X-0.4382 Y-0.4409
X-0.4465 Y-0.3974
X-0.4533 Y-0.3535
X-0.4585 Y-0.3094
X-0.4624 Y-0.2652
X-0.4654 Y-0.221
X-0.4677 Y-0.1767
X-0.4695 Y-0.1323
X-0.4708 Y-0.088
X-0.4718 Y-0.0436
X-0.4726 Y0.0008
X-0.4732 Y0.0451
X-0.4736 Y0.0895
X-0.4679 Y0.1335
X-0.4524 Y0.1751
X-0.4303 Y0.2135
X-0.4036 Y0.249
X-0.3737 Y0.2818
X-0.3415 Y0.3124
X-0.3077 Y0.3411
X-0.2727 Y0.3684
X-0.2369 Y0.3945
X-0.2003 Y0.4197
X-0.1634 Y0.4442
X-0.1239 Y0.4646
X-0.0807 Y0.4744
X-0.0363 Y0.4763
X0.0079 Y0.4723
X0.0514 Y0.4639
X0.0942 Y0.4521
X0.1362 Y0.4378
X0.1775 Y0.4216
X0.2182 Y0.4039
X0.2584 Y0.3851
X0.2982 Y0.3655
X0.3365 Y0.343
X0.3674 Y0.3112
X0.3919 Y0.2742
X0.4111 Y0.2342
X0.426 Y0.1924
X0.4375 Y0.1495
X0.4464 Y0.1061
X0.4532 Y0.0622
X0.4584 Y0.0181
X0.4624 Y-0.0261
X0.4654 Y-0.0703
X0.4634 Y-0.1147
X0.4497 Y-0.1568
X0.4286 Y-0.1959
X0.4025 Y-0.2317
X0.3729 Y-0.2649
X0.341 Y-0.2957
X0.3074 Y-0.3246
X0.2725 Y-0.352
X0.2367 Y-0.3783
X0.2002 Y-0.4036
X0.1633 Y-0.4282
X0.1247 Y-0.4501
X0.0816 Y-0.4603
X0.0372 Y-0.4622
X-0.007 Y-0.4581
X-0.0505 Y-0.4495
X-0.0932 Y-0.4376
X-0.1352 Y-0.4231
X-0.1711 Y-0.397
X-0.2004 Y-0.3638
X-0.2034 Y-0.3591
X-0.2264 Y-0.3211
X-0.2448 Y-0.2807
X-0.2593 Y-0.2388
X-0.2707 Y-0.1959
X-0.2797 Y-0.1525
X-0.2868 Y-0.1087
X-0.2922 Y-0.0646
X-0.2915 Y-0.0203
X-0.283 Y0.0233
X-0.2677 Y0.0649
X-0.2471 Y0.1042
X-0.2223 Y0.141
X-0.1944 Y0.1755
X-0.1626 Y0.2065
X-0.1245 Y0.2292
X-0.0825 Y0.2434
X-0.0386 Y0.2503
X0.0057 Y0.2511
X0.0499 Y0.2471
X0.0933 Y0.2377
X0.1328 Y0.2176
X0.1669 Y0.1892
X0.1954 Y0.1552
X0.2188 Y0.1175
X0.2378 Y0.0774
X0.2487 Y0.0344
X0.2478 Y-0.01
X0.2375 Y-0.0532
X0.2201 Y-0.094
X0.1974 Y-0.1322
X0.1709 Y-0.1678
X0.1374 Y-0.1968
X0.1274 Y-0.2017
X0.1222 Y-0.2035
X0.1169 Y-0.205
G3 X0.0943 Y-0.2249 I0.0114 J-0.0357
G1 X0.0924 Y-0.229 Z1.4963
X0.0905 Y-0.233 Z1.4972
X0.0886 Y-0.2369 Z1.4985
X0.0869 Y-0.2406 Z1.5004
X0.0852 Y-0.2442 Z1.5027
X0.0837 Y-0.2474 Z1.5055
X0.0824 Y-0.2503 Z1.5087
X0.0812 Y-0.2528 Z1.5123
X0.0802 Y-0.2549 Z1.5161
X0.0794 Y-0.2566 Z1.5203
X0.0788 Y-0.2578 Z1.5246
X0.0785 Y-0.2586 Z1.529
X0.0784 Y-0.2588 Z1.5336
G0 Z2.098
M5
G53 G0 Z0.
(2D CHAMFER1 2)
M9
M1
T13 M6
T35
S5000 M3
G17 G90 G94
G54
G64 P0.0004 Q0.0004
M8
G0 X0.1101 Y0.
G43 Z2.098 H13
G0 Z1.698
G1 Z1.3361 F80.
G3 X-0.1101 I-0.1101 J0. F20.
X0.1101 I0.1101 J0.
G0 Z2.098
X-3.937 Y0.7464
Z1.698
G1 Z1.0211 F80.
X3.937 F20.
G2 Y-0.7464 I0. J-0.7464
G1 X-3.937
G2 Y0.7464 I0. J0.7464
G0 Z1.698
Y-0.1433
G1 Z1.0211 F80.
X-0.9843 F20.
G3 Y0.1433 I0. J0.1433
G1 X-3.937
G3 Y-0.1433 I0. J-0.1433
G0 Z1.698
X4.0779 Y0.0264
G1 Z1.0211 F80.
G3 X3.937 Y0.1433 I-0.1409 J-0.0264 F20.
G1 X0.9843
G3 Y-0.1433 I0. J-0.1433
G1 X3.937
G3 X4.0779 Y0.0264 I0. J0.1433
G0 Z2.098
(2D CHAMFER2)
G0 X0. Y0.5917
Z2.098
Z1.698
G1 Z1.578 F80.
Z1.4061
G2 X0.0432 Y0.5801 I0. J-0.0865 F20.
G1 X0.4807 Y0.3275
G2 X0.524 Y0.2526 I-0.0432 J-0.0749
G1 Y-0.2526
G2 X0.4807 Y-0.3275 I-0.0865 J0.
G1 X0.0432 Y-0.5801
G2 X-0.0432 I-0.0432 J0.0749
G1 X-0.4807 Y-0.3275
G2 X-0.524 Y-0.2526 I0.0432 J0.0749
G1 Y0.2526
G2 X-0.4807 Y0.3275 I0.0865 J0.
G1 X-0.0432 Y0.5801
G2 X0. Y0.5917 I0.0432 J-0.0749
G0 Z2.098
M5
M9
G53 G0 Z0.
M30
%
