%
(1,55X1,18X0,375)
(MACHINE)
(  VENDOR CALLUM)
(  MODEL MILL R1)
(  DESCRIPTION 14X8X14 MILL)
(T13 D=0.375 CR=0. TAPER=45DEG - ZMIN=0.2369 - CHAMFER MILL)
(T35 D=0.375 CR=0. - ZMIN=0.15 - FLAT END MILL)
(T50 D=0.25 CR=0. TAPER=140DEG - ZMIN=0.3369 - DRILL)
(T101 D=0.1 CR=0. TAPER=135DEG - ZMIN=0.2159 - DRILL)
G90 G94 G17 G91.1
G20
G53 G0 Z-0.6
(FACE1)
T35 M6
T50
S5000 M3
G17 G90 G94
G54
G64 P0.0004 Q0.0004
M8
G0 X1.8004 Y-1.0707
G43 Z0.9769 H35
G0 Z0.5769
G1 Z0.3844 F80.
G18 G3 X1.7629 Z0.3469 I-0.0375 K0. F30.
G1 X1.6567
X-0.1
G3 X-0.1375 Z0.3844 I0. K0.0375
G0 Z0.5769
X1.8004 Y-0.7742
G1 Z0.3844 F80.
G3 X1.7629 Z0.3469 I-0.0375 K0. F30.
G1 X1.6567
X-0.1
G3 X-0.1375 Z0.3844 I0. K0.0375
G0 Z0.5769
X1.8004 Y-0.4776
G1 Z0.3844 F80.
G3 X1.7629 Z0.3469 I-0.0375 K0. F30.
G1 X1.6567
X-0.1
G3 X-0.1375 Z0.3844 I0. K0.0375
G0 Z0.5769
X1.8004 Y-0.1811
G1 Z0.3844 F80.
G3 X1.7629 Z0.3469 I-0.0375 K0. F30.
G1 X1.6567
X-0.1
G3 X-0.1375 Z0.3844 I0. K0.0375
G0 Z0.9769
G17
(2D CONTOUR1)
G0 X0.1503 Y0.25
Z0.9769
Z0.5769
G1 Z0.4162 F80.
Z0.1875
G19 G2 Y0.2125 Z0.15 J-0.0375 K0. F30.
G1 Y0.175
G17 G3 X0.1878 Y0.1375 I0.0375 J0.
G1 X1.3689
G2 X1.6942 Y-0.1878 I0. J-0.3253
G1 Y-0.9949
G2 X1.3689 Y-1.3202 I-0.3253 J0.
G1 X0.1878
G2 X-0.1375 Y-0.9949 I0. J0.3253
G1 Y-0.1878
G2 X0.1878 Y0.1375 I0.3253 J0.
G1 X1.3689
G2 X1.6942 Y-0.1878 I0. J-0.3253
G1 Y-0.9949
G2 X1.3689 Y-1.3202 I-0.3253 J0.
G1 X0.1878
G2 X-0.1375 Y-0.9949 I0. J0.3253
G1 Y-0.1878
G2 X0.1878 Y0.1375 I0.3253 J0.
G3 X0.2253 Y0.175 I0. J0.0375
G1 Y0.2125
G19 G3 Y0.25 Z0.1875 J0. K0.0375
G0 Z0.9769
G17
M5
G53 G0 Z-0.6
(DRILL1)
M9
M1
T50 M6
T101
S4000 M3
G17 G90 G94
G54
M8
G0 X0.7783 Y-0.3945
G43 Z0.9769 H50
G0 Z0.5769
G98 G82 X0.7783 Y-0.3945 Z0.3369 R0.5469 P0.05 F11.2
Y-0.7882
G80
G0 Z0.9769
M5
G53 G0 Z-0.6
(DRILL2)
M9
M1
T101 M6
T13
S5000 M3
G17 G90 G94
G54
M8
G0 X0.7783 Y-0.3945
G43 Z0.9769 H101
G0 Z0.5769
Z0.5469
Z0.4269
G1 Z0.2969 F10.
G0 Z0.5469
Z0.3769
G1 Z0.2469 F10.
G0 Z0.5469
Z0.3269
G1 Z0.2159 F10.
G4 P0.05
G0 Z0.5769
Y-0.7882
Z0.5469
Z0.4269
G1 Z0.2969 F10.
G0 Z0.5469
Z0.3769
G1 Z0.2469 F10.
G0 Z0.5469
Z0.3269
G1 Z0.2159 F10.
G4 P0.05
G0 Z0.5769
Z0.9769
M5
G53 G0 Z-0.6
(2D CHAMFER1)
M9
M1
T13 M6
T35
S5000 M3
G17 G90 G94
G54
G64 P0.0004 Q0.0004
M8
G0 X0.1878 Y0.0365
G43 Z0.9769 H13
G0 Z0.5769
G1 Z0.4569 F80.
Z0.2369
X1.3689 F20.
G2 X1.5932 Y-0.1878 I0. J-0.2243
G1 Y-0.9949
G2 X1.3689 Y-1.2192 I-0.2243 J0.
G1 X0.1878
G2 X-0.0365 Y-0.9949 I0. J0.2243
G1 Y-0.1878
G2 X0.1878 Y0.0365 I0.2243 J0.
G0 Z0.9769
(2D CHAMFER2)
G0 X0.7842 Y-0.3945
Z0.9769
Z0.5769
G1 Z0.4569 F80.
Z0.3169
G3 X0.7725 I-0.0058 J0. F5.
X0.7842 I0.0058 J0.
G0 Z0.5769
Y-0.7882
G1 Z0.4569 F80.
Z0.3169
G3 X0.7725 I-0.0058 J0. F5.
X0.7842 I0.0058 J0.
G0 Z0.9769
M5
M9
G53 G0 Z-0.6
M30
%
