%
(OPW - FLIPPED)
(MACHINE)
(  VENDOR CALLUM)
(  MODEL MILL R1)
(  DESCRIPTION 14X8X14 MILL)
(T13 D=0.375 CR=0. TAPER=45DEG - ZMIN=0.1469 - CHAMFER MILL)
(T31 D=0.125 CR=0. - ZMIN=0.1378 - FLAT END MILL)
(T32 D=0.1875 CR=0. - ZMIN=0.1478 - FLAT END MILL)
(T35 D=0.375 CR=0. - ZMIN=0.1969 - FLAT END MILL)
G90 G94 G17 G91.1
G20
G53 G0 Z-0.6
(ADAPTIVE1)
T35 M6
T32
S5000 M3
G17 G90 G94
G54
G64 P0.004 Q0.004
M8
G0 X-0.0881 Y-1.5637
G43 Z0.9469 H35
G0 Z0.5469
Z0.2769
G1 Z0.2394 F40.
X-0.088 Y-1.5634 Z0.2348
X-0.0878 Y-1.5626 Z0.2304
X-0.0875 Y-1.5613 Z0.2261
X-0.087 Y-1.5595 Z0.2219
X-0.0864 Y-1.5572 Z0.218
X-0.0857 Y-1.5545 Z0.2145
X-0.0849 Y-1.5514 Z0.2113
X-0.0841 Y-1.548 Z0.2085
X-0.0831 Y-1.5442 Z0.2061
X-0.0821 Y-1.5402 Z0.2043
X-0.081 Y-1.536 Z0.2029
X-0.0799 Y-1.5317 Z0.2021
X-0.0788 Y-1.5273 Z0.2019
G3 X-0.0494 Y-1.3232 I-0.9274 J0.2376
G1 Y-1.3155
X-0.0654 Y-1.2741
X-0.0778 Y-1.2315
X-0.0873 Y-1.1882
X-0.0946 Y-1.1444
X-0.1001 Y-1.1004
X-0.1043 Y-1.0562
X-0.1074 Y-1.012
X-0.1098 Y-0.9677
X-0.1116 Y-0.9233
X-0.1129 Y-0.879
X-0.1139 Y-0.8346
X-0.1146 Y-0.7902
X-0.1152 Y-0.7459
X-0.1156 Y-0.7015
X-0.1159 Y-0.6571
X-0.1161 Y-0.6127
X-0.1163 Y-0.5684
X-0.1165 Y-0.4796
X-0.1166 Y-0.3465
Y-0.1246
X-0.1165 Y-0.1135
X-0.1152 Y-0.1025
X-0.1128 Y-0.0917
X-0.0988 Y-0.0496
X-0.072 Y-0.0142
X-0.0385 Y0.0149
X-0.0008 Y0.0382
X0.0396 Y0.0566
X0.0816 Y0.071
X0.1246 Y0.0821
X0.1681 Y0.0906
X0.212 Y0.0971
X0.2561 Y0.102
X0.3003 Y0.1057
X0.3446 Y0.1085
X0.3889 Y0.1106
X0.4333 Y0.1121
X0.4776 Y0.1133
X0.522 Y0.1142
X0.5664 Y0.1149
X0.6107 Y0.1153
X0.6551 Y0.1157
X0.6995 Y0.116
X0.7439 Y0.1162
X0.8326 Y0.1164
X0.9657 Y0.1166
X1.1876 Y0.1167
X1.3429
X1.3648 Y0.1134
X1.4065 Y0.0982
X1.4421 Y0.0716
X1.4712 Y0.0382
X1.4946 Y0.0005
X1.5131 Y-0.0399
X1.5275 Y-0.0818
X1.5386 Y-0.1248
X1.5472 Y-0.1683
X1.5537 Y-0.2122
X1.5586 Y-0.2563
X1.5623 Y-0.3005
X1.5651 Y-0.3448
X1.5672 Y-0.3892
X1.5688 Y-0.4335
X1.57 Y-0.4779
X1.5708 Y-0.5222
X1.5715 Y-0.5666
X1.572 Y-0.611
X1.5723 Y-0.6553
X1.5726 Y-0.6997
X1.5728 Y-0.7441
X1.5731 Y-0.8328
X1.5732 Y-0.9216
Y-0.9659
X1.572 Y-0.977
X1.5624 Y-1.0203
X1.5387 Y-1.0578
X1.507 Y-1.0889
X1.4704 Y-1.114
X1.4308 Y-1.1339
X1.3892 Y-1.1494
X1.3465 Y-1.1615
X1.3031 Y-1.1708
X1.2593 Y-1.1779
X1.2153 Y-1.1832
X1.1711 Y-1.1873
X1.1268 Y-1.1904
X1.0825 Y-1.1927
X1.0382 Y-1.1944
X0.9938 Y-1.1957
X0.9494 Y-1.1966
X0.9051 Y-1.1974
X0.8607 Y-1.1979
X0.8163 Y-1.1983
X0.772 Y-1.1986
X0.7276 Y-1.1988
X0.6832 Y-1.199
X0.5945 Y-1.1992
X0.4614 Y-1.1993
X0.2395 Y-1.1994
X0.1966 Y-1.1881
X0.1587 Y-1.165
X0.1267 Y-1.1342
X0.1004 Y-1.0985
X0.0791 Y-1.0596
X0.0621 Y-1.0186
X0.0487 Y-0.9763
X0.0382 Y-0.9332
X0.0301 Y-0.8895
X0.0237 Y-0.8456
X0.0189 Y-0.8015
X0.0152 Y-0.7573
X0.0123 Y-0.713
X0.0101 Y-0.6687
X0.0085 Y-0.6244
X0.0072 Y-0.58
X0.0063 Y-0.5356
X0.0055 Y-0.4913
X0.005 Y-0.4469
X0.0046 Y-0.4025
X0.0043 Y-0.3582
X0.004 Y-0.3138
X0.0039 Y-0.2694
X0.0148 Y-0.2264
X0.0356 Y-0.1872
X0.0637 Y-0.1528
X0.0971 Y-0.1236
X0.1342 Y-0.0993
X0.1738 Y-0.0793
X0.2151 Y-0.0632
X0.2576 Y-0.0502
X0.3007 Y-0.0399
X0.3443 Y-0.0317
X0.3883 Y-0.0253
X0.4323 Y-0.0203
X0.4765 Y-0.0164
X0.5208 Y-0.0134
X0.5651 Y-0.011
X0.6095 Y-0.0092
X0.6538 Y-0.0078
X0.6982 Y-0.0068
X0.7425 Y-0.0059
X0.7869 Y-0.0053
X0.8313 Y-0.0048
X0.8757 Y-0.0045
X0.92 Y-0.0042
X0.9644 Y-0.004
X1.0531 Y-0.0037
X1.1419 Y-0.0035
X1.1863
X1.2293 Y-0.0143
X1.2686 Y-0.0349
X1.303 Y-0.0629
X1.3324 Y-0.0962
X1.3568 Y-0.1332
X1.3769 Y-0.1728
X1.3931 Y-0.2141
X1.4062 Y-0.2565
X1.4165 Y-0.2997
X1.4247 Y-0.3433
X1.4312 Y-0.3872
X1.4362 Y-0.4312
X1.4402 Y-0.4754
X1.4432 Y-0.5197
X1.4456 Y-0.564
X1.4474 Y-0.6084
X1.4488 Y-0.6527
X1.4499 Y-0.6971
X1.4507 Y-0.7414
X1.4513 Y-0.7858
X1.4477 Y-0.83
X1.4329 Y-0.8719
X1.4092 Y-0.9094
X1.3789 Y-0.9418
X1.3439 Y-0.9691
X1.3057 Y-0.9917
X1.2654 Y-1.0101
X1.2235 Y-1.025
X1.1808 Y-1.0369
X1.1374 Y-1.0463
X1.0937 Y-1.0537
X1.0497 Y-1.0595
X1.0056 Y-1.0641
X0.9613 Y-1.0676
X0.917 Y-1.0703
X0.8727 Y-1.0725
X0.8284 Y-1.0741
X0.784 Y-1.0754
X0.7397 Y-1.0763
X0.6953 Y-1.0771
X0.6509 Y-1.0776
X0.6065 Y-1.0781
X0.5622 Y-1.0784
X0.5178 Y-1.0786
X0.4734 Y-1.0788
X0.4291 Y-1.079
X0.3848 Y-1.0756
X0.3426 Y-1.0618
X0.3045 Y-1.0392
X0.2712 Y-1.0099
X0.2428 Y-0.9758
X0.2191 Y-0.9382
X0.1996 Y-0.8984
X0.1837 Y-0.857
X0.1709 Y-0.8145
X0.1607 Y-0.7713
X0.1526 Y-0.7277
X0.1461 Y-0.6838
X0.1411 Y-0.6397
X0.1371 Y-0.5955
X0.134 Y-0.5512
X0.1316 Y-0.5069
X0.1297 Y-0.4626
X0.1294 Y-0.4182
X0.1384 Y-0.3747
X0.1565 Y-0.3342
X0.182 Y-0.2979
X0.2132 Y-0.2663
X0.2485 Y-0.2395
X0.2867 Y-0.217
X0.327 Y-0.1983
X0.3687 Y-0.1831
X0.4113 Y-0.1708
X0.4545 Y-0.1608
X0.4982 Y-0.1529
X0.5421 Y-0.1466
X0.5862 Y-0.1415
X0.6304 Y-0.1376
X0.6746 Y-0.1344
X0.719 Y-0.132
X0.7633 Y-0.1301
X0.8076 Y-0.1285
X0.852 Y-0.1274
X0.8964 Y-0.1265
X0.9407 Y-0.1258
X0.9851 Y-0.1252
X1.0295 Y-0.1248
X1.0732 Y-0.1324
X1.1143 Y-0.149
X1.1514 Y-0.1733
X1.184 Y-0.2035
X1.2118 Y-0.2381
X1.2351 Y-0.2758
X1.2545 Y-0.3158
X1.2704 Y-0.3572
X1.2833 Y-0.3996
X1.2937 Y-0.4428
X1.3021 Y-0.4863
X1.3088 Y-0.5302
X1.3141 Y-0.5743
X1.3182 Y-0.6184
X1.3202 Y-0.6628
X1.3123 Y-0.7064
X1.2949 Y-0.7473
X1.2698 Y-0.7839
X1.2389 Y-0.8158
X1.2038 Y-0.8429
X1.1657 Y-0.8655
X1.1254 Y-0.8842
X1.0838 Y-0.8995
X1.0412 Y-0.9119
X0.9979 Y-0.9219
X0.9543 Y-0.9299
X0.9104 Y-0.9362
X0.8663 Y-0.9413
X0.8221 Y-0.9452
X0.7778 Y-0.9483
X0.7335 Y-0.9508
X0.6892 Y-0.9527
X0.6448 Y-0.9542
X0.6005 Y-0.9554
X0.5561 Y-0.9561
X0.5122 Y-0.9494
X0.4707 Y-0.9338
X0.433 Y-0.9104
X0.3998 Y-0.881
X0.3712 Y-0.847
X0.3471 Y-0.8098
X0.327 Y-0.7702
X0.3104 Y-0.7291
X0.2968 Y-0.6868
X0.2859 Y-0.6438
X0.277 Y-0.6003
X0.2724 Y-0.5562
X0.2778 Y-0.5122
X0.293 Y-0.4705
X0.3163 Y-0.4327
X0.3458 Y-0.3995
X0.3798 Y-0.371
X0.4171 Y-0.347
X0.4567 Y-0.3269
X0.4979 Y-0.3104
X0.5402 Y-0.297
X0.5832 Y-0.2861
X0.6267 Y-0.2773
X0.6705 Y-0.2702
X0.7145 Y-0.2646
X0.7586 Y-0.2601
X0.8029 Y-0.2565
X0.8471 Y-0.2537
X0.8915 Y-0.2521
X0.9354 Y-0.2582
X0.9772 Y-0.2731
X1.0154 Y-0.2957
X1.0493 Y-0.3244
X1.0785 Y-0.3577
X1.1034 Y-0.3945
X1.1242 Y-0.4337
X1.1415 Y-0.4745
X1.1541 Y-0.5171
X1.1547 Y-0.5615
X1.1436 Y-0.6044
X1.123 Y-0.6437
X1.0952 Y-0.6783
X1.0623 Y-0.7081
X1.0256 Y-0.7331
X0.9864 Y-0.7539
X0.9455 Y-0.7709
X0.9033 Y-0.7848
X0.8604 Y-0.7961
X0.817 Y-0.8051
X0.7732 Y-0.8123
X0.7292 Y-0.8181
X0.6849 Y-0.821
X0.6409 Y-0.8154
X0.599 Y-0.8006
X0.5609 Y-0.778
X0.5271 Y-0.7492
X0.4979 Y-0.7158
X0.4883 Y-0.6958
X0.4829 Y-0.6743
X0.4802 Y-0.63
X0.4915 Y-0.5871
X0.513 Y-0.5482
X0.5418 Y-0.5145
X0.5757 Y-0.4858
X0.6131 Y-0.4619
X0.6528 Y-0.4422
X0.6942 Y-0.4262
X0.7374 Y-0.416
X0.7817 Y-0.413
X0.8035 Y-0.417
X0.8088 Y-0.4186
X0.8141 Y-0.4203
X0.8245 Y-0.4241
X0.8345 Y-0.4289
X0.844 Y-0.4347
X0.8528 Y-0.4414
X0.8608 Y-0.4491
X0.8681 Y-0.4575
X0.8744 Y-0.4666
X0.8797 Y-0.4763
X0.8841 Y-0.4865
X0.8873 Y-0.4971
X0.8894 Y-0.508
X0.8904 Y-0.5191
X0.8903 Y-0.5302
X0.889 Y-0.5412
X0.8866 Y-0.552
X0.8831 Y-0.5625
X0.8785 Y-0.5726
X0.8757 Y-0.5774
X0.8727 Y-0.5821
G3 X0.8687 Y-0.6118 I0.0321 J-0.0195
G1 X0.8699 Y-0.6162 Z0.2021
X0.8711 Y-0.6205 Z0.2029
X0.8723 Y-0.6246 Z0.2043
X0.8734 Y-0.6286 Z0.2061
X0.8745 Y-0.6323 Z0.2085
X0.8755 Y-0.6357 Z0.2113
X0.8764 Y-0.6388 Z0.2145
X0.8771 Y-0.6415 Z0.218
X0.8778 Y-0.6438 Z0.2219
X0.8783 Y-0.6456 Z0.2261
X0.8787 Y-0.6468 Z0.2304
X0.8789 Y-0.6476 Z0.2348
X0.879 Y-0.6479 Z0.2394
G0 Z0.9469
(ADAPTIVE1 2)
G0 X-0.0881 Y-1.5637
Z0.9469
Z0.5469
Z0.2719
G1 Z0.2344 F40.
X-0.088 Y-1.5634 Z0.2298
X-0.0878 Y-1.5626 Z0.2254
X-0.0875 Y-1.5613 Z0.2211
X-0.087 Y-1.5595 Z0.2169
X-0.0864 Y-1.5572 Z0.213
X-0.0857 Y-1.5545 Z0.2095
X-0.0849 Y-1.5514 Z0.2063
X-0.0841 Y-1.548 Z0.2035
X-0.0831 Y-1.5442 Z0.2011
X-0.0821 Y-1.5402 Z0.1993
X-0.081 Y-1.536 Z0.1979
X-0.0799 Y-1.5317 Z0.1971
X-0.0788 Y-1.5273 Z0.1969
G3 X-0.0494 Y-1.3232 I-0.9274 J0.2376
G1 Y-1.3155
X-0.0654 Y-1.2741
X-0.0778 Y-1.2315
X-0.0873 Y-1.1882
X-0.0946 Y-1.1444
X-0.1001 Y-1.1004
X-0.1043 Y-1.0562
X-0.1074 Y-1.012
X-0.1098 Y-0.9677
X-0.1116 Y-0.9233
X-0.1129 Y-0.879
X-0.1139 Y-0.8346
X-0.1146 Y-0.7902
X-0.1152 Y-0.7459
X-0.1156 Y-0.7015
X-0.1159 Y-0.6571
X-0.1161 Y-0.6127
X-0.1163 Y-0.5684
X-0.1165 Y-0.4796
X-0.1166 Y-0.3465
Y-0.1246
X-0.1165 Y-0.1135
X-0.1152 Y-0.1025
X-0.1128 Y-0.0917
X-0.0988 Y-0.0496
X-0.072 Y-0.0142
X-0.0385 Y0.0149
X-0.0008 Y0.0382
X0.0396 Y0.0566
X0.0816 Y0.071
X0.1246 Y0.0821
X0.1681 Y0.0906
X0.212 Y0.0971
X0.2561 Y0.102
X0.3003 Y0.1057
X0.3446 Y0.1085
X0.3889 Y0.1106
X0.4333 Y0.1121
X0.4776 Y0.1133
X0.522 Y0.1142
X0.5664 Y0.1149
X0.6107 Y0.1153
X0.6551 Y0.1157
X0.6995 Y0.116
X0.7439 Y0.1162
X0.8326 Y0.1164
X0.9657 Y0.1166
X1.1876 Y0.1167
X1.3429
X1.3648 Y0.1134
X1.4065 Y0.0982
X1.4421 Y0.0716
X1.4712 Y0.0382
X1.4946 Y0.0005
X1.5131 Y-0.0399
X1.5275 Y-0.0818
X1.5386 Y-0.1248
X1.5472 Y-0.1683
X1.5537 Y-0.2122
X1.5586 Y-0.2563
X1.5623 Y-0.3005
X1.5651 Y-0.3448
X1.5672 Y-0.3892
X1.5688 Y-0.4335
X1.57 Y-0.4779
X1.5708 Y-0.5222
X1.5715 Y-0.5666
X1.572 Y-0.611
X1.5723 Y-0.6553
X1.5726 Y-0.6997
X1.5728 Y-0.7441
X1.5731 Y-0.8328
X1.5732 Y-0.9216
Y-0.9659
X1.572 Y-0.977
X1.5624 Y-1.0203
X1.5387 Y-1.0578
X1.507 Y-1.0889
X1.4704 Y-1.114
X1.4308 Y-1.1339
X1.3892 Y-1.1494
X1.3465 Y-1.1615
X1.3031 Y-1.1708
X1.2593 Y-1.1779
X1.2153 Y-1.1832
X1.1711 Y-1.1873
X1.1268 Y-1.1904
X1.0825 Y-1.1927
X1.0382 Y-1.1944
X0.9938 Y-1.1957
X0.9494 Y-1.1966
X0.9051 Y-1.1974
X0.8607 Y-1.1979
X0.8163 Y-1.1983
X0.772 Y-1.1986
X0.7276 Y-1.1988
X0.6832 Y-1.199
X0.5945 Y-1.1992
X0.4614 Y-1.1993
X0.2395 Y-1.1994
X0.1966 Y-1.1881
X0.1587 Y-1.165
X0.1267 Y-1.1342
X0.1004 Y-1.0985
X0.0791 Y-1.0596
X0.0621 Y-1.0186
X0.0487 Y-0.9763
X0.0382 Y-0.9332
X0.0301 Y-0.8895
X0.0237 Y-0.8456
X0.0189 Y-0.8015
X0.0152 Y-0.7573
X0.0123 Y-0.713
X0.0101 Y-0.6687
X0.0085 Y-0.6244
X0.0072 Y-0.58
X0.0063 Y-0.5356
X0.0055 Y-0.4913
X0.005 Y-0.4469
X0.0046 Y-0.4025
X0.0043 Y-0.3582
X0.004 Y-0.3138
X0.0039 Y-0.2694
X0.0148 Y-0.2264
X0.0356 Y-0.1872
X0.0637 Y-0.1528
X0.0971 Y-0.1236
X0.1342 Y-0.0993
X0.1738 Y-0.0793
X0.2151 Y-0.0632
X0.2576 Y-0.0502
X0.3007 Y-0.0399
X0.3443 Y-0.0317
X0.3883 Y-0.0253
X0.4323 Y-0.0203
X0.4765 Y-0.0164
X0.5208 Y-0.0134
X0.5651 Y-0.011
X0.6095 Y-0.0092
X0.6538 Y-0.0078
X0.6982 Y-0.0068
X0.7425 Y-0.0059
X0.7869 Y-0.0053
X0.8313 Y-0.0048
X0.8757 Y-0.0045
X0.92 Y-0.0042
X0.9644 Y-0.004
X1.0531 Y-0.0037
X1.1419 Y-0.0035
X1.1863
X1.2293 Y-0.0143
X1.2686 Y-0.0349
X1.303 Y-0.0629
X1.3324 Y-0.0962
X1.3568 Y-0.1332
X1.3769 Y-0.1728
X1.3931 Y-0.2141
X1.4062 Y-0.2565
X1.4165 Y-0.2997
X1.4247 Y-0.3433
X1.4312 Y-0.3872
X1.4362 Y-0.4312
X1.4402 Y-0.4754
X1.4432 Y-0.5197
X1.4456 Y-0.564
X1.4474 Y-0.6084
X1.4488 Y-0.6527
X1.4499 Y-0.6971
X1.4507 Y-0.7414
X1.4513 Y-0.7858
X1.4477 Y-0.83
X1.4329 Y-0.8719
X1.4092 Y-0.9094
X1.3789 Y-0.9418
X1.3439 Y-0.9691
X1.3057 Y-0.9917
X1.2654 Y-1.0101
X1.2235 Y-1.025
X1.1808 Y-1.0369
X1.1374 Y-1.0463
X1.0937 Y-1.0537
X1.0497 Y-1.0595
X1.0056 Y-1.0641
X0.9613 Y-1.0676
X0.917 Y-1.0703
X0.8727 Y-1.0725
X0.8284 Y-1.0741
X0.784 Y-1.0754
X0.7397 Y-1.0763
X0.6953 Y-1.0771
X0.6509 Y-1.0776
X0.6065 Y-1.0781
X0.5622 Y-1.0784
X0.5178 Y-1.0786
X0.4734 Y-1.0788
X0.4291 Y-1.079
X0.3848 Y-1.0756
X0.3426 Y-1.0618
X0.3045 Y-1.0392
X0.2712 Y-1.0099
X0.2428 Y-0.9758
X0.2191 Y-0.9382
X0.1996 Y-0.8984
X0.1837 Y-0.857
X0.1709 Y-0.8145
X0.1607 Y-0.7713
X0.1526 Y-0.7277
X0.1461 Y-0.6838
X0.1411 Y-0.6397
X0.1371 Y-0.5955
X0.134 Y-0.5512
X0.1316 Y-0.5069
X0.1297 Y-0.4626
X0.1294 Y-0.4182
X0.1384 Y-0.3747
X0.1565 Y-0.3342
X0.182 Y-0.2979
X0.2132 Y-0.2663
X0.2485 Y-0.2395
X0.2867 Y-0.217
X0.327 Y-0.1983
X0.3687 Y-0.1831
X0.4113 Y-0.1708
X0.4545 Y-0.1608
X0.4982 Y-0.1529
X0.5421 Y-0.1466
X0.5862 Y-0.1415
X0.6304 Y-0.1376
X0.6746 Y-0.1344
X0.719 Y-0.132
X0.7633 Y-0.1301
X0.8076 Y-0.1285
X0.852 Y-0.1274
X0.8964 Y-0.1265
X0.9407 Y-0.1258
X0.9851 Y-0.1252
X1.0295 Y-0.1248
X1.0732 Y-0.1324
X1.1143 Y-0.149
X1.1514 Y-0.1733
X1.184 Y-0.2035
X1.2118 Y-0.2381
X1.2351 Y-0.2758
X1.2545 Y-0.3158
X1.2704 Y-0.3572
X1.2833 Y-0.3996
X1.2937 Y-0.4428
X1.3021 Y-0.4863
X1.3088 Y-0.5302
X1.3141 Y-0.5743
X1.3182 Y-0.6184
X1.3202 Y-0.6628
X1.3123 Y-0.7064
X1.2949 Y-0.7473
X1.2698 Y-0.7839
X1.2389 Y-0.8158
X1.2038 Y-0.8429
X1.1657 Y-0.8655
X1.1254 Y-0.8842
X1.0838 Y-0.8995
X1.0412 Y-0.9119
X0.9979 Y-0.9219
X0.9543 Y-0.9299
X0.9104 Y-0.9362
X0.8663 Y-0.9413
X0.8221 Y-0.9452
X0.7778 Y-0.9483
X0.7335 Y-0.9508
X0.6892 Y-0.9527
X0.6448 Y-0.9542
X0.6005 Y-0.9554
X0.5561 Y-0.9561
X0.5122 Y-0.9494
X0.4707 Y-0.9338
X0.433 Y-0.9104
X0.3998 Y-0.881
X0.3712 Y-0.847
X0.3471 Y-0.8098
X0.327 Y-0.7702
X0.3104 Y-0.7291
X0.2968 Y-0.6868
X0.2859 Y-0.6438
X0.277 Y-0.6003
X0.2724 Y-0.5562
X0.2778 Y-0.5122
X0.293 Y-0.4705
X0.3163 Y-0.4327
X0.3458 Y-0.3995
X0.3798 Y-0.371
X0.4171 Y-0.347
X0.4567 Y-0.3269
X0.4979 Y-0.3104
X0.5402 Y-0.297
X0.5832 Y-0.2861
X0.6267 Y-0.2773
X0.6705 Y-0.2702
X0.7145 Y-0.2646
X0.7586 Y-0.2601
X0.8029 Y-0.2565
X0.8471 Y-0.2537
X0.8915 Y-0.2521
X0.9354 Y-0.2582
X0.9772 Y-0.2731
X1.0154 Y-0.2957
X1.0493 Y-0.3244
X1.0785 Y-0.3577
X1.1034 Y-0.3945
X1.1242 Y-0.4337
X1.1415 Y-0.4745
X1.1541 Y-0.5171
X1.1547 Y-0.5615
X1.1436 Y-0.6044
X1.123 Y-0.6437
X1.0952 Y-0.6783
X1.0623 Y-0.7081
X1.0256 Y-0.7331
X0.9864 Y-0.7539
X0.9455 Y-0.7709
X0.9033 Y-0.7848
X0.8604 Y-0.7961
X0.817 Y-0.8051
X0.7732 Y-0.8123
X0.7292 Y-0.8181
X0.6849 Y-0.821
X0.6409 Y-0.8154
X0.599 Y-0.8006
X0.5609 Y-0.778
X0.5271 Y-0.7492
X0.4979 Y-0.7158
X0.4883 Y-0.6958
X0.4829 Y-0.6743
X0.4802 Y-0.63
X0.4915 Y-0.5871
X0.513 Y-0.5482
X0.5418 Y-0.5145
X0.5757 Y-0.4858
X0.6131 Y-0.4619
X0.6528 Y-0.4422
X0.6942 Y-0.4262
X0.7374 Y-0.416
X0.7817 Y-0.413
X0.8035 Y-0.417
X0.8088 Y-0.4186
X0.8141 Y-0.4203
X0.8245 Y-0.4241
X0.8345 Y-0.4289
X0.844 Y-0.4347
X0.8528 Y-0.4414
X0.8608 Y-0.4491
X0.8681 Y-0.4575
X0.8744 Y-0.4666
X0.8797 Y-0.4763
X0.8841 Y-0.4865
X0.8873 Y-0.4971
X0.8894 Y-0.508
X0.8904 Y-0.5191
X0.8903 Y-0.5302
X0.889 Y-0.5412
X0.8866 Y-0.552
X0.8831 Y-0.5625
X0.8785 Y-0.5726
X0.8757 Y-0.5774
X0.8727 Y-0.5821
G3 X0.8687 Y-0.6118 I0.0321 J-0.0195
G1 X0.8699 Y-0.6162 Z0.1971
X0.8711 Y-0.6205 Z0.1979
X0.8723 Y-0.6246 Z0.1993
X0.8734 Y-0.6286 Z0.2011
X0.8745 Y-0.6323 Z0.2035
X0.8755 Y-0.6357 Z0.2063
X0.8764 Y-0.6388 Z0.2095
X0.8771 Y-0.6415 Z0.213
X0.8778 Y-0.6438 Z0.2169
X0.8783 Y-0.6456 Z0.2211
X0.8787 Y-0.6468 Z0.2254
X0.8789 Y-0.6476 Z0.2298
X0.879 Y-0.6479 Z0.2344
G0 Z0.9469
M5
G53 G0 Z-0.6
(2D ADAPTIVE1)
M9
M1
T32 M6
T31
S7500 M3
G17 G90 G94
G54
M8
G0 X0.8176 Y-0.5214
G43 Z0.9469 H32
G0 Z0.2969
G3 X0.6976 Y-0.4552 Z0.2833 I-0.0893 J-0.0199 F40.
X0.6467 Y-0.582 Z0.2697 I0.0306 J-0.0859
X0.7785 Y-0.6169 Z0.2562 I0.0813 J0.0408
X0.7969 Y-0.4822 Z0.2426 I-0.0503 J0.0755
X0.6614 Y-0.4804 Z0.2291 I-0.0686 J-0.0591
X0.6762 Y-0.6149 Z0.2155 I0.0668 J-0.0607
X0.8074 Y-0.5838 Z0.202 I0.0519 J0.0736
X0.7606 Y-0.4576 Z0.1884 I-0.0792 J0.0424
X0.6415 Y-0.5194 Z0.1749 I-0.0323 J-0.0835
X0.7172 Y-0.6298 Z0.1613 I0.0866 J-0.0217
X0.8172 Y-0.5414 Z0.1478 I0.0109 J0.0884
X0.639 I-0.0891 J0.
X0.8172 I0.0891 J0.
G1 X0.8174 Y-0.5333 F50.
X0.8248 Y-0.5021
G3 X0.8096 Y-0.4413 I-0.0654 J0.0159
X0.727 Y-0.3999 I-0.0854 J-0.0674
X0.5839 Y-0.5154 I-0.0066 J-0.1382
X0.8492 Y-0.625 I0.1442 J-0.0269
X0.8849 Y-0.5494 I-0.2086 J0.1445
X0.772 Y-0.3459 I-0.1585 J0.0452
X0.5871 Y-0.3863 I-0.0569 J-0.1828
X0.6167 Y-0.7219 I0.138 J-0.157
X0.8396 Y-0.7223 I0.1117 J0.1787
X0.9261 Y-0.6294 I-0.1351 J0.2127
X0.9454 Y-0.428 I-0.2118 J0.1219
X0.746 Y-0.2714 I-0.2262 J-0.0828
X0.5073 Y-0.3705 I-0.0315 J-0.2611
X0.563 Y-0.7694 I0.2179 J-0.1729
X0.9012 Y-0.764 I0.1655 J0.2274
X1.0296 Y-0.5042 I-0.194 J0.2575
X0.8299 Y-0.2199 I-0.3086 J-0.0045
X0.5849 Y-0.2245 I-0.1169 J-0.3046
X0.3849 Y-0.4611 I0.1333 J-0.3155
X0.6316 Y-0.8818 I0.342 J-0.0822
X0.8964 Y-0.853 I0.0969 J0.3404
X1.0369 Y-0.7245 I-0.181 J0.3388
G1 X1.0536 Y-0.697
G3 X1.0976 Y-0.4485 I-0.3407 J0.1885
X0.8735 Y-0.1594 I-0.3762 J-0.0602
G1 X0.8675 Y-0.1583
X0.8615 Y-0.1578
X0.6262
G3 X0.5191 Y-0.1822 I0.0005 J-0.2494
X0.423 Y-0.2493 I0.1462 J-0.3118
X0.3139 Y-0.4426 I0.2817 J-0.2864
X0.414 Y-0.8309 I0.4111 J-0.101
X0.5367 Y-0.923 I0.2966 J0.2675
G1 X0.5432 Y-0.9243
X0.5497 Y-0.9249
X0.8451
G3 X0.9436 Y-0.9018 I-0.0023 J0.2311
G1 X0.9668 Y-0.8899
G3 X1.0636 Y-0.8102 I-0.1907 J0.3301
X1.0918 Y-0.2446 I-0.3454 J0.3008
X1.0217 Y-0.1674 I-0.3654 J-0.2613
G1 X1.0138 Y-0.1622
X1.0049 Y-0.1589
X0.9955 Y-0.1578
X0.8615
G3 X0.8434 Y-0.1761 I0.0007 J-0.0187
G1 X0.8433 Y-0.1787
X0.8271 Y-0.904 F300.
X0.827 Y-0.9057 F50.
G3 X0.8451 Y-0.9249 I0.0187 J-0.0004
G1 X0.9765
G3 X1.0388 Y-0.9091 I-0.0058 J0.1542
G1 X1.0558 Y-0.9004
X1.075 Y-0.8884
X1.0941 Y-0.874
G3 X1.1749 Y-0.7801 I-0.2444 J0.292
X1.2146 Y-0.3168 I-0.4467 J0.2716
X1.1298 Y-0.172 I-0.4754 J-0.1812
X1.099 Y-0.1578 I-0.0309 J-0.0265
G1 X0.9955
G3 X0.9774 Y-0.1761 I0.0007 J-0.0187
G1 X0.9773 Y-0.1787
X0.9584 Y-0.904 F300.
Y-0.9056 F50.
G3 X0.9765 Y-0.9249 I0.0187 J-0.0005
G1 X1.0713
G3 X1.1436 Y-0.9037 I-0.0027 J0.143
G1 X1.159 Y-0.8942
X1.1765 Y-0.881
X1.1941 Y-0.8653
G3 X1.2662 Y-0.7653 I-0.2686 J0.2699
X1.2981 Y-0.6873 I-0.3926 J0.2059
G1 X1.2987 Y-0.6831
X1.2989 Y-0.6788
G3 X1.278 Y-0.6608 I-0.0187 J-0.0007
X1.2663 Y-0.6668 I0.0021 J-0.0186 F300.
G1 X1.0582 Y-0.8935
G3 X1.0534 Y-0.904 I0.0138 J-0.0127
X1.0713 Y-0.9249 I0.0186 J-0.0021 F50.
G1 X1.1662
G3 X1.2276 Y-0.9057 I-0.0071 J0.1307
X1.294 Y-0.8474 I-0.1092 J0.1913
G1 X1.2976 Y-0.8378
X1.2989 Y-0.8278
G3 X1.278 Y-0.8098 I-0.0187 J-0.0007
G1 X1.275 Y-0.8104 F300.
X1.2722 Y-0.8114
X1.2695 Y-0.813
X1.1563 Y-0.8907
G3 X1.1482 Y-0.904 I0.0106 J-0.0155
X1.1662 Y-0.9249 I0.0186 J-0.0021 F50.
G1 X1.2465
G3 X1.2775 Y-0.9191 I0.0033 J0.0684
X1.2989 Y-0.8834 I-0.0193 J0.0358
X1.278 Y-0.8654 I-0.0187 J-0.0007
G1 X1.2751 Y-0.866 F300.
X1.2723 Y-0.867
X1.2697 Y-0.8684
X1.2367 Y-0.8906
G3 X1.2285 Y-0.904 I0.0104 J-0.0156
X1.2465 Y-0.9249 I0.0186 J-0.0021 F50.
G1 X1.2757
G3 X1.2989 Y-0.9059 I0.0032 J0.0198
G1 Y-0.3992
G3 X1.277 Y-0.2786 I-0.3555 J-0.0022
X1.2255 Y-0.1763 I-0.4523 J-0.1639
X1.1915 Y-0.1578 I-0.0341 J-0.0221
X1.1735 Y-0.1787 I0.0007 J-0.0187
G1 X1.1739 Y-0.1811 F300.
X1.1747 Y-0.1835
X1.2627 Y-0.4054
G3 X1.278 Y-0.4171 I0.0174 J0.0069
X1.2989 Y-0.3992 I0.0021 J0.0186 F50.
G1 Y-0.2242
G3 X1.289 Y-0.1767 I-0.1066 J0.0026
X1.2546 Y-0.1578 I-0.0348 J-0.0226
G1 X1.2511 Y-0.1582
X1.2479 Y-0.1593
X1.2449 Y-0.1609
X1.2422 Y-0.163
X1.2399 Y-0.1656
X1.2382 Y-0.1686
X1.2371 Y-0.1718
X1.2365 Y-0.1752
X1.2366 Y-0.1787
X1.237 Y-0.181 F300.
X1.2377 Y-0.1832
X1.2386 Y-0.1853
X1.2636 Y-0.2323
G3 X1.278 Y-0.2421 I0.0166 J0.0088
X1.2989 Y-0.2242 I0.0021 J0.0186 F50.
G1 Y-0.1768
X1.2987 Y-0.1749
X1.2984 Y-0.1731
X1.2976 Y-0.1704
X1.2965 Y-0.1681
X1.2951 Y-0.1658
G3 X1.2757 Y-0.1578 I-0.0162 J-0.0118
G1 X1.099
X1.0987 Y-0.1579
G2 X1.0768 Y-0.1793 I-0.2361 J0.2202
X0.9835 Y-0.2371 I-0.2142 J0.2415 F300.
G1 X0.9812 Y-0.2379
X0.9789 Y-0.2383
X0.9765 Y-0.2385
X0.7487
X0.7463 Y-0.2383
X0.7439 Y-0.2379
X0.7417 Y-0.2371
G2 X0.6484 Y-0.1793 I0.1209 J0.2993
X0.6265 Y-0.1579 I0.2142 J0.2415 F50.
G1 X0.6262 Y-0.1578
X0.4948
G3 X0.409 Y-0.1824 I0.0016 J-0.1675
G1 X0.3905 Y-0.1939
X0.3719 Y-0.2078
G3 X0.2935 Y-0.2998 I0.2306 J-0.2763
X0.2371 Y-0.6407 I0.4152 J-0.2438
X0.3936 Y-0.9154 I0.4892 J0.0968
G1 X0.4014 Y-0.9206
X0.4103 Y-0.9238
X0.4196 Y-0.9249
X0.5497
G3 X0.5678 Y-0.9047 I-0.0007 J0.0187
G1 X0.5677 Y-0.904
X0.5131 Y-0.1787 F300.
X0.5129 Y-0.1751 F50.
G3 X0.4948 Y-0.1578 I-0.0187 J-0.0014
G1 X0.3926
G3 X0.3225 Y-0.1787 I0.0035 J-0.1402
X0.2568 Y-0.2341 I0.1253 J-0.2153
X0.1918 Y-0.3415 I0.2957 J-0.2524
X0.1576 Y-0.4708 I0.465 J-0.192
G1 X0.1578 Y-0.5669
X0.1594 Y-0.5989
G3 X0.1934 Y-0.7552 I0.4769 J0.022
X0.2848 Y-0.9101 I0.5177 J0.2009
X0.3162 Y-0.9249 I0.0315 J0.0261
G1 X0.4196
G3 X0.4377 Y-0.9054 I-0.0007 J0.0187
G1 X0.4376 Y-0.904
X0.4108 Y-0.1787 F300.
X0.4107 Y-0.1759 F50.
G3 X0.3926 Y-0.1578 I-0.0187 J-0.0007
G1 X0.3051
G3 X0.2404 Y-0.1765 I0.0021 J-0.1284
X0.1617 Y-0.2517 I0.1183 J-0.2027
G1 X0.1588 Y-0.2603
X0.1578 Y-0.2693
G3 X0.1787 Y-0.2872 I0.0187 J0.0007
G1 X0.1818 Y-0.2866 F300.
X0.1848 Y-0.2855
X0.1875 Y-0.2838
X0.3154 Y-0.1918
G3 X0.3231 Y-0.1787 I-0.011 J0.0152
X0.3051 Y-0.1578 I-0.0186 J0.0021 F50.
G1 X0.2175
G3 X0.1744 Y-0.1691 I0.0001 J-0.0882
X0.1578 Y-0.2021 I0.0252 J-0.0334
G1 X0.1581 Y-0.2051
X0.159 Y-0.2081
X0.1603 Y-0.2109
X0.1621 Y-0.2134
X0.1643 Y-0.2156
X0.1668 Y-0.2174
X0.1696 Y-0.2188
X0.1725 Y-0.2197
X0.1756 Y-0.2201
X0.1787 Y-0.22
X0.1814 Y-0.2195 F300.
X0.184 Y-0.2186
X0.1864 Y-0.2174
X0.2267 Y-0.1925
G3 X0.2355 Y-0.1787 I-0.0098 J0.016
X0.2175 Y-0.1578 I-0.0186 J0.0021 F50.
G1 X0.181
G3 X0.1578 Y-0.1768 I-0.0032 J-0.0198
G1 Y-0.4708
Y-0.4709
G2 X0.1611 Y-0.4926 I-0.2467 J-0.0479
G1 X0.1612 Y-0.4945
Y-0.5015
Y-0.5362 F300.
Y-0.5431 F50.
X0.1611 Y-0.5438
Y-0.5445
Y-0.5451
G2 X0.1578 Y-0.5668 I-0.2499 J0.0263
G1 Y-0.5669
Y-0.7783
G3 X0.1722 Y-0.8564 I0.2242 J0.001
G1 X0.1822 Y-0.8808
X0.1932 Y-0.9021
G3 X0.2197 Y-0.9236 I0.0378 J0.0194
G1 X0.2298 Y-0.9249
G3 X0.2478 Y-0.904 I-0.0007 J0.0187
G1 X0.2473 Y-0.9014 F300.
X0.2465 Y-0.899
X0.1939 Y-0.7718
G3 X0.1787 Y-0.7603 I-0.0173 J-0.0072
X0.1578 Y-0.7783 I-0.0021 J-0.0186 F50.
G1 Y-0.895
X0.1582 Y-0.9033
G3 X0.1829 Y-0.9249 I0.0247 J0.0034
X0.2032 Y-0.9171 I-0.0012 J0.0333
G1 X0.2053 Y-0.9151
X0.2072 Y-0.9129
X0.2089 Y-0.9104
G3 X0.1742 Y-0.8707 I-0.0235 J0.0145 F300.
X0.1578 Y-0.895 I0.0112 J-0.0253 F50.
G1 Y-0.9059
X0.158 Y-0.9077
X0.1583 Y-0.9096
X0.1591 Y-0.9122
X0.1602 Y-0.9145
X0.1616 Y-0.9168
G3 X0.181 Y-0.9248 I0.0162 J0.0118
G1 X0.3162 Y-0.9249
G3 X0.3341 Y-0.904 I-0.0007 J0.0187
G1 X0.3338 Y-0.9008 Z0.1481
X0.3334 Y-0.8976 Z0.1489
X0.3331 Y-0.8947 Z0.1503
X0.3328 Y-0.892 Z0.1522
X0.3325 Y-0.8897 Z0.1545
X0.3323 Y-0.8879 Z0.1572
X0.3321 Y-0.8865 Z0.1601
X0.332 Y-0.8857 Z0.1633
Y-0.8854 Z0.1665
G0 Z0.9469
M5
G53 G0 Z-0.6
(2D ADAPTIVE2)
M9
M1
T31 M6
T13
S7500 M3
G17 G90 G94
G54
M8
G0 X0.7606 Y-0.4884
G43 Z0.9469 H31
G0 Z0.2969
G3 X0.6688 Y-0.524 Z0.2889 I-0.0322 J-0.053 F40.
X0.7269 Y-0.6032 Z0.2809 I0.0594 J-0.0173
X0.7882 Y-0.5266 Z0.273 I0.0013 J0.0617
X0.6985 Y-0.4875 Z0.265 I-0.0598 J-0.0148
X0.6841 Y-0.584 Z0.2571 I0.0297 J-0.0538
X0.7808 Y-0.5729 Z0.2491 I0.0441 J0.0426
X0.745 Y-0.4826 Z0.2412 I-0.0525 J0.0314
X0.6673 Y-0.5405 Z0.2332 I-0.0167 J-0.0587
X0.7432 Y-0.6003 Z0.2253 I0.0609 J-0.0008
X0.7812 Y-0.5117 Z0.2173 I-0.015 J0.0589
X0.6859 Y-0.4981 Z0.2094 I-0.0529 J-0.0297
X0.6975 Y-0.5934 Z0.2014 I0.0423 J-0.0432
X0.7864 Y-0.5575 Z0.1935 I0.0307 J0.052
X0.7287 Y-0.4812 Z0.1855 I-0.058 J0.0161
X0.6702 Y-0.5565 Z0.1776 I-0.0004 J-0.0601
X0.7579 Y-0.5934 Z0.1696 I0.058 J0.0152
X0.7707 Y-0.4993 Z0.1617 I-0.0297 J0.0519
X0.6768 Y-0.5114 Z0.1537 I-0.0423 J-0.042
X0.7128 Y-0.5988 Z0.1457 I0.0515 J-0.0299
X0.7876 Y-0.5414 Z0.1378 I0.0154 J0.0573
X0.6688 I-0.0594 J0.
X0.7876 I0.0594 J0.
G1 Y-0.5398 F30.
X0.7881 Y-0.5382
X0.8021 Y-0.5157
G3 X0.8075 Y-0.4724 I-0.0415 J0.0272
X0.7713 Y-0.4273 I-0.0746 J-0.0228
X0.7115 Y-0.413 I-0.0528 J-0.0887
X0.6447 Y-0.438 I0.0071 J-0.1204
X0.5957 Y-0.5193 I0.0792 J-0.1032
X0.695 Y-0.672 I0.1321 J-0.0227
X0.8375 Y-0.6203 I0.0333 J0.1304
G1 X0.8514 Y-0.5978
X0.8651 Y-0.5751
X0.8765 Y-0.5512
X0.8837 Y-0.5285
X0.8872 Y-0.5059
X0.8873 Y-0.4834
X0.8841 Y-0.4612
X0.8776 Y-0.4394
X0.8677 Y-0.4185
X0.8544 Y-0.3988
X0.8379 Y-0.3807
X0.8184 Y-0.3649
X0.7962 Y-0.3519
X0.7717 Y-0.342
X0.7459 Y-0.3359
X0.7195 Y-0.3336
X0.6931 Y-0.3351
X0.6671 Y-0.3401
X0.642 Y-0.3486
X0.6182 Y-0.3603
X0.5961 Y-0.3749
X0.576 Y-0.3922
X0.5584 Y-0.412
X0.5435 Y-0.4339
X0.5315 Y-0.4575
X0.5225 Y-0.4824
X0.5166 Y-0.5083
X0.5139 Y-0.5346
X0.5146 Y-0.5611
X0.5186 Y-0.5873
X0.5259 Y-0.6128
X0.5362 Y-0.6372
X0.5494 Y-0.6602
X0.5653 Y-0.6814
X0.5838 Y-0.7004
X0.6045 Y-0.7169
X0.6271 Y-0.7308
X0.6512 Y-0.7418
X0.6764 Y-0.7498
X0.7025 Y-0.7547
X0.7289 Y-0.7563
X0.7553 Y-0.7545
X0.7814 Y-0.7494
X0.8066 Y-0.7413
X0.8306 Y-0.7302
X0.8531 Y-0.7162
X0.8737 Y-0.6995
X0.892 Y-0.6803
G3 X0.9484 Y-0.591 I-0.2707 J0.2335
G1 X0.9573 Y-0.5661
X0.9638 Y-0.5404
G3 X0.9605 Y-0.4353 I-0.2278 J0.0454
G1 X0.9525 Y-0.41
G3 X0.8518 Y-0.2906 I-0.2268 J-0.0889
X0.6997 Y-0.2533 I-0.1347 J-0.2207
X0.495 Y-0.3613 I0.0181 J-0.2823
X0.4836 Y-0.708 I0.2311 J-0.1811
X0.8827 Y-0.794 I0.2446 J0.1662
X0.9619 Y-0.7243 I-0.1629 J0.265
X1.0436 Y-0.5599 I-0.285 J0.244
G1 X1.0476 Y-0.5337
G3 X0.935 Y-0.2501 I-0.3175 J0.038
X0.6888 Y-0.172 I-0.2179 J-0.2595
X0.3816 Y-0.3926 I0.0289 J-0.3644
X0.6965 Y-0.9183 I0.3457 J-0.1501
X0.9681 Y-0.8341 I0.0323 J0.3761
X1.1265 Y-0.5657 I-0.2908 J0.3526
X0.8911 Y-0.1262 I-0.3992 J0.069
G1 X0.5929 Y-0.1266
X0.5665 Y-0.1279
X0.5404 Y-0.1326
X0.5153 Y-0.1411
G3 X0.3876 Y-0.2338 I0.1466 J-0.3364
X0.5275 Y-0.9562 I0.3383 J-0.3092
G1 X0.5285 Y-0.9561
X0.8758
X0.8989 Y-0.955
X0.9246 Y-0.9498
X0.9495 Y-0.9407
G3 X1.0572 Y-0.8647 I-0.1536 J0.3316
X1.2138 Y-0.5368 I-0.3681 J0.3771
X1.0455 Y-0.1271 I-0.4854 J0.04
G1 X1.0439 Y-0.1267
X1.0424 Y-0.1266
X0.8909
G3 X0.8789 Y-0.1388 Z0.1426 I0.0004 J-0.0125
G1 Y-0.1395 Z0.1428
X0.8787 Y-0.1501
X0.8639 Y-0.9325 F300.
X0.8637 Y-0.9432 F30.
Y-0.9434 Z0.1427
G3 X0.8758 Y-0.9561 Z0.1378 I0.0125 J-0.0002
G1 X1.0202
X1.035 Y-0.9554
X1.0524 Y-0.9519
X1.0727 Y-0.9445
X1.0959 Y-0.9318
G3 X1.1722 Y-0.8589 I-0.1911 J0.2761
X1.2819 Y-0.3586 I-0.4603 J0.3631
X1.1628 Y-0.1275 I-0.5578 J-0.1411
G1 X1.1609 Y-0.1268
X1.159 Y-0.1266
X1.0424
G3 X1.0303 Y-0.1387 Z0.1426 I0.0004 J-0.0125
G1 Y-0.1395 Z0.1428
X1.03 Y-0.1501
X1.0085 Y-0.9325 F300.
X1.0082 Y-0.9432 F30.
Y-0.9433
G3 X1.0202 Y-0.9561 Z0.1378 I0.0125 J-0.0003
G1 X1.1346
X1.1482 Y-0.9554
X1.1627 Y-0.9525
X1.1802 Y-0.9462
X1.2001 Y-0.9354
X1.2212 Y-0.9194
G3 X1.2872 Y-0.8369 I-0.2448 J0.2636
X1.3302 Y-0.7519 I-0.476 J0.2944
G1 X1.3301 Y-0.751
G3 X1.3172 Y-0.739 Z0.1428 I-0.0125 J-0.0004
G1 X1.3148 Y-0.7393
X1.3125 Y-0.7401
X1.3104 Y-0.7413
X1.3086 Y-0.7429
X1.3079 Y-0.7436
X1.1271 Y-0.9339 F300.
X1.126 Y-0.935 F30.
X1.1245 Y-0.9368
X1.1235 Y-0.9388
X1.1228 Y-0.941
X1.1225 Y-0.9432
G3 X1.1346 Y-0.9561 Z0.1378 I0.0125 J-0.0004
G1 X1.2369
X1.2515 Y-0.9554
X1.2648 Y-0.9527
X1.2804 Y-0.947
X1.2981 Y-0.9374
X1.3191 Y-0.9215
X1.3283 Y-0.9121
X1.3293 Y-0.9108
X1.3299 Y-0.9093
X1.3301 Y-0.9076
G3 X1.3172 Y-0.8955 Z0.1428 I-0.0125 J-0.0004
G1 X1.3148 Y-0.8958
X1.3126 Y-0.8966
X1.3072 Y-0.899
X1.2323 Y-0.9322 F300.
X1.2308 Y-0.933
X1.2294 Y-0.9339
G3 X1.2248 Y-0.9432 I0.0079 J-0.0097 F30.
X1.2369 Y-0.9561 Z0.1378 I0.0125 J-0.0004
G1 X1.3091
X1.3121
X1.3151 Y-0.9556
X1.3211 Y-0.9544
X1.3224 Y-0.954
X1.3236 Y-0.9534
X1.3245 Y-0.9528
X1.3254 Y-0.9521
X1.3264 Y-0.9511
X1.3272 Y-0.95
G3 X1.3301 Y-0.9354 I-0.0274 J0.0132
G1 Y-0.2977
X1.3288 Y-0.2712
X1.324 Y-0.2452
G3 X1.2672 Y-0.1279 I-0.3735 J-0.1085
G1 X1.2653 Y-0.1269
X1.2632 Y-0.1266
G3 X1.2511 Y-0.1395 Z0.1428 I0.0004 J-0.0125
G1 X1.2513 Y-0.1413
X1.2518 Y-0.1431
X1.254 Y-0.1497
X1.3058 Y-0.3013 F300.
X1.3067 Y-0.3033
X1.308 Y-0.3052
G3 X1.3172 Y-0.3098 I0.0097 J0.0079 F30.
X1.3301 Y-0.2977 Z0.1378 I0.0004 J0.0125
G1 Y-0.1473
Y-0.1443
X1.3295 Y-0.1413
X1.3283 Y-0.1353
X1.3279 Y-0.134
X1.3276 Y-0.1333
X1.3272 Y-0.1327
X1.3264 Y-0.1316
X1.3254 Y-0.1305
X1.3245 Y-0.1298
G3 X1.3121 Y-0.1267 I-0.0128 J-0.0245
G1 X1.3031 Y-0.1266
X1.159
X1.1429 Y-0.1377 Z0.1428
X1.1341 Y-0.1438
X1.1289 Y-0.1473 F300.
X1.0202 Y-0.2335
G2 X0.96 Y-0.2564 I-0.0632 J0.0755
G1 X0.8096
G2 X0.7546 Y-0.2375 I0.003 J0.0984
G1 X0.6311 Y-0.1413
G3 X0.6226 Y-0.1353 I-0.0403 J-0.0475
G1 X0.622 Y-0.1351
X0.6118 Y-0.1321 F30.
X0.5929 Y-0.1266 Z0.1378
X0.4425
X0.4249 Y-0.1274
X0.4075 Y-0.131
X0.3872 Y-0.1383
X0.364 Y-0.151
G3 X0.2886 Y-0.2248 I0.1803 J-0.2595
X0.2383 Y-0.7772 I0.4324 J-0.3179
X0.3756 Y-0.9555 I0.4776 J0.2259
G1 X0.3772 Y-0.9559
X0.3787 Y-0.9561
X0.5285
G3 X0.5406 Y-0.9432 Z0.1428 I-0.0004 J0.0125
G1 X0.5405 Y-0.9423
X0.5395 Y-0.9326
X0.4558 Y-0.1501 F300.
X0.4547 Y-0.1395 F30.
X0.4545 Y-0.1377 Z0.1423
G3 X0.4425 Y-0.1266 Z0.1378 I-0.0124 J-0.0013
G1 X0.3281
X0.3127 Y-0.1273
X0.2985 Y-0.1302
X0.2816 Y-0.1364
X0.2624 Y-0.1468
X0.2413 Y-0.1627
G3 X0.177 Y-0.2464 I0.2226 J-0.2375
X0.1264 Y-0.3672 I0.4865 J-0.2748
G1 X0.1267 Y-0.3697 Z0.1384
X0.1276 Y-0.372 Z0.139
X0.1288 Y-0.3741 Z0.1397
X0.1304 Y-0.376 Z0.1403
X0.1324 Y-0.3775 Z0.1409
X0.1346 Y-0.3785 Z0.1415
X0.137 Y-0.3792 Z0.1422
X0.1395 Y-0.3793 Z0.1428
G3 X0.1487 Y-0.3748 I-0.0004 J0.0125
G1 Y-0.3747
X0.3358 Y-0.1489 F300.
X0.3373 Y-0.147 F30.
X0.3388 Y-0.1447
X0.3398 Y-0.1422
X0.3402 Y-0.1395
G3 X0.3281 Y-0.1266 Z0.1378 I-0.0125 J0.0004
G1 X0.2258
X0.2113 Y-0.1273
X0.1983 Y-0.1299
X0.1833 Y-0.1354
X0.1662 Y-0.1447
X0.1464 Y-0.1596
X0.1284 Y-0.178
X0.1274 Y-0.1794
X0.1268 Y-0.1809
X0.1266 Y-0.1826
G3 X0.1395 Y-0.1946 Z0.1428 I0.0125 J0.0004
G1 X0.1421 Y-0.1942
X0.1446 Y-0.1933
X0.1494 Y-0.1909
X0.231 Y-0.1502 F300.
X0.2333 Y-0.1487
G3 X0.2379 Y-0.1395 I-0.0079 J0.0097 F30.
X0.2258 Y-0.1266 Z0.1378 I-0.0125 J0.0004
G1 X0.1476
X0.1446
X0.1416 Y-0.1271
X0.1355 Y-0.1283
X0.1343 Y-0.1287
X0.1331 Y-0.1293
X0.1322 Y-0.1298
X0.1313 Y-0.1305
X0.1303 Y-0.1316
G3 X0.1266 Y-0.1473 I0.0248 J-0.0142
G1 Y-0.6647
G3 X0.1451 Y-0.7685 I0.3033 J0.0006
X0.2569 Y-0.9552 I0.5418 J0.1975
G1 X0.2587 Y-0.9559
X0.2604 Y-0.9561
G3 X0.2674 Y-0.9336 I-0.0004 J0.0125
G1 X0.2652 Y-0.9319 Z0.1381
X0.263 Y-0.9303 Z0.139
X0.2611 Y-0.9289 Z0.1405
X0.2595 Y-0.9278 Z0.1425
X0.2583 Y-0.9269 Z0.1449
X0.2576 Y-0.9263 Z0.1475
X0.2573 Y-0.9262 Z0.1503
G0 Z0.1628
X0.1417 Y-0.6242
G1 Z0.1503 F30.
X0.1415 Y-0.6245 Z0.1475
X0.141 Y-0.6253 Z0.1449
X0.1403 Y-0.6266 Z0.1425
X0.1393 Y-0.6283 Z0.1405
X0.138 Y-0.6303 Z0.139
X0.1367 Y-0.6326 Z0.1381
X0.1353 Y-0.635 Z0.1378
G3 X0.1266 Y-0.6647 I0.0536 J-0.0318
G1 Y-0.8632
X0.1275 Y-0.8813
X0.132 Y-0.9038
X0.1411 Y-0.9287
X0.1532 Y-0.9522
X0.1537 Y-0.9531
X0.1552 Y-0.9547
X0.1571 Y-0.9558
X0.1592 Y-0.9561
G3 X0.1713 Y-0.9432 Z0.1428 I-0.0004 J0.0125
G1 X0.1709 Y-0.9406
X0.169 Y-0.9328
X0.1512 Y-0.8606 F300.
X0.1502 Y-0.858
X0.1487 Y-0.8557
G3 X0.1395 Y-0.8511 I-0.0097 J-0.0079 F30.
X0.1266 Y-0.8632 Z0.1378 I-0.0004 J-0.0125
G1 Y-0.9354
Y-0.9384
X0.1272 Y-0.9414
X0.1284 Y-0.9474
X0.1288 Y-0.9487
X0.1291 Y-0.9494
X0.1295 Y-0.95
X0.1303 Y-0.9511
X0.1313 Y-0.9521
G3 X0.1536 Y-0.9561 I0.0171 J0.0312
G1 X0.3787
G3 X0.3856 Y-0.9336 I-0.0004 J0.0125
G1 X0.3834 Y-0.9319 Z0.1381
X0.3813 Y-0.9303 Z0.139
X0.3794 Y-0.9289 Z0.1405
X0.3778 Y-0.9278 Z0.1425
X0.3766 Y-0.9269 Z0.1449
X0.3758 Y-0.9263 Z0.1475
X0.3756 Y-0.9262 Z0.1503
G0 Z0.9469
(2D CONTOUR2)
G64 P0.0004 Q0.0004
G0 X0.5538 Y-0.1591
Z0.9469
Z0.5469
G1 Z0.3719 F80.
Z0.1513
G19 G3 Y-0.1466 Z0.1388 J0.0125 K0. F30.
G1 Y-0.1341
G17 G3 X0.5413 Y-0.1216 I-0.0125 J0.
G1 X0.1378
G3 X0.1216 Y-0.1378 I0. J-0.0162
G1 Y-0.9449
G3 X0.1378 Y-0.9611 I0.0162 J0.
G1 X1.3189
G3 X1.3351 Y-0.9449 I0. J0.0162
G1 Y-0.1378
G3 X1.3189 Y-0.1216 I-0.0162 J0.
G1 X0.5413
X0.1378
G3 X0.1216 Y-0.1378 I0. J-0.0162
G1 Y-0.9449
G3 X0.1378 Y-0.9611 I0.0162 J0.
G1 X1.3189
G3 X1.3351 Y-0.9449 I0. J0.0162
G1 Y-0.1378
G3 X1.3189 Y-0.1216 I-0.0162 J0.
G1 X0.5413
G3 X0.5288 Y-0.1341 I0. J-0.0125
G1 Y-0.1466
G19 G2 Y-0.1591 Z0.1513 J0. K0.0125
G0 Z0.9469
G17
M5
G53 G0 Z-0.6
(2D CHAMFER3)
M9
M1
T13 M6
T35
S5000 M3
G17 G90 G94
G54
M8
G0 X1.3461 Y-0.5413
G43 Z0.9469 H13
G0 Z0.5469
G1 Z0.4269 F80.
Z0.1469
Y-0.1378 F20.
G3 X1.3189 Y-0.1106 I-0.0272 J0.
G1 X0.1378
G3 X0.1106 Y-0.1378 I0. J-0.0272
G1 Y-0.9449
G3 X0.1378 Y-0.9721 I0.0272 J0.
G1 X1.3189
G3 X1.3461 Y-0.9449 I0. J0.0272
G1 Y-0.5413
G0 Z0.5469
X1.3189 Y-1.1342
G1 Z0.4269 F80.
Z0.1469
X0.1378 F20.
G2 X-0.0515 Y-0.9449 I0. J0.1893
G1 Y-0.1378
G2 X0.1378 Y0.0515 I0.1893 J0.
G1 X1.3189
G2 X1.5082 Y-0.1378 I0. J-0.1893
G1 Y-0.9449
G2 X1.3189 Y-1.1342 I-0.1893 J0.
G0 Z0.9469
M5
M9
G53 G0 Z-0.6
M30
%
