%
(1,25 TUBE BLOCK, 1,57X1,57X1,68)
(T36 D=0.375 CR=0. - ZMIN=0.15 - FLAT END MILL)
(T52 D=0.5 CR=0. TAPER=135DEG - ZMIN=-0.1436 - DRILL)
G90 G94 G17 G91.1
G20
G53 G0 Z0.
(FACE1 2)
T36 M6
T52
S5000 M3
G17 G90 G94
G54
G64 P0.0004 Q0.0004
M8
G0 X1.7441 Y-1.4704
G43 Z2.2861 H36
G0 Z1.8861
G1 Z1.6836 F80.
G18 G3 X1.7066 Z1.6461 I-0.0375 K0. F50.
G1 X1.6004
X-0.1
G3 X-0.1375 Z1.6836 I0. K0.0375
G0 Z1.8861
X1.7441 Y-1.2554
G1 Z1.6836 F80.
G3 X1.7066 Z1.6461 I-0.0375 K0. F50.
G1 X1.6004
X-0.1
G3 X-0.1375 Z1.6836 I0. K0.0375
G0 Z1.8861
X1.7441 Y-1.0405
G1 Z1.6836 F80.
G3 X1.7066 Z1.6461 I-0.0375 K0. F50.
G1 X1.6004
X-0.1
G3 X-0.1375 Z1.6836 I0. K0.0375
G0 Z1.8861
X1.7441 Y-0.8255
G1 Z1.6836 F80.
G3 X1.7066 Z1.6461 I-0.0375 K0. F50.
G1 X1.6004
X-0.1
G3 X-0.1375 Z1.6836 I0. K0.0375
G0 Z1.8861
X1.7441 Y-0.6106
G1 Z1.6836 F80.
G3 X1.7066 Z1.6461 I-0.0375 K0. F50.
G1 X1.6004
X-0.1
G3 X-0.1375 Z1.6836 I0. K0.0375
G0 Z1.8861
X1.7441 Y-0.3956
G1 Z1.6836 F80.
G3 X1.7066 Z1.6461 I-0.0375 K0. F50.
G1 X1.6004
X-0.1
G3 X-0.1375 Z1.6836 I0. K0.0375
G0 Z1.8861
X1.7441 Y-0.1806
G1 Z1.6836 F80.
G3 X1.7066 Z1.6461 I-0.0375 K0. F50.
G1 X1.6004
X-0.1
G3 X-0.1375 Z1.6836 I0. K0.0375
G0 Z2.2861
G17
M5
G53 G0 Z0.
(DRILL1 2)
M9
M1
T52 M6
T36
S1600 M3
G17 G90 G94
G54
M8
G0 X0.7502 Y-1.1094
G43 Z2.2861 H52
G0 Z1.8861
G1 Z0.6861 F12.
G0 Z1.8861
Z0.7661
G1 Z-0.1436 F12.
G4 P0.05
G0 Z1.8861
X0.3941 Y-0.7533
G1 Z0.6861 F12.
G0 Z1.8861
Z0.7661
G1 Z-0.1436 F12.
G4 P0.05
G0 Z1.8861
X0.7502 Y-0.3971
G1 Z0.6861 F12.
G0 Z1.8861
Z0.7661
G1 Z-0.1436 F12.
G4 P0.05
G0 Z1.8861
X1.1063 Y-0.7533
G1 Z0.6861 F12.
G0 Z1.8861
Z0.7661
G1 Z-0.1436 F12.
G4 P0.05
G0 Z1.8861
Z2.2861
M5
G53 G0 Z0.
(2D ADAPTIVE1 2)
M9
M1
T36 M6
S5000 M3
G17 G90 G94
G54
G64 P0.004 Q0.004
M8
G0 X0.9106 Y-0.6546
G43 Z2.2861 H36
G0 Z1.8861
Z1.7861
G3 X0.6102 Y-0.6273 Z1.7555 I-0.1604 J-0.0987 F40.
X0.6688 Y-0.9223 Z1.7249 I0.1396 J-0.1256
X0.9344 Y-0.7831 Z1.6943 I0.0808 J0.1689
X0.7264 Y-0.5683 Z1.6637 I-0.1843 J0.0297
X0.5795 Y-0.8278 Z1.6331 I0.0236 J-0.1847
X0.8692 Y-0.8951 Z1.6025 I0.17 J0.0746
X0.8519 Y-0.5991 Z1.5719 I-0.1193 J0.1416
X0.5737 Y-0.699 Z1.5413 I-0.1018 J-0.154
X0.7477 Y-0.937 Z1.5107 I0.176 J-0.0539
X0.9262 Y-0.7035 Z1.4801 I0.002 J0.1835
X0.6526 Y-0.5986 Z1.4495 I-0.1761 J-0.0498
X0.6293 Y-0.8898 Z1.4189 I0.0973 J-0.1543
X0.9145 Y-0.83 Z1.3882 I0.1202 J0.1365
X0.7769 Y-0.5742 Z1.3576 I-0.1645 J0.0765
X0.571 Y-0.7779 Z1.327 I-0.0268 J-0.1788
X0.8238 Y-0.9174 Z1.2964 I0.1786 J0.0248
X0.886 Y-0.6362 Z1.2658 I-0.074 J0.1638
X0.5996 Y-0.656 Z1.2352 I-0.1358 J-0.117
X0.6992 Y-0.9243 Z1.2046 I0.1501 J-0.0969
X0.9278 Y-0.7534 Z1.174 I0.0504 J0.1709
X0.5714 I-0.1782 J0.
X0.9278 I0.1782 J0.
G1 X0.9284 Y-0.7091
X0.9292 Y-0.7036
X0.9295 Y-0.6976
X0.9294 Y-0.6916
X0.9289 Y-0.6856
X0.928 Y-0.6797
X0.9268 Y-0.6738
X0.9252 Y-0.668
X0.9234 Y-0.6623
X0.9214 Y-0.6566
X0.919 Y-0.6511
X0.9165 Y-0.6457
X0.9137 Y-0.6404
X0.9107 Y-0.6352
X0.9075 Y-0.63
X0.904 Y-0.6249
X0.9003 Y-0.6198
X0.8963 Y-0.6148
X0.892 Y-0.6098
X0.8875 Y-0.6049
X0.8827 Y-0.6002
X0.8776 Y-0.5955
X0.8724 Y-0.591
X0.8669 Y-0.5867
X0.8611 Y-0.5825
X0.8552 Y-0.5785
X0.8491 Y-0.5747
X0.8428 Y-0.5711
X0.8362 Y-0.5677
X0.8296 Y-0.5646
X0.8227 Y-0.5617
X0.8158 Y-0.559
X0.8087 Y-0.5566
X0.8014 Y-0.5545
X0.7941 Y-0.5526
X0.7867 Y-0.551
X0.7792 Y-0.5497
X0.7716 Y-0.5487
X0.764 Y-0.5479
X0.7563 Y-0.5474
X0.7486 Y-0.5473
X0.7409 Y-0.5474
X0.7332 Y-0.5478
X0.7255 Y-0.5486
X0.7178 Y-0.5496
X0.7101 Y-0.5509
X0.7025 Y-0.5525
X0.695 Y-0.5544
X0.6875 Y-0.5565
X0.6801 Y-0.559
X0.6728 Y-0.5618
X0.6656 Y-0.5648
X0.6585 Y-0.5681
X0.6515 Y-0.5717
X0.6447 Y-0.5755
X0.638 Y-0.5796
X0.6315 Y-0.5839
X0.6251 Y-0.5885
X0.6189 Y-0.5934
X0.613 Y-0.5984
X0.6072 Y-0.6037
X0.6016 Y-0.6092
X0.5962 Y-0.615
X0.591 Y-0.6209
X0.5861 Y-0.627
X0.5814 Y-0.6333
X0.577 Y-0.6398
X0.5728 Y-0.6465
X0.5688 Y-0.6533
X0.5651 Y-0.6602
X0.5617 Y-0.6673
X0.5586 Y-0.6745
X0.5557 Y-0.6818
X0.5531 Y-0.6893
X0.5508 Y-0.6968
X0.5488 Y-0.7044
X0.5471 Y-0.7121
X0.5457 Y-0.7198
X0.5445 Y-0.7276
X0.5437 Y-0.7354
X0.5431 Y-0.7433
X0.5429 Y-0.7511
X0.543 Y-0.759
X0.5433 Y-0.7669
X0.544 Y-0.7747
X0.5449 Y-0.7825
X0.5462 Y-0.7903
X0.5478 Y-0.798
X0.5496 Y-0.8057
X0.5517 Y-0.8133
X0.5542 Y-0.8207
X0.5569 Y-0.8281
X0.5598 Y-0.8354
X0.5631 Y-0.8426
X0.5666 Y-0.8496
X0.5704 Y-0.8565
X0.5745 Y-0.8633
X0.5788 Y-0.8699
X0.5834 Y-0.8763
X0.5882 Y-0.8825
X0.5932 Y-0.8886
X0.5985 Y-0.8944
X0.6039 Y-0.9001
X0.6096 Y-0.9055
X0.6155 Y-0.9108
X0.6216 Y-0.9158
X0.6279 Y-0.9205
X0.6343 Y-0.925
X0.641 Y-0.9293
X0.6477 Y-0.9333
X0.6547 Y-0.937
X0.6617 Y-0.9405
X0.6689 Y-0.9437
X0.6762 Y-0.9467
X0.6836 Y-0.9493
X0.6911 Y-0.9517
X0.6987 Y-0.9538
X0.7064 Y-0.9556
X0.7141 Y-0.9571
X0.7219 Y-0.9583
X0.7297 Y-0.9592
X0.7376 Y-0.9598
X0.7455 Y-0.9601
X0.7533
X0.7612 Y-0.9598
X0.769 Y-0.9592
X0.7769 Y-0.9583
X0.7847 Y-0.9571
X0.7924 Y-0.9557
X0.8001 Y-0.9539
X0.8077 Y-0.9518
X0.8152 Y-0.9495
X0.8226 Y-0.9468
X0.8299 Y-0.9439
X0.8371 Y-0.9407
X0.8442 Y-0.9372
X0.8511 Y-0.9335
X0.8579 Y-0.9295
X0.8645 Y-0.9252
X0.871 Y-0.9207
X0.8773 Y-0.916
X0.8834 Y-0.911
X0.8893 Y-0.9058
X0.895 Y-0.9004
X0.9005 Y-0.8947
X0.9057 Y-0.8889
X0.9108 Y-0.8828
X0.9156 Y-0.8766
X0.9202 Y-0.8702
X0.9245 Y-0.8636
X0.9285 Y-0.8569
X0.9324 Y-0.85
X0.9359 Y-0.843
X0.9392 Y-0.8358
X0.9422 Y-0.8285
X0.9453 Y-0.8201
X0.9486 Y-0.8098
X0.9533 Y-0.7934
X0.9566 Y-0.7798
X0.9589 Y-0.7683
X0.9606 Y-0.7578
X0.9618 Y-0.7482
X0.9626 Y-0.7392
X0.963 Y-0.7305
X0.9631 Y-0.7222
X0.9629 Y-0.7141
X0.9624 Y-0.7063
X0.9615 Y-0.6986
X0.9605 Y-0.691
X0.9591 Y-0.6836
X0.9575 Y-0.6762
X0.9556 Y-0.669
X0.9534 Y-0.6618
X0.9509 Y-0.6547
X0.9482 Y-0.6477
X0.9452 Y-0.6408
X0.9419 Y-0.634
X0.9384 Y-0.6273
X0.9346 Y-0.6206
X0.9305 Y-0.6141
X0.9261 Y-0.6078
X0.9215 Y-0.6015
X0.9166 Y-0.5954
X0.9114 Y-0.5894
X0.906 Y-0.5836
X0.9003 Y-0.578
X0.8944 Y-0.5726
X0.8882 Y-0.5673
X0.8818 Y-0.5623
X0.8752 Y-0.5574
X0.8683 Y-0.5529
X0.8612 Y-0.5485
X0.854 Y-0.5444
X0.8465 Y-0.5406
X0.8389 Y-0.537
X0.8311 Y-0.5337
X0.8231 Y-0.5307
X0.815 Y-0.528
X0.8068 Y-0.5256
X0.7985 Y-0.5235
X0.79 Y-0.5217
X0.7815 Y-0.5202
X0.7729 Y-0.519
X0.7642 Y-0.5182
X0.7555 Y-0.5177
X0.7468 Y-0.5176
X0.738 Y-0.5177
X0.7292 Y-0.5182
X0.7204 Y-0.5191
X0.7117 Y-0.5203
X0.703 Y-0.5218
X0.6943 Y-0.5236
X0.6857 Y-0.5258
X0.6772 Y-0.5283
X0.6688 Y-0.5311
X0.6604 Y-0.5343
X0.6522 Y-0.5378
X0.6442 Y-0.5416
X0.6362 Y-0.5456
X0.6284 Y-0.5501
X0.6208 Y-0.5548
X0.6134 Y-0.5597
X0.6061 Y-0.565
X0.5991 Y-0.5706
X0.5923 Y-0.5764
X0.5856 Y-0.5825
X0.5793 Y-0.5888
X0.5731 Y-0.5953
X0.5673 Y-0.6021
X0.5616 Y-0.6092
X0.5563 Y-0.6164
X0.5512 Y-0.6238
X0.5464 Y-0.6315
X0.5419 Y-0.6393
X0.5377 Y-0.6472
X0.5338 Y-0.6554
X0.5303 Y-0.6636
X0.527 Y-0.672
X0.5241 Y-0.6805
X0.5214 Y-0.6892
X0.5192 Y-0.6979
X0.5172 Y-0.7067
X0.5156 Y-0.7156
X0.5143 Y-0.7245
X0.5134 Y-0.7335
X0.5128 Y-0.7425
X0.5125 Y-0.7515
X0.5126 Y-0.7605
X0.5131 Y-0.7695
X0.5139 Y-0.7785
X0.515 Y-0.7875
X0.5165 Y-0.7964
X0.5183 Y-0.8052
X0.5204 Y-0.814
X0.5229 Y-0.8227
X0.5257 Y-0.8313
X0.5288 Y-0.8397
X0.5322 Y-0.8481
X0.536 Y-0.8563
X0.5401 Y-0.8644
X0.5444 Y-0.8723
X0.5491 Y-0.88
X0.5541 Y-0.8875
X0.5593 Y-0.8949
X0.5649 Y-0.902
X0.5707 Y-0.9089
X0.5767 Y-0.9156
X0.583 Y-0.9221
X0.5896 Y-0.9283
X0.5963 Y-0.9343
X0.6033 Y-0.94
X0.6105 Y-0.9454
X0.618 Y-0.9506
X0.6256 Y-0.9555
X0.6333 Y-0.9601
X0.6413 Y-0.9643
X0.6494 Y-0.9683
X0.6577 Y-0.972
X0.6661 Y-0.9753
X0.6746 Y-0.9783
X0.6832 Y-0.981
X0.6919 Y-0.9834
X0.7007 Y-0.9854
X0.7096 Y-0.9871
X0.7185 Y-0.9885
X0.7275 Y-0.9895
X0.7365 Y-0.9901
X0.7455 Y-0.9905
X0.7545
X0.7636 Y-0.9901
X0.7726 Y-0.9894
X0.7815 Y-0.9883
X0.7905 Y-0.987
X0.7993 Y-0.9852
X0.8081 Y-0.9832
X0.8168 Y-0.9808
X0.8254 Y-0.9781
X0.8339 Y-0.975
X0.8423 Y-0.9716
X0.8506 Y-0.9679
X0.8586 Y-0.9639
X0.8666 Y-0.9596
X0.8744 Y-0.955
X0.8819 Y-0.9501
X0.8893 Y-0.9449
X0.8965 Y-0.9395
X0.9035 Y-0.9337
X0.9103 Y-0.9278
X0.9168 Y-0.9215
X0.9231 Y-0.915
X0.9291 Y-0.9083
X0.9349 Y-0.9013
X0.9405 Y-0.8941
X0.9459 Y-0.8863
X0.9517 Y-0.8776
X0.9572 Y-0.8683
X0.9625 Y-0.8586
X0.9676 Y-0.8485
X0.9723 Y-0.8382
X0.9766 Y-0.8277
X0.9804 Y-0.8172
X0.9838 Y-0.8068
X0.9867 Y-0.7964
X0.9891 Y-0.7861
X0.9912 Y-0.776
X0.9928 Y-0.766
X0.994 Y-0.7561
X0.9948 Y-0.7463
X0.9952 Y-0.7366
X0.9953 Y-0.727
X0.995 Y-0.7175
X0.9944 Y-0.7081
X0.9934 Y-0.6988
X0.992 Y-0.6897
X0.9903 Y-0.6806
X0.9883 Y-0.6717
X0.986 Y-0.6629
X0.9833 Y-0.6542
X0.9803 Y-0.6456
X0.977 Y-0.6372
X0.9734 Y-0.6289
X0.9694 Y-0.6207
X0.9652 Y-0.6127
X0.9606 Y-0.6048
X0.9557 Y-0.5971
X0.9506 Y-0.5896
X0.9451 Y-0.5822
X0.9393 Y-0.5751
X0.9332 Y-0.5681
X0.9269 Y-0.5614
X0.9203 Y-0.5549
X0.9134 Y-0.5486
X0.9062 Y-0.5425
X0.8988 Y-0.5368
X0.8912 Y-0.5312
X0.8833 Y-0.526
X0.8752 Y-0.521
X0.8669 Y-0.5164
X0.8584 Y-0.512
X0.8497 Y-0.508
X0.8408 Y-0.5042
X0.8317 Y-0.5008
X0.8225 Y-0.4978
X0.8132 Y-0.4951
X0.8037 Y-0.4927
X0.7941 Y-0.4907
X0.7844 Y-0.489
X0.7747 Y-0.4878
X0.7648 Y-0.4869
X0.755 Y-0.4863
X0.7451 Y-0.4862
X0.7351 Y-0.4864
X0.7252 Y-0.487
X0.7153 Y-0.488
X0.7054 Y-0.4893
X0.6955 Y-0.4911
X0.6857 Y-0.4932
X0.676 Y-0.4957
X0.6664 Y-0.4985
X0.6568 Y-0.5018
X0.6474 Y-0.5054
X0.6381 Y-0.5093
X0.629 Y-0.5137
X0.62 Y-0.5183
X0.6112 Y-0.5233
X0.6026 Y-0.5287
X0.5942 Y-0.5343
X0.586 Y-0.5403
X0.5781 Y-0.5466
X0.5704 Y-0.5532
X0.5629 Y-0.5602
X0.5557 Y-0.5673
X0.5488 Y-0.5748
X0.5421 Y-0.5825
X0.5358 Y-0.5905
X0.5297 Y-0.5987
X0.524 Y-0.6071
X0.5186 Y-0.6158
X0.5135 Y-0.6247
X0.5088 Y-0.6337
X0.5044 Y-0.6429
X0.5004 Y-0.6523
X0.4967 Y-0.6619
X0.4934 Y-0.6715
X0.4905 Y-0.6813
X0.4879 Y-0.6912
X0.4857 Y-0.7012
X0.4839 Y-0.7113
X0.4825 Y-0.7214
X0.4815 Y-0.7316
X0.4808 Y-0.7418
X0.4806 Y-0.7521
X0.4807 Y-0.7623
X0.4812 Y-0.7725
X0.4821 Y-0.7827
X0.4834 Y-0.7929
X0.4851 Y-0.803
X0.4872 Y-0.813
X0.4897 Y-0.8229
X0.4925 Y-0.8328
X0.4957 Y-0.8425
X0.4993 Y-0.8521
X0.5032 Y-0.8616
X0.5075 Y-0.8709
X0.5122 Y-0.88
X0.5171 Y-0.889
X0.5225 Y-0.8977
X0.5281 Y-0.9063
X0.5341 Y-0.9146
X0.5404 Y-0.9227
X0.547 Y-0.9305
X0.5539 Y-0.9381
X0.5611 Y-0.9454
X0.5685 Y-0.9525
X0.5762 Y-0.9592
X0.5842 Y-0.9657
X0.5924 Y-0.9718
X0.6008 Y-0.9776
X0.6095 Y-0.9831
X0.6183 Y-0.9883
X0.6273 Y-0.9931
X0.6366 Y-0.9976
X0.6459 Y-1.0018
X0.6555 Y-1.0055
X0.6651 Y-1.0089
X0.6749 Y-1.012
X0.6848 Y-1.0146
X0.6948 Y-1.0169
X0.7049 Y-1.0188
X0.715 Y-1.0203
X0.7252 Y-1.0214
X0.7355 Y-1.0222
X0.7457 Y-1.0225
X0.756 Y-1.0224
X0.7662 Y-1.022
X0.7764 Y-1.0212
X0.7866 Y-1.02
X0.7967 Y-1.0184
X0.8068 Y-1.0164
X0.8167 Y-1.014
X0.8266 Y-1.0113
X0.8364 Y-1.0081
X0.846 Y-1.0047
X0.8555 Y-1.0008
X0.8649 Y-0.9966
X0.874 Y-0.992
X0.883 Y-0.9871
X0.8918 Y-0.9819
X0.9004 Y-0.9763
X0.9088 Y-0.9703
X0.917 Y-0.9641
X0.9251 Y-0.9574
X0.933 Y-0.9504
X0.9408 Y-0.9429
X0.9483 Y-0.935
X0.9557 Y-0.9268
X0.9629 Y-0.9181
X0.9698 Y-0.909
X0.9765 Y-0.8996
X0.9828 Y-0.8898
X0.9888 Y-0.8797
X0.9944 Y-0.8694
X0.9996 Y-0.859
X1.0044 Y-0.8483
X1.0088 Y-0.8376
X1.0127 Y-0.8267
X1.0162 Y-0.8158
X1.0192 Y-0.8048
X1.0219 Y-0.7938
X1.024 Y-0.7827
X1.0258 Y-0.7717
X1.0271 Y-0.7607
X1.028 Y-0.7498
X1.0284 Y-0.7389
X1.0285 Y-0.7281
X1.0281 Y-0.7173
X1.0273 Y-0.7066
X1.0262 Y-0.696
X1.0246 Y-0.6856
X1.0226 Y-0.6752
X1.0203 Y-0.6649
X1.0176 Y-0.6547
X1.0144 Y-0.6447
X1.011 Y-0.6348
X1.0071 Y-0.625
X1.0029 Y-0.6154
X0.9983 Y-0.606
X0.9934 Y-0.5968
X0.9881 Y-0.5877
X0.9824 Y-0.5789
X0.9764 Y-0.5702
X0.9701 Y-0.5618
X0.9635 Y-0.5536
X0.9565 Y-0.5456
X0.9492 Y-0.5379
X0.9416 Y-0.5305
X0.9338 Y-0.5234
X0.9256 Y-0.5165
X0.9171 Y-0.5099
X0.9084 Y-0.5037
X0.8995 Y-0.4978
X0.8903 Y-0.4922
X0.8808 Y-0.4869
X0.8712 Y-0.482
X0.8613 Y-0.4774
X0.8512 Y-0.4733
X0.841 Y-0.4695
X0.8306 Y-0.466
X0.8201 Y-0.463
X0.8094 Y-0.4604
X0.7986 Y-0.4581
X0.7877 Y-0.4563
X0.7767 Y-0.4549
X0.7657 Y-0.4539
X0.7545 Y-0.4534
X0.7434 Y-0.4532
X0.7322 Y-0.4535
X0.7211 Y-0.4542
X0.7099 Y-0.4553
X0.6988 Y-0.4569
X0.6878 Y-0.4589
X0.6768 Y-0.4613
X0.6658 Y-0.4641
X0.655 Y-0.4674
X0.6443 Y-0.471
X0.6338 Y-0.4751
X0.6234 Y-0.4796
X0.6131 Y-0.4844
X0.6031 Y-0.4897
X0.5932 Y-0.4954
X0.5835 Y-0.5014
X0.5741 Y-0.5078
X0.5649 Y-0.5145
X0.556 Y-0.5216
X0.5474 Y-0.5291
X0.539 Y-0.5369
X0.5309 Y-0.545
X0.5232 Y-0.5534
X0.5157 Y-0.5621
X0.5086 Y-0.571
X0.5019 Y-0.5803
X0.4954 Y-0.5898
X0.4894 Y-0.5995
X0.4837 Y-0.6095
X0.4784 Y-0.6197
X0.4735 Y-0.6301
X0.469 Y-0.6406
X0.4649 Y-0.6514
X0.4613 Y-0.6622
X0.458 Y-0.6732
X0.4551 Y-0.6844
X0.4527 Y-0.6956
X0.4507 Y-0.7069
X0.4492 Y-0.7183
X0.448 Y-0.7298
X0.4473 Y-0.7413
X0.4471 Y-0.7528
X0.4473 Y-0.7643
X0.4479 Y-0.7758
X0.449 Y-0.7872
X0.4505 Y-0.7986
X0.4524 Y-0.81
X0.4548 Y-0.8213
X0.4576 Y-0.8324
X0.4608 Y-0.8435
X0.4644 Y-0.8544
X0.4684 Y-0.8652
X0.4729 Y-0.8758
X0.4778 Y-0.8863
X0.483 Y-0.8965
X0.4887 Y-0.9066
X0.4947 Y-0.9164
X0.5011 Y-0.926
X0.5078 Y-0.9353
X0.5149 Y-0.9444
X0.5223 Y-0.9532
X0.5301 Y-0.9617
X0.5382 Y-0.9699
X0.5466 Y-0.9778
X0.5553 Y-0.9854
X0.5643 Y-0.9926
X0.5735 Y-0.9995
X0.583 Y-1.006
X0.5927 Y-1.0122
X0.6027 Y-1.018
X0.6129 Y-1.0234
X0.6233 Y-1.0284
X0.6338 Y-1.033
X0.6446 Y-1.0372
X0.6554 Y-1.041
X0.6665 Y-1.0444
X0.6776 Y-1.0473
X0.6888 Y-1.0499
X0.7002 Y-1.052
X0.7116 Y-1.0536
X0.723 Y-1.0548
X0.7345 Y-1.0556
X0.7461 Y-1.056
X0.7576 Y-1.0559
X0.7691 Y-1.0554
X0.7806 Y-1.0544
X0.792 Y-1.053
X0.8034 Y-1.0512
X0.8147 Y-1.0489
X0.8259 Y-1.0462
X0.837 Y-1.0431
X0.848 Y-1.0396
X0.8588 Y-1.0356
X0.8695 Y-1.0312
X0.88 Y-1.0265
X0.8904 Y-1.0213
X0.9006 Y-1.0156
X0.9107 Y-1.0096
X0.9205 Y-1.0032
X0.9303 Y-0.9963
X0.9398 Y-0.989
X0.9491 Y-0.9812
X0.9582 Y-0.973
X0.9671 Y-0.9645
X0.9756 Y-0.9555
X0.9839 Y-0.9462
X0.9919 Y-0.9365
X0.9995 Y-0.9264
X1.0067 Y-0.9161
X1.0136 Y-0.9054
X1.0201 Y-0.8945
X1.0261 Y-0.8834
X1.0317 Y-0.8721
X1.0369 Y-0.8605
X1.0416 Y-0.8488
X1.0458 Y-0.837
X1.0496 Y-0.8251
X1.0529 Y-0.8131
X1.0557 Y-0.801
X1.0581 Y-0.7889
X1.0599 Y-0.7767
X1.0614 Y-0.7645
X1.0623 Y-0.7523
X1.0628 Y-0.7402
Y-0.728
X1.0624 Y-0.716
X1.0615 Y-0.704
X1.0601 Y-0.692
X1.0583 Y-0.6802
X1.0561 Y-0.6684
X1.0534 Y-0.6568
X1.0503 Y-0.6453
X1.0467 Y-0.634
X1.0427 Y-0.6228
X1.0383 Y-0.6117
X1.0335 Y-0.6009
X1.0283 Y-0.5902
X1.0227 Y-0.5798
X1.0166 Y-0.5695
X1.0102 Y-0.5595
X1.0034 Y-0.5498
X0.9963 Y-0.5403
X0.9887 Y-0.531
X0.9808 Y-0.5221
X0.9726 Y-0.5134
X0.964 Y-0.5051
X0.9551 Y-0.497
X0.9459 Y-0.4893
X0.9364 Y-0.482
X0.9266 Y-0.475
X0.9165 Y-0.4683
X0.9061 Y-0.4621
X0.8955 Y-0.4562
X0.8846 Y-0.4507
X0.8736 Y-0.4456
X0.8623 Y-0.441
X0.8508 Y-0.4367
X0.8392 Y-0.4329
X0.8273 Y-0.4296
X0.8154 Y-0.4267
X0.8033 Y-0.4242
X0.7911 Y-0.4222
X0.7788 Y-0.4207
X0.7665 Y-0.4196
X0.7541 Y-0.419
X0.7416 Y-0.4189
X0.7292 Y-0.4192
X0.7167 Y-0.4201
X0.7043 Y-0.4214
X0.6919 Y-0.4231
X0.6796 Y-0.4254
X0.6673 Y-0.4281
X0.6552 Y-0.4313
X0.6431 Y-0.4349
X0.6312 Y-0.439
X0.6194 Y-0.4436
X0.6078 Y-0.4486
X0.5964 Y-0.4541
X0.5852 Y-0.46
X0.5743 Y-0.4663
X0.5635 Y-0.4731
X0.5531 Y-0.4802
X0.5428 Y-0.4878
X0.5329 Y-0.4957
X0.5233 Y-0.5041
X0.514 Y-0.5128
X0.505 Y-0.5218
X0.4964 Y-0.5312
X0.4882 Y-0.5409
X0.4803 Y-0.5509
X0.4728 Y-0.5613
X0.4657 Y-0.5719
X0.4589 Y-0.5827
X0.4527 Y-0.5939
X0.4468 Y-0.6052
X0.4414 Y-0.6168
X0.4364 Y-0.6286
X0.4319 Y-0.6406
X0.4278 Y-0.6527
X0.4242 Y-0.665
X0.421 Y-0.6774
X0.4184 Y-0.69
X0.4162 Y-0.7026
X0.4145 Y-0.7153
X0.4132 Y-0.7281
X0.4125 Y-0.7409
X0.4123 Y-0.7537
X0.4125 Y-0.7665
X0.4132 Y-0.7793
X0.4145 Y-0.7921
X0.4162 Y-0.8048
X0.4184 Y-0.8175
X0.421 Y-0.83
X0.4242 Y-0.8425
X0.4278 Y-0.8548
X0.4319 Y-0.867
X0.4364 Y-0.879
X0.4414 Y-0.8908
X0.4469 Y-0.9024
X0.4528 Y-0.9139
X0.4591 Y-0.925
X0.4658 Y-0.936
X0.473 Y-0.9466
X0.4805 Y-0.957
X0.4885 Y-0.9671
X0.4968 Y-0.9769
X0.5055 Y-0.9864
X0.5145 Y-0.9955
X0.5239 Y-1.0043
X0.5336 Y-1.0127
X0.5437 Y-1.0207
X0.554 Y-1.0284
X0.5646 Y-1.0356
X0.5755 Y-1.0425
X0.5866 Y-1.0489
X0.598 Y-1.0549
X0.6096 Y-1.0605
X0.6214 Y-1.0656
X0.6333 Y-1.0702
X0.6455 Y-1.0744
X0.6578 Y-1.0781
X0.6702 Y-1.0814
X0.6828 Y-1.0842
X0.6954 Y-1.0865
X0.7081 Y-1.0883
X0.7209 Y-1.0897
X0.7337 Y-1.0905
X0.7466 Y-1.0909
X0.7594 Y-1.0907
X0.7723 Y-1.0901
X0.7851 Y-1.089
X0.7979 Y-1.0874
X0.8105 Y-1.0853
X0.8232 Y-1.0828
X0.8357 Y-1.0797
X0.8481 Y-1.0762
X0.8604 Y-1.0722
X0.8725 Y-1.0677
X0.8846 Y-1.0627
X0.8964 Y-1.0573
X0.9082 Y-1.0514
X0.9197 Y-1.045
X0.931 Y-1.0382
X0.9422 Y-1.0308
X0.9531 Y-1.0231
X0.9637 Y-1.0148
X0.9741 Y-1.0062
X0.9842 Y-0.9971
X0.994 Y-0.9876
X1.0034 Y-0.9776
X1.0125 Y-0.9673
X1.0212 Y-0.9566
X1.0295 Y-0.9456
X1.0374 Y-0.9343
X1.0449 Y-0.9226
X1.0519 Y-0.9107
X1.0585 Y-0.8985
X1.0646 Y-0.8861
X1.0702 Y-0.8734
X1.0753 Y-0.8606
X1.0799 Y-0.8476
X1.084 Y-0.8345
X1.0876 Y-0.8213
X1.0907 Y-0.808
X1.0933 Y-0.7946
X1.0953 Y-0.7811
X1.0968 Y-0.7676
X1.0979 Y-0.7541
X1.0984 Y-0.7406
X1.0983 Y-0.7272
X1.0978 Y-0.7137
X1.0968 Y-0.7004
X1.0952 Y-0.6871
X1.0932 Y-0.6739
X1.0906 Y-0.6608
X1.0876 Y-0.6478
X1.0841 Y-0.635
X1.0801 Y-0.6223
X1.0756 Y-0.6098
X1.0706 Y-0.5975
X1.0652 Y-0.5853
X1.0593 Y-0.5734
X1.053 Y-0.5618
X1.0462 Y-0.5503
X1.039 Y-0.5392
X1.0314 Y-0.5283
X1.0234 Y-0.5177
X1.0149 Y-0.5074
X1.0061 Y-0.4974
X0.9969 Y-0.4878
X0.9873 Y-0.4785
X0.9773 Y-0.4695
X0.967 Y-0.461
X0.9564 Y-0.4528
X0.9454 Y-0.445
X0.9342 Y-0.4377
X0.9226 Y-0.4307
X0.9108 Y-0.4242
X0.8987 Y-0.4182
X0.8864 Y-0.4126
X0.8738 Y-0.4074
X0.861 Y-0.4028
X0.8481 Y-0.3986
X0.835 Y-0.3949
X0.8217 Y-0.3917
X0.8083 Y-0.389
X0.7947 Y-0.3868
X0.7811 Y-0.3852
X0.7674 Y-0.384
X0.7537 Y-0.3834
X0.7399 Y-0.3833
X0.7261 Y-0.3837
X0.7123 Y-0.3846
X0.6985 Y-0.3861
X0.6848 Y-0.3881
X0.6711 Y-0.3907
X0.6575 Y-0.3937
X0.6441 Y-0.3973
X0.6308 Y-0.4014
X0.6176 Y-0.4059
X0.6046 Y-0.411
X0.5918 Y-0.4166
X0.5792 Y-0.4227
X0.5668 Y-0.4293
X0.5547 Y-0.4363
X0.5428 Y-0.4438
X0.5312 Y-0.4518
X0.5199 Y-0.4602
X0.509 Y-0.469
X0.4984 Y-0.4782
X0.4881 Y-0.4879
X0.4782 Y-0.4979
X0.4687 Y-0.5083
X0.4596 Y-0.5191
X0.4509 Y-0.5302
X0.4426 Y-0.5417
X0.4348 Y-0.5534
X0.4274 Y-0.5655
X0.4205 Y-0.5778
X0.414 Y-0.5904
X0.4081 Y-0.6033
X0.4026 Y-0.6163
X0.3976 Y-0.6296
X0.3931 Y-0.643
X0.3892 Y-0.6566
X0.3857 Y-0.6704
X0.3828 Y-0.6842
X0.3804 Y-0.6982
X0.3786 Y-0.7123
X0.3773 Y-0.7264
X0.3765 Y-0.7406
X0.3763 Y-0.7548
X0.3766 Y-0.769
X0.3774 Y-0.7832
X0.3788 Y-0.7973
X0.3807 Y-0.8114
X0.3832 Y-0.8253
X0.3862 Y-0.8392
X0.3897 Y-0.853
X0.3938 Y-0.8666
X0.3983 Y-0.8801
X0.4034 Y-0.8934
X0.409 Y-0.9064
X0.415 Y-0.9193
X0.4216 Y-0.9319
X0.4286 Y-0.9443
X0.4361 Y-0.9563
X0.444 Y-0.9681
X0.4524 Y-0.9796
X0.4613 Y-0.9908
X0.4705 Y-1.0016
X0.4801 Y-1.012
X0.4902 Y-1.0221
X0.5006 Y-1.0318
X0.5114 Y-1.0411
X0.5225 Y-1.0499
X0.534 Y-1.0583
X0.5457 Y-1.0663
X0.5578 Y-1.0739
X0.5701 Y-1.0809
X0.5827 Y-1.0875
X0.5956 Y-1.0937
X0.6086 Y-1.0993
X0.6219 Y-1.1044
X0.6354 Y-1.109
X0.649 Y-1.1131
X0.6628 Y-1.1167
X0.6767 Y-1.1197
X0.6907 Y-1.1222
X0.7047 Y-1.1242
X0.7189 Y-1.1256
X0.7331 Y-1.1265
X0.7473 Y-1.1269
X0.7616 Y-1.1267
X0.7758 Y-1.126
X0.79 Y-1.1247
X0.8041 Y-1.1229
X0.8182 Y-1.1206
X0.8322 Y-1.1177
X0.8461 Y-1.1142
X0.8599 Y-1.1103
X0.8736 Y-1.1058
X0.8871 Y-1.1007
X0.9005 Y-1.0952
X0.9137 Y-1.0891
X0.9268 Y-1.0825
X0.9396 Y-1.0754
X0.9521 Y-1.0677
X0.9644 Y-1.0596
X0.9765 Y-1.0509
X0.9882 Y-1.0418
X0.9996 Y-1.0322
X1.0107 Y-1.0222
X1.0214 Y-1.0117
X1.0318 Y-1.0007
X1.0417 Y-0.9894
X1.0512 Y-0.9777
X1.0603 Y-0.9656
X1.0689 Y-0.9532
X1.077 Y-0.9404
X1.0846 Y-0.9274
X1.0918 Y-0.914
X1.0984 Y-0.9004
X1.1045 Y-0.8866
X1.1101 Y-0.8726
X1.1151 Y-0.8583
X1.1195 Y-0.844
X1.1234 Y-0.8294
X1.1268 Y-0.8148
X1.1295 Y-0.8001
X1.1317 Y-0.7853
X1.1334 Y-0.7705
X1.1345 Y-0.7556
X1.135 Y-0.7407
X1.1349 Y-0.7259
X1.1343 Y-0.711
X1.1331 Y-0.6963
X1.1313 Y-0.6816
X1.129 Y-0.667
X1.1262 Y-0.6525
X1.1228 Y-0.6382
X1.1188 Y-0.624
X1.1144 Y-0.61
X1.1094 Y-0.5961
X1.1038 Y-0.5825
X1.0978 Y-0.5691
X1.0913 Y-0.5559
X1.0842 Y-0.543
X1.0767 Y-0.5303
X1.0687 Y-0.518
X1.0602 Y-0.506
X1.0513 Y-0.4942
X1.0419 Y-0.4829
X1.0321 Y-0.4719
X1.0218 Y-0.4612
X1.0112 Y-0.451
X1.0001 Y-0.4411
X0.9887 Y-0.4317
X0.9769 Y-0.4227
X0.9648 Y-0.4141
X0.9523 Y-0.406
X0.9395 Y-0.3984
X0.9265 Y-0.3912
X0.9131 Y-0.3846
X0.8995 Y-0.3784
X0.8856 Y-0.3728
X0.8715 Y-0.3677
X0.8572 Y-0.3631
X0.8427 Y-0.3591
X0.8281 Y-0.3556
X0.8133 Y-0.3527
X0.7983 Y-0.3503
X0.7833 Y-0.3485
X0.7682 Y-0.3473
X0.7531 Y-0.3467
X0.7379 Y-0.3466
X0.7227 Y-0.3471
X0.7075 Y-0.3482
X0.6924 Y-0.3498
X0.6773 Y-0.3521
X0.6622 Y-0.3549
X0.6473 Y-0.3583
X0.6325 Y-0.3623
X0.6179 Y-0.3668
X0.6034 Y-0.3719
X0.5891 Y-0.3775
X0.575 Y-0.3837
X0.5612 Y-0.3905
X0.5476 Y-0.3977
X0.5343 Y-0.4055
X0.5213 Y-0.4138
X0.5086 Y-0.4226
X0.4962 Y-0.4318
X0.4842 Y-0.4416
X0.4726 Y-0.4518
X0.4613 Y-0.4624
X0.4505 Y-0.4735
X0.44 Y-0.4849
X0.4301 Y-0.4968
X0.4205 Y-0.509
X0.4115 Y-0.5217
X0.4029 Y-0.5346
X0.3948 Y-0.5479
X0.3872 Y-0.5615
X0.3802 Y-0.5753
X0.3737 Y-0.5894
X0.3677 Y-0.6038
X0.3622 Y-0.6184
X0.3574 Y-0.6332
X0.3531 Y-0.6482
X0.3493 Y-0.6633
X0.3462 Y-0.6785
X0.3436 Y-0.6939
X0.3416 Y-0.7094
X0.3402 Y-0.7249
X0.3394 Y-0.7405
X0.3392 Y-0.7561
X0.3396 Y-0.7717
X0.3406 Y-0.7873
X0.3421 Y-0.8028
X0.3443 Y-0.8183
X0.347 Y-0.8336
X0.3504 Y-0.8489
X0.3543 Y-0.864
X0.3588 Y-0.879
X0.3638 Y-0.8938
X0.3694 Y-0.9083
X0.3756 Y-0.9227
X0.3823 Y-0.9368
X0.3895 Y-0.9507
X0.3973 Y-0.9642
X0.4056 Y-0.9775
X0.4143 Y-0.9904
X0.4236 Y-1.003
X0.4333 Y-1.0152
X0.4435 Y-1.0271
X0.4542 Y-1.0385
X0.4652 Y-1.0496
X0.4767 Y-1.0602
X0.4886 Y-1.0704
X0.5008 Y-1.0801
X0.5135 Y-1.0893
X0.5264 Y-1.0981
X0.5397 Y-1.1063
X0.5533 Y-1.1141
X0.5672 Y-1.1213
X0.5813 Y-1.128
X0.5957 Y-1.1341
X0.6103 Y-1.1397
X0.6251 Y-1.1447
X0.6401 Y-1.1492
X0.6552 Y-1.153
X0.6705 Y-1.1563
X0.6859 Y-1.1591
X0.7014 Y-1.1612
X0.717 Y-1.1627
X0.7326 Y-1.1637
X0.7483 Y-1.164
X0.764 Y-1.1638
X0.7796 Y-1.1629
X0.7953 Y-1.1615
X0.8109 Y-1.1595
X0.8264 Y-1.1568
X0.8419 Y-1.1536
X0.8572 Y-1.1498
X0.8725 Y-1.1454
X0.8875 Y-1.1403
X0.9025 Y-1.1347
X0.9172 Y-1.1286
X0.9317 Y-1.1218
X0.946 Y-1.1145
X0.9601 Y-1.1066
X0.9739 Y-1.0982
X0.9874 Y-1.0892
X1.0005 Y-1.0797
X1.0134 Y-1.0697
X1.0258 Y-1.0592
X1.0379 Y-1.0481
X1.0496 Y-1.0366
X1.0609 Y-1.0247
X1.0717 Y-1.0123
X1.082 Y-0.9995
X1.0918 Y-0.9863
X1.1012 Y-0.9727
X1.11 Y-0.9588
X1.1183 Y-0.9445
X1.126 Y-0.9299
X1.1332 Y-0.9151
X1.1398 Y-0.9
X1.1458 Y-0.8847
X1.1512 Y-0.8691
X1.1561 Y-0.8534
X1.1603 Y-0.8376
X1.1639 Y-0.8216
X1.1669 Y-0.8055
X1.1693 Y-0.7893
X1.171 Y-0.773
X1.1721 Y-0.7567
X1.1726 Y-0.7404
X1.1725 Y-0.7242
X1.1718 Y-0.7079
X1.1705 Y-0.6917
X1.169 Y-0.6798
X1.1686 Y-0.6769
X1.1682 Y-0.6741
X1.1677 Y-0.6713
X1.1662 Y-0.6634
X1.1656 Y-0.6605
X1.1582 Y-0.6298
X1.1546 Y-0.6185
X1.1431 Y-0.5899
X1.1411 Y-0.5849
X1.1364 Y-0.5736
X1.1254 Y-0.5512
X1.1207 Y-0.5433
X1.1048 Y-0.5175
X1.0982 Y-0.5072
X1.0758 Y-0.4793
X1.0701 Y-0.4726
X1.0645 Y-0.466
X1.0602 Y-0.4614
X1.0421 Y-0.4433
X1.0374 Y-0.4389
X1.0309 Y-0.4333
X1.0242 Y-0.4277
X0.9962 Y-0.4052
X0.986 Y-0.3986
X0.9601 Y-0.3828
X0.9523 Y-0.3781
X0.9298 Y-0.3671
X0.9186 Y-0.3624
X0.9136 Y-0.3603
X0.8849 Y-0.3489
X0.8737 Y-0.3452
X0.843 Y-0.3379
X0.84 Y-0.3373
X0.8063 Y-0.3309
X0.7951 Y-0.3299
X0.7726 Y-0.3281
X0.7614 Y-0.3278
X0.739
X0.7277 Y-0.3281
X0.7053 Y-0.3299
X0.6941 Y-0.3309
X0.6604 Y-0.3373
X0.6574 Y-0.3379
X0.6267 Y-0.3452
X0.6155 Y-0.3489
X0.5868 Y-0.3603
X0.5818 Y-0.3624
X0.5706 Y-0.3671
X0.5481 Y-0.3781
X0.5403 Y-0.3828
X0.5144 Y-0.3986
X0.5041 Y-0.4052
X0.4762 Y-0.4277
X0.4695 Y-0.4333
X0.463 Y-0.4389
X0.4583 Y-0.4433
X0.4402 Y-0.4614
X0.4358 Y-0.466
X0.4302 Y-0.4726
X0.4246 Y-0.4793
X0.4022 Y-0.5072
X0.3955 Y-0.5175
X0.3797 Y-0.5433
X0.375 Y-0.5512
X0.364 Y-0.5736
X0.3593 Y-0.5849
X0.3573 Y-0.5899
X0.3458 Y-0.6185
X0.3422 Y-0.6298
X0.3348 Y-0.6605
X0.3342 Y-0.6634
X0.3278 Y-0.6971
X0.3268 Y-0.7084
X0.3251 Y-0.7308
X0.3247 Y-0.742
Y-0.7645
X0.3251 Y-0.7757
X0.3268 Y-0.7982
X0.3278 Y-0.8094
X0.3342 Y-0.8431
X0.3348 Y-0.8461
X0.3422 Y-0.8768
X0.3458 Y-0.888
X0.3573 Y-0.9166
X0.3593 Y-0.9217
X0.364 Y-0.9329
X0.375 Y-0.9553
X0.3797 Y-0.9632
X0.3955 Y-0.989
X0.4022 Y-0.9993
X0.4246 Y-1.0273
X0.4302 Y-1.0339
X0.4358 Y-1.0405
X0.4402 Y-1.0452
X0.4583 Y-1.0632
X0.463 Y-1.0676
X0.4695 Y-1.0732
X0.4762 Y-1.0788
X0.5041 Y-1.1013
X0.5144 Y-1.1079
X0.5403 Y-1.1237
X0.5481 Y-1.1285
X0.5706 Y-1.1395
X0.5818 Y-1.1441
X0.5868 Y-1.1462
X0.6155 Y-1.1576
X0.6267 Y-1.1613
X0.6574 Y-1.1687
X0.6604 Y-1.1693
X0.6941 Y-1.1756
X0.7053 Y-1.1766
X0.7277 Y-1.1784
X0.739 Y-1.1787
X0.7614
X0.7726 Y-1.1784
X0.7951 Y-1.1766
X0.8063 Y-1.1756
X0.84 Y-1.1693
X0.843 Y-1.1687
X0.8737 Y-1.1613
X0.8849 Y-1.1576
X0.9136 Y-1.1462
X0.9186 Y-1.1441
X0.9298 Y-1.1395
X0.9523 Y-1.1285
X0.9601 Y-1.1237
X0.986 Y-1.1079
X0.9962 Y-1.1013
X1.0242 Y-1.0788
X1.0309 Y-1.0732
X1.0374 Y-1.0676
X1.0421 Y-1.0632
X1.0602 Y-1.0452
X1.0645 Y-1.0405
X1.0701 Y-1.0339
X1.0758 Y-1.0273
X1.0982 Y-0.9993
X1.1048 Y-0.989
X1.1207 Y-0.9632
X1.1254 Y-0.9553
X1.1364 Y-0.9329
X1.1411 Y-0.9217
X1.1431 Y-0.9166
X1.1546 Y-0.888
X1.1582 Y-0.8768
X1.1656 Y-0.8461
X1.1662 Y-0.8431
X1.1725 Y-0.8094
X1.1735 Y-0.7982
X1.1753 Y-0.7757
X1.1756 Y-0.7645
Y-0.742
X1.1753 Y-0.7308
X1.1735 Y-0.7084
X1.1725 Y-0.6971
X1.1677 Y-0.6713
X1.1664 Y-0.6679 Z1.1743
X1.1651 Y-0.6645 Z1.1749
X1.1638 Y-0.6612 Z1.176
X1.1614 Y-0.6581 Z1.1778
X1.1592 Y-0.6553 Z1.1801
X1.1572 Y-0.6527 Z1.1829
X1.1551 Y-0.651 Z1.186
X1.1532 Y-0.6496 Z1.1894
X1.1518 Y-0.6485 Z1.193
X1.1507 Y-0.6477 Z1.1969
X1.1501 Y-0.6473 Z1.2009
X1.1499 Y-0.6471 Z1.2049
G0 Z1.274
X0.9106 Y-0.6546
G3 X0.6102 Y-0.6273 Z1.2434 I-0.1604 J-0.0987 F40.
X0.6688 Y-0.9223 Z1.2128 I0.1396 J-0.1256
X0.9344 Y-0.7831 Z1.1822 I0.0808 J0.1689
X0.7264 Y-0.5683 Z1.1516 I-0.1843 J0.0297
X0.5795 Y-0.8278 Z1.121 I0.0236 J-0.1847
X0.8692 Y-0.8951 Z1.0904 I0.17 J0.0746
X0.8519 Y-0.5991 Z1.0598 I-0.1193 J0.1416
X0.5737 Y-0.699 Z1.0292 I-0.1018 J-0.154
X0.7477 Y-0.937 Z0.9986 I0.176 J-0.0539
X0.9262 Y-0.7035 Z0.968 I0.002 J0.1835
X0.6526 Y-0.5986 Z0.9374 I-0.1761 J-0.0498
X0.6293 Y-0.8898 Z0.9068 I0.0973 J-0.1543
X0.9145 Y-0.83 Z0.8762 I0.1202 J0.1365
X0.7769 Y-0.5742 Z0.8456 I-0.1645 J0.0765
X0.571 Y-0.7779 Z0.815 I-0.0268 J-0.1788
X0.8238 Y-0.9174 Z0.7844 I0.1786 J0.0248
X0.886 Y-0.6362 Z0.7538 I-0.074 J0.1638
X0.5996 Y-0.656 Z0.7232 I-0.1358 J-0.117
X0.6992 Y-0.9243 Z0.6926 I0.1501 J-0.0969
X0.9278 Y-0.7534 Z0.662 I0.0504 J0.1709
X0.5714 I-0.1782 J0.
X0.9278 I0.1782 J0.
G1 X0.9284 Y-0.7091
X0.9292 Y-0.7036
X0.9295 Y-0.6976
X0.9294 Y-0.6916
X0.9289 Y-0.6856
X0.928 Y-0.6797
X0.9268 Y-0.6738
X0.9252 Y-0.668
X0.9234 Y-0.6623
X0.9214 Y-0.6566
X0.919 Y-0.6511
X0.9165 Y-0.6457
X0.9137 Y-0.6404
X0.9107 Y-0.6352
X0.9075 Y-0.63
X0.904 Y-0.6249
X0.9003 Y-0.6198
X0.8963 Y-0.6148
X0.892 Y-0.6098
X0.8875 Y-0.6049
X0.8827 Y-0.6002
X0.8776 Y-0.5955
X0.8724 Y-0.591
X0.8669 Y-0.5867
X0.8611 Y-0.5825
X0.8552 Y-0.5785
X0.8491 Y-0.5747
X0.8428 Y-0.5711
X0.8362 Y-0.5677
X0.8296 Y-0.5646
X0.8227 Y-0.5617
X0.8158 Y-0.559
X0.8087 Y-0.5566
X0.8014 Y-0.5545
X0.7941 Y-0.5526
X0.7867 Y-0.551
X0.7792 Y-0.5497
X0.7716 Y-0.5487
X0.764 Y-0.5479
X0.7563 Y-0.5474
X0.7486 Y-0.5473
X0.7409 Y-0.5474
X0.7332 Y-0.5478
X0.7255 Y-0.5486
X0.7178 Y-0.5496
X0.7101 Y-0.5509
X0.7025 Y-0.5525
X0.695 Y-0.5544
X0.6875 Y-0.5565
X0.6801 Y-0.559
X0.6728 Y-0.5618
X0.6656 Y-0.5648
X0.6585 Y-0.5681
X0.6515 Y-0.5717
X0.6447 Y-0.5755
X0.638 Y-0.5796
X0.6315 Y-0.5839
X0.6251 Y-0.5885
X0.6189 Y-0.5934
X0.613 Y-0.5984
X0.6072 Y-0.6037
X0.6016 Y-0.6092
X0.5962 Y-0.615
X0.591 Y-0.6209
X0.5861 Y-0.627
X0.5814 Y-0.6333
X0.577 Y-0.6398
X0.5728 Y-0.6465
X0.5688 Y-0.6533
X0.5651 Y-0.6602
X0.5617 Y-0.6673
X0.5586 Y-0.6745
X0.5557 Y-0.6818
X0.5531 Y-0.6893
X0.5508 Y-0.6968
X0.5488 Y-0.7044
X0.5471 Y-0.7121
X0.5457 Y-0.7198
X0.5445 Y-0.7276
X0.5437 Y-0.7354
X0.5431 Y-0.7433
X0.5429 Y-0.7511
X0.543 Y-0.759
X0.5433 Y-0.7669
X0.544 Y-0.7747
X0.5449 Y-0.7825
X0.5462 Y-0.7903
X0.5478 Y-0.798
X0.5496 Y-0.8057
X0.5517 Y-0.8133
X0.5542 Y-0.8207
X0.5569 Y-0.8281
X0.5598 Y-0.8354
X0.5631 Y-0.8426
X0.5666 Y-0.8496
X0.5704 Y-0.8565
X0.5745 Y-0.8633
X0.5788 Y-0.8699
X0.5834 Y-0.8763
X0.5882 Y-0.8825
X0.5932 Y-0.8886
X0.5985 Y-0.8944
X0.6039 Y-0.9001
X0.6096 Y-0.9055
X0.6155 Y-0.9108
X0.6216 Y-0.9158
X0.6279 Y-0.9205
X0.6343 Y-0.925
X0.641 Y-0.9293
X0.6477 Y-0.9333
X0.6547 Y-0.937
X0.6617 Y-0.9405
X0.6689 Y-0.9437
X0.6762 Y-0.9467
X0.6836 Y-0.9493
X0.6911 Y-0.9517
X0.6987 Y-0.9538
X0.7064 Y-0.9556
X0.7141 Y-0.9571
X0.7219 Y-0.9583
X0.7297 Y-0.9592
X0.7376 Y-0.9598
X0.7455 Y-0.9601
X0.7533
X0.7612 Y-0.9598
X0.769 Y-0.9592
X0.7769 Y-0.9583
X0.7847 Y-0.9571
X0.7924 Y-0.9557
X0.8001 Y-0.9539
X0.8077 Y-0.9518
X0.8152 Y-0.9495
X0.8226 Y-0.9468
X0.8299 Y-0.9439
X0.8371 Y-0.9407
X0.8442 Y-0.9372
X0.8511 Y-0.9335
X0.8579 Y-0.9295
X0.8645 Y-0.9252
X0.871 Y-0.9207
X0.8773 Y-0.916
X0.8834 Y-0.911
X0.8893 Y-0.9058
X0.895 Y-0.9004
X0.9005 Y-0.8947
X0.9057 Y-0.8889
X0.9108 Y-0.8828
X0.9156 Y-0.8766
X0.9202 Y-0.8702
X0.9245 Y-0.8636
X0.9285 Y-0.8569
X0.9324 Y-0.85
X0.9359 Y-0.843
X0.9392 Y-0.8358
X0.9422 Y-0.8285
X0.9453 Y-0.8201
X0.9486 Y-0.8098
X0.9533 Y-0.7934
X0.9566 Y-0.7798
X0.9589 Y-0.7683
X0.9606 Y-0.7578
X0.9618 Y-0.7482
X0.9626 Y-0.7392
X0.963 Y-0.7305
X0.9631 Y-0.7222
X0.9629 Y-0.7141
X0.9624 Y-0.7063
X0.9615 Y-0.6986
X0.9605 Y-0.691
X0.9591 Y-0.6836
X0.9575 Y-0.6762
X0.9556 Y-0.669
X0.9534 Y-0.6618
X0.9509 Y-0.6547
X0.9482 Y-0.6477
X0.9452 Y-0.6408
X0.9419 Y-0.634
X0.9384 Y-0.6273
X0.9346 Y-0.6206
X0.9305 Y-0.6141
X0.9261 Y-0.6078
X0.9215 Y-0.6015
X0.9166 Y-0.5954
X0.9114 Y-0.5894
X0.906 Y-0.5836
X0.9003 Y-0.578
X0.8944 Y-0.5726
X0.8882 Y-0.5673
X0.8818 Y-0.5623
X0.8752 Y-0.5574
X0.8683 Y-0.5529
X0.8612 Y-0.5485
X0.854 Y-0.5444
X0.8465 Y-0.5406
X0.8389 Y-0.537
X0.8311 Y-0.5337
X0.8231 Y-0.5307
X0.815 Y-0.528
X0.8068 Y-0.5256
X0.7985 Y-0.5235
X0.79 Y-0.5217
X0.7815 Y-0.5202
X0.7729 Y-0.519
X0.7642 Y-0.5182
X0.7555 Y-0.5177
X0.7468 Y-0.5176
X0.738 Y-0.5177
X0.7292 Y-0.5182
X0.7204 Y-0.5191
X0.7117 Y-0.5203
X0.703 Y-0.5218
X0.6943 Y-0.5236
X0.6857 Y-0.5258
X0.6772 Y-0.5283
X0.6688 Y-0.5311
X0.6604 Y-0.5343
X0.6522 Y-0.5378
X0.6442 Y-0.5416
X0.6362 Y-0.5456
X0.6284 Y-0.5501
X0.6208 Y-0.5548
X0.6134 Y-0.5597
X0.6061 Y-0.565
X0.5991 Y-0.5706
X0.5923 Y-0.5764
X0.5856 Y-0.5825
X0.5793 Y-0.5888
X0.5731 Y-0.5953
X0.5673 Y-0.6021
X0.5616 Y-0.6092
X0.5563 Y-0.6164
X0.5512 Y-0.6238
X0.5464 Y-0.6315
X0.5419 Y-0.6393
X0.5377 Y-0.6472
X0.5338 Y-0.6554
X0.5303 Y-0.6636
X0.527 Y-0.672
X0.5241 Y-0.6805
X0.5214 Y-0.6892
X0.5192 Y-0.6979
X0.5172 Y-0.7067
X0.5156 Y-0.7156
X0.5143 Y-0.7245
X0.5134 Y-0.7335
X0.5128 Y-0.7425
X0.5125 Y-0.7515
X0.5126 Y-0.7605
X0.5131 Y-0.7695
X0.5139 Y-0.7785
X0.515 Y-0.7875
X0.5165 Y-0.7964
X0.5183 Y-0.8052
X0.5204 Y-0.814
X0.5229 Y-0.8227
X0.5257 Y-0.8313
X0.5288 Y-0.8397
X0.5322 Y-0.8481
X0.536 Y-0.8563
X0.5401 Y-0.8644
X0.5444 Y-0.8723
X0.5491 Y-0.88
X0.5541 Y-0.8875
X0.5593 Y-0.8949
X0.5649 Y-0.902
X0.5707 Y-0.9089
X0.5767 Y-0.9156
X0.583 Y-0.9221
X0.5896 Y-0.9283
X0.5963 Y-0.9343
X0.6033 Y-0.94
X0.6105 Y-0.9454
X0.618 Y-0.9506
X0.6256 Y-0.9555
X0.6333 Y-0.9601
X0.6413 Y-0.9643
X0.6494 Y-0.9683
X0.6577 Y-0.972
X0.6661 Y-0.9753
X0.6746 Y-0.9783
X0.6832 Y-0.981
X0.6919 Y-0.9834
X0.7007 Y-0.9854
X0.7096 Y-0.9871
X0.7185 Y-0.9885
X0.7275 Y-0.9895
X0.7365 Y-0.9901
X0.7455 Y-0.9905
X0.7545
X0.7636 Y-0.9901
X0.7726 Y-0.9894
X0.7815 Y-0.9883
X0.7905 Y-0.987
X0.7993 Y-0.9852
X0.8081 Y-0.9832
X0.8168 Y-0.9808
X0.8254 Y-0.9781
X0.8339 Y-0.975
X0.8423 Y-0.9716
X0.8506 Y-0.9679
X0.8586 Y-0.9639
X0.8666 Y-0.9596
X0.8744 Y-0.955
X0.8819 Y-0.9501
X0.8893 Y-0.9449
X0.8965 Y-0.9395
X0.9035 Y-0.9337
X0.9103 Y-0.9278
X0.9168 Y-0.9215
X0.9231 Y-0.915
X0.9291 Y-0.9083
X0.9349 Y-0.9013
X0.9405 Y-0.8941
X0.9459 Y-0.8863
X0.9517 Y-0.8776
X0.9572 Y-0.8683
X0.9625 Y-0.8586
X0.9676 Y-0.8485
X0.9723 Y-0.8382
X0.9766 Y-0.8277
X0.9804 Y-0.8172
X0.9838 Y-0.8068
X0.9867 Y-0.7964
X0.9891 Y-0.7861
X0.9912 Y-0.776
X0.9928 Y-0.766
X0.994 Y-0.7561
X0.9948 Y-0.7463
X0.9952 Y-0.7366
X0.9953 Y-0.727
X0.995 Y-0.7175
X0.9944 Y-0.7081
X0.9934 Y-0.6988
X0.992 Y-0.6897
X0.9903 Y-0.6806
X0.9883 Y-0.6717
X0.986 Y-0.6629
X0.9833 Y-0.6542
X0.9803 Y-0.6456
X0.977 Y-0.6372
X0.9734 Y-0.6289
X0.9694 Y-0.6207
X0.9652 Y-0.6127
X0.9606 Y-0.6048
X0.9557 Y-0.5971
X0.9506 Y-0.5896
X0.9451 Y-0.5822
X0.9393 Y-0.5751
X0.9332 Y-0.5681
X0.9269 Y-0.5614
X0.9203 Y-0.5549
X0.9134 Y-0.5486
X0.9062 Y-0.5425
X0.8988 Y-0.5368
X0.8912 Y-0.5312
X0.8833 Y-0.526
X0.8752 Y-0.521
X0.8669 Y-0.5164
X0.8584 Y-0.512
X0.8497 Y-0.508
X0.8408 Y-0.5042
X0.8317 Y-0.5008
X0.8225 Y-0.4978
X0.8132 Y-0.4951
X0.8037 Y-0.4927
X0.7941 Y-0.4907
X0.7844 Y-0.489
X0.7747 Y-0.4878
X0.7648 Y-0.4869
X0.755 Y-0.4863
X0.7451 Y-0.4862
X0.7351 Y-0.4864
X0.7252 Y-0.487
X0.7153 Y-0.488
X0.7054 Y-0.4893
X0.6955 Y-0.4911
X0.6857 Y-0.4932
X0.676 Y-0.4957
X0.6664 Y-0.4985
X0.6568 Y-0.5018
X0.6474 Y-0.5054
X0.6381 Y-0.5093
X0.629 Y-0.5137
X0.62 Y-0.5183
X0.6112 Y-0.5233
X0.6026 Y-0.5287
X0.5942 Y-0.5343
X0.586 Y-0.5403
X0.5781 Y-0.5466
X0.5704 Y-0.5532
X0.5629 Y-0.5602
X0.5557 Y-0.5673
X0.5488 Y-0.5748
X0.5421 Y-0.5825
X0.5358 Y-0.5905
X0.5297 Y-0.5987
X0.524 Y-0.6071
X0.5186 Y-0.6158
X0.5135 Y-0.6247
X0.5088 Y-0.6337
X0.5044 Y-0.6429
X0.5004 Y-0.6523
X0.4967 Y-0.6619
X0.4934 Y-0.6715
X0.4905 Y-0.6813
X0.4879 Y-0.6912
X0.4857 Y-0.7012
X0.4839 Y-0.7113
X0.4825 Y-0.7214
X0.4815 Y-0.7316
X0.4808 Y-0.7418
X0.4806 Y-0.7521
X0.4807 Y-0.7623
X0.4812 Y-0.7725
X0.4821 Y-0.7827
X0.4834 Y-0.7929
X0.4851 Y-0.803
X0.4872 Y-0.813
X0.4897 Y-0.8229
X0.4925 Y-0.8328
X0.4957 Y-0.8425
X0.4993 Y-0.8521
X0.5032 Y-0.8616
X0.5075 Y-0.8709
X0.5122 Y-0.88
X0.5171 Y-0.889
X0.5225 Y-0.8977
X0.5281 Y-0.9063
X0.5341 Y-0.9146
X0.5404 Y-0.9227
X0.547 Y-0.9305
X0.5539 Y-0.9381
X0.5611 Y-0.9454
X0.5685 Y-0.9525
X0.5762 Y-0.9592
X0.5842 Y-0.9657
X0.5924 Y-0.9718
X0.6008 Y-0.9776
X0.6095 Y-0.9831
X0.6183 Y-0.9883
X0.6273 Y-0.9931
X0.6366 Y-0.9976
X0.6459 Y-1.0018
X0.6555 Y-1.0055
X0.6651 Y-1.0089
X0.6749 Y-1.012
X0.6848 Y-1.0146
X0.6948 Y-1.0169
X0.7049 Y-1.0188
X0.715 Y-1.0203
X0.7252 Y-1.0214
X0.7355 Y-1.0222
X0.7457 Y-1.0225
X0.756 Y-1.0224
X0.7662 Y-1.022
X0.7764 Y-1.0212
X0.7866 Y-1.02
X0.7967 Y-1.0184
X0.8068 Y-1.0164
X0.8167 Y-1.014
X0.8266 Y-1.0113
X0.8364 Y-1.0081
X0.846 Y-1.0047
X0.8555 Y-1.0008
X0.8649 Y-0.9966
X0.874 Y-0.992
X0.883 Y-0.9871
X0.8918 Y-0.9819
X0.9004 Y-0.9763
X0.9088 Y-0.9703
X0.917 Y-0.9641
X0.9251 Y-0.9574
X0.933 Y-0.9504
X0.9408 Y-0.9429
X0.9483 Y-0.935
X0.9557 Y-0.9268
X0.9629 Y-0.9181
X0.9698 Y-0.909
X0.9765 Y-0.8996
X0.9828 Y-0.8898
X0.9888 Y-0.8797
X0.9944 Y-0.8694
X0.9996 Y-0.859
X1.0044 Y-0.8483
X1.0088 Y-0.8376
X1.0127 Y-0.8267
X1.0162 Y-0.8158
X1.0192 Y-0.8048
X1.0219 Y-0.7938
X1.024 Y-0.7827
X1.0258 Y-0.7717
X1.0271 Y-0.7607
X1.028 Y-0.7498
X1.0284 Y-0.7389
X1.0285 Y-0.7281
X1.0281 Y-0.7173
X1.0273 Y-0.7066
X1.0262 Y-0.696
X1.0246 Y-0.6856
X1.0226 Y-0.6752
X1.0203 Y-0.6649
X1.0176 Y-0.6547
X1.0144 Y-0.6447
X1.011 Y-0.6348
X1.0071 Y-0.625
X1.0029 Y-0.6154
X0.9983 Y-0.606
X0.9934 Y-0.5968
X0.9881 Y-0.5877
X0.9824 Y-0.5789
X0.9764 Y-0.5702
X0.9701 Y-0.5618
X0.9635 Y-0.5536
X0.9565 Y-0.5456
X0.9492 Y-0.5379
X0.9416 Y-0.5305
X0.9338 Y-0.5234
X0.9256 Y-0.5165
X0.9171 Y-0.5099
X0.9084 Y-0.5037
X0.8995 Y-0.4978
X0.8903 Y-0.4922
X0.8808 Y-0.4869
X0.8712 Y-0.482
X0.8613 Y-0.4774
X0.8512 Y-0.4733
X0.841 Y-0.4695
X0.8306 Y-0.466
X0.8201 Y-0.463
X0.8094 Y-0.4604
X0.7986 Y-0.4581
X0.7877 Y-0.4563
X0.7767 Y-0.4549
X0.7657 Y-0.4539
X0.7545 Y-0.4534
X0.7434 Y-0.4532
X0.7322 Y-0.4535
X0.7211 Y-0.4542
X0.7099 Y-0.4553
X0.6988 Y-0.4569
X0.6878 Y-0.4589
X0.6768 Y-0.4613
X0.6658 Y-0.4641
X0.655 Y-0.4674
X0.6443 Y-0.471
X0.6338 Y-0.4751
X0.6234 Y-0.4796
X0.6131 Y-0.4844
X0.6031 Y-0.4897
X0.5932 Y-0.4954
X0.5835 Y-0.5014
X0.5741 Y-0.5078
X0.5649 Y-0.5145
X0.556 Y-0.5216
X0.5474 Y-0.5291
X0.539 Y-0.5369
X0.5309 Y-0.545
X0.5232 Y-0.5534
X0.5157 Y-0.5621
X0.5086 Y-0.571
X0.5019 Y-0.5803
X0.4954 Y-0.5898
X0.4894 Y-0.5995
X0.4837 Y-0.6095
X0.4784 Y-0.6197
X0.4735 Y-0.6301
X0.469 Y-0.6406
X0.4649 Y-0.6514
X0.4613 Y-0.6622
X0.458 Y-0.6732
X0.4551 Y-0.6844
X0.4527 Y-0.6956
X0.4507 Y-0.7069
X0.4492 Y-0.7183
X0.448 Y-0.7298
X0.4473 Y-0.7413
X0.4471 Y-0.7528
X0.4473 Y-0.7643
X0.4479 Y-0.7758
X0.449 Y-0.7872
X0.4505 Y-0.7986
X0.4524 Y-0.81
X0.4548 Y-0.8213
X0.4576 Y-0.8324
X0.4608 Y-0.8435
X0.4644 Y-0.8544
X0.4684 Y-0.8652
X0.4729 Y-0.8758
X0.4778 Y-0.8863
X0.483 Y-0.8965
X0.4887 Y-0.9066
X0.4947 Y-0.9164
X0.5011 Y-0.926
X0.5078 Y-0.9353
X0.5149 Y-0.9444
X0.5223 Y-0.9532
X0.5301 Y-0.9617
X0.5382 Y-0.9699
X0.5466 Y-0.9778
X0.5553 Y-0.9854
X0.5643 Y-0.9926
X0.5735 Y-0.9995
X0.583 Y-1.006
X0.5927 Y-1.0122
X0.6027 Y-1.018
X0.6129 Y-1.0234
X0.6233 Y-1.0284
X0.6338 Y-1.033
X0.6446 Y-1.0372
X0.6554 Y-1.041
X0.6665 Y-1.0444
X0.6776 Y-1.0473
X0.6888 Y-1.0499
X0.7002 Y-1.052
X0.7116 Y-1.0536
X0.723 Y-1.0548
X0.7345 Y-1.0556
X0.7461 Y-1.056
X0.7576 Y-1.0559
X0.7691 Y-1.0554
X0.7806 Y-1.0544
X0.792 Y-1.053
X0.8034 Y-1.0512
X0.8147 Y-1.0489
X0.8259 Y-1.0462
X0.837 Y-1.0431
X0.848 Y-1.0396
X0.8588 Y-1.0356
X0.8695 Y-1.0312
X0.88 Y-1.0265
X0.8904 Y-1.0213
X0.9006 Y-1.0156
X0.9107 Y-1.0096
X0.9205 Y-1.0032
X0.9303 Y-0.9963
X0.9398 Y-0.989
X0.9491 Y-0.9812
X0.9582 Y-0.973
X0.9671 Y-0.9645
X0.9756 Y-0.9555
X0.9839 Y-0.9462
X0.9919 Y-0.9365
X0.9995 Y-0.9264
X1.0067 Y-0.9161
X1.0136 Y-0.9054
X1.0201 Y-0.8945
X1.0261 Y-0.8834
X1.0317 Y-0.8721
X1.0369 Y-0.8605
X1.0416 Y-0.8488
X1.0458 Y-0.837
X1.0496 Y-0.8251
X1.0529 Y-0.8131
X1.0557 Y-0.801
X1.0581 Y-0.7889
X1.0599 Y-0.7767
X1.0614 Y-0.7645
X1.0623 Y-0.7523
X1.0628 Y-0.7402
Y-0.728
X1.0624 Y-0.716
X1.0615 Y-0.704
X1.0601 Y-0.692
X1.0583 Y-0.6802
X1.0561 Y-0.6684
X1.0534 Y-0.6568
X1.0503 Y-0.6453
X1.0467 Y-0.634
X1.0427 Y-0.6228
X1.0383 Y-0.6117
X1.0335 Y-0.6009
X1.0283 Y-0.5902
X1.0227 Y-0.5798
X1.0166 Y-0.5695
X1.0102 Y-0.5595
X1.0034 Y-0.5498
X0.9963 Y-0.5403
X0.9887 Y-0.531
X0.9808 Y-0.5221
X0.9726 Y-0.5134
X0.964 Y-0.5051
X0.9551 Y-0.497
X0.9459 Y-0.4893
X0.9364 Y-0.482
X0.9266 Y-0.475
X0.9165 Y-0.4683
X0.9061 Y-0.4621
X0.8955 Y-0.4562
X0.8846 Y-0.4507
X0.8736 Y-0.4456
X0.8623 Y-0.441
X0.8508 Y-0.4367
X0.8392 Y-0.4329
X0.8273 Y-0.4296
X0.8154 Y-0.4267
X0.8033 Y-0.4242
X0.7911 Y-0.4222
X0.7788 Y-0.4207
X0.7665 Y-0.4196
X0.7541 Y-0.419
X0.7416 Y-0.4189
X0.7292 Y-0.4192
X0.7167 Y-0.4201
X0.7043 Y-0.4214
X0.6919 Y-0.4231
X0.6796 Y-0.4254
X0.6673 Y-0.4281
X0.6552 Y-0.4313
X0.6431 Y-0.4349
X0.6312 Y-0.439
X0.6194 Y-0.4436
X0.6078 Y-0.4486
X0.5964 Y-0.4541
X0.5852 Y-0.46
X0.5743 Y-0.4663
X0.5635 Y-0.4731
X0.5531 Y-0.4802
X0.5428 Y-0.4878
X0.5329 Y-0.4957
X0.5233 Y-0.5041
X0.514 Y-0.5128
X0.505 Y-0.5218
X0.4964 Y-0.5312
X0.4882 Y-0.5409
X0.4803 Y-0.5509
X0.4728 Y-0.5613
X0.4657 Y-0.5719
X0.4589 Y-0.5827
X0.4527 Y-0.5939
X0.4468 Y-0.6052
X0.4414 Y-0.6168
X0.4364 Y-0.6286
X0.4319 Y-0.6406
X0.4278 Y-0.6527
X0.4242 Y-0.665
X0.421 Y-0.6774
X0.4184 Y-0.69
X0.4162 Y-0.7026
X0.4145 Y-0.7153
X0.4132 Y-0.7281
X0.4125 Y-0.7409
X0.4123 Y-0.7537
X0.4125 Y-0.7665
X0.4132 Y-0.7793
X0.4145 Y-0.7921
X0.4162 Y-0.8048
X0.4184 Y-0.8175
X0.421 Y-0.83
X0.4242 Y-0.8425
X0.4278 Y-0.8548
X0.4319 Y-0.867
X0.4364 Y-0.879
X0.4414 Y-0.8908
X0.4469 Y-0.9024
X0.4528 Y-0.9139
X0.4591 Y-0.925
X0.4658 Y-0.936
X0.473 Y-0.9466
X0.4805 Y-0.957
X0.4885 Y-0.9671
X0.4968 Y-0.9769
X0.5055 Y-0.9864
X0.5145 Y-0.9955
X0.5239 Y-1.0043
X0.5336 Y-1.0127
X0.5437 Y-1.0207
X0.554 Y-1.0284
X0.5646 Y-1.0356
X0.5755 Y-1.0425
X0.5866 Y-1.0489
X0.598 Y-1.0549
X0.6096 Y-1.0605
X0.6214 Y-1.0656
X0.6333 Y-1.0702
X0.6455 Y-1.0744
X0.6578 Y-1.0781
X0.6702 Y-1.0814
X0.6828 Y-1.0842
X0.6954 Y-1.0865
X0.7081 Y-1.0883
X0.7209 Y-1.0897
X0.7337 Y-1.0905
X0.7466 Y-1.0909
X0.7594 Y-1.0907
X0.7723 Y-1.0901
X0.7851 Y-1.089
X0.7979 Y-1.0874
X0.8105 Y-1.0853
X0.8232 Y-1.0828
X0.8357 Y-1.0797
X0.8481 Y-1.0762
X0.8604 Y-1.0722
X0.8725 Y-1.0677
X0.8846 Y-1.0627
X0.8964 Y-1.0573
X0.9082 Y-1.0514
X0.9197 Y-1.045
X0.931 Y-1.0382
X0.9422 Y-1.0308
X0.9531 Y-1.0231
X0.9637 Y-1.0148
X0.9741 Y-1.0062
X0.9842 Y-0.9971
X0.994 Y-0.9876
X1.0034 Y-0.9776
X1.0125 Y-0.9673
X1.0212 Y-0.9566
X1.0295 Y-0.9456
X1.0374 Y-0.9343
X1.0449 Y-0.9226
X1.0519 Y-0.9107
X1.0585 Y-0.8985
X1.0646 Y-0.8861
X1.0702 Y-0.8734
X1.0753 Y-0.8606
X1.0799 Y-0.8476
X1.084 Y-0.8345
X1.0876 Y-0.8213
X1.0907 Y-0.808
X1.0933 Y-0.7946
X1.0953 Y-0.7811
X1.0968 Y-0.7676
X1.0979 Y-0.7541
X1.0984 Y-0.7406
X1.0983 Y-0.7272
X1.0978 Y-0.7137
X1.0968 Y-0.7004
X1.0952 Y-0.6871
X1.0932 Y-0.6739
X1.0906 Y-0.6608
X1.0876 Y-0.6478
X1.0841 Y-0.635
X1.0801 Y-0.6223
X1.0756 Y-0.6098
X1.0706 Y-0.5975
X1.0652 Y-0.5853
X1.0593 Y-0.5734
X1.053 Y-0.5618
X1.0462 Y-0.5503
X1.039 Y-0.5392
X1.0314 Y-0.5283
X1.0234 Y-0.5177
X1.0149 Y-0.5074
X1.0061 Y-0.4974
X0.9969 Y-0.4878
X0.9873 Y-0.4785
X0.9773 Y-0.4695
X0.967 Y-0.461
X0.9564 Y-0.4528
X0.9454 Y-0.445
X0.9342 Y-0.4377
X0.9226 Y-0.4307
X0.9108 Y-0.4242
X0.8987 Y-0.4182
X0.8864 Y-0.4126
X0.8738 Y-0.4074
X0.861 Y-0.4028
X0.8481 Y-0.3986
X0.835 Y-0.3949
X0.8217 Y-0.3917
X0.8083 Y-0.389
X0.7947 Y-0.3868
X0.7811 Y-0.3852
X0.7674 Y-0.384
X0.7537 Y-0.3834
X0.7399 Y-0.3833
X0.7261 Y-0.3837
X0.7123 Y-0.3846
X0.6985 Y-0.3861
X0.6848 Y-0.3881
X0.6711 Y-0.3907
X0.6575 Y-0.3937
X0.6441 Y-0.3973
X0.6308 Y-0.4014
X0.6176 Y-0.4059
X0.6046 Y-0.411
X0.5918 Y-0.4166
X0.5792 Y-0.4227
X0.5668 Y-0.4293
X0.5547 Y-0.4363
X0.5428 Y-0.4438
X0.5312 Y-0.4518
X0.5199 Y-0.4602
X0.509 Y-0.469
X0.4984 Y-0.4782
X0.4881 Y-0.4879
X0.4782 Y-0.4979
X0.4687 Y-0.5083
X0.4596 Y-0.5191
X0.4509 Y-0.5302
X0.4426 Y-0.5417
X0.4348 Y-0.5534
X0.4274 Y-0.5655
X0.4205 Y-0.5778
X0.414 Y-0.5904
X0.4081 Y-0.6033
X0.4026 Y-0.6163
X0.3976 Y-0.6296
X0.3931 Y-0.643
X0.3892 Y-0.6566
X0.3857 Y-0.6704
X0.3828 Y-0.6842
X0.3804 Y-0.6982
X0.3786 Y-0.7123
X0.3773 Y-0.7264
X0.3765 Y-0.7406
X0.3763 Y-0.7548
X0.3766 Y-0.769
X0.3774 Y-0.7832
X0.3788 Y-0.7973
X0.3807 Y-0.8114
X0.3832 Y-0.8253
X0.3862 Y-0.8392
X0.3897 Y-0.853
X0.3938 Y-0.8666
X0.3983 Y-0.8801
X0.4034 Y-0.8934
X0.409 Y-0.9064
X0.415 Y-0.9193
X0.4216 Y-0.9319
X0.4286 Y-0.9443
X0.4361 Y-0.9563
X0.444 Y-0.9681
X0.4524 Y-0.9796
X0.4613 Y-0.9908
X0.4705 Y-1.0016
X0.4801 Y-1.012
X0.4902 Y-1.0221
X0.5006 Y-1.0318
X0.5114 Y-1.0411
X0.5225 Y-1.0499
X0.534 Y-1.0583
X0.5457 Y-1.0663
X0.5578 Y-1.0739
X0.5701 Y-1.0809
X0.5827 Y-1.0875
X0.5956 Y-1.0937
X0.6086 Y-1.0993
X0.6219 Y-1.1044
X0.6354 Y-1.109
X0.649 Y-1.1131
X0.6628 Y-1.1167
X0.6767 Y-1.1197
X0.6907 Y-1.1222
X0.7047 Y-1.1242
X0.7189 Y-1.1256
X0.7331 Y-1.1265
X0.7473 Y-1.1269
X0.7616 Y-1.1267
X0.7758 Y-1.126
X0.79 Y-1.1247
X0.8041 Y-1.1229
X0.8182 Y-1.1206
X0.8322 Y-1.1177
X0.8461 Y-1.1142
X0.8599 Y-1.1103
X0.8736 Y-1.1058
X0.8871 Y-1.1007
X0.9005 Y-1.0952
X0.9137 Y-1.0891
X0.9268 Y-1.0825
X0.9396 Y-1.0754
X0.9521 Y-1.0677
X0.9644 Y-1.0596
X0.9765 Y-1.0509
X0.9882 Y-1.0418
X0.9996 Y-1.0322
X1.0107 Y-1.0222
X1.0214 Y-1.0117
X1.0318 Y-1.0007
X1.0417 Y-0.9894
X1.0512 Y-0.9777
X1.0603 Y-0.9656
X1.0689 Y-0.9532
X1.077 Y-0.9404
X1.0846 Y-0.9274
X1.0918 Y-0.914
X1.0984 Y-0.9004
X1.1045 Y-0.8866
X1.1101 Y-0.8726
X1.1151 Y-0.8583
X1.1195 Y-0.844
X1.1234 Y-0.8294
X1.1268 Y-0.8148
X1.1295 Y-0.8001
X1.1317 Y-0.7853
X1.1334 Y-0.7705
X1.1345 Y-0.7556
X1.135 Y-0.7407
X1.1349 Y-0.7259
X1.1343 Y-0.711
X1.1331 Y-0.6963
X1.1313 Y-0.6816
X1.129 Y-0.667
X1.1262 Y-0.6525
X1.1228 Y-0.6382
X1.1188 Y-0.624
X1.1144 Y-0.61
X1.1094 Y-0.5961
X1.1038 Y-0.5825
X1.0978 Y-0.5691
X1.0913 Y-0.5559
X1.0842 Y-0.543
X1.0767 Y-0.5303
X1.0687 Y-0.518
X1.0602 Y-0.506
X1.0513 Y-0.4942
X1.0419 Y-0.4829
X1.0321 Y-0.4719
X1.0218 Y-0.4612
X1.0112 Y-0.451
X1.0001 Y-0.4411
X0.9887 Y-0.4317
X0.9769 Y-0.4227
X0.9648 Y-0.4141
X0.9523 Y-0.406
X0.9395 Y-0.3984
X0.9265 Y-0.3912
X0.9131 Y-0.3846
X0.8995 Y-0.3784
X0.8856 Y-0.3728
X0.8715 Y-0.3677
X0.8572 Y-0.3631
X0.8427 Y-0.3591
X0.8281 Y-0.3556
X0.8133 Y-0.3527
X0.7983 Y-0.3503
X0.7833 Y-0.3485
X0.7682 Y-0.3473
X0.7531 Y-0.3467
X0.7379 Y-0.3466
X0.7227 Y-0.3471
X0.7075 Y-0.3482
X0.6924 Y-0.3498
X0.6773 Y-0.3521
X0.6622 Y-0.3549
X0.6473 Y-0.3583
X0.6325 Y-0.3623
X0.6179 Y-0.3668
X0.6034 Y-0.3719
X0.5891 Y-0.3775
X0.575 Y-0.3837
X0.5612 Y-0.3905
X0.5476 Y-0.3977
X0.5343 Y-0.4055
X0.5213 Y-0.4138
X0.5086 Y-0.4226
X0.4962 Y-0.4318
X0.4842 Y-0.4416
X0.4726 Y-0.4518
X0.4613 Y-0.4624
X0.4505 Y-0.4735
X0.44 Y-0.4849
X0.4301 Y-0.4968
X0.4205 Y-0.509
X0.4115 Y-0.5217
X0.4029 Y-0.5346
X0.3948 Y-0.5479
X0.3872 Y-0.5615
X0.3802 Y-0.5753
X0.3737 Y-0.5894
X0.3677 Y-0.6038
X0.3622 Y-0.6184
X0.3574 Y-0.6332
X0.3531 Y-0.6482
X0.3493 Y-0.6633
X0.3462 Y-0.6785
X0.3436 Y-0.6939
X0.3416 Y-0.7094
X0.3402 Y-0.7249
X0.3394 Y-0.7405
X0.3392 Y-0.7561
X0.3396 Y-0.7717
X0.3406 Y-0.7873
X0.3421 Y-0.8028
X0.3443 Y-0.8183
X0.347 Y-0.8336
X0.3504 Y-0.8489
X0.3543 Y-0.864
X0.3588 Y-0.879
X0.3638 Y-0.8938
X0.3694 Y-0.9083
X0.3756 Y-0.9227
X0.3823 Y-0.9368
X0.3895 Y-0.9507
X0.3973 Y-0.9642
X0.4056 Y-0.9775
X0.4143 Y-0.9904
X0.4236 Y-1.003
X0.4333 Y-1.0152
X0.4435 Y-1.0271
X0.4542 Y-1.0385
X0.4652 Y-1.0496
X0.4767 Y-1.0602
X0.4886 Y-1.0704
X0.5008 Y-1.0801
X0.5135 Y-1.0893
X0.5264 Y-1.0981
X0.5397 Y-1.1063
X0.5533 Y-1.1141
X0.5672 Y-1.1213
X0.5813 Y-1.128
X0.5957 Y-1.1341
X0.6103 Y-1.1397
X0.6251 Y-1.1447
X0.6401 Y-1.1492
X0.6552 Y-1.153
X0.6705 Y-1.1563
X0.6859 Y-1.1591
X0.7014 Y-1.1612
X0.717 Y-1.1627
X0.7326 Y-1.1637
X0.7483 Y-1.164
X0.764 Y-1.1638
X0.7796 Y-1.1629
X0.7953 Y-1.1615
X0.8109 Y-1.1595
X0.8264 Y-1.1568
X0.8419 Y-1.1536
X0.8572 Y-1.1498
X0.8725 Y-1.1454
X0.8875 Y-1.1403
X0.9025 Y-1.1347
X0.9172 Y-1.1286
X0.9317 Y-1.1218
X0.946 Y-1.1145
X0.9601 Y-1.1066
X0.9739 Y-1.0982
X0.9874 Y-1.0892
X1.0005 Y-1.0797
X1.0134 Y-1.0697
X1.0258 Y-1.0592
X1.0379 Y-1.0481
X1.0496 Y-1.0366
X1.0609 Y-1.0247
X1.0717 Y-1.0123
X1.082 Y-0.9995
X1.0918 Y-0.9863
X1.1012 Y-0.9727
X1.11 Y-0.9588
X1.1183 Y-0.9445
X1.126 Y-0.9299
X1.1332 Y-0.9151
X1.1398 Y-0.9
X1.1458 Y-0.8847
X1.1512 Y-0.8691
X1.1561 Y-0.8534
X1.1603 Y-0.8376
X1.1639 Y-0.8216
X1.1669 Y-0.8055
X1.1693 Y-0.7893
X1.171 Y-0.773
X1.1721 Y-0.7567
X1.1726 Y-0.7404
X1.1725 Y-0.7242
X1.1718 Y-0.7079
X1.1705 Y-0.6917
X1.169 Y-0.6798
X1.1686 Y-0.6769
X1.1682 Y-0.6741
X1.1677 Y-0.6713
X1.1662 Y-0.6634
X1.1656 Y-0.6605
X1.1582 Y-0.6298
X1.1546 Y-0.6185
X1.1431 Y-0.5899
X1.1411 Y-0.5849
X1.1364 Y-0.5736
X1.1254 Y-0.5512
X1.1207 Y-0.5433
X1.1048 Y-0.5175
X1.0982 Y-0.5072
X1.0758 Y-0.4793
X1.0701 Y-0.4726
X1.0645 Y-0.466
X1.0602 Y-0.4614
X1.0421 Y-0.4433
X1.0374 Y-0.4389
X1.0309 Y-0.4333
X1.0242 Y-0.4277
X0.9962 Y-0.4052
X0.986 Y-0.3986
X0.9601 Y-0.3828
X0.9523 Y-0.3781
X0.9298 Y-0.3671
X0.9186 Y-0.3624
X0.9136 Y-0.3603
X0.8849 Y-0.3489
X0.8737 Y-0.3452
X0.843 Y-0.3379
X0.84 Y-0.3373
X0.8063 Y-0.3309
X0.7951 Y-0.3299
X0.7726 Y-0.3281
X0.7614 Y-0.3278
X0.739
X0.7277 Y-0.3281
X0.7053 Y-0.3299
X0.6941 Y-0.3309
X0.6604 Y-0.3373
X0.6574 Y-0.3379
X0.6267 Y-0.3452
X0.6155 Y-0.3489
X0.5868 Y-0.3603
X0.5818 Y-0.3624
X0.5706 Y-0.3671
X0.5481 Y-0.3781
X0.5403 Y-0.3828
X0.5144 Y-0.3986
X0.5041 Y-0.4052
X0.4762 Y-0.4277
X0.4695 Y-0.4333
X0.463 Y-0.4389
X0.4583 Y-0.4433
X0.4402 Y-0.4614
X0.4358 Y-0.466
X0.4302 Y-0.4726
X0.4246 Y-0.4793
X0.4022 Y-0.5072
X0.3955 Y-0.5175
X0.3797 Y-0.5433
X0.375 Y-0.5512
X0.364 Y-0.5736
X0.3593 Y-0.5849
X0.3573 Y-0.5899
X0.3458 Y-0.6185
X0.3422 Y-0.6298
X0.3348 Y-0.6605
X0.3342 Y-0.6634
X0.3278 Y-0.6971
X0.3268 Y-0.7084
X0.3251 Y-0.7308
X0.3247 Y-0.742
Y-0.7645
X0.3251 Y-0.7757
X0.3268 Y-0.7982
X0.3278 Y-0.8094
X0.3342 Y-0.8431
X0.3348 Y-0.8461
X0.3422 Y-0.8768
X0.3458 Y-0.888
X0.3573 Y-0.9166
X0.3593 Y-0.9217
X0.364 Y-0.9329
X0.375 Y-0.9553
X0.3797 Y-0.9632
X0.3955 Y-0.989
X0.4022 Y-0.9993
X0.4246 Y-1.0273
X0.4302 Y-1.0339
X0.4358 Y-1.0405
X0.4402 Y-1.0452
X0.4583 Y-1.0632
X0.463 Y-1.0676
X0.4695 Y-1.0732
X0.4762 Y-1.0788
X0.5041 Y-1.1013
X0.5144 Y-1.1079
X0.5403 Y-1.1237
X0.5481 Y-1.1285
X0.5706 Y-1.1395
X0.5818 Y-1.1441
X0.5868 Y-1.1462
X0.6155 Y-1.1576
X0.6267 Y-1.1613
X0.6574 Y-1.1687
X0.6604 Y-1.1693
X0.6941 Y-1.1756
X0.7053 Y-1.1766
X0.7277 Y-1.1784
X0.739 Y-1.1787
X0.7614
X0.7726 Y-1.1784
X0.7951 Y-1.1766
X0.8063 Y-1.1756
X0.84 Y-1.1693
X0.843 Y-1.1687
X0.8737 Y-1.1613
X0.8849 Y-1.1576
X0.9136 Y-1.1462
X0.9186 Y-1.1441
X0.9298 Y-1.1395
X0.9523 Y-1.1285
X0.9601 Y-1.1237
X0.986 Y-1.1079
X0.9962 Y-1.1013
X1.0242 Y-1.0788
X1.0309 Y-1.0732
X1.0374 Y-1.0676
X1.0421 Y-1.0632
X1.0602 Y-1.0452
X1.0645 Y-1.0405
X1.0701 Y-1.0339
X1.0758 Y-1.0273
X1.0982 Y-0.9993
X1.1048 Y-0.989
X1.1207 Y-0.9632
X1.1254 Y-0.9553
X1.1364 Y-0.9329
X1.1411 Y-0.9217
X1.1431 Y-0.9166
X1.1546 Y-0.888
X1.1582 Y-0.8768
X1.1656 Y-0.8461
X1.1662 Y-0.8431
X1.1725 Y-0.8094
X1.1735 Y-0.7982
X1.1753 Y-0.7757
X1.1756 Y-0.7645
Y-0.742
X1.1753 Y-0.7308
X1.1735 Y-0.7084
X1.1725 Y-0.6971
X1.1677 Y-0.6713
X1.1664 Y-0.6679 Z0.6622
X1.1651 Y-0.6645 Z0.6629
X1.1638 Y-0.6612 Z0.664
X1.1614 Y-0.6581 Z0.6658
X1.1592 Y-0.6553 Z0.6681
X1.1572 Y-0.6527 Z0.6709
X1.1551 Y-0.651 Z0.6739
X1.1532 Y-0.6496 Z0.6773
X1.1518 Y-0.6485 Z0.681
X1.1507 Y-0.6477 Z0.6848
X1.1501 Y-0.6473 Z0.6889
X1.1499 Y-0.6471 Z0.6929
G0 Z0.762
X0.9106 Y-0.6546
G3 X0.6102 Y-0.6273 Z0.7314 I-0.1604 J-0.0987 F40.
X0.6688 Y-0.9223 Z0.7008 I0.1396 J-0.1256
X0.9344 Y-0.7831 Z0.6702 I0.0808 J0.1689
X0.7264 Y-0.5683 Z0.6396 I-0.1843 J0.0297
X0.5795 Y-0.8278 Z0.609 I0.0236 J-0.1847
X0.8692 Y-0.8951 Z0.5784 I0.17 J0.0746
X0.8519 Y-0.5991 Z0.5478 I-0.1193 J0.1416
X0.5737 Y-0.699 Z0.5172 I-0.1018 J-0.154
X0.7477 Y-0.937 Z0.4866 I0.176 J-0.0539
X0.9262 Y-0.7035 Z0.456 I0.002 J0.1835
X0.6526 Y-0.5986 Z0.4254 I-0.1761 J-0.0498
X0.6293 Y-0.8898 Z0.3948 I0.0973 J-0.1543
X0.9145 Y-0.83 Z0.3642 I0.1202 J0.1365
X0.7769 Y-0.5742 Z0.3336 I-0.1645 J0.0765
X0.571 Y-0.7779 Z0.303 I-0.0268 J-0.1788
X0.8238 Y-0.9174 Z0.2724 I0.1786 J0.0248
X0.886 Y-0.6362 Z0.2418 I-0.074 J0.1638
X0.5996 Y-0.656 Z0.2112 I-0.1358 J-0.117
X0.6992 Y-0.9243 Z0.1806 I0.1501 J-0.0969
X0.9278 Y-0.7534 Z0.15 I0.0504 J0.1709
X0.5714 I-0.1782 J0.
X0.9278 I0.1782 J0.
G1 X0.9284 Y-0.7091
X0.9292 Y-0.7036
X0.9295 Y-0.6976
X0.9294 Y-0.6916
X0.9289 Y-0.6856
X0.928 Y-0.6797
X0.9268 Y-0.6738
X0.9252 Y-0.668
X0.9234 Y-0.6623
X0.9214 Y-0.6566
X0.919 Y-0.6511
X0.9165 Y-0.6457
X0.9137 Y-0.6404
X0.9107 Y-0.6352
X0.9075 Y-0.63
X0.904 Y-0.6249
X0.9003 Y-0.6198
X0.8963 Y-0.6148
X0.892 Y-0.6098
X0.8875 Y-0.6049
X0.8827 Y-0.6002
X0.8776 Y-0.5955
X0.8724 Y-0.591
X0.8669 Y-0.5867
X0.8611 Y-0.5825
X0.8552 Y-0.5785
X0.8491 Y-0.5747
X0.8428 Y-0.5711
X0.8362 Y-0.5677
X0.8296 Y-0.5646
X0.8227 Y-0.5617
X0.8158 Y-0.559
X0.8087 Y-0.5566
X0.8014 Y-0.5545
X0.7941 Y-0.5526
X0.7867 Y-0.551
X0.7792 Y-0.5497
X0.7716 Y-0.5487
X0.764 Y-0.5479
X0.7563 Y-0.5474
X0.7486 Y-0.5473
X0.7409 Y-0.5474
X0.7332 Y-0.5478
X0.7255 Y-0.5486
X0.7178 Y-0.5496
X0.7101 Y-0.5509
X0.7025 Y-0.5525
X0.695 Y-0.5544
X0.6875 Y-0.5565
X0.6801 Y-0.559
X0.6728 Y-0.5618
X0.6656 Y-0.5648
X0.6585 Y-0.5681
X0.6515 Y-0.5717
X0.6447 Y-0.5755
X0.638 Y-0.5796
X0.6315 Y-0.5839
X0.6251 Y-0.5885
X0.6189 Y-0.5934
X0.613 Y-0.5984
X0.6072 Y-0.6037
X0.6016 Y-0.6092
X0.5962 Y-0.615
X0.591 Y-0.6209
X0.5861 Y-0.627
X0.5814 Y-0.6333
X0.577 Y-0.6398
X0.5728 Y-0.6465
X0.5688 Y-0.6533
X0.5651 Y-0.6602
X0.5617 Y-0.6673
X0.5586 Y-0.6745
X0.5557 Y-0.6818
X0.5531 Y-0.6893
X0.5508 Y-0.6968
X0.5488 Y-0.7044
X0.5471 Y-0.7121
X0.5457 Y-0.7198
X0.5445 Y-0.7276
X0.5437 Y-0.7354
X0.5431 Y-0.7433
X0.5429 Y-0.7511
X0.543 Y-0.759
X0.5433 Y-0.7669
X0.544 Y-0.7747
X0.5449 Y-0.7825
X0.5462 Y-0.7903
X0.5478 Y-0.798
X0.5496 Y-0.8057
X0.5517 Y-0.8133
X0.5542 Y-0.8207
X0.5569 Y-0.8281
X0.5598 Y-0.8354
X0.5631 Y-0.8426
X0.5666 Y-0.8496
X0.5704 Y-0.8565
X0.5745 Y-0.8633
X0.5788 Y-0.8699
X0.5834 Y-0.8763
X0.5882 Y-0.8825
X0.5932 Y-0.8886
X0.5985 Y-0.8944
X0.6039 Y-0.9001
X0.6096 Y-0.9055
X0.6155 Y-0.9108
X0.6216 Y-0.9158
X0.6279 Y-0.9205
X0.6343 Y-0.925
X0.641 Y-0.9293
X0.6477 Y-0.9333
X0.6547 Y-0.937
X0.6617 Y-0.9405
X0.6689 Y-0.9437
X0.6762 Y-0.9467
X0.6836 Y-0.9493
X0.6911 Y-0.9517
X0.6987 Y-0.9538
X0.7064 Y-0.9556
X0.7141 Y-0.9571
X0.7219 Y-0.9583
X0.7297 Y-0.9592
X0.7376 Y-0.9598
X0.7455 Y-0.9601
X0.7533
X0.7612 Y-0.9598
X0.769 Y-0.9592
X0.7769 Y-0.9583
X0.7847 Y-0.9571
X0.7924 Y-0.9557
X0.8001 Y-0.9539
X0.8077 Y-0.9518
X0.8152 Y-0.9495
X0.8226 Y-0.9468
X0.8299 Y-0.9439
X0.8371 Y-0.9407
X0.8442 Y-0.9372
X0.8511 Y-0.9335
X0.8579 Y-0.9295
X0.8645 Y-0.9252
X0.871 Y-0.9207
X0.8773 Y-0.916
X0.8834 Y-0.911
X0.8893 Y-0.9058
X0.895 Y-0.9004
X0.9005 Y-0.8947
X0.9057 Y-0.8889
X0.9108 Y-0.8828
X0.9156 Y-0.8766
X0.9202 Y-0.8702
X0.9245 Y-0.8636
X0.9285 Y-0.8569
X0.9324 Y-0.85
X0.9359 Y-0.843
X0.9392 Y-0.8358
X0.9422 Y-0.8285
X0.9453 Y-0.8201
X0.9486 Y-0.8098
X0.9533 Y-0.7934
X0.9566 Y-0.7798
X0.9589 Y-0.7683
X0.9606 Y-0.7578
X0.9618 Y-0.7482
X0.9626 Y-0.7392
X0.963 Y-0.7305
X0.9631 Y-0.7222
X0.9629 Y-0.7141
X0.9624 Y-0.7063
X0.9615 Y-0.6986
X0.9605 Y-0.691
X0.9591 Y-0.6836
X0.9575 Y-0.6762
X0.9556 Y-0.669
X0.9534 Y-0.6618
X0.9509 Y-0.6547
X0.9482 Y-0.6477
X0.9452 Y-0.6408
X0.9419 Y-0.634
X0.9384 Y-0.6273
X0.9346 Y-0.6206
X0.9305 Y-0.6141
X0.9261 Y-0.6078
X0.9215 Y-0.6015
X0.9166 Y-0.5954
X0.9114 Y-0.5894
X0.906 Y-0.5836
X0.9003 Y-0.578
X0.8944 Y-0.5726
X0.8882 Y-0.5673
X0.8818 Y-0.5623
X0.8752 Y-0.5574
X0.8683 Y-0.5529
X0.8612 Y-0.5485
X0.854 Y-0.5444
X0.8465 Y-0.5406
X0.8389 Y-0.537
X0.8311 Y-0.5337
X0.8231 Y-0.5307
X0.815 Y-0.528
X0.8068 Y-0.5256
X0.7985 Y-0.5235
X0.79 Y-0.5217
X0.7815 Y-0.5202
X0.7729 Y-0.519
X0.7642 Y-0.5182
X0.7555 Y-0.5177
X0.7468 Y-0.5176
X0.738 Y-0.5177
X0.7292 Y-0.5182
X0.7204 Y-0.5191
X0.7117 Y-0.5203
X0.703 Y-0.5218
X0.6943 Y-0.5236
X0.6857 Y-0.5258
X0.6772 Y-0.5283
X0.6688 Y-0.5311
X0.6604 Y-0.5343
X0.6522 Y-0.5378
X0.6442 Y-0.5416
X0.6362 Y-0.5456
X0.6284 Y-0.5501
X0.6208 Y-0.5548
X0.6134 Y-0.5597
X0.6061 Y-0.565
X0.5991 Y-0.5706
X0.5923 Y-0.5764
X0.5856 Y-0.5825
X0.5793 Y-0.5888
X0.5731 Y-0.5953
X0.5673 Y-0.6021
X0.5616 Y-0.6092
X0.5563 Y-0.6164
X0.5512 Y-0.6238
X0.5464 Y-0.6315
X0.5419 Y-0.6393
X0.5377 Y-0.6472
X0.5338 Y-0.6554
X0.5303 Y-0.6636
X0.527 Y-0.672
X0.5241 Y-0.6805
X0.5214 Y-0.6892
X0.5192 Y-0.6979
X0.5172 Y-0.7067
X0.5156 Y-0.7156
X0.5143 Y-0.7245
X0.5134 Y-0.7335
X0.5128 Y-0.7425
X0.5125 Y-0.7515
X0.5126 Y-0.7605
X0.5131 Y-0.7695
X0.5139 Y-0.7785
X0.515 Y-0.7875
X0.5165 Y-0.7964
X0.5183 Y-0.8052
X0.5204 Y-0.814
X0.5229 Y-0.8227
X0.5257 Y-0.8313
X0.5288 Y-0.8397
X0.5322 Y-0.8481
X0.536 Y-0.8563
X0.5401 Y-0.8644
X0.5444 Y-0.8723
X0.5491 Y-0.88
X0.5541 Y-0.8875
X0.5593 Y-0.8949
X0.5649 Y-0.902
X0.5707 Y-0.9089
X0.5767 Y-0.9156
X0.583 Y-0.9221
X0.5896 Y-0.9283
X0.5963 Y-0.9343
X0.6033 Y-0.94
X0.6105 Y-0.9454
X0.618 Y-0.9506
X0.6256 Y-0.9555
X0.6333 Y-0.9601
X0.6413 Y-0.9643
X0.6494 Y-0.9683
X0.6577 Y-0.972
X0.6661 Y-0.9753
X0.6746 Y-0.9783
X0.6832 Y-0.981
X0.6919 Y-0.9834
X0.7007 Y-0.9854
X0.7096 Y-0.9871
X0.7185 Y-0.9885
X0.7275 Y-0.9895
X0.7365 Y-0.9901
X0.7455 Y-0.9905
X0.7545
X0.7636 Y-0.9901
X0.7726 Y-0.9894
X0.7815 Y-0.9883
X0.7905 Y-0.987
X0.7993 Y-0.9852
X0.8081 Y-0.9832
X0.8168 Y-0.9808
X0.8254 Y-0.9781
X0.8339 Y-0.975
X0.8423 Y-0.9716
X0.8506 Y-0.9679
X0.8586 Y-0.9639
X0.8666 Y-0.9596
X0.8744 Y-0.955
X0.8819 Y-0.9501
X0.8893 Y-0.9449
X0.8965 Y-0.9395
X0.9035 Y-0.9337
X0.9103 Y-0.9278
X0.9168 Y-0.9215
X0.9231 Y-0.915
X0.9291 Y-0.9083
X0.9349 Y-0.9013
X0.9405 Y-0.8941
X0.9459 Y-0.8863
X0.9517 Y-0.8776
X0.9572 Y-0.8683
X0.9625 Y-0.8586
X0.9676 Y-0.8485
X0.9723 Y-0.8382
X0.9766 Y-0.8277
X0.9804 Y-0.8172
X0.9838 Y-0.8068
X0.9867 Y-0.7964
X0.9891 Y-0.7861
X0.9912 Y-0.776
X0.9928 Y-0.766
X0.994 Y-0.7561
X0.9948 Y-0.7463
X0.9952 Y-0.7366
X0.9953 Y-0.727
X0.995 Y-0.7175
X0.9944 Y-0.7081
X0.9934 Y-0.6988
X0.992 Y-0.6897
X0.9903 Y-0.6806
X0.9883 Y-0.6717
X0.986 Y-0.6629
X0.9833 Y-0.6542
X0.9803 Y-0.6456
X0.977 Y-0.6372
X0.9734 Y-0.6289
X0.9694 Y-0.6207
X0.9652 Y-0.6127
X0.9606 Y-0.6048
X0.9557 Y-0.5971
X0.9506 Y-0.5896
X0.9451 Y-0.5822
X0.9393 Y-0.5751
X0.9332 Y-0.5681
X0.9269 Y-0.5614
X0.9203 Y-0.5549
X0.9134 Y-0.5486
X0.9062 Y-0.5425
X0.8988 Y-0.5368
X0.8912 Y-0.5312
X0.8833 Y-0.526
X0.8752 Y-0.521
X0.8669 Y-0.5164
X0.8584 Y-0.512
X0.8497 Y-0.508
X0.8408 Y-0.5042
X0.8317 Y-0.5008
X0.8225 Y-0.4978
X0.8132 Y-0.4951
X0.8037 Y-0.4927
X0.7941 Y-0.4907
X0.7844 Y-0.489
X0.7747 Y-0.4878
X0.7648 Y-0.4869
X0.755 Y-0.4863
X0.7451 Y-0.4862
X0.7351 Y-0.4864
X0.7252 Y-0.487
X0.7153 Y-0.488
X0.7054 Y-0.4893
X0.6955 Y-0.4911
X0.6857 Y-0.4932
X0.676 Y-0.4957
X0.6664 Y-0.4985
X0.6568 Y-0.5018
X0.6474 Y-0.5054
X0.6381 Y-0.5093
X0.629 Y-0.5137
X0.62 Y-0.5183
X0.6112 Y-0.5233
X0.6026 Y-0.5287
X0.5942 Y-0.5343
X0.586 Y-0.5403
X0.5781 Y-0.5466
X0.5704 Y-0.5532
X0.5629 Y-0.5602
X0.5557 Y-0.5673
X0.5488 Y-0.5748
X0.5421 Y-0.5825
X0.5358 Y-0.5905
X0.5297 Y-0.5987
X0.524 Y-0.6071
X0.5186 Y-0.6158
X0.5135 Y-0.6247
X0.5088 Y-0.6337
X0.5044 Y-0.6429
X0.5004 Y-0.6523
X0.4967 Y-0.6619
X0.4934 Y-0.6715
X0.4905 Y-0.6813
X0.4879 Y-0.6912
X0.4857 Y-0.7012
X0.4839 Y-0.7113
X0.4825 Y-0.7214
X0.4815 Y-0.7316
X0.4808 Y-0.7418
X0.4806 Y-0.7521
X0.4807 Y-0.7623
X0.4812 Y-0.7725
X0.4821 Y-0.7827
X0.4834 Y-0.7929
X0.4851 Y-0.803
X0.4872 Y-0.813
X0.4897 Y-0.8229
X0.4925 Y-0.8328
X0.4957 Y-0.8425
X0.4993 Y-0.8521
X0.5032 Y-0.8616
X0.5075 Y-0.8709
X0.5122 Y-0.88
X0.5171 Y-0.889
X0.5225 Y-0.8977
X0.5281 Y-0.9063
X0.5341 Y-0.9146
X0.5404 Y-0.9227
X0.547 Y-0.9305
X0.5539 Y-0.9381
X0.5611 Y-0.9454
X0.5685 Y-0.9525
X0.5762 Y-0.9592
X0.5842 Y-0.9657
X0.5924 Y-0.9718
X0.6008 Y-0.9776
X0.6095 Y-0.9831
X0.6183 Y-0.9883
X0.6273 Y-0.9931
X0.6366 Y-0.9976
X0.6459 Y-1.0018
X0.6555 Y-1.0055
X0.6651 Y-1.0089
X0.6749 Y-1.012
X0.6848 Y-1.0146
X0.6948 Y-1.0169
X0.7049 Y-1.0188
X0.715 Y-1.0203
X0.7252 Y-1.0214
X0.7355 Y-1.0222
X0.7457 Y-1.0225
X0.756 Y-1.0224
X0.7662 Y-1.022
X0.7764 Y-1.0212
X0.7866 Y-1.02
X0.7967 Y-1.0184
X0.8068 Y-1.0164
X0.8167 Y-1.014
X0.8266 Y-1.0113
X0.8364 Y-1.0081
X0.846 Y-1.0047
X0.8555 Y-1.0008
X0.8649 Y-0.9966
X0.874 Y-0.992
X0.883 Y-0.9871
X0.8918 Y-0.9819
X0.9004 Y-0.9763
X0.9088 Y-0.9703
X0.917 Y-0.9641
X0.9251 Y-0.9574
X0.933 Y-0.9504
X0.9408 Y-0.9429
X0.9483 Y-0.935
X0.9557 Y-0.9268
X0.9629 Y-0.9181
X0.9698 Y-0.909
X0.9765 Y-0.8996
X0.9828 Y-0.8898
X0.9888 Y-0.8797
X0.9944 Y-0.8694
X0.9996 Y-0.859
X1.0044 Y-0.8483
X1.0088 Y-0.8376
X1.0127 Y-0.8267
X1.0162 Y-0.8158
X1.0192 Y-0.8048
X1.0219 Y-0.7938
X1.024 Y-0.7827
X1.0258 Y-0.7717
X1.0271 Y-0.7607
X1.028 Y-0.7498
X1.0284 Y-0.7389
X1.0285 Y-0.7281
X1.0281 Y-0.7173
X1.0273 Y-0.7066
X1.0262 Y-0.696
X1.0246 Y-0.6856
X1.0226 Y-0.6752
X1.0203 Y-0.6649
X1.0176 Y-0.6547
X1.0144 Y-0.6447
X1.011 Y-0.6348
X1.0071 Y-0.625
X1.0029 Y-0.6154
X0.9983 Y-0.606
X0.9934 Y-0.5968
X0.9881 Y-0.5877
X0.9824 Y-0.5789
X0.9764 Y-0.5702
X0.9701 Y-0.5618
X0.9635 Y-0.5536
X0.9565 Y-0.5456
X0.9492 Y-0.5379
X0.9416 Y-0.5305
X0.9338 Y-0.5234
X0.9256 Y-0.5165
X0.9171 Y-0.5099
X0.9084 Y-0.5037
X0.8995 Y-0.4978
X0.8903 Y-0.4922
X0.8808 Y-0.4869
X0.8712 Y-0.482
X0.8613 Y-0.4774
X0.8512 Y-0.4733
X0.841 Y-0.4695
X0.8306 Y-0.466
X0.8201 Y-0.463
X0.8094 Y-0.4604
X0.7986 Y-0.4581
X0.7877 Y-0.4563
X0.7767 Y-0.4549
X0.7657 Y-0.4539
X0.7545 Y-0.4534
X0.7434 Y-0.4532
X0.7322 Y-0.4535
X0.7211 Y-0.4542
X0.7099 Y-0.4553
X0.6988 Y-0.4569
X0.6878 Y-0.4589
X0.6768 Y-0.4613
X0.6658 Y-0.4641
X0.655 Y-0.4674
X0.6443 Y-0.471
X0.6338 Y-0.4751
X0.6234 Y-0.4796
X0.6131 Y-0.4844
X0.6031 Y-0.4897
X0.5932 Y-0.4954
X0.5835 Y-0.5014
X0.5741 Y-0.5078
X0.5649 Y-0.5145
X0.556 Y-0.5216
X0.5474 Y-0.5291
X0.539 Y-0.5369
X0.5309 Y-0.545
X0.5232 Y-0.5534
X0.5157 Y-0.5621
X0.5086 Y-0.571
X0.5019 Y-0.5803
X0.4954 Y-0.5898
X0.4894 Y-0.5995
X0.4837 Y-0.6095
X0.4784 Y-0.6197
X0.4735 Y-0.6301
X0.469 Y-0.6406
X0.4649 Y-0.6514
X0.4613 Y-0.6622
X0.458 Y-0.6732
X0.4551 Y-0.6844
X0.4527 Y-0.6956
X0.4507 Y-0.7069
X0.4492 Y-0.7183
X0.448 Y-0.7298
X0.4473 Y-0.7413
X0.4471 Y-0.7528
X0.4473 Y-0.7643
X0.4479 Y-0.7758
X0.449 Y-0.7872
X0.4505 Y-0.7986
X0.4524 Y-0.81
X0.4548 Y-0.8213
X0.4576 Y-0.8324
X0.4608 Y-0.8435
X0.4644 Y-0.8544
X0.4684 Y-0.8652
X0.4729 Y-0.8758
X0.4778 Y-0.8863
X0.483 Y-0.8965
X0.4887 Y-0.9066
X0.4947 Y-0.9164
X0.5011 Y-0.926
X0.5078 Y-0.9353
X0.5149 Y-0.9444
X0.5223 Y-0.9532
X0.5301 Y-0.9617
X0.5382 Y-0.9699
X0.5466 Y-0.9778
X0.5553 Y-0.9854
X0.5643 Y-0.9926
X0.5735 Y-0.9995
X0.583 Y-1.006
X0.5927 Y-1.0122
X0.6027 Y-1.018
X0.6129 Y-1.0234
X0.6233 Y-1.0284
X0.6338 Y-1.033
X0.6446 Y-1.0372
X0.6554 Y-1.041
X0.6665 Y-1.0444
X0.6776 Y-1.0473
X0.6888 Y-1.0499
X0.7002 Y-1.052
X0.7116 Y-1.0536
X0.723 Y-1.0548
X0.7345 Y-1.0556
X0.7461 Y-1.056
X0.7576 Y-1.0559
X0.7691 Y-1.0554
X0.7806 Y-1.0544
X0.792 Y-1.053
X0.8034 Y-1.0512
X0.8147 Y-1.0489
X0.8259 Y-1.0462
X0.837 Y-1.0431
X0.848 Y-1.0396
X0.8588 Y-1.0356
X0.8695 Y-1.0312
X0.88 Y-1.0265
X0.8904 Y-1.0213
X0.9006 Y-1.0156
X0.9107 Y-1.0096
X0.9205 Y-1.0032
X0.9303 Y-0.9963
X0.9398 Y-0.989
X0.9491 Y-0.9812
X0.9582 Y-0.973
X0.9671 Y-0.9645
X0.9756 Y-0.9555
X0.9839 Y-0.9462
X0.9919 Y-0.9365
X0.9995 Y-0.9264
X1.0067 Y-0.9161
X1.0136 Y-0.9054
X1.0201 Y-0.8945
X1.0261 Y-0.8834
X1.0317 Y-0.8721
X1.0369 Y-0.8605
X1.0416 Y-0.8488
X1.0458 Y-0.837
X1.0496 Y-0.8251
X1.0529 Y-0.8131
X1.0557 Y-0.801
X1.0581 Y-0.7889
X1.0599 Y-0.7767
X1.0614 Y-0.7645
X1.0623 Y-0.7523
X1.0628 Y-0.7402
Y-0.728
X1.0624 Y-0.716
X1.0615 Y-0.704
X1.0601 Y-0.692
X1.0583 Y-0.6802
X1.0561 Y-0.6684
X1.0534 Y-0.6568
X1.0503 Y-0.6453
X1.0467 Y-0.634
X1.0427 Y-0.6228
X1.0383 Y-0.6117
X1.0335 Y-0.6009
X1.0283 Y-0.5902
X1.0227 Y-0.5798
X1.0166 Y-0.5695
X1.0102 Y-0.5595
X1.0034 Y-0.5498
X0.9963 Y-0.5403
X0.9887 Y-0.531
X0.9808 Y-0.5221
X0.9726 Y-0.5134
X0.964 Y-0.5051
X0.9551 Y-0.497
X0.9459 Y-0.4893
X0.9364 Y-0.482
X0.9266 Y-0.475
X0.9165 Y-0.4683
X0.9061 Y-0.4621
X0.8955 Y-0.4562
X0.8846 Y-0.4507
X0.8736 Y-0.4456
X0.8623 Y-0.441
X0.8508 Y-0.4367
X0.8392 Y-0.4329
X0.8273 Y-0.4296
X0.8154 Y-0.4267
X0.8033 Y-0.4242
X0.7911 Y-0.4222
X0.7788 Y-0.4207
X0.7665 Y-0.4196
X0.7541 Y-0.419
X0.7416 Y-0.4189
X0.7292 Y-0.4192
X0.7167 Y-0.4201
X0.7043 Y-0.4214
X0.6919 Y-0.4231
X0.6796 Y-0.4254
X0.6673 Y-0.4281
X0.6552 Y-0.4313
X0.6431 Y-0.4349
X0.6312 Y-0.439
X0.6194 Y-0.4436
X0.6078 Y-0.4486
X0.5964 Y-0.4541
X0.5852 Y-0.46
X0.5743 Y-0.4663
X0.5635 Y-0.4731
X0.5531 Y-0.4802
X0.5428 Y-0.4878
X0.5329 Y-0.4957
X0.5233 Y-0.5041
X0.514 Y-0.5128
X0.505 Y-0.5218
X0.4964 Y-0.5312
X0.4882 Y-0.5409
X0.4803 Y-0.5509
X0.4728 Y-0.5613
X0.4657 Y-0.5719
X0.4589 Y-0.5827
X0.4527 Y-0.5939
X0.4468 Y-0.6052
X0.4414 Y-0.6168
X0.4364 Y-0.6286
X0.4319 Y-0.6406
X0.4278 Y-0.6527
X0.4242 Y-0.665
X0.421 Y-0.6774
X0.4184 Y-0.69
X0.4162 Y-0.7026
X0.4145 Y-0.7153
X0.4132 Y-0.7281
X0.4125 Y-0.7409
X0.4123 Y-0.7537
X0.4125 Y-0.7665
X0.4132 Y-0.7793
X0.4145 Y-0.7921
X0.4162 Y-0.8048
X0.4184 Y-0.8175
X0.421 Y-0.83
X0.4242 Y-0.8425
X0.4278 Y-0.8548
X0.4319 Y-0.867
X0.4364 Y-0.879
X0.4414 Y-0.8908
X0.4469 Y-0.9024
X0.4528 Y-0.9139
X0.4591 Y-0.925
X0.4658 Y-0.936
X0.473 Y-0.9466
X0.4805 Y-0.957
X0.4885 Y-0.9671
X0.4968 Y-0.9769
X0.5055 Y-0.9864
X0.5145 Y-0.9955
X0.5239 Y-1.0043
X0.5336 Y-1.0127
X0.5437 Y-1.0207
X0.554 Y-1.0284
X0.5646 Y-1.0356
X0.5755 Y-1.0425
X0.5866 Y-1.0489
X0.598 Y-1.0549
X0.6096 Y-1.0605
X0.6214 Y-1.0656
X0.6333 Y-1.0702
X0.6455 Y-1.0744
X0.6578 Y-1.0781
X0.6702 Y-1.0814
X0.6828 Y-1.0842
X0.6954 Y-1.0865
X0.7081 Y-1.0883
X0.7209 Y-1.0897
X0.7337 Y-1.0905
X0.7466 Y-1.0909
X0.7594 Y-1.0907
X0.7723 Y-1.0901
X0.7851 Y-1.089
X0.7979 Y-1.0874
X0.8105 Y-1.0853
X0.8232 Y-1.0828
X0.8357 Y-1.0797
X0.8481 Y-1.0762
X0.8604 Y-1.0722
X0.8725 Y-1.0677
X0.8846 Y-1.0627
X0.8964 Y-1.0573
X0.9082 Y-1.0514
X0.9197 Y-1.045
X0.931 Y-1.0382
X0.9422 Y-1.0308
X0.9531 Y-1.0231
X0.9637 Y-1.0148
X0.9741 Y-1.0062
X0.9842 Y-0.9971
X0.994 Y-0.9876
X1.0034 Y-0.9776
X1.0125 Y-0.9673
X1.0212 Y-0.9566
X1.0295 Y-0.9456
X1.0374 Y-0.9343
X1.0449 Y-0.9226
X1.0519 Y-0.9107
X1.0585 Y-0.8985
X1.0646 Y-0.8861
X1.0702 Y-0.8734
X1.0753 Y-0.8606
X1.0799 Y-0.8476
X1.084 Y-0.8345
X1.0876 Y-0.8213
X1.0907 Y-0.808
X1.0933 Y-0.7946
X1.0953 Y-0.7811
X1.0968 Y-0.7676
X1.0979 Y-0.7541
X1.0984 Y-0.7406
X1.0983 Y-0.7272
X1.0978 Y-0.7137
X1.0968 Y-0.7004
X1.0952 Y-0.6871
X1.0932 Y-0.6739
X1.0906 Y-0.6608
X1.0876 Y-0.6478
X1.0841 Y-0.635
X1.0801 Y-0.6223
X1.0756 Y-0.6098
X1.0706 Y-0.5975
X1.0652 Y-0.5853
X1.0593 Y-0.5734
X1.053 Y-0.5618
X1.0462 Y-0.5503
X1.039 Y-0.5392
X1.0314 Y-0.5283
X1.0234 Y-0.5177
X1.0149 Y-0.5074
X1.0061 Y-0.4974
X0.9969 Y-0.4878
X0.9873 Y-0.4785
X0.9773 Y-0.4695
X0.967 Y-0.461
X0.9564 Y-0.4528
X0.9454 Y-0.445
X0.9342 Y-0.4377
X0.9226 Y-0.4307
X0.9108 Y-0.4242
X0.8987 Y-0.4182
X0.8864 Y-0.4126
X0.8738 Y-0.4074
X0.861 Y-0.4028
X0.8481 Y-0.3986
X0.835 Y-0.3949
X0.8217 Y-0.3917
X0.8083 Y-0.389
X0.7947 Y-0.3868
X0.7811 Y-0.3852
X0.7674 Y-0.384
X0.7537 Y-0.3834
X0.7399 Y-0.3833
X0.7261 Y-0.3837
X0.7123 Y-0.3846
X0.6985 Y-0.3861
X0.6848 Y-0.3881
X0.6711 Y-0.3907
X0.6575 Y-0.3937
X0.6441 Y-0.3973
X0.6308 Y-0.4014
X0.6176 Y-0.4059
X0.6046 Y-0.411
X0.5918 Y-0.4166
X0.5792 Y-0.4227
X0.5668 Y-0.4293
X0.5547 Y-0.4363
X0.5428 Y-0.4438
X0.5312 Y-0.4518
X0.5199 Y-0.4602
X0.509 Y-0.469
X0.4984 Y-0.4782
X0.4881 Y-0.4879
X0.4782 Y-0.4979
X0.4687 Y-0.5083
X0.4596 Y-0.5191
X0.4509 Y-0.5302
X0.4426 Y-0.5417
X0.4348 Y-0.5534
X0.4274 Y-0.5655
X0.4205 Y-0.5778
X0.414 Y-0.5904
X0.4081 Y-0.6033
X0.4026 Y-0.6163
X0.3976 Y-0.6296
X0.3931 Y-0.643
X0.3892 Y-0.6566
X0.3857 Y-0.6704
X0.3828 Y-0.6842
X0.3804 Y-0.6982
X0.3786 Y-0.7123
X0.3773 Y-0.7264
X0.3765 Y-0.7406
X0.3763 Y-0.7548
X0.3766 Y-0.769
X0.3774 Y-0.7832
X0.3788 Y-0.7973
X0.3807 Y-0.8114
X0.3832 Y-0.8253
X0.3862 Y-0.8392
X0.3897 Y-0.853
X0.3938 Y-0.8666
X0.3983 Y-0.8801
X0.4034 Y-0.8934
X0.409 Y-0.9064
X0.415 Y-0.9193
X0.4216 Y-0.9319
X0.4286 Y-0.9443
X0.4361 Y-0.9563
X0.444 Y-0.9681
X0.4524 Y-0.9796
X0.4613 Y-0.9908
X0.4705 Y-1.0016
X0.4801 Y-1.012
X0.4902 Y-1.0221
X0.5006 Y-1.0318
X0.5114 Y-1.0411
X0.5225 Y-1.0499
X0.534 Y-1.0583
X0.5457 Y-1.0663
X0.5578 Y-1.0739
X0.5701 Y-1.0809
X0.5827 Y-1.0875
X0.5956 Y-1.0937
X0.6086 Y-1.0993
X0.6219 Y-1.1044
X0.6354 Y-1.109
X0.649 Y-1.1131
X0.6628 Y-1.1167
X0.6767 Y-1.1197
X0.6907 Y-1.1222
X0.7047 Y-1.1242
X0.7189 Y-1.1256
X0.7331 Y-1.1265
X0.7473 Y-1.1269
X0.7616 Y-1.1267
X0.7758 Y-1.126
X0.79 Y-1.1247
X0.8041 Y-1.1229
X0.8182 Y-1.1206
X0.8322 Y-1.1177
X0.8461 Y-1.1142
X0.8599 Y-1.1103
X0.8736 Y-1.1058
X0.8871 Y-1.1007
X0.9005 Y-1.0952
X0.9137 Y-1.0891
X0.9268 Y-1.0825
X0.9396 Y-1.0754
X0.9521 Y-1.0677
X0.9644 Y-1.0596
X0.9765 Y-1.0509
X0.9882 Y-1.0418
X0.9996 Y-1.0322
X1.0107 Y-1.0222
X1.0214 Y-1.0117
X1.0318 Y-1.0007
X1.0417 Y-0.9894
X1.0512 Y-0.9777
X1.0603 Y-0.9656
X1.0689 Y-0.9532
X1.077 Y-0.9404
X1.0846 Y-0.9274
X1.0918 Y-0.914
X1.0984 Y-0.9004
X1.1045 Y-0.8866
X1.1101 Y-0.8726
X1.1151 Y-0.8583
X1.1195 Y-0.844
X1.1234 Y-0.8294
X1.1268 Y-0.8148
X1.1295 Y-0.8001
X1.1317 Y-0.7853
X1.1334 Y-0.7705
X1.1345 Y-0.7556
X1.135 Y-0.7407
X1.1349 Y-0.7259
X1.1343 Y-0.711
X1.1331 Y-0.6963
X1.1313 Y-0.6816
X1.129 Y-0.667
X1.1262 Y-0.6525
X1.1228 Y-0.6382
X1.1188 Y-0.624
X1.1144 Y-0.61
X1.1094 Y-0.5961
X1.1038 Y-0.5825
X1.0978 Y-0.5691
X1.0913 Y-0.5559
X1.0842 Y-0.543
X1.0767 Y-0.5303
X1.0687 Y-0.518
X1.0602 Y-0.506
X1.0513 Y-0.4942
X1.0419 Y-0.4829
X1.0321 Y-0.4719
X1.0218 Y-0.4612
X1.0112 Y-0.451
X1.0001 Y-0.4411
X0.9887 Y-0.4317
X0.9769 Y-0.4227
X0.9648 Y-0.4141
X0.9523 Y-0.406
X0.9395 Y-0.3984
X0.9265 Y-0.3912
X0.9131 Y-0.3846
X0.8995 Y-0.3784
X0.8856 Y-0.3728
X0.8715 Y-0.3677
X0.8572 Y-0.3631
X0.8427 Y-0.3591
X0.8281 Y-0.3556
X0.8133 Y-0.3527
X0.7983 Y-0.3503
X0.7833 Y-0.3485
X0.7682 Y-0.3473
X0.7531 Y-0.3467
X0.7379 Y-0.3466
X0.7227 Y-0.3471
X0.7075 Y-0.3482
X0.6924 Y-0.3498
X0.6773 Y-0.3521
X0.6622 Y-0.3549
X0.6473 Y-0.3583
X0.6325 Y-0.3623
X0.6179 Y-0.3668
X0.6034 Y-0.3719
X0.5891 Y-0.3775
X0.575 Y-0.3837
X0.5612 Y-0.3905
X0.5476 Y-0.3977
X0.5343 Y-0.4055
X0.5213 Y-0.4138
X0.5086 Y-0.4226
X0.4962 Y-0.4318
X0.4842 Y-0.4416
X0.4726 Y-0.4518
X0.4613 Y-0.4624
X0.4505 Y-0.4735
X0.44 Y-0.4849
X0.4301 Y-0.4968
X0.4205 Y-0.509
X0.4115 Y-0.5217
X0.4029 Y-0.5346
X0.3948 Y-0.5479
X0.3872 Y-0.5615
X0.3802 Y-0.5753
X0.3737 Y-0.5894
X0.3677 Y-0.6038
X0.3622 Y-0.6184
X0.3574 Y-0.6332
X0.3531 Y-0.6482
X0.3493 Y-0.6633
X0.3462 Y-0.6785
X0.3436 Y-0.6939
X0.3416 Y-0.7094
X0.3402 Y-0.7249
X0.3394 Y-0.7405
X0.3392 Y-0.7561
X0.3396 Y-0.7717
X0.3406 Y-0.7873
X0.3421 Y-0.8028
X0.3443 Y-0.8183
X0.347 Y-0.8336
X0.3504 Y-0.8489
X0.3543 Y-0.864
X0.3588 Y-0.879
X0.3638 Y-0.8938
X0.3694 Y-0.9083
X0.3756 Y-0.9227
X0.3823 Y-0.9368
X0.3895 Y-0.9507
X0.3973 Y-0.9642
X0.4056 Y-0.9775
X0.4143 Y-0.9904
X0.4236 Y-1.003
X0.4333 Y-1.0152
X0.4435 Y-1.0271
X0.4542 Y-1.0385
X0.4652 Y-1.0496
X0.4767 Y-1.0602
X0.4886 Y-1.0704
X0.5008 Y-1.0801
X0.5135 Y-1.0893
X0.5264 Y-1.0981
X0.5397 Y-1.1063
X0.5533 Y-1.1141
X0.5672 Y-1.1213
X0.5813 Y-1.128
X0.5957 Y-1.1341
X0.6103 Y-1.1397
X0.6251 Y-1.1447
X0.6401 Y-1.1492
X0.6552 Y-1.153
X0.6705 Y-1.1563
X0.6859 Y-1.1591
X0.7014 Y-1.1612
X0.717 Y-1.1627
X0.7326 Y-1.1637
X0.7483 Y-1.164
X0.764 Y-1.1638
X0.7796 Y-1.1629
X0.7953 Y-1.1615
X0.8109 Y-1.1595
X0.8264 Y-1.1568
X0.8419 Y-1.1536
X0.8572 Y-1.1498
X0.8725 Y-1.1454
X0.8875 Y-1.1403
X0.9025 Y-1.1347
X0.9172 Y-1.1286
X0.9317 Y-1.1218
X0.946 Y-1.1145
X0.9601 Y-1.1066
X0.9739 Y-1.0982
X0.9874 Y-1.0892
X1.0005 Y-1.0797
X1.0134 Y-1.0697
X1.0258 Y-1.0592
X1.0379 Y-1.0481
X1.0496 Y-1.0366
X1.0609 Y-1.0247
X1.0717 Y-1.0123
X1.082 Y-0.9995
X1.0918 Y-0.9863
X1.1012 Y-0.9727
X1.11 Y-0.9588
X1.1183 Y-0.9445
X1.126 Y-0.9299
X1.1332 Y-0.9151
X1.1398 Y-0.9
X1.1458 Y-0.8847
X1.1512 Y-0.8691
X1.1561 Y-0.8534
X1.1603 Y-0.8376
X1.1639 Y-0.8216
X1.1669 Y-0.8055
X1.1693 Y-0.7893
X1.171 Y-0.773
X1.1721 Y-0.7567
X1.1726 Y-0.7404
X1.1725 Y-0.7242
X1.1718 Y-0.7079
X1.1705 Y-0.6917
X1.169 Y-0.6798
X1.1686 Y-0.6769
X1.1682 Y-0.6741
X1.1677 Y-0.6713
X1.1662 Y-0.6634
X1.1656 Y-0.6605
X1.1582 Y-0.6298
X1.1546 Y-0.6185
X1.1431 Y-0.5899
X1.1411 Y-0.5849
X1.1364 Y-0.5736
X1.1254 Y-0.5512
X1.1207 Y-0.5433
X1.1048 Y-0.5175
X1.0982 Y-0.5072
X1.0758 Y-0.4793
X1.0701 Y-0.4726
X1.0645 Y-0.466
X1.0602 Y-0.4614
X1.0421 Y-0.4433
X1.0374 Y-0.4389
X1.0309 Y-0.4333
X1.0242 Y-0.4277
X0.9962 Y-0.4052
X0.986 Y-0.3986
X0.9601 Y-0.3828
X0.9523 Y-0.3781
X0.9298 Y-0.3671
X0.9186 Y-0.3624
X0.9136 Y-0.3603
X0.8849 Y-0.3489
X0.8737 Y-0.3452
X0.843 Y-0.3379
X0.84 Y-0.3373
X0.8063 Y-0.3309
X0.7951 Y-0.3299
X0.7726 Y-0.3281
X0.7614 Y-0.3278
X0.739
X0.7277 Y-0.3281
X0.7053 Y-0.3299
X0.6941 Y-0.3309
X0.6604 Y-0.3373
X0.6574 Y-0.3379
X0.6267 Y-0.3452
X0.6155 Y-0.3489
X0.5868 Y-0.3603
X0.5818 Y-0.3624
X0.5706 Y-0.3671
X0.5481 Y-0.3781
X0.5403 Y-0.3828
X0.5144 Y-0.3986
X0.5041 Y-0.4052
X0.4762 Y-0.4277
X0.4695 Y-0.4333
X0.463 Y-0.4389
X0.4583 Y-0.4433
X0.4402 Y-0.4614
X0.4358 Y-0.466
X0.4302 Y-0.4726
X0.4246 Y-0.4793
X0.4022 Y-0.5072
X0.3955 Y-0.5175
X0.3797 Y-0.5433
X0.375 Y-0.5512
X0.364 Y-0.5736
X0.3593 Y-0.5849
X0.3573 Y-0.5899
X0.3458 Y-0.6185
X0.3422 Y-0.6298
X0.3348 Y-0.6605
X0.3342 Y-0.6634
X0.3278 Y-0.6971
X0.3268 Y-0.7084
X0.3251 Y-0.7308
X0.3247 Y-0.742
Y-0.7645
X0.3251 Y-0.7757
X0.3268 Y-0.7982
X0.3278 Y-0.8094
X0.3342 Y-0.8431
X0.3348 Y-0.8461
X0.3422 Y-0.8768
X0.3458 Y-0.888
X0.3573 Y-0.9166
X0.3593 Y-0.9217
X0.364 Y-0.9329
X0.375 Y-0.9553
X0.3797 Y-0.9632
X0.3955 Y-0.989
X0.4022 Y-0.9993
X0.4246 Y-1.0273
X0.4302 Y-1.0339
X0.4358 Y-1.0405
X0.4402 Y-1.0452
X0.4583 Y-1.0632
X0.463 Y-1.0676
X0.4695 Y-1.0732
X0.4762 Y-1.0788
X0.5041 Y-1.1013
X0.5144 Y-1.1079
X0.5403 Y-1.1237
X0.5481 Y-1.1285
X0.5706 Y-1.1395
X0.5818 Y-1.1441
X0.5868 Y-1.1462
X0.6155 Y-1.1576
X0.6267 Y-1.1613
X0.6574 Y-1.1687
X0.6604 Y-1.1693
X0.6941 Y-1.1756
X0.7053 Y-1.1766
X0.7277 Y-1.1784
X0.739 Y-1.1787
X0.7614
X0.7726 Y-1.1784
X0.7951 Y-1.1766
X0.8063 Y-1.1756
X0.84 Y-1.1693
X0.843 Y-1.1687
X0.8737 Y-1.1613
X0.8849 Y-1.1576
X0.9136 Y-1.1462
X0.9186 Y-1.1441
X0.9298 Y-1.1395
X0.9523 Y-1.1285
X0.9601 Y-1.1237
X0.986 Y-1.1079
X0.9962 Y-1.1013
X1.0242 Y-1.0788
X1.0309 Y-1.0732
X1.0374 Y-1.0676
X1.0421 Y-1.0632
X1.0602 Y-1.0452
X1.0645 Y-1.0405
X1.0701 Y-1.0339
X1.0758 Y-1.0273
X1.0982 Y-0.9993
X1.1048 Y-0.989
X1.1207 Y-0.9632
X1.1254 Y-0.9553
X1.1364 Y-0.9329
X1.1411 Y-0.9217
X1.1431 Y-0.9166
X1.1546 Y-0.888
X1.1582 Y-0.8768
X1.1656 Y-0.8461
X1.1662 Y-0.8431
X1.1725 Y-0.8094
X1.1735 Y-0.7982
X1.1753 Y-0.7757
X1.1756 Y-0.7645
Y-0.742
X1.1753 Y-0.7308
X1.1735 Y-0.7084
X1.1725 Y-0.6971
X1.1677 Y-0.6713
G3 X1.1499 Y-0.6471 I-0.0366 J-0.0083
G1 X1.146 Y-0.6448 Z0.1503
X1.1421 Y-0.6426 Z0.1511
X1.1384 Y-0.6404 Z0.1524
X1.1348 Y-0.6384 Z0.1543
X1.1314 Y-0.6364 Z0.1566
X1.1284 Y-0.6346 Z0.1594
X1.1256 Y-0.633 Z0.1626
X1.1232 Y-0.6316 Z0.1662
X1.1211 Y-0.6305 Z0.1701
X1.1195 Y-0.6295 Z0.1742
X1.1184 Y-0.6289 Z0.1785
X1.1177 Y-0.6285 Z0.183
X1.1174 Y-0.6283 Z0.1875
G0 Z2.2861
(2D CONTOUR2 3)
S7500 M3
G64 P0.0004 Q0.0004
G0 X1.0752 Y-0.7908
Z2.2861
Z1.8861
G1 Z1.7254 F80.
Z0.1875
G18 G2 X1.1127 Z0.15 I0.0375 K0. F50.
G1 X1.1502
G17 G3 X1.1877 Y-0.7533 I0. J0.0375
X0.3127 I-0.4375 J0.
X1.1877 I0.4375 J0.
X0.3127 I-0.4375 J0.
X1.1877 I0.4375 J0.
X1.1502 Y-0.7158 I-0.0375 J0.
G1 X1.1127
G18 G3 X1.0752 Z0.1875 I0. K0.0375
G0 Z1.8861
X1.7884 Y-0.7127
G1 Z1.7254 F80.
Z0.1875
G3 X1.7509 Z0.15 I-0.0375 K0. F50.
G1 X1.7134
G17 G3 X1.6759 Y-0.7502 I0. J-0.0375
G1 Y-1.4884
G2 X1.4884 Y-1.6759 I-0.1875 J0.
G1 X0.012
G2 X-0.1755 Y-1.4884 I0. J0.1875
G1 Y-0.012
G2 X0.012 Y0.1755 I0.1875 J0.
G1 X1.4884
G2 X1.6759 Y-0.012 I0. J-0.1875
G1 Y-1.4884
G2 X1.4884 Y-1.6759 I-0.1875 J0.
G1 X0.012
G2 X-0.1755 Y-1.4884 I0. J0.1875
G1 Y-0.012
G2 X0.012 Y0.1755 I0.1875 J0.
G1 X1.4884
G2 X1.6759 Y-0.012 I0. J-0.1875
G1 Y-0.7502
G3 X1.7134 Y-0.7877 I0.0375 J0.
G1 X1.7509
G18 G2 X1.7884 Z0.1875 I0. K0.0375
G0 Z2.2861
G17
(2D CONTOUR2 4)
G0 X1.0752 Y-0.7908
Z2.2861
Z1.8861
G1 Z1.7254 F80.
Z0.1875
G18 G2 X1.1127 Z0.15 I0.0375 K0. F30.
G1 X1.1502
G17 G3 X1.1877 Y-0.7533 I0. J0.0375
X0.3127 I-0.4375 J0.
X1.1877 I0.4375 J0.
X0.3127 I-0.4375 J0.
X1.1877 I0.4375 J0.
X1.1502 Y-0.7158 I-0.0375 J0.
G1 X1.1127
G18 G3 X1.0752 Z0.1875 I0. K0.0375
G0 Z2.2861
G17
M5
M9
G53 G0 Z0.
M30
%
