%
(1,375 TUBE BLOCK)
(T11 D=0.125 CR=0. TAPER=45DEG - ZMIN=1.6311 - CHAMFER MILL)
(T36 D=0.375 CR=0. - ZMIN=0.15 - FLAT END MILL)
(T52 D=0.5 CR=0. TAPER=135DEG - ZMIN=-0.1436 - DRILL)
G90 G94 G17 G91.1
G20
G53 G0 Z0.
(FACE1)
T36 M6
T52
S5000 M3
G17 G90 G94
G54
G64 P0.0004 Q0.0004
M8
G0 X1.9779 Y-1.6708
G43 Z2.2861 H36
G0 Z1.8861
G1 Z1.6836 F80.
G18 G3 X1.9404 Z1.6461 I-0.0375 K0. F50.
G1 X1.8342
X-0.1
G3 X-0.1375 Z1.6836 I0. K0.0375
G0 Z1.8861
X1.9779 Y-1.4224
G1 Z1.6836 F80.
G3 X1.9404 Z1.6461 I-0.0375 K0. F50.
G1 X1.8342
X-0.1
G3 X-0.1375 Z1.6836 I0. K0.0375
G0 Z1.8861
X1.9779 Y-1.1741
G1 Z1.6836 F80.
G3 X1.9404 Z1.6461 I-0.0375 K0. F50.
G1 X1.8342
X-0.1
G3 X-0.1375 Z1.6836 I0. K0.0375
G0 Z1.8861
X1.9779 Y-0.9257
G1 Z1.6836 F80.
G3 X1.9404 Z1.6461 I-0.0375 K0. F50.
G1 X1.8342
X-0.1
G3 X-0.1375 Z1.6836 I0. K0.0375
G0 Z1.8861
X1.9779 Y-0.6774
G1 Z1.6836 F80.
G3 X1.9404 Z1.6461 I-0.0375 K0. F50.
G1 X1.8342
X-0.1
G3 X-0.1375 Z1.6836 I0. K0.0375
G0 Z1.8861
X1.9779 Y-0.429
G1 Z1.6836 F80.
G3 X1.9404 Z1.6461 I-0.0375 K0. F50.
G1 X1.8342
X-0.1
G3 X-0.1375 Z1.6836 I0. K0.0375
G0 Z1.8861
X1.9779 Y-0.1806
G1 Z1.6836 F80.
G3 X1.9404 Z1.6461 I-0.0375 K0. F50.
G1 X1.8342
X-0.1
G3 X-0.1375 Z1.6836 I0. K0.0375
G0 Z2.2861
G17
M5
G53 G0 Z0.
(DRILL1)
M9
M1
T52 M6
T36
S1600 M3
G17 G90 G94
G54
M8
G0 X1.165 Y-0.6133
G43 Z2.2861 H52
G0 Z1.8861
G1 Z0.6861 F18.
G0 Z1.8861
Z0.7661
G1 Z-0.1436 F18.
G4 P0.05
G0 Z1.8861
X0.6133 Y-0.5692
G1 Z0.6861 F18.
G0 Z1.8861
Z0.7661
G1 Z-0.1436 F18.
G4 P0.05
G0 Z1.8861
X0.5692 Y-1.1209
G1 Z0.6861 F18.
G0 Z1.8861
Z0.7661
G1 Z-0.1436 F18.
G4 P0.05
G0 Z1.8861
X1.1209 Y-1.165
G1 Z0.6861 F18.
G0 Z1.8861
Z0.7661
G1 Z-0.1436 F18.
G4 P0.05
G0 Z1.8861
Z2.2861
M5
G53 G0 Z0.
(2D ADAPTIVE1)
M9
M1
T36 M6
T11
S5000 M3
G17 G90 G94
G54
G64 P0.004 Q0.004
M8
G0 X1.0275 Y-0.7684
G43 Z2.2861 H36
G0 Z1.8861
Z1.7861
G3 X0.7271 Y-0.7411 Z1.7555 I-0.1604 J-0.0987 F40.
X0.7857 Y-1.0361 Z1.7249 I0.1396 J-0.1256
X1.0513 Y-0.8969 Z1.6943 I0.0808 J0.1689
X0.8433 Y-0.6821 Z1.6637 I-0.1843 J0.0297
X0.6964 Y-0.9416 Z1.6331 I0.0236 J-0.1847
X0.9861 Y-1.0089 Z1.6025 I0.17 J0.0746
X0.9688 Y-0.7129 Z1.5719 I-0.1193 J0.1416
X0.6906 Y-0.8128 Z1.5413 I-0.1018 J-0.154
X0.8646 Y-1.0508 Z1.5107 I0.176 J-0.0539
X1.0431 Y-0.8173 Z1.4801 I0.002 J0.1835
X0.7695 Y-0.7124 Z1.4495 I-0.1761 J-0.0498
X0.7462 Y-1.0036 Z1.4189 I0.0973 J-0.1543
X1.0314 Y-0.9438 Z1.3882 I0.1202 J0.1365
X0.8938 Y-0.688 Z1.3576 I-0.1645 J0.0765
X0.6879 Y-0.8916 Z1.327 I-0.0268 J-0.1788
X0.9407 Y-1.0312 Z1.2964 I0.1786 J0.0248
X1.0029 Y-0.75 Z1.2658 I-0.074 J0.1638
X0.7165 Y-0.7698 Z1.2352 I-0.1358 J-0.117
X0.8161 Y-1.0381 Z1.2046 I0.1501 J-0.0969
X1.0447 Y-0.8672 Z1.174 I0.0504 J0.1709
X0.6883 I-0.1782 J0.
X1.0447 I0.1782 J0.
G1 X1.0453 Y-0.8229
X1.0461 Y-0.8174
X1.0464 Y-0.8114
X1.0463 Y-0.8054
X1.0458 Y-0.7994
X1.0449 Y-0.7935
X1.0437 Y-0.7876
X1.0421 Y-0.7818
X1.0403 Y-0.7761
X1.0383 Y-0.7704
X1.0359 Y-0.7649
X1.0334 Y-0.7595
X1.0306 Y-0.7542
X1.0276 Y-0.749
X1.0244 Y-0.7438
X1.0209 Y-0.7387
X1.0172 Y-0.7336
X1.0132 Y-0.7286
X1.0089 Y-0.7236
X1.0044 Y-0.7187
X0.9996 Y-0.714
X0.9945 Y-0.7093
X0.9893 Y-0.7048
X0.9838 Y-0.7005
X0.978 Y-0.6963
X0.9721 Y-0.6923
X0.966 Y-0.6885
X0.9596 Y-0.6849
X0.9531 Y-0.6815
X0.9465 Y-0.6784
X0.9396 Y-0.6755
X0.9327 Y-0.6728
X0.9256 Y-0.6704
X0.9183 Y-0.6683
X0.911 Y-0.6664
X0.9036 Y-0.6648
X0.8961 Y-0.6635
X0.8885 Y-0.6624
X0.8809 Y-0.6617
X0.8732 Y-0.6612
X0.8655 Y-0.6611
X0.8578 Y-0.6612
X0.8501 Y-0.6616
X0.8424 Y-0.6623
X0.8347 Y-0.6634
X0.827 Y-0.6647
X0.8194 Y-0.6663
X0.8119 Y-0.6682
X0.8044 Y-0.6703
X0.797 Y-0.6728
X0.7897 Y-0.6755
X0.7825 Y-0.6786
X0.7754 Y-0.6819
X0.7684 Y-0.6854
X0.7616 Y-0.6893
X0.7549 Y-0.6934
X0.7484 Y-0.6977
X0.742 Y-0.7023
X0.7358 Y-0.7072
X0.7299 Y-0.7122
X0.7241 Y-0.7175
X0.7185 Y-0.723
X0.7131 Y-0.7288
X0.7079 Y-0.7347
X0.703 Y-0.7408
X0.6983 Y-0.7471
X0.6939 Y-0.7536
X0.6897 Y-0.7602
X0.6857 Y-0.7671
X0.682 Y-0.774
X0.6786 Y-0.7811
X0.6755 Y-0.7883
X0.6726 Y-0.7956
X0.67 Y-0.8031
X0.6677 Y-0.8106
X0.6657 Y-0.8182
X0.664 Y-0.8259
X0.6625 Y-0.8336
X0.6614 Y-0.8414
X0.6606 Y-0.8492
X0.66 Y-0.8571
X0.6598 Y-0.8649
X0.6599 Y-0.8728
X0.6602 Y-0.8807
X0.6609 Y-0.8885
X0.6618 Y-0.8963
X0.6631 Y-0.9041
X0.6647 Y-0.9118
X0.6665 Y-0.9195
X0.6686 Y-0.9271
X0.6711 Y-0.9345
X0.6738 Y-0.9419
X0.6767 Y-0.9492
X0.68 Y-0.9564
X0.6835 Y-0.9634
X0.6873 Y-0.9703
X0.6914 Y-0.9771
X0.6957 Y-0.9837
X0.7003 Y-0.9901
X0.7051 Y-0.9963
X0.7101 Y-1.0024
X0.7153 Y-1.0082
X0.7208 Y-1.0139
X0.7265 Y-1.0193
X0.7324 Y-1.0246
X0.7385 Y-1.0295
X0.7448 Y-1.0343
X0.7512 Y-1.0388
X0.7579 Y-1.0431
X0.7646 Y-1.0471
X0.7716 Y-1.0508
X0.7786 Y-1.0543
X0.7858 Y-1.0575
X0.7931 Y-1.0605
X0.8005 Y-1.0631
X0.808 Y-1.0655
X0.8156 Y-1.0676
X0.8233 Y-1.0694
X0.831 Y-1.0709
X0.8388 Y-1.0721
X0.8466 Y-1.073
X0.8545 Y-1.0736
X0.8623 Y-1.0739
X0.8702
X0.8781 Y-1.0736
X0.8859 Y-1.073
X0.8938 Y-1.0721
X0.9016 Y-1.0709
X0.9093 Y-1.0695
X0.917 Y-1.0677
X0.9246 Y-1.0656
X0.9321 Y-1.0633
X0.9395 Y-1.0606
X0.9468 Y-1.0577
X0.954 Y-1.0545
X0.9611 Y-1.051
X0.968 Y-1.0473
X0.9748 Y-1.0433
X0.9814 Y-1.039
X0.9879 Y-1.0345
X0.9942 Y-1.0298
X1.0003 Y-1.0248
X1.0062 Y-1.0196
X1.0119 Y-1.0142
X1.0173 Y-1.0085
X1.0226 Y-1.0027
X1.0277 Y-0.9966
X1.0325 Y-0.9904
X1.0371 Y-0.984
X1.0414 Y-0.9774
X1.0454 Y-0.9707
X1.0493 Y-0.9638
X1.0528 Y-0.9568
X1.0561 Y-0.9496
X1.0591 Y-0.9423
X1.0622 Y-0.9339
X1.0655 Y-0.9236
X1.0702 Y-0.9072
X1.0735 Y-0.8936
X1.0758 Y-0.882
X1.0775 Y-0.8716
X1.0787 Y-0.862
X1.0795 Y-0.853
X1.0799 Y-0.8443
X1.08 Y-0.836
X1.0798 Y-0.8279
X1.0793 Y-0.8201
X1.0784 Y-0.8124
X1.0774 Y-0.8048
X1.076 Y-0.7974
X1.0744 Y-0.79
X1.0725 Y-0.7828
X1.0703 Y-0.7756
X1.0678 Y-0.7685
X1.0651 Y-0.7615
X1.0621 Y-0.7546
X1.0588 Y-0.7478
X1.0553 Y-0.741
X1.0515 Y-0.7344
X1.0474 Y-0.7279
X1.043 Y-0.7215
X1.0384 Y-0.7153
X1.0335 Y-0.7092
X1.0283 Y-0.7032
X1.0229 Y-0.6974
X1.0172 Y-0.6918
X1.0113 Y-0.6863
X1.0051 Y-0.6811
X0.9987 Y-0.6761
X0.992 Y-0.6712
X0.9852 Y-0.6666
X0.9781 Y-0.6623
X0.9709 Y-0.6582
X0.9634 Y-0.6544
X0.9558 Y-0.6508
X0.948 Y-0.6475
X0.94 Y-0.6445
X0.9319 Y-0.6418
X0.9237 Y-0.6394
X0.9154 Y-0.6373
X0.9069 Y-0.6355
X0.8984 Y-0.634
X0.8898 Y-0.6328
X0.8811 Y-0.632
X0.8724 Y-0.6315
X0.8637 Y-0.6314
X0.8549 Y-0.6315
X0.8461 Y-0.632
X0.8373 Y-0.6329
X0.8286 Y-0.634
X0.8199 Y-0.6356
X0.8112 Y-0.6374
X0.8026 Y-0.6396
X0.7941 Y-0.6421
X0.7857 Y-0.6449
X0.7773 Y-0.6481
X0.7691 Y-0.6516
X0.7611 Y-0.6553
X0.7531 Y-0.6594
X0.7453 Y-0.6638
X0.7377 Y-0.6685
X0.7303 Y-0.6735
X0.723 Y-0.6788
X0.716 Y-0.6844
X0.7092 Y-0.6902
X0.7025 Y-0.6962
X0.6962 Y-0.7026
X0.69 Y-0.7091
X0.6842 Y-0.7159
X0.6785 Y-0.723
X0.6732 Y-0.7302
X0.6681 Y-0.7376
X0.6633 Y-0.7453
X0.6588 Y-0.7531
X0.6546 Y-0.761
X0.6507 Y-0.7691
X0.6472 Y-0.7774
X0.6439 Y-0.7858
X0.641 Y-0.7943
X0.6383 Y-0.803
X0.6361 Y-0.8117
X0.6341 Y-0.8205
X0.6325 Y-0.8294
X0.6312 Y-0.8383
X0.6303 Y-0.8473
X0.6297 Y-0.8563
X0.6294 Y-0.8653
X0.6295 Y-0.8743
X0.63 Y-0.8833
X0.6308 Y-0.8923
X0.6319 Y-0.9013
X0.6334 Y-0.9102
X0.6352 Y-0.919
X0.6373 Y-0.9278
X0.6398 Y-0.9365
X0.6426 Y-0.9451
X0.6457 Y-0.9535
X0.6491 Y-0.9619
X0.6529 Y-0.9701
X0.657 Y-0.9782
X0.6613 Y-0.9861
X0.666 Y-0.9938
X0.671 Y-1.0013
X0.6762 Y-1.0087
X0.6818 Y-1.0158
X0.6875 Y-1.0227
X0.6936 Y-1.0294
X0.6999 Y-1.0359
X0.7064 Y-1.0421
X0.7132 Y-1.0481
X0.7202 Y-1.0538
X0.7274 Y-1.0592
X0.7348 Y-1.0644
X0.7425 Y-1.0693
X0.7502 Y-1.0738
X0.7582 Y-1.0781
X0.7663 Y-1.0821
X0.7746 Y-1.0858
X0.7829 Y-1.0891
X0.7915 Y-1.0921
X0.8001 Y-1.0948
X0.8088 Y-1.0972
X0.8176 Y-1.0992
X0.8265 Y-1.1009
X0.8354 Y-1.1023
X0.8444 Y-1.1033
X0.8534 Y-1.1039
X0.8624 Y-1.1043
X0.8714
X0.8805 Y-1.1039
X0.8895 Y-1.1032
X0.8984 Y-1.1021
X0.9074 Y-1.1008
X0.9162 Y-1.099
X0.925 Y-1.097
X0.9337 Y-1.0946
X0.9423 Y-1.0918
X0.9508 Y-1.0888
X0.9592 Y-1.0854
X0.9674 Y-1.0817
X0.9755 Y-1.0777
X0.9835 Y-1.0734
X0.9913 Y-1.0688
X0.9988 Y-1.0639
X1.0062 Y-1.0587
X1.0134 Y-1.0533
X1.0204 Y-1.0475
X1.0272 Y-1.0415
X1.0337 Y-1.0353
X1.04 Y-1.0288
X1.046 Y-1.0221
X1.0518 Y-1.0151
X1.0574 Y-1.0079
X1.0628 Y-1.0001
X1.0686 Y-0.9914
X1.0741 Y-0.9821
X1.0794 Y-0.9724
X1.0845 Y-0.9623
X1.0892 Y-0.952
X1.0935 Y-0.9415
X1.0973 Y-0.931
X1.1007 Y-0.9205
X1.1036 Y-0.9102
X1.106 Y-0.8999
X1.1081 Y-0.8898
X1.1097 Y-0.8798
X1.1109 Y-0.8699
X1.1117 Y-0.8601
X1.1121 Y-0.8504
X1.1122 Y-0.8408
X1.1119 Y-0.8313
X1.1113 Y-0.8219
X1.1103 Y-0.8126
X1.1089 Y-0.8035
X1.1072 Y-0.7944
X1.1052 Y-0.7855
X1.1029 Y-0.7767
X1.1002 Y-0.768
X1.0972 Y-0.7594
X1.0939 Y-0.751
X1.0903 Y-0.7427
X1.0863 Y-0.7345
X1.0821 Y-0.7265
X1.0775 Y-0.7186
X1.0726 Y-0.7109
X1.0675 Y-0.7034
X1.062 Y-0.696
X1.0562 Y-0.6889
X1.0501 Y-0.6819
X1.0438 Y-0.6752
X1.0372 Y-0.6687
X1.0303 Y-0.6624
X1.0231 Y-0.6563
X1.0157 Y-0.6505
X1.0081 Y-0.645
X1.0002 Y-0.6398
X0.9921 Y-0.6348
X0.9838 Y-0.6302
X0.9753 Y-0.6258
X0.9666 Y-0.6217
X0.9577 Y-0.618
X0.9486 Y-0.6146
X0.9394 Y-0.6116
X0.9301 Y-0.6089
X0.9206 Y-0.6065
X0.911 Y-0.6045
X0.9013 Y-0.6028
X0.8916 Y-0.6016
X0.8817 Y-0.6007
X0.8719 Y-0.6001
X0.862 Y-0.6
X0.852 Y-0.6002
X0.8421 Y-0.6008
X0.8322 Y-0.6018
X0.8223 Y-0.6031
X0.8124 Y-0.6049
X0.8026 Y-0.607
X0.7929 Y-0.6095
X0.7833 Y-0.6123
X0.7737 Y-0.6156
X0.7643 Y-0.6192
X0.755 Y-0.6231
X0.7459 Y-0.6274
X0.7369 Y-0.6321
X0.7281 Y-0.6371
X0.7195 Y-0.6425
X0.7111 Y-0.6481
X0.7029 Y-0.6541
X0.695 Y-0.6604
X0.6872 Y-0.667
X0.6798 Y-0.6739
X0.6726 Y-0.6811
X0.6656 Y-0.6886
X0.659 Y-0.6963
X0.6527 Y-0.7043
X0.6466 Y-0.7125
X0.6409 Y-0.7209
X0.6355 Y-0.7296
X0.6304 Y-0.7385
X0.6257 Y-0.7475
X0.6213 Y-0.7567
X0.6173 Y-0.7661
X0.6136 Y-0.7757
X0.6103 Y-0.7853
X0.6073 Y-0.7951
X0.6048 Y-0.805
X0.6026 Y-0.815
X0.6008 Y-0.8251
X0.5994 Y-0.8352
X0.5984 Y-0.8454
X0.5977 Y-0.8556
X0.5975 Y-0.8658
X0.5976 Y-0.8761
X0.5981 Y-0.8863
X0.599 Y-0.8965
X0.6003 Y-0.9067
X0.602 Y-0.9168
X0.6041 Y-0.9268
X0.6066 Y-0.9367
X0.6094 Y-0.9466
X0.6126 Y-0.9563
X0.6162 Y-0.9659
X0.6201 Y-0.9754
X0.6244 Y-0.9847
X0.629 Y-0.9938
X0.634 Y-1.0028
X0.6394 Y-1.0115
X0.645 Y-1.0201
X0.651 Y-1.0284
X0.6573 Y-1.0365
X0.6639 Y-1.0443
X0.6708 Y-1.0519
X0.678 Y-1.0592
X0.6854 Y-1.0663
X0.6931 Y-1.073
X0.7011 Y-1.0795
X0.7093 Y-1.0856
X0.7177 Y-1.0914
X0.7263 Y-1.0969
X0.7352 Y-1.1021
X0.7442 Y-1.1069
X0.7535 Y-1.1114
X0.7628 Y-1.1156
X0.7724 Y-1.1193
X0.782 Y-1.1227
X0.7918 Y-1.1258
X0.8017 Y-1.1284
X0.8117 Y-1.1307
X0.8218 Y-1.1326
X0.8319 Y-1.1341
X0.8421 Y-1.1352
X0.8524 Y-1.1359
X0.8626 Y-1.1363
X0.8728 Y-1.1362
X0.8831 Y-1.1358
X0.8933 Y-1.135
X0.9035 Y-1.1338
X0.9136 Y-1.1322
X0.9237 Y-1.1302
X0.9336 Y-1.1278
X0.9435 Y-1.1251
X0.9533 Y-1.1219
X0.9629 Y-1.1184
X0.9724 Y-1.1146
X0.9818 Y-1.1104
X0.9909 Y-1.1058
X0.9999 Y-1.1009
X1.0087 Y-1.0956
X1.0173 Y-1.0901
X1.0257 Y-1.0841
X1.0339 Y-1.0779
X1.042 Y-1.0712
X1.0499 Y-1.0642
X1.0577 Y-1.0567
X1.0652 Y-1.0488
X1.0726 Y-1.0406
X1.0798 Y-1.0319
X1.0867 Y-1.0228
X1.0934 Y-1.0133
X1.0997 Y-1.0036
X1.1057 Y-0.9935
X1.1113 Y-0.9832
X1.1165 Y-0.9728
X1.1213 Y-0.9621
X1.1257 Y-0.9514
X1.1296 Y-0.9405
X1.1331 Y-0.9296
X1.1361 Y-0.9186
X1.1388 Y-0.9075
X1.1409 Y-0.8965
X1.1427 Y-0.8855
X1.144 Y-0.8745
X1.1449 Y-0.8636
X1.1453 Y-0.8527
X1.1454 Y-0.8419
X1.145 Y-0.8311
X1.1442 Y-0.8204
X1.1431 Y-0.8098
X1.1415 Y-0.7993
X1.1395 Y-0.7889
X1.1372 Y-0.7787
X1.1345 Y-0.7685
X1.1313 Y-0.7585
X1.1279 Y-0.7486
X1.124 Y-0.7388
X1.1198 Y-0.7292
X1.1152 Y-0.7198
X1.1103 Y-0.7106
X1.105 Y-0.7015
X1.0993 Y-0.6927
X1.0933 Y-0.684
X1.087 Y-0.6756
X1.0804 Y-0.6674
X1.0734 Y-0.6594
X1.0661 Y-0.6517
X1.0585 Y-0.6443
X1.0507 Y-0.6372
X1.0425 Y-0.6303
X1.034 Y-0.6237
X1.0253 Y-0.6175
X1.0164 Y-0.6115
X1.0072 Y-0.6059
X0.9977 Y-0.6007
X0.9881 Y-0.5958
X0.9782 Y-0.5912
X0.9681 Y-0.587
X0.9579 Y-0.5832
X0.9475 Y-0.5798
X0.937 Y-0.5768
X0.9263 Y-0.5742
X0.9155 Y-0.5719
X0.9046 Y-0.5701
X0.8936 Y-0.5687
X0.8825 Y-0.5677
X0.8714 Y-0.5671
X0.8603 Y-0.567
X0.8491 Y-0.5673
X0.838 Y-0.568
X0.8268 Y-0.5691
X0.8157 Y-0.5707
X0.8047 Y-0.5727
X0.7937 Y-0.5751
X0.7827 Y-0.5779
X0.7719 Y-0.5811
X0.7612 Y-0.5848
X0.7507 Y-0.5889
X0.7403 Y-0.5934
X0.73 Y-0.5982
X0.7199 Y-0.6035
X0.7101 Y-0.6091
X0.7004 Y-0.6152
X0.691 Y-0.6216
X0.6818 Y-0.6283
X0.6729 Y-0.6354
X0.6643 Y-0.6429
X0.6559 Y-0.6507
X0.6478 Y-0.6588
X0.6401 Y-0.6672
X0.6326 Y-0.6759
X0.6255 Y-0.6848
X0.6188 Y-0.6941
X0.6123 Y-0.7036
X0.6063 Y-0.7133
X0.6006 Y-0.7233
X0.5953 Y-0.7335
X0.5904 Y-0.7439
X0.5859 Y-0.7544
X0.5818 Y-0.7651
X0.5782 Y-0.776
X0.5749 Y-0.787
X0.572 Y-0.7982
X0.5696 Y-0.8094
X0.5676 Y-0.8207
X0.5661 Y-0.8321
X0.5649 Y-0.8436
X0.5642 Y-0.8551
X0.564 Y-0.8666
X0.5642 Y-0.8781
X0.5648 Y-0.8896
X0.5659 Y-0.901
X0.5674 Y-0.9124
X0.5693 Y-0.9238
X0.5717 Y-0.9351
X0.5744 Y-0.9462
X0.5777 Y-0.9573
X0.5813 Y-0.9682
X0.5853 Y-0.979
X0.5898 Y-0.9896
X0.5947 Y-1.0001
X0.5999 Y-1.0103
X0.6055 Y-1.0204
X0.6116 Y-1.0302
X0.618 Y-1.0398
X0.6247 Y-1.0491
X0.6318 Y-1.0582
X0.6392 Y-1.067
X0.647 Y-1.0755
X0.6551 Y-1.0837
X0.6635 Y-1.0916
X0.6722 Y-1.0992
X0.6812 Y-1.1064
X0.6904 Y-1.1133
X0.6999 Y-1.1198
X0.7096 Y-1.126
X0.7196 Y-1.1318
X0.7298 Y-1.1372
X0.7402 Y-1.1422
X0.7507 Y-1.1468
X0.7615 Y-1.151
X0.7723 Y-1.1548
X0.7834 Y-1.1582
X0.7945 Y-1.1611
X0.8057 Y-1.1636
X0.8171 Y-1.1657
X0.8285 Y-1.1674
X0.8399 Y-1.1686
X0.8514 Y-1.1694
X0.863 Y-1.1698
X0.8745 Y-1.1697
X0.886 Y-1.1692
X0.8975 Y-1.1682
X0.9089 Y-1.1668
X0.9203 Y-1.165
X0.9316 Y-1.1627
X0.9428 Y-1.16
X0.9539 Y-1.1569
X0.9649 Y-1.1534
X0.9757 Y-1.1494
X0.9864 Y-1.145
X0.9969 Y-1.1403
X1.0073 Y-1.1351
X1.0175 Y-1.1294
X1.0276 Y-1.1234
X1.0374 Y-1.1169
X1.0472 Y-1.1101
X1.0567 Y-1.1027
X1.066 Y-1.095
X1.0751 Y-1.0868
X1.0839 Y-1.0783
X1.0925 Y-1.0693
X1.1008 Y-1.06
X1.1088 Y-1.0503
X1.1164 Y-1.0402
X1.1236 Y-1.0299
X1.1305 Y-1.0192
X1.137 Y-1.0083
X1.143 Y-0.9972
X1.1486 Y-0.9859
X1.1537 Y-0.9743
X1.1584 Y-0.9626
X1.1627 Y-0.9508
X1.1665 Y-0.9389
X1.1698 Y-0.9269
X1.1726 Y-0.9148
X1.175 Y-0.9026
X1.1768 Y-0.8905
X1.1783 Y-0.8783
X1.1792 Y-0.8661
X1.1797 Y-0.854
Y-0.8418
X1.1793 Y-0.8298
X1.1784 Y-0.8178
X1.177 Y-0.8058
X1.1752 Y-0.794
X1.173 Y-0.7822
X1.1703 Y-0.7706
X1.1672 Y-0.7591
X1.1636 Y-0.7478
X1.1596 Y-0.7366
X1.1552 Y-0.7255
X1.1504 Y-0.7147
X1.1452 Y-0.704
X1.1396 Y-0.6936
X1.1335 Y-0.6833
X1.1271 Y-0.6733
X1.1203 Y-0.6636
X1.1132 Y-0.654
X1.1056 Y-0.6448
X1.0977 Y-0.6359
X1.0895 Y-0.6272
X1.0809 Y-0.6188
X1.072 Y-0.6108
X1.0628 Y-0.6031
X1.0533 Y-0.5958
X1.0435 Y-0.5887
X1.0334 Y-0.5821
X1.023 Y-0.5758
X1.0124 Y-0.57
X1.0015 Y-0.5645
X0.9905 Y-0.5594
X0.9792 Y-0.5548
X0.9677 Y-0.5505
X0.9561 Y-0.5467
X0.9442 Y-0.5434
X0.9323 Y-0.5405
X0.9202 Y-0.538
X0.908 Y-0.536
X0.8957 Y-0.5345
X0.8834 Y-0.5334
X0.871 Y-0.5328
X0.8585 Y-0.5327
X0.8461 Y-0.533
X0.8336 Y-0.5338
X0.8212 Y-0.5351
X0.8088 Y-0.5369
X0.7965 Y-0.5392
X0.7842 Y-0.5419
X0.7721 Y-0.5451
X0.76 Y-0.5487
X0.7481 Y-0.5528
X0.7363 Y-0.5574
X0.7247 Y-0.5624
X0.7133 Y-0.5679
X0.7021 Y-0.5738
X0.6912 Y-0.5801
X0.6804 Y-0.5869
X0.67 Y-0.594
X0.6597 Y-0.6016
X0.6498 Y-0.6095
X0.6402 Y-0.6179
X0.6309 Y-0.6266
X0.6219 Y-0.6356
X0.6133 Y-0.645
X0.6051 Y-0.6547
X0.5972 Y-0.6647
X0.5897 Y-0.6751
X0.5825 Y-0.6857
X0.5758 Y-0.6965
X0.5696 Y-0.7077
X0.5637 Y-0.719
X0.5583 Y-0.7306
X0.5533 Y-0.7424
X0.5487 Y-0.7544
X0.5447 Y-0.7665
X0.5411 Y-0.7788
X0.5379 Y-0.7912
X0.5353 Y-0.8038
X0.5331 Y-0.8164
X0.5314 Y-0.8291
X0.5301 Y-0.8419
X0.5294 Y-0.8547
X0.5292 Y-0.8675
X0.5294 Y-0.8803
X0.5301 Y-0.8931
X0.5314 Y-0.9059
X0.5331 Y-0.9186
X0.5353 Y-0.9313
X0.5379 Y-0.9438
X0.5411 Y-0.9563
X0.5447 Y-0.9686
X0.5488 Y-0.9808
X0.5533 Y-0.9928
X0.5583 Y-1.0046
X0.5638 Y-1.0162
X0.5697 Y-1.0276
X0.576 Y-1.0388
X0.5827 Y-1.0498
X0.5899 Y-1.0604
X0.5974 Y-1.0708
X0.6054 Y-1.0809
X0.6137 Y-1.0907
X0.6224 Y-1.1002
X0.6314 Y-1.1093
X0.6408 Y-1.1181
X0.6505 Y-1.1265
X0.6606 Y-1.1345
X0.6709 Y-1.1422
X0.6815 Y-1.1494
X0.6924 Y-1.1563
X0.7035 Y-1.1627
X0.7149 Y-1.1687
X0.7265 Y-1.1742
X0.7383 Y-1.1794
X0.7502 Y-1.184
X0.7624 Y-1.1882
X0.7747 Y-1.1919
X0.7871 Y-1.1952
X0.7997 Y-1.198
X0.8123 Y-1.2003
X0.825 Y-1.2021
X0.8378 Y-1.2035
X0.8506 Y-1.2043
X0.8635 Y-1.2047
X0.8763 Y-1.2045
X0.8892 Y-1.2039
X0.902 Y-1.2028
X0.9147 Y-1.2012
X0.9274 Y-1.1991
X0.94 Y-1.1966
X0.9526 Y-1.1935
X0.965 Y-1.19
X0.9773 Y-1.186
X0.9894 Y-1.1815
X1.0015 Y-1.1765
X1.0133 Y-1.1711
X1.0251 Y-1.1652
X1.0366 Y-1.1588
X1.0479 Y-1.152
X1.0591 Y-1.1446
X1.07 Y-1.1369
X1.0806 Y-1.1286
X1.091 Y-1.12
X1.1011 Y-1.1109
X1.1109 Y-1.1013
X1.1203 Y-1.0914
X1.1294 Y-1.0811
X1.1381 Y-1.0704
X1.1464 Y-1.0594
X1.1543 Y-1.0481
X1.1618 Y-1.0364
X1.1688 Y-1.0245
X1.1754 Y-1.0123
X1.1815 Y-0.9998
X1.1871 Y-0.9872
X1.1922 Y-0.9744
X1.1968 Y-0.9614
X1.2009 Y-0.9483
X1.2045 Y-0.9351
X1.2076 Y-0.9218
X1.2102 Y-0.9084
X1.2122 Y-0.8949
X1.2137 Y-0.8814
X1.2148 Y-0.8679
X1.2152 Y-0.8544
Y-0.841
X1.2147 Y-0.8275
X1.2137 Y-0.8142
X1.2121 Y-0.8009
X1.2101 Y-0.7877
X1.2075 Y-0.7746
X1.2045 Y-0.7616
X1.201 Y-0.7488
X1.197 Y-0.7361
X1.1925 Y-0.7236
X1.1875 Y-0.7113
X1.1821 Y-0.6991
X1.1762 Y-0.6872
X1.1699 Y-0.6756
X1.1631 Y-0.6641
X1.1559 Y-0.653
X1.1483 Y-0.6421
X1.1403 Y-0.6315
X1.1318 Y-0.6212
X1.123 Y-0.6112
X1.1138 Y-0.6016
X1.1042 Y-0.5923
X1.0942 Y-0.5833
X1.0839 Y-0.5748
X1.0733 Y-0.5666
X1.0623 Y-0.5588
X1.051 Y-0.5515
X1.0395 Y-0.5445
X1.0277 Y-0.538
X1.0156 Y-0.532
X1.0033 Y-0.5264
X0.9907 Y-0.5212
X0.9779 Y-0.5166
X0.965 Y-0.5124
X0.9519 Y-0.5087
X0.9386 Y-0.5055
X0.9252 Y-0.5028
X0.9116 Y-0.5006
X0.898 Y-0.499
X0.8843 Y-0.4978
X0.8706 Y-0.4972
X0.8568 Y-0.4971
X0.843 Y-0.4975
X0.8292 Y-0.4984
X0.8154 Y-0.4999
X0.8017 Y-0.5019
X0.788 Y-0.5044
X0.7744 Y-0.5075
X0.761 Y-0.5111
X0.7477 Y-0.5151
X0.7345 Y-0.5197
X0.7215 Y-0.5248
X0.7087 Y-0.5304
X0.6961 Y-0.5365
X0.6837 Y-0.5431
X0.6716 Y-0.5501
X0.6597 Y-0.5576
X0.6481 Y-0.5656
X0.6368 Y-0.574
X0.6259 Y-0.5828
X0.6153 Y-0.592
X0.605 Y-0.6017
X0.5951 Y-0.6117
X0.5856 Y-0.6221
X0.5765 Y-0.6329
X0.5678 Y-0.644
X0.5595 Y-0.6555
X0.5517 Y-0.6672
X0.5443 Y-0.6793
X0.5374 Y-0.6916
X0.5309 Y-0.7042
X0.525 Y-0.717
X0.5195 Y-0.7301
X0.5145 Y-0.7434
X0.51 Y-0.7568
X0.5061 Y-0.7704
X0.5026 Y-0.7842
X0.4997 Y-0.798
X0.4973 Y-0.812
X0.4955 Y-0.8261
X0.4942 Y-0.8402
X0.4934 Y-0.8544
X0.4932 Y-0.8686
X0.4935 Y-0.8828
X0.4943 Y-0.8969
X0.4957 Y-0.9111
X0.4976 Y-0.9252
X0.5001 Y-0.9391
X0.5031 Y-0.953
X0.5066 Y-0.9668
X0.5107 Y-0.9804
X0.5152 Y-0.9939
X0.5203 Y-1.0072
X0.5259 Y-1.0202
X0.5319 Y-1.0331
X0.5385 Y-1.0457
X0.5455 Y-1.0581
X0.553 Y-1.0701
X0.5609 Y-1.0819
X0.5693 Y-1.0934
X0.5782 Y-1.1046
X0.5874 Y-1.1154
X0.597 Y-1.1258
X0.6071 Y-1.1359
X0.6175 Y-1.1456
X0.6283 Y-1.1548
X0.6394 Y-1.1637
X0.6509 Y-1.1721
X0.6626 Y-1.1801
X0.6747 Y-1.1877
X0.687 Y-1.1947
X0.6996 Y-1.2013
X0.7125 Y-1.2075
X0.7255 Y-1.2131
X0.7388 Y-1.2182
X0.7523 Y-1.2228
X0.7659 Y-1.2269
X0.7797 Y-1.2305
X0.7936 Y-1.2335
X0.8076 Y-1.236
X0.8216 Y-1.238
X0.8358 Y-1.2394
X0.85 Y-1.2403
X0.8642 Y-1.2407
X0.8785 Y-1.2405
X0.8927 Y-1.2398
X0.9069 Y-1.2385
X0.921 Y-1.2367
X0.9351 Y-1.2344
X0.9491 Y-1.2315
X0.963 Y-1.228
X0.9768 Y-1.2241
X0.9905 Y-1.2196
X1.004 Y-1.2145
X1.0174 Y-1.209
X1.0306 Y-1.2029
X1.0436 Y-1.1963
X1.0564 Y-1.1892
X1.069 Y-1.1815
X1.0813 Y-1.1734
X1.0934 Y-1.1647
X1.1051 Y-1.1556
X1.1165 Y-1.146
X1.1276 Y-1.136
X1.1383 Y-1.1255
X1.1487 Y-1.1145
X1.1586 Y-1.1032
X1.1681 Y-1.0915
X1.1772 Y-1.0794
X1.1858 Y-1.067
X1.1939 Y-1.0542
X1.2015 Y-1.0411
X1.2087 Y-1.0278
X1.2153 Y-1.0142
X1.2214 Y-1.0004
X1.2269 Y-0.9863
X1.232 Y-0.9721
X1.2364 Y-0.9578
X1.2403 Y-0.9432
X1.2437 Y-0.9286
X1.2464 Y-0.9139
X1.2486 Y-0.8991
X1.2503 Y-0.8843
X1.2514 Y-0.8694
X1.2519 Y-0.8545
X1.2518 Y-0.8397
X1.2512 Y-0.8248
X1.25 Y-0.8101
X1.2482 Y-0.7954
X1.2459 Y-0.7808
X1.2431 Y-0.7663
X1.2397 Y-0.752
X1.2357 Y-0.7378
X1.2313 Y-0.7237
X1.2263 Y-0.7099
X1.2207 Y-0.6963
X1.2147 Y-0.6829
X1.2082 Y-0.6697
X1.2011 Y-0.6568
X1.1936 Y-0.6441
X1.1856 Y-0.6318
X1.1771 Y-0.6198
X1.1682 Y-0.608
X1.1588 Y-0.5967
X1.149 Y-0.5857
X1.1387 Y-0.575
X1.1281 Y-0.5648
X1.117 Y-0.5549
X1.1056 Y-0.5455
X1.0938 Y-0.5365
X1.0817 Y-0.5279
X1.0692 Y-0.5198
X1.0564 Y-0.5122
X1.0434 Y-0.505
X1.03 Y-0.4984
X1.0164 Y-0.4922
X1.0025 Y-0.4866
X0.9884 Y-0.4815
X0.9741 Y-0.4769
X0.9596 Y-0.4729
X0.945 Y-0.4694
X0.9302 Y-0.4665
X0.9152 Y-0.4641
X0.9002 Y-0.4623
X0.8851 Y-0.4611
X0.87 Y-0.4605
X0.8548 Y-0.4604
X0.8396 Y-0.4609
X0.8244 Y-0.462
X0.8093 Y-0.4636
X0.7942 Y-0.4659
X0.7791 Y-0.4687
X0.7642 Y-0.4721
X0.7494 Y-0.4761
X0.7348 Y-0.4806
X0.7203 Y-0.4857
X0.706 Y-0.4913
X0.6919 Y-0.4975
X0.6781 Y-0.5043
X0.6645 Y-0.5115
X0.6512 Y-0.5193
X0.6382 Y-0.5276
X0.6255 Y-0.5364
X0.6131 Y-0.5456
X0.6011 Y-0.5554
X0.5895 Y-0.5656
X0.5782 Y-0.5762
X0.5674 Y-0.5872
X0.5569 Y-0.5987
X0.547 Y-0.6106
X0.5374 Y-0.6228
X0.5284 Y-0.6354
X0.5198 Y-0.6484
X0.5117 Y-0.6617
X0.5041 Y-0.6752
X0.4971 Y-0.6891
X0.4906 Y-0.7032
X0.4846 Y-0.7176
X0.4791 Y-0.7322
X0.4743 Y-0.747
X0.47 Y-0.762
X0.4662 Y-0.7771
X0.4631 Y-0.7923
X0.4605 Y-0.8077
X0.4585 Y-0.8232
X0.4571 Y-0.8387
X0.4563 Y-0.8543
X0.4561 Y-0.8699
X0.4565 Y-0.8855
X0.4574 Y-0.9011
X0.459 Y-0.9166
X0.4612 Y-0.9321
X0.4639 Y-0.9474
X0.4673 Y-0.9627
X0.4712 Y-0.9778
X0.4757 Y-0.9928
X0.4807 Y-1.0076
X0.4863 Y-1.0221
X0.4925 Y-1.0365
X0.4992 Y-1.0506
X0.5064 Y-1.0645
X0.5142 Y-1.078
X0.5225 Y-1.0913
X0.5312 Y-1.1042
X0.5405 Y-1.1168
X0.5502 Y-1.129
X0.5604 Y-1.1409
X0.5711 Y-1.1523
X0.5821 Y-1.1634
X0.5936 Y-1.174
X0.6055 Y-1.1842
X0.6177 Y-1.1939
X0.6304 Y-1.2031
X0.6433 Y-1.2119
X0.6566 Y-1.2201
X0.6702 Y-1.2279
X0.6841 Y-1.2351
X0.6982 Y-1.2417
X0.7126 Y-1.2479
X0.7272 Y-1.2535
X0.742 Y-1.2585
X0.757 Y-1.263
X0.7721 Y-1.2668
X0.7874 Y-1.2701
X0.8028 Y-1.2729
X0.8183 Y-1.275
X0.8339 Y-1.2765
X0.8495 Y-1.2775
X0.8652 Y-1.2778
X0.8809 Y-1.2776
X0.8965 Y-1.2767
X0.9122 Y-1.2753
X0.9278 Y-1.2733
X0.9433 Y-1.2706
X0.9588 Y-1.2674
X0.9741 Y-1.2636
X0.9894 Y-1.2591
X1.0044 Y-1.2541
X1.0194 Y-1.2485
X1.0341 Y-1.2424
X1.0486 Y-1.2356
X1.0629 Y-1.2283
X1.077 Y-1.2204
X1.0908 Y-1.212
X1.1043 Y-1.203
X1.1174 Y-1.1935
X1.1303 Y-1.1835
X1.1427 Y-1.1729
X1.1548 Y-1.1619
X1.1665 Y-1.1504
X1.1777 Y-1.1385
X1.1885 Y-1.1261
X1.1989 Y-1.1133
X1.2087 Y-1.1001
X1.2181 Y-1.0865
X1.2269 Y-1.0726
X1.2352 Y-1.0583
X1.2429 Y-1.0437
X1.2501 Y-1.0289
X1.2567 Y-1.0138
X1.2627 Y-0.9985
X1.2681 Y-0.9829
X1.273 Y-0.9672
X1.2772 Y-0.9514
X1.2808 Y-0.9354
X1.2838 Y-0.9192
X1.2861 Y-0.9031
X1.2879 Y-0.8868
X1.289 Y-0.8705
X1.2895 Y-0.8542
X1.2894 Y-0.8379
X1.2887 Y-0.8217
X1.2873 Y-0.8055
X1.2854 Y-0.7894
X1.2828 Y-0.7734
X1.2796 Y-0.7575
X1.2759 Y-0.7417
X1.2715 Y-0.7261
X1.2665 Y-0.7107
X1.261 Y-0.6955
X1.2549 Y-0.6806
X1.2482 Y-0.6659
X1.2409 Y-0.6514
X1.2332 Y-0.6372
X1.2248 Y-0.6233
X1.216 Y-0.6098
X1.2066 Y-0.5966
X1.1968 Y-0.5837
X1.1864 Y-0.5713
X1.1756 Y-0.5592
X1.1643 Y-0.5475
X1.1526 Y-0.5363
X1.1404 Y-0.5255
X1.1279 Y-0.5152
X1.1149 Y-0.5053
X1.1016 Y-0.496
X1.0878 Y-0.4871
X1.0738 Y-0.4788
X1.0594 Y-0.471
X1.0447 Y-0.4637
X1.0298 Y-0.457
X1.0145 Y-0.4509
X0.9991 Y-0.4453
X0.9834 Y-0.4404
X0.9675 Y-0.436
X0.9514 Y-0.4322
X0.9352 Y-0.4291
X0.9189 Y-0.4265
X0.9024 Y-0.4246
X0.8859 Y-0.4233
X0.8693 Y-0.4227
X0.8527 Y-0.4226
X0.8361 Y-0.4232
X0.8194 Y-0.4245
X0.8029 Y-0.4263
X0.7864 Y-0.4288
X0.7699 Y-0.432
X0.7536 Y-0.4357
X0.7375 Y-0.4401
X0.7215 Y-0.4451
X0.7056 Y-0.4507
X0.69 Y-0.4569
X0.6747 Y-0.4637
X0.6596 Y-0.4711
X0.6447 Y-0.4791
X0.6302 Y-0.4877
X0.616 Y-0.4968
X0.6021 Y-0.5064
X0.5886 Y-0.5166
X0.5755 Y-0.5272
X0.5628 Y-0.5384
X0.5506 Y-0.5501
X0.5388 Y-0.5622
X0.5274 Y-0.5748
X0.5165 Y-0.5878
X0.5061 Y-0.6012
X0.4963 Y-0.615
X0.487 Y-0.6292
X0.4782 Y-0.6437
X0.4699 Y-0.6586
X0.4623 Y-0.6737
X0.4552 Y-0.6892
X0.4487 Y-0.7049
X0.4428 Y-0.7209
X0.4375 Y-0.737
X0.4328 Y-0.7534
X0.4288 Y-0.7699
X0.4254 Y-0.7866
X0.4226 Y-0.8034
X0.4205 Y-0.8204
X0.419 Y-0.8373
X0.4182 Y-0.8544
X0.418 Y-0.8714
X0.4185 Y-0.8885
X0.4196 Y-0.9055
X0.4214 Y-0.9224
X0.4238 Y-0.9393
X0.4268 Y-0.9561
X0.4305 Y-0.9728
X0.4348 Y-0.9893
X0.4398 Y-1.0056
X0.4453 Y-1.0218
X0.4515 Y-1.0377
X0.4583 Y-1.0533
X0.4657 Y-1.0687
X0.4736 Y-1.0839
X0.4821 Y-1.0987
X0.4912 Y-1.1131
X0.5009 Y-1.1272
X0.511 Y-1.141
X0.5217 Y-1.1543
X0.5329 Y-1.1672
X0.5445 Y-1.1797
X0.5566 Y-1.1917
X0.5692 Y-1.2033
X0.5822 Y-1.2144
X0.5957 Y-1.225
X0.6095 Y-1.235
X0.6237 Y-1.2445
X0.6382 Y-1.2535
X0.6531 Y-1.2619
X0.6683 Y-1.2698
X0.6837 Y-1.277
X0.6995 Y-1.2837
X0.7154 Y-1.2897
X0.7316 Y-1.2952
X0.748 Y-1.3
X0.7646 Y-1.3042
X0.7813 Y-1.3078
X0.7982 Y-1.3107
X0.8151 Y-1.313
X0.8322 Y-1.3146
X0.8493 Y-1.3156
X0.8664 Y-1.316
X0.8836 Y-1.3156
X0.9007 Y-1.3147
X0.9179 Y-1.313
X0.9349 Y-1.3108
X0.9519 Y-1.3078
X0.9689 Y-1.3042
X0.9857 Y-1.3
X1.0023 Y-1.2951
X1.0188 Y-1.2896
X1.0351 Y-1.2834
X1.0512 Y-1.2766
X1.067 Y-1.2692
X1.0826 Y-1.2612
X1.098 Y-1.2525
X1.113 Y-1.2433
X1.1277 Y-1.2335
X1.142 Y-1.2231
X1.1559 Y-1.2121
X1.1695 Y-1.2006
X1.1826 Y-1.1886
X1.1952 Y-1.176
X1.2074 Y-1.163
X1.2191 Y-1.1495
X1.2303 Y-1.1356
X1.241 Y-1.1212
X1.2511 Y-1.1064
X1.2606 Y-1.0912
X1.2696 Y-1.0757
X1.278 Y-1.0599
X1.2857 Y-1.0438
X1.2928 Y-1.0273
X1.2993 Y-1.0107
X1.3052 Y-0.9938
X1.3104 Y-0.9767
X1.3149 Y-0.9594
X1.3188 Y-0.942
X1.322 Y-0.9244
X1.3245 Y-0.9068
X1.3264 Y-0.8891
X1.3276 Y-0.8714
X1.3281 Y-0.8536
X1.3279 Y-0.8359
X1.327 Y-0.8182
X1.3255 Y-0.8005
X1.3233 Y-0.7829
X1.3205 Y-0.7655
X1.317 Y-0.7481
X1.3128 Y-0.731
X1.308 Y-0.714
X1.3025 Y-0.6972
X1.2964 Y-0.6806
X1.2897 Y-0.6643
X1.2823 Y-0.6482
X1.2744 Y-0.6325
X1.2659 Y-0.617
X1.2567 Y-0.6019
X1.247 Y-0.5871
X1.2368 Y-0.5727
X1.226 Y-0.5587
X1.2146 Y-0.5451
X1.2028 Y-0.532
X1.1904 Y-0.5193
X1.1776 Y-0.5071
X1.1643 Y-0.4953
X1.1506 Y-0.4841
X1.1364 Y-0.4734
X1.1218 Y-0.4632
X1.1068 Y-0.4536
X1.0915 Y-0.4446
X1.0758 Y-0.4361
X1.0597 Y-0.4282
X1.0434 Y-0.421
X1.0268 Y-0.4143
X1.0099 Y-0.4083
X0.9928 Y-0.403
X0.9755 Y-0.3983
X0.958 Y-0.3942
X0.9403 Y-0.3908
X0.9225 Y-0.3881
X0.9046 Y-0.386
X0.8866 Y-0.3847
X0.8685 Y-0.384
X0.8504
X0.8323 Y-0.3847
X0.8142 Y-0.3861
X0.7962 Y-0.3882
X0.7782 Y-0.391
X0.7604 Y-0.3944
X0.7427 Y-0.3986
X0.7251 Y-0.4034
X0.7077 Y-0.4089
X0.6905 Y-0.415
X0.6736 Y-0.4218
X0.6569 Y-0.4293
X0.6405 Y-0.4374
X0.6244 Y-0.4461
X0.6086 Y-0.4554
X0.5932 Y-0.4654
X0.5781 Y-0.4759
X0.5635 Y-0.487
X0.5493 Y-0.4986
X0.5355 Y-0.5108
X0.5222 Y-0.5235
X0.5094 Y-0.5367
X0.4971 Y-0.5504
X0.4853 Y-0.5646
X0.4741 Y-0.5792
X0.4634 Y-0.5942
X0.4533 Y-0.6097
X0.4438 Y-0.6255
X0.4349 Y-0.6417
X0.4266 Y-0.6582
X0.419 Y-0.675
X0.412 Y-0.6921
X0.4056 Y-0.7095
X0.3999 Y-0.7271
X0.3949 Y-0.7449
X0.3906 Y-0.7629
X0.3869 Y-0.781
X0.384 Y-0.7993
X0.3817 Y-0.8177
X0.3801 Y-0.8361
X0.3793 Y-0.8546
X0.3791 Y-0.8731
X0.3797 Y-0.8917
X0.381 Y-0.9102
X0.3829 Y-0.9286
X0.3856 Y-0.9469
X0.389 Y-0.9652
X0.393 Y-0.9833
X0.3978 Y-1.0012
X0.401 Y-1.0118
X0.4031 Y-1.0185
X0.4136 Y-1.047
X0.4206 Y-1.0638
X0.4283 Y-1.0805
X0.4365 Y-1.0968
X0.4455 Y-1.1129
X0.455 Y-1.1286
X0.4652 Y-1.144
X0.474 Y-1.1563
X0.4758 Y-1.1587
G3 X0.5026 Y-1.1722 I0.0289 J0.0239
X0.5422 Y-1.1348 I0.0021 J0.0374 F300.
X0.538 Y-1.1175 I-0.0375 J0.
G1 X0.4726 Y-0.9914
G3 X0.4074 Y-0.9888 I-0.0333 J-0.0173
X0.4031 Y-1.0185 I0.0318 J-0.0198 F40.
G1 X0.4066 Y-1.0297
X0.4198 Y-1.0634
X0.4234 Y-1.0711
X0.4366 Y-1.097
X0.4427 Y-1.1083
X0.4571 Y-1.1331
X0.4628 Y-1.1419
X0.4796 Y-1.1636
X0.5042 Y-1.1926
X0.5164 Y-1.2058
X0.5292 Y-1.2187
X0.5425 Y-1.2311
X0.5563 Y-1.243
X0.5706 Y-1.2544
X0.5853 Y-1.2653
X0.6005 Y-1.2757
X0.6161 Y-1.2855
X0.6321 Y-1.2947
X0.6484 Y-1.3033
X0.6651 Y-1.3112
X0.682 Y-1.3186
X0.6993 Y-1.3253
X0.7168 Y-1.3313
X0.7346 Y-1.3367
X0.7525 Y-1.3414
X0.7706 Y-1.3454
X0.7889 Y-1.3487
X0.8073 Y-1.3513
X0.8258 Y-1.3532
X0.8444 Y-1.3544
X0.863 Y-1.3549
X0.8817 Y-1.3547
X0.9004 Y-1.3538
X0.919 Y-1.3522
X0.9376 Y-1.3498
X0.9561 Y-1.3468
X0.9745 Y-1.343
X0.9928 Y-1.3385
X1.011 Y-1.3333
X1.0289 Y-1.3275
X1.0467 Y-1.3209
X1.0642 Y-1.3137
X1.0745 Y-1.3089
X1.0749 Y-1.3087
X1.1139 Y-1.2875
X1.1296 Y-1.2782
X1.1423 Y-1.2701
X1.1451 Y-1.2681
G3 X1.1599 Y-1.242 I-0.0226 J0.03
X1.1038 Y-1.2057 I-0.0373 J0.0038 F300.
G1 X1.0411 Y-1.2419
G3 X1.0448 Y-1.3088 I0.0187 J-0.0325
X1.0749 Y-1.3087 I0.015 J0.0344 F40.
G1 X1.0974 Y-1.2979
X1.1086 Y-1.2918
X1.1198 Y-1.2851
X1.1311 Y-1.2778
X1.1423 Y-1.2701
X1.1492 Y-1.2653
X1.1652 Y-1.2541
X1.176 Y-1.2463
X1.2097 Y-1.215
X1.2157 Y-1.2092
X1.2265 Y-1.198
X1.2321 Y-1.1921
X1.2454 Y-1.1756
X1.2546 Y-1.1636
X1.2713 Y-1.1419
X1.2771 Y-1.1331
X1.2914 Y-1.1083
X1.2976 Y-1.097
X1.3108 Y-1.0711
X1.3144 Y-1.0634
X1.3275 Y-1.0297
X1.3381 Y-0.9961
X1.3408 Y-0.9849
X1.346 Y-0.9624
X1.348 Y-0.9512
X1.3514 Y-0.9288
X1.3528 Y-0.9176
X1.3557 Y-0.8781
X1.3559 Y-0.8727
Y-0.8615
X1.3557 Y-0.8561
X1.3528 Y-0.8166
X1.3514 Y-0.8054
X1.348 Y-0.783
X1.346 Y-0.7717
X1.3408 Y-0.7493
X1.3381 Y-0.7381
X1.3275 Y-0.7044
X1.3144 Y-0.6708
X1.3108 Y-0.6631
X1.2976 Y-0.6371
X1.2914 Y-0.6259
X1.2771 Y-0.6011
X1.2713 Y-0.5923
X1.2541 Y-0.5698
X1.2454 Y-0.5586
X1.2321 Y-0.5421
X1.2265 Y-0.5362
X1.2157 Y-0.525
X1.2097 Y-0.5192
X1.176 Y-0.4879
X1.1648 Y-0.4798
X1.1423 Y-0.464
X1.1311 Y-0.4563
X1.1198 Y-0.449
X1.1086 Y-0.4424
X1.0974 Y-0.4363
X1.0637 Y-0.42
X1.0524 Y-0.4147
X1.03 Y-0.4066
X0.9963 Y-0.3962
X0.985 Y-0.3934
X0.9626 Y-0.3883
X0.9513 Y-0.3862
X0.9289 Y-0.3828
X0.9176 Y-0.3814
X0.8868 Y-0.3791
X0.8839 Y-0.379
X0.8502
X0.8474 Y-0.3791
X0.8165 Y-0.3814
X0.8053 Y-0.3828
X0.7828 Y-0.3862
X0.7716 Y-0.3883
X0.7491 Y-0.3934
X0.7379 Y-0.3962
X0.7042 Y-0.4066
X0.6817 Y-0.4147
X0.6705 Y-0.42
X0.6368 Y-0.4363
X0.6256 Y-0.4424
X0.6144 Y-0.449
X0.6031 Y-0.4563
X0.5919 Y-0.4641
X0.569 Y-0.4801
X0.5582 Y-0.4879
X0.5245 Y-0.5192
X0.5184 Y-0.525
X0.5076 Y-0.5362
X0.502 Y-0.5421
X0.4888 Y-0.5586
X0.4796 Y-0.5705
X0.4628 Y-0.5923
X0.4571 Y-0.6011
X0.4427 Y-0.6259
X0.4366 Y-0.6371
X0.4234 Y-0.6631
X0.4198 Y-0.6708
X0.4066 Y-0.7044
X0.3961 Y-0.7381
X0.3933 Y-0.7493
X0.3882 Y-0.7717
X0.3862 Y-0.783
X0.3828 Y-0.8054
X0.3814 Y-0.8166
X0.3785 Y-0.8561
X0.3782 Y-0.8615
Y-0.8727
X0.3785 Y-0.8781
X0.3814 Y-0.9176
X0.3828 Y-0.9288
X0.3862 Y-0.9512
X0.3882 Y-0.9624
X0.3933 Y-0.9849
X0.3961 Y-0.9961
X0.401 Y-1.0118
X0.402 Y-1.0142
X0.4031 Y-1.0166
X0.4149 Y-1.0394
X0.465 Y-1.1364 F300.
X0.4768 Y-1.1591 F40.
X0.4781 Y-1.1614
X0.4796 Y-1.1636
X0.4888 Y-1.1756
X0.502 Y-1.1921
X0.5076 Y-1.198
X0.5185 Y-1.2092
X0.5245 Y-1.215
X0.5582 Y-1.2463
X0.5694 Y-1.2544
X0.5919 Y-1.2701
X0.6031 Y-1.2778
X0.6144 Y-1.2851
X0.6256 Y-1.2918
X0.6368 Y-1.2979
X0.6705 Y-1.3141
X0.6817 Y-1.3194
X0.7042 Y-1.3276
X0.7379 Y-1.338
X0.7491 Y-1.3408
X0.7716 Y-1.3459
X0.7828 Y-1.348
X0.8053 Y-1.3514
X0.8165 Y-1.3528
X0.8474 Y-1.355
X0.8502 Y-1.3552
X0.8839
X0.8868 Y-1.355
X0.9176 Y-1.3528
X0.9289 Y-1.3514
X0.9513 Y-1.348
X0.9626 Y-1.3459
X0.985 Y-1.3408
X0.9963 Y-1.338
X1.03 Y-1.3276
X1.0524 Y-1.3194
X1.0637 Y-1.3141
X1.0745 Y-1.3089
X1.0775 Y-1.3068 Z1.1743
X1.0804 Y-1.3046 Z1.1749
X1.0833 Y-1.3026 Z1.176
X1.0856 Y-1.2995 Z1.1778
X1.0878 Y-1.2966 Z1.1801
X1.0898 Y-1.294 Z1.1829
X1.0909 Y-1.2915 Z1.186
X1.0917 Y-1.2894 Z1.1894
X1.0924 Y-1.2877 Z1.193
X1.0929 Y-1.2864 Z1.1969
X1.0932 Y-1.2857 Z1.2009
X1.0933 Y-1.2854 Z1.2049
G0 Z1.274
X1.0275 Y-0.7684
G3 X0.7271 Y-0.7411 Z1.2434 I-0.1604 J-0.0987 F40.
X0.7857 Y-1.0361 Z1.2128 I0.1396 J-0.1256
X1.0513 Y-0.897 Z1.1822 I0.0808 J0.1689
X0.8433 Y-0.6821 Z1.1516 I-0.1843 J0.0297
X0.6964 Y-0.9416 Z1.121 I0.0236 J-0.1847
X0.9861 Y-1.009 Z1.0904 I0.17 J0.0746
X0.9688 Y-0.713 Z1.0598 I-0.1193 J0.1416
X0.6906 Y-0.8129 Z1.0292 I-0.1018 J-0.154
X0.8646 Y-1.0508 Z0.9986 I0.176 J-0.0539
X1.0431 Y-0.8174 Z0.968 I0.002 J0.1835
X0.7695 Y-0.7124 Z0.9374 I-0.1761 J-0.0498
X0.7462 Y-1.0037 Z0.9068 I0.0973 J-0.1543
X1.0314 Y-0.9438 Z0.8762 I0.1202 J0.1365
X0.8938 Y-0.688 Z0.8456 I-0.1645 J0.0765
X0.6879 Y-0.8917 Z0.815 I-0.0268 J-0.1788
X0.9407 Y-1.0312 Z0.7844 I0.1786 J0.0248
X1.0029 Y-0.7501 Z0.7538 I-0.074 J0.1638
X0.7165 Y-0.7698 Z0.7232 I-0.1358 J-0.117
X0.8161 Y-1.0382 Z0.6926 I0.1501 J-0.0969
X1.0446 Y-0.8673 Z0.662 I0.0504 J0.1709
X0.6883 I-0.1782 J0.
X1.0446 I0.1782 J0.
G1 X1.0453 Y-0.8229
X1.0461 Y-0.8174
X1.0464 Y-0.8114
X1.0463 Y-0.8054
X1.0458 Y-0.7994
X1.0449 Y-0.7935
X1.0437 Y-0.7876
X1.0421 Y-0.7818
X1.0403 Y-0.7761
X1.0382 Y-0.7705
X1.0359 Y-0.7649
X1.0334 Y-0.7595
X1.0306 Y-0.7542
X1.0276 Y-0.749
X1.0244 Y-0.7439
X1.0209 Y-0.7387
X1.0172 Y-0.7336
X1.0132 Y-0.7286
X1.0089 Y-0.7236
X1.0044 Y-0.7188
X0.9996 Y-0.714
X0.9945 Y-0.7094
X0.9893 Y-0.7049
X0.9838 Y-0.7005
X0.978 Y-0.6963
X0.9721 Y-0.6923
X0.966 Y-0.6885
X0.9596 Y-0.6849
X0.9531 Y-0.6816
X0.9465 Y-0.6784
X0.9396 Y-0.6755
X0.9327 Y-0.6728
X0.9256 Y-0.6704
X0.9183 Y-0.6683
X0.911 Y-0.6664
X0.9036 Y-0.6648
X0.8961 Y-0.6635
X0.8885 Y-0.6625
X0.8809 Y-0.6617
X0.8732 Y-0.6613
X0.8655 Y-0.6611
X0.8578 Y-0.6612
X0.8501 Y-0.6617
X0.8424 Y-0.6624
X0.8347 Y-0.6634
X0.827 Y-0.6647
X0.8194 Y-0.6663
X0.8119 Y-0.6682
X0.8044 Y-0.6704
X0.797 Y-0.6728
X0.7897 Y-0.6756
X0.7824 Y-0.6786
X0.7754 Y-0.6819
X0.7684 Y-0.6855
X0.7616 Y-0.6893
X0.7549 Y-0.6934
X0.7484 Y-0.6978
X0.742 Y-0.7024
X0.7358 Y-0.7072
X0.7298 Y-0.7123
X0.7241 Y-0.7176
X0.7185 Y-0.7231
X0.7131 Y-0.7288
X0.7079 Y-0.7347
X0.703 Y-0.7409
X0.6983 Y-0.7472
X0.6939 Y-0.7536
X0.6897 Y-0.7603
X0.6857 Y-0.7671
X0.682 Y-0.774
X0.6786 Y-0.7811
X0.6755 Y-0.7883
X0.6726 Y-0.7957
X0.67 Y-0.8031
X0.6677 Y-0.8106
X0.6657 Y-0.8182
X0.664 Y-0.8259
X0.6625 Y-0.8336
X0.6614 Y-0.8414
X0.6606 Y-0.8493
X0.66 Y-0.8571
X0.6598 Y-0.865
X0.6599 Y-0.8728
X0.6602 Y-0.8807
X0.6609 Y-0.8886
X0.6618 Y-0.8964
X0.6631 Y-0.9041
X0.6646 Y-0.9119
X0.6665 Y-0.9195
X0.6686 Y-0.9271
X0.671 Y-0.9346
X0.6738 Y-0.942
X0.6767 Y-0.9493
X0.68 Y-0.9564
X0.6835 Y-0.9635
X0.6873 Y-0.9704
X0.6914 Y-0.9771
X0.6957 Y-0.9837
X0.7002 Y-0.9901
X0.705 Y-0.9964
X0.7101 Y-1.0024
X0.7153 Y-1.0083
X0.7208 Y-1.0139
X0.7265 Y-1.0194
X0.7324 Y-1.0246
X0.7385 Y-1.0296
X0.7448 Y-1.0343
X0.7512 Y-1.0389
X0.7578 Y-1.0431
X0.7646 Y-1.0471
X0.7715 Y-1.0509
X0.7786 Y-1.0544
X0.7858 Y-1.0576
X0.7931 Y-1.0605
X0.8005 Y-1.0632
X0.808 Y-1.0655
X0.8156 Y-1.0676
X0.8233 Y-1.0694
X0.831 Y-1.0709
X0.8388 Y-1.0721
X0.8466 Y-1.073
X0.8545 Y-1.0736
X0.8623 Y-1.0739
X0.8702
X0.8781 Y-1.0736
X0.8859 Y-1.0731
X0.8938 Y-1.0722
X0.9015 Y-1.071
X0.9093 Y-1.0695
X0.9169 Y-1.0677
X0.9245 Y-1.0656
X0.9321 Y-1.0633
X0.9395 Y-1.0607
X0.9468 Y-1.0577
X0.954 Y-1.0545
X0.9611 Y-1.0511
X0.968 Y-1.0473
X0.9748 Y-1.0433
X0.9814 Y-1.0391
X0.9879 Y-1.0346
X0.9941 Y-1.0298
X1.0002 Y-1.0249
X1.0062 Y-1.0196
X1.0119 Y-1.0142
X1.0173 Y-1.0086
X1.0226 Y-1.0027
X1.0277 Y-0.9967
X1.0325 Y-0.9904
X1.037 Y-0.984
X1.0414 Y-0.9775
X1.0454 Y-0.9707
X1.0492 Y-0.9638
X1.0528 Y-0.9568
X1.0561 Y-0.9496
X1.0591 Y-0.9423
X1.0622 Y-0.934
X1.0655 Y-0.9236
X1.0702 Y-0.9072
X1.0735 Y-0.8937
X1.0758 Y-0.8821
X1.0775 Y-0.8717
X1.0787 Y-0.862
X1.0795 Y-0.853
X1.0799 Y-0.8444
X1.08 Y-0.836
X1.0798 Y-0.828
X1.0792 Y-0.8201
X1.0784 Y-0.8124
X1.0774 Y-0.8048
X1.076 Y-0.7974
X1.0744 Y-0.7901
X1.0725 Y-0.7828
X1.0703 Y-0.7756
X1.0678 Y-0.7685
X1.0651 Y-0.7615
X1.0621 Y-0.7546
X1.0588 Y-0.7478
X1.0553 Y-0.7411
X1.0515 Y-0.7345
X1.0474 Y-0.728
X1.043 Y-0.7216
X1.0384 Y-0.7153
X1.0335 Y-0.7092
X1.0283 Y-0.7033
X1.0229 Y-0.6975
X1.0172 Y-0.6918
X1.0113 Y-0.6864
X1.0051 Y-0.6811
X0.9987 Y-0.6761
X0.992 Y-0.6713
X0.9852 Y-0.6667
X0.9781 Y-0.6623
X0.9709 Y-0.6582
X0.9634 Y-0.6544
X0.9558 Y-0.6508
X0.948 Y-0.6475
X0.94 Y-0.6445
X0.9319 Y-0.6418
X0.9237 Y-0.6394
X0.9154 Y-0.6373
X0.9069 Y-0.6355
X0.8984 Y-0.634
X0.8898 Y-0.6329
X0.8811 Y-0.6321
X0.8724 Y-0.6316
X0.8637 Y-0.6314
X0.8549 Y-0.6316
X0.8461 Y-0.6321
X0.8373 Y-0.6329
X0.8286 Y-0.6341
X0.8199 Y-0.6356
X0.8112 Y-0.6374
X0.8026 Y-0.6396
X0.7941 Y-0.6421
X0.7857 Y-0.645
X0.7773 Y-0.6481
X0.7691 Y-0.6516
X0.761 Y-0.6554
X0.7531 Y-0.6595
X0.7453 Y-0.6639
X0.7377 Y-0.6686
X0.7303 Y-0.6736
X0.723 Y-0.6788
X0.716 Y-0.6844
X0.7091 Y-0.6902
X0.7025 Y-0.6963
X0.6962 Y-0.7026
X0.69 Y-0.7092
X0.6841 Y-0.716
X0.6785 Y-0.723
X0.6732 Y-0.7302
X0.6681 Y-0.7377
X0.6633 Y-0.7453
X0.6588 Y-0.7531
X0.6546 Y-0.7611
X0.6507 Y-0.7692
X0.6471 Y-0.7775
X0.6439 Y-0.7859
X0.6409 Y-0.7944
X0.6383 Y-0.803
X0.636 Y-0.8117
X0.6341 Y-0.8205
X0.6325 Y-0.8294
X0.6312 Y-0.8383
X0.6303 Y-0.8473
X0.6297 Y-0.8563
X0.6294 Y-0.8653
X0.6295 Y-0.8744
X0.63 Y-0.8834
X0.6308 Y-0.8924
X0.6319 Y-0.9013
X0.6333 Y-0.9102
X0.6352 Y-0.9191
X0.6373 Y-0.9278
X0.6398 Y-0.9365
X0.6426 Y-0.9451
X0.6457 Y-0.9536
X0.6491 Y-0.9619
X0.6529 Y-0.9701
X0.657 Y-0.9782
X0.6613 Y-0.9861
X0.666 Y-0.9938
X0.671 Y-1.0014
X0.6762 Y-1.0087
X0.6817 Y-1.0159
X0.6875 Y-1.0228
X0.6936 Y-1.0295
X0.6999 Y-1.0359
X0.7064 Y-1.0422
X0.7132 Y-1.0481
X0.7202 Y-1.0538
X0.7274 Y-1.0593
X0.7348 Y-1.0644
X0.7424 Y-1.0693
X0.7502 Y-1.0739
X0.7582 Y-1.0782
X0.7663 Y-1.0821
X0.7746 Y-1.0858
X0.7829 Y-1.0891
X0.7915 Y-1.0922
X0.8001 Y-1.0949
X0.8088 Y-1.0972
X0.8176 Y-1.0992
X0.8265 Y-1.1009
X0.8354 Y-1.1023
X0.8444 Y-1.1033
X0.8534 Y-1.104
X0.8624 Y-1.1043
X0.8714
X0.8804 Y-1.1039
X0.8895 Y-1.1032
X0.8984 Y-1.1022
X0.9073 Y-1.1008
X0.9162 Y-1.0991
X0.925 Y-1.097
X0.9337 Y-1.0946
X0.9423 Y-1.0919
X0.9508 Y-1.0888
X0.9592 Y-1.0855
X0.9674 Y-1.0818
X0.9755 Y-1.0778
X0.9835 Y-1.0735
X0.9912 Y-1.0689
X0.9988 Y-1.064
X1.0062 Y-1.0588
X1.0134 Y-1.0533
X1.0204 Y-1.0476
X1.0272 Y-1.0416
X1.0337 Y-1.0353
X1.04 Y-1.0289
X1.046 Y-1.0221
X1.0518 Y-1.0152
X1.0574 Y-1.0079
X1.0628 Y-1.0002
X1.0686 Y-0.9914
X1.0741 Y-0.9822
X1.0794 Y-0.9725
X1.0845 Y-0.9624
X1.0892 Y-0.952
X1.0935 Y-0.9415
X1.0973 Y-0.931
X1.1007 Y-0.9206
X1.1036 Y-0.9102
X1.106 Y-0.9
X1.1081 Y-0.8899
X1.1097 Y-0.8798
X1.1109 Y-0.8699
X1.1117 Y-0.8601
X1.1121 Y-0.8504
X1.1122 Y-0.8408
X1.1119 Y-0.8313
X1.1113 Y-0.8219
X1.1103 Y-0.8127
X1.1089 Y-0.8035
X1.1072 Y-0.7945
X1.1052 Y-0.7855
X1.1029 Y-0.7767
X1.1002 Y-0.768
X1.0972 Y-0.7595
X1.0939 Y-0.751
X1.0903 Y-0.7427
X1.0863 Y-0.7345
X1.0821 Y-0.7265
X1.0775 Y-0.7187
X1.0726 Y-0.711
X1.0674 Y-0.7034
X1.062 Y-0.6961
X1.0562 Y-0.6889
X1.0501 Y-0.682
X1.0438 Y-0.6752
X1.0372 Y-0.6687
X1.0303 Y-0.6624
X1.0231 Y-0.6564
X1.0157 Y-0.6506
X1.0081 Y-0.6451
X1.0002 Y-0.6398
X0.9921 Y-0.6349
X0.9838 Y-0.6302
X0.9753 Y-0.6258
X0.9665 Y-0.6218
X0.9577 Y-0.6181
X0.9486 Y-0.6147
X0.9394 Y-0.6116
X0.93 Y-0.6089
X0.9206 Y-0.6065
X0.911 Y-0.6045
X0.9013 Y-0.6029
X0.8916 Y-0.6016
X0.8817 Y-0.6007
X0.8719 Y-0.6002
X0.862 Y-0.6
X0.852 Y-0.6002
X0.8421 Y-0.6008
X0.8322 Y-0.6018
X0.8223 Y-0.6032
X0.8124 Y-0.6049
X0.8026 Y-0.607
X0.7929 Y-0.6095
X0.7833 Y-0.6124
X0.7737 Y-0.6156
X0.7643 Y-0.6192
X0.755 Y-0.6232
X0.7459 Y-0.6275
X0.7369 Y-0.6322
X0.7281 Y-0.6372
X0.7195 Y-0.6425
X0.7111 Y-0.6482
X0.7029 Y-0.6542
X0.695 Y-0.6605
X0.6872 Y-0.6671
X0.6798 Y-0.674
X0.6726 Y-0.6812
X0.6656 Y-0.6886
X0.659 Y-0.6964
X0.6527 Y-0.7043
X0.6466 Y-0.7125
X0.6409 Y-0.721
X0.6355 Y-0.7296
X0.6304 Y-0.7385
X0.6257 Y-0.7475
X0.6213 Y-0.7568
X0.6173 Y-0.7662
X0.6136 Y-0.7757
X0.6103 Y-0.7854
X0.6073 Y-0.7952
X0.6048 Y-0.8051
X0.6026 Y-0.8151
X0.6008 Y-0.8251
X0.5994 Y-0.8353
X0.5983 Y-0.8454
X0.5977 Y-0.8557
X0.5975 Y-0.8659
X0.5976 Y-0.8761
X0.5981 Y-0.8863
X0.599 Y-0.8965
X0.6003 Y-0.9067
X0.602 Y-0.9168
X0.6041 Y-0.9268
X0.6066 Y-0.9368
X0.6094 Y-0.9466
X0.6126 Y-0.9564
X0.6162 Y-0.966
X0.6201 Y-0.9754
X0.6244 Y-0.9847
X0.629 Y-0.9938
X0.634 Y-1.0028
X0.6394 Y-1.0116
X0.645 Y-1.0201
X0.651 Y-1.0284
X0.6573 Y-1.0365
X0.6639 Y-1.0443
X0.6708 Y-1.0519
X0.6779 Y-1.0593
X0.6854 Y-1.0663
X0.6931 Y-1.073
X0.7011 Y-1.0795
X0.7093 Y-1.0856
X0.7177 Y-1.0915
X0.7263 Y-1.097
X0.7352 Y-1.1022
X0.7442 Y-1.107
X0.7535 Y-1.1115
X0.7628 Y-1.1156
X0.7724 Y-1.1194
X0.782 Y-1.1228
X0.7918 Y-1.1258
X0.8017 Y-1.1284
X0.8117 Y-1.1307
X0.8218 Y-1.1326
X0.8319 Y-1.1341
X0.8421 Y-1.1353
X0.8523 Y-1.136
X0.8626 Y-1.1363
X0.8728
X0.8831 Y-1.1358
X0.8933 Y-1.135
X0.9035 Y-1.1338
X0.9136 Y-1.1322
X0.9237 Y-1.1302
X0.9336 Y-1.1278
X0.9435 Y-1.1251
X0.9533 Y-1.122
X0.9629 Y-1.1185
X0.9724 Y-1.1146
X0.9818 Y-1.1104
X0.9909 Y-1.1058
X0.9999 Y-1.1009
X1.0087 Y-1.0957
X1.0173 Y-1.0901
X1.0257 Y-1.0842
X1.0339 Y-1.0779
X1.042 Y-1.0713
X1.0499 Y-1.0642
X1.0576 Y-1.0567
X1.0652 Y-1.0489
X1.0726 Y-1.0406
X1.0798 Y-1.0319
X1.0867 Y-1.0228
X1.0933 Y-1.0134
X1.0997 Y-1.0036
X1.1057 Y-0.9936
X1.1113 Y-0.9833
X1.1165 Y-0.9728
X1.1213 Y-0.9622
X1.1257 Y-0.9514
X1.1296 Y-0.9405
X1.1331 Y-0.9296
X1.1361 Y-0.9186
X1.1387 Y-0.9076
X1.1409 Y-0.8966
X1.1427 Y-0.8856
X1.144 Y-0.8746
X1.1448 Y-0.8636
X1.1453 Y-0.8527
X1.1454 Y-0.8419
X1.145 Y-0.8312
X1.1442 Y-0.8205
X1.1431 Y-0.8099
X1.1415 Y-0.7994
X1.1395 Y-0.789
X1.1372 Y-0.7787
X1.1344 Y-0.7685
X1.1313 Y-0.7585
X1.1279 Y-0.7486
X1.124 Y-0.7389
X1.1198 Y-0.7293
X1.1152 Y-0.7198
X1.1102 Y-0.7106
X1.105 Y-0.7015
X1.0993 Y-0.6927
X1.0933 Y-0.684
X1.087 Y-0.6756
X1.0804 Y-0.6674
X1.0734 Y-0.6595
X1.0661 Y-0.6518
X1.0585 Y-0.6443
X1.0506 Y-0.6372
X1.0425 Y-0.6303
X1.034 Y-0.6238
X1.0253 Y-0.6175
X1.0164 Y-0.6116
X1.0072 Y-0.606
X0.9977 Y-0.6007
X0.9881 Y-0.5958
X0.9782 Y-0.5913
X0.9681 Y-0.5871
X0.9579 Y-0.5833
X0.9475 Y-0.5799
X0.937 Y-0.5768
X0.9263 Y-0.5742
X0.9155 Y-0.572
X0.9046 Y-0.5702
X0.8936 Y-0.5687
X0.8825 Y-0.5678
X0.8714 Y-0.5672
X0.8603 Y-0.567
X0.8491 Y-0.5673
X0.838 Y-0.568
X0.8268 Y-0.5692
X0.8157 Y-0.5707
X0.8046 Y-0.5727
X0.7936 Y-0.5751
X0.7827 Y-0.5779
X0.7719 Y-0.5812
X0.7612 Y-0.5848
X0.7507 Y-0.5889
X0.7402 Y-0.5934
X0.73 Y-0.5983
X0.7199 Y-0.6035
X0.7101 Y-0.6092
X0.7004 Y-0.6152
X0.691 Y-0.6216
X0.6818 Y-0.6284
X0.6729 Y-0.6355
X0.6643 Y-0.6429
X0.6559 Y-0.6507
X0.6478 Y-0.6588
X0.6401 Y-0.6672
X0.6326 Y-0.6759
X0.6255 Y-0.6849
X0.6187 Y-0.6941
X0.6123 Y-0.7036
X0.6063 Y-0.7134
X0.6006 Y-0.7233
X0.5953 Y-0.7335
X0.5904 Y-0.7439
X0.5859 Y-0.7545
X0.5818 Y-0.7652
X0.5782 Y-0.7761
X0.5749 Y-0.7871
X0.572 Y-0.7982
X0.5696 Y-0.8095
X0.5676 Y-0.8208
X0.5661 Y-0.8322
X0.5649 Y-0.8436
X0.5642 Y-0.8551
X0.564 Y-0.8666
X0.5642 Y-0.8781
X0.5648 Y-0.8896
X0.5659 Y-0.9011
X0.5674 Y-0.9125
X0.5693 Y-0.9238
X0.5717 Y-0.9351
X0.5744 Y-0.9463
X0.5777 Y-0.9573
X0.5813 Y-0.9683
X0.5853 Y-0.979
X0.5898 Y-0.9897
X0.5947 Y-1.0001
X0.5999 Y-1.0104
X0.6055 Y-1.0204
X0.6116 Y-1.0302
X0.6179 Y-1.0398
X0.6247 Y-1.0492
X0.6318 Y-1.0582
X0.6392 Y-1.067
X0.647 Y-1.0755
X0.6551 Y-1.0837
X0.6635 Y-1.0916
X0.6722 Y-1.0992
X0.6812 Y-1.1064
X0.6904 Y-1.1133
X0.6999 Y-1.1198
X0.7096 Y-1.126
X0.7196 Y-1.1318
X0.7298 Y-1.1372
X0.7402 Y-1.1422
X0.7507 Y-1.1468
X0.7614 Y-1.151
X0.7723 Y-1.1548
X0.7833 Y-1.1582
X0.7945 Y-1.1612
X0.8057 Y-1.1637
X0.8171 Y-1.1658
X0.8285 Y-1.1674
X0.8399 Y-1.1687
X0.8514 Y-1.1695
X0.863 Y-1.1698
X0.8745 Y-1.1697
X0.886 Y-1.1692
X0.8975 Y-1.1683
X0.9089 Y-1.1669
X0.9203 Y-1.165
X0.9316 Y-1.1628
X0.9428 Y-1.1601
X0.9539 Y-1.1569
X0.9649 Y-1.1534
X0.9757 Y-1.1494
X0.9864 Y-1.1451
X0.9969 Y-1.1403
X1.0073 Y-1.1351
X1.0175 Y-1.1295
X1.0276 Y-1.1234
X1.0374 Y-1.117
X1.0471 Y-1.1101
X1.0567 Y-1.1028
X1.066 Y-1.095
X1.0751 Y-1.0869
X1.0839 Y-1.0783
X1.0925 Y-1.0693
X1.1008 Y-1.06
X1.1088 Y-1.0503
X1.1164 Y-1.0403
X1.1236 Y-1.0299
X1.1305 Y-1.0193
X1.137 Y-1.0084
X1.143 Y-0.9972
X1.1486 Y-0.9859
X1.1537 Y-0.9744
X1.1584 Y-0.9627
X1.1627 Y-0.9509
X1.1665 Y-0.9389
X1.1698 Y-0.9269
X1.1726 Y-0.9148
X1.1749 Y-0.9027
X1.1768 Y-0.8905
X1.1782 Y-0.8783
X1.1792 Y-0.8662
X1.1797 Y-0.854
Y-0.8419
X1.1793 Y-0.8298
X1.1784 Y-0.8178
X1.177 Y-0.8059
X1.1752 Y-0.794
X1.173 Y-0.7823
X1.1703 Y-0.7706
X1.1671 Y-0.7591
X1.1636 Y-0.7478
X1.1596 Y-0.7366
X1.1552 Y-0.7256
X1.1504 Y-0.7147
X1.1452 Y-0.704
X1.1395 Y-0.6936
X1.1335 Y-0.6834
X1.1271 Y-0.6734
X1.1203 Y-0.6636
X1.1131 Y-0.6541
X1.1056 Y-0.6448
X1.0977 Y-0.6359
X1.0895 Y-0.6272
X1.0809 Y-0.6189
X1.072 Y-0.6109
X1.0628 Y-0.6031
X1.0533 Y-0.5958
X1.0435 Y-0.5888
X1.0334 Y-0.5821
X1.023 Y-0.5759
X1.0124 Y-0.57
X1.0015 Y-0.5645
X0.9905 Y-0.5595
X0.9792 Y-0.5548
X0.9677 Y-0.5506
X0.956 Y-0.5468
X0.9442 Y-0.5434
X0.9323 Y-0.5405
X0.9202 Y-0.5381
X0.908 Y-0.5361
X0.8957 Y-0.5345
X0.8834 Y-0.5334
X0.871 Y-0.5328
X0.8585 Y-0.5327
X0.8461 Y-0.5331
X0.8336 Y-0.5339
X0.8212 Y-0.5352
X0.8088 Y-0.537
X0.7965 Y-0.5392
X0.7842 Y-0.5419
X0.772 Y-0.5451
X0.76 Y-0.5488
X0.7481 Y-0.5529
X0.7363 Y-0.5575
X0.7247 Y-0.5625
X0.7133 Y-0.5679
X0.7021 Y-0.5738
X0.6912 Y-0.5802
X0.6804 Y-0.5869
X0.6699 Y-0.5941
X0.6597 Y-0.6016
X0.6498 Y-0.6096
X0.6402 Y-0.6179
X0.6309 Y-0.6266
X0.6219 Y-0.6356
X0.6133 Y-0.645
X0.6051 Y-0.6547
X0.5972 Y-0.6648
X0.5897 Y-0.6751
X0.5825 Y-0.6857
X0.5758 Y-0.6966
X0.5695 Y-0.7077
X0.5637 Y-0.7191
X0.5583 Y-0.7307
X0.5533 Y-0.7424
X0.5487 Y-0.7544
X0.5447 Y-0.7665
X0.5411 Y-0.7788
X0.5379 Y-0.7913
X0.5352 Y-0.8038
X0.5331 Y-0.8164
X0.5314 Y-0.8291
X0.5301 Y-0.8419
X0.5294 Y-0.8547
X0.5292 Y-0.8675
X0.5294 Y-0.8803
X0.5301 Y-0.8932
X0.5314 Y-0.9059
X0.5331 Y-0.9187
X0.5352 Y-0.9313
X0.5379 Y-0.9439
X0.5411 Y-0.9563
X0.5447 Y-0.9686
X0.5488 Y-0.9808
X0.5533 Y-0.9928
X0.5583 Y-1.0046
X0.5638 Y-1.0163
X0.5696 Y-1.0277
X0.576 Y-1.0389
X0.5827 Y-1.0498
X0.5899 Y-1.0605
X0.5974 Y-1.0709
X0.6054 Y-1.081
X0.6137 Y-1.0908
X0.6224 Y-1.1002
X0.6314 Y-1.1093
X0.6408 Y-1.1181
X0.6505 Y-1.1265
X0.6605 Y-1.1346
X0.6709 Y-1.1422
X0.6815 Y-1.1495
X0.6924 Y-1.1563
X0.7035 Y-1.1627
X0.7149 Y-1.1687
X0.7265 Y-1.1743
X0.7383 Y-1.1794
X0.7502 Y-1.1841
X0.7624 Y-1.1883
X0.7747 Y-1.192
X0.7871 Y-1.1952
X0.7997 Y-1.198
X0.8123 Y-1.2003
X0.825 Y-1.2022
X0.8378 Y-1.2035
X0.8506 Y-1.2043
X0.8635 Y-1.2047
X0.8763 Y-1.2046
X0.8892 Y-1.2039
X0.902 Y-1.2028
X0.9147 Y-1.2012
X0.9274 Y-1.1992
X0.94 Y-1.1966
X0.9526 Y-1.1936
X0.965 Y-1.19
X0.9773 Y-1.186
X0.9894 Y-1.1815
X1.0015 Y-1.1766
X1.0133 Y-1.1711
X1.0251 Y-1.1652
X1.0366 Y-1.1588
X1.0479 Y-1.152
X1.0591 Y-1.1447
X1.07 Y-1.1369
X1.0806 Y-1.1287
X1.091 Y-1.12
X1.1011 Y-1.1109
X1.1109 Y-1.1014
X1.1203 Y-1.0915
X1.1294 Y-1.0812
X1.1381 Y-1.0705
X1.1464 Y-1.0594
X1.1543 Y-1.0481
X1.1618 Y-1.0364
X1.1688 Y-1.0245
X1.1754 Y-1.0123
X1.1815 Y-0.9999
X1.1871 Y-0.9873
X1.1922 Y-0.9744
X1.1968 Y-0.9615
X1.2009 Y-0.9483
X1.2045 Y-0.9351
X1.2076 Y-0.9218
X1.2102 Y-0.9084
X1.2122 Y-0.8949
X1.2137 Y-0.8815
X1.2147 Y-0.868
X1.2152 Y-0.8545
Y-0.841
X1.2147 Y-0.8276
X1.2137 Y-0.8142
X1.2121 Y-0.8009
X1.2101 Y-0.7877
X1.2075 Y-0.7746
X1.2045 Y-0.7616
X1.201 Y-0.7488
X1.197 Y-0.7361
X1.1925 Y-0.7236
X1.1875 Y-0.7113
X1.1821 Y-0.6992
X1.1762 Y-0.6873
X1.1699 Y-0.6756
X1.1631 Y-0.6642
X1.1559 Y-0.653
X1.1483 Y-0.6421
X1.1403 Y-0.6315
X1.1318 Y-0.6212
X1.123 Y-0.6112
X1.1138 Y-0.6016
X1.1042 Y-0.5923
X1.0942 Y-0.5834
X1.0839 Y-0.5748
X1.0733 Y-0.5666
X1.0623 Y-0.5589
X1.051 Y-0.5515
X1.0395 Y-0.5446
X1.0277 Y-0.5381
X1.0156 Y-0.532
X1.0032 Y-0.5264
X0.9907 Y-0.5213
X0.9779 Y-0.5166
X0.965 Y-0.5124
X0.9518 Y-0.5087
X0.9386 Y-0.5055
X0.9252 Y-0.5028
X0.9116 Y-0.5007
X0.898 Y-0.499
X0.8843 Y-0.4978
X0.8705 Y-0.4972
X0.8568 Y-0.4971
X0.843 Y-0.4975
X0.8292 Y-0.4985
X0.8154 Y-0.5
X0.8017 Y-0.502
X0.788 Y-0.5045
X0.7744 Y-0.5075
X0.761 Y-0.5111
X0.7477 Y-0.5152
X0.7345 Y-0.5198
X0.7215 Y-0.5249
X0.7087 Y-0.5305
X0.6961 Y-0.5366
X0.6837 Y-0.5431
X0.6715 Y-0.5502
X0.6597 Y-0.5577
X0.6481 Y-0.5656
X0.6368 Y-0.574
X0.6259 Y-0.5828
X0.6153 Y-0.5921
X0.605 Y-0.6017
X0.5951 Y-0.6118
X0.5856 Y-0.6222
X0.5765 Y-0.6329
X0.5678 Y-0.6441
X0.5595 Y-0.6555
X0.5517 Y-0.6673
X0.5443 Y-0.6793
X0.5374 Y-0.6917
X0.5309 Y-0.7043
X0.5249 Y-0.7171
X0.5195 Y-0.7301
X0.5145 Y-0.7434
X0.51 Y-0.7568
X0.5061 Y-0.7705
X0.5026 Y-0.7842
X0.4997 Y-0.7981
X0.4973 Y-0.8121
X0.4955 Y-0.8261
X0.4942 Y-0.8403
X0.4934 Y-0.8544
X0.4932 Y-0.8686
X0.4935 Y-0.8828
X0.4943 Y-0.897
X0.4957 Y-0.9111
X0.4976 Y-0.9252
X0.5001 Y-0.9392
X0.5031 Y-0.9531
X0.5066 Y-0.9668
X0.5107 Y-0.9805
X0.5152 Y-0.9939
X0.5203 Y-1.0072
X0.5259 Y-1.0203
X0.5319 Y-1.0331
X0.5385 Y-1.0457
X0.5455 Y-1.0581
X0.553 Y-1.0702
X0.5609 Y-1.082
X0.5693 Y-1.0934
X0.5781 Y-1.1046
X0.5874 Y-1.1154
X0.597 Y-1.1258
X0.6071 Y-1.1359
X0.6175 Y-1.1456
X0.6283 Y-1.1549
X0.6394 Y-1.1637
X0.6508 Y-1.1722
X0.6626 Y-1.1802
X0.6747 Y-1.1877
X0.687 Y-1.1948
X0.6996 Y-1.2014
X0.7125 Y-1.2075
X0.7255 Y-1.2131
X0.7388 Y-1.2182
X0.7523 Y-1.2228
X0.7659 Y-1.2269
X0.7797 Y-1.2305
X0.7935 Y-1.2335
X0.8075 Y-1.2361
X0.8216 Y-1.238
X0.8358 Y-1.2395
X0.85 Y-1.2404
X0.8642 Y-1.2407
X0.8784 Y-1.2406
X0.8927 Y-1.2398
X0.9069 Y-1.2386
X0.921 Y-1.2367
X0.9351 Y-1.2344
X0.9491 Y-1.2315
X0.963 Y-1.2281
X0.9768 Y-1.2241
X0.9905 Y-1.2196
X1.004 Y-1.2146
X1.0174 Y-1.209
X1.0306 Y-1.2029
X1.0436 Y-1.1963
X1.0564 Y-1.1892
X1.069 Y-1.1816
X1.0813 Y-1.1734
X1.0934 Y-1.1648
X1.1051 Y-1.1556
X1.1165 Y-1.1461
X1.1276 Y-1.136
X1.1383 Y-1.1255
X1.1487 Y-1.1146
X1.1586 Y-1.1033
X1.1681 Y-1.0915
X1.1772 Y-1.0794
X1.1858 Y-1.067
X1.1939 Y-1.0542
X1.2015 Y-1.0412
X1.2087 Y-1.0278
X1.2153 Y-1.0142
X1.2214 Y-1.0004
X1.2269 Y-0.9864
X1.232 Y-0.9722
X1.2364 Y-0.9578
X1.2403 Y-0.9433
X1.2437 Y-0.9286
X1.2464 Y-0.9139
X1.2486 Y-0.8991
X1.2503 Y-0.8843
X1.2514 Y-0.8694
X1.2519 Y-0.8546
X1.2518 Y-0.8397
X1.2512 Y-0.8249
X1.25 Y-0.8101
X1.2482 Y-0.7954
X1.2459 Y-0.7808
X1.2431 Y-0.7664
X1.2397 Y-0.752
X1.2357 Y-0.7378
X1.2313 Y-0.7238
X1.2263 Y-0.7099
X1.2207 Y-0.6963
X1.2147 Y-0.6829
X1.2081 Y-0.6697
X1.2011 Y-0.6568
X1.1936 Y-0.6442
X1.1856 Y-0.6318
X1.1771 Y-0.6198
X1.1681 Y-0.6081
X1.1588 Y-0.5967
X1.1489 Y-0.5857
X1.1387 Y-0.5751
X1.1281 Y-0.5648
X1.117 Y-0.555
X1.1056 Y-0.5455
X1.0938 Y-0.5365
X1.0817 Y-0.528
X1.0692 Y-0.5199
X1.0564 Y-0.5122
X1.0433 Y-0.5051
X1.03 Y-0.4984
X1.0164 Y-0.4923
X1.0025 Y-0.4866
X0.9884 Y-0.4815
X0.9741 Y-0.477
X0.9596 Y-0.4729
X0.9449 Y-0.4695
X0.9302 Y-0.4665
X0.9152 Y-0.4642
X0.9002 Y-0.4624
X0.8851 Y-0.4611
X0.87 Y-0.4605
X0.8548 Y-0.4604
X0.8396 Y-0.4609
X0.8244 Y-0.462
X0.8092 Y-0.4637
X0.7942 Y-0.4659
X0.7791 Y-0.4688
X0.7642 Y-0.4721
X0.7494 Y-0.4761
X0.7348 Y-0.4806
X0.7203 Y-0.4857
X0.706 Y-0.4914
X0.6919 Y-0.4976
X0.6781 Y-0.5043
X0.6645 Y-0.5116
X0.6512 Y-0.5193
X0.6382 Y-0.5276
X0.6255 Y-0.5364
X0.6131 Y-0.5457
X0.6011 Y-0.5554
X0.5894 Y-0.5656
X0.5782 Y-0.5762
X0.5674 Y-0.5873
X0.5569 Y-0.5988
X0.5469 Y-0.6106
X0.5374 Y-0.6229
X0.5284 Y-0.6355
X0.5198 Y-0.6484
X0.5117 Y-0.6617
X0.5041 Y-0.6753
X0.4971 Y-0.6891
X0.4905 Y-0.7033
X0.4846 Y-0.7176
X0.4791 Y-0.7322
X0.4743 Y-0.747
X0.47 Y-0.762
X0.4662 Y-0.7771
X0.4631 Y-0.7924
X0.4605 Y-0.8078
X0.4585 Y-0.8232
X0.4571 Y-0.8388
X0.4563 Y-0.8543
X0.4561 Y-0.8699
X0.4565 Y-0.8855
X0.4574 Y-0.9011
X0.459 Y-0.9166
X0.4612 Y-0.9321
X0.4639 Y-0.9475
X0.4673 Y-0.9627
X0.4712 Y-0.9779
X0.4756 Y-0.9928
X0.4807 Y-1.0076
X0.4863 Y-1.0222
X0.4925 Y-1.0365
X0.4992 Y-1.0506
X0.5064 Y-1.0645
X0.5142 Y-1.0781
X0.5225 Y-1.0913
X0.5312 Y-1.1043
X0.5405 Y-1.1168
X0.5502 Y-1.1291
X0.5604 Y-1.1409
X0.5711 Y-1.1524
X0.5821 Y-1.1634
X0.5936 Y-1.174
X0.6055 Y-1.1842
X0.6177 Y-1.1939
X0.6304 Y-1.2032
X0.6433 Y-1.2119
X0.6566 Y-1.2202
X0.6702 Y-1.2279
X0.6841 Y-1.2351
X0.6982 Y-1.2418
X0.7126 Y-1.2479
X0.7272 Y-1.2535
X0.742 Y-1.2585
X0.757 Y-1.263
X0.7721 Y-1.2669
X0.7874 Y-1.2702
X0.8028 Y-1.2729
X0.8183 Y-1.275
X0.8339 Y-1.2766
X0.8495 Y-1.2775
X0.8652 Y-1.2779
X0.8809 Y-1.2776
X0.8965 Y-1.2768
X0.9122 Y-1.2753
X0.9278 Y-1.2733
X0.9433 Y-1.2707
X0.9588 Y-1.2674
X0.9741 Y-1.2636
X0.9894 Y-1.2592
X1.0044 Y-1.2542
X1.0194 Y-1.2486
X1.0341 Y-1.2424
X1.0486 Y-1.2357
X1.0629 Y-1.2283
X1.077 Y-1.2205
X1.0908 Y-1.212
X1.1043 Y-1.2031
X1.1174 Y-1.1935
X1.1303 Y-1.1835
X1.1427 Y-1.173
X1.1548 Y-1.162
X1.1665 Y-1.1505
X1.1777 Y-1.1385
X1.1885 Y-1.1261
X1.1989 Y-1.1133
X1.2087 Y-1.1001
X1.2181 Y-1.0865
X1.2269 Y-1.0726
X1.2352 Y-1.0583
X1.2429 Y-1.0438
X1.2501 Y-1.0289
X1.2567 Y-1.0138
X1.2627 Y-0.9985
X1.2681 Y-0.983
X1.273 Y-0.9673
X1.2772 Y-0.9514
X1.2808 Y-0.9354
X1.2838 Y-0.9193
X1.2861 Y-0.9031
X1.2879 Y-0.8868
X1.289 Y-0.8706
X1.2895 Y-0.8543
X1.2894 Y-0.838
X1.2887 Y-0.8217
X1.2873 Y-0.8055
X1.2854 Y-0.7894
X1.2828 Y-0.7734
X1.2796 Y-0.7575
X1.2758 Y-0.7418
X1.2715 Y-0.7262
X1.2665 Y-0.7108
X1.261 Y-0.6956
X1.2549 Y-0.6806
X1.2482 Y-0.6659
X1.2409 Y-0.6514
X1.2332 Y-0.6373
X1.2248 Y-0.6234
X1.216 Y-0.6098
X1.2066 Y-0.5966
X1.1968 Y-0.5838
X1.1864 Y-0.5713
X1.1756 Y-0.5592
X1.1643 Y-0.5476
X1.1526 Y-0.5363
X1.1404 Y-0.5256
X1.1279 Y-0.5152
X1.1149 Y-0.5054
X1.1016 Y-0.496
X1.0878 Y-0.4872
X1.0738 Y-0.4788
X1.0594 Y-0.471
X1.0447 Y-0.4638
X1.0298 Y-0.4571
X1.0145 Y-0.4509
X0.9991 Y-0.4454
X0.9834 Y-0.4404
X0.9675 Y-0.436
X0.9514 Y-0.4323
X0.9352 Y-0.4291
X0.9189 Y-0.4266
X0.9024 Y-0.4247
X0.8859 Y-0.4234
X0.8693 Y-0.4227
X0.8527
X0.836 Y-0.4233
X0.8194 Y-0.4245
X0.8029 Y-0.4264
X0.7863 Y-0.4289
X0.7699 Y-0.432
X0.7536 Y-0.4358
X0.7375 Y-0.4401
X0.7215 Y-0.4451
X0.7056 Y-0.4508
X0.69 Y-0.457
X0.6747 Y-0.4638
X0.6595 Y-0.4712
X0.6447 Y-0.4792
X0.6302 Y-0.4877
X0.616 Y-0.4968
X0.6021 Y-0.5064
X0.5886 Y-0.5166
X0.5755 Y-0.5273
X0.5628 Y-0.5384
X0.5506 Y-0.5501
X0.5388 Y-0.5622
X0.5274 Y-0.5748
X0.5165 Y-0.5878
X0.5061 Y-0.6012
X0.4963 Y-0.615
X0.4869 Y-0.6292
X0.4782 Y-0.6437
X0.4699 Y-0.6586
X0.4623 Y-0.6738
X0.4552 Y-0.6892
X0.4487 Y-0.7049
X0.4428 Y-0.7209
X0.4375 Y-0.7371
X0.4328 Y-0.7534
X0.4288 Y-0.77
X0.4254 Y-0.7867
X0.4226 Y-0.8035
X0.4205 Y-0.8204
X0.419 Y-0.8374
X0.4182 Y-0.8544
X0.418 Y-0.8714
X0.4185 Y-0.8885
X0.4196 Y-0.9055
X0.4214 Y-0.9225
X0.4238 Y-0.9394
X0.4268 Y-0.9562
X0.4305 Y-0.9728
X0.4348 Y-0.9893
X0.4398 Y-1.0057
X0.4453 Y-1.0218
X0.4515 Y-1.0377
X0.4583 Y-1.0534
X0.4657 Y-1.0688
X0.4736 Y-1.0839
X0.4821 Y-1.0987
X0.4912 Y-1.1132
X0.5008 Y-1.1273
X0.511 Y-1.141
X0.5217 Y-1.1543
X0.5329 Y-1.1673
X0.5445 Y-1.1797
X0.5566 Y-1.1918
X0.5692 Y-1.2033
X0.5822 Y-1.2144
X0.5956 Y-1.225
X0.6095 Y-1.235
X0.6237 Y-1.2446
X0.6382 Y-1.2535
X0.6531 Y-1.262
X0.6682 Y-1.2698
X0.6837 Y-1.2771
X0.6995 Y-1.2837
X0.7154 Y-1.2898
X0.7316 Y-1.2952
X0.748 Y-1.3001
X0.7646 Y-1.3043
X0.7813 Y-1.3078
X0.7982 Y-1.3107
X0.8151 Y-1.313
X0.8322 Y-1.3147
X0.8493 Y-1.3157
X0.8664 Y-1.316
X0.8836 Y-1.3157
X0.9007 Y-1.3147
X0.9179 Y-1.3131
X0.9349 Y-1.3108
X0.9519 Y-1.3079
X0.9689 Y-1.3043
X0.9856 Y-1.3
X1.0023 Y-1.2952
X1.0188 Y-1.2896
X1.0351 Y-1.2835
X1.0512 Y-1.2767
X1.067 Y-1.2693
X1.0826 Y-1.2612
X1.098 Y-1.2526
X1.113 Y-1.2433
X1.1277 Y-1.2335
X1.142 Y-1.2231
X1.1559 Y-1.2121
X1.1695 Y-1.2006
X1.1826 Y-1.1886
X1.1952 Y-1.1761
X1.2074 Y-1.163
X1.2191 Y-1.1495
X1.2303 Y-1.1356
X1.241 Y-1.1212
X1.2511 Y-1.1064
X1.2606 Y-1.0913
X1.2696 Y-1.0758
X1.2779 Y-1.0599
X1.2857 Y-1.0438
X1.2928 Y-1.0274
X1.2993 Y-1.0107
X1.3052 Y-0.9938
X1.3104 Y-0.9767
X1.3149 Y-0.9594
X1.3188 Y-0.942
X1.322 Y-0.9245
X1.3245 Y-0.9069
X1.3264 Y-0.8892
X1.3275 Y-0.8714
X1.3281 Y-0.8537
X1.3279 Y-0.8359
X1.327 Y-0.8182
X1.3255 Y-0.8006
X1.3233 Y-0.783
X1.3205 Y-0.7655
X1.317 Y-0.7482
X1.3128 Y-0.731
X1.308 Y-0.714
X1.3025 Y-0.6972
X1.2964 Y-0.6806
X1.2897 Y-0.6643
X1.2823 Y-0.6483
X1.2744 Y-0.6325
X1.2658 Y-0.617
X1.2567 Y-0.6019
X1.247 Y-0.5872
X1.2368 Y-0.5728
X1.226 Y-0.5588
X1.2146 Y-0.5452
X1.2028 Y-0.532
X1.1904 Y-0.5193
X1.1776 Y-0.5071
X1.1643 Y-0.4954
X1.1506 Y-0.4842
X1.1364 Y-0.4734
X1.1218 Y-0.4633
X1.1068 Y-0.4537
X1.0915 Y-0.4446
X1.0758 Y-0.4362
X1.0597 Y-0.4283
X1.0434 Y-0.421
X1.0268 Y-0.4144
X1.0099 Y-0.4084
X0.9928 Y-0.403
X0.9755 Y-0.3983
X0.958 Y-0.3942
X0.9403 Y-0.3908
X0.9225 Y-0.3881
X0.9046 Y-0.3861
X0.8866 Y-0.3847
X0.8685 Y-0.3841
X0.8504
X0.8323 Y-0.3848
X0.8142 Y-0.3862
X0.7962 Y-0.3883
X0.7782 Y-0.391
X0.7604 Y-0.3945
X0.7427 Y-0.3986
X0.7251 Y-0.4034
X0.7077 Y-0.4089
X0.6905 Y-0.4151
X0.6736 Y-0.4219
X0.6569 Y-0.4293
X0.6405 Y-0.4374
X0.6244 Y-0.4461
X0.6086 Y-0.4555
X0.5932 Y-0.4654
X0.5781 Y-0.4759
X0.5635 Y-0.487
X0.5493 Y-0.4987
X0.5355 Y-0.5108
X0.5222 Y-0.5236
X0.5094 Y-0.5368
X0.4971 Y-0.5505
X0.4853 Y-0.5646
X0.4741 Y-0.5792
X0.4634 Y-0.5943
X0.4533 Y-0.6097
X0.4438 Y-0.6255
X0.4349 Y-0.6417
X0.4266 Y-0.6582
X0.419 Y-0.675
X0.4119 Y-0.6921
X0.4056 Y-0.7095
X0.3999 Y-0.7271
X0.3949 Y-0.7449
X0.3906 Y-0.7629
X0.3869 Y-0.781
X0.3839 Y-0.7993
X0.3817 Y-0.8177
X0.3801 Y-0.8361
X0.3793 Y-0.8547
X0.3791 Y-0.8732
X0.3797 Y-0.8917
X0.3809 Y-0.9102
X0.3829 Y-0.9286
X0.3856 Y-0.947
X0.3889 Y-0.9652
X0.393 Y-0.9833
X0.3978 Y-1.0012
X0.4001 Y-1.009
X0.4009 Y-1.0116
X0.4141 Y-1.0474
X0.421 Y-1.0641
X0.4285 Y-1.0805
X0.4367 Y-1.0967
X0.4455 Y-1.1127
X0.4549 Y-1.1283
X0.465 Y-1.1437
X0.4749 Y-1.1575
X0.4768 Y-1.16
G3 X0.5036 Y-1.1736 I0.0289 J0.0239
X0.5432 Y-1.1361 I0.0021 J0.0374 F300.
X0.5391 Y-1.1191 I-0.0375 J0.
G1 X0.4705 Y-0.9846
G3 X0.4053 Y-0.9818 I-0.0334 J-0.017
X0.4009 Y-1.0116 I0.0318 J-0.0198 F40.
G1 X0.4066 Y-1.0297
X0.4198 Y-1.0634
X0.4234 Y-1.0711
X0.4366 Y-1.097
X0.4427 Y-1.1083
X0.4571 Y-1.1331
X0.4628 Y-1.1419
X0.4796 Y-1.1636
X0.5043 Y-1.1927
X0.5165 Y-1.2059
X0.5292 Y-1.2188
X0.5425 Y-1.2312
X0.5563 Y-1.2431
X0.5706 Y-1.2545
X0.5853 Y-1.2654
X0.6005 Y-1.2757
X0.6161 Y-1.2855
X0.6321 Y-1.2947
X0.6484 Y-1.3033
X0.6651 Y-1.3113
X0.6821 Y-1.3186
X0.6993 Y-1.3253
X0.7168 Y-1.3313
X0.7346 Y-1.3367
X0.7525 Y-1.3414
X0.7706 Y-1.3454
X0.7889 Y-1.3487
X0.8073 Y-1.3513
X0.8258 Y-1.3532
X0.8444 Y-1.3545
X0.863 Y-1.355
X0.8817 Y-1.3547
X0.9004 Y-1.3538
X0.919 Y-1.3522
X0.9376 Y-1.3499
X0.9561 Y-1.3468
X0.9745 Y-1.343
X0.9928 Y-1.3386
X1.011 Y-1.3334
X1.0289 Y-1.3275
X1.0467 Y-1.321
X1.0642 Y-1.3137
X1.0729 Y-1.3097
X1.0749 Y-1.3087
X1.1139 Y-1.2875
X1.1296 Y-1.2783
X1.1421 Y-1.2702
X1.145 Y-1.2682
G3 X1.1597 Y-1.2421 I-0.0226 J0.03
X1.1037 Y-1.2058 I-0.0373 J0.0038 F300.
G1 X1.0411 Y-1.2419
G3 X1.0448 Y-1.3088 I0.0187 J-0.0325
X1.0749 Y-1.3087 I0.015 J0.0344 F40.
G1 X1.0974 Y-1.2979
X1.1086 Y-1.2918
X1.1198 Y-1.2851
X1.1311 Y-1.2778
X1.1423 Y-1.2701
X1.1492 Y-1.2653
X1.1652 Y-1.2541
X1.176 Y-1.2463
X1.2097 Y-1.215
X1.2157 Y-1.2092
X1.2265 Y-1.198
X1.2321 Y-1.1921
X1.2454 Y-1.1756
X1.2546 Y-1.1636
X1.2713 Y-1.1419
X1.2771 Y-1.1331
X1.2914 Y-1.1083
X1.2976 Y-1.097
X1.3108 Y-1.0711
X1.3144 Y-1.0634
X1.3275 Y-1.0297
X1.3381 Y-0.9961
X1.3408 Y-0.9849
X1.346 Y-0.9624
X1.348 Y-0.9512
X1.3514 Y-0.9288
X1.3528 Y-0.9176
X1.3557 Y-0.8781
X1.3559 Y-0.8727
Y-0.8615
X1.3557 Y-0.8561
X1.3528 Y-0.8166
X1.3514 Y-0.8054
X1.348 Y-0.783
X1.346 Y-0.7717
X1.3408 Y-0.7493
X1.3381 Y-0.7381
X1.3275 Y-0.7044
X1.3144 Y-0.6708
X1.3108 Y-0.6631
X1.2976 Y-0.6371
X1.2914 Y-0.6259
X1.2771 Y-0.6011
X1.2713 Y-0.5923
X1.2541 Y-0.5698
X1.2454 Y-0.5586
X1.2321 Y-0.5421
X1.2265 Y-0.5362
X1.2157 Y-0.525
X1.2097 Y-0.5192
X1.176 Y-0.4879
X1.1648 Y-0.4798
X1.1423 Y-0.464
X1.1311 Y-0.4563
X1.1198 Y-0.449
X1.1086 Y-0.4424
X1.0974 Y-0.4363
X1.0637 Y-0.42
X1.0524 Y-0.4147
X1.03 Y-0.4066
X0.9963 Y-0.3962
X0.985 Y-0.3934
X0.9626 Y-0.3883
X0.9513 Y-0.3862
X0.9289 Y-0.3828
X0.9176 Y-0.3814
X0.8868 Y-0.3791
X0.8839 Y-0.379
X0.8502
X0.8474 Y-0.3791
X0.8165 Y-0.3814
X0.8053 Y-0.3828
X0.7828 Y-0.3862
X0.7716 Y-0.3883
X0.7491 Y-0.3934
X0.7379 Y-0.3962
X0.7042 Y-0.4066
X0.6817 Y-0.4147
X0.6705 Y-0.42
X0.6368 Y-0.4363
X0.6256 Y-0.4424
X0.6144 Y-0.449
X0.6031 Y-0.4563
X0.5919 Y-0.4641
X0.569 Y-0.4801
X0.5582 Y-0.4879
X0.5245 Y-0.5192
X0.5184 Y-0.525
X0.5076 Y-0.5362
X0.502 Y-0.5421
X0.4888 Y-0.5586
X0.4796 Y-0.5705
X0.4628 Y-0.5923
X0.4571 Y-0.6011
X0.4427 Y-0.6259
X0.4366 Y-0.6371
X0.4234 Y-0.6631
X0.4198 Y-0.6708
X0.4066 Y-0.7044
X0.3961 Y-0.7381
X0.3933 Y-0.7493
X0.3882 Y-0.7717
X0.3862 Y-0.783
X0.3828 Y-0.8054
X0.3814 Y-0.8166
X0.3785 Y-0.8561
X0.3782 Y-0.8615
Y-0.8727
X0.3785 Y-0.8781
X0.3814 Y-0.9176
X0.3828 Y-0.9288
X0.3862 Y-0.9512
X0.3882 Y-0.9624
X0.3933 Y-0.9849
X0.3961 Y-0.9961
X0.4001 Y-1.009
X0.4011 Y-1.0114
X0.4021 Y-1.0137
X0.4139 Y-1.0366
X0.4651 Y-1.1363 F300.
X0.4767 Y-1.1589 F40.
X0.478 Y-1.1613
X0.4796 Y-1.1636
X0.4888 Y-1.1756
X0.502 Y-1.1921
X0.5076 Y-1.198
X0.5185 Y-1.2092
X0.5245 Y-1.215
X0.5582 Y-1.2463
X0.5694 Y-1.2544
X0.5919 Y-1.2701
X0.6031 Y-1.2778
X0.6144 Y-1.2851
X0.6256 Y-1.2918
X0.6368 Y-1.2979
X0.6705 Y-1.3141
X0.6817 Y-1.3194
X0.7042 Y-1.3276
X0.7379 Y-1.338
X0.7491 Y-1.3408
X0.7716 Y-1.3459
X0.7828 Y-1.348
X0.8053 Y-1.3514
X0.8165 Y-1.3528
X0.8474 Y-1.355
X0.8502 Y-1.3552
X0.8839
X0.8868 Y-1.355
X0.9176 Y-1.3528
X0.9289 Y-1.3514
X0.9513 Y-1.348
X0.9626 Y-1.3459
X0.985 Y-1.3408
X0.9963 Y-1.338
X1.03 Y-1.3276
X1.0524 Y-1.3194
X1.0637 Y-1.3141
X1.0729 Y-1.3097
X1.0759 Y-1.3075 Z0.6622
X1.0788 Y-1.3054 Z0.6629
X1.0817 Y-1.3033 Z0.664
X1.084 Y-1.3002 Z0.6658
X1.0862 Y-1.2974 Z0.6681
X1.0882 Y-1.2948 Z0.6709
X1.0892 Y-1.2923 Z0.6739
X1.0901 Y-1.2901 Z0.6773
X1.0908 Y-1.2884 Z0.681
X1.0913 Y-1.2872 Z0.6848
X1.0916 Y-1.2865 Z0.6889
X1.0917 Y-1.2862 Z0.6929
G0 Z0.762
X1.0275 Y-0.7684
G3 X0.7271 Y-0.7411 Z0.7314 I-0.1604 J-0.0987 F40.
X0.7857 Y-1.0361 Z0.7008 I0.1396 J-0.1256
X1.0513 Y-0.8969 Z0.6702 I0.0808 J0.1689
X0.8433 Y-0.6821 Z0.6396 I-0.1843 J0.0297
X0.6965 Y-0.9416 Z0.609 I0.0236 J-0.1847
X0.9861 Y-1.0089 Z0.5784 I0.17 J0.0746
X0.9688 Y-0.713 Z0.5478 I-0.1193 J0.1416
X0.6906 Y-0.8129 Z0.5172 I-0.1018 J-0.154
X0.8646 Y-1.0508 Z0.4866 I0.176 J-0.0539
X1.0431 Y-0.8174 Z0.456 I0.002 J0.1835
X0.7695 Y-0.7124 Z0.4254 I-0.1761 J-0.0498
X0.7462 Y-1.0037 Z0.3948 I0.0973 J-0.1543
X1.0314 Y-0.9438 Z0.3642 I0.1202 J0.1365
X0.8938 Y-0.688 Z0.3336 I-0.1645 J0.0765
X0.6879 Y-0.8917 Z0.303 I-0.0268 J-0.1788
X0.9407 Y-1.0312 Z0.2724 I0.1786 J0.0248
X1.0029 Y-0.7501 Z0.2418 I-0.074 J0.1638
X0.7165 Y-0.7698 Z0.2112 I-0.1358 J-0.117
X0.8161 Y-1.0382 Z0.1806 I0.1501 J-0.0969
X1.0447 Y-0.8673 Z0.15 I0.0504 J0.1709
X0.6883 I-0.1782 J0.
X1.0447 I0.1782 J0.
G1 X1.0453 Y-0.8229
X1.0461 Y-0.8174
X1.0465 Y-0.8114
X1.0463 Y-0.8054
X1.0458 Y-0.7994
X1.0449 Y-0.7935
X1.0437 Y-0.7876
X1.0421 Y-0.7818
X1.0403 Y-0.7761
X1.0383 Y-0.7705
X1.0359 Y-0.7649
X1.0334 Y-0.7595
X1.0306 Y-0.7542
X1.0276 Y-0.749
X1.0244 Y-0.7438
X1.0209 Y-0.7387
X1.0172 Y-0.7336
X1.0132 Y-0.7286
X1.0089 Y-0.7236
X1.0044 Y-0.7188
X0.9996 Y-0.714
X0.9945 Y-0.7093
X0.9893 Y-0.7048
X0.9838 Y-0.7005
X0.9781 Y-0.6963
X0.9721 Y-0.6923
X0.966 Y-0.6885
X0.9597 Y-0.6849
X0.9532 Y-0.6815
X0.9465 Y-0.6784
X0.9397 Y-0.6755
X0.9327 Y-0.6728
X0.9256 Y-0.6704
X0.9184 Y-0.6683
X0.911 Y-0.6664
X0.9036 Y-0.6648
X0.8961 Y-0.6635
X0.8885 Y-0.6625
X0.8809 Y-0.6617
X0.8732 Y-0.6613
X0.8655 Y-0.6611
X0.8578 Y-0.6612
X0.8501 Y-0.6617
X0.8424 Y-0.6624
X0.8347 Y-0.6634
X0.827 Y-0.6647
X0.8194 Y-0.6663
X0.8119 Y-0.6682
X0.8044 Y-0.6704
X0.797 Y-0.6728
X0.7897 Y-0.6756
X0.7825 Y-0.6786
X0.7754 Y-0.6819
X0.7684 Y-0.6855
X0.7616 Y-0.6893
X0.7549 Y-0.6934
X0.7484 Y-0.6978
X0.742 Y-0.7024
X0.7359 Y-0.7072
X0.7299 Y-0.7123
X0.7241 Y-0.7176
X0.7185 Y-0.7231
X0.7131 Y-0.7288
X0.7079 Y-0.7347
X0.703 Y-0.7408
X0.6983 Y-0.7471
X0.6939 Y-0.7536
X0.6897 Y-0.7603
X0.6857 Y-0.7671
X0.682 Y-0.774
X0.6786 Y-0.7811
X0.6755 Y-0.7883
X0.6726 Y-0.7956
X0.67 Y-0.8031
X0.6677 Y-0.8106
X0.6657 Y-0.8182
X0.664 Y-0.8259
X0.6626 Y-0.8336
X0.6614 Y-0.8414
X0.6606 Y-0.8492
X0.6601 Y-0.8571
X0.6598 Y-0.865
X0.6599 Y-0.8728
X0.6602 Y-0.8807
X0.6609 Y-0.8885
X0.6619 Y-0.8964
X0.6631 Y-0.9041
X0.6647 Y-0.9118
X0.6665 Y-0.9195
X0.6686 Y-0.9271
X0.6711 Y-0.9346
X0.6738 Y-0.942
X0.6768 Y-0.9492
X0.68 Y-0.9564
X0.6835 Y-0.9635
X0.6873 Y-0.9704
X0.6914 Y-0.9771
X0.6957 Y-0.9837
X0.7003 Y-0.9901
X0.7051 Y-0.9964
X0.7101 Y-1.0024
X0.7154 Y-1.0083
X0.7208 Y-1.0139
X0.7265 Y-1.0194
X0.7324 Y-1.0246
X0.7385 Y-1.0296
X0.7448 Y-1.0343
X0.7512 Y-1.0388
X0.7579 Y-1.0431
X0.7646 Y-1.0471
X0.7716 Y-1.0509
X0.7786 Y-1.0543
X0.7858 Y-1.0576
X0.7931 Y-1.0605
X0.8005 Y-1.0632
X0.808 Y-1.0655
X0.8156 Y-1.0676
X0.8233 Y-1.0694
X0.831 Y-1.0709
X0.8388 Y-1.0721
X0.8466 Y-1.073
X0.8545 Y-1.0736
X0.8624 Y-1.0739
X0.8702
X0.8781 Y-1.0736
X0.886 Y-1.073
X0.8938 Y-1.0722
X0.9016 Y-1.071
X0.9093 Y-1.0695
X0.917 Y-1.0677
X0.9246 Y-1.0656
X0.9321 Y-1.0633
X0.9395 Y-1.0606
X0.9468 Y-1.0577
X0.954 Y-1.0545
X0.9611 Y-1.0511
X0.968 Y-1.0473
X0.9748 Y-1.0433
X0.9814 Y-1.0391
X0.9879 Y-1.0346
X0.9942 Y-1.0298
X1.0003 Y-1.0248
X1.0062 Y-1.0196
X1.0119 Y-1.0142
X1.0174 Y-1.0086
X1.0226 Y-1.0027
X1.0277 Y-0.9967
X1.0325 Y-0.9904
X1.0371 Y-0.984
X1.0414 Y-0.9774
X1.0455 Y-0.9707
X1.0493 Y-0.9638
X1.0528 Y-0.9568
X1.0561 Y-0.9496
X1.0591 Y-0.9423
X1.0622 Y-0.9339
X1.0655 Y-0.9236
X1.0702 Y-0.9072
X1.0735 Y-0.8937
X1.0758 Y-0.8821
X1.0775 Y-0.8717
X1.0787 Y-0.862
X1.0795 Y-0.853
X1.0799 Y-0.8443
X1.08 Y-0.836
X1.0798 Y-0.828
X1.0793 Y-0.8201
X1.0785 Y-0.8124
X1.0774 Y-0.8048
X1.076 Y-0.7974
X1.0744 Y-0.79
X1.0725 Y-0.7828
X1.0703 Y-0.7756
X1.0678 Y-0.7685
X1.0651 Y-0.7615
X1.0621 Y-0.7546
X1.0588 Y-0.7478
X1.0553 Y-0.7411
X1.0515 Y-0.7345
X1.0474 Y-0.728
X1.043 Y-0.7216
X1.0384 Y-0.7153
X1.0335 Y-0.7092
X1.0283 Y-0.7032
X1.0229 Y-0.6974
X1.0172 Y-0.6918
X1.0113 Y-0.6864
X1.0051 Y-0.6811
X0.9987 Y-0.6761
X0.9921 Y-0.6713
X0.9852 Y-0.6667
X0.9781 Y-0.6623
X0.9709 Y-0.6582
X0.9634 Y-0.6544
X0.9558 Y-0.6508
X0.948 Y-0.6475
X0.94 Y-0.6445
X0.9319 Y-0.6418
X0.9237 Y-0.6394
X0.9154 Y-0.6373
X0.9069 Y-0.6355
X0.8984 Y-0.634
X0.8898 Y-0.6329
X0.8811 Y-0.632
X0.8724 Y-0.6315
X0.8637 Y-0.6314
X0.8549 Y-0.6315
X0.8461 Y-0.6321
X0.8374 Y-0.6329
X0.8286 Y-0.6341
X0.8199 Y-0.6356
X0.8112 Y-0.6374
X0.8026 Y-0.6396
X0.7941 Y-0.6421
X0.7857 Y-0.6449
X0.7774 Y-0.6481
X0.7691 Y-0.6516
X0.7611 Y-0.6554
X0.7531 Y-0.6595
X0.7453 Y-0.6639
X0.7377 Y-0.6686
X0.7303 Y-0.6736
X0.723 Y-0.6788
X0.716 Y-0.6844
X0.7092 Y-0.6902
X0.7026 Y-0.6963
X0.6962 Y-0.7026
X0.69 Y-0.7092
X0.6842 Y-0.716
X0.6785 Y-0.723
X0.6732 Y-0.7302
X0.6681 Y-0.7377
X0.6633 Y-0.7453
X0.6588 Y-0.7531
X0.6546 Y-0.761
X0.6507 Y-0.7692
X0.6472 Y-0.7774
X0.6439 Y-0.7858
X0.641 Y-0.7944
X0.6383 Y-0.803
X0.6361 Y-0.8117
X0.6341 Y-0.8205
X0.6325 Y-0.8294
X0.6312 Y-0.8383
X0.6303 Y-0.8473
X0.6297 Y-0.8563
X0.6295 Y-0.8653
Y-0.8744
X0.63 Y-0.8834
X0.6308 Y-0.8924
X0.6319 Y-0.9013
X0.6334 Y-0.9102
X0.6352 Y-0.9191
X0.6373 Y-0.9278
X0.6398 Y-0.9365
X0.6426 Y-0.9451
X0.6457 Y-0.9536
X0.6491 Y-0.9619
X0.6529 Y-0.9701
X0.657 Y-0.9782
X0.6614 Y-0.9861
X0.666 Y-0.9938
X0.671 Y-1.0013
X0.6762 Y-1.0087
X0.6818 Y-1.0158
X0.6876 Y-1.0228
X0.6936 Y-1.0295
X0.6999 Y-1.0359
X0.7065 Y-1.0422
X0.7132 Y-1.0481
X0.7202 Y-1.0538
X0.7274 Y-1.0593
X0.7349 Y-1.0644
X0.7425 Y-1.0693
X0.7502 Y-1.0739
X0.7582 Y-1.0781
X0.7663 Y-1.0821
X0.7746 Y-1.0858
X0.783 Y-1.0891
X0.7915 Y-1.0921
X0.8001 Y-1.0948
X0.8088 Y-1.0972
X0.8176 Y-1.0992
X0.8265 Y-1.1009
X0.8354 Y-1.1023
X0.8444 Y-1.1033
X0.8534 Y-1.104
X0.8624 Y-1.1043
X0.8714
X0.8805 Y-1.1039
X0.8895 Y-1.1032
X0.8984 Y-1.1022
X0.9074 Y-1.1008
X0.9162 Y-1.0991
X0.925 Y-1.097
X0.9337 Y-1.0946
X0.9423 Y-1.0919
X0.9508 Y-1.0888
X0.9592 Y-1.0854
X0.9675 Y-1.0818
X0.9756 Y-1.0778
X0.9835 Y-1.0734
X0.9913 Y-1.0688
X0.9988 Y-1.0639
X1.0062 Y-1.0588
X1.0134 Y-1.0533
X1.0204 Y-1.0476
X1.0272 Y-1.0416
X1.0337 Y-1.0353
X1.04 Y-1.0288
X1.046 Y-1.0221
X1.0518 Y-1.0151
X1.0574 Y-1.0079
X1.0628 Y-1.0001
X1.0686 Y-0.9914
X1.0741 Y-0.9822
X1.0794 Y-0.9725
X1.0845 Y-0.9624
X1.0892 Y-0.952
X1.0935 Y-0.9415
X1.0973 Y-0.931
X1.1007 Y-0.9206
X1.1036 Y-0.9102
X1.106 Y-0.9
X1.1081 Y-0.8898
X1.1097 Y-0.8798
X1.1109 Y-0.8699
X1.1117 Y-0.8601
X1.1121 Y-0.8504
X1.1122 Y-0.8408
X1.1119 Y-0.8313
X1.1113 Y-0.8219
X1.1103 Y-0.8126
X1.1089 Y-0.8035
X1.1073 Y-0.7945
X1.1052 Y-0.7855
X1.1029 Y-0.7767
X1.1002 Y-0.768
X1.0972 Y-0.7595
X1.0939 Y-0.751
X1.0903 Y-0.7427
X1.0863 Y-0.7345
X1.0821 Y-0.7265
X1.0775 Y-0.7186
X1.0726 Y-0.7109
X1.0675 Y-0.7034
X1.062 Y-0.6961
X1.0562 Y-0.6889
X1.0501 Y-0.6819
X1.0438 Y-0.6752
X1.0372 Y-0.6687
X1.0303 Y-0.6624
X1.0232 Y-0.6564
X1.0157 Y-0.6506
X1.0081 Y-0.6451
X1.0002 Y-0.6398
X0.9921 Y-0.6348
X0.9838 Y-0.6302
X0.9753 Y-0.6258
X0.9666 Y-0.6218
X0.9577 Y-0.618
X0.9486 Y-0.6147
X0.9394 Y-0.6116
X0.9301 Y-0.6089
X0.9206 Y-0.6065
X0.911 Y-0.6045
X0.9013 Y-0.6029
X0.8916 Y-0.6016
X0.8818 Y-0.6007
X0.8719 Y-0.6002
X0.862 Y-0.6
X0.852 Y-0.6002
X0.8421 Y-0.6008
X0.8322 Y-0.6018
X0.8223 Y-0.6032
X0.8124 Y-0.6049
X0.8026 Y-0.607
X0.7929 Y-0.6095
X0.7833 Y-0.6124
X0.7737 Y-0.6156
X0.7643 Y-0.6192
X0.755 Y-0.6232
X0.7459 Y-0.6275
X0.7369 Y-0.6321
X0.7281 Y-0.6371
X0.7195 Y-0.6425
X0.7111 Y-0.6482
X0.7029 Y-0.6542
X0.695 Y-0.6605
X0.6873 Y-0.6671
X0.6798 Y-0.674
X0.6726 Y-0.6812
X0.6657 Y-0.6886
X0.659 Y-0.6963
X0.6527 Y-0.7043
X0.6466 Y-0.7125
X0.6409 Y-0.721
X0.6355 Y-0.7296
X0.6304 Y-0.7385
X0.6257 Y-0.7475
X0.6213 Y-0.7568
X0.6173 Y-0.7661
X0.6136 Y-0.7757
X0.6103 Y-0.7854
X0.6074 Y-0.7951
X0.6048 Y-0.805
X0.6026 Y-0.815
X0.6008 Y-0.8251
X0.5994 Y-0.8352
X0.5984 Y-0.8454
X0.5977 Y-0.8556
X0.5975 Y-0.8659
X0.5976 Y-0.8761
X0.5981 Y-0.8863
X0.599 Y-0.8965
X0.6004 Y-0.9067
X0.602 Y-0.9168
X0.6041 Y-0.9268
X0.6066 Y-0.9368
X0.6094 Y-0.9466
X0.6126 Y-0.9563
X0.6162 Y-0.9659
X0.6201 Y-0.9754
X0.6244 Y-0.9847
X0.6291 Y-0.9938
X0.634 Y-1.0028
X0.6394 Y-1.0115
X0.645 Y-1.0201
X0.651 Y-1.0284
X0.6573 Y-1.0365
X0.6639 Y-1.0443
X0.6708 Y-1.0519
X0.678 Y-1.0592
X0.6854 Y-1.0663
X0.6931 Y-1.073
X0.7011 Y-1.0795
X0.7093 Y-1.0856
X0.7177 Y-1.0915
X0.7264 Y-1.097
X0.7352 Y-1.1021
X0.7442 Y-1.107
X0.7535 Y-1.1115
X0.7628 Y-1.1156
X0.7724 Y-1.1193
X0.7821 Y-1.1227
X0.7918 Y-1.1258
X0.8017 Y-1.1284
X0.8117 Y-1.1307
X0.8218 Y-1.1326
X0.8319 Y-1.1341
X0.8421 Y-1.1352
X0.8524 Y-1.136
X0.8626 Y-1.1363
X0.8729
X0.8831 Y-1.1358
X0.8933 Y-1.135
X0.9035 Y-1.1338
X0.9136 Y-1.1322
X0.9237 Y-1.1302
X0.9336 Y-1.1278
X0.9435 Y-1.1251
X0.9533 Y-1.122
X0.9629 Y-1.1185
X0.9724 Y-1.1146
X0.9818 Y-1.1104
X0.9909 Y-1.1058
X0.9999 Y-1.1009
X1.0087 Y-1.0957
X1.0173 Y-1.0901
X1.0257 Y-1.0842
X1.0339 Y-1.0779
X1.042 Y-1.0712
X1.0499 Y-1.0642
X1.0577 Y-1.0567
X1.0652 Y-1.0489
X1.0726 Y-1.0406
X1.0798 Y-1.0319
X1.0867 Y-1.0228
X1.0934 Y-1.0134
X1.0997 Y-1.0036
X1.1057 Y-0.9935
X1.1113 Y-0.9833
X1.1165 Y-0.9728
X1.1213 Y-0.9621
X1.1257 Y-0.9514
X1.1296 Y-0.9405
X1.1331 Y-0.9296
X1.1361 Y-0.9186
X1.1388 Y-0.9076
X1.1409 Y-0.8966
X1.1427 Y-0.8855
X1.144 Y-0.8746
X1.1449 Y-0.8636
X1.1453 Y-0.8527
X1.1454 Y-0.8419
X1.145 Y-0.8311
X1.1442 Y-0.8205
X1.1431 Y-0.8099
X1.1415 Y-0.7994
X1.1395 Y-0.789
X1.1372 Y-0.7787
X1.1345 Y-0.7685
X1.1314 Y-0.7585
X1.1279 Y-0.7486
X1.124 Y-0.7388
X1.1198 Y-0.7293
X1.1152 Y-0.7198
X1.1103 Y-0.7106
X1.105 Y-0.7015
X1.0993 Y-0.6927
X1.0933 Y-0.684
X1.087 Y-0.6756
X1.0804 Y-0.6674
X1.0734 Y-0.6595
X1.0661 Y-0.6518
X1.0585 Y-0.6443
X1.0507 Y-0.6372
X1.0425 Y-0.6303
X1.0341 Y-0.6238
X1.0253 Y-0.6175
X1.0164 Y-0.6116
X1.0072 Y-0.606
X0.9977 Y-0.6007
X0.9881 Y-0.5958
X0.9782 Y-0.5913
X0.9681 Y-0.5871
X0.9579 Y-0.5833
X0.9475 Y-0.5798
X0.937 Y-0.5768
X0.9263 Y-0.5742
X0.9155 Y-0.572
X0.9046 Y-0.5701
X0.8936 Y-0.5687
X0.8826 Y-0.5677
X0.8715 Y-0.5672
X0.8603 Y-0.567
X0.8492 Y-0.5673
X0.838 Y-0.568
X0.8268 Y-0.5691
X0.8157 Y-0.5707
X0.8047 Y-0.5727
X0.7937 Y-0.5751
X0.7827 Y-0.5779
X0.7719 Y-0.5812
X0.7612 Y-0.5848
X0.7507 Y-0.5889
X0.7403 Y-0.5934
X0.73 Y-0.5983
X0.72 Y-0.6035
X0.7101 Y-0.6092
X0.7004 Y-0.6152
X0.691 Y-0.6216
X0.6818 Y-0.6284
X0.6729 Y-0.6355
X0.6643 Y-0.6429
X0.6559 Y-0.6507
X0.6478 Y-0.6588
X0.6401 Y-0.6672
X0.6326 Y-0.6759
X0.6255 Y-0.6849
X0.6188 Y-0.6941
X0.6124 Y-0.7036
X0.6063 Y-0.7133
X0.6006 Y-0.7233
X0.5954 Y-0.7335
X0.5905 Y-0.7439
X0.586 Y-0.7544
X0.5819 Y-0.7652
X0.5782 Y-0.7761
X0.5749 Y-0.7871
X0.572 Y-0.7982
X0.5696 Y-0.8094
X0.5676 Y-0.8208
X0.5661 Y-0.8322
X0.5649 Y-0.8436
X0.5643 Y-0.8551
X0.564 Y-0.8666
X0.5642 Y-0.8781
X0.5648 Y-0.8896
X0.5659 Y-0.901
X0.5674 Y-0.9125
X0.5693 Y-0.9238
X0.5717 Y-0.9351
X0.5745 Y-0.9463
X0.5777 Y-0.9573
X0.5813 Y-0.9682
X0.5854 Y-0.979
X0.5898 Y-0.9896
X0.5947 Y-1.0001
X0.5999 Y-1.0103
X0.6056 Y-1.0204
X0.6116 Y-1.0302
X0.618 Y-1.0398
X0.6247 Y-1.0491
X0.6318 Y-1.0582
X0.6392 Y-1.067
X0.647 Y-1.0755
X0.6551 Y-1.0837
X0.6635 Y-1.0916
X0.6722 Y-1.0992
X0.6812 Y-1.1064
X0.6904 Y-1.1133
X0.6999 Y-1.1198
X0.7096 Y-1.126
X0.7196 Y-1.1318
X0.7298 Y-1.1372
X0.7402 Y-1.1422
X0.7507 Y-1.1468
X0.7615 Y-1.151
X0.7723 Y-1.1548
X0.7834 Y-1.1582
X0.7945 Y-1.1611
X0.8057 Y-1.1637
X0.8171 Y-1.1658
X0.8285 Y-1.1674
X0.8399 Y-1.1687
X0.8514 Y-1.1695
X0.863 Y-1.1698
X0.8745 Y-1.1697
X0.886 Y-1.1692
X0.8975 Y-1.1682
X0.9089 Y-1.1668
X0.9203 Y-1.165
X0.9316 Y-1.1627
X0.9428 Y-1.16
X0.9539 Y-1.1569
X0.9649 Y-1.1534
X0.9757 Y-1.1494
X0.9864 Y-1.1451
X0.9969 Y-1.1403
X1.0073 Y-1.1351
X1.0175 Y-1.1295
X1.0276 Y-1.1234
X1.0375 Y-1.117
X1.0472 Y-1.1101
X1.0567 Y-1.1028
X1.066 Y-1.095
X1.0751 Y-1.0869
X1.084 Y-1.0783
X1.0925 Y-1.0693
X1.1008 Y-1.06
X1.1088 Y-1.0503
X1.1164 Y-1.0402
X1.1237 Y-1.0299
X1.1305 Y-1.0193
X1.137 Y-1.0084
X1.143 Y-0.9972
X1.1486 Y-0.9859
X1.1538 Y-0.9744
X1.1585 Y-0.9627
X1.1627 Y-0.9509
X1.1665 Y-0.9389
X1.1698 Y-0.9269
X1.1726 Y-0.9148
X1.175 Y-0.9027
X1.1768 Y-0.8905
X1.1783 Y-0.8783
X1.1792 Y-0.8661
X1.1797 Y-0.854
Y-0.8419
X1.1793 Y-0.8298
X1.1784 Y-0.8178
X1.177 Y-0.8058
X1.1752 Y-0.794
X1.173 Y-0.7823
X1.1703 Y-0.7706
X1.1672 Y-0.7591
X1.1636 Y-0.7478
X1.1596 Y-0.7366
X1.1552 Y-0.7255
X1.1504 Y-0.7147
X1.1452 Y-0.704
X1.1396 Y-0.6936
X1.1335 Y-0.6833
X1.1271 Y-0.6733
X1.1203 Y-0.6636
X1.1132 Y-0.6541
X1.1056 Y-0.6448
X1.0977 Y-0.6359
X1.0895 Y-0.6272
X1.0809 Y-0.6189
X1.072 Y-0.6108
X1.0628 Y-0.6031
X1.0533 Y-0.5958
X1.0435 Y-0.5888
X1.0334 Y-0.5821
X1.023 Y-0.5759
X1.0124 Y-0.57
X1.0015 Y-0.5645
X0.9905 Y-0.5595
X0.9792 Y-0.5548
X0.9677 Y-0.5506
X0.9561 Y-0.5468
X0.9443 Y-0.5434
X0.9323 Y-0.5405
X0.9202 Y-0.538
X0.908 Y-0.536
X0.8958 Y-0.5345
X0.8834 Y-0.5334
X0.871 Y-0.5328
X0.8586 Y-0.5327
X0.8461 Y-0.5331
X0.8336 Y-0.5339
X0.8212 Y-0.5352
X0.8088 Y-0.5369
X0.7965 Y-0.5392
X0.7842 Y-0.5419
X0.7721 Y-0.5451
X0.76 Y-0.5488
X0.7481 Y-0.5529
X0.7363 Y-0.5574
X0.7248 Y-0.5625
X0.7134 Y-0.5679
X0.7022 Y-0.5738
X0.6912 Y-0.5802
X0.6804 Y-0.5869
X0.67 Y-0.5941
X0.6598 Y-0.6016
X0.6498 Y-0.6096
X0.6402 Y-0.6179
X0.6309 Y-0.6266
X0.622 Y-0.6356
X0.6133 Y-0.645
X0.6051 Y-0.6547
X0.5972 Y-0.6648
X0.5897 Y-0.6751
X0.5826 Y-0.6857
X0.5759 Y-0.6966
X0.5696 Y-0.7077
X0.5637 Y-0.7191
X0.5583 Y-0.7306
X0.5533 Y-0.7424
X0.5488 Y-0.7544
X0.5447 Y-0.7665
X0.5411 Y-0.7788
X0.5379 Y-0.7912
X0.5353 Y-0.8038
X0.5331 Y-0.8164
X0.5314 Y-0.8291
X0.5302 Y-0.8419
X0.5294 Y-0.8547
X0.5292 Y-0.8675
X0.5294 Y-0.8803
X0.5301 Y-0.8931
X0.5314 Y-0.9059
X0.5331 Y-0.9186
X0.5353 Y-0.9313
X0.5379 Y-0.9438
X0.5411 Y-0.9563
X0.5447 Y-0.9686
X0.5488 Y-0.9808
X0.5533 Y-0.9928
X0.5583 Y-1.0046
X0.5638 Y-1.0163
X0.5697 Y-1.0277
X0.576 Y-1.0389
X0.5827 Y-1.0498
X0.5899 Y-1.0605
X0.5974 Y-1.0709
X0.6054 Y-1.081
X0.6137 Y-1.0907
X0.6224 Y-1.1002
X0.6314 Y-1.1093
X0.6408 Y-1.1181
X0.6505 Y-1.1265
X0.6606 Y-1.1346
X0.6709 Y-1.1422
X0.6815 Y-1.1495
X0.6924 Y-1.1563
X0.7035 Y-1.1627
X0.7149 Y-1.1687
X0.7265 Y-1.1743
X0.7383 Y-1.1794
X0.7502 Y-1.184
X0.7624 Y-1.1882
X0.7747 Y-1.192
X0.7871 Y-1.1952
X0.7997 Y-1.198
X0.8123 Y-1.2003
X0.825 Y-1.2021
X0.8378 Y-1.2035
X0.8507 Y-1.2043
X0.8635 Y-1.2047
X0.8764 Y-1.2046
X0.8892 Y-1.2039
X0.902 Y-1.2028
X0.9148 Y-1.2012
X0.9274 Y-1.1992
X0.9401 Y-1.1966
X0.9526 Y-1.1935
X0.965 Y-1.19
X0.9773 Y-1.186
X0.9894 Y-1.1815
X1.0015 Y-1.1766
X1.0134 Y-1.1711
X1.0251 Y-1.1652
X1.0366 Y-1.1588
X1.0479 Y-1.152
X1.0591 Y-1.1447
X1.07 Y-1.1369
X1.0806 Y-1.1287
X1.091 Y-1.12
X1.1011 Y-1.1109
X1.1109 Y-1.1014
X1.1203 Y-1.0914
X1.1294 Y-1.0811
X1.1381 Y-1.0705
X1.1464 Y-1.0594
X1.1543 Y-1.0481
X1.1618 Y-1.0364
X1.1688 Y-1.0245
X1.1754 Y-1.0123
X1.1815 Y-0.9999
X1.1871 Y-0.9872
X1.1922 Y-0.9744
X1.1968 Y-0.9615
X1.2009 Y-0.9483
X1.2045 Y-0.9351
X1.2076 Y-0.9218
X1.2102 Y-0.9084
X1.2122 Y-0.8949
X1.2137 Y-0.8814
X1.2148 Y-0.868
X1.2153 Y-0.8545
X1.2152 Y-0.841
X1.2147 Y-0.8276
X1.2137 Y-0.8142
X1.2121 Y-0.8009
X1.2101 Y-0.7877
X1.2075 Y-0.7746
X1.2045 Y-0.7616
X1.201 Y-0.7488
X1.197 Y-0.7361
X1.1925 Y-0.7236
X1.1875 Y-0.7113
X1.1821 Y-0.6992
X1.1762 Y-0.6873
X1.1699 Y-0.6756
X1.1631 Y-0.6642
X1.1559 Y-0.653
X1.1483 Y-0.6421
X1.1403 Y-0.6315
X1.1318 Y-0.6212
X1.123 Y-0.6112
X1.1138 Y-0.6016
X1.1042 Y-0.5923
X1.0942 Y-0.5834
X1.0839 Y-0.5748
X1.0733 Y-0.5666
X1.0623 Y-0.5589
X1.0511 Y-0.5515
X1.0395 Y-0.5446
X1.0277 Y-0.5381
X1.0156 Y-0.532
X1.0033 Y-0.5264
X0.9907 Y-0.5213
X0.9779 Y-0.5166
X0.965 Y-0.5124
X0.9519 Y-0.5087
X0.9386 Y-0.5055
X0.9252 Y-0.5028
X0.9116 Y-0.5006
X0.898 Y-0.499
X0.8843 Y-0.4978
X0.8706 Y-0.4972
X0.8568 Y-0.4971
X0.843 Y-0.4975
X0.8292 Y-0.4985
X0.8154 Y-0.4999
X0.8017 Y-0.5019
X0.788 Y-0.5045
X0.7745 Y-0.5075
X0.761 Y-0.5111
X0.7477 Y-0.5152
X0.7345 Y-0.5198
X0.7215 Y-0.5249
X0.7087 Y-0.5305
X0.6961 Y-0.5365
X0.6837 Y-0.5431
X0.6716 Y-0.5501
X0.6597 Y-0.5576
X0.6481 Y-0.5656
X0.6369 Y-0.574
X0.6259 Y-0.5828
X0.6153 Y-0.5921
X0.605 Y-0.6017
X0.5951 Y-0.6117
X0.5856 Y-0.6222
X0.5765 Y-0.6329
X0.5678 Y-0.6441
X0.5595 Y-0.6555
X0.5517 Y-0.6673
X0.5443 Y-0.6793
X0.5374 Y-0.6916
X0.5309 Y-0.7042
X0.525 Y-0.7171
X0.5195 Y-0.7301
X0.5145 Y-0.7434
X0.51 Y-0.7568
X0.5061 Y-0.7704
X0.5026 Y-0.7842
X0.4997 Y-0.7981
X0.4973 Y-0.812
X0.4955 Y-0.8261
X0.4942 Y-0.8402
X0.4934 Y-0.8544
X0.4932 Y-0.8686
X0.4935 Y-0.8828
X0.4943 Y-0.897
X0.4957 Y-0.9111
X0.4977 Y-0.9252
X0.5001 Y-0.9392
X0.5031 Y-0.9531
X0.5066 Y-0.9668
X0.5107 Y-0.9804
X0.5152 Y-0.9939
X0.5203 Y-1.0072
X0.5259 Y-1.0203
X0.5319 Y-1.0331
X0.5385 Y-1.0457
X0.5455 Y-1.0581
X0.553 Y-1.0702
X0.5609 Y-1.082
X0.5693 Y-1.0934
X0.5782 Y-1.1046
X0.5874 Y-1.1154
X0.5971 Y-1.1258
X0.6071 Y-1.1359
X0.6175 Y-1.1456
X0.6283 Y-1.1549
X0.6394 Y-1.1637
X0.6509 Y-1.1722
X0.6626 Y-1.1802
X0.6747 Y-1.1877
X0.687 Y-1.1948
X0.6996 Y-1.2014
X0.7125 Y-1.2075
X0.7255 Y-1.2131
X0.7388 Y-1.2182
X0.7523 Y-1.2228
X0.7659 Y-1.2269
X0.7797 Y-1.2305
X0.7936 Y-1.2335
X0.8076 Y-1.236
X0.8217 Y-1.238
X0.8358 Y-1.2395
X0.85 Y-1.2404
X0.8642 Y-1.2407
X0.8785 Y-1.2405
X0.8927 Y-1.2398
X0.9069 Y-1.2385
X0.921 Y-1.2367
X0.9351 Y-1.2344
X0.9491 Y-1.2315
X0.963 Y-1.2281
X0.9768 Y-1.2241
X0.9905 Y-1.2196
X1.0041 Y-1.2146
X1.0174 Y-1.209
X1.0306 Y-1.2029
X1.0437 Y-1.1963
X1.0565 Y-1.1892
X1.069 Y-1.1815
X1.0813 Y-1.1734
X1.0934 Y-1.1648
X1.1051 Y-1.1556
X1.1165 Y-1.146
X1.1276 Y-1.136
X1.1383 Y-1.1255
X1.1487 Y-1.1146
X1.1586 Y-1.1032
X1.1681 Y-1.0915
X1.1772 Y-1.0794
X1.1858 Y-1.067
X1.1939 Y-1.0542
X1.2016 Y-1.0412
X1.2087 Y-1.0278
X1.2153 Y-1.0142
X1.2214 Y-1.0004
X1.227 Y-0.9864
X1.232 Y-0.9722
X1.2364 Y-0.9578
X1.2403 Y-0.9433
X1.2437 Y-0.9286
X1.2464 Y-0.9139
X1.2487 Y-0.8991
X1.2503 Y-0.8843
X1.2514 Y-0.8694
X1.2519 Y-0.8545
X1.2518 Y-0.8397
X1.2512 Y-0.8249
X1.25 Y-0.8101
X1.2483 Y-0.7954
X1.2459 Y-0.7808
X1.2431 Y-0.7663
X1.2397 Y-0.752
X1.2358 Y-0.7378
X1.2313 Y-0.7238
X1.2263 Y-0.7099
X1.2207 Y-0.6963
X1.2147 Y-0.6829
X1.2082 Y-0.6697
X1.2011 Y-0.6568
X1.1936 Y-0.6442
X1.1856 Y-0.6318
X1.1771 Y-0.6198
X1.1682 Y-0.6081
X1.1588 Y-0.5967
X1.149 Y-0.5857
X1.1387 Y-0.575
X1.1281 Y-0.5648
X1.117 Y-0.5549
X1.1056 Y-0.5455
X1.0938 Y-0.5365
X1.0817 Y-0.5279
X1.0692 Y-0.5198
X1.0564 Y-0.5122
X1.0434 Y-0.5051
X1.03 Y-0.4984
X1.0164 Y-0.4923
X1.0025 Y-0.4866
X0.9884 Y-0.4815
X0.9741 Y-0.4769
X0.9596 Y-0.4729
X0.945 Y-0.4694
X0.9302 Y-0.4665
X0.9153 Y-0.4641
X0.9002 Y-0.4624
X0.8851 Y-0.4611
X0.87 Y-0.4605
X0.8548 Y-0.4604
X0.8396 Y-0.4609
X0.8244 Y-0.462
X0.8093 Y-0.4637
X0.7942 Y-0.4659
X0.7791 Y-0.4687
X0.7642 Y-0.4721
X0.7494 Y-0.4761
X0.7348 Y-0.4806
X0.7203 Y-0.4857
X0.706 Y-0.4914
X0.692 Y-0.4976
X0.6781 Y-0.5043
X0.6645 Y-0.5115
X0.6512 Y-0.5193
X0.6382 Y-0.5276
X0.6255 Y-0.5364
X0.6131 Y-0.5456
X0.6011 Y-0.5554
X0.5895 Y-0.5656
X0.5782 Y-0.5762
X0.5674 Y-0.5873
X0.5569 Y-0.5987
X0.547 Y-0.6106
X0.5374 Y-0.6229
X0.5284 Y-0.6355
X0.5198 Y-0.6484
X0.5117 Y-0.6617
X0.5041 Y-0.6753
X0.4971 Y-0.6891
X0.4906 Y-0.7033
X0.4846 Y-0.7176
X0.4792 Y-0.7322
X0.4743 Y-0.747
X0.47 Y-0.762
X0.4662 Y-0.7771
X0.4631 Y-0.7924
X0.4605 Y-0.8077
X0.4585 Y-0.8232
X0.4571 Y-0.8387
X0.4563 Y-0.8543
X0.4561 Y-0.8699
X0.4565 Y-0.8855
X0.4575 Y-0.9011
X0.459 Y-0.9166
X0.4612 Y-0.9321
X0.4639 Y-0.9475
X0.4673 Y-0.9627
X0.4712 Y-0.9778
X0.4757 Y-0.9928
X0.4807 Y-1.0076
X0.4863 Y-1.0222
X0.4925 Y-1.0365
X0.4992 Y-1.0506
X0.5064 Y-1.0645
X0.5142 Y-1.078
X0.5225 Y-1.0913
X0.5312 Y-1.1042
X0.5405 Y-1.1168
X0.5502 Y-1.1291
X0.5604 Y-1.1409
X0.5711 Y-1.1524
X0.5821 Y-1.1634
X0.5936 Y-1.174
X0.6055 Y-1.1842
X0.6177 Y-1.1939
X0.6304 Y-1.2031
X0.6433 Y-1.2119
X0.6566 Y-1.2201
X0.6702 Y-1.2279
X0.6841 Y-1.2351
X0.6982 Y-1.2418
X0.7126 Y-1.2479
X0.7272 Y-1.2535
X0.742 Y-1.2585
X0.757 Y-1.263
X0.7722 Y-1.2669
X0.7874 Y-1.2702
X0.8028 Y-1.2729
X0.8183 Y-1.275
X0.8339 Y-1.2766
X0.8495 Y-1.2775
X0.8652 Y-1.2779
X0.8809 Y-1.2776
X0.8966 Y-1.2768
X0.9122 Y-1.2753
X0.9278 Y-1.2733
X0.9433 Y-1.2706
X0.9588 Y-1.2674
X0.9741 Y-1.2636
X0.9894 Y-1.2592
X1.0045 Y-1.2542
X1.0194 Y-1.2486
X1.0341 Y-1.2424
X1.0486 Y-1.2356
X1.0629 Y-1.2283
X1.077 Y-1.2204
X1.0908 Y-1.212
X1.1043 Y-1.203
X1.1174 Y-1.1935
X1.1303 Y-1.1835
X1.1427 Y-1.173
X1.1548 Y-1.1619
X1.1665 Y-1.1504
X1.1778 Y-1.1385
X1.1886 Y-1.1261
X1.1989 Y-1.1133
X1.2087 Y-1.1001
X1.2181 Y-1.0865
X1.2269 Y-1.0726
X1.2352 Y-1.0583
X1.2429 Y-1.0438
X1.2501 Y-1.0289
X1.2567 Y-1.0138
X1.2627 Y-0.9985
X1.2681 Y-0.983
X1.273 Y-0.9672
X1.2772 Y-0.9514
X1.2808 Y-0.9354
X1.2838 Y-0.9193
X1.2862 Y-0.9031
X1.2879 Y-0.8868
X1.289 Y-0.8706
X1.2895 Y-0.8543
X1.2894 Y-0.838
X1.2887 Y-0.8217
X1.2874 Y-0.8055
X1.2854 Y-0.7894
X1.2828 Y-0.7734
X1.2796 Y-0.7575
X1.2759 Y-0.7418
X1.2715 Y-0.7262
X1.2665 Y-0.7108
X1.261 Y-0.6956
X1.2549 Y-0.6806
X1.2482 Y-0.6659
X1.241 Y-0.6514
X1.2332 Y-0.6372
X1.2248 Y-0.6234
X1.216 Y-0.6098
X1.2066 Y-0.5966
X1.1968 Y-0.5838
X1.1864 Y-0.5713
X1.1756 Y-0.5592
X1.1643 Y-0.5476
X1.1526 Y-0.5363
X1.1405 Y-0.5255
X1.1279 Y-0.5152
X1.1149 Y-0.5054
X1.1016 Y-0.496
X1.0879 Y-0.4872
X1.0738 Y-0.4788
X1.0594 Y-0.471
X1.0447 Y-0.4638
X1.0298 Y-0.4571
X1.0146 Y-0.4509
X0.9991 Y-0.4454
X0.9834 Y-0.4404
X0.9675 Y-0.436
X0.9514 Y-0.4323
X0.9352 Y-0.4291
X0.9189 Y-0.4266
X0.9024 Y-0.4246
X0.8859 Y-0.4233
X0.8693 Y-0.4227
X0.8527 Y-0.4226
X0.8361 Y-0.4232
X0.8194 Y-0.4245
X0.8029 Y-0.4264
X0.7864 Y-0.4289
X0.7699 Y-0.432
X0.7536 Y-0.4358
X0.7375 Y-0.4401
X0.7215 Y-0.4451
X0.7057 Y-0.4507
X0.69 Y-0.457
X0.6747 Y-0.4638
X0.6596 Y-0.4712
X0.6447 Y-0.4791
X0.6302 Y-0.4877
X0.616 Y-0.4968
X0.6021 Y-0.5064
X0.5886 Y-0.5166
X0.5755 Y-0.5273
X0.5629 Y-0.5384
X0.5506 Y-0.5501
X0.5388 Y-0.5622
X0.5274 Y-0.5748
X0.5165 Y-0.5878
X0.5062 Y-0.6012
X0.4963 Y-0.615
X0.487 Y-0.6292
X0.4782 Y-0.6437
X0.4699 Y-0.6586
X0.4623 Y-0.6737
X0.4552 Y-0.6892
X0.4487 Y-0.7049
X0.4428 Y-0.7209
X0.4375 Y-0.7371
X0.4329 Y-0.7534
X0.4288 Y-0.77
X0.4254 Y-0.7867
X0.4226 Y-0.8035
X0.4205 Y-0.8204
X0.419 Y-0.8374
X0.4182 Y-0.8544
X0.418 Y-0.8714
X0.4185 Y-0.8885
X0.4196 Y-0.9055
X0.4214 Y-0.9225
X0.4238 Y-0.9394
X0.4268 Y-0.9561
X0.4305 Y-0.9728
X0.4348 Y-0.9893
X0.4398 Y-1.0056
X0.4453 Y-1.0218
X0.4515 Y-1.0377
X0.4583 Y-1.0534
X0.4657 Y-1.0688
X0.4736 Y-1.0839
X0.4822 Y-1.0987
X0.4912 Y-1.1131
X0.5009 Y-1.1273
X0.511 Y-1.141
X0.5217 Y-1.1543
X0.5329 Y-1.1672
X0.5445 Y-1.1797
X0.5567 Y-1.1918
X0.5692 Y-1.2033
X0.5822 Y-1.2144
X0.5957 Y-1.225
X0.6095 Y-1.235
X0.6237 Y-1.2446
X0.6382 Y-1.2535
X0.6531 Y-1.2619
X0.6683 Y-1.2698
X0.6837 Y-1.277
X0.6995 Y-1.2837
X0.7155 Y-1.2898
X0.7317 Y-1.2952
X0.748 Y-1.3
X0.7646 Y-1.3042
X0.7813 Y-1.3078
X0.7982 Y-1.3107
X0.8152 Y-1.313
X0.8322 Y-1.3147
X0.8493 Y-1.3156
X0.8664 Y-1.316
X0.8836 Y-1.3157
X0.9008 Y-1.3147
X0.9179 Y-1.3131
X0.935 Y-1.3108
X0.952 Y-1.3078
X0.9689 Y-1.3043
X0.9857 Y-1.3
X1.0023 Y-1.2951
X1.0188 Y-1.2896
X1.0351 Y-1.2835
X1.0512 Y-1.2767
X1.0671 Y-1.2692
X1.0827 Y-1.2612
X1.098 Y-1.2526
X1.113 Y-1.2433
X1.1277 Y-1.2335
X1.142 Y-1.2231
X1.1559 Y-1.2121
X1.1695 Y-1.2006
X1.1826 Y-1.1886
X1.1953 Y-1.1761
X1.2075 Y-1.163
X1.2192 Y-1.1495
X1.2303 Y-1.1356
X1.241 Y-1.1212
X1.2511 Y-1.1064
X1.2606 Y-1.0913
X1.2696 Y-1.0758
X1.278 Y-1.0599
X1.2857 Y-1.0438
X1.2928 Y-1.0274
X1.2993 Y-1.0107
X1.3052 Y-0.9938
X1.3104 Y-0.9767
X1.3149 Y-0.9594
X1.3188 Y-0.942
X1.322 Y-0.9245
X1.3245 Y-0.9068
X1.3264 Y-0.8891
X1.3276 Y-0.8714
X1.3281 Y-0.8537
X1.3279 Y-0.8359
X1.327 Y-0.8182
X1.3255 Y-0.8005
X1.3233 Y-0.783
X1.3205 Y-0.7655
X1.317 Y-0.7482
X1.3128 Y-0.731
X1.308 Y-0.714
X1.3025 Y-0.6972
X1.2964 Y-0.6806
X1.2897 Y-0.6643
X1.2823 Y-0.6482
X1.2744 Y-0.6325
X1.2659 Y-0.617
X1.2567 Y-0.6019
X1.247 Y-0.5871
X1.2368 Y-0.5727
X1.226 Y-0.5587
X1.2146 Y-0.5452
X1.2028 Y-0.532
X1.1904 Y-0.5193
X1.1776 Y-0.5071
X1.1643 Y-0.4954
X1.1506 Y-0.4841
X1.1364 Y-0.4734
X1.1218 Y-0.4633
X1.1068 Y-0.4536
X1.0915 Y-0.4446
X1.0758 Y-0.4361
X1.0597 Y-0.4283
X1.0434 Y-0.421
X1.0268 Y-0.4144
X1.0099 Y-0.4084
X0.9928 Y-0.403
X0.9755 Y-0.3983
X0.958 Y-0.3942
X0.9403 Y-0.3908
X0.9225 Y-0.3881
X0.9046 Y-0.3861
X0.8866 Y-0.3847
X0.8685 Y-0.384
X0.8504 Y-0.3841
X0.8323 Y-0.3848
X0.8142 Y-0.3862
X0.7962 Y-0.3882
X0.7783 Y-0.391
X0.7604 Y-0.3945
X0.7427 Y-0.3986
X0.7251 Y-0.4034
X0.7077 Y-0.4089
X0.6905 Y-0.4151
X0.6736 Y-0.4219
X0.6569 Y-0.4293
X0.6405 Y-0.4374
X0.6244 Y-0.4461
X0.6086 Y-0.4555
X0.5932 Y-0.4654
X0.5781 Y-0.4759
X0.5635 Y-0.487
X0.5493 Y-0.4986
X0.5355 Y-0.5108
X0.5222 Y-0.5235
X0.5094 Y-0.5368
X0.4971 Y-0.5505
X0.4853 Y-0.5646
X0.4741 Y-0.5792
X0.4634 Y-0.5943
X0.4533 Y-0.6097
X0.4438 Y-0.6255
X0.4349 Y-0.6417
X0.4266 Y-0.6582
X0.419 Y-0.675
X0.412 Y-0.6921
X0.4056 Y-0.7095
X0.3999 Y-0.7271
X0.3949 Y-0.7449
X0.3906 Y-0.7629
X0.3869 Y-0.781
X0.384 Y-0.7993
X0.3817 Y-0.8177
X0.3801 Y-0.8361
X0.3793 Y-0.8546
X0.3791 Y-0.8732
X0.3797 Y-0.8917
X0.381 Y-0.9102
X0.3829 Y-0.9286
X0.3856 Y-0.947
X0.389 Y-0.9652
X0.393 Y-0.9833
X0.3978 Y-1.0012
X0.4011 Y-1.012
X0.4031 Y-1.0185
X0.4136 Y-1.047
X0.4206 Y-1.0639
X0.4283 Y-1.0805
X0.4366 Y-1.0969
X0.4455 Y-1.1129
X0.455 Y-1.1287
X0.4652 Y-1.144
X0.4738 Y-1.1561
X0.4756 Y-1.1585
G3 X0.5024 Y-1.1721 I0.0289 J0.0239
X0.542 Y-1.1346 I0.0021 J0.0374 F300.
X0.5378 Y-1.1174 I-0.0375 J0.
G1 X0.4726 Y-0.9914
G3 X0.4074 Y-0.9888 I-0.0333 J-0.0172
X0.4018 Y-1.0086 I0.0318 J-0.0198 F40.
X0.4031 Y-1.0185 I0.0375 J0.
G1 X0.4066 Y-1.0297
X0.4198 Y-1.0634
X0.4234 Y-1.0711
X0.4366 Y-1.097
X0.4427 Y-1.1083
X0.4571 Y-1.1331
X0.4628 Y-1.1419
X0.4796 Y-1.1636
X0.5042 Y-1.1926
X0.5164 Y-1.2059
X0.5292 Y-1.2187
X0.5425 Y-1.2311
X0.5563 Y-1.243
X0.5706 Y-1.2545
X0.5853 Y-1.2654
X0.6005 Y-1.2757
X0.6161 Y-1.2855
X0.6321 Y-1.2947
X0.6484 Y-1.3033
X0.6651 Y-1.3113
X0.6821 Y-1.3186
X0.6993 Y-1.3253
X0.7168 Y-1.3313
X0.7346 Y-1.3367
X0.7525 Y-1.3414
X0.7706 Y-1.3454
X0.7889 Y-1.3487
X0.8073 Y-1.3513
X0.8258 Y-1.3532
X0.8444 Y-1.3544
X0.8631 Y-1.3549
X0.8817 Y-1.3547
X0.9004 Y-1.3538
X0.919 Y-1.3522
X0.9376 Y-1.3498
X0.9561 Y-1.3468
X0.9745 Y-1.343
X0.9928 Y-1.3385
X1.011 Y-1.3334
X1.0289 Y-1.3275
X1.0467 Y-1.3209
X1.0642 Y-1.3137
X1.0732 Y-1.3095
X1.0749 Y-1.3087
X1.1139 Y-1.2875
X1.1296 Y-1.2783
X1.1421 Y-1.2702
X1.145 Y-1.2682
G3 X1.1597 Y-1.2421 I-0.0226 J0.03
X1.1037 Y-1.2058 I-0.0373 J0.0038 F300.
G1 X1.0411 Y-1.2419
G3 X1.0448 Y-1.3088 I0.0187 J-0.0325
X1.0749 Y-1.3087 I0.015 J0.0344 F40.
G1 X1.0974 Y-1.2979
X1.1086 Y-1.2918
X1.1198 Y-1.2851
X1.1311 Y-1.2778
X1.1423 Y-1.2701
X1.1492 Y-1.2653
X1.1652 Y-1.2541
X1.176 Y-1.2463
X1.2097 Y-1.215
X1.2157 Y-1.2092
X1.2265 Y-1.198
X1.2321 Y-1.1921
X1.2454 Y-1.1756
X1.2546 Y-1.1636
X1.2713 Y-1.1419
X1.2771 Y-1.1331
X1.2914 Y-1.1083
X1.2976 Y-1.097
X1.3108 Y-1.0711
X1.3144 Y-1.0634
X1.3275 Y-1.0297
X1.3381 Y-0.9961
X1.3408 Y-0.9849
X1.346 Y-0.9624
X1.348 Y-0.9512
X1.3514 Y-0.9288
X1.3528 Y-0.9176
X1.3557 Y-0.8781
X1.3559 Y-0.8727
Y-0.8615
X1.3557 Y-0.8561
X1.3528 Y-0.8166
X1.3514 Y-0.8054
X1.348 Y-0.783
X1.346 Y-0.7717
X1.3408 Y-0.7493
X1.3381 Y-0.7381
X1.3275 Y-0.7044
X1.3144 Y-0.6708
X1.3108 Y-0.6631
X1.2976 Y-0.6371
X1.2914 Y-0.6259
X1.2771 Y-0.6011
X1.2713 Y-0.5923
X1.2541 Y-0.5698
X1.2454 Y-0.5586
X1.2321 Y-0.5421
X1.2265 Y-0.5362
X1.2157 Y-0.525
X1.2097 Y-0.5192
X1.176 Y-0.4879
X1.1648 Y-0.4798
X1.1423 Y-0.464
X1.1311 Y-0.4563
X1.1198 Y-0.449
X1.1086 Y-0.4424
X1.0974 Y-0.4363
X1.0637 Y-0.42
X1.0524 Y-0.4147
X1.03 Y-0.4066
X0.9963 Y-0.3962
X0.985 Y-0.3934
X0.9626 Y-0.3883
X0.9513 Y-0.3862
X0.9289 Y-0.3828
X0.9176 Y-0.3814
X0.8868 Y-0.3791
X0.8839 Y-0.379
X0.8502
X0.8474 Y-0.3791
X0.8165 Y-0.3814
X0.8053 Y-0.3828
X0.7828 Y-0.3862
X0.7716 Y-0.3883
X0.7491 Y-0.3934
X0.7379 Y-0.3962
X0.7042 Y-0.4066
X0.6817 Y-0.4147
X0.6705 Y-0.42
X0.6368 Y-0.4363
X0.6256 Y-0.4424
X0.6144 Y-0.449
X0.6031 Y-0.4563
X0.5919 Y-0.4641
X0.569 Y-0.4801
X0.5582 Y-0.4879
X0.5245 Y-0.5192
X0.5184 Y-0.525
X0.5076 Y-0.5362
X0.502 Y-0.5421
X0.4888 Y-0.5586
X0.4796 Y-0.5705
X0.4628 Y-0.5923
X0.4571 Y-0.6011
X0.4427 Y-0.6259
X0.4366 Y-0.6371
X0.4234 Y-0.6631
X0.4198 Y-0.6708
X0.4066 Y-0.7044
X0.3961 Y-0.7381
X0.3933 Y-0.7493
X0.3882 Y-0.7717
X0.3862 Y-0.783
X0.3828 Y-0.8054
X0.3814 Y-0.8166
X0.3785 Y-0.8561
X0.3782 Y-0.8615
Y-0.8727
X0.3785 Y-0.8781
X0.3814 Y-0.9176
X0.3828 Y-0.9288
X0.3862 Y-0.9512
X0.3882 Y-0.9624
X0.3933 Y-0.9849
X0.3961 Y-0.9961
X0.4011 Y-1.012
X0.402 Y-1.0144
X0.4031 Y-1.0168
X0.4149 Y-1.0396
X0.465 Y-1.1364 F300.
X0.4768 Y-1.1591 F40.
X0.4781 Y-1.1614
X0.4796 Y-1.1636
X0.4888 Y-1.1756
X0.502 Y-1.1921
X0.5076 Y-1.198
X0.5185 Y-1.2092
X0.5245 Y-1.215
X0.5582 Y-1.2463
X0.5694 Y-1.2544
X0.5919 Y-1.2701
X0.6031 Y-1.2778
X0.6144 Y-1.2851
X0.6256 Y-1.2918
X0.6368 Y-1.2979
X0.6705 Y-1.3141
X0.6817 Y-1.3194
X0.7042 Y-1.3276
X0.7379 Y-1.338
X0.7491 Y-1.3408
X0.7716 Y-1.3459
X0.7828 Y-1.348
X0.8053 Y-1.3514
X0.8165 Y-1.3528
X0.8474 Y-1.355
X0.8502 Y-1.3552
X0.8839
X0.8868 Y-1.355
X0.9176 Y-1.3528
X0.9289 Y-1.3514
X0.9513 Y-1.348
X0.9626 Y-1.3459
X0.985 Y-1.3408
X0.9963 Y-1.338
X1.03 Y-1.3276
X1.0524 Y-1.3194
X1.0637 Y-1.3141
X1.0732 Y-1.3095
G3 X1.092 Y-1.2861 I-0.0174 J0.0332
G1 X1.0932 Y-1.2817 Z0.1503
X1.0943 Y-1.2774 Z0.1511
X1.0954 Y-1.2732 Z0.1524
X1.0965 Y-1.2692 Z0.1543
X1.0975 Y-1.2655 Z0.1566
X1.0985 Y-1.2621 Z0.1594
X1.0993 Y-1.259 Z0.1626
X1.1 Y-1.2563 Z0.1662
X1.1006 Y-1.254 Z0.1701
X1.1011 Y-1.2522 Z0.1742
X1.1014 Y-1.2509 Z0.1785
X1.1017 Y-1.2501 Z0.183
Y-1.2499 Z0.1875
G0 Z2.2861
(2D CONTOUR2)
S7500 M3
G64 P0.0004 Q0.0004
G0 X1.2546 Y-0.9046
Z2.2861
Z1.8861
G1 Z1.7254 F80.
Z0.1875
G18 G2 X1.2921 Z0.15 I0.0375 K0. F50.
G1 X1.3296
G17 G3 X1.3671 Y-0.8671 I0. J0.0375
X0.3671 I-0.5 J0.
X1.3671 I0.5 J0.
X0.3671 I-0.5 J0.
X1.3671 I0.5 J0.
X1.3296 Y-0.8296 I-0.0375 J0.
G1 X1.2921
G18 G3 X1.2546 Z0.1875 I0. K0.0375
G0 Z1.8861
X1.9742
G1 Z1.7254 F80.
Z0.1875
G3 X1.9367 Z0.15 I-0.0375 K0. F50.
G1 X1.8992
G17 G3 X1.8617 Y-0.8671 I0. J-0.0375
G1 Y-1.6742
G2 X1.6742 Y-1.8617 I-0.1875 J0.
G1 X0.06
G2 X-0.1275 Y-1.6742 I0. J0.1875
G1 Y-0.06
G2 X0.06 Y0.1275 I0.1875 J0.
G1 X1.6742
G2 X1.8617 Y-0.06 I0. J-0.1875
G1 Y-1.6742
G2 X1.6742 Y-1.8617 I-0.1875 J0.
G1 X0.06
G2 X-0.1275 Y-1.6742 I0. J0.1875
G1 Y-0.06
G2 X0.06 Y0.1275 I0.1875 J0.
G1 X1.6742
G2 X1.8617 Y-0.06 I0. J-0.1875
G1 Y-0.8671
G3 X1.8992 Y-0.9046 I0.0375 J0.
G1 X1.9367
G18 G2 X1.9742 Z0.1875 I0. K0.0375
G0 Z2.2861
G17
M5
G53 G0 Z0.
(2D CONTOUR1 2)
M9
M1
T11 M6
T36
S7500 M3
G17 G90 G94
G54
M8
G0 X0.8796 Y-0.9046
G43 Z2.2861 H11
G0 Z1.8861
G1 Z1.7111 F80.
Z1.6436
G19 G3 Y-0.8921 Z1.6311 J0.0125 K0. F20.
G1 Y-0.8796
G17 G3 X0.8671 Y-0.8671 I-0.0125 J0.
G1 X0.06
G3 X0.0475 Y-0.8796 I0. J-0.0125
G1 Y-0.8921
G19 G2 Y-0.9046 Z1.6436 J0. K0.0125
G0 Z1.8861
X0.8796
G1 Z1.7111 F80.
Z1.6436
G3 Y-0.8921 Z1.6311 J0.0125 K0. F20.
G1 Y-0.8796
G17 G3 X0.8671 Y-0.8671 I-0.0125 J0.
G1 X0.06
G3 X0.0475 Y-0.8796 I0. J-0.0125
G1 Y-0.8921
G19 G2 Y-0.9046 Z1.6436 J0. K0.0125
G0 Z1.8861
X0.9046 Y-0.0475
G1 Z1.7111 F80.
Z1.6436
G18 G3 X0.8921 Z1.6311 I-0.0125 K0. F20.
G1 X0.8796
G17 G3 X0.8671 Y-0.06 I0. J-0.0125
G1 Y-0.8671
G3 X0.8796 Y-0.8796 I0.0125 J0.
G1 X0.8921
G18 G2 X0.9046 Z1.6436 I0. K0.0125
G0 Z1.8861
X1.6867 Y-0.9046
G1 Z1.7111 F80.
Z1.6436
G19 G3 Y-0.8921 Z1.6311 J0.0125 K0. F20.
G1 Y-0.8796
G17 G3 X1.6742 Y-0.8671 I-0.0125 J0.
G1 X0.8671
Y-1.6742
G3 X0.8796 Y-1.6867 I0.0125 J0.
G1 X0.8921
G18 G2 X0.9046 Z1.6436 I0. K0.0125
G0 Z1.8861
X1.6867 Y-0.9046
G1 Z1.7111 F80.
Z1.6436
G19 G3 Y-0.8921 Z1.6311 J0.0125 K0. F20.
G1 Y-0.8796
G17 G3 X1.6742 Y-0.8671 I-0.0125 J0.
G1 X0.8671
Y-1.6742
G3 X0.8796 Y-1.6867 I0.0125 J0.
G1 X0.8921
G18 G2 X0.9046 Z1.6436 I0. K0.0125
G0 Z1.8861
Y-0.0475
G1 Z1.7111 F80.
Z1.6436
G3 X0.8921 Z1.6311 I-0.0125 K0. F20.
G1 X0.8796
G17 G3 X0.8671 Y-0.06 I0. J-0.0125
G1 Y-0.8671
G3 X0.8796 Y-0.8796 I0.0125 J0.
G1 X0.8921
G18 G2 X0.9046 Z1.6436 I0. K0.0125
G0 Z2.2861
G17
M5
M9
G53 G0 Z0.
M30
%
