%
(BB TO MAIN PIVOT)
(T81 D=0.5625 CR=0. - ZMIN=-0.02 - FLAT END MILL)
G90 G94 G17 G91.1
G20
G53 G0 Z0.
(2D CONTOUR2 4)
T81 M6
S700 M3
G17 G90 G94
G54
G64 P0.0004 Q0.0004
M8
G0 X-0.4032 Y0.249
G43 Z1.975 H81
G0 Z1.575
G1 Z-0.02 F13.333
X-0.1579 Y0.4218 F2.
G2 X-0.1181 Y0.4254 I0.023 J-0.0327
Y-0.4254 I-0.1969 J-0.4254
X-0.1579 Y-0.4218 I-0.0168 J0.0363
G1 X-0.4032 Y-0.249
G0 Z1.975
(2D CONTOUR2 5)
G0 X2.445 Y-0.1959
Z1.975
Z1.575
G1 Z-0.02 F13.333
X2.2156 Y-0.3892 F2.
G2 X2.1748 Y-0.4002 I-0.0322 J0.0382
Y0.4002 I0.0698 J0.4002
X2.2156 Y0.3892 I0.0086 J-0.0493
G1 X2.445 Y0.1959
G0 Z1.975
M5
M9
G53 G0 Z0.
M30
%
