%
(D=1,375 NOTCH)
(T36 D=0.375 CR=0. - ZMIN=-0.02 - FLAT END MILL)
G90 G94 G17 G91.1
G20
G53 G0 Z0.
(2D CONTOUR2)
T36 M6
S3000 M3
G17 G90 G94
G54
G64 P0.0004 Q0.0004
M8
G0 X0.9 Y-0.4121
G43 Z1.975 H36
G0 Z1.575
G1 Z1.1757 F30.
G2 X0.6879 Y-0.5 I-0.2121 J0.2121 F10.
Y0.5 I0. J0.5
X0.9 Y0.4121 I0. J-0.3
G0 Z1.575
Y-0.4121
G1 Z0.9764 F30.
G2 X0.6879 Y-0.5 I-0.2121 J0.2121 F10.
Y0.5 I0. J0.5
X0.9 Y0.4121 I0. J-0.3
G0 Z1.575
Y-0.4121
G1 Z0.7771 F30.
G2 X0.6879 Y-0.5 I-0.2121 J0.2121 F10.
Y0.5 I0. J0.5
X0.9 Y0.4121 I0. J-0.3
G0 Z1.575
Y-0.4121
G1 Z0.5779 F30.
G2 X0.6879 Y-0.5 I-0.2121 J0.2121 F10.
Y0.5 I0. J0.5
X0.9 Y0.4121 I0. J-0.3
G0 Z1.575
Y-0.4121
G1 Z0.3786 F30.
G2 X0.6879 Y-0.5 I-0.2121 J0.2121 F10.
Y0.5 I0. J0.5
X0.9 Y0.4121 I0. J-0.3
G0 Z1.575
Y-0.4121
G1 Z0.1793 F30.
G2 X0.6879 Y-0.5 I-0.2121 J0.2121 F10.
Y0.5 I0. J0.5
X0.9 Y0.4121 I0. J-0.3
G0 Z1.575
Y-0.4121
G1 Z-0.02 F30.
G2 X0.6879 Y-0.5 I-0.2121 J0.2121 F10.
Y0.5 I0. J0.5
X0.9 Y0.4121 I0. J-0.3
G0 Z1.975
M5
M9
G53 G0 Z0.
M30
%
