%
(D=1,5 NOTCH)
(T36 D=0.375 CR=0. - ZMIN=-0.02 - FLAT END MILL)
G90 G94 G17 G91.1
G20
G53 G0 Z0.
(2D CONTOUR2 2)
T36 M6
S3000 M3
G17 G90 G94
G54
G64 P0.0004 Q0.0004
M8
G0 X0.7879 Y-0.45
G43 Z2.1 H36
G0 Z1.7
G1 Z1.3475 F5.
G19 G2 Y-0.4875 Z1.31 J-0.0375 K0. F10.
G1 Y-0.525
G17 G2 X0.7504 Y-0.5625 I-0.0375 J0.
Y0.5625 I0. J0.5625
X0.7879 Y0.525 I0. J-0.0375
G1 Y0.4875
G19 G2 Y0.45 Z1.3475 J0. K0.0375
G0 Z1.7
Y-0.45
G1 Z1.1575 F5.
G2 Y-0.4875 Z1.12 J-0.0375 K0. F10.
G1 Y-0.525
G17 G2 X0.7504 Y-0.5625 I-0.0375 J0.
Y0.5625 I0. J0.5625
X0.7879 Y0.525 I0. J-0.0375
G1 Y0.4875
G19 G2 Y0.45 Z1.1575 J0. K0.0375
G0 Z1.7
Y-0.45
G1 Z0.9675 F5.
G2 Y-0.4875 Z0.93 J-0.0375 K0. F10.
G1 Y-0.525
G17 G2 X0.7504 Y-0.5625 I-0.0375 J0.
Y0.5625 I0. J0.5625
X0.7879 Y0.525 I0. J-0.0375
G1 Y0.4875
G19 G2 Y0.45 Z0.9675 J0. K0.0375
G0 Z1.7
Y-0.45
G1 Z0.7775 F5.
G2 Y-0.4875 Z0.74 J-0.0375 K0. F10.
G1 Y-0.525
G17 G2 X0.7504 Y-0.5625 I-0.0375 J0.
Y0.5625 I0. J0.5625
X0.7879 Y0.525 I0. J-0.0375
G1 Y0.4875
G19 G2 Y0.45 Z0.7775 J0. K0.0375
G0 Z1.7
Y-0.45
G1 Z0.5875 F5.
G2 Y-0.4875 Z0.55 J-0.0375 K0. F10.
G1 Y-0.525
G17 G2 X0.7504 Y-0.5625 I-0.0375 J0.
Y0.5625 I0. J0.5625
X0.7879 Y0.525 I0. J-0.0375
G1 Y0.4875
G19 G2 Y0.45 Z0.5875 J0. K0.0375
G0 Z1.7
Y-0.45
G1 Z0.3975 F5.
G2 Y-0.4875 Z0.36 J-0.0375 K0. F10.
G1 Y-0.525
G17 G2 X0.7504 Y-0.5625 I-0.0375 J0.
Y0.5625 I0. J0.5625
X0.7879 Y0.525 I0. J-0.0375
G1 Y0.4875
G19 G2 Y0.45 Z0.3975 J0. K0.0375
G0 Z1.7
Y-0.45
G1 Z0.2075 F5.
G2 Y-0.4875 Z0.17 J-0.0375 K0. F10.
G1 Y-0.525
G17 G2 X0.7504 Y-0.5625 I-0.0375 J0.
Y0.5625 I0. J0.5625
X0.7879 Y0.525 I0. J-0.0375
G1 Y0.4875
G19 G2 Y0.45 Z0.2075 J0. K0.0375
G0 Z1.7
Y-0.45
G1 Z0.0175 F5.
G2 Y-0.4875 Z-0.02 J-0.0375 K0. F10.
G1 Y-0.525
G17 G2 X0.7504 Y-0.5625 I-0.0375 J0.
Y0.5625 I0. J0.5625
X0.7879 Y0.525 I0. J-0.0375
G1 Y0.4875
G19 G2 Y0.45 Z0.0175 J0. K0.0375
G0 Z2.1
G17
M5
M9
G53 G0 Z0.
M30
%
