%
(D=1,875 NOTCH)
(T36 D=0.375 CR=0. - ZMIN=-0.02 - FLAT END MILL)
G90 G94 G17 G91.1
G20
G53 G0 Z0.
(2D CONTOUR2 3)
T36 M6
S3000 M3
G17 G90 G94
G54
G64 P0.0004 Q0.0004
M8
G0 X0.6375 Y-0.5636
G43 Z2.35 H36
G0 Z1.95
G1 Z1.5908 F5.
X0.6374 Y-0.5638 Z1.5863 F10.
X0.637 Y-0.5645 Z1.5819
X0.6363 Y-0.5656 Z1.5775
X0.6353 Y-0.5672 Z1.5734
X0.6341 Y-0.5692 Z1.5695
X0.6326 Y-0.5716 Z1.566
X0.6309 Y-0.5743 Z1.5628
X0.6291 Y-0.5774 Z1.56
X0.6271 Y-0.5807 Z1.5576
X0.6249 Y-0.5842 Z1.5558
X0.6227 Y-0.5879 Z1.5544
X0.6203 Y-0.5917 Z1.5536
X0.618 Y-0.5956 Z1.5533
X0.5984 Y-0.6276
G2 X0.5469 Y-0.64 I-0.032 J0.0196
Y0.64 I0.391 J0.64
X0.5984 Y0.6276 I0.0196 J-0.032
G1 X0.618 Y0.5956
X0.6203 Y0.5917 Z1.5536
X0.6227 Y0.5879 Z1.5544
X0.6249 Y0.5842 Z1.5558
X0.6271 Y0.5807 Z1.5576
X0.6291 Y0.5774 Z1.56
X0.6309 Y0.5743 Z1.5628
X0.6326 Y0.5716 Z1.566
X0.6341 Y0.5692 Z1.5695
X0.6353 Y0.5672 Z1.5734
X0.6363 Y0.5656 Z1.5775
X0.637 Y0.5645 Z1.5819
X0.6374 Y0.5638 Z1.5863
X0.6375 Y0.5636 Z1.5908
G0 Z1.95
Y-0.5636
G1 Z1.3942 F5.
X0.6374 Y-0.5638 Z1.3896 F10.
X0.637 Y-0.5645 Z1.3852
X0.6363 Y-0.5656 Z1.3809
X0.6353 Y-0.5672 Z1.3767
X0.6341 Y-0.5692 Z1.3729
X0.6326 Y-0.5716 Z1.3693
X0.6309 Y-0.5743 Z1.3661
X0.6291 Y-0.5774 Z1.3633
X0.6271 Y-0.5807 Z1.361
X0.6249 Y-0.5842 Z1.3591
X0.6227 Y-0.5879 Z1.3578
X0.6203 Y-0.5917 Z1.3569
X0.618 Y-0.5956 Z1.3567
X0.5984 Y-0.6276
G2 X0.5469 Y-0.64 I-0.032 J0.0196
Y0.64 I0.391 J0.64
X0.5984 Y0.6276 I0.0196 J-0.032
G1 X0.618 Y0.5956
X0.6203 Y0.5917 Z1.3569
X0.6227 Y0.5879 Z1.3578
X0.6249 Y0.5842 Z1.3591
X0.6271 Y0.5807 Z1.361
X0.6291 Y0.5774 Z1.3633
X0.6309 Y0.5743 Z1.3661
X0.6326 Y0.5716 Z1.3693
X0.6341 Y0.5692 Z1.3729
X0.6353 Y0.5672 Z1.3767
X0.6363 Y0.5656 Z1.3809
X0.637 Y0.5645 Z1.3852
X0.6374 Y0.5638 Z1.3896
X0.6375 Y0.5636 Z1.3942
G0 Z1.95
Y-0.5636
G1 Z1.1975 F5.
X0.6374 Y-0.5638 Z1.193 F10.
X0.637 Y-0.5645 Z1.1885
X0.6363 Y-0.5656 Z1.1842
X0.6353 Y-0.5672 Z1.1801
X0.6341 Y-0.5692 Z1.1762
X0.6326 Y-0.5716 Z1.1726
X0.6309 Y-0.5743 Z1.1694
X0.6291 Y-0.5774 Z1.1666
X0.6271 Y-0.5807 Z1.1643
X0.6249 Y-0.5842 Z1.1624
X0.6227 Y-0.5879 Z1.1611
X0.6203 Y-0.5917 Z1.1603
X0.618 Y-0.5956 Z1.16
X0.5984 Y-0.6276
G2 X0.5469 Y-0.64 I-0.032 J0.0196
Y0.64 I0.391 J0.64
X0.5984 Y0.6276 I0.0196 J-0.032
G1 X0.618 Y0.5956
X0.6203 Y0.5917 Z1.1603
X0.6227 Y0.5879 Z1.1611
X0.6249 Y0.5842 Z1.1624
X0.6271 Y0.5807 Z1.1643
X0.6291 Y0.5774 Z1.1666
X0.6309 Y0.5743 Z1.1694
X0.6326 Y0.5716 Z1.1726
X0.6341 Y0.5692 Z1.1762
X0.6353 Y0.5672 Z1.1801
X0.6363 Y0.5656 Z1.1842
X0.637 Y0.5645 Z1.1885
X0.6374 Y0.5638 Z1.193
X0.6375 Y0.5636 Z1.1975
G0 Z1.95
Y-0.5636
G1 Z1.0008 F5.
X0.6374 Y-0.5638 Z0.9963 F10.
X0.637 Y-0.5645 Z0.9919
X0.6363 Y-0.5656 Z0.9875
X0.6353 Y-0.5672 Z0.9834
X0.6341 Y-0.5692 Z0.9795
X0.6326 Y-0.5716 Z0.976
X0.6309 Y-0.5743 Z0.9728
X0.6291 Y-0.5774 Z0.97
X0.6271 Y-0.5807 Z0.9676
X0.6249 Y-0.5842 Z0.9658
X0.6227 Y-0.5879 Z0.9644
X0.6203 Y-0.5917 Z0.9636
X0.618 Y-0.5956 Z0.9633
X0.5984 Y-0.6276
G2 X0.5469 Y-0.64 I-0.032 J0.0196
Y0.64 I0.391 J0.64
X0.5984 Y0.6276 I0.0196 J-0.032
G1 X0.618 Y0.5956
X0.6203 Y0.5917 Z0.9636
X0.6227 Y0.5879 Z0.9644
X0.6249 Y0.5842 Z0.9658
X0.6271 Y0.5807 Z0.9676
X0.6291 Y0.5774 Z0.97
X0.6309 Y0.5743 Z0.9728
X0.6326 Y0.5716 Z0.976
X0.6341 Y0.5692 Z0.9795
X0.6353 Y0.5672 Z0.9834
X0.6363 Y0.5656 Z0.9875
X0.637 Y0.5645 Z0.9919
X0.6374 Y0.5638 Z0.9963
X0.6375 Y0.5636 Z1.0008
G0 Z1.95
Y-0.5636
G1 Z0.8042 F5.
X0.6374 Y-0.5638 Z0.7996 F10.
X0.637 Y-0.5645 Z0.7952
X0.6363 Y-0.5656 Z0.7909
X0.6353 Y-0.5672 Z0.7867
X0.6341 Y-0.5692 Z0.7829
X0.6326 Y-0.5716 Z0.7793
X0.6309 Y-0.5743 Z0.7761
X0.6291 Y-0.5774 Z0.7733
X0.6271 Y-0.5807 Z0.771
X0.6249 Y-0.5842 Z0.7691
X0.6227 Y-0.5879 Z0.7678
X0.6203 Y-0.5917 Z0.7669
X0.618 Y-0.5956 Z0.7667
X0.5984 Y-0.6276
G2 X0.5469 Y-0.64 I-0.032 J0.0196
Y0.64 I0.391 J0.64
X0.5984 Y0.6276 I0.0196 J-0.032
G1 X0.618 Y0.5956
X0.6203 Y0.5917 Z0.7669
X0.6227 Y0.5879 Z0.7678
X0.6249 Y0.5842 Z0.7691
X0.6271 Y0.5807 Z0.771
X0.6291 Y0.5774 Z0.7733
X0.6309 Y0.5743 Z0.7761
X0.6326 Y0.5716 Z0.7793
X0.6341 Y0.5692 Z0.7829
X0.6353 Y0.5672 Z0.7867
X0.6363 Y0.5656 Z0.7909
X0.637 Y0.5645 Z0.7952
X0.6374 Y0.5638 Z0.7996
X0.6375 Y0.5636 Z0.8042
G0 Z1.95
Y-0.5636
G1 Z0.6075 F5.
X0.6374 Y-0.5638 Z0.603 F10.
X0.637 Y-0.5645 Z0.5985
X0.6363 Y-0.5656 Z0.5942
X0.6353 Y-0.5672 Z0.5901
X0.6341 Y-0.5692 Z0.5862
X0.6326 Y-0.5716 Z0.5826
X0.6309 Y-0.5743 Z0.5794
X0.6291 Y-0.5774 Z0.5766
X0.6271 Y-0.5807 Z0.5743
X0.6249 Y-0.5842 Z0.5724
X0.6227 Y-0.5879 Z0.5711
X0.6203 Y-0.5917 Z0.5703
X0.618 Y-0.5956 Z0.57
X0.5984 Y-0.6276
G2 X0.5469 Y-0.64 I-0.032 J0.0196
Y0.64 I0.391 J0.64
X0.5984 Y0.6276 I0.0196 J-0.032
G1 X0.618 Y0.5956
X0.6203 Y0.5917 Z0.5703
X0.6227 Y0.5879 Z0.5711
X0.6249 Y0.5842 Z0.5724
X0.6271 Y0.5807 Z0.5743
X0.6291 Y0.5774 Z0.5766
X0.6309 Y0.5743 Z0.5794
X0.6326 Y0.5716 Z0.5826
X0.6341 Y0.5692 Z0.5862
X0.6353 Y0.5672 Z0.5901
X0.6363 Y0.5656 Z0.5942
X0.637 Y0.5645 Z0.5985
X0.6374 Y0.5638 Z0.603
X0.6375 Y0.5636 Z0.6075
G0 Z1.95
Y-0.5636
G1 Z0.4108 F5.
X0.6374 Y-0.5638 Z0.4063 F10.
X0.637 Y-0.5645 Z0.4019
X0.6363 Y-0.5656 Z0.3975
X0.6353 Y-0.5672 Z0.3934
X0.6341 Y-0.5692 Z0.3895
X0.6326 Y-0.5716 Z0.386
X0.6309 Y-0.5743 Z0.3828
X0.6291 Y-0.5774 Z0.38
X0.6271 Y-0.5807 Z0.3776
X0.6249 Y-0.5842 Z0.3758
X0.6227 Y-0.5879 Z0.3744
X0.6203 Y-0.5917 Z0.3736
X0.618 Y-0.5956 Z0.3733
X0.5984 Y-0.6276
G2 X0.5469 Y-0.64 I-0.032 J0.0196
Y0.64 I0.391 J0.64
X0.5984 Y0.6276 I0.0196 J-0.032
G1 X0.618 Y0.5956
X0.6203 Y0.5917 Z0.3736
X0.6227 Y0.5879 Z0.3744
X0.6249 Y0.5842 Z0.3758
X0.6271 Y0.5807 Z0.3776
X0.6291 Y0.5774 Z0.38
X0.6309 Y0.5743 Z0.3828
X0.6326 Y0.5716 Z0.386
X0.6341 Y0.5692 Z0.3895
X0.6353 Y0.5672 Z0.3934
X0.6363 Y0.5656 Z0.3975
X0.637 Y0.5645 Z0.4019
X0.6374 Y0.5638 Z0.4063
X0.6375 Y0.5636 Z0.4108
G0 Z1.95
Y-0.5636
G1 Z0.2142 F5.
X0.6374 Y-0.5638 Z0.2096 F10.
X0.637 Y-0.5645 Z0.2052
X0.6363 Y-0.5656 Z0.2009
X0.6353 Y-0.5672 Z0.1967
X0.6341 Y-0.5692 Z0.1929
X0.6326 Y-0.5716 Z0.1893
X0.6309 Y-0.5743 Z0.1861
X0.6291 Y-0.5774 Z0.1833
X0.6271 Y-0.5807 Z0.181
X0.6249 Y-0.5842 Z0.1791
X0.6227 Y-0.5879 Z0.1778
X0.6203 Y-0.5917 Z0.1769
X0.618 Y-0.5956 Z0.1767
X0.5984 Y-0.6276
G2 X0.5469 Y-0.64 I-0.032 J0.0196
Y0.64 I0.391 J0.64
X0.5984 Y0.6276 I0.0196 J-0.032
G1 X0.618 Y0.5956
X0.6203 Y0.5917 Z0.1769
X0.6227 Y0.5879 Z0.1778
X0.6249 Y0.5842 Z0.1791
X0.6271 Y0.5807 Z0.181
X0.6291 Y0.5774 Z0.1833
X0.6309 Y0.5743 Z0.1861
X0.6326 Y0.5716 Z0.1893
X0.6341 Y0.5692 Z0.1929
X0.6353 Y0.5672 Z0.1967
X0.6363 Y0.5656 Z0.2009
X0.637 Y0.5645 Z0.2052
X0.6374 Y0.5638 Z0.2096
X0.6375 Y0.5636 Z0.2142
G0 Z1.95
Y-0.5636
G1 Z0.0175 F5.
X0.6374 Y-0.5638 Z0.013 F10.
X0.637 Y-0.5645 Z0.0085
X0.6363 Y-0.5656 Z0.0042
X0.6353 Y-0.5672 Z0.0001
X0.6341 Y-0.5692 Z-0.0038
X0.6326 Y-0.5716 Z-0.0074
X0.6309 Y-0.5743 Z-0.0106
X0.6291 Y-0.5774 Z-0.0134
X0.6271 Y-0.5807 Z-0.0157
X0.6249 Y-0.5842 Z-0.0176
X0.6227 Y-0.5879 Z-0.0189
X0.6203 Y-0.5917 Z-0.0197
X0.618 Y-0.5956 Z-0.02
X0.5984 Y-0.6276
G2 X0.5469 Y-0.64 I-0.032 J0.0196
Y0.64 I0.391 J0.64
X0.5984 Y0.6276 I0.0196 J-0.032
G1 X0.618 Y0.5956
X0.6203 Y0.5917 Z-0.0197
X0.6227 Y0.5879 Z-0.0189
X0.6249 Y0.5842 Z-0.0176
X0.6271 Y0.5807 Z-0.0157
X0.6291 Y0.5774 Z-0.0134
X0.6309 Y0.5743 Z-0.0106
X0.6326 Y0.5716 Z-0.0074
X0.6341 Y0.5692 Z-0.0038
X0.6353 Y0.5672 Z0.0001
X0.6363 Y0.5656 Z0.0042
X0.637 Y0.5645 Z0.0085
X0.6374 Y0.5638 Z0.013
X0.6375 Y0.5636 Z0.0175
G0 Z2.35
M5
M9
G53 G0 Z0.
M30
%
