%
(JUST 1,375 BORE)
(T36 D=0.375 CR=0. - ZMIN=0.15 - FLAT END MILL)
G90 G94 G17 G91.1
G20
G53 G0 Z0.
(2D CONTOUR2 2)
T36 M6
S7500 M3
G17 G90 G94
G54
G64 P0.0004 Q0.0004
M8
G0 X1.2546 Y-0.9046
G43 Z2.2861 H36
G0 Z1.8861
G1 Z1.7254 F80.
Z0.1875
G18 G2 X1.2921 Z0.15 I0.0375 K0. F50.
G1 X1.3296
G17 G3 X1.3671 Y-0.8671 I0. J0.0375
X0.3671 I-0.5 J0.
X1.3671 I0.5 J0.
X0.3671 I-0.5 J0.
X1.3671 I0.5 J0.
X1.3296 Y-0.8296 I-0.0375 J0.
G1 X1.2921
G18 G3 X1.2546 Z0.1875 I0. K0.0375
G0 Z2.2861
G17
M5
M9
G53 G0 Z0.
M30
%
