%
(MILLING MAIN PIVOT -2THOU)
(T22 D=0.1875 CR=0.008 - ZMIN=-0.4 - BULLNOSE END MILL)
G90 G94 G17 G91.1
G20
G53 G0 Z0.
(2D CONTOUR1 2)
T22 M6
S7500 M3
G17 G90 G94
G54
G64 P0.0004 Q0.0004
M8
G0 X0.474 Y-0.0187
G43 Z0.6 H22
G0 Z0.2
G1 Z0.0375 F80.
Z-0.3813
G18 G2 X0.4928 Z-0.4 I0.0187 K0. F9.
G1 X0.5115
G17 G3 X0.5303 Y0. I0. J0.0187
X-0.5303 I-0.5303 J0.
X0.5303 I0.5303 J0.
X-0.5303 I-0.5303 J0.
X0.5303 I0.5303 J0.
X0.5115 Y0.0187 I-0.0187 J0.
G1 X0.4928
G18 G3 X0.474 Z-0.3813 I0. K0.0187
G0 Z0.6
G17
M5
M9
G53 G0 Z0.
M30
%
