%
(ST JIG SIDE 2)
(T13 D=0.375 CR=0. TAPER=45DEG - ZMIN=0.3131 - CHAMFER MILL)
(T33 D=0.25 CR=0. - ZMIN=0. - FLAT END MILL)
(T35 D=0.375 CR=0. - ZMIN=0.0591 - FLAT END MILL)
(T54 D=0.3125 CR=0. TAPER=118DEG - ZMIN=-0.1139 - DRILL)
G90 G94 G17 G91.1
G20
G53 G0 Z0.
(DRILL1 2)
T54 M6
T35
S5000 M3
G17 G90 G94
G54
M8
G0 X0.9061 Y-1.851
G43 Z1.1021 H54
G0 Z0.7021
G98 G81 X0.9061 Y-1.851 Z-0.1139 R0.7021 F40.
X3.4652 Y-1.855
X4.4429 Y-1.9686
X5.0295 Y-2.0368
X5.6161 Y-2.105
X6.2027 Y-2.1732
X6.7893 Y-2.2414
X7.6992 Y-2.1341
X8.4568 Y-1.9195
X9.2144 Y-1.7048
X11.4871 Y-1.0609
X12.2447 Y-0.8462
G80
G0 Z1.1021
(DRILL2 2)
G0 X9.9219 Y-2.4455
Z1.1021
Z0.7021
G81 X9.9219 Y-2.4455 Z-0.0939 R0.6921 F40.
G80
G0 Z1.1021
M5
G53 G0 Z0.
(FACE1 2)
M9
M1
T35 M6
T33
S7500 M3
G17 G90 G94
G54
G64 P0.0004 Q0.0004
M8
G0 X12.9222 Y-2.7842
G43 Z1.1021 H35
G0 Z0.7021
G1 Z0.5296 F80.
G18 G3 X12.8847 Z0.4921 I-0.0375 K0. F60.
G1 X12.7784
X-0.1
G17 G2 Y-2.5475 I0. J0.1183
G1 X12.7784
G3 Y-2.3108 I0. J0.1183
G1 X-0.1
G2 Y-2.0741 I0. J0.1183
G1 X12.7784
G3 Y-1.8375 I0. J0.1183
G1 X-0.1
G2 Y-1.6008 I0. J0.1183
G1 X12.7784
G3 Y-1.3641 I0. J0.1183
G1 X-0.1
G2 Y-1.1274 I0. J0.1183
G1 X12.7784
G3 Y-0.8907 I0. J0.1183
G1 X-0.1
G2 Y-0.654 I0. J0.1183
G1 X12.7784
G3 Y-0.4173 I0. J0.1183
G1 X-0.1
G2 Y-0.1806 I0. J0.1183
G1 X12.7784
G18 G2 X12.8159 Z0.5296 I0. K0.0375
G0 Z1.1021
G17
(2D ADAPTIVE1 3)
G64 P0.004 Q0.004
G0 X0.978 Y-2.0237
Z1.1021
Z0.6021
G3 X1.0567 Y-1.7403 Z0.5725 I-0.0718 J0.1726 F40.
X0.7636 Y-1.7311 Z0.5429 I-0.1502 J-0.1105
X0.8242 Y-2.0173 Z0.5133 I0.1426 J-0.1193
X1.087 Y-1.8908 Z0.4837 I0.0818 J0.1664
X0.9022 Y-1.6662 Z0.4541 I-0.1805 J0.0398
X0.7284 Y-1.8984 Z0.4244 I0.0042 J-0.1843
X0.9945 Y-2.0117 Z0.3948 I0.1775 J0.0478
X1.0412 Y-1.7271 Z0.3652 I-0.0883 J0.1606
X0.7545 Y-1.7493 Z0.3356 I-0.1347 J-0.1236
X0.8439 Y-2.0218 Z0.306 I0.1517 J-0.1011
X1.0867 Y-1.8706 Z0.2764 I0.062 J0.1709
X0.8827 Y-1.6713 Z0.2467 I-0.1802 J0.0196
X0.738 Y-1.916 Z0.2171 I0.0237 J-0.1792
X1.0094 Y-1.9982 Z0.1875 I0.1679 J0.0654
X1.0247 Y-1.7159 Z0.1579 I-0.1031 J0.1472
X0.7476 Y-1.768 Z0.1283 I-0.1181 J-0.1348
X0.8637 Y-2.024 Z0.0987 I0.1585 J-0.0825
X1.0842 Y-1.8509 Z0.0691 I0.0423 J0.1731
X0.7278 I-0.1782 J0.
X1.0841 Y-1.8563 I0.1782 J0.
G1 X1.0842 Y-1.8509
X1.0843 Y-1.8399 F60.
X1.0859 Y-1.8289
X1.0977 Y-1.7861
G3 X1.0952 Y-1.7039 I-0.1097 J0.0379
X1.0205 Y-1.6128 I-0.1708 J-0.0639
X0.8544 Y-1.5778 I-0.1286 J-0.1992
X0.6419 Y-1.747 I0.0399 J-0.2681
X1.0518 Y-2.0958 I0.2637 J-0.1053
X1.1499 Y-1.9989 I-0.1413 J0.2412
G1 X1.1717 Y-1.9602
X1.19 Y-1.9223
X1.2022 Y-1.8906
G3 X1.2205 Y-1.7565 I-0.3195 J0.1118
X1.1749 Y-1.6165 I-0.3082 J-0.0229
X0.9882 Y-1.4757 I-0.2787 J-0.1754
X0.7579 Y-1.4832 I-0.104 J-0.347
X0.5507 Y-1.6629 I0.133 J-0.3627
X0.5792 Y-2.0888 I0.3516 J-0.1904
X1.1834 Y-2.1456 I0.3271 J0.2373
G1 X1.2118 Y-2.1176
X1.2386 Y-2.0862
X1.2633 Y-2.0521
X1.2849 Y-2.0166
X1.303 Y-1.9804
X1.3179 Y-1.9438
X1.3294 Y-1.9071
G3 X1.3449 Y-1.7611 I-0.4431 J0.1207
X1.2168 Y-1.4736 I-0.4429 J-0.025
X1.0639 Y-1.3715 I-0.3266 J-0.3234
X0.915 Y-1.337 I-0.1807 J-0.441
G1 X0.876 Y-1.3359
X0.8367 Y-1.3379
X0.7975 Y-1.3432
X0.7585 Y-1.3516
X0.7202 Y-1.3632
X0.6826 Y-1.3779
X0.6462 Y-1.3957
X0.6111 Y-1.4165
X0.5777 Y-1.4401
X0.5461 Y-1.4665
X0.5166 Y-1.4954
X0.4894 Y-1.5267
X0.4648 Y-1.5602
X0.4428 Y-1.5957
X0.4237 Y-1.633
X0.4076 Y-1.6717
X0.3947 Y-1.7117
X0.385 Y-1.7527
X0.3785 Y-1.7944
X0.3755 Y-1.8366
X0.3759 Y-1.8789
X0.3796 Y-1.9211
X0.3867 Y-1.9629
X0.3972 Y-2.0041
X0.411 Y-2.0443
X0.4279 Y-2.0833
X0.448 Y-2.1208
X0.471 Y-2.1567
X0.4968 Y-2.1906
X0.5253 Y-2.2223
X0.5562 Y-2.2516
X0.5894 Y-2.2784
X0.6246 Y-2.3024
X0.6617 Y-2.3235
X0.7004 Y-2.3416
X0.7404 Y-2.3566
X0.7814 Y-2.3682
X0.8233 Y-2.3766
X0.8657 Y-2.3815
X0.9084 Y-2.3831
X0.9511 Y-2.3812
X0.9935 Y-2.3759
X1.0353 Y-2.3672
X1.0763 Y-2.3551
X1.1163 Y-2.3398
X1.1558 Y-2.3209
X1.1942 Y-2.2986
X1.2307 Y-2.2734
X1.2652 Y-2.2455
X1.2976 Y-2.2151
X1.3277 Y-2.1826
X1.3554 Y-2.1479
X1.3805 Y-2.1113
X1.4029 Y-2.073
X1.4225 Y-2.0332
G3 X1.4339 Y-2.0027 I-0.1897 J0.0885
X1.4478 Y-1.7608 I-0.5422 J0.1524
X1.4289 Y-1.682 I-0.7746 J-0.1444
X1.4038 Y-1.6175 I-2.8959 J-1.0899
G1 X1.3837 Y-1.5809
X1.37 Y-1.5561
X1.364 Y-1.5472
X1.3363 Y-1.5101
G3 X1.2577 Y-1.4286 I-0.476 J-0.3804
G1 X1.2238 Y-1.4035
G3 X0.909 Y-1.3021 I-0.3178 J-0.4473
G1 X0.8977 Y-1.3016
X0.8303 Y-1.3064
X0.819 Y-1.3085
X0.7628 Y-1.3208
G3 X0.7234 Y-1.3338 I0.0617 J-0.2531
X0.6472 Y-1.3675 I0.1198 J-0.3741
X0.5768 Y-1.4125 I0.1556 J-0.3208
G1 X0.5479 Y-1.4348
G3 X0.4481 Y-1.5479 I0.4011 J-0.4547
X0.4049 Y-1.6258 I0.7042 J-0.4408
X0.3797 Y-1.6933 I1.6858 J-0.6684
G1 X0.3717 Y-1.727
G3 X0.3575 Y-1.8394 I0.493 J-0.1191
X0.3833 Y-2.0193 I0.5576 J-0.0117
G1 X0.3959 Y-2.053
X0.4049 Y-2.0755
G3 X0.456 Y-2.1655 I0.5592 J0.2581
X0.5468 Y-2.2667 I0.5079 J0.3647
X0.6165 Y-2.3181 I0.6515 J0.8094
X0.6913 Y-2.3567 I0.5625 J0.9974
X0.7627 Y-2.3815 I0.419 J1.093
G1 X0.819 Y-2.3935
X0.8303 Y-2.3956
X0.8977 Y-2.4004
G3 X1.0439 Y-2.3826 I-0.001 J0.6151
X1.1901 Y-2.3209 I-0.1516 J0.5633
X1.2688 Y-2.264 I-0.3654 J0.5879
X1.3364 Y-2.192 I-0.4921 J0.5296
G1 X1.3645 Y-2.1542
G3 X1.4077 Y-2.0756 I-0.6614 J0.4146
X1.4341 Y-2.0028 I-1.0014 J0.4043
G1 X1.4347 Y-1.9984
X1.4348 Y-1.9939
X1.4344 Y-1.9895
X1.4335 Y-1.9852
X1.432 Y-1.981
X1.4301 Y-1.977
X1.4277 Y-1.9733
X1.4251 Y-1.9696 Z0.0693
X1.4225 Y-1.966 Z0.0701
X1.42 Y-1.9624 Z0.0715
X1.4176 Y-1.9591 Z0.0734
X1.4154 Y-1.9559 Z0.0757
X1.4133 Y-1.953 Z0.0785
X1.4114 Y-1.9504 Z0.0817
X1.4098 Y-1.9481 Z0.0853
X1.4085 Y-1.9462 Z0.0891
X1.4074 Y-1.9447 Z0.0933
X1.4066 Y-1.9436 Z0.0976
X1.4061 Y-1.9429 Z0.102
X1.406 Y-1.9427 Z0.1066
G0 Z1.1021
(2D ADAPTIVE1 4)
G0 X3.4652 Y-1.855
Z1.1021
Z0.6021
G1 Z0.4331 F80.
X3.466 Y-1.8538 F60.
X3.4651 Y-1.8526
X3.4637 Y-1.8521
X3.4622 Y-1.8523
X3.4596 Y-1.8537
X3.458 Y-1.8563
X3.4576 Y-1.8592
X3.4587 Y-1.8651
G3 X3.4853 Y-1.8714 I0.0168 J0.0116
X3.502 Y-1.8294 I-0.0174 J0.0313
X3.455 Y-1.7877 I-0.0546 J-0.0141
X3.3906 Y-1.8052 I-0.0138 J-0.0764
X3.3559 Y-1.866 I0.0619 J-0.0756
X3.3729 Y-1.9481 I0.1163 J-0.0188
G1 X3.3838 Y-1.9633
X3.3974 Y-1.9774
X3.4134 Y-1.9896
X3.4313 Y-1.9997
X3.4513 Y-2.0074
X3.4727 Y-2.0123
X3.4951 Y-2.0141
X3.5184 Y-2.0125
X3.5417 Y-2.0076
X3.5647 Y-1.9991
X3.5867 Y-1.9871
X3.6073 Y-1.9717
X3.626 Y-1.9529
X3.6422 Y-1.9311
X3.6554 Y-1.9066
X3.6652 Y-1.8799
X3.6712 Y-1.8513
X3.6731 Y-1.8216
X3.6706 Y-1.7913
X3.6636 Y-1.7609
X3.652 Y-1.7312
X3.6359 Y-1.7028
X3.6155 Y-1.6764
X3.5911 Y-1.6529
X3.5629 Y-1.6327
X3.5316 Y-1.6164
X3.4976 Y-1.6046
X3.4615 Y-1.5977
X3.4242 Y-1.596
X3.3862 Y-1.5998
X3.3484 Y-1.6092
X3.3116 Y-1.6242
X3.2768 Y-1.6447
X3.2447 Y-1.6704
X3.2162 Y-1.701
X3.192 Y-1.736
X3.1727 Y-1.7747
X3.159 Y-1.8164
X3.1514 Y-1.8601
X3.1501 Y-1.9045
X3.155 Y-1.9486
X3.166 Y-1.9916
X3.1827 Y-2.0327
X3.2048 Y-2.0712
X3.2317 Y-2.1064
X3.263 Y-2.1379
X3.298 Y-2.1652
X3.3362 Y-2.1877
X3.377 Y-2.2052
X3.4196 Y-2.2176
X3.4634 Y-2.2247
X3.5077 Y-2.2266
X3.552 Y-2.2231
X3.5955 Y-2.2143
X3.6377 Y-2.2005
X3.678 Y-2.182
X3.716 Y-2.1591
X3.751 Y-2.1319
X3.7828 Y-2.1009
X3.8111 Y-2.0667
X3.8354 Y-2.0296
X3.8555 Y-1.99
X3.8712 Y-1.9485
X3.8825 Y-1.9056
X3.8891 Y-1.8617
X3.891 Y-1.8174
X3.8884 Y-1.7731
X3.8812 Y-1.7293
X3.8695 Y-1.6865
X3.8537 Y-1.6451
X3.8337 Y-1.6054
X3.8098 Y-1.568
X3.7825 Y-1.5331
X3.7518 Y-1.5011
X3.7181 Y-1.4722
X3.6818 Y-1.4466
X3.6432 Y-1.4247
X3.6027 Y-1.4066
X3.5607 Y-1.3923
X3.5175 Y-1.3821
X3.4736 Y-1.376
X3.4293 Y-1.3738
X3.3849 Y-1.3759
X3.341 Y-1.3819
X3.3238 Y-1.3858
X3.3217 Y-1.3864
G3 X3.2465 Y-1.4159 I0.264 J-0.7832
X3.1677 Y-1.4654 I0.3526 J-0.6497
X3.1137 Y-1.5134 I0.4358 J-0.5448
X3.0316 Y-1.6258 I0.3943 J-0.3739
X3.002 Y-1.6933 I1.2532 J-0.5904
X2.9837 Y-1.7608 I4.1007 J-1.1483
G1 X2.9822 Y-1.772
X2.9794 Y-1.7945
X2.9755 Y-1.8282
G3 X2.9772 Y-1.9069 I1.1335 J-0.0139
G1 X2.9892 Y-1.9743
G3 X3.0164 Y-2.053 I1.1081 J0.3386
X3.0553 Y-2.1237 I0.8557 J0.4244
X3.1529 Y-2.2331 I0.4479 J0.3014
G1 X3.1903 Y-2.2607
X3.1985 Y-2.2666
X3.2128 Y-2.2751
X3.2598 Y-2.3003
G3 X3.3927 Y-2.3395 I0.2199 J0.4997
G1 X3.4268 Y-2.3452
G3 X3.4714 Y-2.3453 I0.0228 J0.2463
G1 X3.5052 Y-2.3429
G3 X3.5727 Y-2.3325 I-0.0086 J0.2818
G1 X3.6064 Y-2.3246
X3.6132 Y-2.3228
G3 X3.6852 Y-2.2933 I-0.3588 J0.9804
G1 X3.6964 Y-2.2868
G3 X3.8443 Y-2.1652 I-0.2301 J0.4306
G1 X3.8538 Y-2.1542
G3 X3.8989 Y-2.0831 I-0.6809 J0.4812
X3.9382 Y-1.7271 I-0.4391 J0.2287
X3.8631 Y-1.5696 I-0.4796 J-0.1321
G1 X3.8473 Y-1.5472
G3 X3.7944 Y-1.491 I-1.0578 J-0.9436
X3.6852 Y-1.417 I-0.4031 J-0.4766
X3.6064 Y-1.3857 I-0.2985 J-0.6359
X3.5277 Y-1.3689 I-0.1758 J-0.6317
X3.3927 Y-1.3703 I-0.0618 J-0.5311
X3.3217 Y-1.3864 I0.1311 J-0.7457
G1 X3.3176 Y-1.3881
X3.3138 Y-1.3904
X3.3103 Y-1.393
X3.3071 Y-1.3961
X3.3042 Y-1.3995
X3.3019 Y-1.4032
X3.2999 Y-1.4072
X3.2982 Y-1.4113 Z0.4333
X3.2964 Y-1.4154 Z0.4342
X3.2948 Y-1.4194 Z0.4355
X3.2932 Y-1.4232 Z0.4374
X3.2917 Y-1.4268 Z0.4397
X3.2903 Y-1.4301 Z0.4425
X3.289 Y-1.433 Z0.4457
X3.288 Y-1.4356 Z0.4493
X3.287 Y-1.4378 Z0.4531
X3.2863 Y-1.4395 Z0.4573
X3.2858 Y-1.4407 Z0.4616
X3.2855 Y-1.4415 Z0.4661
X3.2854 Y-1.4417 Z0.4706
G0 Z1.1021
X0.9062 Y-1.851
Z0.6021
G1 Z0.0591 F80.
X0.905 Y-1.8501 F60.
X0.9037 Y-1.8508
X0.9031 Y-1.8522
X0.9032 Y-1.8537
X0.9043 Y-1.8565
X0.9067 Y-1.8583
X0.9096 Y-1.859
X0.9156 Y-1.8585
G3 X0.9245 Y-1.8327 I-0.0098 J0.0179
X0.8845 Y-1.8117 I-0.0329 J-0.0141
X0.8382 Y-1.8542 I0.0085 J-0.0557
X0.849 Y-1.9201 I0.0746 J-0.0216
X0.906 Y-1.9608 I0.0815 J0.0538
X0.9893 Y-1.9524 I0.0306 J0.1138
G1 X1.0056 Y-1.943
X1.021 Y-1.9309
X1.0348 Y-1.9163
X1.0467 Y-1.8995
X1.0564 Y-1.8804
X1.0634 Y-1.8596
X1.0675 Y-1.8375
X1.0683 Y-1.8142
X1.0658 Y-1.7904
X1.0597 Y-1.7668
X1.05 Y-1.7436
X1.0368 Y-1.7216
X1.02 Y-1.701
X1. Y-1.6827
X0.977 Y-1.667
X0.9514 Y-1.6545
X0.9236 Y-1.6457
X0.8942 Y-1.6408
X0.8638 Y-1.6402
X0.8329 Y-1.644
X0.8021 Y-1.6525
X0.7722 Y-1.6656
X0.7439 Y-1.6832
X0.718 Y-1.7051
X0.695 Y-1.731
X0.6756 Y-1.7606
X0.6604 Y-1.7932
X0.6498 Y-1.8284
X0.6443 Y-1.8653
X0.6442 Y-1.9035
X0.6497 Y-1.942
X0.6608 Y-1.9801
X0.6777 Y-2.0169
X0.7 Y-2.0515
X0.7275 Y-2.083
X0.7598 Y-2.1106
X0.7964 Y-2.1337
X0.8365 Y-2.1516
X0.8792 Y-2.1637
X0.9232 Y-2.1695
X0.9675 Y-2.1691
X1.0114 Y-2.1626
X1.054 Y-2.1501
X1.0946 Y-2.1321
X1.1324 Y-2.109
X1.167 Y-2.0811
X1.1976 Y-2.049
X1.224 Y-2.0133
X1.2456 Y-1.9745
X1.2622 Y-1.9334
X1.2738 Y-1.8906
X1.2802 Y-1.8467
X1.2812 Y-1.8023
X1.2769 Y-1.7581
X1.2675 Y-1.7148
X1.2533 Y-1.6727
X1.2343 Y-1.6326
X1.2108 Y-1.595
X1.1833 Y-1.5602
X1.1522 Y-1.5286
X1.1177 Y-1.5006
X1.0804 Y-1.4766
X1.0407 Y-1.4567
X0.9992 Y-1.4411
X0.9562 Y-1.43
X0.9123 Y-1.4236
X0.868 Y-1.4216
X0.8237 Y-1.4243
X0.7799 Y-1.4316
X0.7371 Y-1.4431
X0.6956 Y-1.4589
X0.656 Y-1.4788
X0.6184 Y-1.5025
X0.5834 Y-1.5297
X0.5513 Y-1.5603
X0.5221 Y-1.5938
X0.4964 Y-1.6299
X0.4742 Y-1.6684
X0.4557 Y-1.7087
X0.4411 Y-1.7506
X0.4305 Y-1.7937
X0.4238 Y-1.8375
X0.4214 Y-1.8819
X0.4228 Y-1.9262
X0.4283 Y-1.9702
X0.4378 Y-2.0136
X0.451 Y-2.056
X0.468 Y-2.0969
X0.4885 Y-2.1363
X0.5124 Y-2.1737
X0.5395 Y-2.2088
X0.5694 Y-2.2416
X0.6021 Y-2.2716
X0.6372 Y-2.2987
X0.6745 Y-2.3227
X0.7137 Y-2.3435
X0.7545 Y-2.361
X0.7967 Y-2.3749
X0.8398 Y-2.3854
X0.8836 Y-2.3921
X0.9279 Y-2.3953
X0.9723 Y-2.3948
X0.9925 Y-2.3929
X0.9943 Y-2.3926
G3 X1.2239 Y-2.2986 I-0.087 J0.5399
G1 X1.2576 Y-2.2733
G3 X1.3363 Y-2.1919 I-0.3786 J0.4452
G1 X1.3645 Y-2.1542
G3 X1.4077 Y-2.0756 I-0.6614 J0.4146
X1.4327 Y-2.0081 I-1.9582 J0.7632
X1.4489 Y-1.9354 I-1.2263 J0.3114
X1.4479 Y-1.7608 I-0.5865 J0.084
X1.4289 Y-1.682 I-0.8132 J-0.1546
X1.4038 Y-1.6175 I-2.9409 J-1.1076
G1 X1.3837 Y-1.5809
X1.37 Y-1.5561
X1.364 Y-1.5472
X1.3363 Y-1.5101
G3 X1.2577 Y-1.4286 I-0.476 J-0.3804
G1 X1.2238 Y-1.4035
G3 X0.909 Y-1.3021 I-0.3178 J-0.4473
G1 X0.8977 Y-1.3016
X0.8303 Y-1.3064
X0.819 Y-1.3085
X0.7628 Y-1.3208
G3 X0.7234 Y-1.3338 I0.0617 J-0.2531
X0.6472 Y-1.3675 I0.1198 J-0.3741
X0.5768 Y-1.4125 I0.1556 J-0.3208
G1 X0.5479 Y-1.4348
G3 X0.4481 Y-1.5479 I0.4011 J-0.4547
X0.4049 Y-1.6258 I0.7042 J-0.4408
X0.3797 Y-1.6933 I1.6858 J-0.6684
G1 X0.3717 Y-1.727
G3 X0.3575 Y-1.8394 I0.493 J-0.1191
X0.3833 Y-2.0193 I0.5576 J-0.0117
G1 X0.3959 Y-2.053
X0.4049 Y-2.0755
G3 X0.456 Y-2.1655 I0.5592 J0.2581
X0.5468 Y-2.2667 I0.5079 J0.3647
X0.6165 Y-2.3181 I0.6515 J0.8094
X0.6913 Y-2.3567 I0.5625 J0.9974
X0.7627 Y-2.3815 I0.419 J1.093
G1 X0.819 Y-2.3935
X0.8303 Y-2.3956
X0.8977 Y-2.4004
G3 X0.9943 Y-2.3929 I-0.006 J0.6951
G1 X0.9986 Y-2.3917
X1.0027 Y-2.39
X1.0066 Y-2.3879
X1.0102 Y-2.3853
X1.0135 Y-2.3823
X1.0163 Y-2.379
X1.0188 Y-2.3753
X1.0212 Y-2.3715 Z0.0593
X1.0235 Y-2.3676 Z0.0601
X1.0257 Y-2.3639 Z0.0615
X1.0279 Y-2.3604 Z0.0634
X1.0299 Y-2.3571 Z0.0657
X1.0317 Y-2.3541 Z0.0685
X1.0334 Y-2.3513 Z0.0717
X1.0348 Y-2.3489 Z0.0753
X1.0361 Y-2.3469 Z0.0791
X1.037 Y-2.3453 Z0.0833
X1.0377 Y-2.3442 Z0.0876
X1.0381 Y-2.3435 Z0.092
X1.0383 Y-2.3433 Z0.0966
G0 Z1.1021
(2D CONTOUR1 3)
G64 P0.0004 Q0.0004
G0 X1.3572 Y-1.8885
Z1.1021
Z0.7021
G1 Z0.0966 F80.
G18 G2 X1.3947 Z0.0591 I0.0375 K0. F60.
G1 X1.4322
G17 G3 X1.4697 Y-1.851 I0. J0.0375
X0.3426 I-0.5635 J0.
X1.4697 I0.5635 J0.
X0.3426 I-0.5635 J0.
X1.4697 I0.5635 J0.
X1.4322 Y-1.8135 I-0.0375 J0.
G1 X1.3947
G18 G3 X1.3572 Z0.0966 I0. K0.0375
G0 Z1.1021
G17
(2D CONTOUR1 4)
G0 X3.8575 Y-1.8888
Z1.1021
Z0.7021
G1 Z0.4706 F80.
X3.8578 Z0.4661 F60.
X3.8586 Z0.4616
X3.86 Z0.4573
X3.8618 Z0.4531
X3.8642 Y-1.8887 Z0.4493
X3.867 Z0.4457
X3.8702 Z0.4425
X3.8737 Y-1.8886 Z0.4397
X3.8776 Z0.4374
X3.8817 Z0.4355
X3.886 Y-1.8885 Z0.4342
X3.8905 Z0.4333
X3.895 Y-1.8884 Z0.4331
X3.9325 Y-1.8881
G3 X3.9697 Y-1.8503 I-0.0004 J0.0375
X2.9608 Y-1.8597 I-0.5045 J-0.0047
X3.4069 Y-2.3561 I0.5045 J0.0047
G1 X3.4356 Y-2.3594
X3.4644
G3 X3.466 Y-1.3505 I0.0008 J0.5045
X3.4069 Y-2.3561 I-0.0008 J-0.5045
G1 X3.4356 Y-2.3594
X3.4644
G3 X3.9697 Y-1.8503 I0.0008 J0.5045
X3.9318 Y-1.8131 I-0.0375 J-0.0004
G1 X3.8943 Y-1.8135
X3.8898 Z0.4333
X3.8853 Z0.4342
X3.881 Y-1.8136 Z0.4355
X3.8769 Z0.4374
X3.873 Y-1.8137 Z0.4397
X3.8695 Z0.4425
X3.8663 Z0.4457
X3.8635 Z0.4493
X3.8611 Y-1.8138 Z0.4531
X3.8593 Z0.4573
X3.8579 Z0.4616
X3.8571 Z0.4661
X3.8568 Z0.4706
G0 Z1.1021
(2D CONTOUR2 2)
G0 X9.9091 Y-2.463
Z1.1021
Z0.7021
G1 Z0.3521 F10.
G18 G2 X9.9266 Z0.3346 I0.0175 K0.
G1 X9.9366
G17 G3 X9.9541 Y-2.4455 I0. J0.0175
X9.8896 I-0.0323 J0.
X9.9541 I0.0323 J0.
X9.8896 I-0.0323 J0.
X9.9541 I0.0323 J0.
X9.9366 Y-2.428 I-0.0175 J0.
G1 X9.9266
G18 G3 X9.9091 Z0.3521 I0. K0.0175
G0 Z1.1021
G17
(2D CONTOUR3 2)
G0 X12.6759 Y-3.0959
Z1.1021
Z0.7021
G1 Z0.5415 F80.
Z0.1875
G19 G3 Y-3.0584 Z0.15 J0.0375 K0. F60.
G1 Y-3.0209
G17 G3 X12.6384 Y-2.9834 I-0.0375 J0.
G1 X0.04
G2 X-0.1475 Y-2.7959 I0. J0.1875
G1 Y-0.04
G2 X0.04 Y0.1475 I0.1875 J0.
G1 X12.6384
G2 X12.8259 Y-0.04 I0. J-0.1875
G1 Y-2.7959
G2 X12.6384 Y-2.9834 I-0.1875 J0.
G1 X0.04
G2 X-0.1475 Y-2.7959 I0. J0.1875
G1 Y-0.04
G2 X0.04 Y0.1475 I0.1875 J0.
G1 X12.6384
G2 X12.8259 Y-0.04 I0. J-0.1875
G1 Y-2.7959
G2 X12.6384 Y-2.9834 I-0.1875 J0.
G3 X12.6009 Y-3.0209 I0. J-0.0375
G1 Y-3.0584
G19 G2 Y-3.0959 Z0.1875 J0. K0.0375
G0 Z1.1021
G17
M5
G53 G0 Z0.
(2D CONTOUR4)
M9
M1
T33 M6
T13
S7500 M3
G17 G90 G94
G54
M8
G0 X6.7778 Y-2.2664
G43 Z1.1021 H33
G0 Z0.7021
G1 Z0.5415 F80.
Z0.025
G18 G2 X6.8028 Z0. I0.025 K0. F15.
G1 X6.8278
G17 G3 X6.8528 Y-2.2414 I0. J0.025
X6.7258 I-0.0635 J0.
X6.8528 I0.0635 J0.
X6.7258 I-0.0635 J0.
X6.8528 I0.0635 J0.
X6.8278 Y-2.2164 I-0.025 J0.
G1 X6.8028
G18 G3 X6.7778 Z0.025 I0. K0.025
G0 Z0.7021
X6.1912 Y-2.1982
G1 Z0.5415 F80.
Z0.025
G2 X6.2162 Z0. I0.025 K0. F15.
G1 X6.2412
G17 G3 X6.2662 Y-2.1732 I0. J0.025
X6.1392 I-0.0635 J0.
X6.2662 I0.0635 J0.
X6.1392 I-0.0635 J0.
X6.2662 I0.0635 J0.
X6.2412 Y-2.1482 I-0.025 J0.
G1 X6.2162
G18 G3 X6.1912 Z0.025 I0. K0.025
G0 Z0.7021
X5.6046 Y-2.13
G1 Z0.5415 F80.
Z0.025
G2 X5.6296 Z0. I0.025 K0. F15.
G1 X5.6546
G17 G3 X5.6796 Y-2.105 I0. J0.025
X5.5526 I-0.0635 J0.
X5.6796 I0.0635 J0.
X5.5526 I-0.0635 J0.
X5.6796 I0.0635 J0.
X5.6546 Y-2.08 I-0.025 J0.
G1 X5.6296
G18 G3 X5.6046 Z0.025 I0. K0.025
G0 Z0.7021
X5.0179 Y-2.0618
G1 Z0.5415 F80.
Z0.025
G2 X5.0429 Z0. I0.025 K0. F15.
G1 X5.0679
G17 G3 X5.0929 Y-2.0368 I0. J0.025
X4.9659 I-0.0635 J0.
X5.0929 I0.0635 J0.
X4.9659 I-0.0635 J0.
X5.0929 I0.0635 J0.
X5.0679 Y-2.0118 I-0.025 J0.
G1 X5.0429
G18 G3 X5.0179 Z0.025 I0. K0.025
G0 Z0.7021
X4.4314 Y-1.9936
G1 Z0.5415 F80.
Z0.025
G2 X4.4564 Z0. I0.025 K0. F15.
G1 X4.4814
G17 G3 X4.5064 Y-1.9686 I0. J0.025
X4.3794 I-0.0635 J0.
X4.5064 I0.0635 J0.
X4.3794 I-0.0635 J0.
X4.5064 I0.0635 J0.
X4.4814 Y-1.9436 I-0.025 J0.
G1 X4.4564
G18 G3 X4.4314 Z0.025 I0. K0.025
G0 Z0.7021
X3.4537 Y-1.88
G1 Z0.5415 F80.
Z0.025
G2 X3.4787 Z0. I0.025 K0. F15.
G1 X3.5037
G17 G3 X3.5287 Y-1.855 I0. J0.025
X3.4017 I-0.0635 J0.
X3.5287 I0.0635 J0.
X3.4017 I-0.0635 J0.
X3.5287 I0.0635 J0.
X3.5037 Y-1.83 I-0.025 J0.
G1 X3.4787
G18 G3 X3.4537 Z0.025 I0. K0.025
G0 Z0.7021
X0.8946 Y-1.876
G1 Z0.5415 F80.
Z0.025
G2 X0.9196 Z0. I0.025 K0. F15.
G1 X0.9446
G17 G3 X0.9696 Y-1.851 I0. J0.025
X0.8426 I-0.0635 J0.
X0.9696 I0.0635 J0.
X0.8426 I-0.0635 J0.
X0.9696 I0.0635 J0.
X0.9446 Y-1.826 I-0.025 J0.
G1 X0.9196
G18 G3 X0.8946 Z0.025 I0. K0.025
G0 Z0.7021
X7.6878 Y-2.1591
G1 Z0.5415 F80.
Z0.025
G2 X7.7128 Z0. I0.025 K0. F15.
G1 X7.7378
G17 G3 X7.7628 Y-2.1341 I0. J0.025
X7.6358 I-0.0635 J0.
X7.7628 I0.0635 J0.
X7.6358 I-0.0635 J0.
X7.7628 I0.0635 J0.
X7.7378 Y-2.1091 I-0.025 J0.
G1 X7.7128
G18 G3 X7.6878 Z0.025 I0. K0.025
G0 Z0.7021
X8.4536 Y-1.9468
G1 Z0.5415 F80.
Z0.025
X8.4539 Y-1.9467 Z0.0211 F15.
X8.4548 Y-1.9464 Z0.0173
X8.4562 Y-1.9459 Z0.0137
X8.4581 Y-1.9453 Z0.0103
X8.4606 Y-1.9445 Z0.0073
X8.4634 Y-1.9436 Z0.0048
X8.4666 Y-1.9426 Z0.0027
X8.47 Y-1.9415 Z0.0012
X8.4737 Y-1.9403 Z0.0003
X8.4774 Y-1.9391 Z0.
X8.5012 Y-1.9313
G17 G3 X8.5172 Y-1.8998 I-0.0077 J0.0238
X8.3964 Y-1.9391 I-0.0604 J-0.0196
X8.5172 Y-1.8998 I0.0604 J0.0196
X8.3964 Y-1.9391 I-0.0604 J-0.0196
X8.5172 Y-1.8998 I0.0604 J0.0196
X8.4857 Y-1.8838 I-0.0238 J-0.0077
G1 X8.4619 Y-1.8915
X8.4582 Y-1.8927 Z0.0003
X8.4546 Y-1.8939 Z0.0012
X8.4511 Y-1.895 Z0.0027
X8.4479 Y-1.8961 Z0.0048
X8.4451 Y-1.897 Z0.0073
X8.4427 Y-1.8978 Z0.0103
X8.4407 Y-1.8984 Z0.0137
X8.4393 Y-1.8989 Z0.0173
X8.4384 Y-1.8991 Z0.0211
X8.4381 Y-1.8992 Z0.025
G0 Z0.7021
X9.2112 Y-1.7321
G1 Z0.5415 F80.
Z0.025
X9.2115 Y-1.732 Z0.0211 F15.
X9.2124 Y-1.7318 Z0.0173
X9.2138 Y-1.7313 Z0.0137
X9.2157 Y-1.7307 Z0.0103
X9.2182 Y-1.7299 Z0.0073
X9.221 Y-1.729 Z0.0048
X9.2242 Y-1.7279 Z0.0027
X9.2276 Y-1.7268 Z0.0012
X9.2313 Y-1.7256 Z0.0003
X9.235 Y-1.7244 Z0.
X9.2588 Y-1.7167
G3 X9.2748 Y-1.6852 I-0.0077 J0.0238
X9.154 Y-1.7244 I-0.0604 J-0.0196
X9.2748 Y-1.6852 I0.0604 J0.0196
X9.154 Y-1.7244 I-0.0604 J-0.0196
X9.2748 Y-1.6852 I0.0604 J0.0196
X9.2433 Y-1.6691 I-0.0238 J-0.0077
G1 X9.2195 Y-1.6769
X9.2158 Y-1.6781 Z0.0003
X9.2122 Y-1.6793 Z0.0012
X9.2087 Y-1.6804 Z0.0027
X9.2055 Y-1.6814 Z0.0048
X9.2027 Y-1.6823 Z0.0073
X9.2003 Y-1.6831 Z0.0103
X9.1983 Y-1.6837 Z0.0137
X9.1969 Y-1.6842 Z0.0173
X9.196 Y-1.6845 Z0.0211
X9.1957 Y-1.6846 Z0.025
G0 Z0.7021
X11.4756 Y-1.0859
G1 Z0.5415 F80.
Z0.025
G18 G2 X11.5006 Z0. I0.025 K0. F15.
G1 X11.5256
G17 G3 X11.5506 Y-1.0609 I0. J0.025
X11.4236 I-0.0635 J0.
X11.5506 I0.0635 J0.
X11.4236 I-0.0635 J0.
X11.5506 I0.0635 J0.
X11.5256 Y-1.0359 I-0.025 J0.
G1 X11.5006
G18 G3 X11.4756 Z0.025 I0. K0.025
G0 Z0.7021
X12.2332 Y-0.8712
G1 Z0.5415 F80.
Z0.025
G2 X12.2582 Z0. I0.025 K0. F15.
G1 X12.2832
G17 G3 X12.3082 Y-0.8462 I0. J0.025
X12.1812 I-0.0635 J0.
X12.3082 I0.0635 J0.
X12.1812 I-0.0635 J0.
X12.3082 I0.0635 J0.
X12.2832 Y-0.8212 I-0.025 J0.
G1 X12.2582
G18 G3 X12.2332 Z0.025 I0. K0.025
G0 Z1.1021
G17
M5
G53 G0 Z0.
(2D CHAMFER1)
M9
M1
T13 M6
T54
S7500 M3
G17 G90 G94
G54
M8
G0 X6.2947 Y-2.1732
G43 Z1.1021 H13
G0 Z0.7021
G1 Z0.5821 F80.
Z0.3721
G3 X6.1107 I-0.092 J0. F50.
X6.2947 I0.092 J0.
G0 Z0.7021
X6.8813 Y-2.2414
G1 Z0.5821 F80.
Z0.3721
G3 X6.6973 I-0.092 J0. F50.
X6.8813 I0.092 J0.
G0 Z0.7021
X12.6384 Y-2.8924
G1 Z0.5821 F80.
Z0.3721
X0.04 F50.
G2 X-0.0565 Y-2.7959 I0. J0.0965
G1 Y-0.04
G2 X0.04 Y0.0565 I0.0965 J0.
G1 X12.6384
G2 X12.7349 Y-0.04 I0. J-0.0965
G1 Y-2.7959
G2 X12.6384 Y-2.8924 I-0.0965 J0.
G0 Z0.7021
X12.3342 Y-0.825
G1 Z0.5821 F80.
Z0.3721
G3 X12.1552 Y-0.8674 I-0.0895 J-0.0212 F50.
X12.3342 Y-0.825 I0.0895 J0.0212
G0 Z0.7021
X11.5791 Y-1.0609
G1 Z0.5821 F80.
Z0.3721
G3 X11.3951 I-0.092 J0. F50.
X11.5791 I0.092 J0.
G0 Z0.7021
X10.0423 Y-2.4243
G1 Z0.5821 F80.
Z0.3721
G3 X9.8015 Y-2.4667 I-0.1204 J-0.0212 F50.
X10.0423 Y-2.4243 I0.1204 J0.0212
G0 Z0.7021
X9.3039 Y-1.6836
G1 Z0.5821 F80.
Z0.3721
G3 X9.1249 Y-1.726 I-0.0895 J-0.0212 F50.
X9.3039 Y-1.6836 I0.0895 J0.0212
G0 Z0.7021
X8.5488 Y-1.9195
G1 Z0.5821 F80.
Z0.3721
G3 X8.3648 I-0.092 J0. F50.
X8.5488 I0.092 J0.
G0 Z0.7021
X7.7913 Y-2.1341
G1 Z0.5821 F80.
Z0.3721
G3 X7.6073 I-0.092 J0. F50.
X7.7913 I0.092 J0.
G0 Z0.7021
X5.7081 Y-2.105
G1 Z0.5821 F80.
Z0.3721
G3 X5.5241 I-0.092 J0. F50.
X5.7081 I0.092 J0.
G0 Z0.7021
X5.1214 Y-2.0368
G1 Z0.5821 F80.
Z0.3721
G3 X4.9374 I-0.092 J0. F50.
X5.1214 I0.092 J0.
G0 Z0.7021
X4.5349 Y-1.9686
G1 Z0.5821 F80.
Z0.3721
G3 X4.3509 I-0.092 J0. F50.
X4.5349 I0.092 J0.
G0 Z0.7021
X1.5577 Y-1.851
G1 Z0.5821 F80.
Z0.3721
G3 X0.2546 I-0.6515 J0. F50.
X1.5577 I0.6515 J0.
G0 Z1.1021
X3.5572 Y-1.855
Z0.7021
G1 Z0.5821 F80.
Z0.3131
G3 X3.3732 I-0.092 J0. F50.
X3.5572 I0.092 J0.
G0 Z1.1021
M5
M9
G53 G0 Z0.
M30
%
