%
(ST JIG SIDE 1)
(T13 D=0.375 CR=0. TAPER=45DEG - ZMIN=0.3131 - CHAMFER MILL)
(T33 D=0.25 CR=0. - ZMIN=0. - FLAT END MILL)
(T35 D=0.375 CR=0. - ZMIN=0.0591 - FLAT END MILL)
(T54 D=0.3125 CR=0. TAPER=118DEG - ZMIN=-0.1139 - DRILL)
G90 G94 G17 G91.1
G20
G53 G0 Z0.
(DRILL1)
T54 M6
T35
S5000 M3
G17 G90 G94
G54
M8
G0 X0.9061 Y-0.9849
G43 Z1.1021 H54
G0 Z0.7021
G98 G81 X0.9061 Y-0.9849 Z-0.1139 R0.7021 F40.
X3.4652 Y-0.9809
X4.4429 Y-0.8673
X5.0295 Y-0.7991
X5.6161 Y-0.7309
X6.2027 Y-0.6627
X6.7893 Y-0.5945
X7.6992 Y-0.7018
X8.4568 Y-0.9164
X9.2144 Y-1.1311
X11.4871 Y-1.775
X12.2447 Y-1.9897
G80
G0 Z1.1021
(DRILL2)
G0 X9.9219 Y-0.3904
Z1.1021
Z0.7021
G81 X9.9219 Y-0.3904 Z-0.0939 R0.6921 F40.
G80
G0 Z1.1021
M5
G53 G0 Z0.
(FACE1)
M9
M1
T35 M6
T33
S7500 M3
G17 G90 G94
G54
G64 P0.0004 Q0.0004
M8
G0 X12.9222 Y-2.7842
G43 Z1.1021 H35
G0 Z0.7021
G1 Z0.5296 F80.
G18 G3 X12.8847 Z0.4921 I-0.0375 K0. F60.
G1 X12.7784
X-0.1
G17 G2 Y-2.5475 I0. J0.1183
G1 X12.7784
G3 Y-2.3108 I0. J0.1183
G1 X-0.1
G2 Y-2.0741 I0. J0.1183
G1 X12.7784
G3 Y-1.8375 I0. J0.1183
G1 X-0.1
G2 Y-1.6008 I0. J0.1183
G1 X12.7784
G3 Y-1.3641 I0. J0.1183
G1 X-0.1
G2 Y-1.1274 I0. J0.1183
G1 X12.7784
G3 Y-0.8907 I0. J0.1183
G1 X-0.1
G2 Y-0.654 I0. J0.1183
G1 X12.7784
G3 Y-0.4173 I0. J0.1183
G1 X-0.1
G2 Y-0.1806 I0. J0.1183
G1 X12.7784
G18 G2 X12.8159 Z0.5296 I0. K0.0375
G0 Z1.1021
G17
(2D ADAPTIVE1)
G64 P0.004 Q0.004
G0 X0.978 Y-1.1575
Z1.1021
Z0.6021
G3 X1.0568 Y-0.8741 Z0.5725 I-0.0718 J0.1726 F40.
X0.7636 Y-0.8649 Z0.5429 I-0.1502 J-0.1105
X0.8242 Y-1.1511 Z0.5133 I0.1426 J-0.1193
X1.087 Y-1.0246 Z0.4837 I0.0818 J0.1664
X0.9022 Y-0.8 Z0.4541 I-0.1805 J0.0398
X0.7285 Y-1.0322 Z0.4244 I0.0042 J-0.1843
X0.9946 Y-1.1455 Z0.3948 I0.1775 J0.0478
X1.0413 Y-0.8609 Z0.3652 I-0.0883 J0.1606
X0.7545 Y-0.8831 Z0.3356 I-0.1347 J-0.1236
X0.844 Y-1.1556 Z0.306 I0.1517 J-0.1011
X1.0867 Y-1.0044 Z0.2764 I0.062 J0.1709
X0.8828 Y-0.8051 Z0.2467 I-0.1802 J0.0196
X0.738 Y-1.0499 Z0.2171 I0.0237 J-0.1792
X1.0094 Y-1.1321 Z0.1875 I0.1679 J0.0654
X1.0247 Y-0.8497 Z0.1579 I-0.1031 J0.1472
X0.7476 Y-0.9018 Z0.1283 I-0.1181 J-0.1348
X0.8637 Y-1.1578 Z0.0987 I0.1585 J-0.0825
X1.0842 Y-0.9848 Z0.0691 I0.0423 J0.1731
X0.7279 I-0.1782 J0.
X1.0841 Y-0.9901 I0.1782 J0.
G1 X1.0842 Y-0.9848
X1.0844 Y-0.9737 F60.
X1.0859 Y-0.9627
X1.0977 Y-0.9199
G3 X1.0953 Y-0.8377 I-0.1097 J0.0379
X1.0205 Y-0.7466 I-0.1708 J-0.0639
X0.8544 Y-0.7116 I-0.1286 J-0.1992
X0.642 Y-0.8808 I0.0399 J-0.2681
X1.0518 Y-1.2296 I0.2637 J-0.1053
X1.15 Y-1.1327 I-0.1413 J0.2412
G1 X1.1717 Y-1.094
X1.19 Y-1.0561
X1.2023 Y-1.0244
G3 X1.2205 Y-0.8903 I-0.3195 J0.1118
X1.175 Y-0.7503 I-0.3082 J-0.0229
X0.9883 Y-0.6095 I-0.2787 J-0.1754
X0.7579 Y-0.617 I-0.104 J-0.347
X0.5507 Y-0.7967 I0.133 J-0.3627
X0.5792 Y-1.2226 I0.3516 J-0.1904
X1.1834 Y-1.2795 I0.3271 J0.2373
G1 X1.2118 Y-1.2515
X1.2387 Y-1.22
X1.2633 Y-1.1859
X1.2849 Y-1.1504
X1.3031 Y-1.1142
X1.3179 Y-1.0776
X1.3294 Y-1.041
G3 X1.3449 Y-0.8949 I-0.4431 J0.1207
X1.2169 Y-0.6075 I-0.4429 J-0.025
X1.0639 Y-0.5053 I-0.3266 J-0.3234
X0.9151 Y-0.4708 I-0.1807 J-0.441
G1 X0.876 Y-0.4697
X0.8367 Y-0.4717
X0.7975 Y-0.477
X0.7586 Y-0.4854
X0.7202 Y-0.497
X0.6827 Y-0.5118
X0.6462 Y-0.5296
X0.6112 Y-0.5503
X0.5777 Y-0.5739
X0.5461 Y-0.6003
X0.5166 Y-0.6292
X0.4894 Y-0.6605
X0.4648 Y-0.6941
X0.4428 Y-0.7295
X0.4237 Y-0.7668
X0.4077 Y-0.8055
X0.3947 Y-0.8455
X0.385 Y-0.8865
X0.3786 Y-0.9282
X0.3755 Y-0.9704
X0.3759 Y-1.0127
X0.3796 Y-1.0549
X0.3868 Y-1.0968
X0.3973 Y-1.1379
X0.411 Y-1.1781
X0.428 Y-1.2171
X0.448 Y-1.2547
X0.471 Y-1.2905
X0.4968 Y-1.3244
X0.5253 Y-1.3561
X0.5562 Y-1.3854
X0.5894 Y-1.4122
X0.6247 Y-1.4362
X0.6617 Y-1.4574
X0.7004 Y-1.4754
X0.7404 Y-1.4904
X0.7815 Y-1.5021
X0.8233 Y-1.5104
X0.8658 Y-1.5154
X0.9084 Y-1.5169
X0.9511 Y-1.515
X0.9935 Y-1.5097
X1.0353 Y-1.501
X1.0763 Y-1.489
X1.1163 Y-1.4736
X1.1559 Y-1.4547
X1.1942 Y-1.4324
X1.2307 Y-1.4072
X1.2652 Y-1.3793
X1.2976 Y-1.349
X1.3277 Y-1.3164
X1.3554 Y-1.2817
X1.3805 Y-1.2451
X1.4029 Y-1.2068
X1.4225 Y-1.167
G3 X1.4341 Y-1.1363 I-0.1892 J0.0884
X1.4522 Y-1.0414 I-0.5621 J0.1566
X1.4289 Y-0.8166 I-0.5572 J0.0559
X1.4027 Y-0.7491 I-1.3743 J-0.4957
G1 X1.3841 Y-0.7155
X1.37 Y-0.6899
X1.3645 Y-0.6817
X1.3363 Y-0.644
G3 X1.2577 Y-0.5625 I-0.481 J-0.385
G1 X1.2238 Y-0.5374
G3 X0.8977 Y-0.4358 I-0.3188 J-0.4495
G1 X0.8303 Y-0.4403
X0.819 Y-0.4424
X0.7628 Y-0.4546
G3 X0.6727 Y-0.4876 I0.202 J-0.6912
X0.6064 Y-0.5242 I0.6252 J-1.2098
X0.5378 Y-0.5771 I0.7125 J-0.9948
X0.448 Y-0.6818 I0.4466 J-0.4736
X0.4047 Y-0.7603 I0.681 J-0.4278
G1 X0.3959 Y-0.7829
X0.3834 Y-0.8166
X0.3805 Y-0.8248
G3 X0.3642 Y-0.8953 I1.4529 J-0.3716
X0.3644 Y-1.0751 I0.5812 J-0.0893
X0.3833 Y-1.1539 I0.7438 J0.1365
G1 X0.3962 Y-1.1875
X0.4051 Y-1.21
G3 X0.448 Y-1.2881 I0.7106 J0.3401
X0.5477 Y-1.4013 I0.519 J0.3567
X0.6166 Y-1.4519 I0.5774 J0.7125
X0.6841 Y-1.4875 I0.8043 J1.4438
X0.7627 Y-1.5155 I0.3991 J0.9981
G1 X0.819 Y-1.5274
X0.8303 Y-1.5295
X0.8977 Y-1.5343
G3 X1.0439 Y-1.5164 I-0.0011 J0.6154
X1.2239 Y-1.4325 I-0.1448 J0.5457
G1 X1.2576 Y-1.4071
G3 X1.3363 Y-1.3258 I-0.3766 J0.4432
G1 X1.364 Y-1.2887
X1.37 Y-1.2798
X1.3837 Y-1.255
X1.4037 Y-1.2183
G3 X1.4343 Y-1.1363 I-0.9594 J0.4042
G1 X1.4349 Y-1.1319
X1.435 Y-1.1275
X1.4345 Y-1.1231
X1.4336 Y-1.1187
X1.4321 Y-1.1145
X1.4302 Y-1.1106
X1.4278 Y-1.1068
X1.4252 Y-1.1032 Z0.0693
X1.4226 Y-1.0995 Z0.0701
X1.4201 Y-1.096 Z0.0715
X1.4177 Y-1.0927 Z0.0734
X1.4154 Y-1.0895 Z0.0757
X1.4133 Y-1.0866 Z0.0785
X1.4115 Y-1.084 Z0.0817
X1.4099 Y-1.0817 Z0.0853
X1.4085 Y-1.0798 Z0.0891
X1.4074 Y-1.0783 Z0.0933
X1.4066 Y-1.0772 Z0.0976
X1.4062 Y-1.0766 Z0.102
X1.406 Y-1.0763 Z0.1066
G0 Z1.1021
(2D ADAPTIVE1 2)
G0 X3.4652 Y-0.9809
Z1.1021
Z0.6021
G1 Z0.4331 F80.
X3.466 Y-0.9822 F60.
X3.4674 Y-0.9818
X3.4684 Y-0.9806
X3.4688 Y-0.9791
X3.4684 Y-0.9762
X3.4666 Y-0.9738
X3.4639 Y-0.9723
X3.458 Y-0.9712
G3 X3.4426 Y-0.9938 I0.0048 J-0.0198
X3.4758 Y-1.0245 I0.0354 J0.005
X3.5316 Y-0.9957 I0.0065 J0.056
X3.5385 Y-0.9293 I-0.0664 J0.0404
X3.4942 Y-0.8751 I-0.0928 J-0.0306
X3.4115 Y-0.8613 I-0.0594 J-0.1018
G1 X3.3933 Y-0.8661
X3.3754 Y-0.8737
X3.3582 Y-0.8841
X3.3423 Y-0.8973
X3.3279 Y-0.9132
X3.3157 Y-0.9314
X3.306 Y-0.9517
X3.299 Y-0.9739
X3.2953 Y-0.9975
X3.2949 Y-1.0219
X3.2982 Y-1.0468
X3.3052 Y-1.0716
X3.3159 Y-1.0957
X3.3304 Y-1.1187
X3.3485 Y-1.1399
X3.37 Y-1.1586
X3.3944 Y-1.1745
X3.4215 Y-1.1869
X3.4507 Y-1.1955
X3.4815 Y-1.1999
X3.5135 Y-1.1998
X3.5457 Y-1.195
X3.5777 Y-1.1854
X3.6084 Y-1.1711
X3.6374 Y-1.1521
X3.6638 Y-1.1287
X3.6871 Y-1.1012
X3.7065 Y-1.0701
X3.7216 Y-1.0359
X3.7317 Y-0.9991
X3.7365 Y-0.9604
X3.7358 Y-0.9207
X3.7292 Y-0.8808
X3.7167 Y-0.8416
X3.6984 Y-0.804
X3.6745 Y-0.7688
X3.6453 Y-0.737
X3.6113 Y-0.7092
X3.5733 Y-0.6863
X3.5324 Y-0.6691
X3.4894 Y-0.6579
X3.4454 Y-0.6527
X3.401 Y-0.6535
X3.3571 Y-0.6602
X3.3145 Y-0.6726
X3.2739 Y-0.6905
X3.2359 Y-0.7134
X3.2011 Y-0.7409
X3.1701 Y-0.7726
X3.1432 Y-0.808
X3.1208 Y-0.8462
X3.1031 Y-0.8869
X3.0905 Y-0.9295
X3.083 Y-0.9732
X3.0807 Y-1.0175
X3.0834 Y-1.0618
X3.0912 Y-1.1055
X3.104 Y-1.148
X3.1214 Y-1.1888
X3.1431 Y-1.2275
X3.169 Y-1.2635
X3.1987 Y-1.2965
X3.2318 Y-1.3261
X3.2678 Y-1.3521
X3.3063 Y-1.374
X3.347 Y-1.3917
X3.3893 Y-1.4053
X3.4327 Y-1.4143
X3.4769 Y-1.4188
X3.5212 Y-1.4189
X3.5654 Y-1.4146
X3.6089 Y-1.4058
X3.6513 Y-1.3928
X3.6923 Y-1.3757
X3.7313 Y-1.3546
X3.7682 Y-1.33
X3.8025 Y-1.3019
X3.834 Y-1.2706
X3.8625 Y-1.2365
X3.8875 Y-1.1999
X3.9091 Y-1.1611
X3.927 Y-1.1206
X3.941 Y-1.0785
X3.9513 Y-1.0353
X3.9527 Y-1.0251
X3.9529 Y-1.0236
G3 X3.8764 Y-0.715 I-0.4863 J0.0433
X3.8133 Y-0.6369 I-0.3472 J-0.2161
G1 X3.7976 Y-0.6208
G3 X3.6925 Y-0.5468 I-0.3507 J-0.3867
G1 X3.6851 Y-0.5427
X3.6697 Y-0.5356
X3.6626 Y-0.5326
X3.6176 Y-0.5149
X3.6132 Y-0.5131
G3 X3.5389 Y-0.4958 I-0.4976 J-1.9618
X3.4377 Y-0.4896 I-0.121 J-1.1386
X3.3196 Y-0.5131 I0.084 J-0.7283
X3.2598 Y-0.5356 I0.2575 J-0.7787
G1 X3.2128 Y-0.5608
X3.1985 Y-0.5693
G3 X3.1393 Y-0.6143 I0.5311 J-0.7607
G1 X3.1341 Y-0.6195
G3 X3.0532 Y-0.7155 I0.377 J-0.3999
X3.0118 Y-0.7941 I0.6118 J-0.3728
X2.9891 Y-0.8616 I2.5052 J-0.8767
G1 X2.9772 Y-0.929
G3 X2.9755 Y-1.0077 I1.3917 J-0.0703
G1 X2.9794 Y-1.0414
G3 X2.9927 Y-1.1089 I0.2987 J0.0238
X3.0217 Y-1.188 I0.3363 J0.0785
X3.0376 Y-1.2213 I0.3622 J0.1517
G1 X3.0595 Y-1.255
G3 X3.1679 Y-1.3702 I0.3944 J0.2626
G1 X3.1785 Y-1.3786
G3 X3.2545 Y-1.4238 I0.4679 J0.7001
X3.3252 Y-1.4507 I0.4025 J0.9526
X3.4039 Y-1.4671 I0.1796 J0.6626
X3.5502 Y-1.4635 I0.0604 J0.5177
X3.7639 Y-1.3688 I-0.0872 J0.4851
G1 X3.7863 Y-1.3513
X3.7944 Y-1.3449
X3.7976 Y-1.3417
X3.8088 Y-1.3299
X3.8426 Y-1.2945
G3 X3.8982 Y-1.2101 I-0.5271 J0.4083
X3.953 Y-1.0236 I-0.435 J0.2292
G1 Y-1.0192
X3.9524 Y-1.0148
X3.9513 Y-1.0105
X3.9497 Y-1.0064
X3.9476 Y-1.0025
X3.9451 Y-0.9989
X3.9421 Y-0.9955
X3.939 Y-0.9923 Z0.4333
X3.9358 Y-0.9892 Z0.4342
X3.9328 Y-0.9861 Z0.4355
X3.9299 Y-0.9831 Z0.4374
X3.9272 Y-0.9804 Z0.4397
X3.9247 Y-0.9778 Z0.4425
X3.9224 Y-0.9756 Z0.4457
X3.9205 Y-0.9736 Z0.4493
X3.9188 Y-0.9719 Z0.4531
X3.9175 Y-0.9706 Z0.4573
X3.9166 Y-0.9696 Z0.4616
X3.916 Y-0.969 Z0.4661
X3.9158 Y-0.9688 Z0.4706
G0 Z1.1021
X0.9062 Y-0.9849
Z0.6021
G1 Z0.0591 F80.
X0.907 Y-0.9836 F60.
X0.9061 Y-0.9824
X0.9047 Y-0.982
X0.9032 Y-0.9822
X0.9006 Y-0.9837
X0.899 Y-0.9862
X0.8987 Y-0.9892
X0.8999 Y-0.9951
G3 X0.9266 Y-1.0009 I0.0166 J0.0119
X0.9426 Y-0.9587 I-0.0179 J0.031
X0.8949 Y-0.9177 I-0.0543 J-0.015
X0.8308 Y-0.9363 I-0.0125 J-0.0767
X0.7972 Y-0.9977 I0.0632 J-0.0745
X0.8155 Y-1.0795 I0.1166 J-0.0168
G1 X0.8267 Y-1.0946
X0.8405 Y-1.1083
X0.8566 Y-1.1203
X0.8748 Y-1.1301
X0.8949 Y-1.1375
X0.9164 Y-1.142
X0.9388 Y-1.1434
X0.9621 Y-1.1415
X0.9853 Y-1.1361
X1.0081 Y-1.1273
X1.0299 Y-1.1149
X1.0503 Y-1.0991
X1.0686 Y-1.0801
X1.0845 Y-1.058
X1.0973 Y-1.0333
X1.1066 Y-1.0064
X1.1121 Y-0.9777
X1.1135 Y-0.948
X1.1105 Y-0.9177
X1.103 Y-0.8875
X1.0909 Y-0.8579
X1.0744 Y-0.8298
X1.0535 Y-0.8038
X1.0287 Y-0.7807
X1.0002 Y-0.7609
X0.9686 Y-0.7452
X0.9344 Y-0.734
X0.8982 Y-0.7277
X0.8608 Y-0.7266
X0.823 Y-0.731
X0.7853 Y-0.741
X0.7488 Y-0.7566
X0.7143 Y-0.7777
X0.6826 Y-0.804
X0.6546 Y-0.8351
X0.631 Y-0.8704
X0.6124 Y-0.9095
X0.5994 Y-0.9514
X0.5925 Y-0.9953
X0.592 Y-1.0396
X0.5976 Y-1.0836
X0.6094 Y-1.1264
X0.6268 Y-1.1672
X0.6495 Y-1.2054
X0.677 Y-1.2402
X0.7088 Y-1.2712
X0.7443 Y-1.2978
X0.7829 Y-1.3197
X0.8239 Y-1.3365
X0.8667 Y-1.3482
X0.9106 Y-1.3546
X0.955 Y-1.3557
X0.9992 Y-1.3514
X1.0425 Y-1.3419
X1.0845 Y-1.3274
X1.1245 Y-1.3083
X1.1621 Y-1.2847
X1.1967 Y-1.2569
X1.2279 Y-1.2254
X1.2556 Y-1.1908
X1.2793 Y-1.1533
X1.2987 Y-1.1133
X1.3137 Y-1.0716
X1.3243 Y-1.0285
X1.3301 Y-0.9845
X1.3313 Y-0.9401
X1.328 Y-0.8959
X1.3201 Y-0.8522
X1.3077 Y-0.8096
X1.2911 Y-0.7685
X1.2705 Y-0.7292
X1.246 Y-0.6922
X1.218 Y-0.6577
X1.1868 Y-0.6262
X1.1526 Y-0.5979
X1.1159 Y-0.5729
X1.077 Y-0.5517
X1.0362 Y-0.5343
X0.9939 Y-0.5206
X0.9506 Y-0.5112
X0.9066 Y-0.5058
X0.8622 Y-0.5043
X0.8179 Y-0.5072
X0.7741 Y-0.5139
X0.731 Y-0.5246
X0.6891 Y-0.5392
X0.6486 Y-0.5573
X0.6099 Y-0.5791
X0.5733 Y-0.6041
X0.539 Y-0.6322
X0.5073 Y-0.6633
X0.4783 Y-0.6969
X0.4525 Y-0.733
X0.4296 Y-0.771
X0.4103 Y-0.811
X0.3943 Y-0.8524
X0.3818 Y-0.8949
X0.373 Y-0.9384
X0.3677 Y-0.9825
X0.3663 Y-1.0268
X0.3684 Y-1.0712
X0.3742 Y-1.1152
X0.3803 Y-1.1438
X0.3807 Y-1.1454
X0.3812 Y-1.147
X0.3817 Y-1.1485
G3 X0.41 Y-1.2213 I0.9993 J0.3473
X0.4483 Y-1.2887 I1.1476 J0.607
X0.5477 Y-1.4013 I0.5267 J0.365
X0.6166 Y-1.4519 I0.5802 J0.7165
X0.6841 Y-1.4875 I0.8039 J1.4431
X0.7627 Y-1.5155 I0.3991 J0.9981
G1 X0.819 Y-1.5274
X0.8303 Y-1.5295
X0.8977 Y-1.5343
G3 X1.0439 Y-1.5164 I-0.0011 J0.6154
X1.2239 Y-1.4325 I-0.1448 J0.5457
G1 X1.2576 Y-1.4071
G3 X1.3363 Y-1.3258 I-0.3766 J0.4432
G1 X1.364 Y-1.2887
X1.37 Y-1.2798
X1.3837 Y-1.255
X1.4037 Y-1.2183
G3 X1.4325 Y-1.1426 I-1.324 J0.5466
X1.4489 Y-1.0696 I-1.2796 J0.3246
X1.4459 Y-0.884 I-0.5776 J0.0837
X1.4291 Y-0.8166 I-0.9491 J-0.2012
X1.4027 Y-0.7491 I-1.7738 J-0.6564
G1 X1.3841 Y-0.7155
X1.37 Y-0.6899
X1.3645 Y-0.6817
X1.3363 Y-0.644
G3 X1.2577 Y-0.5625 I-0.481 J-0.385
G1 X1.2238 Y-0.5374
G3 X0.8977 Y-0.4358 I-0.3188 J-0.4495
G1 X0.8303 Y-0.4403
X0.819 Y-0.4424
X0.7628 Y-0.4546
G3 X0.6727 Y-0.4876 I0.202 J-0.6912
X0.6064 Y-0.5242 I0.6252 J-1.2098
X0.5378 Y-0.5771 I0.7125 J-0.9948
X0.448 Y-0.6818 I0.4466 J-0.4736
X0.4047 Y-0.7603 I0.681 J-0.4278
G1 X0.3959 Y-0.7829
X0.3834 Y-0.8166
X0.3805 Y-0.8248
G3 X0.3642 Y-0.8953 I1.4529 J-0.3716
X0.3644 Y-1.0751 I0.5812 J-0.0893
X0.3816 Y-1.1486 I0.7754 J0.1425
G1 X0.3835 Y-1.1526
X0.3859 Y-1.1563
X0.3886 Y-1.1598
X0.3918 Y-1.1629
X0.3953 Y-1.1656
X0.3991 Y-1.1678
X0.4031 Y-1.1696
X0.4073 Y-1.1712 Z0.0593
X0.4115 Y-1.1728 Z0.0601
X0.4155 Y-1.1744 Z0.0615
X0.4194 Y-1.1759 Z0.0634
X0.423 Y-1.1772 Z0.0657
X0.4263 Y-1.1785 Z0.0685
X0.4293 Y-1.1797 Z0.0717
X0.4319 Y-1.1807 Z0.0753
X0.4341 Y-1.1815 Z0.0791
X0.4359 Y-1.1822 Z0.0833
X0.4371 Y-1.1826 Z0.0876
X0.4379 Y-1.1829 Z0.092
X0.4381 Y-1.183 Z0.0966
G0 Z1.1021
(2D CONTOUR1)
G64 P0.0004 Q0.0004
G0 X1.3572 Y-1.0224
Z1.1021
Z0.7021
G1 Z0.0966 F80.
G18 G2 X1.3947 Z0.0591 I0.0375 K0. F60.
G1 X1.4322
G17 G3 X1.4697 Y-0.9849 I0. J0.0375
X0.3426 I-0.5635 J0.
X1.4697 I0.5635 J0.
X0.3426 I-0.5635 J0.
X1.4697 I0.5635 J0.
X1.4322 Y-0.9474 I-0.0375 J0.
G1 X1.3947
G18 G3 X1.3572 Z0.0966 I0. K0.0375
G0 Z1.1021
G17
(2D CONTOUR1 2)
G0 X3.8572 Y-1.0185
Z1.1021
Z0.7021
G1 Z0.4706 F80.
X3.8574 Z0.4661 F60.
X3.8583 Z0.4616
X3.8596 Z0.4573
X3.8615 Z0.4531
X3.8638 Z0.4493
X3.8666 Z0.4457
X3.8698 Z0.4425
X3.8734 Z0.4397
X3.8772 Z0.4374
X3.8814 Z0.4355
X3.8857 Z0.4342
X3.8901 Z0.4333
X3.8947 Z0.4331
X3.9322
G3 X3.9697 Y-0.981 I0. J0.0375
X3.4644 Y-0.4765 I-0.5045 J0.0001
G1 X3.4356
X3.4069 Y-0.4798
G3 X3.5235 Y-1.482 I0.0583 J-0.5011
X3.4644 Y-0.4765 I-0.0583 J0.5011
G1 X3.4356
X3.4069 Y-0.4798
G3 X3.5235 Y-1.482 I0.0583 J-0.5011
X3.9697 Y-0.981 I-0.0583 J0.5011
X3.9322 Y-0.9435 I-0.0375 J0.
G1 X3.8947
X3.8902 Z0.4333
X3.8857 Z0.4342
X3.8814 Z0.4355
X3.8773 Z0.4374
X3.8734 Z0.4397
X3.8698 Z0.4425
X3.8666 Z0.4457
X3.8638 Z0.4493
X3.8615 Z0.4531
X3.8596 Z0.4573
X3.8583 Z0.4616
X3.8575 Z0.4661
X3.8572 Z0.4706
G0 Z1.1021
(2D CONTOUR2)
G0 X9.9091 Y-0.4079
Z1.1021
Z0.7021
G1 Z0.3521 F10.
G18 G2 X9.9266 Z0.3346 I0.0175 K0.
G1 X9.9366
G17 G3 X9.9541 Y-0.3904 I0. J0.0175
X9.9219 Y-0.3581 I-0.0323 J0.
Y-0.4226 I0. J-0.0323
Y-0.3581 I0. J0.0323
Y-0.4226 I0. J-0.0323
X9.9541 Y-0.3904 I0. J0.0323
X9.9366 Y-0.3729 I-0.0175 J0.
G1 X9.9266
G18 G3 X9.9091 Z0.3521 I0. K0.0175
G0 Z1.1021
G17
(2D CONTOUR3)
G0 X12.6759 Y-3.0959
Z1.1021
Z0.7021
G1 Z0.5415 F80.
Z0.1875
G19 G3 Y-3.0584 Z0.15 J0.0375 K0. F60.
G1 Y-3.0209
G17 G3 X12.6384 Y-2.9834 I-0.0375 J0.
G1 X0.04
G2 X-0.1475 Y-2.7959 I0. J0.1875
G1 Y-0.04
G2 X0.04 Y0.1475 I0.1875 J0.
G1 X12.6384
G2 X12.8259 Y-0.04 I0. J-0.1875
G1 Y-2.7959
G2 X12.6384 Y-2.9834 I-0.1875 J0.
G1 X0.04
G2 X-0.1475 Y-2.7959 I0. J0.1875
G1 Y-0.04
G2 X0.04 Y0.1475 I0.1875 J0.
G1 X12.6384
G2 X12.8259 Y-0.04 I0. J-0.1875
G1 Y-2.7959
G2 X12.6384 Y-2.9834 I-0.1875 J0.
G3 X12.6009 Y-3.0209 I0. J-0.0375
G1 Y-3.0584
G19 G2 Y-3.0959 Z0.1875 J0. K0.0375
G0 Z1.1021
G17
M5
G53 G0 Z0.
(2D CONTOUR4 2)
M9
M1
T33 M6
T13
S7500 M3
G17 G90 G94
G54
M8
G0 X6.7778 Y-0.6195
G43 Z1.1021 H33
G0 Z0.7021
G1 Z0.5415 F80.
Z0.025
G18 G2 X6.8028 Z0. I0.025 K0. F15.
G1 X6.8278
G17 G3 X6.8528 Y-0.5945 I0. J0.025
X6.7258 I-0.0635 J0.
X6.8528 I0.0635 J0.
X6.7258 I-0.0635 J0.
X6.8528 I0.0635 J0.
X6.8278 Y-0.5695 I-0.025 J0.
G1 X6.8028
G18 G3 X6.7778 Z0.025 I0. K0.025
G0 Z0.7021
X6.1912 Y-0.6877
G1 Z0.5415 F80.
Z0.025
G2 X6.2162 Z0. I0.025 K0. F15.
G1 X6.2412
G17 G3 X6.2662 Y-0.6627 I0. J0.025
X6.1392 I-0.0635 J0.
X6.2662 I0.0635 J0.
X6.1392 I-0.0635 J0.
X6.2662 I0.0635 J0.
X6.2412 Y-0.6377 I-0.025 J0.
G1 X6.2162
G18 G3 X6.1912 Z0.025 I0. K0.025
G0 Z0.7021
X5.6046 Y-0.7559
G1 Z0.5415 F80.
Z0.025
G2 X5.6296 Z0. I0.025 K0. F15.
G1 X5.6546
G17 G3 X5.6796 Y-0.7309 I0. J0.025
X5.5526 I-0.0635 J0.
X5.6796 I0.0635 J0.
X5.5526 I-0.0635 J0.
X5.6796 I0.0635 J0.
X5.6546 Y-0.7059 I-0.025 J0.
G1 X5.6296
G18 G3 X5.6046 Z0.025 I0. K0.025
G0 Z0.7021
X5.0179 Y-0.8241
G1 Z0.5415 F80.
Z0.025
G2 X5.0429 Z0. I0.025 K0. F15.
G1 X5.0679
G17 G3 X5.0929 Y-0.7991 I0. J0.025
X4.9659 I-0.0635 J0.
X5.0929 I0.0635 J0.
X4.9659 I-0.0635 J0.
X5.0929 I0.0635 J0.
X5.0679 Y-0.7741 I-0.025 J0.
G1 X5.0429
G18 G3 X5.0179 Z0.025 I0. K0.025
G0 Z0.7021
X4.4314 Y-0.8923
G1 Z0.5415 F80.
Z0.025
G2 X4.4564 Z0. I0.025 K0. F15.
G1 X4.4814
G17 G3 X4.5064 Y-0.8673 I0. J0.025
X4.3794 I-0.0635 J0.
X4.5064 I0.0635 J0.
X4.3794 I-0.0635 J0.
X4.5064 I0.0635 J0.
X4.4814 Y-0.8423 I-0.025 J0.
G1 X4.4564
G18 G3 X4.4314 Z0.025 I0. K0.025
G0 Z0.7021
X3.4537 Y-1.0059
G1 Z0.5415 F80.
Z0.025
G2 X3.4787 Z0. I0.025 K0. F15.
G1 X3.5037
G17 G3 X3.5287 Y-0.9809 I0. J0.025
X3.4017 I-0.0635 J0.
X3.5287 I0.0635 J0.
X3.4017 I-0.0635 J0.
X3.5287 I0.0635 J0.
X3.5037 Y-0.9559 I-0.025 J0.
G1 X3.4787
G18 G3 X3.4537 Z0.025 I0. K0.025
G0 Z0.7021
X0.8946 Y-1.0099
G1 Z0.5415 F80.
Z0.025
G2 X0.9196 Z0. I0.025 K0. F15.
G1 X0.9446
G17 G3 X0.9696 Y-0.9849 I0. J0.025
X0.8426 I-0.0635 J0.
X0.9696 I0.0635 J0.
X0.8426 I-0.0635 J0.
X0.9696 I0.0635 J0.
X0.9446 Y-0.9599 I-0.025 J0.
G1 X0.9196
G18 G3 X0.8946 Z0.025 I0. K0.025
G0 Z0.7021
X7.6878 Y-0.7268
G1 Z0.5415 F80.
Z0.025
G2 X7.7128 Z0. I0.025 K0. F15.
G1 X7.7378
G17 G3 X7.7628 Y-0.7018 I0. J0.025
X7.6358 I-0.0635 J0.
X7.7628 I0.0635 J0.
X7.6358 I-0.0635 J0.
X7.7628 I0.0635 J0.
X7.7378 Y-0.6768 I-0.025 J0.
G1 X7.7128
G18 G3 X7.6878 Z0.025 I0. K0.025
G0 Z0.7021
X8.4453 Y-0.9414
G1 Z0.5415 F80.
Z0.025
G2 X8.4703 Z0. I0.025 K0. F15.
G1 X8.4953
G17 G3 X8.5203 Y-0.9164 I0. J0.025
X8.3933 I-0.0635 J0.
X8.5203 I0.0635 J0.
X8.3933 I-0.0635 J0.
X8.5203 I0.0635 J0.
X8.4953 Y-0.8914 I-0.025 J0.
G1 X8.4703
G18 G3 X8.4453 Z0.025 I0. K0.025
G0 Z0.7021
X9.2029 Y-1.1561
G1 Z0.5415 F80.
Z0.025
G2 X9.2279 Z0. I0.025 K0. F15.
G1 X9.2529
G17 G3 X9.2779 Y-1.1311 I0. J0.025
X9.1509 I-0.0635 J0.
X9.2779 I0.0635 J0.
X9.1509 I-0.0635 J0.
X9.2779 I0.0635 J0.
X9.2529 Y-1.1061 I-0.025 J0.
G1 X9.2279
G18 G3 X9.2029 Z0.025 I0. K0.025
G0 Z0.7021
X11.4839 Y-1.8024
G1 Z0.5415 F80.
Z0.025
X11.4842 Y-1.8023 Z0.0211 F15.
X11.4851 Y-1.802 Z0.0173
X11.4865 Y-1.8015 Z0.0137
X11.4885 Y-1.8009 Z0.0103
X11.4909 Y-1.8001 Z0.0073
X11.4937 Y-1.7992 Z0.0048
X11.4969 Y-1.7982 Z0.0027
X11.5003 Y-1.797 Z0.0012
X11.504 Y-1.7959 Z0.0003
X11.5077 Y-1.7946 Z0.
X11.5315 Y-1.7869
G17 G3 X11.5475 Y-1.7554 I-0.0077 J0.0238
X11.4267 Y-1.7947 I-0.0604 J-0.0196
X11.5475 Y-1.7554 I0.0604 J0.0196
X11.4267 Y-1.7947 I-0.0604 J-0.0196
X11.5475 Y-1.7554 I0.0604 J0.0196
X11.516 Y-1.7394 I-0.0238 J-0.0077
G1 X11.4922 Y-1.7471
X11.4885 Y-1.7483 Z0.0003
X11.4849 Y-1.7495 Z0.0012
X11.4814 Y-1.7506 Z0.0027
X11.4783 Y-1.7516 Z0.0048
X11.4754 Y-1.7526 Z0.0073
X11.473 Y-1.7533 Z0.0103
X11.4711 Y-1.754 Z0.0137
X11.4696 Y-1.7544 Z0.0173
X11.4688 Y-1.7547 Z0.0211
X11.4685 Y-1.7548 Z0.025
G0 Z0.7021
X12.2415 Y-2.017
G1 Z0.5415 F80.
Z0.025
X12.2418 Y-2.0169 Z0.0211 F15.
X12.2427 Y-2.0166 Z0.0173
X12.2441 Y-2.0162 Z0.0137
X12.2461 Y-2.0155 Z0.0103
X12.2485 Y-2.0148 Z0.0073
X12.2513 Y-2.0138 Z0.0048
X12.2545 Y-2.0128 Z0.0027
X12.2579 Y-2.0117 Z0.0012
X12.2616 Y-2.0105 Z0.0003
X12.2653 Y-2.0093 Z0.
X12.2891 Y-2.0016
G3 X12.3051 Y-1.9701 I-0.0077 J0.0238
X12.1843 Y-2.0093 I-0.0604 J-0.0196
X12.3051 Y-1.9701 I0.0604 J0.0196
X12.1843 Y-2.0093 I-0.0604 J-0.0196
X12.3051 Y-1.9701 I0.0604 J0.0196
X12.2736 Y-1.954 I-0.0238 J-0.0077
G1 X12.2498 Y-1.9617
X12.2461 Y-1.963 Z0.0003
X12.2425 Y-1.9641 Z0.0012
X12.239 Y-1.9653 Z0.0027
X12.2359 Y-1.9663 Z0.0048
X12.233 Y-1.9672 Z0.0073
X12.2306 Y-1.968 Z0.0103
X12.2287 Y-1.9686 Z0.0136
X12.2272 Y-1.9691 Z0.0173
X12.2264 Y-1.9694 Z0.0211
X12.2261 Y-1.9695 Z0.025
G0 Z1.1021
M5
G53 G0 Z0.
(2D CHAMFER1 2)
M9
M1
T13 M6
T54
S7500 M3
G17 G90 G94
G54
M8
G0 X6.2947 Y-0.6627
G43 Z1.1021 H13
G0 Z0.7021
G1 Z0.5821 F80.
Z0.3721
G3 X6.1107 I-0.092 J0. F50.
X6.2947 I0.092 J0.
G0 Z0.7021
X6.8813 Y-0.5945
G1 Z0.5821 F80.
Z0.3721
G3 X6.6973 I-0.092 J0. F50.
X6.8813 I0.092 J0.
G0 Z0.7021
X0.04 Y0.0565
G1 Z0.5821 F80.
Z0.3721
X12.6384 F50.
G2 X12.7349 Y-0.04 I0. J-0.0965
G1 Y-2.7959
G2 X12.6384 Y-2.8924 I-0.0965 J0.
G1 X0.04
G2 X-0.0565 Y-2.7959 I0. J0.0965
G1 Y-0.04
G2 X0.04 Y0.0565 I0.0965 J0.
G0 Z0.7021
X1.5577 Y-0.9849
G1 Z0.5821 F80.
Z0.3721
G3 X0.2546 I-0.6515 J0. F50.
X1.5577 I0.6515 J0.
G0 Z0.7021
X4.5349 Y-0.8673
G1 Z0.5821 F80.
Z0.3721
G3 X4.3509 I-0.092 J0. F50.
X4.5349 I0.092 J0.
G0 Z0.7021
X5.1214 Y-0.7991
G1 Z0.5821 F80.
Z0.3721
G3 X4.9374 I-0.092 J0. F50.
X5.1214 I0.092 J0.
G0 Z0.7021
X5.7081 Y-0.7309
G1 Z0.5821 F80.
Z0.3721
G3 X5.5241 I-0.092 J0. F50.
X5.7081 I0.092 J0.
G0 Z0.7021
X7.7913 Y-0.7018
G1 Z0.5821 F80.
Z0.3721
G3 X7.6073 I-0.092 J0. F50.
X7.7913 I0.092 J0.
G0 Z0.7021
X8.5488 Y-0.9164
G1 Z0.5821 F80.
Z0.3721
G3 X8.3648 I-0.092 J0. F50.
X8.5488 I0.092 J0.
G0 Z0.7021
X9.3039 Y-1.1099
G1 Z0.5821 F80.
Z0.3721
G3 X9.1249 Y-1.1523 I-0.0895 J-0.0212 F50.
X9.3039 Y-1.1099 I0.0895 J0.0212
G0 Z0.7021
X10.0441 Y-0.3904
G1 Z0.5821 F80.
Z0.3721
G3 X9.9219 Y-0.2681 I-0.1223 J0. F50.
Y-0.5126 I0. J-0.1223
X10.0441 Y-0.3904 I0. J0.1223
G0 Z0.7021
X11.5791 Y-1.775
G1 Z0.5821 F80.
Z0.3721
G3 X11.3951 I-0.092 J0. F50.
X11.5791 I0.092 J0.
G0 Z0.7021
X12.3367 Y-1.9897
G1 Z0.5821 F80.
Z0.3721
G3 X12.1527 I-0.092 J0. F50.
X12.3367 I0.092 J0.
G0 Z1.1021
X3.5572 Y-0.9809
Z0.7021
G1 Z0.5821 F80.
Z0.3131
G3 X3.3732 I-0.092 J0. F50.
X3.5572 I0.092 J0.
G0 Z1.1021
M5
M9
G53 G0 Z0.
M30
%
