%
(DOVETAIL SAW OP2)
(T12 D=0.2362 CR=0. TAPER=45DEG - ZMIN=0.2353 - CHAMFER MILL)
(T32 D=0.1875 CR=0. - ZMIN=0.3543 - FLAT END MILL)
G90 G94 G17 G91.1
G20
G53 G0 Z0.
(ADAPTIVE3)
T32 M6
T12
S7500 M3
G17 G90 G94
G54
G64 P0.004 Q0.004
M8
G0 X-0.2702 Y-3.9369
G43 Z1.09 H32
G0 Z0.3918
G1 Z0.3731 F40.
Y-3.9366 Z0.3698
X-0.2699 Y-3.9358 Z0.3667
X-0.2696 Y-3.9344 Z0.3637
X-0.2691 Y-3.9326 Z0.361
X-0.2686 Y-3.9304 Z0.3587
X-0.2679 Y-3.9278 Z0.3568
X-0.2672 Y-3.9249 Z0.3555
X-0.2664 Y-3.9219 Z0.3546
X-0.2656 Y-3.9187 Z0.3543
G3 X-0.2509 Y-3.8166 I-0.4637 J0.1188
G1 Y-3.8106
X-0.2588 Y-3.7804
G2 X-0.2715 Y-3.656 I0.7452 J0.1391
X-0.2744 Y-3.4057 I6.604 J0.2003
G1 X-0.2746 Y-3.2805
Y-1.8411
Y-0.0574
X-0.2725 Y-0.0419
X-0.2657 Y-0.0278
X-0.2466 Y-0.0031
X-0.2209 Y0.0149
X-0.1922 Y0.0274
X-0.1621 Y0.036
X-0.1314 Y0.0417
G2 X0.0247 Y0.0516 I0.1544 J-1.208
X0.3376 Y0.0531 I0.2353 J-15.9802
G1 X1.8396
X3.811
X4.4134
X4.4288 Y0.0505
X4.4427 Y0.0432
X4.4669 Y0.0234
X4.4844 Y-0.0026
X4.4966 Y-0.0314
X4.5049 Y-0.0615
G2 X4.5184 Y-0.1858 I-0.7055 J-0.1391
X4.5214 Y-0.4361 I-6.249 J-0.2004
G1 X4.5216 Y-0.5613
Y-1.281
Y-3.2524
Y-3.6358
X4.5203 Y-3.6435
X4.5152 Y-3.6583
X4.4974 Y-3.684
X4.4723 Y-3.7028
X4.444 Y-3.716
X4.414 Y-3.725
G2 X4.2899 Y-3.7396 I-0.1391 J0.6481
X4.0396 Y-3.7429 I-0.2004 J5.7379
G1 X3.9144 Y-3.7431
X2.9756
X1.0042
X-0.091
X-0.1063 Y-3.7399
X-0.1203 Y-3.7329
X-0.1451 Y-3.7138
X-0.1634 Y-3.6884
X-0.1764 Y-3.6599
X-0.1855 Y-3.63
G2 X-0.2006 Y-3.5059 I0.648 J0.1421
X-0.2043 Y-3.2556 I5.3128 J0.2031
G1 X-0.2046 Y-3.1617
Y-2.9114
Y-0.94
Y-0.1577
X-0.2038 Y-0.142
X-0.1998 Y-0.1269
X-0.1864 Y-0.0986
X-0.1647 Y-0.0761
X-0.1385 Y-0.059
X-0.1098 Y-0.0464
X-0.0799 Y-0.0375
G2 X0.0441 Y-0.0215 I0.1477 J-0.66
X0.3257 Y-0.0173 I0.2231 J-5.399
G1 X0.4195 Y-0.0169
X0.7951
X0.9202
X2.8916
X4.3311
X4.3608 Y-0.0269
X4.3853 Y-0.0463
X4.4041 Y-0.0713
X4.4181 Y-0.0993
X4.4282 Y-0.1289
G2 X4.4463 Y-0.2525 I-0.5812 J-0.148
X4.4512 Y-0.5028 I-4.1421 J-0.206
G1 X4.4515 Y-0.5654
X4.4516 Y-0.6905
Y-2.4742
Y-3.5381
X4.4496 Y-3.5537
X4.4446 Y-3.5685
X4.4294 Y-3.5958
X4.4068 Y-3.6174
X4.38 Y-3.6337
X4.351 Y-3.6455
X4.3209 Y-3.6539
G2 X4.1655 Y-3.67 I-0.1625 J0.8104
X3.9152 Y-3.6729 I-0.2022 J6.808
G1 X3.79 Y-3.6731
X3.6023
X1.6309
X0.0037
X-0.0118 Y-3.6711
X-0.0416 Y-3.6613
X-0.0663 Y-3.6421
X-0.0854 Y-3.6173
X-0.0997 Y-3.5895
X-0.11 Y-3.5599
G2 X-0.1289 Y-3.4364 I0.5664 J0.1494
G1 X-0.1307 Y-3.4052
X-0.132 Y-3.3739
G2 X-0.1346 Y-2.9984 I14.1387 J0.287
G1 Y-1.6842
Y-1.4025
Y-0.2447
X-0.134 Y-0.2134
X-0.1234 Y-0.184
X-0.1042 Y-0.1592
X-0.0797 Y-0.1398
X-0.0522 Y-0.125
X-0.0228 Y-0.1141
G2 X0.1004 Y-0.0936 I0.1529 J-0.5394
X0.3506 Y-0.0875 I0.2104 J-3.4795
G1 X0.4132 Y-0.087
X0.5071 Y-0.0869
X0.6009
X2.5724
X4.2309
X4.2465 Y-0.0878
X4.277 Y-0.0949
X4.3032 Y-0.1119
X4.3242 Y-0.1351
X4.3401 Y-0.162
X4.352 Y-0.191
G2 X4.3743 Y-0.3139 I-0.4907 J-0.1524
G1 X4.3766 Y-0.3451
G2 X4.3812 Y-0.6266 I-5.3732 J-0.2288
G1 X4.3816 Y-0.7205
Y-0.9708
Y-2.3164
Y-3.4429
X4.3813 Y-3.4742
X4.3714 Y-3.5039
X4.3528 Y-3.5291
X4.3286 Y-3.549
X4.3012 Y-3.5641
X4.272 Y-3.5752
G2 X4.1488 Y-3.5962 I-0.1529 J0.5258
X3.8986 Y-3.6025 I-0.2104 J3.3898
G1 X3.8361 Y-3.603
X3.7422 Y-3.6031
X3.617
X1.6456
X0.081
X0.05 Y-3.5988
X0.0223 Y-3.5842
X-0.0003 Y-3.5626
X-0.0178 Y-3.5366
X-0.0309 Y-3.5082
X-0.0406 Y-3.4784
G2 X-0.0586 Y-3.3548 I0.619 J0.1535
G1 X-0.0605 Y-3.3235
X-0.0618 Y-3.2923
X-0.0626 Y-3.261
G2 X-0.0646 Y-2.9481 I15.5886 J0.2535
G1 Y-2.6352
Y-1.2896
Y-0.3195
X-0.0642 Y-0.2882
X-0.054 Y-0.2586
X-0.0354 Y-0.2335
X-0.0114 Y-0.2135
X0.0159 Y-0.1981
X0.045 Y-0.1866
G2 X0.1679 Y-0.1646 I0.1555 J-0.5135
X0.3868 Y-0.1577 I0.197 J-2.7857
X0.6372 Y-0.1569 I0.19 J-19.9237
G1 X0.8562
X2.8276
X4.1419
X4.1732 Y-0.157
X4.2035 Y-0.1648
X4.2298 Y-0.1818
X4.251 Y-0.2048
X4.2674 Y-0.2314
X4.2797 Y-0.2602
G2 X4.3033 Y-0.3828 I-0.4752 J-0.1553
X4.3107 Y-0.6016 I-2.5874 J-0.1969
G1 X4.3112 Y-0.6329
X4.3113 Y-0.6642
X4.3115 Y-0.7268
X4.3116 Y-0.8207
Y-1.1023
Y-2.6982
Y-3.3867
X4.3065 Y-3.4175
X4.2916 Y-3.4451
X4.2699 Y-3.4676
X4.2439 Y-3.4851
X4.2156 Y-3.4983
X4.1859 Y-3.5081
G2 X4.0623 Y-3.5267 I-0.1554 J0.6127
X3.8121 Y-3.5325 I-0.2129 J3.7664
G1 X3.7495 Y-3.533
X3.6556 Y-3.5331
X3.4053
X3.0923
X1.1209
X0.1509
X0.1201 Y-3.5274
X0.0928 Y-3.512
X0.0705 Y-3.4901
X0.0532 Y-3.464
X0.04 Y-3.4356
X0.0303 Y-3.4059
G2 X0.0118 Y-3.2823 I0.6197 J0.1559
X0.006 Y-3.032 I3.7765 J0.2135
G1 X0.0056 Y-2.9695
X0.0054 Y-2.8756
Y-2.6252
Y-2.5939
Y-0.6225
Y-0.4035
Y-0.3722
X0.0118 Y-0.3416
X0.0274 Y-0.3144
X0.0495 Y-0.2923
X0.0756 Y-0.2751
X0.1041 Y-0.262
X0.1338 Y-0.2522
G2 X0.2574 Y-0.2336 I0.1569 J-0.6203
X0.5037 Y-0.2275 I0.2128 J-3.6693
G1 X0.5663 Y-0.2271
X0.6601 Y-0.2269
X0.8792
X1.685
X3.6564
X4.0945
X4.1252 Y-0.2327
X4.1526 Y-0.2479
X4.175 Y-0.2697
X4.1926 Y-0.2956
X4.2059 Y-0.3239
X4.2158 Y-0.3536
G2 X4.2348 Y-0.4771 I-0.6073 J-0.1568
X4.241 Y-0.7273 I-3.6427 J-0.2145
G1 X4.2414 Y-0.7899
X4.2416 Y-0.8838
Y-1.1029
Y-1.6974
Y-3.2933
X4.2413 Y-3.3246
X4.2327 Y-3.3547
X4.2153 Y-3.3807
X4.1921 Y-3.4018
X4.1654 Y-3.418
X4.1366 Y-3.4303
G2 X4.0141 Y-3.4543 I-0.1573 J0.478
G1 X3.9829 Y-3.457
X3.9517 Y-3.4588
G2 X3.6701 Y-3.4628 I-0.2332 J6.5174
G1 X3.5762 Y-3.4631
X3.3259
X1.9803
X0.228
X0.197 Y-3.4588
X0.1689 Y-3.445
X0.1457 Y-3.424
X0.1273 Y-3.3986
X0.1133 Y-3.3707
X0.1029 Y-3.3412
X0.0952 Y-3.3108
G2 X0.0792 Y-3.1554 I0.9065 J0.1718
X0.0757 Y-2.8112 I8.7876 J0.2618
G1 X0.0754 Y-2.6235
Y-1.3405
Y-0.4643
X0.0761 Y-0.433
X0.086 Y-0.4033
X0.1041 Y-0.3778
X0.1277 Y-0.3572
X0.1546 Y-0.3413
X0.1835 Y-0.3293
G2 X0.3179 Y-0.3051 I0.1582 J-0.4939
X0.3526 Y-0.3204 I0.0007 J-0.0454
G1 X0.3716 Y-0.3453
X0.3835 Y-0.3726
G3 X0.4179 Y-0.4185 I0.1192 J0.0532
X0.4641 Y-0.4334 I0.0424 J0.0527
X0.4991 Y-0.4047 I-0.0035 J0.0399
G1 X0.5022 Y-0.3894
X0.5096 Y-0.3756
X0.5295 Y-0.3515
X0.5555 Y-0.3341
X0.5844 Y-0.3219
X0.6145 Y-0.3136
G2 X0.7388 Y-0.3002 I0.1393 J-0.7083
X0.9891 Y-0.2971 I0.2006 J-6.2385
G1 X1.0321 Y-0.2969
G2 X1.0603 Y-0.3093 I-0.0039 J-0.0469
G1 X1.0708 Y-0.3209
X1.0836 Y-0.3495
X1.0927 Y-0.371
G3 X1.1257 Y-0.4171 I0.119 J0.0503
X1.1778 Y-0.4323 I0.0424 J0.0482
X1.207 Y-0.405 I-0.0077 J0.0375
G1 X1.2099 Y-0.3896
X1.2172 Y-0.3758
X1.2371 Y-0.3516
X1.263 Y-0.3341
X1.2918 Y-0.3219
X1.322 Y-0.3136
G2 X1.4463 Y-0.3002 I0.1391 J-0.7062
X1.6966 Y-0.2971 I0.2004 J-6.255
G1 X1.8218 Y-0.2969
X2.8544
X4.0122
X4.0434 Y-0.2995
X4.0722 Y-0.3117
X4.0965 Y-0.3315
X4.1158 Y-0.3561
X4.1306 Y-0.3837
X4.1418 Y-0.4129
G2 X4.1636 Y-0.5359 I-0.5346 J-0.1581
X4.1708 Y-0.7861 I-3.1331 J-0.2161
X4.1716 Y-1.0364 I-19.9381 J-0.1826
G1 Y-1.8187
Y-3.0078
Y-3.2269
X4.1707 Y-3.2581
X4.1605 Y-3.2877
X4.1421 Y-3.313
X4.1183 Y-3.3334
X4.0913 Y-3.3492
X4.0624 Y-3.3611
G2 X3.9397 Y-3.3844 I-0.1583 J0.4982
X3.7208 Y-3.3921 I-0.2003 J2.5786
X3.5018 Y-3.3931 I-0.1764 J15.4422
G1 X3.2827
X2.5004
X0.529
X0.31
X0.2787 Y-3.3916
X0.2494 Y-3.3808
X0.2243 Y-3.3621
X0.2042 Y-3.3381
X0.1887 Y-3.3109
X0.177 Y-3.2819
G2 X0.154 Y-3.1591 I0.5062 J0.1584
X0.1464 Y-2.9403 I2.617 J0.2004
X0.1454 Y-2.7212 I15.6458 J0.1765
G1 Y-2.5022
Y-1.7199
Y-0.5308
X0.1471 Y-0.4995
X0.1582 Y-0.4703
X0.1772 Y-0.4454
X0.2013 Y-0.4255
X0.2081 Y-0.4216
X0.2155 Y-0.4189
X0.2309 Y-0.4161
X0.262 Y-0.4189
X0.2914 Y-0.4298
X0.3191 Y-0.4442
X0.3465 Y-0.4595
G3 X0.4103 Y-0.4843 I0.1137 J0.1982
X0.4976 Y-0.4716 I0.0273 J0.1189
G1 X0.5036 Y-0.4672
X0.5281 Y-0.4477
X0.5528 Y-0.4285
X0.5799 Y-0.4129
X0.6087 Y-0.4006
G2 X0.731 Y-0.3757 I0.1595 J-0.4709
G1 X0.7622 Y-0.373
X0.7935 Y-0.3711
X0.8247 Y-0.3698
X0.856 Y-0.3689
X0.8873 Y-0.3683
X0.9186 Y-0.3678
X0.9496 Y-0.3723
X0.9775 Y-0.3863
X1.0028 Y-0.4048
X1.0268 Y-0.4249
X1.0509 Y-0.4447
G3 X1.1273 Y-0.4818 I0.1197 J0.1493
X1.2126 Y-0.4654 I0.0236 J0.1072
G1 X1.2369 Y-0.4455
X1.2619 Y-0.4268
X1.2893 Y-0.4115
X1.3182 Y-0.3996
G2 X1.4407 Y-0.3754 I0.1595 J-0.4858
X1.6595 Y-0.3678 I0.1958 J-2.4712
X1.9099 Y-0.3669 I0.1875 J-18.2958
G1 X2.7547
X3.9439
X3.975 Y-0.3704
X4.0035 Y-0.3833
X4.0274 Y-0.4035
X4.0464 Y-0.4283
X4.061 Y-0.456
X4.072 Y-0.4853
G2 X4.0935 Y-0.6083 I-0.5458 J-0.1588
X4.1008 Y-0.8585 I-3.1585 J-0.2169
X4.1015 Y-1.0775 I-15.772 J-0.1617
G1 X4.1016 Y-1.453
Y-3.0489
Y-3.1428
X4.1015 Y-3.1741
X4.0955 Y-3.2048
X4.0803 Y-3.2322
X4.0586 Y-3.2547
X4.0328 Y-3.2724
X4.0045 Y-3.2859
X3.9749 Y-3.296
G2 X3.8515 Y-3.3157 I-0.1589 J0.5982
X3.6013 Y-3.3224 I-0.217 J3.4566
G1 X3.57 Y-3.3228
X3.5075 Y-3.323
X3.4136 Y-3.3231
X3.1632
X2.3183
X0.3782
X0.347 Y-3.3211
X0.3179 Y-3.3095
X0.2932 Y-3.2903
X0.2734 Y-3.266
X0.2582 Y-3.2387
X0.2466 Y-3.2096
G2 X0.224 Y-3.0868 I0.5176 J0.1591
X0.2164 Y-2.868 I2.6482 J0.2012
X0.2154 Y-2.6489 I15.6836 J0.1774
G1 Y-2.4299
Y-1.3972
Y-0.6149
G2 X0.2196 Y-0.5842 I0.0667 J0.0066
G1 X0.2236 Y-0.5774
X0.2285 Y-0.5714
X0.2344 Y-0.5662
X0.2477 Y-0.5579
X0.2782 Y-0.5509
X0.3094 Y-0.5496
X0.3407 Y-0.551
X0.3719 Y-0.5531
X0.4022 Y-0.554
G3 X0.4938 Y-0.5368 I0.0022 J0.2406
G1 X0.5223 Y-0.5239
X0.5499 Y-0.5091
G2 X0.6966 Y-0.4567 I0.2286 J-0.4085
X0.8521 Y-0.4411 I0.1837 J-1.0491
G1 X0.8832 Y-0.4445
X0.9131 Y-0.4536
X0.9416 Y-0.4665
X0.9691 Y-0.4814
X0.9964 Y-0.4969
X1.024 Y-0.5115
G3 X1.1053 Y-0.5392 I0.1316 J0.2539
X1.2091 Y-0.5281 I0.0324 J0.189
G1 X1.2378 Y-0.5157
X1.2658 Y-0.5017
X1.2942 Y-0.4887
X1.3234 Y-0.4773
X1.3532 Y-0.4679
G2 X1.571 Y-0.4467 I0.2356 J-1.2942
X1.9152 Y-0.4435 I0.2639 J-9.7184
G1 X2.1029 Y-0.4432
X3.3194
X3.8514
X3.8827 Y-0.4434
X3.9132 Y-0.4505
X3.9398 Y-0.4669
X3.9614 Y-0.4896
X3.9781 Y-0.5161
X3.9907 Y-0.5447
G2 X4.0157 Y-0.667 I-0.4663 J-0.159
X4.0242 Y-0.8858 I-2.3903 J-0.202
X4.0253 Y-1.2926 I-32.0527 J-0.2938
G1 Y-1.7933
Y-1.8246
G2 X4.031 Y-2.0435 I-2.9142 J-0.1858
G1 X4.0315 Y-2.1061
X4.0316 Y-2.1999
Y-2.5754
Y-3.0761
X4.0314 Y-3.1074
X4.0241 Y-3.1378
X4.0079 Y-3.1646
X3.9856 Y-3.1866
X3.9595 Y-3.2038
X3.9311 Y-3.2169
X3.9014 Y-3.2267
G2 X3.7779 Y-3.2459 I-0.1594 J0.6198
X3.5277 Y-3.2524 I-0.2176 J3.552
G1 X3.4964 Y-3.2528
X3.4338 Y-3.253
X3.3399 Y-3.2531
X3.0896
X1.4624
X0.461
X0.4297 Y-3.2528
X0.3994 Y-3.245
X0.3728 Y-3.2285
X0.3511 Y-3.206
X0.3341 Y-3.1797
X0.3212 Y-3.1512
X0.3115 Y-3.1215
G2 X0.2925 Y-2.9979 I0.628 J0.1594
X0.2861 Y-2.7477 I3.5967 J0.2176
G1 X0.2855 Y-2.6226
X0.2853 Y-2.4974
X0.2854 Y-2.3722
Y-0.7294
X0.2881 Y-0.7139
X0.2956 Y-0.7002
X0.316 Y-0.6765
X0.3424 Y-0.6597
X0.3712 Y-0.6475
X0.401 Y-0.6379
G3 X0.5481 Y-0.5851 I-0.2191 J0.843
G1 X0.5766 Y-0.5722
G2 X0.788 Y-0.5188 I0.2673 J-0.6127
G1 X0.8193 Y-0.5182
X0.8503 Y-0.5224
X0.8806 Y-0.5303
X0.9101 Y-0.5406
X0.9391 Y-0.5525
G3 X1.055 Y-0.5947 I0.3169 J0.6892
X1.1941 Y-0.5958 I0.0718 J0.2946
G1 X1.2244 Y-0.5877
X1.254 Y-0.5777
X1.2833 Y-0.5668
G2 X1.435 Y-0.5298 I0.2314 J-0.6182
X1.6534 Y-0.5157 I0.2269 J-1.8153
X1.9663 Y-0.5134 I0.2475 J-12.3914
G1 X2.1541 Y-0.5132
X2.2988
X2.3065 Y-0.5145
X2.3139 Y-0.5171
X2.3277 Y-0.5245
X2.3495 Y-0.5469
X2.3678 Y-0.5723
G3 X2.4097 Y-0.6188 I0.1455 J0.0891
X2.4693 Y-0.6312 I0.043 J0.0571
X2.4925 Y-0.6129 I-0.0151 J0.0429
G1 X2.5057 Y-0.5845
X2.5278 Y-0.5623
X2.5548 Y-0.5465
X2.5841 Y-0.5355
X2.6145 Y-0.5281
G2 X2.7702 Y-0.5153 I0.1545 J-0.926
X3.1144 Y-0.5132 I0.2561 J-14.2357
G1 X3.7716
X3.8029 Y-0.5133
X3.8338 Y-0.518
X3.8616 Y-0.5322
X3.8847 Y-0.5534
X3.9028 Y-0.5789
X3.9167 Y-0.6069
X3.9272 Y-0.6364
G2 X3.9476 Y-0.7597 I-0.5795 J-0.1592
X3.9545 Y-1.0099 I-3.3344 J-0.2178
G1 X3.955 Y-1.0412
Y-1.0647
X3.9538 Y-1.0724
X3.9487 Y-1.0872
X3.9298 Y-1.1121
X3.907 Y-1.1335
X3.886 Y-1.1519
G3 X3.854 Y-1.1972 I0.0765 J-0.0881
X3.8536 Y-1.2447 I0.0603 J-0.0242
X3.8685 Y-1.2632 I0.042 J0.0188
G1 X3.8948 Y-1.2802
X3.9139 Y-1.3049
X3.9274 Y-1.3332
X3.9367 Y-1.3631
G2 X3.9517 Y-1.4872 I-0.6311 J-0.1391
X3.9551 Y-1.7687 I-6.8023 J-0.2247
X3.9615 Y-2.2381 I-11.8057 J-0.396
G1 X3.9616 Y-2.4571
Y-2.9578
Y-3.0204
X3.9591 Y-3.0516
X3.9474 Y-3.0805
X3.928 Y-3.1052
X3.9037 Y-3.1248
X3.8764 Y-3.1401
X3.8473 Y-3.1516
G2 X3.7245 Y-3.1744 I-0.1598 J0.5193
X3.5056 Y-3.1821 I-0.2021 J2.6268
X3.2866 Y-3.183 I-0.1786 J15.3875
G1 X3.0675 Y-3.1831
X2.1288
X1.5498
G2 X1.5164 Y-3.1649 I0.0039 J0.0469
G1 X1.4995 Y-3.1386
G3 X1.4777 Y-3.0828 I-0.203 J-0.0471
X1.4376 Y-3.0476 I-0.0739 J-0.0437
X1.3919 Y-3.0536 I-0.0173 J-0.0459
X1.3803 Y-3.0741 I0.0242 J-0.0272
G1 X1.3776 Y-3.0895
X1.3704 Y-3.1034
X1.3509 Y-3.1279
X1.325 Y-3.1455
X1.2963 Y-3.1578
X1.2661 Y-3.1662
G2 X1.1418 Y-3.1798 I-0.1391 J0.6987
X0.8915 Y-3.1828 I-0.2004 J6.1886
G1 X0.7664 Y-3.1831
X0.516
X0.4849 Y-3.18
X0.4562 Y-3.1676
X0.4319 Y-3.1479
X0.4125 Y-3.1233
X0.3976 Y-3.0958
X0.3863 Y-3.0666
X0.3779 Y-3.0365
X0.3717 Y-3.0058
G2 X0.3579 Y-2.8187 I1.2942 J0.1896
X0.3555 Y-2.5058 I12.341 J0.2517
G1 X0.3554 Y-2.2868
Y-1.0351
Y-0.816
X0.3641 Y-0.786
X0.3821 Y-0.7604
X0.4052 Y-0.7393
X0.4311 Y-0.7217
G2 X0.6293 Y-0.629 I0.732 J-1.3073
X0.7506 Y-0.5986 I0.2221 J-0.6285
G1 X0.7818 Y-0.5969
X0.8131 Y-0.5988
X0.8439 Y-0.604
G2 X0.9638 Y-0.6397 I-0.3193 J-1.291
G3 X1.086 Y-0.6659 I0.1867 J0.5729
X1.2387 Y-0.6505 I0.0337 J0.4306
G2 X1.3594 Y-0.6174 I0.9633 J-3.2823
X1.6077 Y-0.5884 I0.2775 J-1.2974
X1.9206 Y-0.5837 I0.2596 J-6.8602
G1 X2.0144 Y-0.5833
X2.2022 Y-0.5832
X2.2331 Y-0.5884
X2.2616 Y-0.6011
X2.2881 Y-0.6178
X2.3136 Y-0.6359
X2.3394 Y-0.6537
G3 X2.421 Y-0.6853 I0.1107 J0.1643
X2.4895 Y-0.6733 I0.0143 J0.1195
G1 X2.5164 Y-0.6573
X2.5426 Y-0.6402
X2.5704 Y-0.6259
X2.5996 Y-0.6146
G2 X2.7224 Y-0.5915 I0.1616 J-0.5211
X2.9412 Y-0.5841 I0.1966 J-2.5585
X3.1916 Y-0.5832 I0.188 J-18.8121
G1 X3.7235
X3.7547 Y-0.5857
X3.7837 Y-0.5976
X3.8081 Y-0.6171
X3.8277 Y-0.6416
X3.8428 Y-0.669
X3.8542 Y-0.6981
X3.8627 Y-0.7282
G2 X3.8807 Y-0.8834 I-0.8223 J-0.1744
G1 X3.8822 Y-0.9147
X3.8831 Y-0.946
X3.8837 Y-0.9772
X3.8786 Y-1.0081
X3.8667 Y-1.0371
X3.8515 Y-1.0644
X3.8351 Y-1.0911
X3.8202 Y-1.1167
G3 X3.7953 Y-1.2 I0.171 J-0.0965
X3.8055 Y-1.2544 I0.1273 J-0.0043
G1 X3.8194 Y-1.2825
G2 X3.8647 Y-1.3986 I-0.3226 J-0.1927
X3.8815 Y-1.5539 I-0.8795 J-0.1738
X3.8856 Y-1.7729 I-7.5045 J-0.2496
X3.8913 Y-2.2422 I-13.5413 J-0.4007
G1 X3.8916 Y-2.3987
Y-2.6803
Y-2.9307
X3.8915 Y-2.962
X3.8856 Y-2.9927
X3.8707 Y-3.0202
X3.8492 Y-3.0429
X3.8235 Y-3.0609
X3.7954 Y-3.0746
X3.7659 Y-3.085
G2 X3.6426 Y-3.1053 I-0.1601 J0.5867
X3.3924 Y-3.1123 I-0.2184 J3.3268
G1 X3.3611 Y-3.1127
X3.2986 Y-3.1129
X3.2047 Y-3.1131
X2.9856
X2.2659
X1.6714
X1.6557 Y-3.1126
X1.6255 Y-3.1046
X1.5986 Y-3.0885
X1.5742 Y-3.0689
X1.5507 Y-3.0482
X1.5303 Y-3.0313
G3 X1.4486 Y-2.9949 I-0.1094 J-0.1354
X1.375 Y-3.0124 I-0.0139 J-0.1047
G1 X1.3507 Y-3.0321
X1.326 Y-3.0514
X1.299 Y-3.0672
X1.2702 Y-3.0795
G2 X1.1479 Y-3.1043 I-0.1591 J0.4693
X0.9291 Y-3.1122 I-0.1957 J2.4034
X0.5848 Y-3.113 I-0.2411 J28.5245
G1 X0.5537 Y-3.1096
X0.5252 Y-3.0968
X0.5012 Y-3.0768
X0.4819 Y-3.0521
X0.4671 Y-3.0245
X0.456 Y-2.9953
X0.4476 Y-2.9651
X0.4415 Y-2.9344
G2 X0.4279 Y-2.7473 I1.3106 J0.1898
X0.4255 Y-2.4344 I12.4459 J0.252
G1 X0.4254 Y-2.2154
Y-0.9637
Y-0.9011
X0.4298 Y-0.8701
X0.4426 Y-0.8415
X0.4611 Y-0.8163
X0.4833 Y-0.7943
G2 X0.5886 Y-0.7271 I0.3131 J-0.3749
X0.7059 Y-0.6841 I0.2544 J-0.5115
G1 X0.7367 Y-0.6787
X0.7679 Y-0.6768
X0.7992 Y-0.6781
X0.8302 Y-0.682
X0.861 Y-0.6879
X0.8915 Y-0.6949
X0.9522 Y-0.7101
G3 X1.1067 Y-0.7326 I0.1771 J0.6755
X1.2615 Y-0.713 I0.0023 J0.6047
G2 X1.4143 Y-0.6795 I0.5821 J-2.2903
X1.6948 Y-0.6566 I0.2946 J-1.8798
X2.039 Y-0.6535 I0.2733 J-11.0698
G1 X2.1328 Y-0.6532
X2.164 Y-0.6564
X2.1942 Y-0.6644
X2.2233 Y-0.6759
X2.2516 Y-0.6893
X2.2796 Y-0.7034
X2.3078 Y-0.7169
X2.3347 Y-0.728
G3 X2.443 Y-0.7438 I0.0888 J0.2285
G1 X2.4581 Y-0.7416
X2.4765 Y-0.7375
X2.4982 Y-0.731
X2.5274 Y-0.7198
G2 X2.7383 Y-0.6642 I0.2699 J-0.5965
X2.9883 Y-0.6543 I0.2251 J-2.5274
X3.2073 Y-0.6533 I0.1718 J-13.0108
G1 X3.4264 Y-0.6532
X3.6454
X3.6767 Y-0.654
X3.7065 Y-0.6637
X3.7321 Y-0.6817
X3.7529 Y-0.7051
X3.7691 Y-0.7318
X3.7814 Y-0.7606
G2 X3.8058 Y-0.8831 I-0.481 J-0.1598
G1 X3.8083 Y-0.9143
X3.8061 Y-0.9455
X3.7994 Y-0.976
X3.7894 Y-1.0057
X3.7776 Y-1.0347
X3.7656 Y-1.0636
X3.7542 Y-1.0927
G3 X3.7357 Y-1.1796 I0.2781 J-0.1045
X3.7448 Y-1.2549 I0.2487 J-0.0083
G1 X3.7539 Y-1.2849
G2 X3.7903 Y-1.4045 I-0.9082 J-0.3418
X3.8119 Y-1.6222 I-1.1614 J-0.2252
X3.8214 Y-2.3105 I-19.7131 J-0.6145
G1 X3.8216 Y-2.4983
Y-2.8738
X3.8205 Y-2.9051
X3.8104 Y-2.9347
X3.7924 Y-2.9603
X3.7689 Y-2.9809
X3.742 Y-2.997
X3.7132 Y-3.0092
G2 X3.5908 Y-3.0336 I-0.1603 J0.4856
X3.372 Y-3.042 I-0.2028 J2.4413
X2.9652 Y-3.0431 I-0.2947 J32.181
G1 X1.7487
X1.7174 Y-3.0417
X1.687 Y-3.0344
X1.6581 Y-3.0223
X1.6305 Y-3.0076
X1.6036 Y-2.9916
X1.5765 Y-2.976
X1.5498 Y-2.962
G3 X1.4446 Y-2.9366 I-0.1081 J-0.2174
X1.3716 Y-2.9529 I0.0049 J-0.1949
G1 X1.3431 Y-2.9659
G2 X1.2276 Y-3.0135 I-0.2693 J0.4891
X1.0731 Y-3.0364 I-0.1925 J0.7662
X0.8229 Y-3.0424 I-0.2186 J3.8862
G1 X0.7603 Y-3.0429
X0.6664 Y-3.043
X0.6351 Y-3.0422
X0.6053 Y-3.0327
X0.5795 Y-3.015
X0.5586 Y-2.9917
X0.5423 Y-2.965
X0.5299 Y-2.9363
G2 X0.5051 Y-2.8139 I0.4761 J0.1602
X0.4966 Y-2.5951 I2.3992 J0.2027
X0.4955 Y-2.2196 I27.8067 J0.2703
G1 X0.4954 Y-0.9914
X0.4957 Y-0.9601
X0.5013 Y-0.9293
X0.5133 Y-0.9004
X0.5304 Y-0.8742
X0.5512 Y-0.8508
X0.5747 Y-0.8302
G2 X0.6845 Y-0.7711 I0.2304 J-0.2965
G1 X0.7147 Y-0.7632
X0.7457 Y-0.7587
X0.777 Y-0.7575
G2 X0.901 Y-0.7731 I-0.0219 J-0.6751
G3 X1.0556 Y-0.7969 I0.3032 J1.4547
G1 X1.0868 Y-0.7984
X1.1181 Y-0.7987
G3 X1.2731 Y-0.7795 I-0.0213 J0.8045
G2 X1.4577 Y-0.7451 I0.6623 J-3.0386
X1.7698 Y-0.7257 I0.3156 J-2.5653
X2.0827 Y-0.7238 I0.2256 J-11.0601
G1 X2.1139 Y-0.7268
X2.1446 Y-0.7329
X2.1746 Y-0.7416
X2.2041 Y-0.752
X2.2625 Y-0.7746
G3 X2.3754 Y-0.8049 I0.1795 J0.4449
X2.5075 Y-0.7934 I0.0364 J0.3478
G2 X2.6276 Y-0.7581 I2.5555 J-8.4673
X2.8443 Y-0.7291 I0.2519 J-1.0569
X3.0633 Y-0.724 I0.2069 J-4.21
G1 X3.2406 Y-0.7233
X3.4179 Y-0.7231
X3.5952 Y-0.7233
X3.6259 Y-0.7296
X3.6533 Y-0.7447
X3.6758 Y-0.7664
X3.6936 Y-0.7922
X3.7072 Y-0.8204
X3.7174 Y-0.85
X3.7231 Y-0.8807
X3.7239 Y-0.912
X3.7206 Y-0.9431
X3.7143 Y-0.9738
X3.7063 Y-1.004
G3 X3.676 Y-1.1254 I0.9535 J-0.3027
X3.6833 Y-1.2699 I0.3835 J-0.053
G2 X3.7139 Y-1.3912 I-21.6066 J-5.5165
X3.7412 Y-1.6397 I-1.3079 J-0.2692
X3.7507 Y-2.109 I-13.0478 J-0.5009
G1 X3.7514 Y-2.2446
X3.7516 Y-2.3802
Y-2.5158
Y-2.7974
X3.7514 Y-2.8287
X3.7432 Y-2.8589
X3.7266 Y-2.8854
X3.7039 Y-2.907
X3.6777 Y-2.924
X3.6492 Y-2.937
X3.6195 Y-2.9467
G2 X3.4959 Y-2.9658 I-0.1601 J0.6273
X3.2457 Y-2.9724 I-0.2186 J3.5533
X2.8976 Y-2.9731 I-0.2495 J36.1155
G1 X2.8899 Y-2.9718
X2.8825 Y-2.9693
X2.8756 Y-2.9655
X2.8633 Y-2.9559
X2.8456 Y-2.93
X2.8301 Y-2.9029
X2.8183 Y-2.8849
G3 X2.765 Y-2.8456 I-0.0809 J-0.054
X2.7297 Y-2.8495 I-0.0117 J-0.0562
X2.7127 Y-2.866 I0.0195 J-0.0371
G1 X2.7103 Y-2.8715
X2.7052 Y-2.8863
X2.6881 Y-2.9125
X2.6634 Y-2.9317
X2.6352 Y-2.9452
X2.6053 Y-2.9544
G2 X2.4812 Y-2.9694 I-0.1391 J0.6303
X2.2309 Y-2.9728 I-0.2004 J5.5797
G1 X2.1057 Y-2.9731
X1.8241
X1.7928 Y-2.9728
X1.7617 Y-2.9698
X1.7311 Y-2.9629
X1.7015 Y-2.953
X1.6725 Y-2.9412
X1.644 Y-2.9283
G3 X1.5297 Y-2.8844 I-0.2918 J-0.5887
X1.3942 Y-2.8827 I-0.0713 J-0.2874
G1 X1.3642 Y-2.8905
X1.3346 Y-2.9005
G2 X1.216 Y-2.9405 I-0.4318 J1.0848
X0.9991 Y-2.968 I-0.2389 J1.0165
X0.7176 Y-2.9725 I-0.232 J5.66
G1 X0.6868 Y-2.9671
X0.6592 Y-2.9524
X0.6363 Y-2.931
X0.6182 Y-2.9055
X0.6044 Y-2.8774
X0.5939 Y-2.8479
G2 X0.5733 Y-2.7247 I0.5804 J0.1602
X0.5662 Y-2.4745 I3.2839 J0.2187
G1 X0.5658 Y-2.4432
X0.5656 Y-2.3806
X0.5655 Y-2.2868
X0.5654 Y-2.0677
Y-1.5866
G2 X0.5836 Y-1.5532 I0.0469 J-0.0039
G1 X0.6099 Y-1.5362
X0.635 Y-1.5291
G3 X0.6809 Y-1.5058 I-0.0375 J0.1311
X0.7076 Y-1.4566 I-0.041 J0.054
X0.6831 Y-1.4186 I-0.0401 J0.0011
G1 X0.6772 Y-1.4174
X0.6694 Y-1.4166
X0.6543 Y-1.4126
X0.6275 Y-1.3963
X0.6079 Y-1.3719
X0.5941 Y-1.3438
X0.5846 Y-1.314
G2 X0.5692 Y-1.19 I0.6131 J0.1391
G1 X0.5678 Y-1.1588
G2 X0.5659 Y-1.0336 I4.4958 J0.13
G1 X0.5682 Y-1.0024
X0.5762 Y-0.9721
X0.5899 Y-0.944
X0.6082 Y-0.9186
X0.6301 Y-0.8962
X0.6549 Y-0.8771
X0.6822 Y-0.8618
X0.7113 Y-0.8506
X0.7418 Y-0.8434
X0.7729 Y-0.8398
G2 X0.8976 Y-0.8473 I0.0242 J-0.6344
G3 X1.0531 Y-0.8647 I0.2996 J1.9794
X1.2711 Y-0.8489 I0.0433 J0.9127
G2 X1.4561 Y-0.8172 I1.1838 J-6.3636
X1.7994 Y-0.7958 I0.3455 J-2.7717
X2.0185 Y-0.7937 I0.1843 J-8.0409
X2.142 Y-0.8114 I-0.0031 J-0.462
X2.2616 Y-0.8483 I-2.004 J-6.7077
G1 X2.2919 Y-0.8563
G3 X2.5089 Y-0.8597 I0.1155 J0.4478
X2.6306 Y-0.8302 I-1.3585 J5.8747
G2 X2.9099 Y-0.7978 I0.3015 J-1.3802
X3.1914 Y-0.7937 I0.2387 J-6.678
X3.5356 Y-0.7938 I0.167 J-22.4442
G1 X3.5654 Y-0.8036
X3.5912 Y-0.8214
X3.6109 Y-0.8456
X3.6236 Y-0.8743
X3.63 Y-0.9049
X3.6316 Y-0.9361
X3.6298 Y-0.9674
G2 X3.6114 Y-1.0912 I-3.7706 J0.4975
G3 X3.618 Y-1.278 I0.5636 J-0.0737
G1 X3.6241 Y-1.3087
G2 X3.6542 Y-1.4622 I-2.14 J-0.5001
X3.673 Y-1.7117 I-2.1627 J-0.2883
X3.681 Y-2.3061 I-14.9582 J-0.4985
G1 X3.6815 Y-2.4313
X3.6816 Y-2.7129
Y-2.7442
X3.6779 Y-2.7753
X3.6649 Y-2.8038
X3.6447 Y-2.8277
X3.6199 Y-2.8467
X3.5922 Y-2.8614
X3.563 Y-2.8726
G2 X3.44 Y-2.8946 I-0.1603 J0.5415
X3.1899 Y-2.9022 I-0.2189 J3.0594
G1 X3.1586 Y-2.9027
X3.096 Y-2.9029
X3.0647 Y-2.903
X3.0021
X2.9712 Y-2.898
X2.943 Y-2.8846
X2.9171 Y-2.867
X2.8924 Y-2.8478
X2.8674 Y-2.8289
G3 X2.788 Y-2.7942 I-0.1163 J-0.1576
X2.7062 Y-2.8109 I-0.0195 J-0.113
G1 X2.6812 Y-2.8298
X2.6552 Y-2.8471
X2.6273 Y-2.8614
X2.5981 Y-2.8726
G2 X2.4752 Y-2.8951 I-0.1599 J0.5249
X2.2564 Y-2.9023 I-0.1959 J2.6464
X1.8496 Y-2.9028 I-0.2456 J31.8329
X1.7269 Y-2.8801 I0.0109 J0.4019
G3 X1.6092 Y-2.8378 I-10.4071 J-28.7642
X1.4886 Y-2.8127 I-0.1594 J-0.4631
X1.3358 Y-2.8318 I-0.0232 J-0.4355
G2 X1.2155 Y-2.8664 I-1.1376 J3.7234
G1 X1.185 Y-2.8733
X1.1543 Y-2.8793
G2 X0.9051 Y-2.8999 I-0.2573 J1.5977
X0.7799 Y-2.9018 I-0.1066 J2.7998
G1 X0.7497 Y-2.8939
X0.7231 Y-2.8772
X0.7015 Y-2.8547
X0.6845 Y-2.8284
X0.6715 Y-2.7999
X0.6618 Y-2.7702
G2 X0.6427 Y-2.6467 I0.6291 J0.1603
X0.6362 Y-2.3965 I3.5546 J0.2188
G1 X0.6358 Y-2.3652
X0.6356 Y-2.3026
X0.6355 Y-2.2087
X0.6354 Y-1.9584
Y-1.708
X0.6361 Y-1.6924
X0.6444 Y-1.6622
X0.6608 Y-1.6356
X0.6808 Y-1.6115
X0.7018 Y-1.5883
X0.7184 Y-1.5688
G3 X0.7547 Y-1.4971 I-0.1402 J0.116
X0.7401 Y-1.4133 I-0.1049 J0.0249
G1 X0.7357 Y-1.408
X0.7147 Y-1.3848
X0.6955 Y-1.3601
X0.68 Y-1.3329
X0.6679 Y-1.3041
G2 X0.6438 Y-1.1815 I0.4799 J0.158
G1 X0.6412 Y-1.1504
X0.6394 Y-1.1191
X0.6385 Y-1.0878
X0.6403 Y-1.0566
X0.6478 Y-1.0262
X0.6613 Y-0.998
X0.6806 Y-0.9734
X0.705 Y-0.9538
X0.7328 Y-0.9393
X0.7625 Y-0.9297
X0.7933 Y-0.924
G2 X0.9183 Y-0.9245 I0.0602 J-0.6132
G3 X1.0744 Y-0.9337 I0.2195 J2.3886
X1.2923 Y-0.9146 I0.0043 J1.2046
G2 X1.509 Y-0.8823 I0.8092 J-4.6825
X1.8526 Y-0.8653 I0.3474 J-3.5444
X2.0091 I0.0784 J-2.3452
X2.1626 Y-0.8939 I-0.0542 J-0.7175
G3 X2.284 Y-0.9244 I0.5788 J2.0472
X2.5326 Y-0.9223 I0.1194 J0.5943
G2 X2.6859 Y-0.8913 I2.2582 J-10.75
X2.9662 Y-0.867 I0.3054 J-1.8937
X3.3417 Y-0.8635 I0.2939 J-11.6169
G1 X3.4356 Y-0.8633
X3.4512 Y-0.8638
X3.4665 Y-0.8672
X3.4805 Y-0.8741
X3.5051 Y-0.8935
X3.5218 Y-0.9199
X3.5319 Y-0.9496
X3.5372 Y-0.9804
X3.5393 Y-1.0116
G2 X3.5377 Y-1.1368 I-5.2123 J0.0034
G3 X3.5579 Y-1.3231 I0.9582 J0.0095
G2 X3.5882 Y-1.5084 I-2.546 J-0.5118
X3.6059 Y-1.8207 I-3.5481 J-0.357
X3.6111 Y-2.3057 I-15.7392 J-0.4134
G1 X3.6115 Y-2.4309
X3.6116 Y-2.6499
X3.6115 Y-2.6812
X3.6057 Y-2.712
X3.5908 Y-2.7395
X3.5694 Y-2.7623
X3.5438 Y-2.7804
X3.5157 Y-2.7942
X3.4862 Y-2.8046
G2 X3.363 Y-2.8251 I-0.1604 J0.5828
X3.1128 Y-2.8323 I-0.219 J3.2867
G1 X3.0815 Y-2.8327
X3.0503 Y-2.8311
X3.0198 Y-2.8239
X2.9906 Y-2.8127
X2.9626 Y-2.7988
X2.935 Y-2.784
X2.9073 Y-2.7694
X2.8794 Y-2.7563
G3 X2.7854 Y-2.7345 I-0.1043 J-0.2362
X2.707 Y-2.7489 I-0.0031 J-0.2035
G1 X2.6781 Y-2.7609
G2 X2.4688 Y-2.8213 I-0.2682 J0.5369
X2.2501 Y-2.8317 I-0.2092 J2.0964
X1.9059 Y-2.8328 I-0.2308 J17.7175
X1.7517 Y-2.8092 I0.0034 J0.5378
G1 X1.6321 Y-2.7724
G3 X1.4781 Y-2.747 I-0.178 J-0.5996
X1.3234 Y-2.7666 I-0.0046 J-0.583
G2 X1.1712 Y-2.8031 I-0.9656 J3.6914
X0.9224 Y-2.8283 I-0.285 J1.5733
G1 X0.8911 Y-2.8296
X0.8599 Y-2.8304
X0.8289 Y-2.8258
X0.8009 Y-2.8118
X0.7777 Y-2.7909
X0.7593 Y-2.7656
X0.7451 Y-2.7376
X0.7345 Y-2.7082
G2 X0.7135 Y-2.5851 I0.5676 J0.16
X0.7062 Y-2.3349 I3.2252 J0.2187
G1 X0.7058 Y-2.3036
X0.7056 Y-2.241
X0.7055 Y-2.1471
X0.7054 Y-1.9281
Y-1.7716
X0.7097 Y-1.7406
X0.7198 Y-1.711
X0.7335 Y-1.6829
X0.7492 Y-1.6558
X0.7655 Y-1.6291
X0.7811 Y-1.602
G3 X0.8108 Y-1.5227 I-0.246 J0.1373
X0.7978 Y-1.4075 I-0.1818 J0.0378
G1 X0.7841 Y-1.3794
G2 X0.7353 Y-1.2644 I0.451 J0.2595
X0.7148 Y-1.1411 I0.6354 J0.1688
G1 X0.7153 Y-1.1098
X0.7239 Y-1.0798
X0.7418 Y-1.0541
X0.7661 Y-1.0344
X0.7941 Y-1.0203
X0.824 Y-1.0111
X0.8547 Y-1.0055
G2 X0.9797 Y-1.002 I0.0862 J-0.829
G3 X1.1986 Y-0.9962 I0.0622 J1.8035
X1.4155 Y-0.9657 I-0.552 J4.7058
G2 X1.8209 Y-0.9364 I0.4252 J-3.0643
X2.0086 Y-0.9383 I0.077 J-1.6335
X2.1317 Y-0.9607 I-0.1282 J-1.0574
G3 X2.2846 Y-0.9936 I0.5173 J2.0321
X2.5338 Y-0.9903 I0.1149 J0.7323
X2.6569 Y-0.9681 I-0.9281 J5.5094
G1 X2.6878 Y-0.9629
X2.7187 Y-0.9582
G2 X3.0306 Y-0.9362 I0.3228 J-2.3592
X3.3592 Y-0.9335 I0.2614 J-11.9315
G1 X3.3744 Y-0.9371
X3.3884 Y-0.9442
X3.4131 Y-0.9633
X3.431 Y-0.9889
X3.4434 Y-1.0177
X3.4516 Y-1.0479
G2 X3.467 Y-1.172 I-1.1063 J-0.2005
G3 X3.4993 Y-1.3886 I2.7162 J0.2935
G2 X3.5335 Y-1.7623 I-2.6002 J-0.4265
X3.5396 Y-2.0282 I-7.6821 J-0.3094
X3.5218 Y-2.0618 I-0.0461 J0.0029
G1 X3.4957 Y-2.079
X3.4669 Y-2.0901
G3 X3.425 Y-2.1164 I0.0503 J-0.1265
X3.4049 Y-2.1497 I0.0489 J-0.0523
X3.4152 Y-2.1944 I0.0443 J-0.0134
G1 X3.42 Y-2.198
X3.4253 Y-2.2009
X3.4309 Y-2.2029
X3.4464 Y-2.2051
X3.4605 Y-2.2119
X3.4852 Y-2.2311
X3.5031 Y-2.2568
X3.5157 Y-2.2854
X3.5242 Y-2.3155
G2 X3.5381 Y-2.4398 I-0.6847 J-0.1395
X3.5411 Y-2.5962 I-3.7457 J-0.1493
G1 X3.5396 Y-2.6274
X3.5288 Y-2.6568
X3.5102 Y-2.682
X3.4863 Y-2.7022
X3.4593 Y-2.718
X3.4304 Y-2.73
G2 X3.3078 Y-2.7538 I-0.1604 J0.4982
X3.1203 Y-2.7612 I-0.1709 J1.9393
G1 X3.0891 Y-2.758
X3.0586 Y-2.7514
X3.0287 Y-2.7419
X2.9995 Y-2.7307
G3 X2.8827 Y-2.686 I-0.4939 J-1.1146
X2.7845 Y-2.6728 I-0.0933 J-0.3235
X2.6762 Y-2.6935 I0.0146 J-0.3701
G2 X2.5568 Y-2.7308 I-0.5339 J1.4986
X2.3398 Y-2.758 I-0.2431 J1.063
X2.1521 Y-2.7623 I-0.1851 J3.9864
X1.9331 Y-2.7624 I-0.1178 J9.8604
X1.7483 Y-2.7319 I0.0259 J0.7294
G3 X1.5967 Y-2.6936 I-0.5954 J-2.0426
X1.3479 Y-2.6933 I-0.1252 J-0.63
X1.1949 Y-2.7259 I1.3671 J-6.7895
G2 X0.9153 Y-2.7569 I-0.3166 J1.5809
G1 X0.8853 Y-2.7478
X0.8593 Y-2.7303
X0.8383 Y-2.7071
X0.822 Y-2.6804
X0.8096 Y-2.6517
G2 X0.785 Y-2.5293 I0.4769 J0.1597
X0.7766 Y-2.3105 I2.422 J0.2026
X0.7755 Y-2.0914 I13.6952 J0.1758
G1 X0.7754 Y-1.9037
Y-1.8411
X0.7774 Y-1.8099
X0.7831 Y-1.7791
X0.7923 Y-1.7492
X0.8039 Y-1.7201
X0.8169 Y-1.6916
G3 X0.8639 Y-1.5771 I-0.6822 J0.3471
X0.8714 Y-1.4453 I-0.2835 J0.0821
G1 X0.8656 Y-1.42
X0.8566 Y-1.39
X0.8457 Y-1.3607
G2 X0.799 Y-1.2116 I0.7381 J0.3128
G1 X0.7972 Y-1.1961
X0.7985 Y-1.1805
X0.8034 Y-1.1656
X0.8188 Y-1.1384
X0.8422 Y-1.1176
X0.8697 Y-1.1026
X0.8993 Y-1.0924
X0.9298 Y-1.0856
G2 X1.0544 Y-1.0749 I0.1473 J-0.9876
G3 X1.3347 Y-1.048 I-0.1012 J2.5282
G2 X1.6768 Y-1.0116 I0.549 J-3.5361
X1.8019 Y-1.007 I0.3056 J-6.5909
X1.9895 Y-1.0099 I0.0694 J-1.5767
X2.113 Y-1.0303 I-0.1539 J-1.3151
G3 X2.2666 Y-1.0598 I0.5673 J2.5413
X2.5471 Y-1.0567 I0.1304 J0.8867
G2 X2.7326 Y-1.0276 I4.6768 J-29.17
X3.0759 Y-1.0059 I0.3535 J-2.8685
X3.2636 Y-1.0038 I0.1797 J-7.6672
G1 X3.2791 Y-1.0057
X3.2939 Y-1.0108
X3.3212 Y-1.0262
X3.3427 Y-1.0489
X3.359 Y-1.0756
X3.3713 Y-1.1044
G2 X3.3998 Y-1.2261 I-0.7184 J-0.2328
X3.4361 Y-1.4421 I-7.9864 J-1.4518
X3.4638 Y-1.785 I-2.9852 J-0.4136
X3.4672 Y-1.9258 I-2.8025 J-0.1394
G1 X3.4593 Y-1.9561
X3.4437 Y-1.9832
X3.4245 Y-2.008
X3.4043 Y-2.0319
X3.3881 Y-2.0524
G3 X3.3541 Y-2.1265 I0.1452 J-0.1115
X3.3721 Y-2.2101 I0.1059 J-0.0209
G1 X3.3924 Y-2.234
X3.4113 Y-2.2589
X3.4267 Y-2.2861
X3.4387 Y-2.315
G2 X3.463 Y-2.4375 I-0.4818 J-0.1592
G1 X3.4657 Y-2.4687
X3.4675 Y-2.4999
X3.4687 Y-2.5312
X3.4664 Y-2.5624
X3.4544 Y-2.5913
X3.4349 Y-2.6158
X3.4105 Y-2.6353
X3.3831 Y-2.6504
X3.3539 Y-2.6618
G2 X3.2311 Y-2.6843 I-0.1602 J0.5265
G1 X3.1999 Y-2.6868
G2 X3.0758 Y-2.675 I-0.0274 J0.3716
X2.9566 Y-2.637 I0.5988 J2.085
G3 X2.8345 Y-2.6102 I-0.183 J-0.5427
X2.7101 Y-2.6177 I-0.0364 J-0.4325
X2.589 Y-2.6493 I0.4839 J-2.1053
G2 X2.3106 Y-2.6876 I-0.3077 J1.2063
X2.0291 Y-2.6925 I-0.2394 J5.6345
X1.781 Y-2.6655 I-0.0273 J0.904
G3 X1.5978 Y-2.6246 I-0.7081 J-2.7379
X1.3176 Y-2.6306 I-0.1232 J-0.7834
X1.1947 Y-2.6543 I0.9996 J-5.5341
G2 X1.0088 Y-2.6801 I-0.3507 J1.84
G1 X0.9775 Y-2.6799
X0.9482 Y-2.669
X0.9233 Y-2.6501
X0.9035 Y-2.6259
X0.8882 Y-2.5986
X0.8767 Y-2.5695
X0.8681 Y-2.5394
X0.8619 Y-2.5087
G2 X0.8479 Y-2.3216 I1.2777 J0.1893
X0.8459 Y-1.8836 I15.6666 J0.2924
X0.8704 Y-1.7613 I0.3953 J-0.0157
G3 X0.9137 Y-1.6439 I-21.3604 J7.9495
X0.9386 Y-1.5234 I-0.4592 J0.1574
X0.9272 Y-1.4044 I-0.4043 J0.0214
X0.8915 Y-1.2844 I-2.4288 J-0.6582
G1 X0.8895 Y-1.2689
X0.8917 Y-1.2534
X0.8975 Y-1.2388
X0.9143 Y-1.2124
X0.9381 Y-1.1922
X0.9656 Y-1.1773
X0.995 Y-1.1665
G2 X1.1181 Y-1.1447 I0.1847 J-0.685
G3 X1.4596 Y-1.1016 I-1.2892 J11.5831
G1 X1.4907 Y-1.0983
X1.5219 Y-1.095
X1.553 Y-1.0919
G2 X1.8967 Y-1.0768 I0.3311 J-3.622
X2.1139 Y-1.1036 I-0.0456 J-1.264
G3 X2.311 Y-1.1336 I0.4294 J2.1605
X2.5607 Y-1.1236 I0.0814 J1.0961
G2 X2.7776 Y-1.0934 I1.6047 J-10.7042
X3.1525 Y-1.0752 I0.3688 J-3.7314
G1 X3.1838 Y-1.0745
X3.2148 Y-1.0787
X3.2426 Y-1.093
X3.2657 Y-1.1142
X3.2841 Y-1.1395
X3.2987 Y-1.1672
G2 X3.3355 Y-1.2866 I-0.5599 J-0.2376
G1 X3.3421 Y-1.3172
X3.3482 Y-1.3479
G2 X3.3917 Y-1.7519 I-2.634 J-0.4881
G1 X3.3934 Y-1.7832
X3.3945 Y-1.8145
X3.3955 Y-1.8457
X3.3926 Y-1.8769
X3.3839 Y-1.907
X3.3713 Y-1.9356
X3.3565 Y-1.9632
X3.3411 Y-1.9904
X3.3262 Y-2.0179
G3 X3.2976 Y-2.0999 I0.2563 J-0.1354
X3.3069 Y-2.2013 I0.1871 J-0.0339
G1 X3.3191 Y-2.2301
X3.3333 Y-2.258
G2 X3.3829 Y-2.4057 I-0.4388 J-0.2296
G1 X3.3878 Y-2.4366
X3.3915 Y-2.4677
X3.3887 Y-2.4988
X3.3754 Y-2.5272
X3.3548 Y-2.5508
X3.3296 Y-2.5693
X3.3018 Y-2.5836
G2 X3.1799 Y-2.6088 I-0.1264 J0.3036
G1 X3.1486 Y-2.6076
G2 X3.0262 Y-2.5827 I0.0705 J0.6589
G3 X2.9046 Y-2.5529 I-0.4263 J-1.4759
X2.6869 Y-2.5555 I-0.102 J-0.557
G1 X2.6563 Y-2.5619
G2 X2.5749 Y-2.5776 I-0.2204 J0.9236
X2.233 Y-2.613 I-0.3679 J1.887
X1.9827 Y-2.6148 I-0.1571 J4.2761
X1.7665 Y-2.5818 I0.0658 J1.1558
G3 X1.5919 Y-2.5494 I-0.4564 J-1.9713
X1.3179 Y-2.5566 I-0.1119 J-0.9611
X1.1616 Y-2.5826 I0.6392 J-4.3235
G1 X1.1306 Y-2.5873
X1.0996 Y-2.5917
X1.0686 Y-2.5957
X1.053 Y-2.5941
X1.0231 Y-2.585
X0.9979 Y-2.5665
X0.978 Y-2.5423
X0.963 Y-2.5148
X0.9517 Y-2.4856
G2 X0.9299 Y-2.3626 I0.5328 J0.1578
G1 X0.9275 Y-2.3314
X0.9259 Y-2.3002
X0.9247 Y-2.2689
X0.9238 Y-2.2376
G2 X0.9162 Y-2.0188 I2.2944 J0.1895
X0.9183 Y-1.8937 I1.2241 J0.0418
X0.9456 Y-1.7718 I0.6059 J-0.0715
G3 X0.9829 Y-1.6523 I-3.7169 J1.2273
X1.0039 Y-1.4977 I-0.5405 J0.1521
X0.9833 Y-1.3588 I-0.5865 J-0.0161
G1 X0.9819 Y-1.3432
X0.9843 Y-1.3277
X0.9957 Y-1.2986
X1.0161 Y-1.2748
X1.0415 Y-1.2565
X1.0695 Y-1.2425
X1.0989 Y-1.2318
G2 X1.2213 Y-1.2061 I0.2402 J-0.8367
X1.625 Y-1.1566 I0.8569 J-5.3237
X1.8829 Y-1.1482 I0.2407 J-3.4085
G1 X1.9142 Y-1.1498
X1.9454 Y-1.1519
X1.9766 Y-1.1549
G2 X2.1158 Y-1.1758 I-0.271 J-2.288
X2.1457 Y-1.1992 I-0.0114 J-0.0454
G1 X2.1581 Y-1.2279
X2.1618 Y-1.256
G3 X2.1854 Y-1.3129 I0.1185 J0.0159
X2.2333 Y-1.3356 I0.047 J0.0373
X2.2627 Y-1.317 I-0.0032 J0.0376
G1 X2.265 Y-1.3114
X2.268 Y-1.2961
X2.2757 Y-1.2824
X2.2962 Y-1.2588
X2.3226 Y-1.2421
X2.3516 Y-1.2304
G2 X2.4744 Y-1.2065 I0.1992 J-0.6979
X2.7843 Y-1.1638 I2.2061 J-14.8445
X3.128 Y-1.1461 I0.3611 J-3.6712
G1 X3.1579 Y-1.1554
X3.1841 Y-1.1725
X3.206 Y-1.1949
X3.2239 Y-1.2205
X3.2385 Y-1.2482
G2 X3.2763 Y-1.3673 I-0.5491 J-0.2402
X3.3167 Y-1.6773 I-1.9285 J-0.4084
G1 X3.319 Y-1.7085
X3.3207 Y-1.7397
X3.3222 Y-1.771
X3.3225 Y-1.8023
X3.3191 Y-1.8334
X3.3119 Y-1.8639
X3.302 Y-1.8935
X3.2903 Y-1.9226
G3 X3.2451 Y-2.0391 I0.92 J-0.4243
X3.2348 Y-2.1542 I0.2993 J-0.0848
G1 X3.2385 Y-2.1785
X3.2442 Y-2.2038
X3.2534 Y-2.2337
G2 X3.2948 Y-2.3518 I-1.6864 J-0.6568
G1 X3.3024 Y-2.3821
X3.3054 Y-2.3975
Y-2.4131
X3.3023 Y-2.4285
X3.2907 Y-2.4575
X3.2705 Y-2.4814
X3.245 Y-2.4996
X3.2163 Y-2.512
X3.1858 Y-2.519
X3.1546 Y-2.5218
X3.1233 Y-2.521
G2 X2.9999 Y-2.5008 I0.0872 J0.9157
G3 X2.8452 Y-2.4781 I-0.2332 J-1.0554
X2.6585 Y-2.4928 I-0.0335 J-0.7713
G2 X2.4732 Y-2.5232 I-1.6193 J9.2761
X2.1612 Y-2.544 I-0.3273 J2.5625
X2.036 Y-2.5449 I-0.0795 J2.4573
X1.7881 Y-2.5136 I0.0315 J1.248
G3 X1.634 Y-2.4861 I-0.6842 J-3.3881
X1.5484 Y-2.4776 I-0.1539 J-1.1165
G1 X1.5332 Y-2.4742
X1.5065 Y-2.4578
X1.4849 Y-2.4351
X1.4649 Y-2.411
G3 X1.4219 Y-2.3764 I-0.1086 J-0.0911
X1.3726 Y-2.3716 I-0.031 J-0.0634
X1.3492 Y-2.3896 I0.015 J-0.0437
G1 X1.3351 Y-2.4176
X1.3147 Y-2.4413
X1.2895 Y-2.4599
X1.2618 Y-2.4744
G2 X1.1421 Y-2.5102 I-0.2197 J0.5177
G1 X1.1265 Y-2.5097
X1.1113 Y-2.5059
X1.0828 Y-2.4931
X1.0595 Y-2.4723
X1.0414 Y-2.4467
X1.0277 Y-2.4186
X1.0177 Y-2.3889
X1.0103 Y-2.3585
G2 X0.9926 Y-2.2031 I1.3889 J0.2369
X0.9872 Y-1.9529 I2.9337 J0.1884
X1.0141 Y-1.7991 I0.7046 J-0.0439
G3 X1.0543 Y-1.6479 I-3.1001 J0.9054
G1 X1.0601 Y-1.6171
X1.0647 Y-1.5862
G3 X1.0718 Y-1.4973 I-0.8532 J0.1124
X1.0677 Y-1.4278 I-0.687 J-0.0051
G1 X1.0686 Y-1.4122
X1.0727 Y-1.3971
X1.086 Y-1.3688
X1.1071 Y-1.3456
X1.1325 Y-1.3274
X1.1603 Y-1.3131
G2 X1.2804 Y-1.2786 I0.2187 J-0.5344
X1.7153 Y-1.229 I0.571 J-3.0792
G1 X1.7466 Y-1.2274
X1.7661 Y-1.2268
X1.7739 Y-1.2279
X1.7813 Y-1.2302
X1.7883 Y-1.2337
X1.8009 Y-1.243
X1.8198 Y-1.268
G3 X1.8629 Y-1.3227 I0.2358 J0.1413
X1.9106 Y-1.3464 I0.0649 J0.0708
X1.9631 Y-1.3243 I0.0089 J0.0522
G1 X1.9713 Y-1.311
G2 X1.9972 Y-1.2942 I0.0408 J-0.0346
G1 X2.0049 Y-1.2928
X2.0128 Y-1.2927
X2.0205 Y-1.2939
X2.0502 Y-1.3037
G2 X2.0963 Y-1.3397 I-0.4923 J-0.6792
G3 X2.1739 Y-1.3845 I0.1656 J0.1972
X2.2507 Y-1.3841 I0.0379 J0.1221
X2.2719 Y-1.373 I-0.0463 J0.114
G1 X2.2971 Y-1.3544
X2.3233 Y-1.3373
X2.3513 Y-1.3232
G2 X2.4712 Y-1.2885 I0.2156 J-0.5202
X2.6875 Y-1.2538 I0.7332 J-3.8815
G1 X2.7185 Y-1.2496
G2 X2.9358 Y-1.2236 I0.2856 J-1.4651
X3.0608 Y-1.2187 I0.1236 J-1.5783
G1 X3.091 Y-1.2274
X3.1177 Y-1.2436
X3.1404 Y-1.2651
X3.1592 Y-1.2902
X3.1746 Y-1.3174
G2 X3.2139 Y-1.4359 I-0.4708 J-0.2218
X3.246 Y-1.684 I-1.6204 J-0.3356
G1 X3.2483 Y-1.7152
X3.2494 Y-1.7464
X3.2482 Y-1.7777
X3.244 Y-1.8087
G2 X3.2085 Y-1.9286 I-0.753 J0.158
G3 X3.1751 Y-2.0491 I0.7483 J-0.2722
X3.1715 Y-2.1573 I0.4454 J-0.0691
X3.1994 Y-2.2791 I0.6039 J0.0743
G1 X3.2084 Y-2.3091
X3.2128 Y-2.3241
X3.2145 Y-2.3397
X3.2119 Y-2.3551
X3.2054 Y-2.3693
X3.1866 Y-2.3943
X3.1604 Y-2.4114
X3.1308 Y-2.4216
X3.0999 Y-2.4267
X3.0687 Y-2.4281
G2 X2.944 Y-2.4176 I0.0418 J1.2458
G1 X2.9128 Y-2.4146
X2.8817 Y-2.4122
X2.8504 Y-2.4106
G3 X2.6633 Y-2.423 I-0.0288 J-0.9848
G2 X2.4467 Y-2.4553 I-2.4994 J16.0216
X2.0093 Y-2.4726 I-0.3393 J3.0396
X1.8232 Y-2.4481 I0.1153 J1.5959
G3 X1.6381 Y-2.4173 I-0.6829 J-3.5378
G1 X1.6076 Y-2.4102
X1.5794 Y-2.3967
X1.5528 Y-2.3801
X1.527 Y-2.3624
X1.502 Y-2.3461
G3 X1.4188 Y-2.3162 I-0.1074 J-0.1689
X1.3356 Y-2.3392 I-0.0115 J-0.1208
G1 X1.3103 Y-2.3577
G2 X1.2146 Y-2.4101 I-0.2289 J0.3048
G1 X1.199 Y-2.4119
X1.1835 Y-2.4098
X1.1541 Y-2.3991
X1.13 Y-2.3792
X1.1114 Y-2.354
X1.0973 Y-2.326
X1.0867 Y-2.2966
X1.0787 Y-2.2663
X1.0727 Y-2.2356
X1.0682 Y-2.2047
G2 X1.0602 Y-1.9548 I1.4797 J0.1726
X1.0886 Y-1.801 I0.997 J-0.1046
G3 X1.1236 Y-1.6486 I-2.2742 J0.6029
X1.1381 Y-1.493 I-0.8553 J0.1583
G1 X1.1443 Y-1.4623
X1.1596 Y-1.435
X1.1809 Y-1.4121
X1.206 Y-1.3934
X1.2335 Y-1.3784
G2 X1.3527 Y-1.3413 I0.2181 J-0.4905
X1.6318 Y-1.3052 I0.4133 J-2.1015
G1 X1.663 Y-1.3027
X1.6942 Y-1.3054
X1.7234 Y-1.3166
X1.7505 Y-1.3323
X1.7765 Y-1.3496
X1.8026 Y-1.367
G3 X1.8772 Y-1.3978 I0.119 J0.1821
X1.9191 Y-1.3991 I0.0255 J0.1445
G1 X1.95 Y-1.3941
X1.9813 Y-1.3933
X2.012 Y-1.3992
X2.0418 Y-1.4088
X2.0711 Y-1.4199
X2.1004 Y-1.4309
X2.1276 Y-1.4397
G3 X2.2315 Y-1.4468 I0.0673 J0.2231
G1 X2.2455 Y-1.4435
X2.2641 Y-1.4379
X2.2932 Y-1.4265
X2.3217 Y-1.4137
G2 X2.5637 Y-1.3512 I0.4306 J-1.1689
X2.8421 Y-1.3087 I1.0767 J-6.1217
X2.9669 Y-1.299 I0.3507 J-3.6937
G1 X2.9982 Y-1.2994
X3.0282 Y-1.3085
X3.0546 Y-1.3253
X3.0768 Y-1.3472
X3.0951 Y-1.3726
X3.11 Y-1.4001
G2 X3.1467 Y-1.5195 I-0.4672 J-0.209
X3.169 Y-1.7058 I-1.275 J-0.2466
X3.1543 Y-1.8297 I-0.4598 J-0.0083
X3.1244 Y-1.9394 I-8.8651 J2.3535
G3 X3.1081 Y-2.0148 I0.8391 J-0.2212
G1 X3.1058 Y-2.0223
X3.1023 Y-2.0293
X3.0931 Y-2.042
X3.0676 Y-2.0602
G3 X3.0053 Y-2.0983 I0.1633 J-0.3371
X2.9727 Y-2.1477 I0.0638 J-0.0775
X2.9818 Y-2.1934 I0.0541 J-0.0131
X3.0069 Y-2.2085 I0.0316 J0.0242
G1 X3.0221 Y-2.2121
X3.0505 Y-2.2254
G2 X3.0767 Y-2.2541 I-0.0681 J-0.0887
X3.0586 Y-2.3157 I-0.0426 J-0.021
G1 X3.0305 Y-2.3294
X2.9994 Y-2.3331
X2.9682 Y-2.3346
X2.937 Y-2.337
X2.9057 Y-2.3382
G3 X2.7182 Y-2.3471 I0.0032 J-2.0455
X2.4702 Y-2.3812 I1.0687 J-8.6999
G2 X2.0643 Y-2.4029 I-0.3653 J3.0177
X1.8158 Y-2.3745 I0.0656 J1.6747
X1.6923 Y-2.3543 I2.3799 J14.9171
G1 X1.6622 Y-2.3456
X1.6332 Y-2.334
X1.605 Y-2.3204
X1.5772 Y-2.3059
X1.5493 Y-2.2917
X1.5208 Y-2.2788
G3 X1.4227 Y-2.257 I-0.1064 J-0.2474
X1.341 Y-2.2728 I-0.0008 J-0.2159
G1 X1.3122 Y-2.285
X1.2842 Y-2.299
X1.2692 Y-2.3035
X1.2536 Y-2.3031
X1.2385 Y-2.2988
X1.2106 Y-2.2846
X1.1884 Y-2.2626
X1.1714 Y-2.2363
X1.1588 Y-2.2077
X1.1495 Y-2.1778
X1.1428 Y-2.1473
G2 X1.1483 Y-1.8674 I0.7145 J0.1257
X1.1747 Y-1.7451 I3.8383 J-0.7624
G3 X1.2032 Y-1.5597 I-1.3092 J0.2966
G1 X1.2111 Y-1.5294
X1.2265 Y-1.5021
X1.2475 Y-1.479
X1.2722 Y-1.4598
X1.2993 Y-1.4442
G2 X1.418 Y-1.4053 I0.2126 J-0.4491
X1.6038 Y-1.379 I0.3018 J-1.4609
G1 X1.635 Y-1.3806
X1.6655 Y-1.3874
X1.695 Y-1.3978
X1.7238 Y-1.4103
X1.7522 Y-1.4233
X1.7809 Y-1.4357
G3 X1.8745 Y-1.4593 I0.1215 J0.2856
G1 X1.9058 Y-1.4608
X1.937 Y-1.4634
X1.9678 Y-1.4685
X1.9983 Y-1.4757
X2.0285 Y-1.484
G3 X2.1471 Y-1.5111 I0.2182 J0.682
X2.2777 Y-1.4986 I0.0332 J0.3415
G1 X2.3077 Y-1.4897
G2 X2.4883 Y-1.4388 I0.6462 J-1.9458
X2.89 Y-1.3756 I0.7992 J-3.7703
G1 X2.9212 Y-1.3736
X2.9522 Y-1.3784
X2.9805 Y-1.3917
X3.0048 Y-1.4114
X3.025 Y-1.4354
X3.0413 Y-1.462
X3.0545 Y-1.4904
G2 X3.0901 Y-1.6423 I-0.5671 J-0.2132
X3.084 Y-1.798 I-0.4793 J-0.0591
X3.0568 Y-1.9202 I-2.8613 J0.5726
G1 X3.0435 Y-1.9485
X3.025 Y-1.9738
X3.0041 Y-1.997
X2.9826 Y-2.0198
X2.964 Y-2.0409
G3 X2.9237 Y-2.118 I0.1495 J-0.1273
X2.9209 Y-2.1636 I0.1483 J-0.0319
G1 X2.9169 Y-2.1787
X2.9013 Y-2.2059
X2.8775 Y-2.2261
X2.8499 Y-2.2409
X2.8205 Y-2.2517
G2 X2.698 Y-2.2766 I-0.2388 J0.859
X2.3879 Y-2.319 I-0.977 J5.9886
G1 X2.3567 Y-2.3215
X2.3256 Y-2.324
G2 X2.0442 Y-2.3305 I-0.1972 J2.4644
X1.7958 Y-2.2998 I0.1596 J2.3122
X1.646 Y-2.2567 I0.0639 J0.5045
G1 X1.6172 Y-2.2445
G3 X1.5017 Y-2.2033 I-0.2815 J-0.6067
X1.3818 Y-2.199 I-0.0712 J-0.3123
G1 X1.3511 Y-2.2051
X1.3357 Y-2.2078
X1.3201 Y-2.2064
X1.3052 Y-2.2017
X1.2777 Y-2.1868
X1.2558 Y-2.1645
X1.2392 Y-2.138
X1.2271 Y-2.1091
X1.2187 Y-2.0789
G2 X1.2118 Y-1.9544 I0.4205 J0.0858
X1.2357 Y-1.7999 I1.2222 J-0.1104
G3 X1.2627 Y-1.6458 I-2.8542 J0.5782
G1 X1.2678 Y-1.6149
X1.2792 Y-1.5858
X1.2969 Y-1.5599
X1.3191 Y-1.5379
X1.3446 Y-1.5197
X1.3721 Y-1.5048
G2 X1.4914 Y-1.4679 I0.2093 J-0.4658
G1 X1.5221 Y-1.4622
X1.5532 Y-1.4579
X1.5844 Y-1.4571
X1.6156 Y-1.4604
X1.6462 Y-1.4668
X1.6763 Y-1.4754
G3 X1.7958 Y-1.5124 I0.5563 J1.5823
G1 X1.8265 Y-1.5184
G2 X1.95 Y-1.539 I-0.2357 J-1.7945
G3 X2.0719 Y-1.5672 I0.9954 J4.0279
X2.1964 Y-1.5769 I0.1023 J0.507
X2.3195 Y-1.5554 I-0.0453 J0.6215
G2 X2.5014 Y-1.5088 I1.215 J-4.3694
X2.8408 Y-1.4521 I0.7722 J-3.5782
G1 X2.8721 Y-1.4513
X2.9023 Y-1.4595
X2.9291 Y-1.4756
X2.9516 Y-1.4974
X2.9699 Y-1.5228
X2.9845 Y-1.5505
G2 X3.0161 Y-1.7026 I-0.3388 J-0.1499
X3.0028 Y-1.8268 I-0.6712 J0.0092
G1 X2.9949 Y-1.8571
X2.9825 Y-1.8859
X2.967 Y-1.913
X2.9496 Y-1.9391
X2.9316 Y-1.9646
X2.9139 Y-1.9904
G3 X2.8683 Y-2.0879 I0.2778 J-0.1893
G1 X2.8539 Y-2.1157
X2.8328 Y-2.1388
X2.8076 Y-2.1573
X2.7799 Y-2.172
G2 X2.6602 Y-2.2074 I-0.2199 J0.5228
X2.1004 Y-2.2608 I-0.546 J2.7631
X1.7897 Y-2.2261 I0.0676 J2.0118
X1.6414 Y-2.1768 I0.2545 J1.0134
G3 X1.5218 Y-2.1402 I-0.3101 J-0.8003
X1.398 Y-2.1328 I-0.0872 J-0.4188
G1 X1.3681 Y-2.1238
X1.3429 Y-2.1053
X1.3234 Y-2.0808
X1.3094 Y-2.0528
X1.3002 Y-2.0229
X1.295 Y-1.992
G2 X1.2989 Y-1.8672 I0.5196 J0.0459
X1.3289 Y-1.6819 I3.6856 J-0.5001
G1 X1.3405 Y-1.6528
X1.3579 Y-1.6268
X1.3799 Y-1.6045
X1.4051 Y-1.586
G2 X1.5214 Y-1.5416 I0.1774 J-0.2902
G1 X1.5525 Y-1.5384
X1.5838 Y-1.5388
X1.6149 Y-1.5422
G2 X1.737 Y-1.5697 I-0.2875 J-1.5617
G3 X1.8906 Y-1.5992 I0.9532 J4.5471
X2.0437 Y-1.6317 I1.2802 J5.6604
X2.2306 Y-1.6396 I0.1203 J0.6253
X2.384 Y-1.6091 I-0.1585 J1.1965
G2 X2.783 Y-1.5308 I0.9187 J-3.6259
G1 X2.8143 Y-1.5303
X2.8442 Y-1.5395
X2.8703 Y-1.5567
X2.8918 Y-1.5795
X2.9085 Y-1.606
X2.9208 Y-1.6347
X2.929 Y-1.665
X2.9335 Y-1.6959
X2.9351 Y-1.7272
X2.9341 Y-1.7584
X2.9298 Y-1.7894
X2.9214 Y-1.8196
X2.9099 Y-1.8487
X2.8961 Y-1.8768
X2.8811 Y-1.9042
G3 X2.8237 Y-2.0154 I0.9014 J-0.5366
G1 X2.8069 Y-2.0418
X2.7856 Y-2.0647
X2.7608 Y-2.0839
X2.7338 Y-2.0997
G2 X2.6157 Y-2.14 I-0.2247 J0.4651
X2.3372 Y-2.1804 I-0.418 J1.9007
X1.9312 Y-2.1761 I-0.1832 J1.8665
X1.7179 Y-2.1283 I0.0982 J0.937
G1 X1.6586 Y-2.1082
G3 X1.507 Y-2.0706 I-0.2742 J-0.7812
G1 X1.4758 Y-2.0676
X1.446 Y-2.0581
X1.4212 Y-2.039
X1.4027 Y-2.0138
X1.3901 Y-1.9852
X1.3823 Y-1.9549
X1.3782 Y-1.9238
X1.3771 Y-1.8925
G2 X1.3875 Y-1.7679 I0.9379 J-0.0157
G1 X1.3948 Y-1.7375
X1.4082 Y-1.7092
X1.4272 Y-1.6843
X1.4504 Y-1.6633
X1.4766 Y-1.6463
X1.5054 Y-1.634
X1.5357 Y-1.6263
X1.5668 Y-1.6229
X1.5981
G2 X1.722 Y-1.6401 I-0.0721 J-0.9762
X1.9678 Y-1.6878 I-0.928 J-5.4397
G3 X2.1227 Y-1.7089 I0.2296 J1.1043
X2.3402 Y-1.6888 I0.0331 J0.8278
X2.4929 Y-1.6551 I-1.132 J5.4922
G2 X2.739 Y-1.6091 I0.8147 J-3.6755
G1 X2.7544 Y-1.612
X2.7839 Y-1.6226
X2.8081 Y-1.6423
X2.8262 Y-1.6679
X2.8382 Y-1.6968
X2.8442 Y-1.7275
Y-1.7588
X2.8394 Y-1.7897
X2.831 Y-1.8199
G2 X2.7823 Y-1.9351 I-1.0271 J0.3665
G1 X2.7663 Y-1.9619
X2.7463 Y-1.986
X2.7229 Y-2.0068
X2.697 Y-2.0243
G2 X2.5809 Y-2.0702 I-0.2219 J0.3916
X2.3651 Y-2.1062 I-0.3335 J1.334
X1.928 Y-2.1036 I-0.2075 J1.8375
X1.7453 Y-2.0613 I0.1504 J1.0658
G3 X1.5949 Y-2.0185 I-0.7057 J-2.1923
G1 X1.5642 Y-2.0123
X1.5341 Y-2.0037
X1.5086 Y-1.9856
X1.4892 Y-1.961
X1.4757 Y-1.9328
X1.4671 Y-1.9027
X1.4623 Y-1.8718
X1.4606 Y-1.8405
X1.4636 Y-1.8094
X1.4742 Y-1.7799
X1.4925 Y-1.7546
X1.517 Y-1.7351
X1.5453 Y-1.7217
X1.5755 Y-1.7137
X1.6066 Y-1.7097
G2 X1.7314 Y-1.7165 I0.0281 J-0.6327
X1.8855 Y-1.743 I-0.3062 J-2.2472
G3 X2.0708 Y-1.7729 I0.416 J1.9902
X2.3509 Y-1.7559 I0.0834 J0.9417
X2.5348 Y-1.7178 I-1.1232 J5.888
G2 X2.6577 Y-1.6941 I1.2116 J-5.9405
G1 X2.6733 Y-1.6948
X2.688 Y-1.7001
X2.7006 Y-1.7095
X2.7031 Y-1.7125
X2.722 Y-1.7374
X2.7313 Y-1.7673
X2.7335 Y-1.7985
X2.7306 Y-1.8297
X2.7231 Y-1.86
X2.7104 Y-1.8886
X2.6924 Y-1.9142
X2.6703 Y-1.9364
X2.6453 Y-1.9552
X2.6182 Y-1.9709
G2 X2.5001 Y-2.0115 I-0.2231 J0.4562
X2.2521 Y-2.0434 I-0.3113 J1.4425
X1.909 Y-2.0276 I-0.0991 J1.5861
X1.7872 Y-1.9988 I0.2746 J1.4345
X1.7177 Y-1.9766 I0.208 J0.7699
G3 X1.6485 Y-1.9563 I-0.6669 J-2.1376
G1 X1.6191 Y-1.9455
X1.5946 Y-1.9261
X1.5854 Y-1.9135
G2 X1.5824 Y-1.8685 I0.0398 J0.0252
G1 X1.5902 Y-1.8549
X1.6129 Y-1.8334
X1.6408 Y-1.8193
X1.671 Y-1.8109
X1.702 Y-1.8068
G2 X1.8267 Y-1.8137 I0.0301 J-0.5921
G3 X1.9927 Y-1.8389 I4.1278 J26.5647
X2.3459 Y-1.8316 I0.1535 J1.1182
X2.5523 Y-1.7921 I-0.735 J4.4023
G2 X2.5953 Y-1.8674 I0.0051 J-0.047
G1 X2.5849 Y-1.879
X2.5588 Y-1.8963
X2.5309 Y-1.9105
G2 X2.4111 Y-1.9459 I-0.2131 J0.5006
X2.037 Y-1.9637 I-0.2563 J1.4454
G1 X2.0059 Y-1.9612
G2 X1.8823 Y-1.9413 I0.1019 J1.0256
G3 X1.8603 Y-1.9577 I-0.0034 J-0.0184
G1 X1.8599 Y-1.9609 Z0.3546
X1.8596 Y-1.9641 Z0.3555
X1.8593 Y-1.967 Z0.3568
X1.859 Y-1.9697 Z0.3587
X1.8588 Y-1.972 Z0.361
X1.8586 Y-1.9738 Z0.3637
X1.8584 Y-1.9752 Z0.3667
X1.8583 Y-1.9761 Z0.3698
Y-1.9763 Z0.3731
G0 Z1.09
M5
G53 G0 Z0.
(2D CHAMFER2 2)
M9
M1
T12 M6
T32
S7500 M3
G17 G90 G94
G54
G64 P0.0004 Q0.0004
M8
G0 X0.8529 Y-1.4264
G43 Z1.09 H12
G0 Z0.69
G1 Z0.57 F80.
Z0.3043
G3 X0.4857 Y-1.4609 I-0.1836 J-0.0173 F30.
X0.8529 Y-1.4264 I0.1836 J0.0173
G0 Z0.69
X1.2395 Y-0.3937
G1 Z0.57 F80.
Z0.3043
G3 X1.1227 I-0.0584 J0. F30.
X1.2395 I0.0584 J0.
G0 Z0.69
X0.5309
G1 Z0.57 F80.
Z0.3043
G3 X0.414 I-0.0584 J0. F30.
X0.5309 I0.0584 J0.
G0 Z0.69
X2.8243 Y-0.9252
G1 Z0.57 F80.
Z0.3043
Y-1.0856 F30.
G0 Z0.69
X3.1393 Y-0.0591
G1 Z0.57 F80.
Z0.3043
Y-0.2559 F30.
G0 Z0.69
X2.3813 Y-2.5512
G1 Z0.57 F80.
Z0.3043
Y-2.3817 F30.
G0 Z0.69
X1.59 Y-3.0655
G1 Z0.57 F80.
Z0.3043
G3 X1.2228 Y-3.1 I-0.1836 J-0.0173 F30.
X1.59 Y-3.0655 I0.1836 J0.0173
G0 Z0.69
X2.0663 Y-3.4174
G1 Z0.57 F80.
Z0.3043
Y-3.2205 F30.
G0 Z1.09
(2D CONTOUR2 2)
G0 X2.0687 Y-1.4967
Z1.09
Z0.69
G1 Z0.5294 F30.
Z0.2589
X2.069 Y-1.4969 Z0.2552 F20.
X2.0697 Y-1.4975 Z0.2516
X2.0708 Y-1.4983 Z0.2482
X2.0723 Y-1.4995 Z0.245
X2.0742 Y-1.501 Z0.2422
X2.0764 Y-1.5028 Z0.2398
X2.0789 Y-1.5047 Z0.2379
X2.0816 Y-1.5068 Z0.2364
X2.0844 Y-1.5091 Z0.2356
X2.0873 Y-1.5113 Z0.2353
X2.1059 Y-1.526
G3 X2.139 Y-1.522 I0.0146 J0.0186
G1 X2.2861 Y-1.3352
G3 X2.2404 Y-1.2411 I-0.0457 J0.0359
G1 X1.936
G3 X1.8857 Y-1.2702 I0. J-0.0581
G1 X1.4795 Y-1.9737
X1.4274 Y-2.0639
G3 X1.3145 Y-2.4069 I0.7663 J-0.4424
X1.3722 Y-2.4715 I0.0577 J-0.0065
G1 X1.5064
G3 X1.5622 Y-2.4296 I0. J0.0581
G2 X1.8203 Y-1.927 I1.419 J-0.4111
G1 X2.139 Y-1.522
G3 X2.1351 Y-1.4888 I-0.0186 J0.0146
G1 X2.1165 Y-1.4742
X2.1136 Y-1.4719 Z0.2356
X2.1108 Y-1.4697 Z0.2364
X2.1081 Y-1.4676 Z0.2379
X2.1056 Y-1.4656 Z0.2398
X2.1034 Y-1.4639 Z0.2422
X2.1015 Y-1.4624 Z0.245
X2.1 Y-1.4612 Z0.2482
X2.0989 Y-1.4603 Z0.2516
X2.0982 Y-1.4598 Z0.2552
X2.098 Y-1.4596 Z0.2589
G0 Z0.69
X2.9636 Y-1.1649
G1 Z0.5294 F30.
Z0.2589
X2.9634 Y-1.1647 Z0.2552 F20.
X2.9627 Y-1.1642 Z0.2516
X2.9616 Y-1.1633 Z0.2482
X2.9601 Y-1.1621 Z0.245
X2.9582 Y-1.1606 Z0.2422
X2.9559 Y-1.1589 Z0.2398
X2.9535 Y-1.1569 Z0.2379
X2.9508 Y-1.1548 Z0.2364
X2.9479 Y-1.1526 Z0.2356
X2.945 Y-1.1503 Z0.2353
X2.9265 Y-1.1357
G3 X2.8933 Y-1.1396 I-0.0146 J-0.0186
G1 X2.1002 Y-2.1474
G3 X1.8601 Y-2.8407 I0.881 J-0.6934
G1 Y-3.0827
G2 X0.9527 I-0.4537 J0.
G1 Y-2.5063
G2 X1.1189 Y-1.8858 I1.2411 J0.
G1 X1.5999 Y-1.0527
G3 X1.4814 Y-0.8474 I-0.1185 J0.0684
G1 X0.608
X0.6046 Y-0.8473
X0.6013 Y-0.847
X0.5795 Y-0.8446
G2 X0.6299 Y0.06 I0.0504 J0.4509
G1 X3.0993
X3.1993
G3 X3.2229 Y0.0836 I0. J0.0236
G1 Y0.1072
G19 G3 Y0.1309 Z0.2589 J0. K0.0236
G0 Z0.69
Y-0.4458
G1 Z0.5294 F30.
Z0.2589
G3 Y-0.4222 Z0.2353 J0.0236 K0. F20.
G1 Y-0.3986
G17 G3 X3.1993 Y-0.375 I-0.0236 J0.
G1 X2.4693
G3 Y-0.8061 I0. J-0.2156
G1 X2.7843
X2.8843
G3 X2.9079 Y-0.7825 I0. J0.0236
G1 Y-0.7589
G19 G3 Y-0.7353 Z0.2589 J0. K0.0236
G0 Z0.69
X3.46 Y-2.1111
G1 Z0.5294 F30.
Z0.2589
X3.4603 Y-2.1112 Z0.2552 F20.
X3.4611 Y-2.1116 Z0.2516
X3.4624 Y-2.1122 Z0.2482
X3.4641 Y-2.113 Z0.245
X3.4663 Y-2.1141 Z0.2422
X3.4688 Y-2.1153 Z0.2398
X3.4716 Y-2.1167 Z0.2379
X3.4747 Y-2.1182 Z0.2364
X3.478 Y-2.1197 Z0.2356
X3.4813 Y-2.1214 Z0.2353
X3.5026 Y-2.1316
G17 G3 X3.5341 Y-2.1206 I0.0103 J0.0213
G1 X3.9464 Y-1.2664
G3 X3.8516 Y-1.2015 I-0.0523 J0.0253
G1 X2.9749 Y-2.1375
G3 X3.0174 Y-2.2353 I0.0424 J-0.0397
G1 X3.4423
G3 X3.4946 Y-2.2025 I0. J0.0581
G1 X3.5341 Y-2.1206
G3 X3.5231 Y-2.0891 I-0.0213 J0.0103
G1 X3.5018 Y-2.0788
X3.4985 Y-2.0772 Z0.2356
X3.4953 Y-2.0756 Z0.2364
X3.4922 Y-2.0741 Z0.2379
X3.4893 Y-2.0728 Z0.2398
X3.4868 Y-2.0715 Z0.2422
X3.4846 Y-2.0705 Z0.245
X3.4829 Y-2.0697 Z0.2482
X3.4816 Y-2.069 Z0.2516
X3.4808 Y-2.0687 Z0.2552
X3.4806 Y-2.0685 Z0.2589
G0 Z0.69
X2.2412 Y-2.2961
G1 Z0.5294 F30.
Z0.2589
X2.2415 Y-2.2963 Z0.2552 F20.
X2.2421 Y-2.2969 Z0.2516
X2.2431 Y-2.2979 Z0.2482
X2.2445 Y-2.2992 Z0.245
X2.2463 Y-2.3008 Z0.2422
X2.2483 Y-2.3028 Z0.2398
X2.2507 Y-2.3049 Z0.2379
X2.2532 Y-2.3073 Z0.2364
X2.2558 Y-2.3097 Z0.2356
X2.2585 Y-2.3122 Z0.2353
X2.2757 Y-2.3284
G3 X2.3091 Y-2.3273 I0.0161 J0.0172
G1 X3.631 Y-0.916
G3 X3.6998 Y-0.7417 I-0.1861 J0.1743
G1 Y0.
G2 X3.7598 Y0.06 I0.06 J0.
G1 X4.3701
G2 X4.5285 Y-0.0984 I0. J-0.1584
G1 Y-0.596
G2 X4.4051 Y-1.1355 I-1.2411 J0.
G1 X3.4775 Y-3.0574
G2 X2.7144 Y-3.5364 I-0.7632 J0.3683
G1 X2.1063
X2.0063
G3 X1.9827 Y-3.5601 I0. J-0.0236
G1 Y-3.5837
G19 G2 Y-3.6073 Z0.2589 J0. K0.0236
G0 Z0.69
Y-3.0306
G1 Z0.5294 F30.
Z0.2589
G2 Y-3.0542 Z0.2353 J-0.0236 K0. F20.
G1 Y-3.0778
G17 G3 X2.0063 Y-3.1015 I0.0236 J0.
G1 X2.7362
G3 Y-2.6703 I0. J0.2156
G1 X2.4213
X2.3213
G3 X2.2976 Y-2.6939 I0. J-0.0236
G1 Y-2.7175
G19 G2 Y-2.7412 Z0.2589 J0. K0.0236
G0 Z0.69
X0.6929 Y-1.9682
G1 Z0.5294 F30.
Z0.2589
G3 Y-1.9446 Z0.2353 J0.0236 K0. F20.
G1 Y-1.921
G17 G3 X0.6693 Y-1.8974 I-0.0236 J0.
G1 X0.
G2 X-0.06 Y-1.8374 I0. J0.06
G1 Y-1.05
G2 X0. Y-0.99 I0.06 J0.
G1 X0.6693
G2 Y-1.8974 I0. J-0.4537
G3 X0.6457 Y-1.921 I0. J-0.0236
G1 Y-1.9446
G19 G2 Y-1.9682 Z0.2589 J0. K0.0236
G0 Z1.09
G17
M5
M9
G53 G0 Z0.
M30
%
