%
(DOVETAIL BARREL, 0,75 SQUARE)
(T12 D=0.2362 CR=0. TAPER=45DEG - ZMIN=0.2814 - CHAMFER MILL)
(T33 D=0.25 CR=0. - ZMIN=0.236 - FLAT END MILL)
(T51 D=0.201 CR=0. TAPER=118DEG - ZMIN=0.695 - DRILL)
(T102 D=0.2 CR=0. TAPER=135DEG - ZMIN=0.3754 - DRILL)
G90 G94 G17 G91.1
G20
G53 G0 Z0.
(ADAPTIVE1)
T33 M6
T51
S7500 M3
G17 G90 G94
G54
G64 P0.004 Q0.004
M8
G0 X0.0328 Y-1.0384
G43 Z1.35 H33
G0 Z0.286
G1 Z0.261 F50.
X0.0329 Y-1.0381 Z0.2571
X0.0331 Y-1.0372 Z0.2533
X0.0335 Y-1.0358 Z0.2497
X0.034 Y-1.0338 Z0.2463
X0.0346 Y-1.0313 Z0.2433
X0.0354 Y-1.0284 Z0.2408
X0.0362 Y-1.0252 Z0.2387
X0.0371 Y-1.0217 Z0.2372
X0.038 Y-1.018 Z0.2363
X0.039 Y-1.0142 Z0.236
G3 X0.0586 Y-0.8781 I-0.6183 J0.1584
G1 Y-0.8722
X0.0542 Y-0.8681
X0.0492 Y-0.8647
X0.018 Y-0.8464
X-0.0074 Y-0.8207
X-0.0271 Y-0.7903
X-0.0418 Y-0.7572
X-0.0523 Y-0.7226
G2 X-0.07 Y-0.5792 I0.7272 J0.1626
X-0.0738 Y-0.3914 I4.3171 J0.182
G1 X-0.0744 Y-0.3832
Y-0.3667
X-0.0743 Y-0.3654
X-0.0741 Y-0.3292
X-0.0743 Y-0.2207
X-0.0744 Y-0.0759
X-0.0643 Y-0.0412
X-0.0439 Y-0.0113
X-0.0168 Y0.0127
X0.0143 Y0.0311
X0.0479 Y0.0447
X0.0827 Y0.0544
G2 X0.2264 Y0.0705 I0.1621 J-0.7972
X0.3556 Y0.0736 I0.1644 J-4.1402
G1 X0.3585 Y0.074
X0.3667 Y0.0744
X0.3832
X0.3845 Y0.0743
X0.4207 Y0.0741
X0.5293 Y0.0743
X0.674 Y0.0744
X0.7087 Y0.0643
X0.7386 Y0.0439
X0.7626 Y0.0168
X0.7811 Y-0.0143
X0.7946 Y-0.0479
X0.8043 Y-0.0827
G2 X0.8204 Y-0.2264 I-0.7972 J-0.1621
X0.8235 Y-0.3556 I-4.1367 J-0.1643
G1 X0.8239 Y-0.3585
X0.8243 Y-0.3667
Y-0.3832
Y-0.3845
X0.8241 Y-0.4207
X0.8242 Y-0.5293
X0.8243 Y-0.674
X0.8142 Y-0.7087
X0.7938 Y-0.7386
X0.7667 Y-0.7626
X0.7356 Y-0.7811
X0.7021 Y-0.7946
X0.6672 Y-0.8043
G2 X0.5236 Y-0.8204 I-0.1621 J0.7972
X0.3943 Y-0.8235 I-0.1642 J4.1355
G1 X0.3914 Y-0.8239
X0.3832 Y-0.8243
X0.3667
X0.3654
X0.3292 Y-0.8241
X0.2207 Y-0.8242
X0.1845 Y-0.8243
X0.1484 Y-0.8215
X0.1141 Y-0.8099
X0.0835 Y-0.7907
X0.0575 Y-0.7655
X0.0364 Y-0.7361
X0.0199 Y-0.7039
G2 X-0.0062 Y-0.6152 I0.4095 J0.1686
G1 X-0.0105 Y-0.6049
X-0.0158 Y-0.5951
G2 X-0.0392 Y-0.5474 I0.1424 J0.0994
G1 X-0.0422 Y-0.5392
X-0.0594 Y-0.4899
X-0.0619 Y-0.4817
X-0.0639 Y-0.4735
G2 X-0.0739 Y-0.3914 I1.2655 J0.1952
G1 X-0.0748 Y-0.3876
X-0.0755 Y-0.3849
X-0.0759 Y-0.3824
X-0.0761 Y-0.38
Y-0.3774
Y-0.3749
X-0.0757 Y-0.3724
X-0.0751 Y-0.3698
X-0.0746 Y-0.3676
X-0.0743 Y-0.3654
G2 X-0.0641 Y-0.2764 I1.4894 J-0.1267
G1 X-0.0619 Y-0.2682
X-0.0594 Y-0.26
X-0.052 Y-0.2388
X-0.0458 Y-0.2178
X-0.0419 Y-0.2015
X-0.0351 Y-0.166
X-0.0266 Y-0.1308
X-0.0104 Y-0.0984
X0.0123 Y-0.0703
X0.0399 Y-0.0468
X0.0708 Y-0.0281
X0.104 Y-0.0135
X0.1097 Y-0.0115
X0.1152 Y-0.0089
X0.1204 Y-0.0059
G3 X0.1313 Y0.0147 I-0.0141 J0.0206
G1 X0.1295 Y0.0212
X0.1278 Y0.0274 F300.
X0.1202 Y0.0356
X0.104 Y0.0396
X-0.0192 Y0.0351
G3 X-0.0602 Y0.0192 I0.0033 J-0.0694
G1 X-0.1033 Y-0.0301
X-0.1684 Y-0.1943
G3 X-0.126 Y-0.2764 I0.0583 J-0.0219
G1 X-0.1259
G3 X-0.0698 Y-0.2637 I0.0158 J0.0603
X-0.052 Y-0.2388 I-0.0403 J0.0475 F50.
G2 X-0.0275 Y-0.1737 I0.7146 J-0.2315
X0.0221 Y-0.0957 I2.3175 J-1.419
X0.0957 Y-0.0222 I0.7317 J-0.6597
X0.1778 Y0.0296 I0.8308 J-1.2261
X0.2763 Y0.0642 I0.4226 J-1.0454
X0.3585 Y0.0739 I0.2807 J-2.0224
G1 X0.3624 Y0.0748
X0.365 Y0.0755
X0.3675 Y0.0759
X0.3699 Y0.0761
X0.3726
X0.375
X0.3775 Y0.0757
X0.3802 Y0.0751
X0.3823 Y0.0746
X0.3845 Y0.0743
G2 X0.4735 Y0.0641 I-0.1267 J-1.4894
G1 X0.4817 Y0.0619
X0.4899 Y0.0594
X0.5111 Y0.052
X0.5321 Y0.0458
X0.5484 Y0.0419
X0.584 Y0.0351
X0.6191 Y0.0266
X0.6515 Y0.0104
X0.6797 Y-0.0123
X0.7031 Y-0.0399
X0.7219 Y-0.0708
X0.7364 Y-0.104
X0.7384 Y-0.1097
X0.741 Y-0.1151
X0.744 Y-0.1204
G3 X0.7647 Y-0.1313 I0.0206 J0.0141
G1 X0.7711 Y-0.1295
X0.7773 Y-0.1278 F300.
X0.7855 Y-0.1202
X0.7895 Y-0.104
X0.785 Y0.0192
G3 X0.7691 Y0.0602 I-0.0694 J-0.0033
G1 X0.7198 Y0.1033
X0.5556 Y0.1684
G3 X0.4735 Y0.126 I-0.0219 J-0.0583
G1 Y0.1259
G3 X0.4862 Y0.0698 I0.0603 J-0.0158
X0.5111 Y0.052 I0.0475 J0.0403 F50.
G2 X0.5762 Y0.0275 I-0.2315 J-0.7146
X0.6542 Y-0.0221 I-1.4191 J-2.3176
X0.7277 Y-0.0957 I-0.6597 J-0.7317
X0.7795 Y-0.1778 I-1.2261 J-0.8308
X0.8141 Y-0.2763 I-1.0454 J-0.4226
X0.8238 Y-0.3585 I-2.0224 J-0.2807
G1 X0.8247 Y-0.3624
X0.8255 Y-0.365
X0.8259 Y-0.3675
X0.826 Y-0.3699
X0.8261 Y-0.3726
X0.826 Y-0.375
X0.8257 Y-0.3775
X0.8251 Y-0.3802
X0.8246 Y-0.3823
X0.8243 Y-0.3845
G2 X0.814 Y-0.4735 I-1.4894 J0.1267
G1 X0.8118 Y-0.4817
X0.8093 Y-0.4899
X0.8019 Y-0.5111
X0.7958 Y-0.5321
X0.7918 Y-0.5484
X0.785 Y-0.584
X0.7765 Y-0.6191
X0.7603 Y-0.6515
X0.7376 Y-0.6797
X0.71 Y-0.7031
X0.6791 Y-0.7219
X0.6459 Y-0.7364
X0.6403 Y-0.7384
X0.6348 Y-0.741
X0.6295 Y-0.744
G3 X0.6187 Y-0.7647 I0.0141 J-0.0206
G1 X0.6204 Y-0.7711
X0.6221 Y-0.7773 F300.
X0.6297 Y-0.7855
X0.6459 Y-0.7895
X0.7691 Y-0.785
G3 X0.8101 Y-0.7691 I-0.0033 J0.0694
G1 X0.8532 Y-0.7198
X0.9183 Y-0.5556
G3 X0.8759 Y-0.4735 I-0.0583 J0.0219
G1 X0.8758
G3 X0.8197 Y-0.4862 I-0.0158 J-0.0603
X0.804 Y-0.5063 I0.0403 J-0.0475 F50.
G1 X0.8019 Y-0.5111
G2 X0.7775 Y-0.5762 I-0.7147 J0.2315
X0.7278 Y-0.6542 I-2.3175 J1.419
X0.6542 Y-0.7277 I-0.7317 J0.6597
X0.5721 Y-0.7795 I-0.8308 J1.2261
X0.4736 Y-0.8141 I-0.4226 J1.0454
X0.3914 Y-0.8238 I-0.2807 J2.0224
G1 X0.3876 Y-0.8247
X0.3849 Y-0.8255
X0.3824 Y-0.8259
X0.38 Y-0.826
X0.3774 Y-0.8261
X0.3749 Y-0.826
X0.3724 Y-0.8257
X0.3698 Y-0.8251
X0.3676 Y-0.8246
X0.3654 Y-0.8243
G2 X0.2764 Y-0.814 I0.1267 J1.4894
X0.1779 Y-0.7794 I0.2557 J0.8842
X0.0957 Y-0.7278 I0.6555 J1.1356
X0.0222 Y-0.6542 I0.6262 J0.6991
G1 X0.0163 Y-0.6459
X0.0007 Y-0.6213
X-0.0158 Y-0.5951
Z0.2669
Z0.3754 F300.
X-0.0192 Y-0.5923
X-0.0289 Y-0.5967
X-0.0195 Y-0.6165
X-0.0192 Y-0.6172 F50.
X-0.011 Y-0.6301
X-0.002 Y-0.6295
X0.0005 Y-0.6242
G3 X-0.0066 Y-0.5228 I-0.4625 J0.0187
G1 X-0.0114 Y-0.4869
G2 X-0.0154 Y-0.3426 I0.5474 J0.0872
G1 X-0.0096 Y-0.3069
X-0.0012 Y-0.2717
X0.0106 Y-0.2375
X0.0249 Y-0.2043
X0.0427 Y-0.1727
X0.063 Y-0.1428
X0.086 Y-0.1149
X0.1116 Y-0.0893
X0.1392 Y-0.0659
X0.1691 Y-0.0455
X0.2005 Y-0.0277
X0.2336 Y-0.0131
X0.268 Y-0.0016
X0.3031 Y0.007
X0.339 Y0.0117
X0.3751 Y0.0137
X0.4112 Y0.0118
X0.4471 Y0.0067
X0.4823 Y-0.0016
X0.5165 Y-0.0133
X0.5497 Y-0.0278
X0.5811 Y-0.0457
X0.6109 Y-0.0662
X0.6385 Y-0.0896
X0.6639 Y-0.1154
X0.6869 Y-0.1433
X0.7069 Y-0.1735
X0.7245 Y-0.2051
X0.7386 Y-0.2384
X0.7497 Y-0.2728
X0.7577 Y-0.3081
X0.7621 Y-0.344
X0.7637 Y-0.3802
X0.7612 Y-0.4163
X0.7558 Y-0.4521
X0.7469 Y-0.4871
X0.7347 Y-0.5212
X0.7198 Y-0.5542
X0.7014 Y-0.5853
X0.6806 Y-0.6149
X0.6569 Y-0.6422
X0.6307 Y-0.6673
X0.6025 Y-0.6899
X0.5721 Y-0.7095
X0.5403 Y-0.7268
X0.5068 Y-0.7404
X0.4722 Y-0.7511
X0.4368 Y-0.7585
X0.4008 Y-0.7625
X0.3647 Y-0.7635
X0.3286 Y-0.7606
X0.2929 Y-0.7548
X0.258 Y-0.7454
X0.224 Y-0.7328
X0.1913 Y-0.7174
X0.1604 Y-0.6986
X0.1314 Y-0.6769
X0.1079 Y-0.6494
X0.0891 Y-0.6185
X0.0741 Y-0.5856
X0.0644 Y-0.5576
X0.0631 Y-0.5541
X0.0616 Y-0.5507
X0.06 Y-0.5474
X0.056 Y-0.5392
X0.0356 Y-0.4899
X0.0295 Y-0.4735
G2 X0.021 Y-0.4242 I0.2829 J0.0741
X0.0165 Y-0.3585 I0.2674 J0.051
X0.0291 Y-0.2764 I0.9382 J-0.1016
X0.0628 Y-0.1967 I0.9485 J-0.3539
G1 X0.0644 Y-0.1943
G2 X0.1123 Y-0.1304 I0.6527 J-0.4394
G1 X0.1213 Y-0.1204
X0.1304 Y-0.1122
X0.1368 Y-0.1071
X0.173 Y-0.0794
G2 X0.2107 Y-0.0561 I0.1006 J-0.1208
G1 X0.26 Y-0.0356
X0.2764 Y-0.0295
G2 X0.3257 Y-0.021 I0.0741 J-0.2829
X0.3914 Y-0.0165 I0.051 J-0.2674
X0.4736 Y-0.0291 I-0.1016 J-0.9382
X0.5532 Y-0.0628 I-0.3539 J-0.9486
G1 X0.5556 Y-0.0644
G2 X0.6195 Y-0.1123 I-0.4409 J-0.6549
G1 X0.6286 Y-0.1204
X0.6377 Y-0.1304
X0.6429 Y-0.1368
X0.6706 Y-0.173
G2 X0.6939 Y-0.2107 I-0.1208 J-0.1006
G1 X0.7143 Y-0.26
X0.7205 Y-0.2764
X0.7217 Y-0.2805
G2 X0.7338 Y-0.3667 I-0.8194 J-0.1598
G1 Y-0.3832
G2 X0.7208 Y-0.4736 I-0.7656 J0.0641
G1 X0.7143 Y-0.4899
X0.6939 Y-0.5392
G2 X0.668 Y-0.5802 I-0.1524 J0.0673
G1 X0.6429 Y-0.6131
G2 X0.6131 Y-0.6428 I-0.1163 J0.0865
G1 X0.577 Y-0.6706
G2 X0.5392 Y-0.6939 I-0.1006 J0.1208
G1 X0.4899 Y-0.7143
X0.4735 Y-0.7205
X0.4694 Y-0.7217
G2 X0.3832 Y-0.7338 I-0.1598 J0.8194
G1 X0.3667
G2 X0.2764 Y-0.7208 I0.0641 J0.7656
G1 X0.26 Y-0.7143
X0.2107 Y-0.6939
G2 X0.1697 Y-0.668 I0.0673 J0.1524
G1 X0.1368 Y-0.6429
G2 X0.1071 Y-0.6131 I0.0863 J0.116
G1 X0.0794 Y-0.577
G2 X0.06 Y-0.5474 I0.1173 J0.0982
G1 X0.0483 Y-0.5358 Z0.4015
X-0.0438 Y-0.4443 Z0.6069 F300.
G2 X-0.0192 Y-0.3707 Z0.7089 I0.029 J0.0312
G1 X-0.0146 Y-0.3699 Z0.7095
X-0.0113 Y-0.3693 Z0.71 F50.
G3 X0.0162 Y-0.3709 I0.0498 J0.6363
G1 X0.0201
X0.0242 Y-0.3666
X0.028 Y-0.3619
G3 X0.079 Y-0.2746 I-0.5774 J0.3955
G1 X0.0977 Y-0.2437
X0.1182 Y-0.2139
X0.1415 Y-0.1862
X0.1671 Y-0.1606
X0.1955 Y-0.1382
X0.2261 Y-0.1189
X0.2588 Y-0.1034
X0.2929 Y-0.0914
X0.3284 Y-0.0841
X0.3644 Y-0.0805
X0.4005 Y-0.0819
X0.4363 Y-0.0871
X0.4711 Y-0.0971
X0.5045 Y-0.1109
X0.5359 Y-0.129
X0.5649 Y-0.1506
X0.5909 Y-0.1757
X0.6137 Y-0.2038
X0.633 Y-0.2345
X0.6482 Y-0.2673
X0.6594 Y-0.3017
X0.6662 Y-0.3372
X0.6688 Y-0.3733
X0.6666 Y-0.4094
X0.6604 Y-0.4451
X0.6494 Y-0.4795
X0.6348 Y-0.5126
X0.6157 Y-0.5434
X0.5934 Y-0.5719
X0.5674 Y-0.597
X0.5387 Y-0.6191
X0.5074 Y-0.6372
X0.4742 Y-0.6515
X0.4394 Y-0.6615
X0.4037 Y-0.6673
X0.3675 Y-0.6686
X0.3315 Y-0.6654
X0.2961 Y-0.6579
X0.2619 Y-0.646
X0.2294 Y-0.6302
X0.1992 Y-0.6102
X0.1714 Y-0.5871
X0.1471 Y-0.5603
X0.1258 Y-0.531
X0.1094 Y-0.4988
X0.1016 Y-0.4634
X0.1008 Y-0.4273
X0.1052 Y-0.3914
X0.114 Y-0.3562
X0.1265 Y-0.3223
X0.1426 Y-0.2899
X0.1622 Y-0.2595
X0.1853 Y-0.2316
X0.2117 Y-0.2069
X0.2412 Y-0.1859
X0.2733 Y-0.1692
X0.3074 Y-0.1572
X0.343 Y-0.1505
X0.3791 Y-0.1492
X0.4151 Y-0.1535
X0.4499 Y-0.1633
X0.4827 Y-0.1785
X0.5128 Y-0.1987
X0.5392 Y-0.2234
X0.5613 Y-0.252
X0.5787 Y-0.2838
X0.5906 Y-0.3179
X0.5969 Y-0.3536
X0.5975 Y-0.3897
X0.5922 Y-0.4255
X0.5811 Y-0.46
X0.5647 Y-0.4922
X0.5432 Y-0.5213
X0.5172 Y-0.5465
X0.4876 Y-0.5673
X0.455 Y-0.5829
X0.4203 Y-0.5931
X0.3844 Y-0.5976
X0.3482 Y-0.5961
X0.3128 Y-0.5889
X0.2789 Y-0.576
X0.2477 Y-0.5578
X0.2213 Y-0.533
X0.2016 Y-0.5027
X0.1891 Y-0.4687
X0.1836 Y-0.433
X0.1848 Y-0.3968
X0.1925 Y-0.3614
X0.2063 Y-0.328
X0.2257 Y-0.2975
X0.2506 Y-0.2713
X0.2802 Y-0.2503
X0.3134 Y-0.236
X0.3489 Y-0.2292
X0.3851 Y-0.2305
X0.4199 Y-0.2402
X0.4514 Y-0.258
X0.4777 Y-0.2829
X0.4968 Y-0.3136
X0.5074 Y-0.3482
X0.5087 Y-0.3844
X0.5004 Y-0.4196
X0.483 Y-0.4513
X0.4578 Y-0.4773
X0.4266 Y-0.4956
G2 X0.3731 Y-0.4938 I-0.0238 J0.0885
X0.3422 Y-0.4755 I0.0273 J0.0817
G1 X0.339 Y-0.4733
X0.3355 Y-0.4716
X0.3319 Y-0.4705
X0.328 Y-0.4699
X0.3242
X0.3204 Y-0.4705
X0.3167 Y-0.4717
X0.3133 Y-0.4735
X0.3099 Y-0.4755 Z0.7103
X0.3067 Y-0.4775 Z0.7112
X0.3036 Y-0.4794 Z0.7127
X0.3007 Y-0.4811 Z0.7148
X0.2982 Y-0.4827 Z0.7173
X0.296 Y-0.484 Z0.7203
X0.2942 Y-0.4851 Z0.7237
X0.293 Y-0.4858 Z0.7273
X0.2922 Y-0.4863 Z0.7311
X0.2919 Y-0.4865 Z0.735
G0 Z1.35
(2D CONTOUR1)
S5000 M3
G64 P0.0004 Q0.0004
G0 X0.7994 Y-0.35
Z1.35
Z0.95
G1 Z0.7894 F80.
Z0.4004
G18 G3 X0.7744 Z0.3754 I-0.025 K0. F50.
G1 X0.7494
G17 G3 X0.7244 Y-0.375 I0. J-0.025
G2 X0.0256 I-0.3494 J0.
X0.7244 I0.3494 J0.
X0.0256 I-0.3494 J0.
X0.7244 I0.3494 J0.
G3 X0.7494 Y-0.4 I0.025 J0.
G1 X0.7744
G18 G2 X0.7994 Z0.4004 I0. K0.025
G0 Z1.35
G17
(2D CONTOUR2)
G0 X0.35 Y0.14
Z1.35
Z0.95
G1 Z0.7894 F80.
Z0.261
G19 G2 Y0.115 Z0.236 J-0.025 K0. F50.
G1 Y0.09
G17 G3 X0.375 Y0.065 I0.025 J0.
G2 Y-0.8149 I0. J-0.44
Y0.065 I0. J0.44
Y-0.8149 I0. J-0.44
Y0.065 I0. J0.44
G3 X0.4 Y0.09 I0. J0.025
G1 Y0.115
G19 G3 Y0.14 Z0.261 J0. K0.025
G0 Z1.35
G17
M5
G53 G0 Z0.
(DRILL1)
M9
M1
T51 M6
T102
S5000 M3
G17 G90 G94
G54
M8
G0 X0.375 Y-0.375
G43 Z1.35 H51
G0 Z0.95
G98 G81 X0.375 Y-0.375 Z0.695 R0.91 F25.
G80
G0 Z1.35
M5
G53 G0 Z0.
(DRILL2)
M9
M1
T102 M6
T12
S5000 M3
G17 G90 G94
G54
M8
G0 X0.375 Y-0.375
G43 Z1.35 H102
G0 Z0.95
Z0.91
G1 Z0.51 F15.
G0 Z0.91
Z0.59
G1 Z0.3754 F15.
G4 P0.05
G0 Z0.95
Z1.35
M5
G53 G0 Z0.
(2D CHAMFER1)
M9
M1
T12 M6
T33
S7500 M3
G17 G90 G94
G54
G64 P0.0004 Q0.0004
M8
G0 X0.4134 Y-0.375
G43 Z1.35 H12
G0 Z0.95
G1 Z0.635 F80.
G3 X0.3365 I-0.0384 J0. F40.
X0.4134 I0.0384 J0.
G0 Z1.35
(2D CHAMFER2)
G0 X0.375 Y-0.7799
Z1.35
Z0.95
G1 Z0.2814 F80.
G2 Y0.03 I0. J0.405 F40.
Y-0.7799 I0. J-0.405
G0 Z1.35
(2D CHAMFER4)
G0 X0.1106 Y-0.375
Z1.35
Z0.95
G1 Z0.83 F80.
Z0.66
G2 X0.6394 I0.2644 J0. F40.
X0.1106 I-0.2644 J0.
G0 Z1.35
M5
M9
G53 G0 Z0.
M30
%
