%
(HANDLE ENLARGE SLOT)
(T33 D=0.25 CR=0. - ZMIN=0.4426 - FLAT END MILL)
G90 G94 G17 G91.1
G20
G53 G0 Z0.
(2D ADAPTIVE1 2)
T33 M6
S7500 M3
G17 G90 G94
G54
G64 P0.004 Q0.004
M8
G0 X3.4589 Y-1.0267
G43 Z1.4125 H33
G0 Z0.4926
G1 Z0.4676 F50.
X3.4591 Y-1.0269 Z0.4637
X3.4598 Y-1.0275 Z0.4599
X3.4609 Y-1.0285 Z0.4563
X3.4624 Y-1.0299 Z0.4529
X3.4642 Y-1.0317 Z0.4499
X3.4664 Y-1.0337 Z0.4474
X3.4688 Y-1.036 Z0.4453
X3.4715 Y-1.0385 Z0.4438
X3.4743 Y-1.0411 Z0.4429
X3.4771 Y-1.0438 Z0.4426
G3 X3.587 Y-1.1264 I0.4362 J0.4659
G1 X3.6543 Y-1.1632
X3.6596 Y-1.1658
X3.687 Y-1.1539
X3.7163 Y-1.1326
X3.7403 Y-1.1055
X3.7594 Y-1.0748
X3.7744 Y-1.0419
X3.786 Y-1.0076
G3 X3.8143 Y-0.8658 I-0.9549 J0.2638
X3.8384 Y-0.665 I-6.0008 J0.8243
X3.8276 Y-0.6416 I-0.0245 J0.0029
G1 X3.7531 Y-0.5913
G3 X3.7241 Y-0.593 I-0.0132 J-0.0212
X3.715 Y-0.6091 I0.0157 J-0.0195 F300.
G1 X3.6425 Y-1.1367
X3.6423 Y-1.1383 F50.
G3 X3.6543 Y-1.1632 I0.0248 J-0.0034
G1 X3.7282 Y-1.2038
X3.7393 Y-1.2092
X3.7638 Y-1.215
X3.7922 Y-1.2155
X3.8245 Y-1.2089
X3.8576 Y-1.1942
X3.887 Y-1.1731
X3.9124 Y-1.1474
X3.9178 Y-1.1401
X3.9204 Y-1.1364
X3.9406 Y-1.1064
X3.9575 Y-1.0744
G3 X4.0005 Y-0.9365 I-0.5693 J0.2531
X4.0241 Y-0.7907 I-1.8388 J0.3731
X4.0133 Y-0.7668 I-0.0246 J0.0033
G1 X3.8276 Y-0.6416
G3 X3.7987 Y-0.6433 I-0.0132 J-0.0212
X3.7896 Y-0.6593 I0.0157 J-0.0195 F300.
G1 X3.7165 Y-1.1773
X3.7162 Y-1.1788 F50.
G3 X3.7282 Y-1.2038 I0.0248 J-0.0035
G2 X3.7858 Y-1.2374 I-0.3766 J-0.7116
G1 X3.8433 Y-1.2762
G3 X3.8827 Y-1.2986 I0.1608 J0.2376
X3.9926 Y-1.2989 I0.0554 J0.1412
G1 X3.9973 Y-1.2993
X4.0014 Y-1.3011
G3 X4.0493 Y-1.3468 I0.8775 J0.8709
X4.3031 Y-1.0297 I0.1269 J0.1585
X4.1667 Y-0.9854 I-0.1269 J-0.1585
G1 X4.1624 Y-0.9837
X4.159 Y-0.9807
X4.1568 Y-0.9768
X4.1561 Y-0.9723
X4.1571 Y-0.9679
G3 X4.1915 Y-0.9145 I-0.7201 J0.5021
X4.1836 Y-0.8816 I-0.0222 J0.012
G1 X4.0133 Y-0.7668
G3 X3.9844 Y-0.7685 I-0.0132 J-0.0212
X3.9762 Y-0.7807 I0.0157 J-0.0195 F300.
G1 X3.8341 Y-1.2487
G3 X3.8433 Y-1.2762 I0.0239 J-0.0073 F50.
G1 X4.1801 Y-1.5034
X4.2068 Y-1.5195
X4.2411 Y-1.5311
X4.277 Y-1.535
X4.3131 Y-1.5322
X4.3482 Y-1.5235
X4.3817 Y-1.5097
X4.4131 Y-1.4917
X4.442 Y-1.47
X4.4684 Y-1.4452
X4.4919 Y-1.4177
X4.5124 Y-1.3879
X4.53 Y-1.3563
X4.5443 Y-1.323
X4.5554 Y-1.2886
X4.5633 Y-1.2533
X4.5677 Y-1.2174
X4.5688 Y-1.1812
X4.567 Y-1.152
X4.5654 Y-1.1446
X4.5616 Y-1.138
X4.556 Y-1.1329
X4.1835 Y-0.8816
G3 X4.1546 Y-0.8834 I-0.0132 J-0.0212
X4.1453 Y-0.9039 I0.0157 J-0.0195 F300.
G1 X4.1695 Y-1.4758
X4.1698 Y-1.4842 F50.
G3 X4.1801 Y-1.5034 I0.025 J0.0011
G1 X4.3447 Y-1.6144
G3 X4.3863 Y-1.6382 I0.1843 J0.2739
X4.5097 Y-1.6415 I0.066 J0.1648
X4.6131 Y-1.5833 I-0.0783 J0.2602
X4.7252 Y-1.4337 I-0.2823 J0.3284
X4.7704 Y-1.2959 I-0.4729 J0.2314
X4.7599 Y-1.2704 I-0.0241 J0.0051
G1 X4.556 Y-1.1329
G3 X4.5271 Y-1.1346 I-0.0132 J-0.0212
X4.5197 Y-1.1445 I0.0157 J-0.0195 F300.
G1 X4.3363 Y-1.5845
X4.336 Y-1.5853
X4.3357 Y-1.5861
X4.3354 Y-1.5869
G3 X4.3447 Y-1.6144 I0.0239 J-0.0073 F50.
G1 X4.4969 Y-1.7171
X4.5008 Y-1.7195
X4.509 Y-1.7237
X4.5532 Y-1.7417
X4.5583 Y-1.7437
X4.5666 Y-1.7454
X4.5994 Y-1.752
X4.6077 Y-1.7533
X4.6488 Y-1.7537
X4.657 Y-1.7534
X4.6981 Y-1.7458
X4.7022 Y-1.745
G3 X4.7517 Y-1.7254 I-0.1441 J0.4359
G1 X4.7885 Y-1.7022
G3 X4.8257 Y-1.6678 I-0.5731 J0.6569
X4.8554 Y-1.6267 I-0.6164 J0.4784
G1 X4.8709 Y-1.5938
X4.8748 Y-1.5856
X4.8772 Y-1.5774
X4.8871 Y-1.539
G3 X4.8904 Y-1.487 I-0.9649 J0.0871
G1 X4.8847 Y-1.4418
X4.8837 Y-1.4377
X4.8703 Y-1.3966
X4.8686 Y-1.3925
X4.8664 Y-1.3884
X4.8483 Y-1.3555
X4.846 Y-1.3516
G3 X4.8132 Y-1.3123 I-0.6248 J-0.4888
G1 X4.7803 Y-1.2853
X4.772 Y-1.2788
X4.7638 Y-1.273
X4.7599 Y-1.2704
G3 X4.731 Y-1.2721 I-0.0132 J-0.0212
G1 X4.7279 Y-1.2746 Z0.4429
X4.725 Y-1.277 Z0.4438
X4.7221 Y-1.2792 Z0.4453
X4.7195 Y-1.2813 Z0.4474
X4.7172 Y-1.2832 Z0.4499
X4.7152 Y-1.2848 Z0.4529
X4.7136 Y-1.2861 Z0.4563
X4.7125 Y-1.287 Z0.4599
X4.7118 Y-1.2876 Z0.4637
X4.7115 Y-1.2878 Z0.4676
G0 Z1.4125
X3.4783 Y-0.4312
Z0.4926
G1 Z0.4676 F50.
X3.478 Y-0.4313 Z0.4637
X3.4771 Y-0.4316 Z0.4599
X3.4757 Y-0.4321 Z0.4563
X3.4738 Y-0.4328 Z0.4529
X3.4714 Y-0.4337 Z0.4499
X3.4686 Y-0.4348 Z0.4474
X3.4655 Y-0.436 Z0.4453
X3.4621 Y-0.4373 Z0.4438
X3.4585 Y-0.4386 Z0.4429
X3.4549 Y-0.44 Z0.4426
G3 X3.3322 Y-0.502 I0.2249 J-0.5973
G1 X3.2559 Y-0.5554
X3.2366 Y-0.5704
X3.2135 Y-0.5982
X3.1968 Y-0.6303
X3.1856 Y-0.6647
X3.1789 Y-0.7003
G3 X3.1781 Y-0.8448 I0.7001 J-0.0763
X3.2099 Y-1.1324 I5.9753 J0.5161
G1 X3.2149 Y-1.1742
G3 X3.2521 Y-1.1928 I0.0248 J0.0031
X3.2646 Y-1.1731 I-0.0124 J0.0217
G1 X3.2651 Y-1.1665
X3.3119 Y-0.5724 F300.
G3 X3.2852 Y-0.5455 I-0.0249 J0.002
G1 X3.2848 Y-0.5456
G3 X3.2559 Y-0.5554 I0.005 J-0.0621 F50.
G1 X3.0832 Y-0.6763
X3.0574 Y-0.6964
X3.0343 Y-0.7243
X3.0171 Y-0.7561
X3.0052 Y-0.7903
X2.9976 Y-0.8256
X2.9934 Y-0.8616
G3 X2.9997 Y-1.0422 I1.04 J-0.054
G1 X3.0031 Y-1.0782
X3.0069 Y-1.1142
X3.0113 Y-1.1501
X3.0181 Y-1.1856
X3.0286 Y-1.2202
X3.0433 Y-1.2533
X3.0625 Y-1.2839
X3.0685 Y-1.2908
G3 X3.1018 Y-1.295 I0.0189 J0.0163
G1 X3.1982 Y-1.2274
G2 X3.2521 Y-1.1928 I0.3298 J-0.4537
G1 X3.2552 Y-1.1905
X3.2579 Y-1.1878
X3.2602 Y-1.1847
X3.2619 Y-1.1813
X3.2632 Y-1.1776
X3.2638 Y-1.1738
X3.2639 Y-1.1699
X3.2633 Y-1.1661
X3.2629 Y-1.1644 F300.
X3.1208 Y-0.6901
G3 X3.1122 Y-0.6775 I-0.0239 J-0.0072
X3.0832 Y-0.6763 I-0.0153 J-0.0197 F50.
G1 X2.904 Y-0.8018
X2.8755 Y-0.824
X2.852 Y-0.8515
X2.8343 Y-0.8831
X2.822 Y-0.9171
X2.8139 Y-0.9524
X2.8134 Y-0.9569
X2.8091 Y-0.9928
X2.8089 Y-0.9973
X2.8071 Y-1.0015
X2.7818 Y-1.0273
X2.7502 Y-1.0449
X2.7237 Y-1.0681
X2.7049 Y-1.0936
X2.6915 Y-1.1239
X2.6854 Y-1.1544
X2.6859 Y-1.1845
X2.6934 Y-1.2156
X2.7056 Y-1.2405
X2.7243 Y-1.264
X2.7466 Y-1.2821
X2.7718 Y-1.2947
X2.7893 Y-1.2991
X2.7938 Y-1.2996
X2.7983 Y-1.3
X2.8146 Y-1.3078
X2.8409 Y-1.3327
X2.8645 Y-1.3601
X2.8885 Y-1.3872
X2.9074 Y-1.406
G3 X2.9393 Y-1.4087 I0.0176 J0.0178
G1 X3.1018 Y-1.295
G3 X3.1105 Y-1.2673 I-0.015 J0.02
G1 X3.1101 Y-1.2662 F300.
X2.9411 Y-0.814
G3 X2.933 Y-0.803 I-0.0234 J-0.0088
X2.904 Y-0.8018 I-0.0153 J-0.0197 F50.
G1 X2.5991 Y-1.0153
X2.5705 Y-1.0375
X2.5466 Y-1.0646
X2.5283 Y-1.0959
X2.516 Y-1.1299
X2.5093 Y-1.1655
X2.5078 Y-1.2016
X2.5114 Y-1.2376
X2.5197 Y-1.2728
X2.5324 Y-1.3067
X2.5491 Y-1.3388
X2.5696 Y-1.3687
X2.5934 Y-1.3959
X2.6202 Y-1.4202
X2.6497 Y-1.4411
X2.6776 Y-1.4642
X2.7041 Y-1.4889
X2.7304 Y-1.5137
X2.7424 Y-1.5238
G3 X2.7729 Y-1.5252 I0.0161 J0.0191
G1 X2.9393 Y-1.4087
G3 X2.9481 Y-1.3811 I-0.015 J0.02
X2.943 Y-1.3722 I-0.0238 J-0.0077 F300.
G1 X2.6314 Y-1.0197
X2.6298 Y-1.018
X2.6281 Y-1.0165
G3 X2.5991 Y-1.0153 I-0.0153 J-0.0197 F50.
G1 X2.4263 Y-1.1363
X2.3996 Y-1.1571
X2.3782 Y-1.1828
X2.3617 Y-1.215
X2.3523 Y-1.2499
X2.3489 Y-1.286
X2.3512 Y-1.3221
X2.3581 Y-1.3576
X2.3691 Y-1.3921
G3 X2.4086 Y-1.4683 I0.4553 J0.1877
G1 X2.4299 Y-1.4976
X2.4534 Y-1.5251
G3 X2.5753 Y-1.6406 I1.7509 J1.726
X2.6061 Y-1.6421 I0.0163 J0.0196
G1 X2.7729 Y-1.5252
G3 X2.7817 Y-1.4976 I-0.015 J0.02
X2.7763 Y-1.4884 I-0.0238 J-0.0077 F300.
G1 X2.4584 Y-1.1404
X2.4569 Y-1.1389
X2.4553 Y-1.1375
G3 X2.4263 Y-1.1363 I-0.0153 J-0.0197 F50.
G1 X2.2707 Y-1.2452
X2.2437 Y-1.2662
X2.2238 Y-1.2903
X2.2072 Y-1.3225
X2.1977 Y-1.3574
G3 X2.1969 Y-1.4026 I0.2576 J-0.027
G1 X2.1956 Y-1.4069
X2.1735 Y-1.4355
X2.146 Y-1.4591
X2.1239 Y-1.4877
X2.1162 Y-1.5034
X2.1146 Y-1.5075
X2.1138 Y-1.5119
Y-1.5164
G3 X2.1332 Y-1.5379 I0.0248 J0.0029
G1 X2.137 Y-1.5387 Z0.4429
X2.1408 Y-1.5395 Z0.4438
X2.1443 Y-1.5403 Z0.4453
X2.1476 Y-1.541 Z0.4474
X2.1505 Y-1.5417 Z0.4499
X2.153 Y-1.5422 Z0.4529
X2.155 Y-1.5427 Z0.4563
X2.1564 Y-1.543 Z0.4599
X2.1573 Y-1.5432 Z0.4637
X2.1576 Y-1.5433 Z0.4676
G0 Z1.0125
X2.3249 Y-1.2335
Z0.4926
G1 Z0.4676 F50.
X2.3246 Z0.4637
X2.3237 Y-1.2336 Z0.4599
X2.3222 Y-1.2337 Z0.4563
X2.3202 Y-1.2339 Z0.4529
X2.3176 Y-1.234 Z0.4499
X2.3147 Y-1.2343 Z0.4474
X2.3113 Y-1.2345 Z0.4453
X2.3077 Y-1.2348 Z0.4438
X2.3039 Y-1.2351 Z0.4429
X2.3 Y-1.2354 Z0.4426
G3 X2.2707 Y-1.2452 I0.0046 J-0.0621
X2.1858 Y-1.311 I0.3766 J-0.5739
G1 X2.18 Y-1.3176
X2.1553 Y-1.3483
G3 X2.1307 Y-1.3945 I0.4618 J-0.2761
G1 X2.1225 Y-1.4212
X2.1173 Y-1.4382
X2.1165 Y-1.4423
X2.1121 Y-1.4834
X2.1117 Y-1.4875
X2.1118 Y-1.4916
X2.1151 Y-1.5327
X2.1155 Y-1.5368
X2.1165 Y-1.5409
X2.1279 Y-1.5819
X2.1291 Y-1.5852
X2.1315 Y-1.5901
X2.1478 Y-1.623
X2.1499 Y-1.6271
X2.1528 Y-1.6312
X2.159 Y-1.6394
X2.175 Y-1.6584
X2.1915 Y-1.671
X2.2121 Y-1.6806
X2.2332 Y-1.6853
X2.2558
X2.2602 Y-1.6843
X2.2646 Y-1.6831
X2.2826 Y-1.6849
X2.3163 Y-1.698
X2.3471 Y-1.7171
X2.3761 Y-1.7386
G3 X2.3981 Y-1.748 I0.0214 J0.0198
X2.4201 Y-1.7291 I-0.0022 J0.0249
X2.4062 Y-1.7003 I-0.0243 J0.006 F300.
G1 X2.1898 Y-1.6022
G3 X2.1591 Y-1.6104 I-0.0103 J-0.0228
X2.159 Y-1.6394 I0.0203 J-0.0146 F50.
G1 X2.1778 Y-1.6641
X2.18 Y-1.6667
X2.186 Y-1.6723
X2.2134 Y-1.6969
X2.2172 Y-1.7
G3 X2.262 Y-1.7262 I0.2789 J0.4235
G1 X2.2949 Y-1.7381
X2.3031 Y-1.7411
X2.3113 Y-1.7426
X2.3442 Y-1.748
X2.3524 Y-1.7492
X2.3606 Y-1.7491
X2.3935 Y-1.7482
X2.4017 Y-1.7478
X2.4099 Y-1.746
X2.4466 Y-1.738
X2.4509 Y-1.7365
X2.492 Y-1.7189
X2.5002 Y-1.7152
X2.5037 Y-1.7133
X2.5084 Y-1.7104
X2.6061 Y-1.642
G3 X2.6148 Y-1.6144 I-0.015 J0.02
G1 X2.6136 Y-1.6107 Z0.4429
X2.6125 Y-1.6071 Z0.4438
X2.6113 Y-1.6036 Z0.4453
X2.6103 Y-1.6004 Z0.4474
X2.6094 Y-1.5976 Z0.4499
X2.6086 Y-1.5952 Z0.4529
X2.608 Y-1.5932 Z0.4563
X2.6075 Y-1.5918 Z0.4599
X2.6072 Y-1.5909 Z0.4637
Y-1.5906 Z0.4676
G0 Z1.4125
(2D CONTOUR2 2)
G64 P0.0004 Q0.0004
G0 X3.6768 Y-1.1038
Z1.4125
Z1.0125
G1 Z0.4706 F80.
X3.6767 Y-1.104 Z0.4667 F50.
X3.6762 Y-1.1048 Z0.4629
X3.6755 Y-1.1061 Z0.4593
X3.6745 Y-1.1079 Z0.4559
X3.6733 Y-1.1102 Z0.4529
X3.6718 Y-1.1128 Z0.4504
X3.6702 Y-1.1157 Z0.4483
X3.6685 Y-1.1189 Z0.4468
X3.6667 Y-1.1222 Z0.4459
X3.6648 Y-1.1257 Z0.4456
X3.6528 Y-1.1476
G3 X3.6627 Y-1.1815 I0.0219 J-0.012
G1 X3.7503 Y-1.2296
G2 X3.7754 Y-1.2449 I-0.1538 J-0.2804
G1 X4.4938 Y-1.7295
X4.5072 Y-1.7365
G3 X4.7841 Y-1.2722 I0.1255 J0.2399
G1 X3.6764 Y-0.5251
G3 X3.6417 Y-0.5318 I-0.014 J-0.0207
G1 X3.6277 Y-0.5525
X3.6255 Y-0.5558 Z0.4459
X3.6234 Y-0.5589 Z0.4468
X3.6213 Y-0.5619 Z0.4483
X3.6195 Y-0.5647 Z0.4504
X3.6178 Y-0.5672 Z0.4529
X3.6164 Y-0.5693 Z0.4559
X3.6152 Y-0.571 Z0.4593
X3.6144 Y-0.5722 Z0.4629
X3.6139 Y-0.573 Z0.4667
X3.6137 Y-0.5733 Z0.4706
G0 Z1.0125
X3.3723 Y-0.5508
G1 Z0.4706 F80.
X3.3721 Y-0.5506 Z0.4667 F50.
X3.3716 Y-0.5498 Z0.4629
X3.3707 Y-0.5486 Z0.4593
X3.3695 Y-0.5469 Z0.4559
X3.3681 Y-0.5448 Z0.4529
X3.3663 Y-0.5424 Z0.4504
X3.3644 Y-0.5397 Z0.4483
X3.3623 Y-0.5367 Z0.4468
X3.3602 Y-0.5336 Z0.4459
X3.3579 Y-0.5304 Z0.4456
X3.3436 Y-0.5099
G3 X3.3088 Y-0.5037 I-0.0205 J-0.0143
G1 X2.2143 Y-1.2701
G3 X2.4992 Y-1.7294 I0.1553 J-0.2217
G1 X2.5125 Y-1.7222
X3.2223 Y-1.2252
G2 X3.2471 Y-1.2095 I0.1835 J-0.262
G1 X3.3339 Y-1.1599
G3 X3.3432 Y-1.1258 I-0.0124 J0.0217
G1 X3.3308 Y-1.1041
X3.3289 Y-1.1007 Z0.4459
X3.327 Y-1.0973 Z0.4468
X3.3252 Y-1.0942 Z0.4483
X3.3235 Y-1.0913 Z0.4504
X3.322 Y-1.0887 Z0.4529
X3.3208 Y-1.0865 Z0.4559
X3.3198 Y-1.0847 Z0.4593
X3.319 Y-1.0834 Z0.4629
X3.3186 Y-1.0826 Z0.4667
X3.3184 Y-1.0823 Z0.4706
G0 Z1.0125
X3.6768 Y-1.1038
G1 Z0.4706 F80.
X3.6767 Y-1.104 Z0.4667 F50.
X3.6762 Y-1.1048 Z0.4629
X3.6755 Y-1.1061 Z0.4593
X3.6745 Y-1.1079 Z0.4559
X3.6733 Y-1.1102 Z0.4529
X3.6718 Y-1.1128 Z0.4504
X3.6702 Y-1.1157 Z0.4483
X3.6685 Y-1.1189 Z0.4468
X3.6667 Y-1.1222 Z0.4459
X3.6648 Y-1.1257 Z0.4456
X3.6528 Y-1.1476
G3 X3.6627 Y-1.1815 I0.0219 J-0.012
G1 X3.7503 Y-1.2296
G2 X3.7754 Y-1.2449 I-0.1538 J-0.2804
G1 X4.4938 Y-1.7295
X4.5072 Y-1.7365
G3 X4.7841 Y-1.2722 I0.1255 J0.2399
G1 X3.6764 Y-0.5251
G3 X3.6417 Y-0.5318 I-0.014 J-0.0207
G1 X3.6277 Y-0.5525
X3.6255 Y-0.5558 Z0.4459
X3.6234 Y-0.5589 Z0.4468
X3.6213 Y-0.5619 Z0.4483
X3.6195 Y-0.5647 Z0.4504
X3.6178 Y-0.5672 Z0.4529
X3.6164 Y-0.5693 Z0.4559
X3.6152 Y-0.571 Z0.4593
X3.6144 Y-0.5722 Z0.4629
X3.6139 Y-0.573 Z0.4667
X3.6137 Y-0.5733 Z0.4706
G0 Z1.0125
X3.3723 Y-0.5508
G1 Z0.4706 F80.
X3.3721 Y-0.5506 Z0.4667 F50.
X3.3716 Y-0.5498 Z0.4629
X3.3707 Y-0.5486 Z0.4593
X3.3695 Y-0.5469 Z0.4559
X3.3681 Y-0.5448 Z0.4529
X3.3663 Y-0.5424 Z0.4504
X3.3644 Y-0.5397 Z0.4483
X3.3623 Y-0.5367 Z0.4468
X3.3602 Y-0.5336 Z0.4459
X3.3579 Y-0.5304 Z0.4456
X3.3436 Y-0.5099
G3 X3.3088 Y-0.5037 I-0.0205 J-0.0143
G1 X2.2143 Y-1.2701
G3 X2.4992 Y-1.7294 I0.1553 J-0.2217
G1 X2.5125 Y-1.7222
X3.2223 Y-1.2252
G2 X3.2471 Y-1.2095 I0.1835 J-0.262
G1 X3.3339 Y-1.1599
G3 X3.3432 Y-1.1258 I-0.0124 J0.0217
G1 X3.3308 Y-1.1041
X3.3289 Y-1.1007 Z0.4459
X3.327 Y-1.0973 Z0.4468
X3.3252 Y-1.0942 Z0.4483
X3.3235 Y-1.0913 Z0.4504
X3.322 Y-1.0887 Z0.4529
X3.3208 Y-1.0865 Z0.4559
X3.3198 Y-1.0847 Z0.4593
X3.319 Y-1.0834 Z0.4629
X3.3186 Y-1.0826 Z0.4667
X3.3184 Y-1.0823 Z0.4706
G0 Z1.4125
M5
M9
G53 G0 Z0.
M30
%
