%
(HANDLE JUST WIDEN SLOT)
(T33 D=0.25 CR=0. - ZMIN=0.4456 - FLAT END MILL)
G90 G94 G17 G91.1
G20
G53 G0 Z0.
(2D CONTOUR2 2)
T33 M6
S7500 M3
G17 G90 G94
G54
G64 P0.0004 Q0.0004
M8
G0 X3.6768 Y-1.1038
G43 Z1.4125 H33
G0 Z1.0125
G1 Z0.4706 F80.
X3.6767 Y-1.104 Z0.4667 F50.
X3.6762 Y-1.1048 Z0.4629
X3.6755 Y-1.1061 Z0.4593
X3.6745 Y-1.1079 Z0.4559
X3.6733 Y-1.1102 Z0.4529
X3.6718 Y-1.1128 Z0.4504
X3.6702 Y-1.1157 Z0.4483
X3.6685 Y-1.1189 Z0.4468
X3.6667 Y-1.1222 Z0.4459
X3.6648 Y-1.1257 Z0.4456
X3.6528 Y-1.1476
G3 X3.6627 Y-1.1815 I0.0219 J-0.012
G1 X3.7503 Y-1.2296
G2 X3.7754 Y-1.2449 I-0.1538 J-0.2804
G1 X4.4938 Y-1.7295
X4.5072 Y-1.7365
G3 X4.7841 Y-1.2722 I0.1255 J0.2399
G1 X3.6764 Y-0.5251
G3 X3.6417 Y-0.5318 I-0.014 J-0.0207
G1 X3.6277 Y-0.5525
X3.6255 Y-0.5558 Z0.4459
X3.6234 Y-0.5589 Z0.4468
X3.6213 Y-0.5619 Z0.4483
X3.6195 Y-0.5647 Z0.4504
X3.6178 Y-0.5672 Z0.4529
X3.6164 Y-0.5693 Z0.4559
X3.6152 Y-0.571 Z0.4593
X3.6144 Y-0.5722 Z0.4629
X3.6139 Y-0.573 Z0.4667
X3.6137 Y-0.5733 Z0.4706
G0 Z1.0125
X3.3723 Y-0.5508
G1 Z0.4706 F80.
X3.3721 Y-0.5506 Z0.4667 F50.
X3.3716 Y-0.5498 Z0.4629
X3.3707 Y-0.5486 Z0.4593
X3.3695 Y-0.5469 Z0.4559
X3.3681 Y-0.5448 Z0.4529
X3.3663 Y-0.5424 Z0.4504
X3.3644 Y-0.5397 Z0.4483
X3.3623 Y-0.5367 Z0.4468
X3.3602 Y-0.5336 Z0.4459
X3.3579 Y-0.5304 Z0.4456
X3.3436 Y-0.5099
G3 X3.3088 Y-0.5037 I-0.0205 J-0.0143
G1 X2.2143 Y-1.2701
G3 X2.4992 Y-1.7294 I0.1553 J-0.2217
G1 X2.5125 Y-1.7222
X3.2223 Y-1.2252
G2 X3.2471 Y-1.2095 I0.1835 J-0.262
G1 X3.3339 Y-1.1599
G3 X3.3432 Y-1.1258 I-0.0124 J0.0217
G1 X3.3308 Y-1.1041
X3.3289 Y-1.1007 Z0.4459
X3.327 Y-1.0973 Z0.4468
X3.3252 Y-1.0942 Z0.4483
X3.3235 Y-1.0913 Z0.4504
X3.322 Y-1.0887 Z0.4529
X3.3208 Y-1.0865 Z0.4559
X3.3198 Y-1.0847 Z0.4593
X3.319 Y-1.0834 Z0.4629
X3.3186 Y-1.0826 Z0.4667
X3.3184 Y-1.0823 Z0.4706
G0 Z1.0125
X3.6768 Y-1.1038
G1 Z0.4706 F80.
X3.6767 Y-1.104 Z0.4667 F50.
X3.6762 Y-1.1048 Z0.4629
X3.6755 Y-1.1061 Z0.4593
X3.6745 Y-1.1079 Z0.4559
X3.6733 Y-1.1102 Z0.4529
X3.6718 Y-1.1128 Z0.4504
X3.6702 Y-1.1157 Z0.4483
X3.6685 Y-1.1189 Z0.4468
X3.6667 Y-1.1222 Z0.4459
X3.6648 Y-1.1257 Z0.4456
X3.6528 Y-1.1476
G3 X3.6627 Y-1.1815 I0.0219 J-0.012
G1 X3.7503 Y-1.2296
G2 X3.7754 Y-1.2449 I-0.1538 J-0.2804
G1 X4.4938 Y-1.7295
X4.5072 Y-1.7365
G3 X4.7841 Y-1.2722 I0.1255 J0.2399
G1 X3.6764 Y-0.5251
G3 X3.6417 Y-0.5318 I-0.014 J-0.0207
G1 X3.6277 Y-0.5525
X3.6255 Y-0.5558 Z0.4459
X3.6234 Y-0.5589 Z0.4468
X3.6213 Y-0.5619 Z0.4483
X3.6195 Y-0.5647 Z0.4504
X3.6178 Y-0.5672 Z0.4529
X3.6164 Y-0.5693 Z0.4559
X3.6152 Y-0.571 Z0.4593
X3.6144 Y-0.5722 Z0.4629
X3.6139 Y-0.573 Z0.4667
X3.6137 Y-0.5733 Z0.4706
G0 Z1.0125
X3.3723 Y-0.5508
G1 Z0.4706 F80.
X3.3721 Y-0.5506 Z0.4667 F50.
X3.3716 Y-0.5498 Z0.4629
X3.3707 Y-0.5486 Z0.4593
X3.3695 Y-0.5469 Z0.4559
X3.3681 Y-0.5448 Z0.4529
X3.3663 Y-0.5424 Z0.4504
X3.3644 Y-0.5397 Z0.4483
X3.3623 Y-0.5367 Z0.4468
X3.3602 Y-0.5336 Z0.4459
X3.3579 Y-0.5304 Z0.4456
X3.3436 Y-0.5099
G3 X3.3088 Y-0.5037 I-0.0205 J-0.0143
G1 X2.2143 Y-1.2701
G3 X2.4992 Y-1.7294 I0.1553 J-0.2217
G1 X2.5125 Y-1.7222
X3.2223 Y-1.2252
G2 X3.2471 Y-1.2095 I0.1835 J-0.262
G1 X3.3339 Y-1.1599
G3 X3.3432 Y-1.1258 I-0.0124 J0.0217
G1 X3.3308 Y-1.1041
X3.3289 Y-1.1007 Z0.4459
X3.327 Y-1.0973 Z0.4468
X3.3252 Y-1.0942 Z0.4483
X3.3235 Y-1.0913 Z0.4504
X3.322 Y-1.0887 Z0.4529
X3.3208 Y-1.0865 Z0.4559
X3.3198 Y-1.0847 Z0.4593
X3.319 Y-1.0834 Z0.4629
X3.3186 Y-1.0826 Z0.4667
X3.3184 Y-1.0823 Z0.4706
G0 Z1.4125
M5
M9
G53 G0 Z0.
M30
%
