%
(HANDLE SIDE PLATES, 0,5X0,5X)
(T12 D=0.2362 CR=0. TAPER=45DEG - ZMIN=0.2238 - CHAMFER MILL)
(T32 D=0.1875 CR=0. - ZMIN=0.2041 - FLAT END MILL)
(T51 D=0.201 CR=0. TAPER=118DEG - ZMIN=0.1237 - DRILL)
(T102 D=0.2 CR=0. TAPER=135DEG - ZMIN=0.1624 - DRILL)
G90 G94 G17 G91.1
G20
G53 G0 Z0.
(ADAPTIVE4)
T32 M6
T51
S7500 M3
G17 G90 G94
G54
G64 P0.004 Q0.004
M8
G0 X0.8311 Y0.1093
G43 Z1.1 H32
G0 Z0.2416
G1 Z0.2228 F40.
X0.8314 Y0.1092 Z0.2196
X0.8322 Y0.109 Z0.2164
X0.8335 Y0.1087 Z0.2135
X0.8354 Y0.1082 Z0.2108
X0.8376 Y0.1076 Z0.2085
X0.8402 Y0.107 Z0.2066
X0.8431 Y0.1062 Z0.2052
X0.8461 Y0.1055 Z0.2044
X0.8493 Y0.1047 Z0.2041
G3 X0.9513 Y0.09 I0.1188 J0.4637
G2 X1.0452 Y0.0824 I0.0126 J-0.4269
G1 X1.0665 Y0.0772
X1.0736 Y0.075
G3 X1.1749 Y0.059 I0.1148 J0.3991
X1.3939 Y0.0557 I0.1704 J4.0982
G1 X1.519 Y0.0555
X1.5988
X1.6088 Y0.0563
X1.6186 Y0.0585
X1.628 Y0.0622
G2 X1.7456 Y0.0892 I0.1354 J-0.321
G1 X1.749 Y0.0898
X1.7522 Y0.091
X1.7551 Y0.0928
X1.7576 Y0.0951
X1.7597 Y0.0978
X1.7612 Y0.1009
X1.7622 Y0.1042
X1.7626 Y0.1076
X1.7623 Y0.111
X1.7537 Y0.13 F300.
G3 X1.6635 Y0.1917 I-0.0913 J-0.0367
G1 X1.0949 Y0.1955
G3 X1.0485 Y0.0925 I0.0007 J-0.0623
X1.0736 Y0.075 I0.0471 J0.0408 F40.
G2 X1.1376 Y0.0481 I-0.0978 J-0.3224
G3 X1.1965 Y0.0299 I0.0895 J0.1857
X1.3122 Y0.0199 I0.1198 J0.7075
X1.5319 Y0.0181 I0.1754 J8.2615
G1 X1.5454 Y0.0194
X1.5583 Y0.0234
X1.5702 Y0.0298
G2 X1.6281 Y0.0621 I0.1901 J-0.2729
G1 X1.6307 Y0.0638
X1.633 Y0.0659
X1.6349 Y0.0683
X1.6364 Y0.071
X1.6374 Y0.074
X1.638 Y0.077
Y0.0801
X1.6375 Y0.0832
X1.6365 Y0.0861
X1.6351 Y0.0888
G3 X1.6209 Y0.0975 I-0.0158 J-0.01 F300.
G1 X1.1802 Y0.1627
G3 X1.1162 Y0.07 I-0.01 J-0.0615
X1.1376 Y0.0481 I0.054 J0.0311 F40.
G1 X1.1518 Y0.04
X1.1589 Y0.0353
X1.1802 Y0.0209
G3 X1.2509 Y-0.0053 I0.0977 J0.1552
X1.3641 Y-0.017 I0.1212 J0.6218
X1.4844 Y-0.0191 I0.1198 J3.4095
X1.5302 Y-0.002 I0.0006 J0.0684
G1 X1.5512 Y0.0163
X1.5569 Y0.0209
X1.5702 Y0.0298
G3 X1.5743 Y0.057 I-0.0105 J0.0155
X1.56 Y0.0641 I-0.0147 J-0.0117 F300.
G1 X1.1805 Y0.0716
G3 X1.1625 Y0.0463 I-0.0004 J-0.0187
G1 X1.1626 Y0.046
G3 X1.1802 Y0.0209 I0.0582 J0.0222 F40.
G1 X1.1859 Y0.0163
X1.2087 Y-0.0035
X1.2103 Y-0.005
G3 X1.2637 Y-0.0331 I0.0883 J0.1029
X1.3413 Y-0.049 I0.1139 J0.3592
X1.4548 Y-0.0548 I0.103 J0.9099
X1.5038 Y-0.0301 I-0.0045 J0.07
G2 X1.5301 Y-0.002 I0.2283 J-0.1876
G1 X1.5324 Y0.0006
X1.5342 Y0.0035
X1.5354 Y0.0067
X1.536 Y0.0101
Y0.0135
X1.5353 Y0.0169
X1.5341 Y0.02
X1.5323 Y0.023
X1.5299 Y0.0255
G3 X1.5171 Y0.0304 I-0.0126 J-0.0139 F300.
G1 X1.224 Y0.0263
G3 X1.2129 Y0.0224 I0.0003 J-0.0187
X1.2103 Y-0.005 I0.0114 J-0.0149 F40.
G1 X1.2239 Y-0.0192
X1.2302 Y-0.0263
X1.2335 Y-0.0302
G3 X1.2884 Y-0.065 I0.0921 J0.0845
X1.3792 Y-0.0855 I0.124 J0.3374
X1.4325 Y-0.0876 I0.0372 J0.2686
X1.4827 Y-0.0574 I-0.0071 J0.0687
G1 X1.4893 Y-0.0476
X1.493 Y-0.043
X1.5038 Y-0.0301
G3 X1.4993 Y-0.0029 I-0.0148 J0.0115
X1.489 Y0.0002 I-0.0103 J-0.0156 F300.
G1 X1.2482 Y0.0001
G3 X1.2379 Y-0.003 I0. J-0.0187
X1.2335 Y-0.0302 I0.0103 J-0.0156 F40.
G1 X1.2442 Y-0.043
X1.2479 Y-0.0476
X1.2553 Y-0.0586
G3 X1.304 Y-0.0949 I0.0883 J0.0676
X1.4081 Y-0.118 I0.1042 J0.2238
X1.4663 Y-0.0831 I-0.0031 J0.0711
G2 X1.4827 Y-0.0574 I0.2776 J-0.1593
G3 X1.4754 Y-0.0308 I-0.016 J0.0099
G1 X1.4726 Y-0.0297 F300.
X1.4697 Y-0.029
X1.4667 Y-0.0288
X1.2711 Y-0.03
X1.2682 Y-0.0302
X1.2653 Y-0.0309
X1.2626 Y-0.0321
G3 X1.2553 Y-0.0586 I0.0086 J-0.0167 F40.
G2 X1.2719 Y-0.0849 I-0.2403 J-0.17
G3 X1.3138 Y-0.1228 I0.0816 J0.0482
X1.394 Y-0.1444 I0.0815 J0.1428
X1.4549 Y-0.1059 I-0.0012 J0.0692
G1 X1.4591 Y-0.0973
X1.4627 Y-0.0902
X1.4663 Y-0.0831
G3 X1.4559 Y-0.0576 I-0.017 J0.0079
G1 X1.4537 Y-0.0569 F300.
X1.4514 Y-0.0565
X1.4491 Y-0.0564
X1.2886 Y-0.0583
X1.2854 Y-0.0586
X1.2823 Y-0.0595
G3 X1.2718 Y-0.085 I0.0066 J-0.0176 F40.
G1 X1.2745 Y-0.0902
X1.2781 Y-0.0973
X1.286 Y-0.1135
G3 X1.3418 Y-0.1593 I0.0862 J0.0483
X1.4074 Y-0.1637 I0.0386 J0.0824
G1 X1.42 Y-0.157
X1.4311 Y-0.1481
X1.4401 Y-0.137
X1.4466 Y-0.1244
X1.4489 Y-0.1186
X1.4503 Y-0.1152
X1.4549 Y-0.1059
G3 X1.4441 Y-0.0805 I-0.0171 J0.0077
G1 X1.4417 Y-0.0799 F300.
X1.4392 Y-0.0795
X1.4367
X1.3021 Y-0.0872
X1.2994 Y-0.0875
X1.2968 Y-0.0882
G3 X1.286 Y-0.1135 I0.0063 J-0.0177 F40.
G2 X1.295 Y-0.1372 I-0.1805 J-0.0823
G3 X1.3414 Y-0.1814 I0.0729 J0.03
X1.4173 Y-0.1751 I0.0328 J0.0648
G1 X1.4271 Y-0.1656
X1.4349 Y-0.1546
X1.4404 Y-0.1422
X1.4436 Y-0.1328
X1.4461 Y-0.1257
X1.4466 Y-0.1244
G3 X1.4337 Y-0.1 I-0.0177 J0.0062
G1 X1.4314 Y-0.0996 F300.
X1.4291 Y-0.0994
X1.4267 Y-0.0995
X1.3108 Y-0.1132
X1.3103 Y-0.1133
X1.3097 Y-0.1134
X1.3091 Y-0.1135
G3 X1.2951 Y-0.1372 I0.0039 J-0.0183 F40.
G1 X1.3011 Y-0.1552
X1.303 Y-0.1612
X1.3033 Y-0.1624
G3 X1.3189 Y-0.1874 I0.0497 J0.0137
X1.3864 Y-0.2084 I0.0557 J0.0602
X1.4342 Y-0.1612 I-0.0124 J0.0604
G1 X1.4365 Y-0.1541
X1.4404 Y-0.1422
G3 X1.4263 Y-0.1185 I-0.018 J0.0053
G1 X1.4237 Y-0.1182 F300.
X1.421
X1.4184 Y-0.1186
X1.3199 Y-0.1403
X1.3177 Y-0.1408 F40.
G3 X1.303 Y-0.1591 I0.004 J-0.0183
G1 X1.3033 Y-0.1624
X1.3076 Y-0.1825
G3 X1.3368 Y-0.2185 I0.0522 J0.0126
X1.4192 Y-0.203 I0.0328 J0.0526
G1 X1.4262 Y-0.1914
X1.4305 Y-0.1785
X1.4342 Y-0.1612
G3 X1.4175 Y-0.1393 I-0.0185 J0.0033
G1 X1.4144 Y-0.1392 F300.
X1.4113 Y-0.1397
X1.3246 Y-0.1607
X1.3217 Y-0.1614 F40.
G3 X1.3076 Y-0.1825 I0.0044 J-0.0182
G1 X1.3116 Y-0.2038
G3 X1.3221 Y-0.2249 I0.0375 J0.0055
X1.4271 Y-0.1957 I0.0453 J0.0404
G1 X1.4296 Y-0.1825
X1.4305 Y-0.1785
G3 X1.4138 Y-0.1566 I-0.0185 J0.0033
G1 X1.4112 Y-0.1565 F300.
X1.4086 Y-0.1568
X1.406 Y-0.1574
X1.3303 Y-0.1828
X1.3243 Y-0.1848 F40.
G3 X1.3116 Y-0.2038 I0.006 J-0.0178
G1 X1.3123 Y-0.2109
X1.313 Y-0.2192
G3 X1.3405 Y-0.2557 I0.0448 J0.0051
X1.3812 Y-0.2603 I0.0259 J0.0465
X1.425 Y-0.209 I-0.0151 J0.0573
X1.4061 Y-0.189 I-0.0187 J0.0012
G1 X1.4037 Y-0.1892 F300.
X1.3323 Y-0.1994
X1.329 Y-0.1999 F40.
G3 X1.313 Y-0.2192 I0.0027 J-0.0186
G1 X1.3134 Y-0.2251
X1.3143 Y-0.2379
G3 X1.3323 Y-0.2677 I0.0401 J0.0039
X1.3731 Y-0.2788 I0.0343 J0.0454
X1.4238 Y-0.2252 I-0.0073 J0.0576
G1 X1.4249 Y-0.2109
X1.425 Y-0.209
G3 X1.4061 Y-0.189 I-0.0187 J0.0013
G1 X1.4038 Y-0.1892 F300.
X1.4015 Y-0.1896
X1.3993 Y-0.1904
X1.3335 Y-0.2169
X1.326 Y-0.2199 F40.
G3 X1.3143 Y-0.2379 I0.007 J-0.0174
G1 X1.3144 Y-0.2393
X1.3147 Y-0.2464
Y-0.2536
G3 X1.3227 Y-0.2755 I0.0308 J-0.0012
X1.3777 Y-0.2941 I0.0424 J0.035
X1.4228 Y-0.2402 I-0.0128 J0.0564
G1 X1.4235 Y-0.2284
X1.4237 Y-0.2252
G3 X1.4042 Y-0.2059 I-0.0187 J0.0007
G1 X1.4009 Y-0.2063 F300.
X1.3977 Y-0.2073
X1.3357 Y-0.2337
X1.326 Y-0.2378 F40.
G3 X1.3147 Y-0.2536 I0.0073 J-0.0173
G1 X1.3144 Y-0.2607
X1.3139 Y-0.2678
G3 X1.3246 Y-0.2948 I0.0357 J-0.0016
X1.3925 Y-0.3062 I0.0417 J0.0405
X1.4225 Y-0.2536 I-0.0271 J0.0503
G1 Y-0.2464
X1.4228 Y-0.2402
G3 X1.4027 Y-0.2213 I-0.0187 J0.0002
G1 X1.3997 Y-0.2218 F300.
X1.3968 Y-0.2227
X1.3354 Y-0.2483
X1.3254 Y-0.2524 F40.
G3 X1.3139 Y-0.2678 I0.0072 J-0.0173
G1 X1.3134 Y-0.2749
X1.3128 Y-0.2831
G3 X1.3273 Y-0.3145 I0.0364 J-0.0022
X1.4139 Y-0.3035 I0.0386 J0.042
G1 X1.4196 Y-0.2924
X1.4228 Y-0.2803
X1.4233 Y-0.2678
X1.4228 Y-0.2607
X1.4225 Y-0.2536
G3 X1.4009 Y-0.2365 I-0.0187 J-0.0015
G1 X1.3987 Y-0.237 F300.
X1.3966 Y-0.2377
X1.3343 Y-0.2637
X1.3242 Y-0.2679 F40.
G3 X1.3128 Y-0.2831 I0.0072 J-0.0173
G1 X1.3123 Y-0.2891
X1.3116 Y-0.2962
X1.3114 Y-0.2973
G3 X1.3163 Y-0.3202 I0.0291 J-0.0057
X1.4153 Y-0.3189 I0.0491 J0.0322
G1 X1.4209 Y-0.3075
X1.424 Y-0.2951
X1.4243 Y-0.2824
X1.4235 Y-0.271
X1.4233 Y-0.2678
G3 X1.4012 Y-0.2513 I-0.0186 J-0.002
G1 X1.3992 Y-0.2518 F300.
X1.3973 Y-0.2525
X1.3344 Y-0.2791
X1.3224 Y-0.2842 F40.
G3 X1.3114 Y-0.2973 I0.0073 J-0.0173
G1 X1.3087 Y-0.3116
G3 X1.3199 Y-0.3443 I0.0366 J-0.0057
X1.4041 Y-0.3529 I0.047 J0.044
X1.4256 Y-0.2962 I-0.0363 J0.0462
G1 X1.4249 Y-0.2891
X1.4243 Y-0.2824
G3 X1.4022 Y-0.2661 I-0.0186 J-0.0021
G1 X1.4005 Y-0.2665 F300.
X1.3988 Y-0.2671
X1.3319 Y-0.2936
X1.3201 Y-0.2983 F40.
G3 X1.3087 Y-0.3116 I0.0069 J-0.0174
G1 X1.3076 Y-0.3175
X1.3056 Y-0.3267
G3 X1.3122 Y-0.3551 I0.036 J-0.0066
X1.3938 Y-0.3787 I0.0562 J0.0415
X1.4297 Y-0.3259 I-0.0246 J0.0552
G1 X1.4287 Y-0.3125
X1.4256 Y-0.2962
G3 X1.4018 Y-0.2824 I-0.0183 J-0.0041
G1 X1.4008 Y-0.2827 F300.
X1.3292 Y-0.3093
X1.3172 Y-0.3137 F40.
G3 X1.3056 Y-0.3267 I0.0065 J-0.0176
G1 X1.303 Y-0.3388
X1.3024 Y-0.3406
G3 X1.3042 Y-0.3639 I0.0287 J-0.0095
X1.3793 Y-0.402 I0.0641 J0.0332
G1 X1.3853 Y-0.4014
G3 X1.4318 Y-0.3275 I-0.0147 J0.0608
G1 X1.4296 Y-0.3175
X1.4287 Y-0.3125
G3 X1.4048 Y-0.2987 I-0.0183 J-0.0041
G1 X1.4044 Y-0.2988 F300.
X1.3274 Y-0.3247
X1.3141 Y-0.3292 F40.
G3 X1.3024 Y-0.3406 I0.006 J-0.0178
G1 X1.3007 Y-0.3459
X1.2979 Y-0.3542
G3 X1.3029 Y-0.3885 I0.0367 J-0.0122
X1.4101 Y-0.4144 I0.0672 J0.0437
X1.4381 Y-0.3558 I-0.035 J0.0528
G1 X1.4354 Y-0.3425
G3 X1.4156 Y-0.3303 I-0.0176 J-0.0064
G1 X1.4098 Y-0.3309
X1.3236 Y-0.3409 F300.
X1.3134 Y-0.3421 F40.
G3 X1.2979 Y-0.3542 I0.0021 J-0.0186
G1 X1.2936 Y-0.3672
X1.2923 Y-0.3708
G3 X1.2962 Y-0.4054 I0.0381 J-0.0133
G2 X1.2879 Y-0.492 I-0.0578 J-0.0381
G1 X1.2647 Y-0.513
X1.2366 Y-0.5266
X1.2067 Y-0.536
X1.176 Y-0.5421
X1.1531 Y-0.545
X1.1454 Y-0.5464
X1.1378 Y-0.5487
X1.1305 Y-0.5518
G3 X1.1236 Y-0.5784 I0.0089 J-0.0165
G1 X1.1253 Y-0.5812 Z0.2044
X1.127 Y-0.5838 Z0.2052
X1.1287 Y-0.5863 Z0.2066
X1.1301 Y-0.5886 Z0.2085
X1.1313 Y-0.5905 Z0.2108
X1.1324 Y-0.5921 Z0.2135
X1.1331 Y-0.5932 Z0.2164
X1.1336 Y-0.594 Z0.2196
X1.1337 Y-0.5942 Z0.2228
G0 Z0.7
X1.3249 Y-0.3338
Z0.2416
G1 Z0.2228 F40.
X1.3246 Y-0.334 Z0.2196
X1.324 Y-0.3345 Z0.2164
X1.3229 Y-0.3354 Z0.2135
X1.3215 Y-0.3366 Z0.2108
X1.3197 Y-0.3381 Z0.2085
X1.3176 Y-0.3398 Z0.2066
X1.3154 Y-0.3417 Z0.2052
X1.3129 Y-0.3437 Z0.2044
X1.3104 Y-0.3458 Z0.2041
G3 X1.2923 Y-0.3708 I0.0398 J-0.0479
G2 X1.2863 Y-0.3859 I-0.1458 J0.0492
X0.9915 Y-0.5892 I-0.3113 J0.1362
G1 X0.9886 Y-0.5896
G2 X0.9615 Y-0.5964 I-0.3493 J1.3428
X0.8703 Y-0.6149 I-0.3222 J1.3495 F300.
G1 X0.8672 Y-0.6152
X0.4151 Y-0.6158
X0.4121 Y-0.6156
G2 X0.3197 Y-0.597 I0.2272 J1.3687
X0.2936 Y-0.5906 I0.3196 J1.3502 F40.
G1 X0.2916 Y-0.5902
X0.2896 Y-0.59
G2 X0.1851 Y-0.58 I-0.0137 J0.4097
G1 X0.1781 Y-0.5782
X0.1638 Y-0.5736
G3 X0.0863 Y-0.5603 I-0.1054 J-0.3816
G1 X0.0551 Y-0.5582
X0.0402 Y-0.5535
X0.0126 Y-0.5388
X-0.0092 Y-0.5163
X-0.0253 Y-0.4895
X-0.0364 Y-0.4602
G2 X-0.0508 Y-0.3738 I0.4017 J0.1113
G1 X-0.0522 Y-0.3681
X-0.054 Y-0.3626
G3 X-0.0797 Y-0.3527 I-0.0174 J-0.007
G1 X-0.0826 Y-0.3542 Z0.2044
X-0.0854 Y-0.3556 Z0.2052
X-0.0881 Y-0.3569 Z0.2066
X-0.0905 Y-0.3581 Z0.2085
X-0.0926 Y-0.3591 Z0.2108
X-0.0943 Y-0.3599 Z0.2135
X-0.0955 Y-0.3605 Z0.2164
X-0.0963 Y-0.3609 Z0.2196
X-0.0965 Y-0.361 Z0.2228
G0 Z0.7
X0.2019 Y-0.605
Z0.2416
G1 Z0.2228 F40.
X0.2017 Y-0.6048 Z0.2196
X0.2011 Y-0.6042 Z0.2164
X0.2002 Y-0.6031 Z0.2135
X0.199 Y-0.6017 Z0.2108
X0.1974 Y-0.6 Z0.2085
X0.1957 Y-0.598 Z0.2066
X0.1937 Y-0.5958 Z0.2052
X0.1916 Y-0.5934 Z0.2044
X0.1894 Y-0.591 Z0.2041
G3 X0.1638 Y-0.5736 I-0.0467 J-0.0413
G2 X0.0429 Y-0.5059 I0.099 J0.3186
X-0.068 Y-0.1896 I0.2234 J0.2559
G3 X-0.057 Y-0.065 I-0.8548 J0.1378
G1 X-0.0543 Y-0.0496
X-0.0428 Y-0.0205
X-0.0223 Y0.0031
X0.0035 Y0.0208
X0.0322 Y0.0334
X0.0623 Y0.0417
X0.0933 Y0.0471
X0.1005 Y0.0484
X0.1074 Y0.0505
X0.1141 Y0.0535
G3 X0.121 Y0.0801 I-0.0088 J0.0165
G1 X0.0928 Y0.1036 F300.
X0.0572 Y0.1136
X-0.0139 Y0.1252
G3 X-0.0707 Y0.1128 I-0.0141 J-0.0718
G1 X-0.116 Y0.0732
X-0.1474 Y0.0305
X-0.1617 Y-0.005
X-0.1904 Y-0.1683
G3 X-0.0817 Y-0.2169 I0.0618 J-0.0076
X-0.0699 Y-0.1967 I-0.0469 J0.041 F40.
G1 X-0.0678 Y-0.1896
G2 X0.1152 Y0.0541 I0.3326 J-0.0592
X0.2491 Y0.0891 I0.1492 J-0.2975
G1 X0.252 Y0.0896
G2 X0.2791 Y0.0965 I1.0977 J-4.2063
X0.6228 Y0.1692 I1.0706 J-4.2133 F300.
G1 X0.6259 Y0.1695
X2.0695 Y0.1701
X2.0726 Y0.1699
G2 X2.4175 Y0.0972 I-0.7229 J-4.2866
X2.4435 Y0.0906 I-1.0678 J-4.214 F40.
G1 X2.4455 Y0.0902
X2.4475 Y0.09
G2 X2.552 Y0.08 I0.0137 J-0.4097
G1 X2.5591 Y0.0782
X2.5733 Y0.0736
G3 X2.6508 Y0.0603 I0.1054 J0.3816
X2.8385 Y0.0559 I0.1528 J2.5062
G1 X2.8537 Y0.0522
X2.8823 Y0.0394
X2.9052 Y0.0181
X2.9223 Y-0.0081
X2.9343 Y-0.037
X2.9423 Y-0.0673
G2 X2.9535 Y-0.1918 I-0.71 J-0.1269
X2.9552 Y-0.4421 I-9.0892 J-0.1849
G1 X2.9511 Y-0.4572
X2.9371 Y-0.4852
X2.9152 Y-0.5075
X2.8886 Y-0.524
X2.8595 Y-0.5355
X2.8292 Y-0.5432
G2 X2.7046 Y-0.5538 I-0.1267 J0.746
G3 X2.6254 Y-0.5556 I0.021 J-2.6582
G1 X2.6158 Y-0.558
X2.6066 Y-0.5615
G2 X2.488 Y-0.5891 I-0.1355 J0.313
G1 X2.4847 Y-0.5898
X2.4815 Y-0.591
X2.4786 Y-0.5928
X2.4761 Y-0.5951
X2.474 Y-0.5978
X2.4724 Y-0.6009
X2.4715 Y-0.6042
X2.4711 Y-0.6076
X2.4714 Y-0.611
X2.472 Y-0.6142 Z0.2044
X2.4725 Y-0.6173 Z0.2052
X2.4731 Y-0.6202 Z0.2066
X2.4735 Y-0.6229 Z0.2085
X2.4739 Y-0.6251 Z0.2108
X2.4743 Y-0.627 Z0.2135
X2.4745 Y-0.6283 Z0.2164
X2.4747 Y-0.6292 Z0.2196
Y-0.6294 Z0.2228
G0 Z0.7
X2.5353 Y0.105
Z0.2416
G1 Z0.2228 F40.
X2.5355 Y0.1048 Z0.2196
X2.536 Y0.1042 Z0.2164
X2.537 Y0.1031 Z0.2135
X2.5382 Y0.1017 Z0.2108
X2.5397 Y0.1 Z0.2085
X2.5415 Y0.098 Z0.2066
X2.5435 Y0.0958 Z0.2052
X2.5456 Y0.0934 Z0.2044
X2.5477 Y0.091 Z0.2041
G3 X2.5733 Y0.0736 I0.0467 J0.0413
G2 X2.6302 Y0.0497 I-0.0727 J-0.252
G3 X2.6958 Y0.0293 I0.0977 J0.1993
G1 X2.7193 Y0.0257
X2.7505 Y0.0226
X2.7817 Y0.0207
X2.8119 Y0.0126
X2.8387 Y-0.0036
X2.8609 Y-0.0257
X2.8781 Y-0.0518
X2.8909 Y-0.0803
X2.9001 Y-0.1102
G2 X2.9148 Y-0.2343 I-0.6156 J-0.1361
X2.9174 Y-0.3595 I-3.0297 J-0.1243
G1 X2.9161 Y-0.3907
X2.9058 Y-0.4203
X2.8879 Y-0.446
X2.8645 Y-0.4667
X2.8375 Y-0.4827
X2.8085 Y-0.4943
G2 X2.7047 Y-0.5125 I-0.1266 J0.4166
G1 X2.6927 Y-0.5146
X2.6813 Y-0.5186
X2.6707 Y-0.5247
G2 X2.6066 Y-0.5614 I-0.2101 J0.292
G1 X2.604 Y-0.5631
X2.6016 Y-0.5651
X2.5997 Y-0.5675
X2.5982 Y-0.5702
X2.5971 Y-0.5731
X2.5965 Y-0.5761
X2.5964 Y-0.5792
X2.5969 Y-0.5823
X2.5978 Y-0.5852
X2.5992 Y-0.588
G3 X2.6089 Y-0.5959 I0.016 J0.0098 F300.
G1 X2.7723 Y-0.6281
G3 X2.8221 Y-0.6251 I0.0191 J0.0966
G1 X2.9003 Y-0.5964
X2.9642 Y-0.5526
X3.0078 Y-0.5021
X3.0323 Y-0.4524
X3.0462 Y-0.3952
X3.0444 Y-0.2322
X3.0336 Y-0.1107
X3.014 Y-0.0396
X2.9959 Y0.0021
X2.9927 Y0.0091
X2.9532 Y0.0661
X2.904 Y0.1087
X2.8647 Y0.1306
X2.6728 Y0.1648
G3 X2.6083 Y0.0711 I-0.0113 J-0.0613
X2.6267 Y0.0519 I0.0532 J0.0325 F40.
G1 X2.6302 Y0.0497
G2 X2.6728 Y0.0231 I-0.1317 J-0.2584
G3 X2.7072 Y0.0055 I0.0856 J0.1248
G1 X2.7368 Y-0.0046
X2.766 Y-0.0158
X2.7923 Y-0.0327
X2.8147 Y-0.0546
X2.8328 Y-0.0801
X2.8468 Y-0.1081
X2.8572 Y-0.1376
G2 X2.8757 Y-0.2612 I-0.5417 J-0.1446
G1 X2.8774 Y-0.2924
X2.8783 Y-0.3237
X2.8733 Y-0.3546
X2.8606 Y-0.3832
X2.8413 Y-0.4078
X2.8173 Y-0.4279
X2.7901 Y-0.4434
X2.761 Y-0.455
G3 X2.7232 Y-0.4771 I0.0163 J-0.0714
G2 X2.6799 Y-0.518 I-0.2239 J0.1941
G1 X2.6715 Y-0.5241
X2.6707 Y-0.5247
G3 X2.6678 Y-0.5521 I0.0112 J-0.015
X2.6799 Y-0.5583 I0.0141 J0.0124 F300.
G1 X2.8079 Y-0.5666
G3 X2.8504 Y-0.5587 I0.0037 J0.0984
G1 X2.9003 Y-0.5276
X2.944 Y-0.4879
X2.9824 Y-0.4311
X2.9976 Y-0.3885
X3.0075 Y-0.2962
X2.9878 Y-0.1257
X2.95 Y-0.0243
X2.912 Y0.0305
X2.8803 Y0.059
X2.7368 Y0.1291
G3 X2.654 Y0.0473 I-0.0258 J-0.0567
X2.6728 Y0.0232 I0.057 J0.0251 F40.
G2 X2.7137 Y-0.0121 I-0.2169 J-0.2924
G1 X2.7361 Y-0.0339
X2.7585 Y-0.0557
X2.7782 Y-0.08
X2.7945 Y-0.1067
X2.8076 Y-0.1352
G2 X2.8344 Y-0.2571 I-0.4267 J-0.1576
G1 X2.8353 Y-0.2883
X2.8287 Y-0.3189
X2.8146 Y-0.3469
X2.7946 Y-0.3709
G3 X2.7811 Y-0.3885 I0.0302 J-0.037
G2 X2.7233 Y-0.4773 I-0.3145 J0.1416
G1 X2.7208 Y-0.4808
G3 X2.7269 Y-0.5044 I0.0168 J-0.0082
X2.7439 Y-0.5068 I0.0107 J0.0154 F300.
G1 X2.879 Y-0.4567
G3 X2.9154 Y-0.4311 I-0.0369 J0.0913
G1 X2.9362 Y-0.3956
X2.9579 Y-0.3388
X2.9644 Y-0.2678
X2.9563 Y-0.1896
X2.9393 Y-0.1186
X2.9216 Y-0.0743
X2.8108 Y0.0661
G3 X2.7006 Y0.0156 I-0.049 J-0.0385
X2.7137 Y-0.0121 I0.0612 J0.0119 F40.
G2 X2.8077 Y-0.2949 I-0.2453 J-0.2386
X2.7811 Y-0.3885 I-0.3524 J0.0495
G1 X2.7803 Y-0.3913
X2.7798 Y-0.3942
G2 X2.7775 Y-0.4191 I-0.518 J0.035
X2.6929 Y-0.6486 I-0.5158 J0.0599 F300.
X2.6812 Y-0.6564 I-0.0156 J0.0104
G1 X1.9977 Y-0.8003
G2 X1.9838 Y-0.7978 I-0.0039 J0.0183
X1.8071 Y-0.6098 I0.278 J0.4386
G1 X1.8018 Y-0.6 F40.
G3 X1.7858 Y-0.59 I-0.0166 J-0.0087
G2 X1.6919 Y-0.5824 I-0.0126 J0.4269
G1 X1.6707 Y-0.5772
X1.6635 Y-0.575
G3 X1.5548 Y-0.5573 I-0.1211 J-0.4023
G2 X1.5144 Y-0.5542 I0.0781 J1.2685
X1.4607 Y-0.4939 I0.0154 J0.0678
G1 X1.4593 Y-0.4626
X1.4632 Y-0.4446
G3 X1.4577 Y-0.3999 I-0.0672 J0.0144
X1.4311 Y-0.3929 I-0.0165 J-0.0088
G1 X1.4283 Y-0.3947 Z0.2044
X1.4257 Y-0.3964 Z0.2052
X1.4232 Y-0.398 Z0.2066
X1.4209 Y-0.3994 Z0.2085
X1.419 Y-0.4007 Z0.2108
X1.4174 Y-0.4017 Z0.2135
X1.4162 Y-0.4024 Z0.2164
X1.4155 Y-0.4029 Z0.2196
X1.4153 Y-0.4031 Z0.2228
G0 Z0.7
X1.701 Y-0.607
Z0.2416
G1 Z0.2228 F40.
X1.7009 Y-0.6068 Z0.2196
X1.7003 Y-0.6061 Z0.2164
X1.6994 Y-0.6051 Z0.2135
X1.6982 Y-0.6036 Z0.2108
X1.6967 Y-0.6019 Z0.2085
X1.695 Y-0.5998 Z0.2066
X1.693 Y-0.5976 Z0.2052
X1.691 Y-0.5952 Z0.2044
X1.6889 Y-0.5927 Z0.2041
G3 X1.6635 Y-0.575 I-0.0473 J-0.0405
G2 X1.4355 Y-0.3425 I0.0984 J0.3247
G1 X1.4342 Y-0.3397
X1.4324 Y-0.3371
X1.4303 Y-0.3349
X1.4278 Y-0.333
X1.425 Y-0.3316
X1.4221 Y-0.3306
X1.419 Y-0.3302 Z0.2042
X1.4159
X1.4129 Y-0.3308
X1.41 Y-0.3318
G3 X1.3994 Y-0.353 Z0.2043 I0.0077 J-0.0171 F300.
G1 X1.4041 Y-0.4524 Z0.2063
X1.3814 Y-0.495 Z0.208
X1.3807 Y-0.4963 Z0.2081
X1.38 Y-0.4976
X1.3792 Y-0.4989 Z0.2082
X1.3786 Y-0.5
X1.3779 Y-0.5011 Z0.2083
X1.3773 Y-0.5021
X1.377 Y-0.5025 Z0.2084
X1.3722 Y-0.5092 Z0.2087
X1.294 Y-0.5952 Z0.2151
X1.1944 Y-0.6644 Z0.2239
X1.1447 Y-0.6882 Z0.2286
X0.9883 Y-0.7491 Z0.2449
X0.987 Y-0.7496 Z0.245
X0.9858 Y-0.7502 Z0.2451
X0.9845 Y-0.7507 Z0.2453
X0.9315 Y-0.7613 Z0.251
X0.3482 Y-0.7611 Z0.3138
X0.2918 Y-0.75 Z0.3189
X0.0753 Y-0.6797 Z0.3351
X0.0359 Y-0.659 Z0.3373
G2 X-0.0117 Y-0.5661 Z0.3409 I0.0504 J0.0845
G1 X-0.0029 Y-0.4938 Z0.3419
X-0.0004 Y-0.4737 Z0.3422 F40.
X0.0004 Y-0.4668
X0.0006 Y-0.4631
G3 X-0.0036 Y-0.4174 I-0.1542 J0.009
G1 X-0.0106 Y-0.3869
X-0.0182 Y-0.3565
X-0.0246 Y-0.3259
X-0.029 Y-0.2949
X-0.0309 Y-0.2637
G2 X-0.0086 Y-0.1413 I0.3154 J0.0057
G1 X0.0045 Y-0.1129
X0.0205 Y-0.086
X0.0393 Y-0.0609
X0.0606 Y-0.0381
X0.0842 Y-0.0176
X0.1099 Y0.0004
X0.1372 Y0.0156
X0.1661 Y0.0277
G2 X0.2886 Y0.0513 I0.1455 J-0.426
X0.4763 Y0.0552 I0.1556 J-2.9852
G1 X0.5389 Y0.0555
X0.7266
X0.8831
X0.9144 Y0.0542
X0.9456 Y0.0531
X0.9769 Y0.0511
X1.0079 Y0.0472
X1.0385 Y0.0408
X1.0685 Y0.0317
G2 X1.175 Y-0.0325 I-0.105 J-0.2946
G1 X1.1968 Y-0.055
X1.2161 Y-0.0796
X1.2327 Y-0.1061
X1.2464 Y-0.1342
X1.2572 Y-0.1636
X1.2648 Y-0.194
X1.2691 Y-0.225
X1.27 Y-0.2563
X1.2676 Y-0.2875
X1.2621 Y-0.3183
X1.2533 Y-0.3483
X1.2414 Y-0.3772
X1.2264 Y-0.4047
X1.2085 Y-0.4304
X1.1881 Y-0.4541
X1.1653 Y-0.4755
X1.1404 Y-0.4945
X1.1136 Y-0.5106
X1.0852 Y-0.5238
G2 X0.9634 Y-0.5504 I-0.1496 J0.3925
X0.7757 Y-0.5551 I-0.1557 J2.476
G1 X0.7131 Y-0.5554
X0.588 Y-0.5555
X0.3689
X0.3376 Y-0.5543
X0.3064 Y-0.5534
X0.2751 Y-0.552
G2 X0.1536 Y-0.5242 I0.02 J0.3662
G1 X0.1255 Y-0.5104
X0.0991 Y-0.4936
X0.0777 Y-0.4708
X0.0605 Y-0.4447
G2 X0.0141 Y-0.2963 I0.3533 J0.1919
G1 X0.0125 Y-0.265
X0.0142 Y-0.2338
X0.0193 Y-0.2029
X0.0278 Y-0.1728
X0.0398 Y-0.1439
X0.0551 Y-0.1166
X0.0736 Y-0.0914
X0.0952 Y-0.0687
X0.1193 Y-0.0488
X0.1457 Y-0.032
X0.1739 Y-0.0183
X0.2033 Y-0.0076
G2 X0.3265 Y0.0129 I0.1485 J-0.5137
G1 X0.3577 Y0.0148
G2 X0.608 Y0.0178 I0.1981 J-6.0952
X0.8896 Y0.0171 I0.1119 J-12.3832
G1 X0.9209 Y0.0159
X0.9521 Y0.0138
X0.9832 Y0.0099
X1.0138 Y0.0036
X1.0438 Y-0.0053
X1.0728 Y-0.0172
X1.1003 Y-0.0321
X1.126 Y-0.05
X1.1493 Y-0.0708
X1.17 Y-0.0943
X1.1878 Y-0.12
X1.2023 Y-0.1478
X1.2132 Y-0.1771
X1.2203 Y-0.2076
X1.2236 Y-0.2387
X1.223 Y-0.27
X1.2187 Y-0.301
X1.2103 Y-0.3311
X1.1982 Y-0.36
X1.1826 Y-0.3871
X1.1638 Y-0.4121
X1.142 Y-0.4345
X1.1175 Y-0.4541
X1.0908 Y-0.4704
X1.0625 Y-0.4836
X1.0329 Y-0.4939
G2 X0.9095 Y-0.5132 I-0.148 J0.5409
X0.6905 Y-0.5176 I-0.1796 J3.4821
X0.4089 Y-0.5179 I-0.1727 J31.9406
X0.2838 Y-0.5132 I0.0009 J1.6922
G1 X0.2529 Y-0.5089
X0.2223 Y-0.5023
X0.1924 Y-0.4929
X0.1643 Y-0.4792
X0.1392 Y-0.4605
G3 X0.1206 Y-0.4415 I-0.2167 J-0.1929
G2 X0.0785 Y-0.4019 I0.4668 J0.5379
G1 X0.0736 Y-0.3956
G2 X0.039 Y-0.3317 I0.4425 J0.2808
X0.0298 Y-0.2891 I0.1896 J0.0635
G1 X0.0274 Y-0.2749
G2 X0.0275 Y-0.2252 I0.1244 J0.0246
X0.0388 Y-0.1682 I0.3489 J-0.04
X0.0736 Y-0.1044 I0.5755 J-0.2713
G1 X0.0785 Y-0.0981
G2 X0.1283 Y-0.052 I0.4385 J-0.4232
X0.1797 Y-0.0264 I0.1493 J-0.2355
X0.2207 Y-0.0133 I0.0615 J-0.1219
G1 X0.2278 Y-0.0127
X0.2705 Y-0.0092
G2 X0.2957 Y-0.0108 I0.0063 J-0.0998
G3 X0.3978 Y-0.0192 I0.0979 J0.5659
G1 X0.5334 Y-0.0197
X0.669 Y-0.0198
X0.8046 Y-0.0195
X0.8928 Y-0.0209
X0.9015 Y-0.0198
X0.9101 Y-0.0177
G2 X0.9386 Y-0.0126 I0.0327 J-0.0997
G1 X0.9741 Y-0.0096
G2 X1.0167 Y-0.0136 I0.0111 J-0.1113
X1.0737 Y-0.0296 I-0.0845 J-0.4107
X1.1377 Y-0.0716 I-0.2615 J-0.4679
X1.1763 Y-0.1186 I-0.3213 J-0.3031
X1.1976 Y-0.1613 I-0.0969 J-0.0752
X1.2143 Y-0.218 I-0.2839 J-0.1142
X1.2134 Y-0.2891 I-0.6124 J-0.0276
X1.1862 Y-0.3673 I-0.477 J0.1219
X1.1377 Y-0.4284 I-0.4085 J0.2744
X1.0737 Y-0.4704 I-0.3241 J0.4242
X0.9884 Y-0.4913 I-0.1387 J0.3817
X0.9243 Y-0.4859 I0.0581 J1.0787
G3 X0.7873 Y-0.4805 I-0.1091 J-1.0193
G1 X0.6517 Y-0.4807
X0.5161 Y-0.4805
X0.3805 Y-0.4798
X0.3508 Y-0.4786
X0.3444 Y-0.4787
X0.338 Y-0.4794
X0.3317 Y-0.4806
X0.3131 Y-0.4854
X0.2918 Y-0.49
X0.2847 Y-0.4907
X0.2776 Y-0.4909
X0.2705 Y-0.4908
X0.2278 Y-0.4873
G2 X0.1852 Y-0.476 I0.0082 J0.1165
X0.1451 Y-0.458 I0.2211 J0.5457
G1 X0.1283 Y-0.4586
X0.1148 Y-0.4626
X0.0643 Y-0.4776 F300.
G2 X-0.0558 Y-0.4311 I-0.0332 J0.0926
G1 X-0.083 Y-0.3743
X-0.0974 Y-0.3175
X-0.1043 Y-0.2536
X-0.0991 Y-0.1896
X-0.0819 Y-0.1186
X-0.0349 Y-0.0334
X0.0004 Y0.0071
X0.0643 Y0.0629
X0.0918 Y0.0766
G2 X0.2065 Y0.0627 I0.0478 J-0.086
G1 X0.2698 Y0.0051
X0.2808 Y-0.005 F40.
X0.2957 Y-0.0109
G2 X0.3629 Y-0.0287 I-0.1056 J-0.5343
G1 X0.37 Y-0.0321
G3 X0.438 Y-0.0492 I0.0896 J0.2125
X0.5626 Y-0.0562 I0.1193 J1.0168
X0.808 Y-0.0572 I0.2311 J26.5497
G1 X0.8214 Y-0.0561
X0.8343 Y-0.0522
X0.8462 Y-0.0457
G2 X0.9101 Y-0.0177 I0.2873 J-0.568
G1 X0.9131 Y-0.0161
X0.9158 Y-0.0139
X0.9181 Y-0.0113
X0.9198 Y-0.0084
X0.921 Y-0.0052
X0.9215 Y-0.0018
X0.9214 Y0.0017
X0.9207 Y0.005
X0.9195 Y0.0082
G3 X0.903 Y0.0183 I-0.0166 J-0.0087 F300.
G1 X0.4126 Y0.0823
G3 X0.3486 Y-0.0097 I-0.0096 J-0.0616
G1 X0.37 Y-0.0321 F40.
G2 X0.4055 Y-0.0548 I-0.2686 J-0.4612
G3 X0.4817 Y-0.0821 I0.1017 J0.1636
X0.598 Y-0.0925 I0.1198 J0.6799
X0.7645 Y-0.0944 I0.1431 J5.4699
X0.8099 Y-0.0762 I-0.0015 J0.0693
G2 X0.8461 Y-0.0457 I0.1744 J-0.1706
G1 X0.8488 Y-0.0435
X0.851 Y-0.0409
X0.8526 Y-0.0379
X0.8538 Y-0.0347
X0.8543 Y-0.0313
X0.8541 Y-0.0279
X0.8534 Y-0.0245
X0.8521 Y-0.0214
X0.8502 Y-0.0185
G3 X0.8359 Y-0.0115 I-0.0146 J-0.0118 F300.
G1 X0.4032 Y-0.0042
G3 X0.3859 Y-0.0308 I-0.0003 J-0.0187
G1 X0.386 Y-0.0311
G3 X0.4055 Y-0.0547 I0.0563 J0.0266 F40.
G2 X0.434 Y-0.0765 I-0.0751 J-0.1277
G3 X0.4802 Y-0.105 I0.078 J0.0747
X0.5662 Y-0.1241 I0.1162 J0.3203
X0.7339 Y-0.1307 I0.1382 J1.3825
X0.7822 Y-0.1045 I-0.0064 J0.0694
G1 X0.788 Y-0.0973
X0.8024 Y-0.0831
X0.8099 Y-0.0762
G3 X0.809 Y-0.0486 I-0.0132 J0.0133
X0.7966 Y-0.0441 I-0.0123 J-0.0142 F300.
G1 X0.4485 Y-0.0461
G3 X0.438 Y-0.0493 I0.0001 J-0.0187
X0.4339 Y-0.0766 I0.0105 J-0.0155 F40.
G1 X0.441 Y-0.0848
X0.4455 Y-0.0902
X0.4566 Y-0.1044
G3 X0.5099 Y-0.1391 I0.09 J0.0799
X0.5984 Y-0.1601 I0.1235 J0.3237
X0.7063 Y-0.1658 I0.0862 J0.6111
X0.761 Y-0.1395 I-0.0025 J0.0754
G1 X0.7679 Y-0.129
X0.7735 Y-0.1186
X0.7778 Y-0.1115
X0.7822 Y-0.1045
G3 X0.7769 Y-0.0775 I-0.0152 J0.011
X0.7671 Y-0.0747 I-0.0098 J-0.016 F300.
G1 X0.4718
G3 X0.462 Y-0.0774 I0. J-0.0188
X0.4566 Y-0.1044 I0.0098 J-0.016 F40.
G2 X0.4766 Y-0.1316 I-0.2145 J-0.1787
G3 X0.5236 Y-0.1683 I0.085 J0.0602
X0.6159 Y-0.1946 I0.1292 J0.2786
X0.7013 Y-0.1972 I0.051 J0.2772
X0.751 Y-0.1608 I-0.0121 J0.0688
G1 X0.7581 Y-0.147
X0.7619 Y-0.1399
X0.7679 Y-0.129
G3 X0.7581 Y-0.1032 I-0.0168 J0.0083
G1 X0.7558 Y-0.1025 F300.
X0.7533 Y-0.102
X0.7509 Y-0.1019
X0.4932 Y-0.1045
X0.4909 Y-0.1047
X0.4886 Y-0.1051
X0.4864 Y-0.1058
G3 X0.4766 Y-0.1316 I0.007 J-0.0174 F40.
G1 X0.4811 Y-0.1399
X0.4853 Y-0.1509
G3 X0.5229 Y-0.1914 I0.0785 J0.0352
X0.6142 Y-0.2254 I0.1283 J0.2053
X0.6941 Y-0.227 I0.0442 J0.2024
X0.7447 Y-0.1778 I-0.0165 J0.0676
G1 X0.7451 Y-0.1747
Y-0.1716
X0.7445 Y-0.1686
X0.7434 Y-0.1657
X0.7419 Y-0.163
X0.74 Y-0.1606
X0.7377 Y-0.1585
X0.735 Y-0.1569
X0.7322 Y-0.1557
X0.7292 Y-0.155
X0.7288 Y-0.1549 F300.
X0.5054 Y-0.1263
X0.5031 Y-0.1261
X0.5007 Y-0.1263
X0.4984 Y-0.1267
G3 X0.4853 Y-0.1509 I0.0046 J-0.0182 F40.
G1 X0.4891 Y-0.1612
X0.4948 Y-0.1776
G3 X0.5363 Y-0.2242 I0.0866 J0.0353
X0.6768 Y-0.2579 I0.1179 J0.1815
X0.7314 Y-0.2242 I-0.0086 J0.0751
G1 X0.7369 Y-0.2126
X0.7403 Y-0.2002
X0.7421 Y-0.1896
X0.7434 Y-0.1825
X0.7447 Y-0.1778
G3 X0.7292 Y-0.155 I-0.0183 J0.0042
G1 X0.7265 Y-0.1548 F300.
X0.5128 Y-0.1534
X0.5107 Y-0.1535
X0.5086 Y-0.1538
G3 X0.4948 Y-0.1776 I0.004 J-0.0183 F40.
G2 X0.5032 Y-0.205 I-0.3489 J-0.1221
G3 X0.5303 Y-0.2441 I0.072 J0.0209
X0.6798 Y-0.2845 I0.1186 J0.1422
X0.7201 Y-0.2612 I-0.0155 J0.0734
G1 X0.7276 Y-0.2503
X0.733 Y-0.2383
X0.736 Y-0.2254
X0.74 Y-0.2018
X0.7403 Y-0.2002
G3 X0.7228 Y-0.1789 I-0.0186 J0.0025
G1 X0.7213 F300.
X0.5212 Y-0.1829
X0.5205
X0.5197 Y-0.183
G3 X0.5032 Y-0.205 I0.0019 J-0.0187 F40.
G2 X0.5057 Y-0.2237 I-0.0796 J-0.0204
G3 X0.5299 Y-0.2705 I0.0698 J0.0065
X0.6261 Y-0.3149 I0.1127 J0.1175
X0.6939 Y-0.3079 I0.0215 J0.1234
G1 X0.7061 Y-0.2999
G3 X0.7334 Y-0.25 I-0.0444 J0.0567
G1 X0.7351 Y-0.2322
X0.736 Y-0.2254
G3 X0.7177 Y-0.2049 I-0.0187 J0.0018
G1 X0.7174 F300.
X0.5255 Y-0.2046
X0.5244 F40.
G3 X0.5057 Y-0.2237 I0. J-0.0188
G1 X0.5058 Y-0.2251
X0.5059 Y-0.2322
Y-0.2476
G3 X0.527 Y-0.2958 I0.0697 J0.0018
G2 X0.5148 Y-0.3937 I-0.0546 J-0.0429
G1 X0.4888 Y-0.4111
X0.4592 Y-0.4212
X0.4447 Y-0.4243
X0.4359 Y-0.4268
X0.4275 Y-0.4306
X0.4197 Y-0.4356
G3 X0.4121 Y-0.4507 I0.0111 J-0.0151
G1 X0.4166 Y-0.4629
X0.4168 Y-0.4631
X0.4268 Y-0.469 F300.
X0.441 Y-0.4664
X0.5192 Y-0.4161
X0.5974 Y-0.2762
G3 X0.517 Y-0.218 I-0.0418 J0.0268
G1 X0.5163 Y-0.2188
X0.5141 Y-0.2219 F40.
X0.5122 Y-0.2251
X0.5059 Y-0.2476
G2 X0.5046 Y-0.2891 I-0.2747 J-0.012
X0.481 Y-0.3601 I-0.5222 J0.1341
X0.4676 Y-0.3814 I-0.106 J0.0516
G1 X0.4455 Y-0.4098
G2 X0.4054 Y-0.4453 I-0.1056 J0.079
X0.3629 Y-0.4713 I-0.1804 J0.247
X0.3317 Y-0.4806 I-0.095 J0.2612
G1 X0.3288 Y-0.4817
X0.3262 Y-0.4833
X0.3238 Y-0.4853
X0.3218 Y-0.4876
X0.3202 Y-0.4903
X0.319 Y-0.4931
X0.3184 Y-0.4962
X0.3182 Y-0.4992
X0.3186 Y-0.5023
X0.3194 Y-0.5053
X0.3206 Y-0.5083 Z0.3425
X0.3217 Y-0.5113 Z0.3433
X0.3227 Y-0.514 Z0.3447
X0.3237 Y-0.5166 Z0.3466
X0.3245 Y-0.5187 Z0.3489
X0.3252 Y-0.5205 Z0.3516
X0.3256 Y-0.5218 Z0.3545
X0.3259 Y-0.5225 Z0.3577
X0.326 Y-0.5228 Z0.361
G0 Z0.3797
X0.9654 Y-0.5132
G1 Z0.361 F40.
X0.9652 Y-0.513 Z0.3577
X0.9646 Y-0.5124 Z0.3545
X0.9636 Y-0.5115 Z0.3516
X0.9622 Y-0.5102 Z0.3489
X0.9605 Y-0.5086 Z0.3466
X0.9585 Y-0.5068 Z0.3447
X0.9563 Y-0.5048 Z0.3433
X0.954 Y-0.5027 Z0.3425
X0.9516 Y-0.5005 Z0.3422
G3 X0.9244 Y-0.4859 I-0.0421 J-0.0459
G2 X0.8747 Y-0.4676 I0.0527 J0.2197
G3 X0.8108 Y-0.4503 I-0.1005 J-0.2439
G2 X0.7557 Y-0.3914 I0.0133 J0.0676
G1 X0.7536 Y-0.3602
G3 X0.7508 Y-0.3388 I-0.031 J0.0069
X0.7338 Y-0.328 I-0.017 J-0.0079
G1 X0.7246 Y-0.331
X0.7226 Y-0.3317 F300.
X0.7151 Y-0.3459
X0.7253 Y-0.3695
X0.8248 Y-0.5391
X0.8391 Y-0.5484
G3 X0.8957 Y-0.4894 I0.0164 J0.0409
X0.8817 Y-0.472 I-0.0402 J-0.018 F40.
G1 X0.8746 Y-0.4677
G2 X0.839 Y-0.4495 I0.0784 J0.1974
X0.782 Y-0.3956 I0.2817 J0.3548
X0.745 Y-0.3247 I0.4397 J0.275
X0.7333 Y-0.25 I0.6103 J0.1332
G1 X0.7326 Y-0.2467
X0.7313 Y-0.2435
X0.7294 Y-0.2407
X0.727 Y-0.2382
X0.7242 Y-0.2362
X0.7211 Y-0.2348
X0.7178 Y-0.2339
X0.7144 Y-0.2337
X0.711 Y-0.2341
G3 X0.6971 Y-0.2464 I0.0039 J-0.0183 F300.
G1 X0.6494 Y-0.3743
X0.647 Y-0.3956
G3 X0.665 Y-0.4524 I0.0984 J-0.0001
G1 X0.704 Y-0.5033
X0.7694 Y-0.559
X0.8536 Y-0.6016
X1.2087 Y-0.7597
X1.493 Y-0.806
X2.4312 Y-0.7603
X2.722 Y-0.6939
G3 X2.7652 Y-0.6727 I-0.0205 J0.0963
G1 X2.7653 Y-0.6726
G3 X2.7352 Y-0.5051 I-0.0638 J0.075
X2.705 Y-0.4993 I-0.0337 J-0.0925 F40.
X2.6588 Y-0.5062 I-0.006 J-0.1173
G1 X2.6289 Y-0.5155
G2 X2.4456 Y-0.5524 I-0.21 J0.5694
X2.2266 Y-0.5553 I-0.1745 J4.8269
G1 X2.1014 Y-0.5555
X1.8824
G2 X1.7573 Y-0.5508 I0.0021 J1.7306
G1 X1.7263 Y-0.5467
X1.6957 Y-0.5401
X1.6659 Y-0.5307
X1.6371 Y-0.5184
X1.6096 Y-0.5034
X1.5839 Y-0.4856
X1.56 Y-0.4654
X1.5384 Y-0.4428
X1.5193 Y-0.418
X1.503 Y-0.3913
X1.4895 Y-0.363
X1.4791 Y-0.3335
X1.4718 Y-0.3031
X1.4678 Y-0.272
X1.4672 Y-0.2407
X1.4699 Y-0.2096
X1.4758 Y-0.1788
X1.4849 Y-0.1489
X1.4971 Y-0.1201
X1.5124 Y-0.0928
X1.5305 Y-0.0672
X1.5512 Y-0.0437
X1.5742 Y-0.0225
X1.5993 Y-0.0039
X1.6262 Y0.012
X1.6548 Y0.0249
G2 X1.7768 Y0.0508 I0.1473 J-0.395
G1 X1.808 Y0.0527
X1.8393 Y0.0539
X1.8706 Y0.0545
G2 X2.1835 Y0.0555 I0.2228 J-22.1107
G1 X2.3713
X2.4025 Y0.0543
X2.4338 Y0.0533
X2.4651 Y0.0517
G2 X2.5863 Y0.023 I-0.0214 J-0.3595
G1 X2.6142 Y0.0089
X2.6407 Y-0.0078
X2.6652 Y-0.0272
X2.6876 Y-0.0491
X2.7075 Y-0.0732
X2.7248 Y-0.0993
X2.7393 Y-0.127
X2.7509 Y-0.1561
X2.7592 Y-0.1863
X2.7643 Y-0.2172
X2.7661 Y-0.2484
X2.7646 Y-0.2797
X2.7599 Y-0.3106
X2.7518 Y-0.3408
X2.7406 Y-0.37
X2.726 Y-0.3977
X2.705 Y-0.4209
X2.6803 Y-0.4402
G2 X2.5666 Y-0.4913 I-0.2229 J0.3442
X2.4434 Y-0.5121 I-0.1593 J0.567
X2.2245 Y-0.5175 I-0.183 J2.9615
G1 X2.1619 Y-0.5179
X2.0367 Y-0.518
X2.0054
G2 X1.7864 Y-0.5141 I-0.0511 J3.3072
G1 X1.7554 Y-0.5101
X1.7247 Y-0.504
X1.6947 Y-0.4951
X1.6657 Y-0.4834
X1.6381 Y-0.4686
X1.6123 Y-0.4509
X1.5888 Y-0.4302
X1.568 Y-0.4069
X1.5501 Y-0.3812
X1.5355 Y-0.3535
X1.5244 Y-0.3243
X1.5171 Y-0.2938
X1.5136 Y-0.2627
X1.514 Y-0.2314
X1.5183 Y-0.2004
X1.5264 Y-0.1702
X1.5383 Y-0.1413
X1.5538 Y-0.1141
X1.5725 Y-0.089
X1.5942 Y-0.0664
X1.6185 Y-0.0468
X1.6451 Y-0.0303
X1.6734 Y-0.0168
X1.7029 Y-0.0064
G2 X1.8262 Y0.0132 I0.1477 J-0.5324
X2.0452 Y0.0176 I0.1795 J-3.4443
X2.3894 Y0.017 I0.1449 J-14.168
G1 X2.4207 Y0.0156
X2.4519 Y0.0133
X2.4829 Y0.0091
X2.5135 Y0.0026
X2.5434 Y-0.0066
X2.5722 Y-0.0188
X2.5995 Y-0.0341
X2.6249 Y-0.0524
X2.648 Y-0.0735
X2.6684 Y-0.0972
X2.6858 Y-0.1233
X2.6998 Y-0.1512
X2.7102 Y-0.1807
X2.7169 Y-0.2113
X2.7199 Y-0.2425
X2.7188 Y-0.2737
X2.7137 Y-0.3046
X2.7032 Y-0.3341
X2.687 Y-0.3609
X2.6665 Y-0.3845
X2.6426 Y-0.4047
X2.6164 Y-0.4218
X2.5885 Y-0.4359
G2 X2.468 Y-0.4683 I-0.1743 J0.4083
X2.2807 Y-0.4792 I-0.179 J1.4635
X1.8739 Y-0.4797 I-0.2261 J16.7637
G1 X1.8426 Y-0.4785
X1.8114 Y-0.4765
X1.7803 Y-0.4728
X1.7496 Y-0.4668
X1.7195 Y-0.4581
X1.6906 Y-0.4463
X1.6632 Y-0.431
X1.6381 Y-0.4124
X1.6157 Y-0.3905
X1.5965 Y-0.3658
X1.5813 Y-0.3385
X1.5703 Y-0.3092
X1.5638 Y-0.2786
X1.5619 Y-0.2473
X1.5649 Y-0.2162
X1.5728 Y-0.1859
X1.5852 Y-0.1572
X1.6018 Y-0.1307
X1.6224 Y-0.1071
X1.6462 Y-0.0868
X1.6726 Y-0.0699
X1.7008 Y-0.0564
X1.7303 Y-0.0459
G2 X1.8535 Y-0.0255 I0.1546 J-0.5489
X2.0724 Y-0.02 I0.1858 J-3.0531
X2.3853 Y-0.0211 I0.1221 J-10.16
G1 X2.4166 Y-0.0232
X2.4477 Y-0.0266
X2.4785 Y-0.032
X2.5087 Y-0.0402
X2.5379 Y-0.0516
X2.5655 Y-0.0662
X2.5911 Y-0.0842
X2.614 Y-0.1056
X2.6337 Y-0.1299
X2.6496 Y-0.1568
X2.6615 Y-0.1858
X2.6687 Y-0.2162
X2.6707 Y-0.2475
X2.6661 Y-0.2784
X2.6551 Y-0.3077
X2.6385 Y-0.3342
X2.6174 Y-0.3573
X2.593 Y-0.3768
X2.5661 Y-0.3929
X2.5375 Y-0.4057
G2 X2.4157 Y-0.433 I-0.1663 J0.4558
X2.2283 Y-0.4418 I-0.1796 J1.8215
X1.8841 Y-0.4419 I-0.1755 J12.4839
G1 X1.8528 Y-0.4403
X1.8216 Y-0.4376
X1.7907 Y-0.433
X1.7602 Y-0.4259
X1.7307 Y-0.4154
X1.7028 Y-0.4013
X1.6772 Y-0.3832
X1.655 Y-0.3612
X1.6368 Y-0.3358
X1.6237 Y-0.3073
X1.6162 Y-0.277
X1.6149 Y-0.2457
X1.62 Y-0.2148
X1.6311 Y-0.1856
X1.6477 Y-0.159
X1.6689 Y-0.136
X1.6936 Y-0.1168
X1.7208 Y-0.1013
X1.7497 Y-0.0892
G2 X1.8721 Y-0.0648 I0.158 J-0.4735
X2.091 Y-0.0577 I0.19 J-2.4658
X2.3726 Y-0.059 I0.1081 J-7.1274
G1 X2.4038 Y-0.0616
X2.4348 Y-0.0657
X2.4654 Y-0.0721
X2.4952 Y-0.0817
X2.5236 Y-0.0949
X2.5498 Y-0.1119
X2.573 Y-0.1329
X2.5923 Y-0.1576
X2.6063 Y-0.1855
X2.613 Y-0.2161
X2.6116 Y-0.2474
X2.6022 Y-0.2772
X2.5862 Y-0.3041
X2.565 Y-0.3272
X2.5402 Y-0.3462
X2.5129 Y-0.3614
X2.4839 Y-0.3732
G2 X2.3613 Y-0.3972 I-0.1603 J0.4945
X2.1425 Y-0.4047 I-0.1944 J2.4716
G1 X2.1112 Y-0.4051
G2 X1.8922 Y-0.4038 I-0.0695 J6.6827
G1 X1.8609 Y-0.4016
X1.8298 Y-0.3981
X1.7991 Y-0.3921
X1.7693 Y-0.3827
X1.7411 Y-0.3692
X1.7159 Y-0.3506
X1.6954 Y-0.327
X1.6815 Y-0.2989
X1.676 Y-0.2681
X1.6793 Y-0.237
X1.6907 Y-0.2078
X1.7085 Y-0.1821
X1.7312 Y-0.1606
X1.7573 Y-0.1433
X1.7855 Y-0.1299
X1.8151 Y-0.1197
G2 X1.9386 Y-0.1004 I0.1533 J-0.5763
X2.1888 Y-0.095 I0.2056 J-3.7096
X2.3765 Y-0.0985 I0.049 J-2.4021
G1 X2.4075 Y-0.1026
X2.4382 Y-0.109
X2.4679 Y-0.1188
X2.4957 Y-0.1331
X2.5201 Y-0.1528
X2.5283 Y-0.1661
X2.5339 Y-0.1807
X2.5397 Y-0.2114
X2.5348 Y-0.2423
X2.521 Y-0.2705
X2.5009 Y-0.2944
X2.4763 Y-0.3137
X2.4488 Y-0.3287
X2.4196 Y-0.34
G2 X2.2965 Y-0.3613 I-0.1523 J0.513
X2.1402 Y-0.367 I-0.1589 J2.2314
X2.0646 Y-0.3659 I-0.0225 J1.107
X1.8848 Y-0.3611 I0.0143 J3.8745
G1 X1.8537 Y-0.3569
X1.8232 Y-0.3501
X1.8088 Y-0.344
G2 X1.7737 Y-0.2787 I0.0335 J0.06
G1 X1.7758 Y-0.2632
X1.7861 Y-0.2336
X1.8046 Y-0.2084
X1.8284 Y-0.1882
X1.8556 Y-0.1727
X1.8848 Y-0.1613
G2 X2.008 Y-0.141 I0.1454 J-0.4974
X2.3208 Y-0.1375 I0.1964 J-3.6477
G1 X2.352 Y-0.1397
X2.383 Y-0.1438
G2 X2.4216 Y-0.2548 I-0.0144 J-0.0672
G1 X2.4003 Y-0.2778
X2.3725 Y-0.2921
X2.343 Y-0.3027
G2 X2.2196 Y-0.3217 I-0.1472 J0.5449
X2.0476 Y-0.3243 I-0.1147 J1.8657
X1.9537 Y-0.3225 I-0.0005 J2.3463
G1 X1.9503 Y-0.3227
X1.947 Y-0.3236
X1.9439 Y-0.3251
X1.9411 Y-0.3271
X1.9387 Y-0.3296
X1.9369 Y-0.3325
X1.9356 Y-0.3356
X1.9348 Y-0.339
X1.9347 Y-0.3424
G3 X1.9548 Y-0.3599 I0.0187 J0.0012 F300.
G1 X2.2322 Y-0.3396
X2.2335 Y-0.3395 F40.
G3 X2.2508 Y-0.3193 I-0.0014 J0.0187
G1 X2.2485 Y-0.2999
G3 X2.1608 Y-0.2902 I-0.0946 J-0.4581
G1 X2.1318 Y-0.2796 Z0.3439
X1.0878 Y0.1021 Z0.4047 F300.
X1.0168 Y0.1182 Z0.4109
X0.242 Y0.1193 Z0.4678
X0.1852 Y0.1116 Z0.4706
X0.1496 Y0.1003 Z0.4722
X0.0075 Y-0.0018 Z0.4779
G3 X0.009 Y-0.1619 Z0.4797 I0.058 J-0.0795
X0.0359 Y-0.1752 Z0.48 I0.0565 J0.0806 F40.
G1 X0.0366 Y-0.1754
X0.0367
X0.0393 Y-0.1761
X0.0447 Y-0.1734
G3 X0.1018 Y-0.1257 I-0.2769 J0.3897
G1 X0.1261 Y-0.1059
X0.1522 Y-0.0886
X0.1802 Y-0.0746
X0.2097 Y-0.0644
X0.2405 Y-0.0588
X0.2718 Y-0.0578
X0.3028 Y-0.0618
X0.3329 Y-0.0705
X0.3611 Y-0.0841
X0.3869 Y-0.1018
X0.4093 Y-0.1236
X0.428 Y-0.1487
X0.4423 Y-0.1765
X0.452 Y-0.2063
X0.4566 Y-0.2372
X0.4561 Y-0.2685
X0.4505 Y-0.2993
X0.44 Y-0.3288
X0.4247 Y-0.3561
X0.4053 Y-0.3806
X0.382 Y-0.4015
X0.3557 Y-0.4185
X0.3269 Y-0.4308
X0.2965 Y-0.4383
X0.2653 Y-0.4407
X0.2342 Y-0.438
X0.2038 Y-0.4302
X0.1752 Y-0.4176
X0.149 Y-0.4004
X0.126 Y-0.3793
X0.1068 Y-0.3546
X0.0918 Y-0.3271
X0.0815 Y-0.2975
X0.0807 Y-0.2663
X0.0878 Y-0.2358
X0.1008 Y-0.2073
X0.1183 Y-0.1814
X0.1395 Y-0.1583
X0.1639 Y-0.1388
X0.1914 Y-0.1238
X0.2211 Y-0.1139
X0.2521 Y-0.1098
X0.2833 Y-0.1121
X0.3133 Y-0.1208
X0.3408 Y-0.1359
X0.3644 Y-0.1564
X0.3827 Y-0.1818
X0.3948 Y-0.2106
X0.4001 Y-0.2415
X0.3982 Y-0.2727
X0.3891 Y-0.3027
X0.3734 Y-0.3297
X0.3518 Y-0.3524
X0.3256 Y-0.3694
X0.2961 Y-0.38
X0.265 Y-0.3833
X0.234 Y-0.3793
X0.2047 Y-0.3682
X0.1918 Y-0.3593
X0.1806 Y-0.3484
X0.1622 Y-0.3231
X0.1537 Y-0.293
X0.1548 Y-0.2617
X0.1649 Y-0.2321
X0.1832 Y-0.2067
X0.1958 Y-0.1975
X0.2098 Y-0.1905
X0.2249 Y-0.1862
G2 X0.2699 Y-0.1958 I0.0093 J-0.0665
G1 X0.273 Y-0.1972
X0.2763 Y-0.198
X0.2797 Y-0.1982
X0.3003 Y-0.1967
X0.6323 Y-0.1712 F300.
X0.6354
X0.6385 Y-0.1717
X0.6414 Y-0.1728
G3 X0.7095 Y-0.197 I0.1942 J0.4375
X0.7396 Y-0.2042 I0.126 J0.4618 F40.
G1 X0.7411 Y-0.2044
G3 X0.7658 Y-0.1813 I-0.0967 J0.1282
G1 X0.7862 Y-0.1576
X0.8074 Y-0.1345
X0.8301 Y-0.113
X0.8551 Y-0.0942
X0.8823 Y-0.0787
X0.9115 Y-0.0673
X0.9419 Y-0.0603
X0.9732 Y-0.0581
X1.0043 Y-0.0607
X1.0347 Y-0.0683
X1.0635 Y-0.0806
X1.0898 Y-0.0975
X1.1131 Y-0.1183
X1.1327 Y-0.1428
X1.1482 Y-0.17
X1.1588 Y-0.1994
X1.1646 Y-0.2301
X1.1652 Y-0.2614
X1.1609 Y-0.2924
X1.1514 Y-0.3222
X1.1372 Y-0.3501
X1.1186 Y-0.3753
X1.0962 Y-0.3972
X1.0705 Y-0.4149
X1.0423 Y-0.4285
X1.0122 Y-0.437
X0.9811 Y-0.4407
X0.9498 Y-0.439
X0.9192 Y-0.4325
X0.8902 Y-0.4209
X0.8633 Y-0.4048
X0.8396 Y-0.3844
X0.8193 Y-0.3606
X0.8035 Y-0.3336
X0.794 Y-0.3038
X0.7936 Y-0.2725
X0.8002 Y-0.2419
X0.8122 Y-0.213
X0.8285 Y-0.1863
X0.8487 Y-0.1623
X0.8725 Y-0.142
X0.8995 Y-0.1262
X0.9289 Y-0.1155
X0.9598 Y-0.111
X0.9911 Y-0.1128
X1.0212 Y-0.1212
X1.0488 Y-0.1359
X1.0725 Y-0.1564
X1.0909 Y-0.1817
X1.1032 Y-0.2104
X1.1086 Y-0.2413
X1.1068 Y-0.2725
X1.0978 Y-0.3025
X1.0821 Y-0.3296
X1.0606 Y-0.3523
X1.0343 Y-0.3693
X1.0049 Y-0.3799
X0.9738 Y-0.3833
X0.9427 Y-0.3794
X0.9135 Y-0.3683
X0.8887 Y-0.3492
X0.8719 Y-0.3228
X0.8645 Y-0.2924
X0.8662 Y-0.2611
X0.8768 Y-0.2317
X0.8955 Y-0.2066
X0.9084 Y-0.1977
X0.9226 Y-0.1912
X0.9378 Y-0.1875
G2 X0.9755 Y-0.1958 I0.0052 J-0.066
G1 X0.9781 Y-0.1969
X0.9809 Y-0.1976
X0.9838 Y-0.1978
G3 X1.0012 Y-0.1861 I0. J0.0187
G1 X1.0024 Y-0.1831 Z0.4803
X1.0036 Y-0.1802 Z0.4811
X1.0047 Y-0.1774 Z0.4825
X1.0057 Y-0.1749 Z0.4844
X1.0066 Y-0.1728 Z0.4867
X1.0073 Y-0.171 Z0.4894
X1.0078 Y-0.1698 Z0.4923
X1.0081 Y-0.169 Z0.4955
X1.0082 Y-0.1687 Z0.4988
G0 Z1.1
M5
G53 G0 Z0.
(DRILL2)
M9
M1
T51 M6
T102
S5000 M3
G17 G90 G94
G54
M8
G0 X1.7623 Y-0.25
G43 Z1.1 H51
G0 Z0.7
G98 G81 X1.7623 Y-0.25 Z0.1237 R0.68 F25.
X2.4709
G80
G0 Z1.1
(DRILL3)
G0 X0.2662 Y-0.25
Z1.1
Z0.7
G81 X0.2662 Y-0.25 Z0.46 R0.68 F25.
X0.9749
G80
G0 Z1.1
M5
G53 G0 Z0.
(DRILL4)
M9
M1
T102 M6
T32
S5000 M3
G17 G90 G94
G54
M8
G0 X0.9749 Y-0.25
G43 Z1.1 H102
G0 Z0.7
G81 X0.9749 Y-0.25 Z0.1624 R0.68 F15.
X0.2662
G80
G0 Z1.1
M5
G53 G0 Z0.
(2D CONTOUR4)
M9
M1
T32 M6
T12
S5000 M3
G17 G90 G94
G54
G64 P0.0004 Q0.0004
M8
G0 X0.9936 Y-0.5378
G43 Z1.1 H32
G0 Z0.7
G1 Z0.5375 F80.
Z0.361
G19 G3 Y-0.519 Z0.3422 J0.0187 K0. F40.
G1 Y-0.5003
G17 G3 X0.9749 Y-0.4815 I-0.0188 J0.
G2 Y-0.0185 I0. J0.2315
Y-0.4815 I0. J-0.2315
Y-0.0185 I0. J0.2315
Y-0.4815 I0. J-0.2315
G3 X0.9561 Y-0.5003 I0. J-0.0188
G1 Y-0.519
G19 G2 Y-0.5378 Z0.361 J0. K0.0187
G0 Z0.7
X0.2475 Y0.0378
G1 Z0.5375 F80.
Z0.361
G2 Y0.019 Z0.3422 J-0.0187 K0. F40.
G1 Y0.0003
G17 G3 X0.2662 Y-0.0185 I0.0188 J0.
G2 Y-0.4815 I0. J-0.2315
Y-0.0185 I0. J0.2315
Y-0.4815 I0. J-0.2315
Y-0.0185 I0. J0.2315
G3 X0.285 Y0.0003 I0. J0.0187
G1 Y0.019
G19 G3 Y0.0378 Z0.361 J0. K0.0187
G0 Z1.1
X2.4897 Y-0.6362
Z0.7
G1 Z0.5375 F80.
Z0.2428
G3 Y-0.6175 Z0.2241 J0.0187 K0. F40.
G1 Y-0.5987
G17 G3 X2.4709 Y-0.58 I-0.0187 J0.
G1 X1.7623
G2 Y0.08 I0. J0.33
G1 X2.4709
G2 Y-0.58 I0. J-0.33
G1 X1.7623
G2 Y0.08 I0. J0.33
G1 X2.4709
G2 Y-0.58 I0. J-0.33
G3 X2.4522 Y-0.5987 I0. J-0.0188
G1 Y-0.6175
G19 G2 Y-0.6362 Z0.2428 J0. K0.0188
G0 Z0.7
X0.2475 Y0.1362
G1 Z0.5375 F80.
Z0.2428
G2 Y0.1175 Z0.2241 J-0.0187 K0. F40.
G1 Y0.0987
G17 G3 X0.2662 Y0.08 I0.0188 J0.
G1 X0.9749
G2 Y-0.58 I0. J-0.33
G1 X0.2662
G2 Y0.08 I0. J0.33
G1 X0.9749
G2 Y-0.58 I0. J-0.33
G1 X0.2662
G2 Y0.08 I0. J0.33
G3 X0.285 Y0.0987 I0. J0.0187
G1 Y0.1175
G19 G3 Y0.1362 Z0.2428 J0. K0.0188
G0 Z1.1
G17
M5
G53 G0 Z0.
(2D CHAMFER4)
M9
M1
T12 M6
T32
S7500 M3
G17 G90 G94
G54
M8
G0 X0.9749 Y-0.4678
G43 Z1.1 H12
G0 Z0.7
G1 Z0.39 F80.
G2 Y-0.0322 I0. J0.2178 F40.
Y-0.4678 I0. J-0.2178
G0 Z0.7
X0.9933 Y-0.25
G1 Z0.39 F80.
G3 X0.9565 I-0.0184 J0. F40.
X0.9933 I0.0184 J0.
G0 Z0.7
X0.2662 Y-0.0322
G1 Z0.39 F80.
G2 Y-0.4678 I0. J-0.2178 F40.
Y-0.0322 I0. J0.2178
G0 Z0.7
X0.2846 Y-0.25
G1 Z0.39 F80.
G3 X0.2478 I-0.0184 J0. F40.
X0.2846 I0.0184 J0.
G0 Z1.1
X2.4709 Y-0.5662
Z0.7
G1 Z0.2522 F80.
X1.7623 F40.
G2 Y0.0662 I0. J0.3162
G1 X2.4709
G2 Y-0.5662 I0. J-0.3162
G0 Z0.7
X0.2662 Y0.0662
G1 Z0.2522 F80.
X0.9749 F40.
G2 Y-0.5662 I0. J-0.3162
G1 X0.2662
G2 Y0.0662 I0. J0.3162
G0 Z1.1
(2D CONTOUR5)
G0 X2.475 Y-0.2734
Z1.1
Z0.7
G1 Z0.2474 F80.
X2.4752 Y-0.2733 Z0.2437 F4.
X2.4761 Y-0.2731 Z0.2401
X2.4774 Y-0.2727 Z0.2367
X2.4793 Y-0.2722 Z0.2335
X2.4816 Y-0.2715 Z0.2307
X2.4843 Y-0.2708 Z0.2283
X2.4874 Y-0.2699 Z0.2264
X2.4907 Y-0.269 Z0.2249
X2.4942 Y-0.268 Z0.2241
X2.4977 Y-0.267 Z0.2238
X2.5205 Y-0.2607
G3 X2.5368 Y-0.2315 I-0.0064 J0.0227
X2.4051 Y-0.2685 I-0.0659 J-0.0185
X2.5368 Y-0.2315 I0.0659 J0.0185
X2.4051 Y-0.2685 I-0.0659 J-0.0185
X2.5368 Y-0.2315 I0.0659 J0.0185
X2.5077 Y-0.2152 I-0.0227 J-0.0064
G1 X2.485 Y-0.2215
X2.4814 Y-0.2225 Z0.2241
X2.4779 Y-0.2235 Z0.2249
X2.4746 Y-0.2244 Z0.2264
X2.4716 Y-0.2253 Z0.2283
X2.4689 Y-0.226 Z0.2307
X2.4666 Y-0.2267 Z0.2335
X2.4647 Y-0.2272 Z0.2367
X2.4633 Y-0.2276 Z0.2401
X2.4625 Y-0.2278 Z0.2437
X2.4622 Y-0.2279 Z0.2474
G0 Z0.7
X1.7598 Y-0.2736
G1 Z0.2474 F80.
G18 G2 X1.7835 Z0.2238 I0.0236 K0. F4.
G1 X1.8071
G17 G3 X1.8307 Y-0.25 I0. J0.0236
X1.6939 I-0.0684 J0.
X1.8307 I0.0684 J0.
X1.6939 I-0.0684 J0.
X1.8307 I0.0684 J0.
X1.8071 Y-0.2264 I-0.0236 J0.
G1 X1.7835
G18 G3 X1.7598 Z0.2474 I0. K0.0236
G0 Z1.1
G17
(2D CONTOUR5 2)
G0 X2.4839 Y-0.2711
Z1.1
Z0.7
G1 Z0.2474 F80.
X2.4842 Z0.2437 F4.
X2.4851 Y-0.2708 Z0.2401
X2.4864 Y-0.2705 Z0.2367
X2.4883 Y-0.27 Z0.2335
X2.4907 Y-0.2695 Z0.2307
X2.4934 Y-0.2688 Z0.2283
X2.4965 Y-0.268 Z0.2264
X2.4998 Y-0.2672 Z0.2249
X2.5033 Y-0.2664 Z0.2241
X2.5069 Y-0.2655 Z0.2238
X2.5298 Y-0.2598
G3 X2.5471 Y-0.2312 I-0.0057 J0.0229
X2.3948 Y-0.2688 I-0.0761 J-0.0188
X2.5471 Y-0.2312 I0.0761 J0.0188
X2.3948 Y-0.2688 I-0.0761 J-0.0188
X2.5471 Y-0.2312 I0.0761 J0.0188
X2.5185 Y-0.2139 I-0.0229 J-0.0057
G1 X2.4956 Y-0.2196
X2.492 Y-0.2205 Z0.2241
X2.4885 Y-0.2213 Z0.2249
X2.4852 Y-0.2222 Z0.2264
X2.4821 Y-0.2229 Z0.2283
X2.4793 Y-0.2236 Z0.2307
X2.477 Y-0.2242 Z0.2335
X2.4751 Y-0.2246 Z0.2367
X2.4738 Y-0.225 Z0.2401
X2.4729 Y-0.2252 Z0.2437
X2.4726 Y-0.2253 Z0.2474
G0 Z0.7
X1.7698 Y-0.2736
G1 Z0.2474 F80.
G18 G2 X1.7935 Z0.2238 I0.0236 K0. F4.
G1 X1.8171
G17 G3 X1.8407 Y-0.25 I0. J0.0236
X1.6839 I-0.0784 J0.
X1.8407 I0.0784 J0.
X1.6839 I-0.0784 J0.
X1.8407 I0.0784 J0.
X1.8171 Y-0.2264 I-0.0236 J0.
G1 X1.7935
G18 G3 X1.7698 Z0.2474 I0. K0.0236
G0 Z1.1
G17
M5
M9
G53 G0 Z0.
M30
%
