%
(HANDLE, 7X6 OP 1)
(T32 D=0.1875 CR=0. - ZMIN=0.2778 - FLAT END MILL)
(T33 D=0.25 CR=0. - ZMIN=-0.03 - FLAT END MILL)
G90 G94 G17 G91.1
G20
G53 G0 Z0.
(FACE1)
T33 M6
T32
S7500 M3
G17 G90 G94
G54
G64 P0.0004 Q0.0004
M8
G0 X7.1625 Y-5.9084
G43 Z1.4125 H33
G0 Z1.0125
G1 Z0.6478 F80.
G18 G3 X7.1375 Z0.6228 I-0.025 K0. F100.
G1 X7.1
X-0.1
G17 G2 Y-5.6941 I0. J0.1072
G1 X7.1
G3 Y-5.4797 I0. J0.1072
G1 X-0.1
G2 Y-5.2654 I0. J0.1072
G1 X7.1
G3 Y-5.051 I0. J0.1072
G1 X-0.1
G2 Y-4.8367 I0. J0.1072
G1 X7.1
G3 Y-4.6223 I0. J0.1072
G1 X-0.1
G2 Y-4.408 I0. J0.1072
G1 X7.1
G3 Y-4.1936 I0. J0.1072
G1 X-0.1
G2 Y-3.9793 I0. J0.1072
G1 X7.1
G3 Y-3.7649 I0. J0.1072
G1 X-0.1
G2 Y-3.5506 I0. J0.1072
G1 X7.1
G3 Y-3.3362 I0. J0.1072
G1 X-0.1
G2 Y-3.1219 I0. J0.1072
G1 X7.1
G3 Y-2.9075 I0. J0.1072
G1 X-0.1
G2 Y-2.6932 I0. J0.1072
G1 X7.1
G3 Y-2.4788 I0. J0.1072
G1 X-0.1
G2 Y-2.2645 I0. J0.1072
G1 X7.1
G3 Y-2.0501 I0. J0.1072
G1 X-0.1
G2 Y-1.8358 I0. J0.1072
G1 X7.1
G3 Y-1.6214 I0. J0.1072
G1 X-0.1
G2 Y-1.4071 I0. J0.1072
G1 X7.1
G3 Y-1.1927 I0. J0.1072
G1 X-0.1
G2 Y-0.9784 I0. J0.1072
G1 X7.1
G3 Y-0.764 I0. J0.1072
G1 X-0.1
G2 Y-0.5497 I0. J0.1072
G1 X7.1
G3 Y-0.3353 I0. J0.1072
G1 X-0.1
G2 Y-0.1209 I0. J0.1072
G1 X7.1
G18 G2 X7.125 Z0.6478 I0. K0.025
G0 Z1.4125
G17
(2D ADAPTIVE2)
G64 P0.004 Q0.004
G0 X3.545 Y-2.707
Z1.4125
Z1.0125
Z0.9125
G3 X3.4262 Y-2.7918 Z0.8973 I-0.0324 J-0.0802 F40.
X3.5529 Y-2.8634 Z0.8821 I0.0862 J0.0046
X3.5641 Y-2.7187 Z0.8669 I-0.0405 J0.0759
X3.4287 Y-2.7697 Z0.8517 I-0.0515 J-0.0686
X3.5318 Y-2.8705 Z0.8365 I0.0837 J-0.0176
X3.5794 Y-2.7348 Z0.8213 I-0.0194 J0.083
X3.4368 Y-2.7491 Z0.8061 I-0.0668 J-0.0525
X3.5098 Y-2.8719 Z0.7909 I0.0756 J-0.0382
X3.5899 Y-2.7541 Z0.7757 I0.0026 J0.0844
X3.4498 Y-2.7314 Z0.7605 I-0.0773 J-0.0333
X3.4884 Y-2.8676 Z0.7453 I0.0627 J-0.0558
X3.5951 Y-2.7753 Z0.7301 I0.024 J0.0801
X3.4667 Y-2.7178 Z0.7149 I-0.0825 J-0.0122
X3.469 Y-2.858 Z0.6997 I0.0458 J-0.0694
X3.5946 Y-2.7968 Z0.6845 I0.0433 J0.0706
X3.4864 Y-2.7092 Z0.6693 I-0.082 J0.0094
X3.4529 Y-2.8439 Z0.6541 I0.0261 J-0.078
X3.5887 Y-2.8173 Z0.6389 I0.0595 J0.0565
X3.5074 Y-2.7059 Z0.6237 I-0.0761 J0.0299
X3.441 Y-2.8263 Z0.6085 I0.0051 J-0.0813
X3.5778 Y-2.8355 Z0.5933 I0.0713 J0.0389
X3.5284 Y-2.7081 Z0.5781 I-0.0652 J0.048
X3.4342 Y-2.8064 Z0.5629 I-0.0158 J-0.0791
X3.5627 Y-2.85 Z0.5477 I0.0781 J0.0191
X3.5479 Y-2.7156 Z0.5325 I-0.0502 J0.0625
X3.4327 Y-2.7856 Z0.5173 I-0.0353 J-0.0717
X3.5446 Y-2.8601 Z0.5021 I0.0796 J-0.0016
X3.5646 Y-2.7277 Z0.4869 I-0.0321 J0.0726
X3.4366 Y-2.7654 Z0.4717 I-0.052 J-0.0596
X3.5247 Y-2.8651 Z0.4565 I0.0758 J-0.0218
X3.5776 Y-2.7436 Z0.4413 I-0.0122 J0.0776
X3.4455 Y-2.747 Z0.426 I-0.0649 J-0.0438
X3.5043 Y-2.8648 Z0.4108 I0.0669 J-0.0402
X3.5859 Y-2.762 Z0.3956 I0.008 J0.0774
X3.4586 Y-2.7317 Z0.3804 I-0.0733 J-0.0254
X3.485 Y-2.8594 Z0.3652 I0.0538 J-0.0555
X3.5891 Y-2.7818 Z0.35 I0.0274 J0.072
X3.4751 Y-2.7205 Z0.3348 I-0.0765 J-0.0056
X3.4678 Y-2.8493 Z0.3196 I0.0373 J-0.0667
X3.5872 Y-2.8016 Z0.3044 I0.0445 J0.0618
X3.4938 Y-2.7139 Z0.2892 I-0.0746 J0.0141
X3.454 Y-2.8352 Z0.274 I0.0187 J-0.0733
X3.5803 Y-2.82 Z0.2588 I0.0583 J0.0478
X3.5133 Y-2.7124 Z0.2436 I-0.0678 J0.0325
X3.4444 Y-2.8182 Z0.2284 I-0.0008 J-0.0749
X3.569 Y-2.8358 Z0.2132 I0.0679 J0.0309
X3.5324 Y-2.7159 Z0.198 I-0.0565 J0.0483
X3.4395 Y-2.7995 Z0.1828 I-0.0198 J-0.0714
X3.5542 Y-2.8481 Z0.1676 I0.0728 J0.0122
X3.5497 Y-2.7241 Z0.1524 I-0.0417 J0.0606
X3.4397 Y-2.7804 Z0.1372 I-0.0371 J-0.0632
X3.5369 Y-2.856 Z0.122 I0.0727 J-0.0068
X3.5641 Y-2.7363 Z0.1068 I-0.0245 J0.0685
X3.4446 Y-2.7622 Z0.0916 I-0.0515 J-0.051
X3.5184 Y-2.8592 Z0.0764 I0.0678 J-0.025
X3.5748 Y-2.7517 Z0.0612 I-0.006 J0.0717
X3.454 Y-2.7461 Z0.046 I-0.0622 J-0.0356
X3.4999 Y-2.8575 Z0.0308 I0.0584 J-0.0411
X3.5811 Y-2.7692 Z0.0156 I0.0125 J0.07
X3.4671 Y-2.733 Z0.0004 I-0.0685 J-0.0182
X3.4826 Y-2.8512 Z-0.0148 I0.0453 J-0.0542
X3.5827 Y-2.7874 Z-0.03 I0.0298 J0.0638
X3.442 I-0.0704 J0.
X3.5827 I0.0704 J0.
G1 X3.5838 Y-2.7577 F50.
Y-2.7517
X3.5828 Y-2.7458
X3.5811 Y-2.7401
X3.5787 Y-2.7346
X3.5758 Y-2.7293
X3.5724 Y-2.7244
X3.5685 Y-2.7198
X3.5643 Y-2.7155
X3.5597 Y-2.7116
X3.5549 Y-2.7081
X3.5497 Y-2.705
X3.5444 Y-2.7023
X3.5388 Y-2.7
X3.5331 Y-2.6981
X3.5273 Y-2.6966
X3.5214 Y-2.6956
X3.5155 Y-2.6949
X3.5095 Y-2.6947
X3.5035 Y-2.6949
X3.4975 Y-2.6955
X3.4916 Y-2.6964
X3.4857 Y-2.6978
X3.48 Y-2.6996
X3.4744 Y-2.7018
X3.469 Y-2.7043
X3.4637 Y-2.7071
X3.4586 Y-2.7103
X3.4538 Y-2.7139
X3.4492 Y-2.7177
X3.4448 Y-2.7218
X3.4407 Y-2.7262
X3.4369 Y-2.7309
X3.4335 Y-2.7358
X3.4303 Y-2.7409
X3.4275 Y-2.7462
X3.425 Y-2.7516
X3.4229 Y-2.7573
X3.4211 Y-2.763
X3.4197 Y-2.7688
X3.4187 Y-2.7747
X3.4181 Y-2.7807
X3.4178 Y-2.7867
X3.418 Y-2.7927
X3.4185 Y-2.7987
X3.4194 Y-2.8046
X3.4206 Y-2.8105
X3.4223 Y-2.8163
X3.4243 Y-2.8219
X3.4266 Y-2.8274
X3.4293 Y-2.8328
X3.4324 Y-2.838
X3.4357 Y-2.8429
X3.4394 Y-2.8477
X3.4434 Y-2.8522
X3.4476 Y-2.8564
X3.4521 Y-2.8604
X3.4569 Y-2.8641
X3.4618 Y-2.8674
X3.467 Y-2.8705
X3.4724 Y-2.8732
X3.4779 Y-2.8755
X3.4835 Y-2.8776
X3.4893 Y-2.8792
X3.4952 Y-2.8805
X3.5011 Y-2.8814
X3.5071 Y-2.8819
X3.5131 Y-2.8821
X3.5191 Y-2.8818
X3.525 Y-2.8812
X3.5309 Y-2.8802
X3.5368 Y-2.8788
X3.5425 Y-2.8771
X3.5482 Y-2.875
X3.5536 Y-2.8726
X3.5589 Y-2.8698
X3.5641 Y-2.8667
X3.569 Y-2.8632
X3.5737 Y-2.8595
X3.5781 Y-2.8555
X3.5823 Y-2.8511
X3.5862 Y-2.8466
X3.5898 Y-2.8418
X3.5931 Y-2.8368
X3.5961 Y-2.8316
X3.5993 Y-2.8251
X3.6025 Y-2.818
X3.6053 Y-2.8109
X3.6073 Y-2.8048
X3.6077 Y-2.8036
X3.6102 Y-2.7917
X3.6111 Y-2.7796
X3.6104 Y-2.7674
X3.6102 Y-2.7657
X3.6092 Y-2.7616
X3.6077 Y-2.7575
X3.6027 Y-2.7443
X3.6013 Y-2.741
X3.5959 Y-2.7328
X3.5903 Y-2.7246
X3.5885 Y-2.7221
X3.5863 Y-2.7196
X3.5827 Y-2.7164
X3.5734 Y-2.7081
X3.5699 Y-2.7052
X3.5616 Y-2.7006
X3.5534 Y-2.6963
X3.5493 Y-2.6942
X3.5452 Y-2.6928
X3.5288 Y-2.6887
X3.5247 Y-2.6879
X3.5205 Y-2.6877
X3.5041
X3.5 Y-2.688
X3.4959 Y-2.6889
X3.4795 Y-2.693
X3.4753 Y-2.6945
X3.463 Y-2.7009
X3.4548 Y-2.7056
X3.4518 Y-2.7081
X3.4426 Y-2.7164
X3.4384 Y-2.7202
X3.435 Y-2.7246
X3.4293 Y-2.7328
X3.4239 Y-2.741
X3.4219 Y-2.7458
X3.4175 Y-2.7575
X3.416 Y-2.7616
X3.415 Y-2.7657
X3.413 Y-2.7821
X3.4126 Y-2.7862
X3.4128 Y-2.7904
X3.4148 Y-2.8068
X3.4154 Y-2.8109
X3.4167 Y-2.815
X3.423 Y-2.8315
X3.4239 Y-2.8335
X3.4251 Y-2.8356
X3.4336 Y-2.8479
X3.4384 Y-2.8543
X3.4403 Y-2.8561
X3.4496 Y-2.8643
X3.4548 Y-2.8689
X3.4611 Y-2.8726
X3.4712 Y-2.8779
X3.4772 Y-2.8808
X3.4795 Y-2.8815
X3.4959 Y-2.8856
X3.5 Y-2.8865
X3.5041 Y-2.8867
X3.5205
X3.5247 Y-2.8865
X3.5288 Y-2.8857
X3.5452 Y-2.8817
X3.548 Y-2.8808
X3.5534 Y-2.8782
X3.5641 Y-2.8726
X3.5699 Y-2.8693
X3.5756 Y-2.8643
X3.5849 Y-2.8561
X3.5863 Y-2.8548
X3.5916 Y-2.8479
X3.6001 Y-2.8356
X3.6013 Y-2.8335
X3.6022 Y-2.8315
X3.6085 Y-2.815
X3.6098 Y-2.8109
X3.6105 Y-2.8068
X3.6125 Y-2.7904
X3.6126 Y-2.7862
X3.6122 Y-2.7821
X3.6104 Y-2.7674
G3 X3.5901 Y-2.7467 I-0.0247 J-0.004
G1 X3.5862 Y-2.746 Z-0.0297
X3.5825 Y-2.7454 Z-0.0288
X3.5789 Y-2.7448 Z-0.0273
X3.5756 Y-2.7442 Z-0.0252
X3.5727 Y-2.7437 Z-0.0227
X3.5702 Y-2.7432 Z-0.0197
X3.5682 Y-2.7428 Z-0.0163
X3.5667 Y-2.7426 Z-0.0127
X3.5658 Y-2.7424 Z-0.0089
X3.5655 Z-0.005
G0 Z1.4125
(2D CONTOUR4)
S5000 M3
G64 P0.0004 Q0.0004
G0 X3.5488 Y-2.8122
Z1.4125
Z1.0125
G1 Z0.8519 F80.
Z-0.005
G18 G2 X3.5738 Z-0.03 I0.025 K0. F50.
G1 X3.5988
G17 G3 X3.6238 Y-2.7872 I0. J0.025
X3.4014 I-0.1112 J0.
X3.6238 I0.1112 J0.
X3.4014 I-0.1112 J0.
X3.6238 I0.1112 J0.
X3.5988 Y-2.7622 I-0.025 J0.
G1 X3.5738
G18 G3 X3.5488 Z-0.005 I0. K0.025
G0 Z1.4125
G17
(2D CONTOUR1)
S7500 M3
G0 X7.102 Y-1.3872
Z1.4125
Z1.0125
G1 Z0.3978 F80.
X7.1017 Y-1.3871 Z0.3939 F50.
X7.1009 Y-1.3869 Z0.3901
X7.0994 Y-1.3866 Z0.3864
X7.0974 Y-1.3861 Z0.3831
X7.0949 Y-1.3856 Z0.3801
X7.092 Y-1.3849 Z0.3776
X7.0887 Y-1.3842 Z0.3755
X7.0852 Y-1.3834 Z0.374
X7.0815 Y-1.3826 Z0.3731
X7.0777 Y-1.3817 Z0.3728
X7.0533 Y-1.3762
G3 X7.0234 Y-1.3951 I-0.0055 J-0.0244
G1 X7.0229 Y-1.3974
G2 X7.0182 Y-1.4137 I-0.1415 J0.0319
G1 X7.0158 Y-1.4203
G2 X7.0094 Y-1.4357 I-0.1367 J0.0482
G1 X7.0063 Y-1.442
G2 X6.9975 Y-1.4575 I-0.1303 J0.0636
G1 X6.9937 Y-1.4634
G2 X6.9839 Y-1.4767 I-0.1215 J0.0791
G1 X6.9794 Y-1.4821
G2 X6.9675 Y-1.4949 I-0.1117 J0.0925
G1 X6.9624 Y-1.4997
G2 X6.948 Y-1.5117 I-0.0997 J0.1053
G1 X6.9414 Y-1.5165
G2 X6.9251 Y-1.5267 I-0.0853 J0.1173
G1 X6.9181 Y-1.5305
G2 X6.8997 Y-1.5389 I-0.0691 J0.1275
G1 X6.8922 Y-1.5417
G2 X6.8732 Y-1.5473 I-0.0507 J0.1358
G1 X6.8653 Y-1.5491
G2 X6.8458 Y-1.5521 I-0.0318 J0.1415
G1 X6.8378 Y-1.5528
G2 X6.8181 Y-1.5531 I-0.0123 J0.1445
G1 X6.8101 Y-1.5527
G2 X6.7903 Y-1.5503 I0.0075 J0.1448
G1 X6.7824 Y-1.5488
G2 X6.7635 Y-1.5438 I0.0272 J0.1424
G1 X6.7558 Y-1.5413
X6.7477 Y-1.5383
G3 X6.4528 Y-1.4583 I-0.4378 J-1.0303
X6.2886 Y-1.4596 I-0.0766 J-0.6904
X6.1377 Y-1.5132 I0.0561 J-0.3973
X5.9822 Y-1.6912 I0.2322 J-0.3596
X5.9258 Y-1.9135 I0.5031 J-0.2461
X5.9394 Y-2.1129 I0.7814 J-0.0469
X5.9979 Y-2.3327 I1.4986 J0.2814
X6.0738 Y-2.5519 I15.1238 J5.114
G2 X6.1525 Y-2.8347 I-2.1411 J-0.7481
X6.1811 Y-3.27 I-1.7183 J-0.3315
X6.1523 Y-3.5742 I-3.1126 J0.1418
X6.091 Y-3.9655 I-12.1417 J1.7008
G3 X6.0473 Y-4.2807 I5.9626 J-0.9872
X6.0374 Y-4.5097 I1.908 J-0.1968
X6.0611 Y-4.6938 I0.8879 J0.0205
X6.1912 Y-4.9425 I0.5932 J0.1518
X6.385 Y-5.1274 I0.9396 J0.7909
X6.6018 Y-5.2656 I0.6992 J0.8578
X6.7089 Y-5.301 I0.2182 J0.4808
G1 X6.7175 Y-5.303
X6.7267 Y-5.3056
G2 X6.7487 Y-5.3138 I-0.0395 J-0.1395
G1 X6.7573 Y-5.3178
G2 X6.7775 Y-5.3293 I-0.0615 J-0.1313
G1 X6.7854 Y-5.3347
G2 X6.8036 Y-5.3493 I-0.0817 J-0.1198
G1 X6.8105 Y-5.3559
G2 X6.8263 Y-5.3736 I-0.0998 J-0.1052
G1 X6.8321 Y-5.3812
G2 X6.8447 Y-5.401 I-0.1156 J-0.0875
G1 X6.8491 Y-5.4094
G2 X6.8584 Y-5.4311 I-0.1282 J-0.0677
G1 X6.8614 Y-5.4401
G2 X6.8669 Y-5.4622 I-0.1375 J-0.046
G1 X6.8685 Y-5.4717
G2 X6.87 Y-5.4837 I-0.143 J-0.0239
G1 X6.8737 Y-5.5289
X6.8741 Y-5.5359
X6.8743 Y-5.5419
G2 X6.874 Y-5.5572 I-0.1449 J-0.0048
G1 X6.8736 Y-5.5631
G2 X6.8718 Y-5.5776 I-0.1446 J0.0105
G1 X6.8708 Y-5.5835
G2 X6.8676 Y-5.5975 I-0.1428 J0.0249
G1 X6.866 Y-5.6033
G2 X6.8614 Y-5.617 I-0.1397 J0.039
G1 X6.8593 Y-5.6226
G2 X6.8533 Y-5.6359 I-0.1351 J0.0527
G1 X6.8506 Y-5.6412
G2 X6.8428 Y-5.6545 I-0.1291 J0.066
G1 X6.8396 Y-5.6595
G2 X6.8311 Y-5.6711 I-0.1214 J0.0793
G1 X6.8274 Y-5.6758
G2 X6.8179 Y-5.6864 I-0.1129 J0.0909
G1 X6.8138 Y-5.6907
G2 X6.8028 Y-5.7007 I-0.1035 J0.1016
G1 X6.7982 Y-5.7045
G2 X6.7861 Y-5.7136 I-0.0925 J0.1116
G1 X6.7811 Y-5.7169
G2 X6.7686 Y-5.7243 I-0.0804 J0.1206
G1 X6.7633 Y-5.7271
G2 X6.7509 Y-5.733 I-0.0679 J0.1281
G1 X6.7454 Y-5.7353
G2 X6.7309 Y-5.7404 I-0.0555 J0.134
G1 X6.7251 Y-5.7421
G2 X6.7111 Y-5.7455 I-0.041 J0.1391
G1 X6.7053 Y-5.7466
G2 X6.6898 Y-5.7486 I-0.027 J0.1425
G1 X6.6838 Y-5.7491
X6.6769 Y-5.7495
G2 X5.7856 Y-5.7062 I-0.1928 J5.2281
X5.1272 Y-5.5604 I0.5914 J4.2285
X4.295 Y-5.1963 I1.2565 J4.0052
X3.643 Y-4.7618 I2.6885 J4.7408
G1 X3.6136 Y-4.7396
X3.608 Y-4.7351
X3.6041 Y-4.7318
G2 X3.5951 Y-4.7233 I0.0941 J0.1103
G1 X3.5914 Y-4.7197
G2 X3.5829 Y-4.7102 I0.1031 J0.1019
G1 X3.5796 Y-4.7062
G2 X3.5722 Y-4.6966 I0.1117 J0.0925
G1 X3.5693 Y-4.6923
G2 X3.5623 Y-4.6811 I0.119 J0.0828
G1 X3.5597 Y-4.6766
G2 X3.5543 Y-4.6661 I0.1261 J0.0716
G1 X3.5521 Y-4.6614
G2 X3.5471 Y-4.6492 I0.1316 J0.061
G1 X3.5454 Y-4.6443
G2 X3.5417 Y-4.6325 I0.1366 J0.0487
G1 X3.5404 Y-4.6276
G2 X3.5377 Y-4.6151 I0.1402 J0.0369
G1 X3.5368 Y-4.61
G2 X3.5353 Y-4.5977 I0.1429 J0.0245
G1 X3.5348 Y-4.5925
G2 X3.5343 Y-4.5799 I0.1445 J0.0121
G1 Y-4.5748
G2 X3.5349 Y-4.5621 I0.145 J-0.0006
G1 X3.5354 Y-4.557
G2 X3.5371 Y-4.5446 I0.1444 J-0.0132
G1 X3.538 Y-4.5395
G2 X3.5408 Y-4.5272 I0.1427 J-0.0256
G1 X3.5421 Y-4.5222
G2 X3.5459 Y-4.5104 I0.1399 J-0.038
G1 X3.5477 Y-4.5055
G2 X3.5526 Y-4.4937 I0.1362 J-0.0498
G1 X3.5548 Y-4.4891
G2 X3.5605 Y-4.4781 I0.1313 J-0.0616
G1 X3.5631 Y-4.4736
G2 X3.5699 Y-4.463 I0.1255 J-0.0726
G1 X3.5728 Y-4.4588
G2 X3.5806 Y-4.4487 I0.1187 J-0.0832
G1 X3.5839 Y-4.4447
G2 X3.5926 Y-4.4354 I0.1109 J-0.0934
G1 X3.5962 Y-4.4317
G2 X3.6058 Y-4.423 I0.1023 J-0.1028
G1 X3.6098 Y-4.4197
G2 X3.6192 Y-4.4125 I0.0927 J-0.1115
G1 X3.6234 Y-4.4096
G2 X3.6344 Y-4.4026 I0.0833 J-0.1187
G1 X3.6388 Y-4.4
G2 X3.65 Y-4.3942 I0.0723 J-0.1257
G1 X3.6547 Y-4.392
G2 X3.6658 Y-4.3874 I0.061 J-0.1315
G1 X3.6706 Y-4.3857
G2 X3.6827 Y-4.3818 I0.05 J-0.1361
G1 X3.6877 Y-4.3805
G2 X3.7011 Y-4.3775 I0.0378 J-0.14
G1 X3.7061 Y-4.3766
G2 X3.7173 Y-4.3752 I0.0245 J-0.1429
G1 X3.7224 Y-4.3747
G2 X3.7357 Y-4.3741 I0.0133 J-0.1444
G1 X3.7409
G2 X3.7531 Y-4.3746 I0. J-0.145
G1 X3.7582 Y-4.375
G2 X3.7715 Y-4.3768 I-0.0122 J-0.1445
G1 X3.7766 Y-4.3777
G2 X3.7877 Y-4.3801 I-0.0256 J-0.1427
G3 X3.9782 Y-4.4076 I0.1774 J0.5559
X4.1251 Y-4.3804 I-0.0058 J0.441
X4.2628 Y-4.2661 I-0.1123 J0.2755
X4.3353 Y-4.1109 I-0.4734 J0.3156
X4.3812 Y-3.9153 I-1.1922 J0.3826
X4.4171 Y-3.6011 I-3.3244 J0.5398
X4.4297 Y-3.083 I-4.2751 J0.3627
X4.362 Y-2.6227 I-2.2956 J-0.1023
X4.2604 Y-2.3374 I-1.6438 J-0.425
X3.9413 Y-1.9288 I-1.0317 J-0.4766
X3.7892 Y-1.8161 I-1.0641 J-1.2782
G1 X3.7825 Y-1.8113
X3.7761 Y-1.8061
X3.77 Y-1.8005
X3.7642 Y-1.7946
X3.7588 Y-1.7884
X3.5659 Y-1.5544
G2 X3.5336 Y-1.4467 I0.1119 J0.0922
G1 X3.547 Y-1.322
X3.6314 Y-0.5356
G2 X3.6584 Y-0.4656 I0.1442 J-0.0155
G1 X3.7109 Y-0.3936
X3.7817 Y-0.2964
G2 X3.978 Y-0.2603 I0.1172 J-0.0854
G3 X4.443 Y-0.5262 I2.2893 J3.4641
X4.8058 Y-0.6684 I1.1579 J2.4203
X5.2908 Y-0.7527 I0.6029 J2.0316
G1 X5.3247 Y-0.7551
G3 X5.6025 Y-0.7659 I0.6365 J12.7932
G2 X5.9402 Y-0.794 I-0.0989 J-3.2376
X6.5328 Y-0.9666 I-0.334 J-2.2498
X6.93 Y-1.1749 I-1.2469 J-2.861
G1 X6.938 Y-1.1796
X6.9438 Y-1.1836
G2 X6.9572 Y-1.1941 I-0.0827 J-0.1191
G1 X6.9624 Y-1.1988
G2 X6.9747 Y-1.211 I-0.096 J-0.1086
G1 X6.9793 Y-1.2163
G2 X6.9898 Y-1.2295 I-0.1084 J-0.0964
G1 X6.9938 Y-1.2352
G2 X7.0028 Y-1.2498 I-0.1188 J-0.0831
G1 X7.0061 Y-1.256
G2 X7.0135 Y-1.2722 I-0.1278 J-0.0685
G1 X7.0161 Y-1.2787
G2 X7.0211 Y-1.2944 I-0.1352 J-0.0523
G1 X7.0229 Y-1.3011
G2 X7.0263 Y-1.3182 I-0.1403 J-0.0367
G1 X7.0272 Y-1.3251
G2 X7.0285 Y-1.3423 I-0.1437 J-0.0196
G1 X7.0286 Y-1.3493
G2 X7.0279 Y-1.3664 I-0.145 J-0.0025
G1 X7.0272 Y-1.3734
G2 X7.0244 Y-1.3906 I-0.1443 J0.0147
G1 X7.0229 Y-1.3974
G2 X7.0182 Y-1.4137 I-0.1415 J0.0319
G1 X7.0158 Y-1.4203
G2 X7.0094 Y-1.4357 I-0.1367 J0.0482
G1 X7.0063 Y-1.442
G2 X6.9975 Y-1.4575 I-0.1303 J0.0636
G1 X6.9937 Y-1.4634
G2 X6.9839 Y-1.4767 I-0.1215 J0.0791
G1 X6.9794 Y-1.4821
G2 X6.9675 Y-1.4949 I-0.1117 J0.0925
G1 X6.9624 Y-1.4997
G2 X6.948 Y-1.5117 I-0.0997 J0.1053
G1 X6.9414 Y-1.5165
G2 X6.9251 Y-1.5267 I-0.0853 J0.1173
G1 X6.9181 Y-1.5305
G2 X6.8997 Y-1.5389 I-0.0691 J0.1275
G1 X6.8922 Y-1.5417
G2 X6.8732 Y-1.5473 I-0.0507 J0.1358
G1 X6.8653 Y-1.5491
G2 X6.8458 Y-1.5521 I-0.0318 J0.1415
G1 X6.8378 Y-1.5528
G2 X6.8181 Y-1.5531 I-0.0123 J0.1445
G1 X6.8101 Y-1.5527
G2 X6.7903 Y-1.5503 I0.0075 J0.1448
G1 X6.7824 Y-1.5488
G2 X6.7635 Y-1.5438 I0.0272 J0.1424
G1 X6.7558 Y-1.5413
X6.7477 Y-1.5383
G3 X6.4528 Y-1.4583 I-0.4378 J-1.0303
X6.2886 Y-1.4596 I-0.0766 J-0.6904
X6.1377 Y-1.5132 I0.0561 J-0.3973
X5.9822 Y-1.6912 I0.2322 J-0.3596
X5.9258 Y-1.9135 I0.5031 J-0.2461
X5.9394 Y-2.1129 I0.7814 J-0.0469
X5.9979 Y-2.3327 I1.4986 J0.2814
X6.0738 Y-2.5519 I15.1238 J5.114
G2 X6.1525 Y-2.8347 I-2.1411 J-0.7481
X6.1811 Y-3.27 I-1.7183 J-0.3315
X6.1523 Y-3.5742 I-3.1126 J0.1418
X6.091 Y-3.9655 I-12.1417 J1.7008
G3 X6.0473 Y-4.2807 I5.9626 J-0.9872
X6.0374 Y-4.5097 I1.908 J-0.1968
X6.0611 Y-4.6938 I0.8879 J0.0205
X6.1912 Y-4.9425 I0.5932 J0.1518
X6.385 Y-5.1274 I0.9396 J0.7909
X6.6018 Y-5.2656 I0.6992 J0.8578
X6.7089 Y-5.301 I0.2182 J0.4808
G1 X6.7175 Y-5.303
X6.7267 Y-5.3056
G2 X6.7487 Y-5.3138 I-0.0395 J-0.1395
G1 X6.7573 Y-5.3178
G2 X6.7775 Y-5.3293 I-0.0615 J-0.1313
G1 X6.7854 Y-5.3347
G2 X6.8036 Y-5.3493 I-0.0817 J-0.1198
G1 X6.8105 Y-5.3559
G2 X6.8263 Y-5.3736 I-0.0998 J-0.1052
G1 X6.8321 Y-5.3812
G2 X6.8447 Y-5.401 I-0.1156 J-0.0875
G1 X6.8491 Y-5.4094
G2 X6.8584 Y-5.4311 I-0.1282 J-0.0677
G1 X6.8614 Y-5.4401
G2 X6.8669 Y-5.4622 I-0.1375 J-0.046
G1 X6.8685 Y-5.4717
G2 X6.87 Y-5.4837 I-0.143 J-0.0239
G1 X6.8737 Y-5.5289
X6.8741 Y-5.5359
X6.8743 Y-5.5419
G2 X6.874 Y-5.5572 I-0.1449 J-0.0048
G1 X6.8736 Y-5.5631
G2 X6.8718 Y-5.5776 I-0.1446 J0.0105
G1 X6.8708 Y-5.5835
G2 X6.8676 Y-5.5975 I-0.1428 J0.0249
G1 X6.866 Y-5.6033
G2 X6.8614 Y-5.617 I-0.1397 J0.039
G1 X6.8593 Y-5.6226
G2 X6.8533 Y-5.6359 I-0.1351 J0.0527
G1 X6.8506 Y-5.6412
G2 X6.8428 Y-5.6545 I-0.1291 J0.066
G1 X6.8396 Y-5.6595
G2 X6.8311 Y-5.6711 I-0.1214 J0.0793
G1 X6.8274 Y-5.6758
G2 X6.8179 Y-5.6864 I-0.1129 J0.0909
G1 X6.8138 Y-5.6907
G2 X6.8028 Y-5.7007 I-0.1035 J0.1016
G1 X6.7982 Y-5.7045
G2 X6.7861 Y-5.7136 I-0.0925 J0.1116
G1 X6.7811 Y-5.7169
G2 X6.7686 Y-5.7243 I-0.0804 J0.1206
G1 X6.7633 Y-5.7271
G2 X6.7509 Y-5.733 I-0.0679 J0.1281
G1 X6.7454 Y-5.7353
G2 X6.7309 Y-5.7404 I-0.0555 J0.134
G1 X6.7251 Y-5.7421
G2 X6.7111 Y-5.7455 I-0.041 J0.1391
G1 X6.7053 Y-5.7466
G2 X6.6898 Y-5.7486 I-0.027 J0.1425
G1 X6.6838 Y-5.7491
X6.6769 Y-5.7495
G2 X5.7856 Y-5.7062 I-0.1928 J5.2281
X5.1272 Y-5.5604 I0.5914 J4.2285
X4.295 Y-5.1963 I1.2565 J4.0052
X3.643 Y-4.7618 I2.6885 J4.7408
G1 X3.6136 Y-4.7396
X3.608 Y-4.7351
X3.6041 Y-4.7318
G2 X3.5951 Y-4.7233 I0.0941 J0.1103
G1 X3.5914 Y-4.7197
G2 X3.5829 Y-4.7102 I0.1031 J0.1019
G1 X3.5796 Y-4.7062
G2 X3.5722 Y-4.6966 I0.1117 J0.0925
G1 X3.5693 Y-4.6923
G2 X3.5623 Y-4.6811 I0.119 J0.0828
G1 X3.5597 Y-4.6766
G2 X3.5543 Y-4.6661 I0.1261 J0.0716
G1 X3.5521 Y-4.6614
G2 X3.5471 Y-4.6492 I0.1316 J0.061
G1 X3.5454 Y-4.6443
G2 X3.5417 Y-4.6325 I0.1366 J0.0487
G1 X3.5404 Y-4.6276
G2 X3.5377 Y-4.6151 I0.1402 J0.0369
G1 X3.5368 Y-4.61
G2 X3.5353 Y-4.5977 I0.1429 J0.0245
G1 X3.5348 Y-4.5925
G2 X3.5343 Y-4.5799 I0.1445 J0.0121
G1 Y-4.5748
G2 X3.5349 Y-4.5621 I0.145 J-0.0006
G1 X3.5354 Y-4.557
G2 X3.5371 Y-4.5446 I0.1444 J-0.0132
G1 X3.538 Y-4.5395
G2 X3.5408 Y-4.5272 I0.1427 J-0.0256
G1 X3.5421 Y-4.5222
G2 X3.5459 Y-4.5104 I0.1399 J-0.038
G1 X3.5477 Y-4.5055
G2 X3.5526 Y-4.4937 I0.1362 J-0.0498
G1 X3.5548 Y-4.4891
G2 X3.5605 Y-4.4781 I0.1313 J-0.0616
G1 X3.5631 Y-4.4736
G2 X3.5699 Y-4.463 I0.1255 J-0.0726
G1 X3.5728 Y-4.4588
G2 X3.5806 Y-4.4487 I0.1187 J-0.0832
G1 X3.5839 Y-4.4447
G2 X3.5926 Y-4.4354 I0.1109 J-0.0934
G1 X3.5962 Y-4.4317
G2 X3.6058 Y-4.423 I0.1023 J-0.1028
G1 X3.6098 Y-4.4197
G2 X3.6192 Y-4.4125 I0.0927 J-0.1115
G1 X3.6234 Y-4.4096
G2 X3.6344 Y-4.4026 I0.0833 J-0.1187
G1 X3.6388 Y-4.4
G2 X3.65 Y-4.3942 I0.0723 J-0.1257
G1 X3.6547 Y-4.392
G2 X3.6658 Y-4.3874 I0.061 J-0.1315
G1 X3.6706 Y-4.3857
G2 X3.6827 Y-4.3818 I0.05 J-0.1361
G1 X3.6877 Y-4.3805
G2 X3.7011 Y-4.3775 I0.0378 J-0.14
G1 X3.7061 Y-4.3766
G2 X3.7173 Y-4.3752 I0.0245 J-0.1429
G1 X3.7224 Y-4.3747
G2 X3.7357 Y-4.3741 I0.0133 J-0.1444
G1 X3.7409
G2 X3.7531 Y-4.3746 I0. J-0.145
G1 X3.7582 Y-4.375
G2 X3.7715 Y-4.3768 I-0.0122 J-0.1445
G1 X3.7766 Y-4.3777
G2 X3.7877 Y-4.3801 I-0.0256 J-0.1427
G3 X3.9782 Y-4.4076 I0.1774 J0.5559
X4.1251 Y-4.3804 I-0.0058 J0.441
X4.2628 Y-4.2661 I-0.1123 J0.2755
X4.3353 Y-4.1109 I-0.4734 J0.3156
X4.3812 Y-3.9153 I-1.1922 J0.3826
X4.4171 Y-3.6011 I-3.3244 J0.5398
X4.4297 Y-3.083 I-4.2751 J0.3627
X4.362 Y-2.6227 I-2.2956 J-0.1023
X4.2604 Y-2.3374 I-1.6438 J-0.425
X3.9413 Y-1.9288 I-1.0317 J-0.4766
X3.7892 Y-1.8161 I-1.0641 J-1.2782
G1 X3.7825 Y-1.8113
X3.7761 Y-1.8061
X3.77 Y-1.8005
X3.7642 Y-1.7946
X3.7588 Y-1.7884
X3.5659 Y-1.5544
G2 X3.5336 Y-1.4467 I0.1119 J0.0922
G1 X3.547 Y-1.322
X3.6314 Y-0.5356
G2 X3.6584 Y-0.4656 I0.1442 J-0.0155
G1 X3.7109 Y-0.3936
X3.7817 Y-0.2964
G2 X3.978 Y-0.2603 I0.1172 J-0.0854
G3 X4.443 Y-0.5262 I2.2893 J3.4641
X4.8058 Y-0.6684 I1.1579 J2.4203
X5.2908 Y-0.7527 I0.6029 J2.0316
G1 X5.3247 Y-0.7551
G3 X5.6025 Y-0.7659 I0.6365 J12.7932
G2 X5.9402 Y-0.794 I-0.0989 J-3.2376
X6.5328 Y-0.9666 I-0.334 J-2.2498
X6.93 Y-1.1749 I-1.2469 J-2.861
G1 X6.938 Y-1.1796
X6.9438 Y-1.1836
G2 X6.9572 Y-1.1941 I-0.0827 J-0.1191
G1 X6.9624 Y-1.1988
G2 X6.9747 Y-1.211 I-0.096 J-0.1086
G1 X6.9793 Y-1.2163
G2 X6.9898 Y-1.2295 I-0.1084 J-0.0964
G1 X6.9938 Y-1.2352
G2 X7.0028 Y-1.2498 I-0.1188 J-0.0831
G1 X7.0061 Y-1.256
G2 X7.0135 Y-1.2722 I-0.1278 J-0.0685
G1 X7.0161 Y-1.2787
G2 X7.0211 Y-1.2944 I-0.1352 J-0.0523
G1 X7.0229 Y-1.3011
G2 X7.0263 Y-1.3182 I-0.1403 J-0.0367
G1 X7.0272 Y-1.3251
G2 X7.0285 Y-1.3423 I-0.1437 J-0.0196
G1 X7.0286 Y-1.3493
G2 X7.0279 Y-1.3664 I-0.145 J-0.0025
G1 X7.0272 Y-1.3734
G2 X7.0244 Y-1.3906 I-0.1443 J0.0147
G1 X7.0234 Y-1.3951
G3 X7.0423 Y-1.425 I0.0244 J-0.0055
G1 X7.0667 Y-1.4305
X7.0705 Y-1.4313 Z0.3731
X7.0742 Y-1.4322 Z0.374
X7.0777 Y-1.433 Z0.3755
X7.081 Y-1.4337 Z0.3776
X7.0839 Y-1.4344 Z0.3801
X7.0864 Y-1.4349 Z0.3831
X7.0884 Y-1.4354 Z0.3864
X7.0899 Y-1.4357 Z0.3901
X7.0908 Y-1.4359 Z0.3939
X7.0911 Y-1.436 Z0.3978
G0 Z1.0125
X-0.0982 Y-1.4442
G1 Z0.3978 F80.
X-0.0979 Y-1.4441 Z0.3939 F50.
X-0.097 Y-1.444 Z0.3901
X-0.0955 Y-1.4438 Z0.3864
X-0.0935 Y-1.4436 Z0.3831
X-0.091 Y-1.4433 Z0.3801
X-0.088 Y-1.4429 Z0.3776
X-0.0847 Y-1.4425 Z0.3755
X-0.0811 Y-1.4421 Z0.374
X-0.0773 Y-1.4417 Z0.3731
X-0.0734 Y-1.4412 Z0.3728
X-0.0486 Y-1.4382
G3 X-0.0267 Y-1.4104 I-0.003 J0.0248
G1 X-0.0276 Y-1.4035
G2 X-0.0286 Y-1.3863 I0.144 J0.0172
G1 Y-1.3793
G2 X-0.0276 Y-1.3622 I0.145 J0.0001
G1 X-0.0268 Y-1.3553
G2 X-0.0238 Y-1.3384 I0.144 J-0.017
G1 X-0.0221 Y-1.3316
G2 X-0.0171 Y-1.3151 I0.141 J-0.0339
G1 X-0.0147 Y-1.3086
G2 X-0.0078 Y-1.2929 I0.136 J-0.0504
G1 X-0.0046 Y-1.2867
G2 X0.0041 Y-1.2719 I0.1291 J-0.0661
G1 X0.008 Y-1.266
G2 X0.0185 Y-1.2523 I0.1203 J-0.0809
G1 X0.023 Y-1.247
G2 X0.035 Y-1.2347 I0.1099 J-0.0946
G1 X0.0401 Y-1.23
G2 X0.0534 Y-1.2192 I0.098 J-0.1069
G1 X0.0591 Y-1.2151
X0.0668 Y-1.2099
G2 X0.5439 Y-0.9579 I1.7505 J-2.736
X1.05 Y-0.812 I0.8859 J-2.1225
X1.3887 Y-0.7783 I0.4881 J-3.1848
G3 X1.6986 Y-0.76 I-0.5298 J11.6087
X2.0995 Y-0.6913 I-0.1727 J2.2124
X2.5419 Y-0.5177 I-0.6616 J2.3366
X2.9812 Y-0.2584 I-1.7022 J3.3849
G1 X3.0026 Y-0.2443
G2 X3.1994 Y-0.277 I0.0812 J-0.1201
G1 X3.2719 Y-0.3729
X3.3257 Y-0.444
G2 X3.3539 Y-0.5134 I-0.1157 J-0.0875
G1 X3.452 Y-1.2983
X3.4676 Y-1.4228
G2 X3.4371 Y-1.531 I-0.1439 J-0.018
G1 X3.2484 Y-1.7683
G2 X3.2185 Y-1.7965 I-0.1135 J0.0903
G3 X2.969 Y-2.0051 I0.9029 J-1.3337
X2.7491 Y-2.3441 I0.8252 J-0.7762
X2.6497 Y-2.6597 I1.4867 J-0.6418
X2.5997 Y-3.1304 I2.1976 J-0.4712
X2.6237 Y-3.6124 I4.3451 J-0.0255
X2.6714 Y-3.9502 I3.3078 J0.2952
X2.7234 Y-4.1322 I1.2705 J0.2644
X2.7956 Y-4.2661 I0.5429 J0.2061
X2.904 Y-4.3562 I0.2453 J0.1849
X3.0523 Y-4.39 I0.1583 J0.3529
X3.2648 Y-4.3598 I0.0294 J0.557
G1 X3.2704 Y-4.3586
X3.2761 Y-4.3575
X3.2811 Y-4.3565
G2 X3.2933 Y-4.3547 I0.0278 J-0.1423
G1 X3.2984 Y-4.3541
G2 X3.3118 Y-4.3533 I0.0156 J-0.1442
G1 X3.3169 Y-4.3532
G2 X3.3291 Y-4.3535 I0.0022 J-0.145
G1 X3.3343 Y-4.3539
G2 X3.3476 Y-4.3554 I-0.01 J-0.1447
G1 X3.3527 Y-4.3563
G2 X3.3639 Y-4.3585 I-0.0233 J-0.1431
G1 X3.3689 Y-4.3598
G2 X3.3821 Y-4.3637 I-0.0345 J-0.1408
G1 X3.3869 Y-4.3654
G2 X3.398 Y-4.3698 I-0.0477 J-0.1369
G1 X3.4027 Y-4.3719
G2 X3.4139 Y-4.3774 I-0.0589 J-0.1325
G1 X3.4184 Y-4.3799
G2 X3.4295 Y-4.3867 I-0.07 J-0.127
G1 X3.4338 Y-4.3896
G2 X3.4438 Y-4.397 I-0.0811 J-0.1202
G1 X3.4478 Y-4.4002
G2 X3.4569 Y-4.4082 I-0.0912 J-0.1127
G1 X3.4606 Y-4.4118
G2 X3.4698 Y-4.4215 I-0.1003 J-0.1047
G1 X3.4732 Y-4.4254
G2 X3.4807 Y-4.4347 I-0.1095 J-0.095
G1 X3.4837 Y-4.4389
G2 X3.491 Y-4.4498 I-0.117 J-0.0857
G1 X3.4936 Y-4.4542
G2 X3.4996 Y-4.4651 I-0.1242 J-0.0748
G1 X3.5018 Y-4.4697
G2 X3.5069 Y-4.4812 I-0.1302 J-0.0639
G1 X3.5087 Y-4.486
G2 X3.5127 Y-4.4979 I-0.1352 J-0.0523
G1 X3.5142 Y-4.5028
G2 X3.5172 Y-4.5152 I-0.1392 J-0.0404
G1 X3.5182 Y-4.5202
G2 X3.5201 Y-4.5327 I-0.1422 J-0.0281
G1 X3.5206 Y-4.5378
G2 X3.5214 Y-4.5503 I-0.1442 J-0.0156
G1 X3.5216 Y-4.5554
G2 X3.5213 Y-4.5681 I-0.145 J-0.0031
G1 X3.5209 Y-4.5732
G2 X3.5196 Y-4.5858 I-0.1447 J0.0096
G1 X3.5188 Y-4.5908
G2 X3.5164 Y-4.603 I-0.1433 J0.0221
G1 X3.5151 Y-4.608
G2 X3.5115 Y-4.6205 I-0.1409 J0.0343
G1 X3.5099 Y-4.6253
G2 X3.5054 Y-4.6367 I-0.1373 J0.0468
G1 X3.5034 Y-4.6414
G2 X3.4978 Y-4.6528 I-0.1328 J0.0581
G1 X3.4953 Y-4.6573
G2 X3.4885 Y-4.6687 I-0.1273 J0.0695
G1 X3.4856 Y-4.6729
G2 X3.4788 Y-4.6823 I-0.1204 J0.0808
G1 X3.4755 Y-4.6863
G2 X3.4666 Y-4.6966 I-0.1135 J0.0902
G1 X3.463 Y-4.7003
G2 X3.454 Y-4.7089 I-0.1046 J0.1005
G1 X3.4501 Y-4.7123
X3.4451 Y-4.7165
G2 X2.7236 Y-5.2139 I-3.5805 J4.4219
X2.1545 Y-5.4884 I-2.2044 J3.8418
X1.2339 Y-5.7288 I-1.4907 J3.8267
X0.3999 Y-5.7794 I-0.7233 J5.0249
G1 X0.3923
X0.3863 Y-5.7791
G2 X0.372 Y-5.7774 I0.0096 J0.1447
G1 X0.3661 Y-5.7764
G2 X0.3508 Y-5.773 I0.024 J0.143
G1 X0.3451 Y-5.7714
G2 X0.3318 Y-5.7669 I0.0392 J0.1396
G1 X0.3262 Y-5.7648
G2 X0.3128 Y-5.7587 I0.0525 J0.1352
G1 X0.3074 Y-5.756
G2 X0.2948 Y-5.7488 I0.0659 J0.1291
G1 X0.2898 Y-5.7455
G2 X0.2782 Y-5.7372 I0.0786 J0.1219
G1 X0.2735 Y-5.7335
G2 X0.2619 Y-5.7232 I0.0902 J0.1136
G1 X0.2576 Y-5.719
G2 X0.2482 Y-5.7088 I0.1018 J0.1032
G1 X0.2444 Y-5.7042
G2 X0.2353 Y-5.692 I0.1112 J0.093
G1 X0.2319 Y-5.6871
G2 X0.2246 Y-5.675 I0.1204 J0.0809
G1 X0.2218 Y-5.6697
G2 X0.2154 Y-5.6561 I0.1277 J0.0688
G1 X0.2131 Y-5.6506
G2 X0.2083 Y-5.637 I0.1341 J0.0551
G1 X0.2066 Y-5.6313
G2 X0.2031 Y-5.617 I0.1389 J0.0416
G1 X0.2019 Y-5.6111
G2 X0.1999 Y-5.5964 I0.1424 J0.0272
G1 X0.1994 Y-5.5905
G2 X0.1989 Y-5.5758 I0.1445 J0.0126
G1 Y-5.5699
X0.1992 Y-5.5625
X0.2022 Y-5.5174
G2 X0.2034 Y-5.5057 I0.1447 J-0.0094
G1 X0.2048 Y-5.4963
G2 X0.21 Y-5.4735 I0.1435 J-0.021
G1 X0.2129 Y-5.4644
G2 X0.2218 Y-5.4425 I0.1382 J-0.0438
G1 X0.2261 Y-5.434
G2 X0.2382 Y-5.4143 I0.1293 J-0.0656
G1 X0.2438 Y-5.4066
G2 X0.2593 Y-5.3886 I0.1172 J-0.0854
G1 X0.2661 Y-5.3819
G2 X0.2841 Y-5.3669 I0.1017 J-0.1033
G1 X0.2919 Y-5.3614
G2 X0.3118 Y-5.3496 I0.0837 J-0.1184
G1 X0.3204 Y-5.3454
G2 X0.3424 Y-5.3367 I0.0638 J-0.1302
G1 X0.3516 Y-5.334
X0.36 Y-5.3317
G3 X0.5113 Y-5.2706 I-0.1204 J0.5157
X0.6928 Y-5.143 I-0.5819 J1.0208
X0.8895 Y-4.9422 I-0.7845 J0.9651
X1.0114 Y-4.6265 I-0.4956 J0.3729
Y-4.3816 I-1.2123 J0.1224
X0.9705 Y-4.0792 I-3.2123 J-0.2808
X0.9192 Y-3.7923 I-25.0283 J-4.33
G2 X0.8654 Y-3.4425 I5.773 J1.0656
X0.8483 Y-3.0885 I2.4332 J0.2953
X0.924 Y-2.6483 I1.726 J-0.0705
X0.9959 Y-2.4254 I4.778 J-1.4175
G3 X1.0599 Y-2.2043 I-2.5679 J0.8626
X1.0865 Y-2.0034 I-1.0147 J0.2365
X1.0467 Y-1.7598 I-0.6529 J0.0185
X0.932 Y-1.5854 I-0.4577 J-0.1762
X0.7132 Y-1.4842 I-0.261 J-0.277
X0.5072 Y-1.4924 I-0.077 J-0.6531
X0.2558 Y-1.5706 I0.1942 J-1.0673
G1 X0.2476 Y-1.5735
X0.24 Y-1.5762
G2 X0.2209 Y-1.5816 I-0.0486 J0.1366
G1 X0.213 Y-1.5832
G2 X0.1936 Y-1.5859 I-0.0295 J0.142
G1 X0.1855 Y-1.5865
G2 X0.1657 I-0.0101 J0.1447
G1 X0.1576 Y-1.5859
G2 X0.1381 Y-1.5833 I0.0098 J0.1447
G1 X0.1302 Y-1.5816
G2 X0.1111 Y-1.5763 I0.0294 J0.142
G1 X0.1035 Y-1.5736
G2 X0.0854 Y-1.5658 I0.0484 J0.1367
G1 X0.0782 Y-1.5621
G2 X0.0613 Y-1.5518 I0.0666 J0.1288
G1 X0.0547 Y-1.5472
G2 X0.0404 Y-1.5357 I0.0835 J0.1186
G1 X0.0352 Y-1.5309
G2 X0.0232 Y-1.5185 I0.0978 J0.107
G1 X0.0186 Y-1.5132
G2 X0.0082 Y-1.4996 I0.1098 J0.0947
G1 X0.0043 Y-1.4938
G2 X-0.0045 Y-1.479 I0.1202 J0.0811
G1 X-0.0077 Y-1.4728
G2 X-0.0146 Y-1.4571 I0.129 J0.0662
G1 X-0.017 Y-1.4505
G2 X-0.0221 Y-1.4341 I0.1359 J0.0505
G1 X-0.0237 Y-1.4273
G2 X-0.0267 Y-1.4104 I0.1409 J0.0341
G1 X-0.0276 Y-1.4035
G2 X-0.0286 Y-1.3863 I0.144 J0.0172
G1 Y-1.3793
G2 X-0.0276 Y-1.3622 I0.145 J0.0001
G1 X-0.0268 Y-1.3553
G2 X-0.0238 Y-1.3384 I0.144 J-0.017
G1 X-0.0221 Y-1.3316
G2 X-0.0171 Y-1.3151 I0.141 J-0.0339
G1 X-0.0147 Y-1.3086
G2 X-0.0078 Y-1.2929 I0.136 J-0.0504
G1 X-0.0046 Y-1.2867
G2 X0.0041 Y-1.2719 I0.1291 J-0.0661
G1 X0.008 Y-1.266
G2 X0.0185 Y-1.2523 I0.1203 J-0.0809
G1 X0.023 Y-1.247
G2 X0.035 Y-1.2347 I0.1099 J-0.0946
G1 X0.0401 Y-1.23
G2 X0.0534 Y-1.2192 I0.098 J-0.1069
G1 X0.0591 Y-1.2151
X0.0668 Y-1.2099
G2 X0.5439 Y-0.9579 I1.7505 J-2.736
X1.05 Y-0.812 I0.8859 J-2.1225
X1.3887 Y-0.7783 I0.4881 J-3.1848
G3 X1.6986 Y-0.76 I-0.5298 J11.6087
X2.0995 Y-0.6913 I-0.1727 J2.2124
X2.5419 Y-0.5177 I-0.6616 J2.3366
X2.9812 Y-0.2584 I-1.7022 J3.3849
G1 X3.0026 Y-0.2443
G2 X3.1994 Y-0.277 I0.0812 J-0.1201
G1 X3.2719 Y-0.3729
X3.3257 Y-0.444
G2 X3.3539 Y-0.5134 I-0.1157 J-0.0875
G1 X3.452 Y-1.2983
X3.4676 Y-1.4228
G2 X3.4371 Y-1.531 I-0.1439 J-0.018
G1 X3.2484 Y-1.7683
G2 X3.2185 Y-1.7965 I-0.1135 J0.0903
G3 X2.969 Y-2.0051 I0.9029 J-1.3337
X2.7491 Y-2.3441 I0.8252 J-0.7762
X2.6497 Y-2.6597 I1.4867 J-0.6418
X2.5997 Y-3.1304 I2.1976 J-0.4712
X2.6237 Y-3.6124 I4.3451 J-0.0255
X2.6714 Y-3.9502 I3.3078 J0.2952
X2.7234 Y-4.1322 I1.2705 J0.2644
X2.7956 Y-4.2661 I0.5429 J0.2061
X2.904 Y-4.3562 I0.2453 J0.1849
X3.0523 Y-4.39 I0.1583 J0.3529
X3.2648 Y-4.3598 I0.0294 J0.557
G1 X3.2704 Y-4.3586
X3.2761 Y-4.3575
X3.2811 Y-4.3565
G2 X3.2933 Y-4.3547 I0.0278 J-0.1423
G1 X3.2984 Y-4.3541
G2 X3.3118 Y-4.3533 I0.0156 J-0.1442
G1 X3.3169 Y-4.3532
G2 X3.3291 Y-4.3535 I0.0022 J-0.145
G1 X3.3343 Y-4.3539
G2 X3.3476 Y-4.3554 I-0.01 J-0.1447
G1 X3.3527 Y-4.3563
G2 X3.3639 Y-4.3585 I-0.0233 J-0.1431
G1 X3.3689 Y-4.3598
G2 X3.3821 Y-4.3637 I-0.0345 J-0.1408
G1 X3.3869 Y-4.3654
G2 X3.398 Y-4.3698 I-0.0477 J-0.1369
G1 X3.4027 Y-4.3719
G2 X3.4139 Y-4.3774 I-0.0589 J-0.1325
G1 X3.4184 Y-4.3799
G2 X3.4295 Y-4.3867 I-0.07 J-0.127
G1 X3.4338 Y-4.3896
G2 X3.4438 Y-4.397 I-0.0811 J-0.1202
G1 X3.4478 Y-4.4002
G2 X3.4569 Y-4.4082 I-0.0912 J-0.1127
G1 X3.4606 Y-4.4118
G2 X3.4698 Y-4.4215 I-0.1003 J-0.1047
G1 X3.4732 Y-4.4254
G2 X3.4807 Y-4.4347 I-0.1095 J-0.095
G1 X3.4837 Y-4.4389
G2 X3.491 Y-4.4498 I-0.117 J-0.0857
G1 X3.4936 Y-4.4542
G2 X3.4996 Y-4.4651 I-0.1242 J-0.0748
G1 X3.5018 Y-4.4697
G2 X3.5069 Y-4.4812 I-0.1302 J-0.0639
G1 X3.5087 Y-4.486
G2 X3.5127 Y-4.4979 I-0.1352 J-0.0523
G1 X3.5142 Y-4.5028
G2 X3.5172 Y-4.5152 I-0.1392 J-0.0404
G1 X3.5182 Y-4.5202
G2 X3.5201 Y-4.5327 I-0.1422 J-0.0281
G1 X3.5206 Y-4.5378
G2 X3.5214 Y-4.5503 I-0.1442 J-0.0156
G1 X3.5216 Y-4.5554
G2 X3.5213 Y-4.5681 I-0.145 J-0.0031
G1 X3.5209 Y-4.5732
G2 X3.5196 Y-4.5858 I-0.1447 J0.0096
G1 X3.5188 Y-4.5908
G2 X3.5164 Y-4.603 I-0.1433 J0.0221
G1 X3.5151 Y-4.608
G2 X3.5115 Y-4.6205 I-0.1409 J0.0343
G1 X3.5099 Y-4.6253
G2 X3.5054 Y-4.6367 I-0.1373 J0.0468
G1 X3.5034 Y-4.6414
G2 X3.4978 Y-4.6528 I-0.1328 J0.0581
G1 X3.4953 Y-4.6573
G2 X3.4885 Y-4.6687 I-0.1273 J0.0695
G1 X3.4856 Y-4.6729
G2 X3.4788 Y-4.6823 I-0.1204 J0.0808
G1 X3.4755 Y-4.6863
G2 X3.4666 Y-4.6966 I-0.1135 J0.0902
G1 X3.463 Y-4.7003
G2 X3.454 Y-4.7089 I-0.1046 J0.1005
G1 X3.4501 Y-4.7123
X3.4451 Y-4.7165
G2 X2.7236 Y-5.2139 I-3.5805 J4.4219
X2.1545 Y-5.4884 I-2.2044 J3.8418
X1.2339 Y-5.7288 I-1.4907 J3.8267
X0.3999 Y-5.7794 I-0.7233 J5.0249
G1 X0.3923
X0.3863 Y-5.7791
G2 X0.372 Y-5.7774 I0.0096 J0.1447
G1 X0.3661 Y-5.7764
G2 X0.3508 Y-5.773 I0.024 J0.143
G1 X0.3451 Y-5.7714
G2 X0.3318 Y-5.7669 I0.0392 J0.1396
G1 X0.3262 Y-5.7648
G2 X0.3128 Y-5.7587 I0.0525 J0.1352
G1 X0.3074 Y-5.756
G2 X0.2948 Y-5.7488 I0.0659 J0.1291
G1 X0.2898 Y-5.7455
G2 X0.2782 Y-5.7372 I0.0786 J0.1219
G1 X0.2735 Y-5.7335
G2 X0.2619 Y-5.7232 I0.0902 J0.1136
G1 X0.2576 Y-5.719
G2 X0.2482 Y-5.7088 I0.1018 J0.1032
G1 X0.2444 Y-5.7042
G2 X0.2353 Y-5.692 I0.1112 J0.093
G1 X0.2319 Y-5.6871
G2 X0.2246 Y-5.675 I0.1204 J0.0809
G1 X0.2218 Y-5.6697
G2 X0.2154 Y-5.6561 I0.1277 J0.0688
G1 X0.2131 Y-5.6506
G2 X0.2083 Y-5.637 I0.1341 J0.0551
G1 X0.2066 Y-5.6313
G2 X0.2031 Y-5.617 I0.1389 J0.0416
G1 X0.2019 Y-5.6111
G2 X0.1999 Y-5.5964 I0.1424 J0.0272
G1 X0.1994 Y-5.5905
G2 X0.1989 Y-5.5758 I0.1445 J0.0126
G1 Y-5.5699
X0.1992 Y-5.5625
X0.2022 Y-5.5174
G2 X0.2034 Y-5.5057 I0.1447 J-0.0094
G1 X0.2048 Y-5.4963
G2 X0.21 Y-5.4735 I0.1435 J-0.021
G1 X0.2129 Y-5.4644
G2 X0.2218 Y-5.4425 I0.1382 J-0.0438
G1 X0.2261 Y-5.434
G2 X0.2382 Y-5.4143 I0.1293 J-0.0656
G1 X0.2438 Y-5.4066
G2 X0.2593 Y-5.3886 I0.1172 J-0.0854
G1 X0.2661 Y-5.3819
G2 X0.2841 Y-5.3669 I0.1017 J-0.1033
G1 X0.2919 Y-5.3614
G2 X0.3118 Y-5.3496 I0.0837 J-0.1184
G1 X0.3204 Y-5.3454
G2 X0.3424 Y-5.3367 I0.0638 J-0.1302
G1 X0.3516 Y-5.334
X0.36 Y-5.3317
G3 X0.5113 Y-5.2706 I-0.1204 J0.5157
X0.6928 Y-5.143 I-0.5819 J1.0208
X0.8895 Y-4.9422 I-0.7845 J0.9651
X1.0114 Y-4.6265 I-0.4956 J0.3729
Y-4.3816 I-1.2123 J0.1224
X0.9705 Y-4.0792 I-3.2123 J-0.2808
X0.9192 Y-3.7923 I-25.0283 J-4.33
G2 X0.8654 Y-3.4425 I5.773 J1.0656
X0.8483 Y-3.0885 I2.4332 J0.2953
X0.924 Y-2.6483 I1.726 J-0.0705
X0.9959 Y-2.4254 I4.778 J-1.4175
G3 X1.0599 Y-2.2043 I-2.5679 J0.8626
X1.0865 Y-2.0034 I-1.0147 J0.2365
X1.0467 Y-1.7598 I-0.6529 J0.0185
X0.932 Y-1.5854 I-0.4577 J-0.1762
X0.7132 Y-1.4842 I-0.261 J-0.277
X0.5072 Y-1.4924 I-0.077 J-0.6531
X0.2558 Y-1.5706 I0.1942 J-1.0673
G1 X0.2476 Y-1.5735
X0.24 Y-1.5762
G2 X0.2209 Y-1.5816 I-0.0486 J0.1366
G1 X0.213 Y-1.5832
G2 X0.1936 Y-1.5859 I-0.0295 J0.142
G1 X0.1855 Y-1.5865
G2 X0.1657 I-0.0101 J0.1447
G1 X0.1576 Y-1.5859
G2 X0.1381 Y-1.5833 I0.0098 J0.1447
G1 X0.1302 Y-1.5816
G2 X0.1111 Y-1.5763 I0.0294 J0.142
G1 X0.1035 Y-1.5736
G2 X0.0854 Y-1.5658 I0.0484 J0.1367
G1 X0.0782 Y-1.5621
G2 X0.0613 Y-1.5518 I0.0666 J0.1288
G1 X0.0547 Y-1.5472
G2 X0.0404 Y-1.5357 I0.0835 J0.1186
G1 X0.0352 Y-1.5309
G2 X0.0232 Y-1.5185 I0.0978 J0.107
G1 X0.0186 Y-1.5132
G2 X0.0082 Y-1.4996 I0.1098 J0.0947
G1 X0.0043 Y-1.4938
G2 X-0.0045 Y-1.479 I0.1202 J0.0811
G1 X-0.0077 Y-1.4728
G2 X-0.0146 Y-1.4571 I0.129 J0.0662
G1 X-0.017 Y-1.4505
G2 X-0.0221 Y-1.4341 I0.1359 J0.0505
G1 X-0.0237 Y-1.4273
G2 X-0.0267 Y-1.4104 I0.1409 J0.0341
G3 X-0.0545 Y-1.3886 I-0.0248 J-0.003
G1 X-0.0794 Y-1.3915
X-0.0832 Y-1.392 Z0.3731
X-0.087 Y-1.3925 Z0.374
X-0.0906 Y-1.3929 Z0.3755
X-0.094 Y-1.3933 Z0.3776
X-0.0969 Y-1.3936 Z0.3801
X-0.0994 Y-1.3939 Z0.3831
X-0.1015 Y-1.3942 Z0.3864
X-0.103 Y-1.3944 Z0.3901
X-0.1039 Y-1.3945 Z0.3939
X-0.1042 Z0.3978
G0 Z1.4125
(2D ADAPTIVE1)
G64 P0.004 Q0.004
G0 X3.4589 Y-1.0267
Z1.4125
Z0.4956
G1 Z0.4706 F50.
X3.4591 Y-1.0269 Z0.4667
X3.4598 Y-1.0275 Z0.4629
X3.4609 Y-1.0285 Z0.4593
X3.4624 Y-1.0299 Z0.4559
X3.4642 Y-1.0317 Z0.4529
X3.4664 Y-1.0337 Z0.4504
X3.4688 Y-1.036 Z0.4483
X3.4715 Y-1.0385 Z0.4468
X3.4743 Y-1.0411 Z0.4459
X3.4771 Y-1.0438 Z0.4456
G3 X3.587 Y-1.1264 I0.4362 J0.4659
G1 X3.6543 Y-1.1632
X3.6596 Y-1.1658
X3.687 Y-1.1539
X3.7163 Y-1.1326
X3.7403 Y-1.1055
X3.7594 Y-1.0748
X3.7744 Y-1.0419
X3.786 Y-1.0076
G3 X3.8143 Y-0.8658 I-0.9549 J0.2638
X3.8384 Y-0.665 I-6.0008 J0.8243
X3.8276 Y-0.6416 I-0.0245 J0.0029
G1 X3.7531 Y-0.5913
G3 X3.7241 Y-0.593 I-0.0132 J-0.0212
X3.715 Y-0.6091 I0.0157 J-0.0195 F300.
G1 X3.6425 Y-1.1367
X3.6423 Y-1.1383 F50.
G3 X3.6543 Y-1.1632 I0.0248 J-0.0034
G1 X3.7282 Y-1.2038
X3.7393 Y-1.2092
X3.7638 Y-1.215
X3.7922 Y-1.2155
X3.8245 Y-1.2089
X3.8576 Y-1.1942
X3.887 Y-1.1731
X3.9124 Y-1.1474
X3.9178 Y-1.1401
X3.9204 Y-1.1364
X3.9406 Y-1.1064
X3.9575 Y-1.0744
G3 X4.0005 Y-0.9365 I-0.5693 J0.2531
X4.0241 Y-0.7907 I-1.8388 J0.3731
X4.0133 Y-0.7668 I-0.0246 J0.0033
G1 X3.8276 Y-0.6416
G3 X3.7987 Y-0.6433 I-0.0132 J-0.0212
X3.7896 Y-0.6593 I0.0157 J-0.0195 F300.
G1 X3.7165 Y-1.1773
X3.7162 Y-1.1788 F50.
G3 X3.7282 Y-1.2038 I0.0248 J-0.0035
G2 X3.7858 Y-1.2374 I-0.3766 J-0.7116
G1 X3.8433 Y-1.2762
G3 X3.8827 Y-1.2986 I0.1608 J0.2376
X3.9926 Y-1.2989 I0.0554 J0.1412
G1 X3.9973 Y-1.2993
X4.0014 Y-1.3011
G3 X4.0493 Y-1.3468 I0.8775 J0.8709
X4.3031 Y-1.0297 I0.1269 J0.1585
X4.1667 Y-0.9854 I-0.1269 J-0.1585
G1 X4.1624 Y-0.9837
X4.159 Y-0.9807
X4.1568 Y-0.9768
X4.1561 Y-0.9723
X4.1571 Y-0.9679
G3 X4.1915 Y-0.9145 I-0.7201 J0.5021
X4.1836 Y-0.8816 I-0.0222 J0.012
G1 X4.0133 Y-0.7668
G3 X3.9844 Y-0.7685 I-0.0132 J-0.0212
X3.9762 Y-0.7807 I0.0157 J-0.0195 F300.
G1 X3.8341 Y-1.2487
G3 X3.8433 Y-1.2762 I0.0239 J-0.0073 F50.
G1 X4.1801 Y-1.5034
X4.2068 Y-1.5195
X4.2411 Y-1.5311
X4.277 Y-1.535
X4.3131 Y-1.5322
X4.3482 Y-1.5235
X4.3817 Y-1.5097
X4.4131 Y-1.4917
X4.442 Y-1.47
X4.4684 Y-1.4452
X4.4919 Y-1.4177
X4.5124 Y-1.3879
X4.53 Y-1.3563
X4.5443 Y-1.323
X4.5554 Y-1.2886
X4.5633 Y-1.2533
X4.5677 Y-1.2174
X4.5688 Y-1.1812
X4.567 Y-1.152
X4.5654 Y-1.1446
X4.5616 Y-1.138
X4.556 Y-1.1329
X4.1835 Y-0.8816
G3 X4.1546 Y-0.8834 I-0.0132 J-0.0212
X4.1453 Y-0.9039 I0.0157 J-0.0195 F300.
G1 X4.1695 Y-1.4758
X4.1698 Y-1.4842 F50.
G3 X4.1801 Y-1.5034 I0.025 J0.0011
G1 X4.3447 Y-1.6144
G3 X4.3863 Y-1.6382 I0.1843 J0.2739
X4.5097 Y-1.6415 I0.066 J0.1648
X4.6131 Y-1.5833 I-0.0783 J0.2602
X4.7252 Y-1.4337 I-0.2823 J0.3284
X4.7704 Y-1.2959 I-0.4729 J0.2314
X4.7599 Y-1.2704 I-0.0241 J0.0051
G1 X4.556 Y-1.1329
G3 X4.5271 Y-1.1346 I-0.0132 J-0.0212
X4.5197 Y-1.1445 I0.0157 J-0.0195 F300.
G1 X4.3363 Y-1.5845
X4.336 Y-1.5853
X4.3357 Y-1.5861
X4.3354 Y-1.5869
G3 X4.3447 Y-1.6144 I0.0239 J-0.0073 F50.
G1 X4.4969 Y-1.7171
X4.5008 Y-1.7195
X4.509 Y-1.7237
X4.5532 Y-1.7417
X4.5583 Y-1.7437
X4.5666 Y-1.7454
X4.5994 Y-1.752
X4.6077 Y-1.7533
X4.6488 Y-1.7537
X4.657 Y-1.7534
X4.6981 Y-1.7458
X4.7022 Y-1.745
G3 X4.7517 Y-1.7254 I-0.1441 J0.4359
G1 X4.7885 Y-1.7022
G3 X4.8257 Y-1.6678 I-0.5731 J0.6569
X4.8554 Y-1.6267 I-0.6164 J0.4784
G1 X4.8709 Y-1.5938
X4.8748 Y-1.5856
X4.8772 Y-1.5774
X4.8871 Y-1.539
G3 X4.8904 Y-1.487 I-0.9649 J0.0871
G1 X4.8847 Y-1.4418
X4.8837 Y-1.4377
X4.8703 Y-1.3966
X4.8686 Y-1.3925
X4.8664 Y-1.3884
X4.8483 Y-1.3555
X4.846 Y-1.3516
G3 X4.8132 Y-1.3123 I-0.6248 J-0.4888
G1 X4.7803 Y-1.2853
X4.772 Y-1.2788
X4.7638 Y-1.273
X4.7599 Y-1.2704
G3 X4.731 Y-1.2721 I-0.0132 J-0.0212
G1 X4.7279 Y-1.2746 Z0.4459
X4.725 Y-1.277 Z0.4468
X4.7221 Y-1.2792 Z0.4483
X4.7195 Y-1.2813 Z0.4504
X4.7172 Y-1.2832 Z0.4529
X4.7152 Y-1.2848 Z0.4559
X4.7136 Y-1.2861 Z0.4593
X4.7125 Y-1.287 Z0.4629
X4.7118 Y-1.2876 Z0.4667
X4.7115 Y-1.2878 Z0.4706
G0 Z1.4125
X3.4783 Y-0.4312
Z0.4956
G1 Z0.4706 F50.
X3.478 Y-0.4313 Z0.4667
X3.4771 Y-0.4316 Z0.4629
X3.4757 Y-0.4321 Z0.4593
X3.4738 Y-0.4328 Z0.4559
X3.4714 Y-0.4337 Z0.4529
X3.4686 Y-0.4348 Z0.4504
X3.4655 Y-0.436 Z0.4483
X3.4621 Y-0.4373 Z0.4468
X3.4585 Y-0.4386 Z0.4459
X3.4549 Y-0.44 Z0.4456
G3 X3.3322 Y-0.502 I0.2249 J-0.5973
G1 X3.2559 Y-0.5554
X3.2366 Y-0.5704
X3.2135 Y-0.5982
X3.1968 Y-0.6303
X3.1856 Y-0.6647
X3.1789 Y-0.7003
G3 X3.1781 Y-0.8448 I0.7001 J-0.0763
X3.2099 Y-1.1324 I5.9753 J0.5161
G1 X3.2149 Y-1.1742
G3 X3.2521 Y-1.1928 I0.0248 J0.0031
X3.2646 Y-1.1731 I-0.0124 J0.0217
G1 X3.2651 Y-1.1665
X3.3119 Y-0.5724 F300.
G3 X3.2852 Y-0.5455 I-0.0249 J0.002
G1 X3.2848 Y-0.5456
G3 X3.2559 Y-0.5554 I0.005 J-0.0621 F50.
G1 X3.0832 Y-0.6763
X3.0574 Y-0.6964
X3.0343 Y-0.7243
X3.0171 Y-0.7561
X3.0052 Y-0.7903
X2.9976 Y-0.8256
X2.9934 Y-0.8616
G3 X2.9997 Y-1.0422 I1.04 J-0.054
G1 X3.0031 Y-1.0782
X3.0069 Y-1.1142
X3.0113 Y-1.1501
X3.0181 Y-1.1856
X3.0286 Y-1.2202
X3.0433 Y-1.2533
X3.0625 Y-1.2839
X3.0685 Y-1.2908
G3 X3.1018 Y-1.295 I0.0189 J0.0163
G1 X3.1982 Y-1.2274
G2 X3.2521 Y-1.1928 I0.3298 J-0.4537
G1 X3.2552 Y-1.1905
X3.2579 Y-1.1878
X3.2602 Y-1.1847
X3.2619 Y-1.1813
X3.2632 Y-1.1776
X3.2638 Y-1.1738
X3.2639 Y-1.1699
X3.2633 Y-1.1661
X3.2629 Y-1.1644 F300.
X3.1208 Y-0.6901
G3 X3.1122 Y-0.6775 I-0.0239 J-0.0072
X3.0832 Y-0.6763 I-0.0153 J-0.0197 F50.
G1 X2.904 Y-0.8018
X2.8755 Y-0.824
X2.852 Y-0.8515
X2.8343 Y-0.8831
X2.822 Y-0.9171
X2.8139 Y-0.9524
X2.8134 Y-0.9569
X2.8091 Y-0.9928
X2.8089 Y-0.9973
X2.8071 Y-1.0015
X2.7818 Y-1.0273
X2.7502 Y-1.0449
X2.7237 Y-1.0681
X2.7049 Y-1.0936
X2.6915 Y-1.1239
X2.6854 Y-1.1544
X2.6859 Y-1.1845
X2.6934 Y-1.2156
X2.7056 Y-1.2405
X2.7243 Y-1.264
X2.7466 Y-1.2821
X2.7718 Y-1.2947
X2.7893 Y-1.2991
X2.7938 Y-1.2996
X2.7983 Y-1.3
X2.8146 Y-1.3078
X2.8409 Y-1.3327
X2.8645 Y-1.3601
X2.8885 Y-1.3872
X2.9074 Y-1.406
G3 X2.9393 Y-1.4087 I0.0176 J0.0178
G1 X3.1018 Y-1.295
G3 X3.1105 Y-1.2673 I-0.015 J0.02
G1 X3.1101 Y-1.2662 F300.
X2.9411 Y-0.814
G3 X2.933 Y-0.803 I-0.0234 J-0.0088
X2.904 Y-0.8018 I-0.0153 J-0.0197 F50.
G1 X2.5991 Y-1.0153
X2.5705 Y-1.0375
X2.5466 Y-1.0646
X2.5283 Y-1.0959
X2.516 Y-1.1299
X2.5093 Y-1.1655
X2.5078 Y-1.2016
X2.5114 Y-1.2376
X2.5197 Y-1.2728
X2.5324 Y-1.3067
X2.5491 Y-1.3388
X2.5696 Y-1.3687
X2.5934 Y-1.3959
X2.6202 Y-1.4202
X2.6497 Y-1.4411
X2.6776 Y-1.4642
X2.7041 Y-1.4889
X2.7304 Y-1.5137
X2.7424 Y-1.5238
G3 X2.7729 Y-1.5252 I0.0161 J0.0191
G1 X2.9393 Y-1.4087
G3 X2.9481 Y-1.3811 I-0.015 J0.02
X2.943 Y-1.3722 I-0.0238 J-0.0077 F300.
G1 X2.6314 Y-1.0197
X2.6298 Y-1.018
X2.6281 Y-1.0165
G3 X2.5991 Y-1.0153 I-0.0153 J-0.0197 F50.
G1 X2.4263 Y-1.1363
X2.3996 Y-1.1571
X2.3782 Y-1.1828
X2.3617 Y-1.215
X2.3523 Y-1.2499
X2.3489 Y-1.286
X2.3512 Y-1.3221
X2.3581 Y-1.3576
X2.3691 Y-1.3921
G3 X2.4086 Y-1.4683 I0.4553 J0.1877
G1 X2.4299 Y-1.4976
X2.4534 Y-1.5251
G3 X2.5753 Y-1.6406 I1.7509 J1.726
X2.6061 Y-1.6421 I0.0163 J0.0196
G1 X2.7729 Y-1.5252
G3 X2.7817 Y-1.4976 I-0.015 J0.02
X2.7763 Y-1.4884 I-0.0238 J-0.0077 F300.
G1 X2.4584 Y-1.1404
X2.4569 Y-1.1389
X2.4553 Y-1.1375
G3 X2.4263 Y-1.1363 I-0.0153 J-0.0197 F50.
G1 X2.2707 Y-1.2452
X2.2437 Y-1.2662
X2.2238 Y-1.2903
X2.2072 Y-1.3225
X2.1977 Y-1.3574
G3 X2.1969 Y-1.4026 I0.2576 J-0.027
G1 X2.1956 Y-1.4069
X2.1735 Y-1.4355
X2.146 Y-1.4591
X2.1239 Y-1.4877
X2.1162 Y-1.5034
X2.1146 Y-1.5075
X2.1138 Y-1.5119
Y-1.5164
G3 X2.1332 Y-1.5379 I0.0248 J0.0029
G1 X2.137 Y-1.5387 Z0.4459
X2.1408 Y-1.5395 Z0.4468
X2.1443 Y-1.5403 Z0.4483
X2.1476 Y-1.541 Z0.4504
X2.1505 Y-1.5417 Z0.4529
X2.153 Y-1.5422 Z0.4559
X2.155 Y-1.5427 Z0.4593
X2.1564 Y-1.543 Z0.4629
X2.1573 Y-1.5432 Z0.4667
X2.1576 Y-1.5433 Z0.4706
G0 Z1.0125
X2.3249 Y-1.2335
Z0.4956
G1 Z0.4706 F50.
X2.3246 Z0.4667
X2.3237 Y-1.2336 Z0.4629
X2.3222 Y-1.2337 Z0.4593
X2.3202 Y-1.2339 Z0.4559
X2.3176 Y-1.234 Z0.4529
X2.3147 Y-1.2343 Z0.4504
X2.3113 Y-1.2345 Z0.4483
X2.3077 Y-1.2348 Z0.4468
X2.3039 Y-1.2351 Z0.4459
X2.3 Y-1.2354 Z0.4456
G3 X2.2707 Y-1.2452 I0.0046 J-0.0621
X2.1858 Y-1.311 I0.3766 J-0.5739
G1 X2.18 Y-1.3176
X2.1553 Y-1.3483
G3 X2.1307 Y-1.3945 I0.4618 J-0.2761
G1 X2.1225 Y-1.4212
X2.1173 Y-1.4382
X2.1165 Y-1.4423
X2.1121 Y-1.4834
X2.1117 Y-1.4875
X2.1118 Y-1.4916
X2.1151 Y-1.5327
X2.1155 Y-1.5368
X2.1165 Y-1.5409
X2.1279 Y-1.5819
X2.1291 Y-1.5852
X2.1315 Y-1.5901
X2.1478 Y-1.623
X2.1499 Y-1.6271
X2.1528 Y-1.6312
X2.159 Y-1.6394
X2.175 Y-1.6584
X2.1915 Y-1.671
X2.2121 Y-1.6806
X2.2332 Y-1.6853
X2.2558
X2.2602 Y-1.6843
X2.2646 Y-1.6831
X2.2826 Y-1.6849
X2.3163 Y-1.698
X2.3471 Y-1.7171
X2.3761 Y-1.7386
G3 X2.3981 Y-1.748 I0.0214 J0.0198
X2.4201 Y-1.7291 I-0.0022 J0.0249
X2.4062 Y-1.7003 I-0.0243 J0.006 F300.
G1 X2.1898 Y-1.6022
G3 X2.1591 Y-1.6104 I-0.0103 J-0.0228
X2.159 Y-1.6394 I0.0203 J-0.0146 F50.
G1 X2.1778 Y-1.6641
X2.18 Y-1.6667
X2.186 Y-1.6723
X2.2134 Y-1.6969
X2.2172 Y-1.7
G3 X2.262 Y-1.7262 I0.2789 J0.4235
G1 X2.2949 Y-1.7381
X2.3031 Y-1.7411
X2.3113 Y-1.7426
X2.3442 Y-1.748
X2.3524 Y-1.7492
X2.3606 Y-1.7491
X2.3935 Y-1.7482
X2.4017 Y-1.7478
X2.4099 Y-1.746
X2.4466 Y-1.738
X2.4509 Y-1.7365
X2.492 Y-1.7189
X2.5002 Y-1.7152
X2.5037 Y-1.7133
X2.5084 Y-1.7104
X2.6061 Y-1.642
G3 X2.6148 Y-1.6144 I-0.015 J0.02
G1 X2.6136 Y-1.6107 Z0.4459
X2.6125 Y-1.6071 Z0.4468
X2.6113 Y-1.6036 Z0.4483
X2.6103 Y-1.6004 Z0.4504
X2.6094 Y-1.5976 Z0.4529
X2.6086 Y-1.5952 Z0.4559
X2.608 Y-1.5932 Z0.4593
X2.6075 Y-1.5918 Z0.4629
X2.6072 Y-1.5909 Z0.4667
Y-1.5906 Z0.4706
G0 Z1.4125
(2D CONTOUR2)
G64 P0.0004 Q0.0004
G0 X3.6778 Y-1.102
Z1.4125
Z1.0125
G1 Z0.4706 F80.
X3.6776 Y-1.1023 Z0.4667 F50.
X3.6772 Y-1.1031 Z0.4629
X3.6765 Y-1.1044 Z0.4593
X3.6755 Y-1.1062 Z0.4559
X3.6742 Y-1.1084 Z0.4529
X3.6728 Y-1.111 Z0.4504
X3.6712 Y-1.114 Z0.4483
X3.6695 Y-1.1171 Z0.4468
X3.6676 Y-1.1205 Z0.4459
X3.6657 Y-1.1239 Z0.4456
X3.6537 Y-1.1458
G3 X3.6636 Y-1.1798 I0.0219 J-0.012
G1 X3.7513 Y-1.2279
G2 X3.7765 Y-1.2432 I-0.1548 J-0.2822
G1 X4.4949 Y-1.7278
X4.5081 Y-1.7347
G3 X4.7829 Y-1.2738 I0.1246 J0.2381
G1 X3.6753 Y-0.5267
G3 X3.6406 Y-0.5335 I-0.014 J-0.0207
G1 X3.6266 Y-0.5542
X3.6244 Y-0.5574 Z0.4459
X3.6223 Y-0.5606 Z0.4468
X3.6202 Y-0.5636 Z0.4483
X3.6184 Y-0.5664 Z0.4504
X3.6167 Y-0.5688 Z0.4529
X3.6153 Y-0.571 Z0.4559
X3.6141 Y-0.5727 Z0.4593
X3.6133 Y-0.5739 Z0.4629
X3.6128 Y-0.5747 Z0.4667
X3.6126 Y-0.5749 Z0.4706
G0 Z1.0125
X3.3734 Y-0.5525
G1 Z0.4706 F80.
X3.3732 Y-0.5522 Z0.4667 F50.
X3.3727 Y-0.5515 Z0.4629
X3.3718 Y-0.5502 Z0.4593
X3.3707 Y-0.5486 Z0.4559
X3.3692 Y-0.5465 Z0.4529
X3.3675 Y-0.544 Z0.4504
X3.3656 Y-0.5413 Z0.4483
X3.3635 Y-0.5383 Z0.4468
X3.3613 Y-0.5352 Z0.4459
X3.3591 Y-0.532 Z0.4456
X3.3447 Y-0.5115
G3 X3.3099 Y-0.5054 I-0.0205 J-0.0143
G1 X2.2155 Y-1.2717
G3 X2.4983 Y-1.7277 I0.1541 J-0.2201
G1 X2.5114 Y-1.7205
X3.2212 Y-1.2235
G2 X3.2461 Y-1.2077 I0.1846 J-0.2636
G1 X3.3329 Y-1.1581
G3 X3.3422 Y-1.124 I-0.0124 J0.0217
G1 X3.3298 Y-1.1023
X3.3279 Y-1.0989 Z0.4459
X3.326 Y-1.0956 Z0.4468
X3.3242 Y-1.0925 Z0.4483
X3.3225 Y-1.0896 Z0.4504
X3.321 Y-1.087 Z0.4529
X3.3198 Y-1.0848 Z0.4559
X3.3188 Y-1.083 Z0.4593
X3.318 Y-1.0817 Z0.4629
X3.3176 Y-1.0809 Z0.4667
X3.3174 Y-1.0806 Z0.4706
G0 Z1.0125
X3.6778 Y-1.102
G1 Z0.4706 F80.
X3.6776 Y-1.1023 Z0.4667 F50.
X3.6772 Y-1.1031 Z0.4629
X3.6765 Y-1.1044 Z0.4593
X3.6755 Y-1.1062 Z0.4559
X3.6742 Y-1.1084 Z0.4529
X3.6728 Y-1.111 Z0.4504
X3.6712 Y-1.114 Z0.4483
X3.6695 Y-1.1171 Z0.4468
X3.6676 Y-1.1205 Z0.4459
X3.6657 Y-1.1239 Z0.4456
X3.6537 Y-1.1458
G3 X3.6636 Y-1.1798 I0.0219 J-0.012
G1 X3.7513 Y-1.2279
G2 X3.7765 Y-1.2432 I-0.1548 J-0.2822
G1 X4.4949 Y-1.7278
X4.5081 Y-1.7347
G3 X4.7829 Y-1.2738 I0.1246 J0.2381
G1 X3.6753 Y-0.5267
G3 X3.6406 Y-0.5335 I-0.014 J-0.0207
G1 X3.6266 Y-0.5542
X3.6244 Y-0.5574 Z0.4459
X3.6223 Y-0.5606 Z0.4468
X3.6202 Y-0.5636 Z0.4483
X3.6184 Y-0.5664 Z0.4504
X3.6167 Y-0.5688 Z0.4529
X3.6153 Y-0.571 Z0.4559
X3.6141 Y-0.5727 Z0.4593
X3.6133 Y-0.5739 Z0.4629
X3.6128 Y-0.5747 Z0.4667
X3.6126 Y-0.5749 Z0.4706
G0 Z1.0125
X3.3734 Y-0.5525
G1 Z0.4706 F80.
X3.3732 Y-0.5522 Z0.4667 F50.
X3.3727 Y-0.5515 Z0.4629
X3.3718 Y-0.5502 Z0.4593
X3.3707 Y-0.5486 Z0.4559
X3.3692 Y-0.5465 Z0.4529
X3.3675 Y-0.544 Z0.4504
X3.3656 Y-0.5413 Z0.4483
X3.3635 Y-0.5383 Z0.4468
X3.3613 Y-0.5352 Z0.4459
X3.3591 Y-0.532 Z0.4456
X3.3447 Y-0.5115
G3 X3.3099 Y-0.5054 I-0.0205 J-0.0143
G1 X2.2155 Y-1.2717
G3 X2.4983 Y-1.7277 I0.1541 J-0.2201
G1 X2.5114 Y-1.7205
X3.2212 Y-1.2235
G2 X3.2461 Y-1.2077 I0.1846 J-0.2636
G1 X3.3329 Y-1.1581
G3 X3.3422 Y-1.124 I-0.0124 J0.0217
G1 X3.3298 Y-1.1023
X3.3279 Y-1.0989 Z0.4459
X3.326 Y-1.0956 Z0.4468
X3.3242 Y-1.0925 Z0.4483
X3.3225 Y-1.0896 Z0.4504
X3.321 Y-1.087 Z0.4529
X3.3198 Y-1.0848 Z0.4559
X3.3188 Y-1.083 Z0.4593
X3.318 Y-1.0817 Z0.4629
X3.3176 Y-1.0809 Z0.4667
X3.3174 Y-1.0806 Z0.4706
G0 Z1.4125
(DRILL1)
G0 X4.1757 Y-1.1884
Z1.4125
Z1.0125
G98 G81 X4.1757 Y-1.1884 Z0.2578 R0.6456 F10.
X4.7632 Y-1.5847
G80
G0 Z1.4125
M5
G53 G0 Z0.
(2D CONTOUR3)
M9
M1
T32 M6
T33
S7500 M3
G17 G90 G94
G54
G64 P0.0004 Q0.0004
M8
G0 X2.2485 Y-1.5766
G43 Z1.4125 H32
G0 Z1.0125
G1 Z0.2778 F10.
G3 X2.2326 Y-1.5877 I-0.0079 J-0.0055 F5.
X2.2485 Y-1.5766 I0.0079 J0.0055
X2.2326 Y-1.5877 I-0.0079 J-0.0055
X2.2485 Y-1.5766 I0.0079 J0.0055
G0 Z1.0125
X2.829 Y-1.1701
G1 Z0.2778 F10.
G3 X2.8132 Y-1.1812 I-0.0079 J-0.0055 F5.
X2.829 Y-1.1701 I0.0079 J0.0055
X2.8132 Y-1.1812 I-0.0079 J-0.0055
X2.829 Y-1.1701 I0.0079 J0.0055
G0 Z1.4125
(2D CONTOUR3 2)
G0 X4.2139 Y-1.2141
Z1.4125
Z1.0125
G1 Z0.2778 F10.
G3 X4.1375 Y-1.1626 I-0.0382 J0.0258 F5.
X4.2139 Y-1.2141 I0.0382 J-0.0258
X4.1375 Y-1.1626 I-0.0382 J0.0258
X4.2139 Y-1.2141 I0.0382 J-0.0258
G0 Z1.0125
X4.8081 Y-1.5949
G1 Z0.2778 F10.
G3 X4.7183 Y-1.5744 I-0.0449 J0.0102 F5.
X4.8081 Y-1.5949 I0.0449 J-0.0102
X4.7183 Y-1.5744 I-0.0449 J0.0102
X4.8081 Y-1.5949 I0.0449 J-0.0102
G0 Z1.4125
M5
M9
G53 G0 Z0.
M30
%
