%
(HANDLE SIDE HOLES)
(T51 D=0.201 CR=0. TAPER=118DEG - ZMIN=-0.33 - DRILL)
(T102 D=0.2 CR=0. TAPER=135DEG - ZMIN=-1.2225 - DRILL)
G90 G94 G17 G91.1
G20
G53 G0 Z0.
(DRILL1)
T51 M6
T102
S5000 M3
G17 G90 G94
G55
M8
G0 X0.1575 Y-0.1772
G43 Z0.6 H51
G0 Z0.2
G98 G81 X0.1575 Y-0.1772 Z-0.015 R0.2 F5.
G80
G0 X1.0236 Z0.2
G81 X1.0236 Y-0.1772 Z-0.33 R-0.115 F5.
G80
G0 Z0.6
M5
G53 G0 Z0.
(DRILL3)
M9
M1
T102 M6
T51
S4000 M3
G17 G90 G94
G55
M8
G0 X0.1575 Y-0.1772
G43 Z0.6 H102
G0 Z0.2
G1 Z-0.4 F15.
G0 Z0.2
Z-0.32
G1 Z-0.6 F15.
G0 Z0.2
Z-0.52
G1 Z-0.8 F15.
G0 Z0.2
Z-0.72
G1 Z-1. F15.
G0 Z0.2
Z-0.92
G1 Z-1.2 F15.
G0 Z0.2
Z-1.12
G1 Z-1.2225 F15.
G4 P0.05
G0 Z0.2
X1.0236
Z-0.115
G1 Z-0.715 F15.
G0 Z-0.115
Z-0.635
G1 Z-0.915 F15.
G0 Z-0.115
Z-0.835
G1 Z-1.115 F15.
G0 Z-0.115
Z-1.035
G1 Z-1.2225 F15.
G4 P0.05
G0 Z0.2
Z0.6
M5
M9
G53 G0 Z0.
M30
%
