%
(TIP END HOLES)
(T51 D=0.201 CR=0. TAPER=118DEG - ZMIN=-2.4426 - DRILL)
(T101 D=0.1 CR=0. TAPER=135DEG - ZMIN=-2.0892 - DRILL)
(T102 D=0.2 CR=0. TAPER=135DEG - ZMIN=-1.1438 - DRILL)
G90 G94 G17 G91.1
G20
G53 G0 Z0.
(DRILL1)
T51 M6
T102
S5000 M3
G17 G90 G94
G54
M8
G0 X3.3189 Y-0.1772
G43 Z0.6 H51
G0 Z0.2
G98 G81 X3.3189 Y-0.1772 Z-0.015 R0.2 F5.
G80
G0 X2.4528 Z0.2
G81 X2.4528 Y-0.1772 Z-0.33 R-0.115 F5.
G80
G0 X0.6693 Z0.2
G81 X0.6693 Y-0.1772 Z-1.6685 R-1.4535 F5.
X0.3937
X0.1181
G80
G0 Z0.6
(DRILL2)
G0 X0.3937 Y-0.1772
Z0.6
Z0.2
Z-1.4535
G1 Z-1.8535 F25.
G0 Z-1.4535
Z-1.7735
G1 Z-2.0535 F25.
G0 Z-1.4535
Z-1.9735
G1 Z-2.2535 F25.
G0 Z-1.4535
Z-2.1735
G1 Z-2.4426 F25.
G4 P0.05
G0 Z0.2
Z0.6
M5
G53 G0 Z0.
(DRILL3)
M9
M1
T102 M6
T101
S4000 M3
G17 G90 G94
G54
M8
G0 X2.4528 Y-0.1772
G43 Z0.6 H102
G0 Z0.2
Z-0.115
G1 Z-0.715 F15.
G0 Z-0.115
Z-0.635
G1 Z-0.915 F15.
G0 Z-0.115
Z-0.835
G1 Z-1.115 F15.
G0 Z-0.115
Z-1.035
G1 Z-1.1438 F15.
G4 P0.05
G0 Z0.2
X3.3189
G1 Z-0.4 F15.
G0 Z0.2
Z-0.32
G1 Z-0.6 F15.
G0 Z0.2
Z-0.52
G1 Z-0.6713 F15.
G4 P0.05
G0 Z0.2
Z0.6
M5
G53 G0 Z0.
(DRILL4)
M9
M1
T101 M6
T51
S5000 M3
G17 G90 G94
G54
M8
G0 X0.1181 Y-0.1772
G43 Z0.6 H101
G0 Z0.2
Z-1.4535
G1 Z-1.7735 F15.
G0 Z-1.4535
Z-1.6935
G1 Z-1.8735 F15.
G0 Z-1.4535
Z-1.7935
G1 Z-1.9535 F15.
G0 Z-1.4535
Z-1.8735
G1 Z-2.0135 F15.
G0 Z-1.4535
Z-1.9335
G1 Z-2.0735 F15.
G0 Z-1.4535
Z-1.9935
G1 Z-2.0892 F15.
G4 P0.05
G0 Z0.2
X0.6693
Z-1.4535
G1 Z-1.7735 F15.
G0 Z-1.4535
Z-1.6935
G1 Z-1.8735 F15.
G0 Z-1.4535
Z-1.7935
G1 Z-1.9535 F15.
G0 Z-1.4535
Z-1.8735
G1 Z-2.0135 F15.
G0 Z-1.4535
Z-1.9335
G1 Z-2.0735 F15.
G0 Z-1.4535
Z-1.9935
G1 Z-2.0892 F15.
G4 P0.05
G0 Z0.2
Z0.6
M5
M9
G53 G0 Z0.
M30
%
