%
(YOKE HOLES)
(T51 D=0.201 CR=0. TAPER=118DEG - ZMIN=-0.015 - DRILL)
(T101 D=0.1 CR=0. TAPER=135DEG - ZMIN=-0.3676 - DRILL)
(T102 D=0.2 CR=0. TAPER=135DEG - ZMIN=-0.3383 - DRILL)
G90 G94 G17 G91.1
G20
G53 G0 Z0.
(DRILL1)
T51 M6
T101
S5000 M3
G17 G90 G94
G54
M8
G0 X0.1181 Y-0.1772
G43 Z0.6 H51
G0 Z0.2
G98 G81 X0.1181 Y-0.1772 Z-0.015 R0.2 F5.
X0.3937
X0.6693
G80
G0 Z0.6
M5
G53 G0 Z0.
(DRILL4)
M9
M1
T101 M6
T102
S5000 M3
G17 G90 G94
G54
M8
G0 X0.1181 Y-0.1772
G43 Z0.6 H101
G0 Z0.2
G1 Z-0.12 F15.
G0 Z0.2
Z-0.04
G1 Z-0.22 F15.
G0 Z0.2
Z-0.14
G1 Z-0.3 F15.
G0 Z0.2
Z-0.22
G1 Z-0.36 F15.
G0 Z0.2
Z-0.28
G1 Z-0.3676 F15.
G4 P0.05
G0 Z0.2
X0.6693
G1 Z-0.12 F15.
G0 Z0.2
Z-0.04
G1 Z-0.22 F15.
G0 Z0.2
Z-0.14
G1 Z-0.3 F15.
G0 Z0.2
Z-0.22
G1 Z-0.36 F15.
G0 Z0.2
Z-0.28
G1 Z-0.3676 F15.
G4 P0.05
G0 Z0.2
Z0.6
M5
G53 G0 Z0.
(DRILL3)
M9
M1
T102 M6
T101
S4000 M3
G17 G90 G94
G54
M8
G0 X0.3937 Y-0.1772
G43 Z0.6 H102
G0 Z0.2
G1 Z-0.3383 F15.
G4 P0.05
G0 Z0.2
Z0.6
M5
G53 G0 Z0.
(DRILL4 2)
M9
M1
T101 M6
T51
S1500 M3
G17 G90 G94
G54
M8
G0 X0.1181 Y-0.1772
G43 Z0.6 H101
G0 Z0.2
G85 X0.1181 Y-0.1772 Z-0.2676 R0.2 F3.
X0.6693
G80
G0 Z0.6
M5
M9
G53 G0 Z0.
M30
%
