%
(ISCG BORE)
(T22 D=0.1875 CR=0.008 - ZMIN=0.014 - BULLNOSE END MILL)
G90 G94 G17 G91.1
G20
G53 G0 Z0.
(2D CONTOUR1 4)
T22 M6
S5000 M3
G17 G90 G94
G54
G64 P0.0004 Q0.0004
M8
G0 X3.9644 Y-1.1715
G43 Z0.6984 H22
G0 Z0.4562
G1 X3.9642 Y-1.1713 Z0.4405 F5.
X3.9637 Y-1.1705 Z0.4248
X3.9628 Y-1.1692 Z0.4092
X3.9616 Y-1.1675 Z0.3936
X3.96 Y-1.1652 Z0.3782
X3.9581 Y-1.1624 Z0.3628
X3.9558 Y-1.1592 Z0.3476
X3.9532 Y-1.1554 Z0.3326
X3.9503 Y-1.1512 Z0.3178
X3.947 Y-1.1465 Z0.3031
X3.9434 Y-1.1413 Z0.2887
X3.9395 Y-1.1357 Z0.2746
X3.9353 Y-1.1296 Z0.2608
X3.9308 Y-1.1231 Z0.2472
X3.9259 Y-1.1161 Z0.234
X3.9208 Y-1.1087 Z0.2211
X3.9154 Y-1.101 Z0.2086
X3.9097 Y-1.0928 Z0.1964
X3.9038 Y-1.0842 Z0.1847
X3.8976 Y-1.0753 Z0.1734
X3.8911 Y-1.0659 Z0.1625
X3.8845 Y-1.0563 Z0.1521
X3.8775 Y-1.0463 Z0.1421
X3.8704 Y-1.036 Z0.1326
X3.8631 Y-1.0254 Z0.1236
X3.8555 Y-1.0146 Z0.1152
X3.8478 Y-1.0034 Z0.1072
X3.8399 Y-0.992 Z0.0998
X3.8319 Y-0.9804 Z0.093
X3.8237 Y-0.9686 Z0.0867
X3.8153 Y-0.9566 Z0.0809
X3.8069 Y-0.9444 Z0.0758
X3.7983 Y-0.932 Z0.0712
X3.7896 Y-0.9196 Z0.0673
X3.7809 Y-0.9069 Z0.0639
X3.7721 Y-0.8942 Z0.0611
X3.7632 Y-0.8815 Z0.059
X3.7543 Y-0.8686 Z0.0574
X3.7454 Y-0.8557 Z0.0565
X3.7364 Y-0.8428 Z0.0562
X3.7257 Y-0.8274
G3 X3.7135 Y-0.8151 I-0.0411 J-0.0285
X2.9569 Y-1.8852 I-0.3783 J-0.5351 F15.
X3.7135 Y-0.8151 I0.3783 J0.5351
X3.6978 Y-0.8077 I-0.0289 J-0.0408
G1 X3.6797 Y-0.8027
X3.6646 Y-0.7986 Z0.0565
X3.6495 Y-0.7945 Z0.0574
X3.6344 Y-0.7904 Z0.059
X3.6194 Y-0.7863 Z0.0611
X3.6044 Y-0.7822 Z0.0639
X3.5896 Y-0.7782 Z0.0673
X3.575 Y-0.7742 Z0.0712
X3.5605 Y-0.7702 Z0.0758
X3.5462 Y-0.7663 Z0.0809
X3.5321 Y-0.7624 Z0.0867
X3.5182 Y-0.7586 Z0.093
X3.5045 Y-0.7549 Z0.0998
X3.4912 Y-0.7513 Z0.1072
X3.4781 Y-0.7477 Z0.1152
X3.4653 Y-0.7442 Z0.1236
X3.4529 Y-0.7408 Z0.1326
X3.4408 Y-0.7375 Z0.1421
X3.4291 Y-0.7343 Z0.1521
X3.4178 Y-0.7313 Z0.1625
X3.4069 Y-0.7283 Z0.1734
X3.3964 Y-0.7254 Z0.1847
X3.3863 Y-0.7227 Z0.1964
X3.3767 Y-0.72 Z0.2086
X3.3675 Y-0.7175 Z0.2211
X3.3589 Y-0.7152 Z0.234
X3.3507 Y-0.713 Z0.2472
X3.343 Y-0.7109 Z0.2608
X3.3359 Y-0.7089 Z0.2746
X3.3293 Y-0.7071 Z0.2887
X3.3232 Y-0.7055 Z0.3031
X3.3177 Y-0.7039 Z0.3178
X3.3127 Y-0.7026 Z0.3326
X3.3083 Y-0.7014 Z0.3476
X3.3045 Y-0.7003 Z0.3628
X3.3013 Y-0.6995 Z0.3782
X3.2986 Y-0.6987 Z0.3936
X3.2965 Y-0.6982 Z0.4092
X3.295 Y-0.6978 Z0.4248
X3.2941 Y-0.6975 Z0.4405
X3.2938 Y-0.6974 Z0.4562
G0 X3.9644 Y-1.1715
Z0.4384
G1 Z0.414 F10.
X3.9642 Y-1.1713 Z0.3983 F5.
X3.9637 Y-1.1705 Z0.3826
X3.9628 Y-1.1692 Z0.367
X3.9616 Y-1.1675 Z0.3514
X3.96 Y-1.1652 Z0.336
X3.9581 Y-1.1624 Z0.3206
X3.9558 Y-1.1592 Z0.3054
X3.9532 Y-1.1554 Z0.2904
X3.9503 Y-1.1512 Z0.2756
X3.947 Y-1.1465 Z0.2609
X3.9434 Y-1.1413 Z0.2465
X3.9395 Y-1.1357 Z0.2324
X3.9353 Y-1.1296 Z0.2186
X3.9308 Y-1.1231 Z0.205
X3.9259 Y-1.1161 Z0.1918
X3.9208 Y-1.1087 Z0.1789
X3.9154 Y-1.101 Z0.1664
X3.9097 Y-1.0928 Z0.1542
X3.9038 Y-1.0842 Z0.1425
X3.8976 Y-1.0753 Z0.1312
X3.8911 Y-1.0659 Z0.1203
X3.8845 Y-1.0563 Z0.1098
X3.8775 Y-1.0463 Z0.0999
X3.8704 Y-1.036 Z0.0904
X3.8631 Y-1.0254 Z0.0814
X3.8555 Y-1.0146 Z0.0729
X3.8478 Y-1.0034 Z0.065
X3.8399 Y-0.992 Z0.0576
X3.8319 Y-0.9804 Z0.0507
X3.8237 Y-0.9686 Z0.0444
X3.8153 Y-0.9566 Z0.0387
X3.8069 Y-0.9444 Z0.0336
X3.7983 Y-0.932 Z0.029
X3.7896 Y-0.9196 Z0.0251
X3.7809 Y-0.9069 Z0.0217
X3.7721 Y-0.8942 Z0.0189
X3.7632 Y-0.8815 Z0.0168
X3.7543 Y-0.8686 Z0.0152
X3.7454 Y-0.8557 Z0.0143
X3.7364 Y-0.8428 Z0.014
X3.7257 Y-0.8274
G3 X3.7135 Y-0.8151 I-0.0411 J-0.0285
X2.9569 Y-1.8852 I-0.3783 J-0.5351 F15.
X3.7135 Y-0.8151 I0.3783 J0.5351
X3.6978 Y-0.8077 I-0.0289 J-0.0408
G1 X3.6797 Y-0.8027
X3.6646 Y-0.7986 Z0.0143
X3.6495 Y-0.7945 Z0.0152
X3.6344 Y-0.7904 Z0.0168
X3.6194 Y-0.7863 Z0.0189
X3.6044 Y-0.7822 Z0.0217
X3.5896 Y-0.7782 Z0.0251
X3.575 Y-0.7742 Z0.029
X3.5605 Y-0.7702 Z0.0336
X3.5462 Y-0.7663 Z0.0387
X3.5321 Y-0.7624 Z0.0444
X3.5182 Y-0.7586 Z0.0507
X3.5045 Y-0.7549 Z0.0576
X3.4912 Y-0.7513 Z0.065
X3.4781 Y-0.7477 Z0.0729
X3.4653 Y-0.7442 Z0.0814
X3.4529 Y-0.7408 Z0.0904
X3.4408 Y-0.7375 Z0.0999
X3.4291 Y-0.7343 Z0.1098
X3.4178 Y-0.7313 Z0.1203
X3.4069 Y-0.7283 Z0.1312
X3.3964 Y-0.7254 Z0.1425
X3.3863 Y-0.7227 Z0.1542
X3.3767 Y-0.72 Z0.1664
X3.3675 Y-0.7175 Z0.1789
X3.3589 Y-0.7152 Z0.1918
X3.3507 Y-0.713 Z0.205
X3.343 Y-0.7109 Z0.2186
X3.3359 Y-0.7089 Z0.2324
X3.3293 Y-0.7071 Z0.2465
X3.3232 Y-0.7055 Z0.2609
X3.3177 Y-0.7039 Z0.2756
X3.3127 Y-0.7026 Z0.2904
X3.3083 Y-0.7014 Z0.3054
X3.3045 Y-0.7003 Z0.3206
X3.3013 Y-0.6995 Z0.336
X3.2986 Y-0.6987 Z0.3514
X3.2965 Y-0.6982 Z0.367
X3.295 Y-0.6978 Z0.3826
X3.2941 Y-0.6975 Z0.3983
X3.2938 Y-0.6974 Z0.414
G0 Z0.6984
M5
M9
G53 G0 Z0.
M30
%
