%
(JUST ROCKER PLATES)
(T22 D=0.1875 CR=0.008 - ZMIN=0.008 - BULLNOSE END MILL)
(T50 D=0.25 CR=0. TAPER=140DEG - ZMIN=0. - DRILL)
G90 G94 G17 G91.1
G20
G53 G0 Z0.
(DRILL1 3)
T50 M6
T22
S1000 M3
G17 G90 G94
G54
M8
G0 X1.7143 Y-1.5342
G43 Z0.8984 H50
G0 Z0.4984
G98 G81 X1.7143 Y-1.5342 Z0. R0.1984 F3.
X0.4337 Y-1.4653
G80
G0 Z0.8984
M5
G53 G0 Z0.
(2D CONTOUR1 6)
M9
M1
T22 M6
T50
S5000 M3
G17 G90 G94
G54
G64 P0.0004 Q0.0004
M8
G0 X0.45 Y-1.4517
G43 Z0.6984 H22
G0 Z0.2984
G1 Z0.0652 F7.
X0.4497 Y-1.4518 Z0.0625
X0.4488 Z0.06
X0.4474 Y-1.452 Z0.0577
X0.4455 Y-1.4522 Z0.0558
X0.4432 Y-1.4524 Z0.0544
X0.4407 Y-1.4526 Z0.0535
X0.4381 Y-1.4529 Z0.0532
X0.3186 Y-1.4643
G3 X0.3078 Y-1.4773 I0.0011 J-0.0119
X0.5596 Y-1.4533 I0.1259 J0.012
X0.3078 Y-1.4773 I-0.1259 J-0.012
X0.3209 Y-1.4881 I0.0119 J0.0011
G1 X0.4403 Y-1.4768
X0.443 Y-1.4765 Z0.0535
X0.4455 Y-1.4763 Z0.0544
X0.4478 Y-1.4761 Z0.0558
X0.4497 Y-1.4759 Z0.0577
X0.4511 Y-1.4757 Z0.06
X0.452 Z0.0625
X0.4523 Y-1.4756 Z0.0652
G0 Z0.2984
X0.45 Y-1.4517
G1 Z0.02 F7.
X0.4497 Y-1.4518 Z0.0173
X0.4488 Z0.0148
X0.4474 Y-1.452 Z0.0125
X0.4455 Y-1.4522 Z0.0106
X0.4432 Y-1.4524 Z0.0092
X0.4407 Y-1.4526 Z0.0083
X0.4381 Y-1.4529 Z0.008
X0.3186 Y-1.4643
G3 X0.3078 Y-1.4773 I0.0011 J-0.0119
X0.5596 Y-1.4533 I0.1259 J0.012
X0.3078 Y-1.4773 I-0.1259 J-0.012
X0.3209 Y-1.4881 I0.0119 J0.0011
G1 X0.4403 Y-1.4768
X0.443 Y-1.4765 Z0.0083
X0.4455 Y-1.4763 Z0.0092
X0.4478 Y-1.4761 Z0.0106
X0.4497 Y-1.4759 Z0.0125
X0.4511 Y-1.4757 Z0.0148
X0.452 Z0.0173
X0.4523 Y-1.4756 Z0.02
G0 Z0.2984
X1.732 Y-1.5225
G1 Z0.0652 F7.
X1.7317 Z0.0625
X1.7308 Z0.06
X1.7294 Y-1.5224 Z0.0577
X1.7275 Z0.0558
X1.7252 Z0.0544
X1.7227 Y-1.5223 Z0.0535
X1.72 Z0.0532
X1.6 Y-1.52
G3 X1.5878 Y-1.5318 I-0.0002 J-0.012
X1.8407 Y-1.5365 I0.1264 J-0.0024
X1.5878 Y-1.5318 I-0.1264 J0.0024
X1.5996 Y-1.544 I0.012 J-0.0002
G1 X1.7196 Y-1.5463
X1.7222 Z0.0535
X1.7248 Y-1.5464 Z0.0544
X1.727 Z0.0558
X1.7289 Z0.0577
X1.7304 Y-1.5465 Z0.06
X1.7313 Z0.0625
X1.7316 Z0.0652
G0 Z0.2984
X1.732 Y-1.5225
G1 Z0.02 F7.
X1.7317 Z0.0173
X1.7308 Z0.0148
X1.7294 Y-1.5224 Z0.0125
X1.7275 Z0.0106
X1.7252 Z0.0092
X1.7227 Y-1.5223 Z0.0083
X1.72 Z0.008
X1.6 Y-1.52
G3 X1.5878 Y-1.5318 I-0.0002 J-0.012
X1.8407 Y-1.5365 I0.1264 J-0.0024
X1.5878 Y-1.5318 I-0.1264 J0.0024
X1.5996 Y-1.544 I0.012 J-0.0002
G1 X1.7196 Y-1.5463
X1.7222 Z0.0083
X1.7248 Y-1.5464 Z0.0092
X1.727 Z0.0106
X1.7289 Z0.0125
X1.7304 Y-1.5465 Z0.0148
X1.7313 Z0.0173
X1.7316 Z0.02
G0 Z0.6984
(2D CONTOUR1 7)
G0 X-0.1058 Y-1.5356
Z0.6984
Z0.2984
G1 Z0.072 F7.
X-0.1055 Z0.0687
X-0.1046 Y-1.5355 Z0.0655
X-0.1033 Y-1.5353 Z0.0626
X-0.1014 Y-1.5352 Z0.0599
X-0.0991 Y-1.5349 Z0.0576
X-0.0964 Y-1.5347 Z0.0557
X-0.0935 Y-1.5344 Z0.0543
X-0.0903 Y-1.5341 Z0.0535
X-0.0871 Y-1.5338 Z0.0532
X-0.0684 Y-1.532
G3 X-0.0516 Y-1.5116 I-0.0018 J0.0187
G2 X0.0609 Y-1.1513 I0.4853 J0.0462
G3 X0.4944 Y-0.3745 I-1.7928 J1.5098
G2 X0.5824 Y-0.3101 I0.089 J-0.0293
G1 X0.9133 Y-0.3065
G2 X1.008 Y-0.3992 I0.001 J-0.0937
G1 X1.0396 Y-3.3061
G2 X0.9469 Y-3.4009 I-0.0937 J-0.001
G1 X0.7467 Y-3.4031
G2 X0.6519 Y-3.3103 I-0.001 J0.0937
G3 X0.0678 Y-1.7874 I-2.3437 J-0.0254
G2 X-0.0516 Y-1.5116 I0.3659 J0.322
G3 X-0.072 Y-1.4947 I-0.0187 J-0.0018
G1 X-0.0907 Y-1.4965
X-0.0939 Y-1.4968 Z0.0535
X-0.097 Y-1.4971 Z0.0543
X-0.1 Y-1.4974 Z0.0557
X-0.1027 Y-1.4976 Z0.0576
X-0.105 Y-1.4978 Z0.0599
X-0.1068 Y-1.498 Z0.0626
X-0.1082 Y-1.4981 Z0.0655
X-0.109 Y-1.4982 Z0.0687
X-0.1093 Y-1.4983 Z0.072
G0 Z0.2984
X1.0719 Y-1.5397
G1 Z0.072 F7.
X1.0722 Z0.0687
X1.0731 Z0.0655
X1.0744 Y-1.5398 Z0.0626
X1.0763 Z0.0599
X1.0786 Z0.0576
X1.0813 Y-1.5399 Z0.0557
X1.0843 Z0.0543
X1.0874 Y-1.54 Z0.0535
X1.0907 Y-1.5401 Z0.0532
X1.1094 Y-1.5404
G3 X1.1285 Y-1.522 I0.0003 J0.0187
G1 X1.1473 Y-0.4641
G2 X1.2427 Y-0.372 I0.0937 J-0.0017
G1 X1.5735 Y-0.3779
G2 X1.6611 Y-0.4429 I-0.0017 J-0.0937
G3 X2.0892 Y-1.2227 I2.2313 J0.7176
G2 X2.078 Y-1.8587 I-0.375 J-0.3114
G3 X1.4833 Y-3.3776 I1.7488 J-1.5605
G2 X1.3879 Y-3.4697 I-0.0937 J0.0017
G1 X1.1878 Y-3.4661
G2 X1.0957 Y-3.3707 I0.0017 J0.0937
G1 X1.1285 Y-1.522
G3 X1.1101 Y-1.5029 I-0.0187 J0.0003
G1 X1.0913 Y-1.5026
X1.0881 Y-1.5025 Z0.0535
X1.0849 Y-1.5024 Z0.0543
X1.082 Z0.0557
X1.0793 Y-1.5023 Z0.0576
X1.077 Z0.0599
X1.0751 Z0.0626
X1.0737 Y-1.5022 Z0.0655
X1.0729 Z0.0687
X1.0726 Z0.072
G0 Z0.2984
X-0.1058 Y-1.5356
G1 Z0.0267 F7.
X-0.1055 Z0.0235
X-0.1046 Y-1.5355 Z0.0203
X-0.1033 Y-1.5353 Z0.0174
X-0.1014 Y-1.5352 Z0.0147
X-0.0991 Y-1.5349 Z0.0124
X-0.0964 Y-1.5347 Z0.0105
X-0.0935 Y-1.5344 Z0.0091
X-0.0903 Y-1.5341 Z0.0083
X-0.0871 Y-1.5338 Z0.008
X-0.0684 Y-1.532
G3 X-0.0516 Y-1.5116 I-0.0018 J0.0187
G2 X0.0609 Y-1.1513 I0.4853 J0.0462
G3 X0.4944 Y-0.3745 I-1.7928 J1.5098
G2 X0.5824 Y-0.3101 I0.089 J-0.0293
G1 X0.9133 Y-0.3065
G2 X1.008 Y-0.3992 I0.001 J-0.0937
G1 X1.0396 Y-3.3061
G2 X0.9469 Y-3.4009 I-0.0937 J-0.001
G1 X0.7467 Y-3.4031
G2 X0.6519 Y-3.3103 I-0.001 J0.0937
G3 X0.0678 Y-1.7874 I-2.3437 J-0.0254
G2 X-0.0516 Y-1.5116 I0.3659 J0.322
G3 X-0.072 Y-1.4947 I-0.0187 J-0.0018
G1 X-0.0907 Y-1.4965
X-0.0939 Y-1.4968 Z0.0083
X-0.097 Y-1.4971 Z0.0091
X-0.1 Y-1.4974 Z0.0105
X-0.1027 Y-1.4976 Z0.0124
X-0.105 Y-1.4978 Z0.0147
X-0.1068 Y-1.498 Z0.0174
X-0.1082 Y-1.4981 Z0.0203
X-0.109 Y-1.4982 Z0.0235
X-0.1093 Y-1.4983 Z0.0267
G0 Z0.2984
X1.0719 Y-1.5397
G1 Z0.0267 F7.
X1.0722 Z0.0235
X1.0731 Z0.0203
X1.0744 Y-1.5398 Z0.0174
X1.0763 Z0.0147
X1.0786 Z0.0124
X1.0813 Y-1.5399 Z0.0105
X1.0843 Z0.0091
X1.0874 Y-1.54 Z0.0083
X1.0907 Y-1.5401 Z0.008
X1.1094 Y-1.5404
G3 X1.1285 Y-1.522 I0.0003 J0.0187
G1 X1.1473 Y-0.4641
G2 X1.2427 Y-0.372 I0.0937 J-0.0017
G1 X1.5735 Y-0.3779
G2 X1.6611 Y-0.4429 I-0.0017 J-0.0937
G3 X2.0892 Y-1.2227 I2.2313 J0.7176
G2 X2.078 Y-1.8587 I-0.375 J-0.3114
G3 X1.4833 Y-3.3776 I1.7488 J-1.5605
G2 X1.3879 Y-3.4697 I-0.0937 J0.0017
G1 X1.1878 Y-3.4661
G2 X1.0957 Y-3.3707 I0.0017 J0.0937
G1 X1.1285 Y-1.522
G3 X1.1101 Y-1.5029 I-0.0187 J0.0003
G1 X1.0913 Y-1.5026
X1.0881 Y-1.5025 Z0.0083
X1.0849 Y-1.5024 Z0.0091
X1.082 Z0.0105
X1.0793 Y-1.5023 Z0.0124
X1.077 Z0.0147
X1.0751 Z0.0174
X1.0737 Y-1.5022 Z0.0203
X1.0729 Z0.0235
X1.0726 Z0.0267
G0 Z0.6984
M5
M9
G53 G0 Z0.
M30
%
