%
(OP1 - HOLES IN PLATE)
(T50 D=0.25 CR=0. TAPER=140DEG - ZMIN=0.0734 - DRILL)
(T103 D=0.3 CR=0. TAPER=135DEG - ZMIN=0. - DRILL)
G90 G94 G17 G91.1
G20
G53 G0 Z0.
(DRILL1 2)
T50 M6
T103
S1000 M3
G17 G90 G94
G54
M8
G0 X0.188 Y-0.2976
G43 Z1.4984 H50
G0 Z1.0984
G98 G81 X0.188 Y-0.2976 Z0.0734 R0.1984 F3.
X0.2061 Y-3.5528
X3.3352 Y-1.3501
X5.7801 Y-0.3031
X5.781 Y-3.5751
G80
G0 Z1.4984
M5
G53 G0 Z0.
(DRILL3)
M9
M1
T103 M6
T50
S800 M3
G17 G90 G94
G54
M8
G0 X0.2061 Y-3.5528
G43 Z1.4984 H103
G0 Z1.0984
G81 X0.2061 Y-3.5528 Z0. R0.2984 F2.
X0.188 Y-0.2976
X3.3352 Y-1.3501
X5.7801 Y-0.3031
X5.781 Y-3.5751
G80
G0 Z1.4984
M5
M9
G53 G0 Z0.
M30
%
