%
(OP2 - ON PLATE)
(T22 D=0.1875 CR=0.008 - ZMIN=0.014 - BULLNOSE END MILL)
(T50 D=0.25 CR=0. TAPER=140DEG - ZMIN=0.0734 - DRILL)
(T102 D=0.2 CR=0. TAPER=135DEG - ZMIN=0. - DRILL)
G90 G94 G17 G91.1
G20
G53 G0 Z0.
(DRILL1)
T50 M6
T102
S1000 M3
G17 G90 G94
G54
M8
G0 X4.227 Y-2.4769
G43 Z0.8984 H50
G0 Z0.4984
G98 G81 X4.227 Y-2.4769 Z0.0734 R0.1984 F3.
X3.7769 Y-3.4002
X2.6 Y-3.4991
X4.7005 Y-1.9337
X4.8075 Y-0.7575
X4.29 Y-0.2762
X2.1118 Y-0.5963
X1.7143 Y-1.5342
X0.4337 Y-1.4653
G80
G0 Z0.8984
M5
G53 G0 Z0.
(DRILL2)
M9
M1
T102 M6
T22
S1000 M3
G17 G90 G94
G54
M8
G0 X4.227 Y-2.4769
G43 Z0.6984 H102
G0 Z0.2984
G81 X4.227 Y-2.4769 Z0. R0.2984 F2.
X3.7769 Y-3.4002
X2.6 Y-3.4991
X4.7005 Y-1.9337
X4.8075 Y-0.7575
X4.29 Y-0.2762
X2.1118 Y-0.5963
X1.7143 Y-1.5342
X0.4337 Y-1.4653
G80
G0 Z0.6984
M5
G53 G0 Z0.
(2D CONTOUR1 2)
M9
M1
T22 M6
T50
S5000 M3
G17 G90 G94
G54
G64 P0.0004 Q0.0004
M8
G0 X2.5901 Y-3.4932
G43 Z0.6984 H22
G0 Z0.2984
G1 Z0.0667 F10.
Y-3.4935 Z0.0645 F15.
Y-3.4942 Z0.0624
Y-3.4954 Z0.0605
X2.59 Y-3.497 Z0.0589
Y-3.4989 Z0.0577
Y-3.501 Z0.057
X2.5899 Y-3.5032 Z0.0567
X2.5897 Y-3.5132
G3 X2.5995 Y-3.5234 I0.01 J-0.0002
X2.6004 Y-3.4747 I0.0004 J0.0244
X2.5995 Y-3.5234 I-0.0004 J-0.0244
X2.6004 Y-3.4747 I0.0004 J0.0244
X2.5995 Y-3.5234 I-0.0004 J-0.0244
X2.6097 Y-3.5136 I0.0002 J0.01
G1 X2.6099 Y-3.5036
X2.61 Y-3.5014 Z0.057
Y-3.4993 Z0.0577
Y-3.4974 Z0.0589
X2.6101 Y-3.4958 Z0.0605
Y-3.4946 Z0.0624
Y-3.4938 Z0.0645
Y-3.4936 Z0.0667
G0 Z0.2984
X2.5901 Y-3.4932
G1 Z0.025 F10.
Y-3.4935 Z0.0228 F15.
Y-3.4942 Z0.0207
Y-3.4954 Z0.0188
X2.59 Y-3.497 Z0.0172
Y-3.4989 Z0.016
Y-3.501 Z0.0153
X2.5899 Y-3.5032 Z0.015
X2.5897 Y-3.5132
G3 X2.5995 Y-3.5234 I0.01 J-0.0002
X2.6004 Y-3.4747 I0.0004 J0.0244
X2.5995 Y-3.5234 I-0.0004 J-0.0244
X2.6004 Y-3.4747 I0.0004 J0.0244
X2.5995 Y-3.5234 I-0.0004 J-0.0244
X2.6097 Y-3.5136 I0.0002 J0.01
G1 X2.6099 Y-3.5036
X2.61 Y-3.5014 Z0.0153
Y-3.4993 Z0.016
Y-3.4974 Z0.0172
X2.6101 Y-3.4958 Z0.0188
Y-3.4946 Z0.0207
Y-3.4938 Z0.0228
Y-3.4936 Z0.025
G0 Z0.2984
X3.7796 Y-3.389
G1 Z0.0667 F10.
X3.7794 Y-3.3891 Z0.0645 F15.
X3.7787 Y-3.3893 Z0.0624
X3.7775 Y-3.3896 Z0.0605
X3.776 Y-3.39 Z0.0589
X3.7742 Y-3.3905 Z0.0577
X3.7722 Y-3.3911 Z0.057
X3.77 Y-3.3917 Z0.0567
X3.7604 Y-3.3945
G3 X3.7535 Y-3.4068 I0.0027 J-0.0096
X3.8004 Y-3.3935 I0.0234 J0.0066
X3.7535 Y-3.4068 I-0.0234 J-0.0066
X3.8004 Y-3.3935 I0.0234 J0.0066
X3.7535 Y-3.4068 I-0.0234 J-0.0066
X3.7659 Y-3.4137 I0.0096 J0.0027
G1 X3.7755 Y-3.411
X3.7776 Y-3.4104 Z0.057
X3.7797 Y-3.4098 Z0.0577
X3.7815 Y-3.4093 Z0.0589
X3.783 Y-3.4088 Z0.0605
X3.7842 Y-3.4085 Z0.0624
X3.7849 Y-3.4083 Z0.0645
X3.7851 Y-3.4082 Z0.0667
G0 Z0.2984
X3.7796 Y-3.389
G1 Z0.025 F10.
X3.7794 Y-3.3891 Z0.0228 F15.
X3.7787 Y-3.3893 Z0.0207
X3.7775 Y-3.3896 Z0.0188
X3.776 Y-3.39 Z0.0172
X3.7742 Y-3.3905 Z0.016
X3.7722 Y-3.3911 Z0.0153
X3.77 Y-3.3917 Z0.015
X3.7604 Y-3.3945
G3 X3.7535 Y-3.4068 I0.0027 J-0.0096
X3.8004 Y-3.3935 I0.0234 J0.0066
X3.7535 Y-3.4068 I-0.0234 J-0.0066
X3.8004 Y-3.3935 I0.0234 J0.0066
X3.7535 Y-3.4068 I-0.0234 J-0.0066
X3.7659 Y-3.4137 I0.0096 J0.0027
G1 X3.7755 Y-3.411
X3.7776 Y-3.4104 Z0.0153
X3.7797 Y-3.4098 Z0.016
X3.7815 Y-3.4093 Z0.0172
X3.783 Y-3.4088 Z0.0188
X3.7842 Y-3.4085 Z0.0207
X3.7849 Y-3.4083 Z0.0228
X3.7851 Y-3.4082 Z0.025
G0 Z0.2984
X4.6921 Y-1.9415
G1 Z0.0667 F10.
X4.6923 Y-1.9416 Z0.0645 F15.
X4.693 Y-1.9418 Z0.0624
X4.6941 Y-1.9422 Z0.0605
X4.6956 Y-1.9427 Z0.0589
X4.6974 Y-1.9432 Z0.0577
X4.6995 Y-1.9439 Z0.057
X4.7016 Y-1.9446 Z0.0567
X4.7111 Y-1.9476
G3 X4.7237 Y-1.9411 I0.003 J0.0095
X4.6773 Y-1.9263 I-0.0232 J0.0074
X4.7237 Y-1.9411 I0.0232 J-0.0074
X4.6773 Y-1.9263 I-0.0232 J0.0074
X4.7237 Y-1.9411 I0.0232 J-0.0074
X4.7172 Y-1.9286 I-0.0095 J0.003
G1 X4.7077 Y-1.9255
X4.7055 Y-1.9248 Z0.057
X4.7035 Y-1.9242 Z0.0577
X4.7017 Y-1.9236 Z0.0589
X4.7002 Y-1.9231 Z0.0605
X4.6991 Y-1.9228 Z0.0624
X4.6984 Y-1.9225 Z0.0645
X4.6981 Z0.0667
G0 Z0.2984
X4.6921 Y-1.9415
G1 Z0.025 F10.
X4.6923 Y-1.9416 Z0.0228 F15.
X4.693 Y-1.9418 Z0.0207
X4.6941 Y-1.9422 Z0.0188
X4.6956 Y-1.9427 Z0.0172
X4.6974 Y-1.9432 Z0.016
X4.6995 Y-1.9439 Z0.0153
X4.7016 Y-1.9446 Z0.015
X4.7111 Y-1.9476
G3 X4.7237 Y-1.9411 I0.003 J0.0095
X4.6773 Y-1.9263 I-0.0232 J0.0074
X4.7237 Y-1.9411 I0.0232 J-0.0074
X4.6773 Y-1.9263 I-0.0232 J0.0074
X4.7237 Y-1.9411 I0.0232 J-0.0074
X4.7172 Y-1.9286 I-0.0095 J0.003
G1 X4.7077 Y-1.9255
X4.7055 Y-1.9248 Z0.0153
X4.7035 Y-1.9242 Z0.016
X4.7017 Y-1.9236 Z0.0172
X4.7002 Y-1.9231 Z0.0188
X4.6991 Y-1.9228 Z0.0207
X4.6984 Y-1.9225 Z0.0228
X4.6981 Z0.025
G0 Z0.2984
X4.8188 Y-0.7559
G1 Z0.0667 F10.
X4.8187 Y-0.7557 Z0.0645 F15.
X4.8182 Y-0.7551 Z0.0624
X4.8175 Y-0.7541 Z0.0605
X4.8165 Y-0.7529 Z0.0589
X4.8154 Y-0.7514 Z0.0577
X4.8141 Y-0.7497 Z0.057
X4.8127 Y-0.7479 Z0.0567
X4.8067 Y-0.74
G3 X4.7926 Y-0.7381 I-0.0079 J-0.0061
X4.8222 Y-0.7768 I0.0148 J-0.0194
X4.7926 Y-0.7381 I-0.0148 J0.0194
X4.8222 Y-0.7768 I0.0148 J-0.0194
X4.7926 Y-0.7381 I-0.0148 J0.0194
X4.7908 Y-0.7521 I0.0061 J-0.0079
G1 X4.7968 Y-0.7601
X4.7982 Y-0.7618 Z0.057
X4.7995 Y-0.7635 Z0.0577
X4.8006 Y-0.765 Z0.0589
X4.8016 Y-0.7663 Z0.0605
X4.8023 Y-0.7672 Z0.0624
X4.8028 Y-0.7678 Z0.0645
X4.8029 Y-0.768 Z0.0667
G0 Z0.2984
X4.8188 Y-0.7559
G1 Z0.025 F10.
X4.8187 Y-0.7557 Z0.0228 F15.
X4.8182 Y-0.7551 Z0.0207
X4.8175 Y-0.7541 Z0.0188
X4.8165 Y-0.7529 Z0.0172
X4.8154 Y-0.7514 Z0.016
X4.8141 Y-0.7497 Z0.0153
X4.8127 Y-0.7479 Z0.015
X4.8067 Y-0.74
G3 X4.7926 Y-0.7381 I-0.0079 J-0.0061
X4.8222 Y-0.7768 I0.0148 J-0.0194
X4.7926 Y-0.7381 I-0.0148 J0.0194
X4.8222 Y-0.7768 I0.0148 J-0.0194
X4.7926 Y-0.7381 I-0.0148 J0.0194
X4.7908 Y-0.7521 I0.0061 J-0.0079
G1 X4.7968 Y-0.7601
X4.7982 Y-0.7618 Z0.0153
X4.7995 Y-0.7635 Z0.016
X4.8006 Y-0.765 Z0.0172
X4.8016 Y-0.7663 Z0.0188
X4.8023 Y-0.7672 Z0.0207
X4.8028 Y-0.7678 Z0.0228
X4.8029 Y-0.768 Z0.025
G0 Z0.6984
(2D CONTOUR1 3)
G0 X0.4341 Y-1.4532
Z0.6984
Z0.2984
G1 Z0.0687 F10.
X0.4338 Y-1.4533 Z0.066 F15.
X0.4329 Y-1.4534 Z0.0635
X0.4315 Y-1.4535 Z0.0612
X0.4296 Y-1.4537 Z0.0593
X0.4273 Y-1.4539 Z0.0579
X0.4248 Y-1.4541 Z0.057
X0.4221 Y-1.4544 Z0.0567
X0.3027 Y-1.4658
G3 X0.2919 Y-1.4789 I0.0011 J-0.0119
X0.5755 Y-1.4518 I0.1418 J0.0135
X0.2919 Y-1.4789 I-0.1418 J-0.0135
X0.305 Y-1.4897 I0.0119 J0.0011
G1 X0.4244 Y-1.4783
X0.4271 Y-1.478 Z0.057
X0.4296 Y-1.4778 Z0.0579
X0.4319 Y-1.4776 Z0.0593
X0.4338 Y-1.4774 Z0.0612
X0.4352 Y-1.4773 Z0.0635
X0.4361 Y-1.4772 Z0.066
X0.4364 Y-1.4771 Z0.0687
G0 Z0.2984
X0.4341 Y-1.4532
G1 Z0.027 F10.
X0.4338 Y-1.4533 Z0.0243 F15.
X0.4329 Y-1.4534 Z0.0218
X0.4315 Y-1.4535 Z0.0195
X0.4296 Y-1.4537 Z0.0176
X0.4273 Y-1.4539 Z0.0162
X0.4248 Y-1.4541 Z0.0153
X0.4221 Y-1.4544 Z0.015
X0.3027 Y-1.4658
G3 X0.2919 Y-1.4789 I0.0011 J-0.0119
X0.5755 Y-1.4518 I0.1418 J0.0135
X0.2919 Y-1.4789 I-0.1418 J-0.0135
X0.305 Y-1.4897 I0.0119 J0.0011
G1 X0.4244 Y-1.4783
X0.4271 Y-1.478 Z0.0153
X0.4296 Y-1.4778 Z0.0162
X0.4319 Y-1.4776 Z0.0176
X0.4338 Y-1.4774 Z0.0195
X0.4352 Y-1.4773 Z0.0218
X0.4361 Y-1.4772 Z0.0243
X0.4364 Y-1.4771 Z0.027
G0 Z0.2984
X1.716 Y-1.5222
G1 Z0.0687 F10.
X1.7157 Z0.066 F15.
X1.7148 Z0.0635
X1.7134 Y-1.5221 Z0.0612
X1.7115 Z0.0593
X1.7092 Z0.0579
X1.7067 Y-1.522 Z0.057
X1.704 Z0.0567
X1.584 Y-1.5197
G3 X1.5718 Y-1.5315 I-0.0002 J-0.012
X1.8567 Y-1.5368 I0.1424 J-0.0027
X1.5718 Y-1.5315 I-0.1424 J0.0027
X1.5836 Y-1.5437 I0.012 J-0.0002
G1 X1.7036 Y-1.546
X1.7062 Z0.057
X1.7088 Y-1.5461 Z0.0579
X1.711 Z0.0593
X1.7129 Z0.0612
X1.7144 Y-1.5462 Z0.0635
X1.7153 Z0.066
X1.7156 Z0.0687
G0 Z0.2984
X1.716 Y-1.5222
G1 Z0.027 F10.
X1.7157 Z0.0243 F15.
X1.7148 Z0.0218
X1.7134 Y-1.5221 Z0.0195
X1.7115 Z0.0176
X1.7092 Z0.0162
X1.7067 Y-1.522 Z0.0153
X1.704 Z0.015
X1.584 Y-1.5197
G3 X1.5718 Y-1.5315 I-0.0002 J-0.012
X1.8567 Y-1.5368 I0.1424 J-0.0027
X1.5718 Y-1.5315 I-0.1424 J0.0027
X1.5836 Y-1.5437 I0.012 J-0.0002
G1 X1.7036 Y-1.546
X1.7062 Z0.0153
X1.7088 Y-1.5461 Z0.0162
X1.711 Z0.0176
X1.7129 Z0.0195
X1.7144 Y-1.5462 Z0.0218
X1.7153 Z0.0243
X1.7156 Z0.027
G0 Z0.6984
(2D CONTOUR1)
G0 X-0.1058 Y-1.5356
Z0.6984
Z0.2984
G1 Z0.0755 F10.
X-0.1055 Z0.0722 F15.
X-0.1046 Y-1.5355 Z0.069
X-0.1033 Y-1.5353 Z0.0661
X-0.1014 Y-1.5352 Z0.0634
X-0.0991 Y-1.5349 Z0.0611
X-0.0964 Y-1.5347 Z0.0592
X-0.0935 Y-1.5344 Z0.0578
X-0.0903 Y-1.5341 Z0.057
X-0.0871 Y-1.5338 Z0.0567
X-0.0684 Y-1.532
G3 X-0.0516 Y-1.5116 I-0.0018 J0.0187
G2 X0.0609 Y-1.1513 I0.4853 J0.0462
G3 X0.4944 Y-0.3745 I-1.7928 J1.5098
G2 X0.5824 Y-0.3101 I0.089 J-0.0293
G1 X0.9133 Y-0.3065
G2 X1.008 Y-0.3992 I0.001 J-0.0937
G1 X1.0396 Y-3.3061
G2 X0.9469 Y-3.4009 I-0.0937 J-0.001
G1 X0.7467 Y-3.4031
G2 X0.6519 Y-3.3103 I-0.001 J0.0937
G3 X0.0678 Y-1.7874 I-2.3437 J-0.0254
G2 X-0.0516 Y-1.5116 I0.3659 J0.322
G3 X-0.072 Y-1.4947 I-0.0187 J-0.0018
G1 X-0.0907 Y-1.4965
X-0.0939 Y-1.4968 Z0.057
X-0.097 Y-1.4971 Z0.0578
X-0.1 Y-1.4974 Z0.0592
X-0.1027 Y-1.4976 Z0.0611
X-0.105 Y-1.4978 Z0.0634
X-0.1068 Y-1.498 Z0.0661
X-0.1082 Y-1.4981 Z0.069
X-0.109 Y-1.4982 Z0.0722
X-0.1093 Y-1.4983 Z0.0755
G0 Z0.2984
X1.0719 Y-1.5397
G1 Z0.0755 F10.
X1.0722 Z0.0722 F15.
X1.0731 Z0.069
X1.0744 Y-1.5398 Z0.0661
X1.0763 Z0.0634
X1.0786 Z0.0611
X1.0813 Y-1.5399 Z0.0592
X1.0843 Z0.0578
X1.0874 Y-1.54 Z0.057
X1.0907 Y-1.5401 Z0.0567
X1.1094 Y-1.5404
G3 X1.1285 Y-1.522 I0.0003 J0.0187
G1 X1.1473 Y-0.4641
G2 X1.2427 Y-0.372 I0.0937 J-0.0017
G1 X1.5735 Y-0.3779
G2 X1.6611 Y-0.4429 I-0.0017 J-0.0937
G3 X2.0892 Y-1.2227 I2.2313 J0.7176
G2 X2.078 Y-1.8587 I-0.375 J-0.3114
G3 X1.4833 Y-3.3776 I1.7488 J-1.5605
G2 X1.3879 Y-3.4697 I-0.0937 J0.0017
G1 X1.1878 Y-3.4661
G2 X1.0957 Y-3.3707 I0.0017 J0.0937
G1 X1.1285 Y-1.522
G3 X1.1101 Y-1.5029 I-0.0187 J0.0003
G1 X1.0913 Y-1.5026
X1.0881 Y-1.5025 Z0.057
X1.0849 Y-1.5024 Z0.0578
X1.082 Z0.0592
X1.0793 Y-1.5023 Z0.0611
X1.077 Z0.0634
X1.0751 Z0.0661
X1.0737 Y-1.5022 Z0.069
X1.0729 Z0.0722
X1.0726 Z0.0755
G0 Z0.2984
X-0.1058 Y-1.5356
G1 Z0.0337 F10.
X-0.1055 Z0.0305 F15.
X-0.1046 Y-1.5355 Z0.0273
X-0.1033 Y-1.5353 Z0.0244
X-0.1014 Y-1.5352 Z0.0217
X-0.0991 Y-1.5349 Z0.0194
X-0.0964 Y-1.5347 Z0.0175
X-0.0935 Y-1.5344 Z0.0161
X-0.0903 Y-1.5341 Z0.0153
X-0.0871 Y-1.5338 Z0.015
X-0.0684 Y-1.532
G3 X-0.0516 Y-1.5116 I-0.0018 J0.0187
G2 X0.0609 Y-1.1513 I0.4853 J0.0462
G3 X0.4944 Y-0.3745 I-1.7928 J1.5098
G2 X0.5824 Y-0.3101 I0.089 J-0.0293
G1 X0.9133 Y-0.3065
G2 X1.008 Y-0.3992 I0.001 J-0.0937
G1 X1.0396 Y-3.3061
G2 X0.9469 Y-3.4009 I-0.0937 J-0.001
G1 X0.7467 Y-3.4031
G2 X0.6519 Y-3.3103 I-0.001 J0.0937
G3 X0.0678 Y-1.7874 I-2.3437 J-0.0254
G2 X-0.0516 Y-1.5116 I0.3659 J0.322
G3 X-0.072 Y-1.4947 I-0.0187 J-0.0018
G1 X-0.0907 Y-1.4965
X-0.0939 Y-1.4968 Z0.0153
X-0.097 Y-1.4971 Z0.0161
X-0.1 Y-1.4974 Z0.0175
X-0.1027 Y-1.4976 Z0.0194
X-0.105 Y-1.4978 Z0.0217
X-0.1068 Y-1.498 Z0.0244
X-0.1082 Y-1.4981 Z0.0273
X-0.109 Y-1.4982 Z0.0305
X-0.1093 Y-1.4983 Z0.0337
G0 Z0.2984
X4.2227 Y0.1045
G1 Z0.0755 F10.
Y0.1043 Z0.0722 F15.
X4.2228 Y0.1034 Z0.069
X4.223 Y0.1021 Z0.0661
X4.2232 Y0.1002 Z0.0634
X4.2235 Y0.0979 Z0.0611
X4.2239 Y0.0952 Z0.0592
X4.2242 Y0.0923 Z0.0578
X4.2246 Y0.0892 Z0.057
X4.225 Y0.0859 Z0.0567
X4.2274 Y0.0673
G3 X4.2484 Y0.0511 I0.0186 J0.0024
G2 X4.5366 Y-0.4955 I0.0416 J-0.3273
G1 X4.2759 Y-0.7887
G3 X4.234 Y-1.0133 I0.1653 J-0.147
G2 X4.2133 Y-1.7378 I-0.8988 J-0.3368
G3 X4.2422 Y-1.9644 I0.2024 J-0.0893
G1 X4.4858 Y-2.2721
G2 X4.4318 Y-2.7356 I-0.2587 J-0.2048
X3.9683 Y-2.6817 I-0.2048 J0.2587
G1 X3.7248 Y-2.374
G3 X3.5108 Y-2.2938 I-0.1735 J-0.1373
G2 X2.3775 Y-1.2862 I-0.1756 J0.9437
G3 X2.2728 Y-1.0831 I-0.2207 J0.0147
G1 X1.9387 Y-0.8773
G2 X2.2849 Y-0.3154 I0.1731 J0.2809
G1 X2.619 Y-0.5212
G3 X2.8474 Y-0.5234 I0.116 J0.1883
G2 X3.5645 Y-0.418 I0.4878 J-0.8267
G3 X3.7827 Y-0.3502 I0.0528 J0.2148
G1 X4.0434 Y-0.057
G2 X4.2484 Y0.0511 I0.2466 J-0.2192
G3 X4.2646 Y0.0721 I-0.0024 J0.0186
G1 X4.2622 Y0.0907
X4.2618 Y0.0939 Z0.057
X4.2614 Y0.097 Z0.0578
X4.2611 Y0.1 Z0.0592
X4.2607 Y0.1026 Z0.0611
X4.2604 Y0.1049 Z0.0634
X4.2602 Y0.1068 Z0.0661
X4.26 Y0.1082 Z0.069
X4.2599 Y0.109 Z0.0722
Y0.1093 Z0.0755
G0 Z0.2984
X6.0551 Y-2.2575
G1 Z0.0755 F10.
X6.0549 Y-2.2576 Z0.0722 F15.
X6.0541 Y-2.2578 Z0.069
X6.0527 Y-2.2583 Z0.0661
X6.051 Y-2.2589 Z0.0634
X6.0488 Y-2.2596 Z0.0611
X6.0462 Y-2.2605 Z0.0592
X6.0434 Y-2.2614 Z0.0578
X6.0404 Y-2.2624 Z0.057
X6.0374 Y-2.2634 Z0.0567
X6.0196 Y-2.2694
G3 X6.0078 Y-2.2932 I0.006 J-0.0178
G2 X5.9487 Y-2.4119 I-0.0889 J-0.0298
G1 X5.7327 Y-2.4844
X5.7076 Y-2.7563
G2 X5.6056 Y-2.841 I-0.0934 J0.0086
G1 X4.6657 Y-2.754
G2 X4.581 Y-2.652 I0.0086 J0.0934
G1 X4.6084 Y-2.3559
X4.4493 Y-2.1485
X4.4459 Y-2.1436
X4.4453 Y-2.143
G2 X4.4493 Y-1.7197 I0.2552 J0.2092
G3 X4.5218 Y-0.9226 I-0.528 J0.4499
G2 X4.6154 Y-0.4892 I0.2856 J0.1652
G1 X4.8856 Y-0.2613
G2 X4.9162 Y-0.2441 I0.0604 J-0.0717
G1 X5.19 Y-0.1522
G2 X5.3088 Y-0.2112 I0.0298 J-0.0889
G1 X6.0078 Y-2.2932
G3 X6.0315 Y-2.305 I0.0178 J0.006
G1 X6.0493 Y-2.299
X6.0524 Y-2.298 Z0.057
X6.0554 Y-2.297 Z0.0578
X6.0582 Y-2.296 Z0.0592
X6.0607 Y-2.2952 Z0.0611
X6.0629 Y-2.2944 Z0.0634
X6.0647 Y-2.2938 Z0.0661
X6.066 Y-2.2934 Z0.069
X6.0668 Y-2.2931 Z0.0722
X6.0671 Y-2.293 Z0.0755
G0 Z0.2984
X6.0551 Y-2.2575
G1 Z0.0337 F10.
X6.0549 Y-2.2576 Z0.0305 F15.
X6.0541 Y-2.2578 Z0.0273
X6.0527 Y-2.2583 Z0.0244
X6.051 Y-2.2589 Z0.0217
X6.0488 Y-2.2596 Z0.0194
X6.0462 Y-2.2605 Z0.0175
X6.0434 Y-2.2614 Z0.0161
X6.0404 Y-2.2624 Z0.0153
X6.0374 Y-2.2634 Z0.015
X6.0196 Y-2.2694
G3 X6.0078 Y-2.2932 I0.006 J-0.0178
G2 X5.9487 Y-2.4119 I-0.0889 J-0.0298
G1 X5.7327 Y-2.4844
X5.7076 Y-2.7563
G2 X5.6056 Y-2.841 I-0.0934 J0.0086
G1 X4.6657 Y-2.754
G2 X4.581 Y-2.652 I0.0086 J0.0934
G1 X4.6084 Y-2.3559
X4.4493 Y-2.1485
X4.4459 Y-2.1436
X4.4453 Y-2.143
G2 X4.4493 Y-1.7197 I0.2552 J0.2092
G3 X4.5218 Y-0.9226 I-0.528 J0.4499
G2 X4.6154 Y-0.4892 I0.2856 J0.1652
G1 X4.8856 Y-0.2613
G2 X4.9162 Y-0.2441 I0.0604 J-0.0717
G1 X5.19 Y-0.1522
G2 X5.3088 Y-0.2112 I0.0298 J-0.0889
G1 X6.0078 Y-2.2932
G3 X6.0315 Y-2.305 I0.0178 J0.006
G1 X6.0493 Y-2.299
X6.0524 Y-2.298 Z0.0153
X6.0554 Y-2.297 Z0.0161
X6.0582 Y-2.296 Z0.0175
X6.0607 Y-2.2952 Z0.0194
X6.0629 Y-2.2944 Z0.0217
X6.0647 Y-2.2938 Z0.0244
X6.066 Y-2.2934 Z0.0273
X6.0668 Y-2.2931 Z0.0305
X6.0671 Y-2.293 Z0.0337
G0 Z0.2984
X2.6117 Y-3.8856
G1 Z0.0755 F10.
Y-3.8853 Z0.0722 F15.
Y-3.8844 Z0.069
Y-3.883 Z0.0661
Y-3.8812 Z0.0634
X2.6118 Y-3.8789 Z0.0611
Y-3.8762 Z0.0592
X2.6119 Y-3.8732 Z0.0578
Y-3.8701 Z0.057
X2.612 Y-3.8668 Z0.0567
X2.6123 Y-3.8481
G3 X2.5939 Y-3.829 I-0.0187 J0.0003
G2 X2.389 Y-3.7527 I0.0061 J0.3299
G1 X2.3885 Y-3.7523
X2.3835 Y-3.7487
X2.1772 Y-3.5882
X1.8809 Y-3.6135
G2 X1.7794 Y-3.5281 I-0.008 J0.0934
G1 X1.699 Y-2.5877
G2 X1.7844 Y-2.4863 I0.0934 J0.008
G1 X2.0564 Y-2.463
X2.1304 Y-2.2475
G2 X2.2496 Y-2.1893 I0.0887 J-0.0304
G1 X4.3266 Y-2.9026
G2 X4.3848 Y-3.0217 I-0.0304 J-0.0887
G1 X4.291 Y-3.295
G2 X4.2736 Y-3.3254 I-0.0887 J0.0305
G1 X4.0439 Y-3.5941
G2 X3.6098 Y-3.6847 I-0.267 J0.1939
G3 X2.8123 Y-3.7517 I-0.3513 J-0.5981
G2 X2.5939 Y-3.829 I-0.2123 J0.2526
G3 X2.5748 Y-3.8474 I-0.0003 J-0.0187
G1 X2.5745 Y-3.8661
X2.5744 Y-3.8694 Z0.057
Y-3.8725 Z0.0578
X2.5743 Y-3.8755 Z0.0592
Y-3.8782 Z0.0611
X2.5742 Y-3.8805 Z0.0634
Y-3.8824 Z0.0661
Y-3.8837 Z0.069
Y-3.8846 Z0.0722
Y-3.8849 Z0.0755
G0 Z0.2984
X2.6117 Y-3.8856
G1 Z0.0337 F10.
Y-3.8853 Z0.0305 F15.
Y-3.8844 Z0.0273
Y-3.883 Z0.0244
Y-3.8812 Z0.0217
X2.6118 Y-3.8789 Z0.0194
Y-3.8762 Z0.0175
X2.6119 Y-3.8732 Z0.0161
Y-3.8701 Z0.0153
X2.612 Y-3.8668 Z0.015
X2.6123 Y-3.8481
G3 X2.5939 Y-3.829 I-0.0187 J0.0003
G2 X2.389 Y-3.7527 I0.0061 J0.3299
G1 X2.3885 Y-3.7523
X2.3835 Y-3.7487
X2.1772 Y-3.5882
X1.8809 Y-3.6135
G2 X1.7794 Y-3.5281 I-0.008 J0.0934
G1 X1.699 Y-2.5877
G2 X1.7844 Y-2.4863 I0.0934 J0.008
G1 X2.0564 Y-2.463
X2.1304 Y-2.2475
G2 X2.2496 Y-2.1893 I0.0887 J-0.0304
G1 X4.3266 Y-2.9026
G2 X4.3848 Y-3.0217 I-0.0304 J-0.0887
G1 X4.291 Y-3.295
G2 X4.2736 Y-3.3254 I-0.0887 J0.0305
G1 X4.0439 Y-3.5941
G2 X3.6098 Y-3.6847 I-0.267 J0.1939
G3 X2.8123 Y-3.7517 I-0.3513 J-0.5981
G2 X2.5939 Y-3.829 I-0.2123 J0.2526
G3 X2.5748 Y-3.8474 I-0.0003 J-0.0187
G1 X2.5745 Y-3.8661
X2.5744 Y-3.8694 Z0.0153
Y-3.8725 Z0.0161
X2.5743 Y-3.8755 Z0.0175
Y-3.8782 Z0.0194
X2.5742 Y-3.8805 Z0.0217
Y-3.8824 Z0.0244
Y-3.8837 Z0.0273
Y-3.8846 Z0.0305
Y-3.8849 Z0.0337
G0 Z0.2984
X1.0719 Y-1.5397
G1 Z0.0337 F10.
X1.0722 Z0.0305 F15.
X1.0731 Z0.0273
X1.0744 Y-1.5398 Z0.0244
X1.0763 Z0.0217
X1.0786 Z0.0194
X1.0813 Y-1.5399 Z0.0175
X1.0843 Z0.0161
X1.0874 Y-1.54 Z0.0153
X1.0907 Y-1.5401 Z0.015
X1.1094 Y-1.5404
G3 X1.1285 Y-1.522 I0.0003 J0.0187
G1 X1.1473 Y-0.4641
G2 X1.2427 Y-0.372 I0.0937 J-0.0017
G1 X1.5735 Y-0.3779
G2 X1.6611 Y-0.4429 I-0.0017 J-0.0937
G3 X2.0892 Y-1.2227 I2.2313 J0.7176
G2 X2.078 Y-1.8587 I-0.375 J-0.3114
G3 X1.4833 Y-3.3776 I1.7488 J-1.5605
G2 X1.3879 Y-3.4697 I-0.0937 J0.0017
G1 X1.1878 Y-3.4661
G2 X1.0957 Y-3.3707 I0.0017 J0.0937
G1 X1.1285 Y-1.522
G3 X1.1101 Y-1.5029 I-0.0187 J0.0003
G1 X1.0913 Y-1.5026
X1.0881 Y-1.5025 Z0.0153
X1.0849 Y-1.5024 Z0.0161
X1.082 Z0.0175
X1.0793 Y-1.5023 Z0.0194
X1.077 Z0.0217
X1.0751 Z0.0244
X1.0737 Y-1.5022 Z0.0273
X1.0729 Z0.0305
X1.0726 Z0.0337
G0 Z0.2984
X4.2227 Y0.1045
G1 Z0.0337 F10.
Y0.1043 Z0.0305 F15.
X4.2228 Y0.1034 Z0.0273
X4.223 Y0.1021 Z0.0244
X4.2232 Y0.1002 Z0.0217
X4.2235 Y0.0979 Z0.0194
X4.2239 Y0.0952 Z0.0175
X4.2242 Y0.0923 Z0.0161
X4.2246 Y0.0892 Z0.0153
X4.225 Y0.0859 Z0.015
X4.2274 Y0.0673
G3 X4.2484 Y0.0511 I0.0186 J0.0024
G2 X4.5366 Y-0.4955 I0.0416 J-0.3273
G1 X4.2759 Y-0.7887
G3 X4.234 Y-1.0133 I0.1653 J-0.147
G2 X4.2133 Y-1.7378 I-0.8988 J-0.3368
G3 X4.2422 Y-1.9644 I0.2024 J-0.0893
G1 X4.4858 Y-2.2721
G2 X4.4318 Y-2.7356 I-0.2587 J-0.2048
X3.9683 Y-2.6817 I-0.2048 J0.2587
G1 X3.7248 Y-2.374
G3 X3.5108 Y-2.2938 I-0.1735 J-0.1373
G2 X2.3775 Y-1.2862 I-0.1756 J0.9437
G3 X2.2728 Y-1.0831 I-0.2207 J0.0147
G1 X1.9387 Y-0.8773
G2 X2.2849 Y-0.3154 I0.1731 J0.2809
G1 X2.619 Y-0.5212
G3 X2.8474 Y-0.5234 I0.116 J0.1883
G2 X3.5645 Y-0.418 I0.4878 J-0.8267
G3 X3.7827 Y-0.3502 I0.0528 J0.2148
G1 X4.0434 Y-0.057
G2 X4.2484 Y0.0511 I0.2466 J-0.2192
G3 X4.2646 Y0.0721 I-0.0024 J0.0186
G1 X4.2622 Y0.0907
X4.2618 Y0.0939 Z0.0153
X4.2614 Y0.097 Z0.0161
X4.2611 Y0.1 Z0.0175
X4.2607 Y0.1026 Z0.0194
X4.2604 Y0.1049 Z0.0217
X4.2602 Y0.1068 Z0.0244
X4.26 Y0.1082 Z0.0273
X4.2599 Y0.109 Z0.0305
Y0.1093 Z0.0337
G0 Z0.6984
(2D CONTOUR1 4)
G0 X3.4837 Y-1.2267
Z0.6984
Z0.4562
G1 X3.4839 Y-1.2264 Z0.4405 F5.
X3.4844 Y-1.2257 Z0.4248
X3.4853 Y-1.2244 Z0.4092
X3.4866 Y-1.2227 Z0.3936
X3.4882 Y-1.2204 Z0.3782
X3.4901 Y-1.2177 Z0.3628
X3.4924 Y-1.2144 Z0.3476
X3.495 Y-1.2107 Z0.3326
X3.498 Y-1.2065 Z0.3178
X3.5013 Y-1.2018 Z0.3031
X3.5049 Y-1.1967 Z0.2887
X3.5089 Y-1.1911 Z0.2746
X3.5132 Y-1.185 Z0.2608
X3.5178 Y-1.1786 Z0.2472
X3.5227 Y-1.1716 Z0.234
X3.5278 Y-1.1643 Z0.2211
X3.5333 Y-1.1566 Z0.2086
X3.5391 Y-1.1484 Z0.1964
X3.5451 Y-1.1399 Z0.1847
X3.5514 Y-1.131 Z0.1734
X3.5579 Y-1.1218 Z0.1625
X3.5647 Y-1.1122 Z0.1521
X3.5717 Y-1.1023 Z0.1421
X3.5789 Y-1.0921 Z0.1326
X3.5864 Y-1.0815 Z0.1236
X3.594 Y-1.0707 Z0.1152
X3.6018 Y-1.0597 Z0.1072
X3.6098 Y-1.0484 Z0.0998
X3.618 Y-1.0368 Z0.093
X3.6263 Y-1.0251 Z0.0867
X3.6347 Y-1.0131 Z0.0809
X3.6433 Y-1.001 Z0.0758
X3.652 Y-0.9887 Z0.0712
X3.6607 Y-0.9763 Z0.0673
X3.6696 Y-0.9638 Z0.0639
X3.6785 Y-0.9512 Z0.0611
X3.6875 Y-0.9385 Z0.059
X3.6965 Y-0.9257 Z0.0574
X3.7056 Y-0.9129 Z0.0565
X3.7147 Y-0.9001 Z0.0562
X3.7255 Y-0.8848
G3 X3.7135 Y-0.8151 I-0.0408 J0.0289
X2.9569 Y-1.8852 I-0.3783 J-0.5351 F15.
X3.7135 Y-0.8151 I0.3783 J0.5351
X3.6438 Y-0.827 I-0.0289 J-0.0408
G1 X3.633 Y-0.8423
X3.6239 Y-0.8552 Z0.0565
X3.6149 Y-0.868 Z0.0574
X3.6059 Y-0.8807 Z0.059
X3.5969 Y-0.8934 Z0.0611
X3.588 Y-0.9061 Z0.0639
X3.5791 Y-0.9186 Z0.0673
X3.5703 Y-0.931 Z0.0712
X3.5616 Y-0.9433 Z0.0758
X3.5531 Y-0.9554 Z0.0809
X3.5446 Y-0.9673 Z0.0867
X3.5363 Y-0.9791 Z0.093
X3.5282 Y-0.9906 Z0.0998
X3.5202 Y-1.0019 Z0.1072
X3.5123 Y-1.013 Z0.1152
X3.5047 Y-1.0238 Z0.1236
X3.4973 Y-1.0343 Z0.1326
X3.49 Y-1.0445 Z0.1421
X3.483 Y-1.0545 Z0.1521
X3.4763 Y-1.0641 Z0.1625
X3.4697 Y-1.0733 Z0.1734
X3.4634 Y-1.0822 Z0.1847
X3.4574 Y-1.0907 Z0.1964
X3.4517 Y-1.0988 Z0.2086
X3.4462 Y-1.1066 Z0.2211
X3.441 Y-1.1139 Z0.234
X3.4361 Y-1.1208 Z0.2472
X3.4315 Y-1.1273 Z0.2608
X3.4272 Y-1.1334 Z0.2746
X3.4233 Y-1.139 Z0.2887
X3.4197 Y-1.1441 Z0.3031
X3.4164 Y-1.1488 Z0.3178
X3.4134 Y-1.153 Z0.3326
X3.4108 Y-1.1567 Z0.3476
X3.4085 Y-1.1599 Z0.3628
X3.4065 Y-1.1627 Z0.3782
X3.4049 Y-1.1649 Z0.3936
X3.4037 Y-1.1667 Z0.4092
X3.4028 Y-1.1679 Z0.4248
X3.4023 Y-1.1687 Z0.4405
X3.4021 Y-1.169 Z0.4562
G0 X3.4837 Y-1.2267
Z0.4384
G1 Z0.414 F10.
X3.4839 Y-1.2264 Z0.3983 F5.
X3.4844 Y-1.2257 Z0.3826
X3.4853 Y-1.2244 Z0.367
X3.4866 Y-1.2227 Z0.3514
X3.4882 Y-1.2204 Z0.336
X3.4901 Y-1.2177 Z0.3206
X3.4924 Y-1.2144 Z0.3054
X3.495 Y-1.2107 Z0.2904
X3.498 Y-1.2065 Z0.2756
X3.5013 Y-1.2018 Z0.2609
X3.5049 Y-1.1967 Z0.2465
X3.5089 Y-1.1911 Z0.2324
X3.5132 Y-1.185 Z0.2186
X3.5178 Y-1.1786 Z0.205
X3.5227 Y-1.1716 Z0.1918
X3.5278 Y-1.1643 Z0.1789
X3.5333 Y-1.1566 Z0.1664
X3.5391 Y-1.1484 Z0.1542
X3.5451 Y-1.1399 Z0.1425
X3.5514 Y-1.131 Z0.1312
X3.5579 Y-1.1218 Z0.1203
X3.5647 Y-1.1122 Z0.1098
X3.5717 Y-1.1023 Z0.0999
X3.5789 Y-1.0921 Z0.0904
X3.5864 Y-1.0815 Z0.0814
X3.594 Y-1.0707 Z0.0729
X3.6018 Y-1.0597 Z0.065
X3.6098 Y-1.0484 Z0.0576
X3.618 Y-1.0368 Z0.0507
X3.6263 Y-1.0251 Z0.0444
X3.6347 Y-1.0131 Z0.0387
X3.6433 Y-1.001 Z0.0336
X3.652 Y-0.9887 Z0.029
X3.6607 Y-0.9763 Z0.0251
X3.6696 Y-0.9638 Z0.0217
X3.6785 Y-0.9512 Z0.0189
X3.6875 Y-0.9385 Z0.0168
X3.6965 Y-0.9257 Z0.0152
X3.7056 Y-0.9129 Z0.0143
X3.7147 Y-0.9001 Z0.014
X3.7255 Y-0.8848
G3 X3.7135 Y-0.8151 I-0.0408 J0.0289
X2.9569 Y-1.8852 I-0.3783 J-0.5351 F15.
X3.7135 Y-0.8151 I0.3783 J0.5351
X3.6438 Y-0.827 I-0.0289 J-0.0408
G1 X3.633 Y-0.8423
X3.6239 Y-0.8552 Z0.0143
X3.6149 Y-0.868 Z0.0152
X3.6059 Y-0.8807 Z0.0168
X3.5969 Y-0.8934 Z0.0189
X3.588 Y-0.9061 Z0.0217
X3.5791 Y-0.9186 Z0.0251
X3.5703 Y-0.931 Z0.029
X3.5616 Y-0.9433 Z0.0336
X3.5531 Y-0.9554 Z0.0387
X3.5446 Y-0.9673 Z0.0444
X3.5363 Y-0.9791 Z0.0507
X3.5282 Y-0.9906 Z0.0576
X3.5202 Y-1.0019 Z0.065
X3.5123 Y-1.013 Z0.0729
X3.5047 Y-1.0238 Z0.0814
X3.4973 Y-1.0343 Z0.0904
X3.49 Y-1.0445 Z0.0999
X3.483 Y-1.0545 Z0.1098
X3.4763 Y-1.0641 Z0.1203
X3.4697 Y-1.0733 Z0.1312
X3.4634 Y-1.0822 Z0.1425
X3.4574 Y-1.0907 Z0.1542
X3.4517 Y-1.0988 Z0.1664
X3.4462 Y-1.1066 Z0.1789
X3.441 Y-1.1139 Z0.1918
X3.4361 Y-1.1208 Z0.205
X3.4315 Y-1.1273 Z0.2186
X3.4272 Y-1.1334 Z0.2324
X3.4233 Y-1.139 Z0.2465
X3.4197 Y-1.1441 Z0.2609
X3.4164 Y-1.1488 Z0.2756
X3.4134 Y-1.153 Z0.2904
X3.4108 Y-1.1567 Z0.3054
X3.4085 Y-1.1599 Z0.3206
X3.4065 Y-1.1627 Z0.336
X3.4049 Y-1.1649 Z0.3514
X3.4037 Y-1.1667 Z0.367
X3.4028 Y-1.1679 Z0.3826
X3.4023 Y-1.1687 Z0.3983
X3.4021 Y-1.169 Z0.414
G0 Z0.6984
M5
M9
G53 G0 Z0.
M30
%
