%
(OP1, 45MM STOCK)
(T13 D=0.375 CR=0. TAPER=45DEG - ZMIN=1.6741 - CHAMFER MILL)
(T36 D=0.375 CR=0. - ZMIN=1.0141 - FLAT END MILL)
(T54 D=0.3125 CR=0. TAPER=118DEG - ZMIN=0.9202 - DRILL)
(T104 D=0.4 CR=0. TAPER=135DEG - ZMIN=-0.0471 - DRILL)
G90 G94 G17 G91.1
G20
G53 G0 Z0.
(3D ADAPTIVE ROUGHING1)
T36 M6
T54
S7500 M3
G17 G90 G94
G54
G64 P0.004 Q0.004
M8
G0 X-0.4123 Y-0.6593
G43 Z2.4 H36
G0 Z1.8548
G1 Z1.8173 F60.
X-0.4122 Y-0.659 Z1.8128
X-0.412 Y-0.6582 Z1.8084
X-0.4117 Y-0.6569 Z1.804
X-0.4112 Y-0.6551 Z1.7999
X-0.4106 Y-0.6528 Z1.796
X-0.4099 Y-0.6501 Z1.7925
X-0.4091 Y-0.647 Z1.7893
X-0.4082 Y-0.6436 Z1.7865
X-0.4073 Y-0.6398 Z1.7841
X-0.4063 Y-0.6358 Z1.7823
X-0.4052 Y-0.6316 Z1.7809
X-0.4041 Y-0.6273 Z1.7801
X-0.403 Y-0.6229 Z1.7798
G3 X-0.3736 Y-0.4188 I-0.9274 J0.2376
G1 Y-0.4128
G3 X-0.3878 Y-0.3738 I-0.2605 J-0.0727
G1 X-0.4063 Y-0.3335
X-0.4258 Y-0.2936
X-0.4444 Y-0.2533
X-0.4609 Y-0.2121
X-0.475 Y-0.1701
X-0.486 Y-0.1271
X-0.494 Y-0.0834
X-0.4984 Y-0.0393
X-0.499 Y0.0051
X-0.496 Y0.0494
X-0.4892 Y0.0932
X-0.4785 Y0.1363
X-0.4641 Y0.1782
X-0.4463 Y0.2189
X-0.4248 Y0.2577
X-0.4 Y0.2945
X-0.3721 Y0.329
X-0.3413 Y0.361
X-0.3077 Y0.3899
X-0.2717 Y0.4158
X-0.2335 Y0.4385
X-0.1935 Y0.4576
X-0.1519 Y0.4731
X-0.1091 Y0.4847
X-0.0654 Y0.4925
X-0.0212 Y0.4965
X0.0232 Y0.4963
X0.0674 Y0.4922
X0.111 Y0.4844
X0.1537 Y0.4722
X0.1953 Y0.4567
X0.2352 Y0.4373
X0.2734 Y0.4148
X0.3092 Y0.3886
X0.3428 Y0.3596
X0.3736 Y0.3276
X0.4012 Y0.2929
X0.4259 Y0.256
X0.4471 Y0.217
X0.4647 Y0.1763
X0.4784 Y0.1341
X0.4885 Y0.0909
X0.4947 Y0.0469
X0.4968 Y0.0026
X0.4952 Y-0.0417
X0.4894 Y-0.0857
X0.4797 Y-0.129
X0.466 Y-0.1712
X0.4491 Y-0.2122
X0.4282 Y-0.2514
X0.4041 Y-0.2886
X0.3767 Y-0.3235
X0.3463 Y-0.3559
X0.3132 Y-0.3854
X0.2775 Y-0.4118
X0.2397 Y-0.4351
X0.2 Y-0.4548
X0.1587 Y-0.471
X0.116 Y-0.4831
X0.0724 Y-0.4916
X0.0283 Y-0.4963
X-0.0161 Y-0.4966
X-0.0603 Y-0.4932
X-0.1041 Y-0.4859
X-0.1469 Y-0.4744
X-0.1882 Y-0.4582
X-0.2263 Y-0.4354
X-0.2609 Y-0.4076
X-0.2921 Y-0.376
X-0.3203 Y-0.3418
X-0.3457 Y-0.3054
X-0.3683 Y-0.2672
X-0.3879 Y-0.2274
X-0.4045 Y-0.1863
X-0.4177 Y-0.1439
X-0.4272 Y-0.1005
X-0.4329 Y-0.0565
X-0.4346 Y-0.0122
X-0.4321 Y0.0321
X-0.4254 Y0.076
X-0.4145 Y0.119
X-0.3994 Y0.1607
X-0.3802 Y0.2007
X-0.3572 Y0.2386
X-0.3304 Y0.2741
X-0.3003 Y0.3066
X-0.2669 Y0.3358
X-0.2307 Y0.3615
X-0.1921 Y0.3833
X-0.1514 Y0.4011
X-0.1091 Y0.4146
X-0.0657 Y0.4236
X-0.0215 Y0.4281
X0.0228 Y0.4279
X0.067 Y0.4232
X0.1104 Y0.414
X0.1526 Y0.4003
X0.1932 Y0.3824
X0.2317 Y0.3604
X0.2677 Y0.3345
X0.3009 Y0.305
X0.3309 Y0.2723
X0.3573 Y0.2366
X0.3799 Y0.1985
X0.3984 Y0.1581
X0.4126 Y0.1161
X0.4223 Y0.0728
X0.4275 Y0.0287
X0.4282 Y-0.0156
X0.4242 Y-0.0598
X0.4158 Y-0.1034
X0.4028 Y-0.1458
X0.3855 Y-0.1867
X0.3641 Y-0.2256
X0.3388 Y-0.262
X0.3099 Y-0.2957
X0.2777 Y-0.3262
X0.2425 Y-0.3533
X0.2047 Y-0.3764
X0.1646 Y-0.3956
X0.1229 Y-0.4105
X0.0798 Y-0.4211
X0.0358 Y-0.4271
X-0.0086 Y-0.4283
X-0.0527 Y-0.4239
X-0.0958 Y-0.4132
X-0.137 Y-0.3967
X-0.1756 Y-0.3749
X-0.2114 Y-0.3486
X-0.2439 Y-0.3185
X-0.2731 Y-0.2851
X-0.2987 Y-0.2488
X-0.3206 Y-0.2102
X-0.3384 Y-0.1696
X-0.352 Y-0.1273
X-0.3611 Y-0.0839
X-0.3655 Y-0.0398
X-0.3651 Y0.0046
X-0.3597 Y0.0487
X-0.3494 Y0.0918
X-0.3341 Y0.1335
X-0.3142 Y0.1731
X-0.2897 Y0.2101
X-0.2609 Y0.2439
X-0.2282 Y0.2739
X-0.1922 Y0.2998
X-0.1532 Y0.3211
X-0.112 Y0.3374
X-0.069 Y0.3485
X-0.025 Y0.3541
X0.0194 Y0.3543
X0.0634 Y0.3491
X0.1065 Y0.3384
X0.1479 Y0.3223
X0.1869 Y0.3013
X0.2231 Y0.2756
X0.2558 Y0.2456
X0.2845 Y0.2117
X0.3086 Y0.1745
X0.328 Y0.1346
X0.3422 Y0.0925
X0.3511 Y0.0491
X0.3544 Y0.0048
X0.3522 Y-0.0395
X0.3444 Y-0.0832
X0.3313 Y-0.1256
X0.3131 Y-0.166
X0.2899 Y-0.2039
X0.2621 Y-0.2385
X0.2303 Y-0.2694
X0.1948 Y-0.2961
X0.1563 Y-0.3181
X0.1153 Y-0.335
X0.0723 Y-0.3458
X0.0281 Y-0.3499
X-0.0162 Y-0.3472
X-0.0596 Y-0.3376
X-0.101 Y-0.3217
X-0.1397 Y-0.3001
X-0.1751 Y-0.2733
X-0.2065 Y-0.242
X-0.2336 Y-0.2068
X-0.2557 Y-0.1683
X-0.2724 Y-0.1272
X-0.2835 Y-0.0843
X-0.2887 Y-0.0402
X-0.2877 Y0.0042
X-0.2804 Y0.0479
X-0.2669 Y0.0902
X-0.2472 Y0.13
X-0.2218 Y0.1663
X-0.1912 Y0.1985
X-0.1559 Y0.2254
X-0.1169 Y0.2466
X-0.0751 Y0.2614
X-0.0314 Y0.2693
X0.0129 Y0.2701
X0.0569 Y0.2638
X0.0992 Y0.2505
X0.1388 Y0.2304
X0.1746 Y0.2042
X0.2056 Y0.1725
X0.231 Y0.1361
X0.2502 Y0.0961
X0.2624 Y0.0535
X0.2675 Y0.0094
X0.2653 Y-0.0349
X0.2558 Y-0.0783
X0.2393 Y-0.1195
X0.2162 Y-0.1573
X0.1868 Y-0.1906
X0.1516 Y-0.2176
X0.1117 Y-0.2371
X0.0688 Y-0.2482
X0.0244 Y-0.2505
X-0.0194 Y-0.2439
X-0.0612 Y-0.2289
X-0.0992 Y-0.206
X-0.132 Y-0.1761
X-0.1582 Y-0.1403
X-0.1766 Y-0.0999
X-0.1861 Y-0.0566
X-0.186 Y-0.0122
X-0.1758 Y0.031
X-0.1556 Y0.0705
X-0.125 Y0.1026
G2 X0.0076 Y0.1204 I0.0839 J-0.1231
G1 X0.0119 Y0.1194
X0.0163 Y0.1189
X0.0207 Y0.119
X0.0251 Y0.1195
X0.0294 Y0.1206
X0.0335 Y0.1222
X0.0374 Y0.1242
X0.0413 Y0.1265 Z1.7801
X0.0451 Y0.1288 Z1.7809
X0.0488 Y0.1311 Z1.7823
X0.0524 Y0.1332 Z1.7841
X0.0557 Y0.1352 Z1.7865
X0.0588 Y0.137 Z1.7893
X0.0615 Y0.1386 Z1.7925
X0.0639 Y0.1401 Z1.796
X0.0659 Y0.1413 Z1.7999
X0.0675 Y0.1422 Z1.804
X0.0687 Y0.1429 Z1.8084
X0.0694 Y0.1433 Z1.8128
X0.0696 Y0.1435 Z1.8173
G0 Z2.4
M5
G53 G0 Z0.
(DRILL1)
M9
M1
T54 M6
T36
S5000 M3
G17 G90 G94
G54
M8
G0 X0. Y0.
G43 Z2.4 H54
G0 Z2.
G98 G81 X0. Y0. Z0.9202 R1.9641 F40.
G80
G0 Z2.4
M5
G53 G0 Z0.
(2D ADAPTIVE ROUGHING1)
M9
M1
T36 M6
T104
S7500 M3
G17 G90 G94
G54
G64 P0.004 Q0.004
M8
G0 X0.0926 Y-0.0193
G43 Z2.4 H36
G0 Z1.9
G3 X-0.0194 Y0.0926 Z1.8836 I-0.0926 J0.0193 F40.
X-0.077 Y-0.0543 Z1.8672 I0.0193 J-0.0923
X0.0802 Y-0.0485 Z1.8508 I0.0767 J0.0544
X0.0122 Y0.0929 Z1.8344 I-0.0803 J0.0484
X-0.0899 Y-0.0255 Z1.818 I-0.0123 J-0.0927
X0.059 Y-0.0717 Z1.8016 I0.0896 J0.0257
X0.0419 Y0.0828 Z1.7852 I-0.0592 J0.0716
X-0.0925 Y0.0056 Z1.7688 I-0.0419 J-0.0826
X0.0316 Y-0.0864 Z1.7523 I0.0922 J-0.0054
X0.0663 Y0.0636 Z1.7359 I-0.0318 J0.0864
X-0.0846 Y0.0355 Z1.7195 I-0.0663 J-0.0635
X0.0011 Y-0.0912 Z1.7031 I0.0844 J-0.0353
X0.0828 Y0.0377 Z1.6867 I-0.0014 J0.0912
X-0.0675 Y0.061 Z1.6703 I-0.0828 J-0.0376
X-0.0289 Y-0.0857 Z1.6539 I0.0673 J-0.0607
X0.0897 Y0.008 Z1.6375 I0.0286 J0.0857
X-0.0431 Y0.0791 Z1.6211 I-0.0897 J-0.008
X-0.0552 Y-0.0706 Z1.6047 I0.043 J-0.0788
X0.0864 Y-0.022 Z1.5883 I0.0549 J0.0707
X-0.0144 Y0.088 Z1.5719 I-0.0864 J0.022
X-0.0748 Y-0.0479 Z1.5555 I0.0143 J-0.0877
X0.0735 Y-0.0489 Z1.5391 I0.0745 J0.048
X0.0154 Y0.0869 Z1.5227 I-0.0735 J0.0489
X-0.0856 Y-0.0203 Z1.5063 I-0.0154 J-0.0867
X0.0525 Y-0.0699 Z1.4899 I0.0853 J0.0204
X0.0428 Y0.0761 Z1.4735 I-0.0527 J0.0698
X-0.0867 Y0.0091 Z1.457 I-0.0428 J-0.0759
X0.0261 Y-0.0826 Z1.4406 I0.0864 J-0.0089
X0.0649 Y0.057 Z1.4242 I-0.0263 J0.0825
X-0.0781 Y0.0369 Z1.4078 I-0.0649 J-0.0569
X-0.0027 Y-0.0857 Z1.3914 I0.0778 J-0.0367
X0.0793 Y0.0319 Z1.375 I0.0025 J0.0857
X-0.0609 Y0.0601 Z1.3586 I-0.0793 J-0.0318
X-0.0307 Y-0.0792 Z1.3422 I0.0607 J-0.0598
X0.0845 Y0.0038 Z1.3258 I0.0304 J0.0792
X-0.0372 Y0.076 Z1.3094 I-0.0845 J-0.0037
X-0.0547 Y-0.064 Z1.293 I0.0371 J-0.0757
X0.0801 Y-0.0242 Z1.2766 I0.0544 J0.064
X-0.0099 Y0.0831 Z1.2602 I-0.0802 J0.0242
X-0.0721 Y-0.0418 Z1.2438 I0.0098 J-0.0829
X0.0668 Y-0.0489 Z1.2274 I0.0718 J0.0419
X0.018 Y0.0808 Z1.211 I-0.0669 J0.0489
X-0.0811 Y-0.0154 Z1.1946 I-0.018 J-0.0806
X0.0463 Y-0.0677 Z1.1782 I0.0808 J0.0156
X0.0433 Y0.0695 Z1.1617 I-0.0464 J0.0676
X-0.0809 Y0.0121 Z1.1453 I-0.0433 J-0.0693
X0.021 Y-0.0784 Z1.1289 I0.0806 J-0.0119
X0.0631 Y0.0507 Z1.1125 I-0.0212 J0.0783
X-0.0716 Y0.0378 Z1.0961 I-0.0631 J-0.0506
X-0.0061 Y-0.0801 Z1.0797 I0.0713 J-0.0375
X0.0755 Y0.0266 Z1.0633 I0.0059 J0.0801
X-0.0545 Y0.0587 Z1.0469 I-0.0755 J-0.0265
X-0.032 Y-0.0728 Z1.0305 I0.0543 J-0.0584
X0.0791 Y0. Z1.0141 I0.0317 J0.0728
X-0.0797 I-0.0794 J0.
X0.0791 Y-0.0037 I0.0794 J0.
G1 Y0.
X0.0798 Y0.0278 F60.
G3 X0.0478 Y0.0822 I-0.0649 J-0.0016
X-0.0762 Y0.0623 I-0.0511 J-0.0774
X-0.0521 Y-0.0841 I0.0758 J-0.0626
X0.0895 Y-0.0403 I0.0518 J0.0837
X0.0695 Y0.0843 I-0.093 J0.0489
X-0.1066 Y0.0233 I-0.0693 J-0.0846
X0.1065 Y-0.0232 I0.1066 J-0.0233
X0.0694 Y0.0842 I-0.1066 J0.0233
G1 X0.0656 Y0.0864
X0.0616 Y0.0881
X0.0573 Y0.0893
X0.053 Y0.0901
X0.0486 Y0.0903
X0.0442 Y0.09
X0.0398 Y0.0892
X0.0355 Y0.0881 Z1.0144
X0.0311 Y0.087 Z1.0152
X0.0269 Y0.086 Z1.0165
X0.0229 Y0.085 Z1.0184
X0.0192 Y0.0841 Z1.0207
X0.0157 Y0.0832 Z1.0235
X0.0126 Y0.0824 Z1.0267
X0.0099 Y0.0817 Z1.0303
X0.0076 Y0.0812 Z1.0342
X0.0058 Y0.0807 Z1.0383
X0.0045 Y0.0804 Z1.0426
X0.0037 Y0.0802 Z1.0471
X0.0035 Y0.0801 Z1.0516
G0 Z2.4
(2D CONTOUR1)
G64 P0.0004 Q0.0004
G0 X0.0042 Y-0.0375
Z2.4
Z2.
G1 Z1.0516 F80.
G18 G2 X0.0417 Z1.0141 I0.0375 K0. F10.
G1 X0.0792
G17 G3 X0.1167 Y0. I0. J0.0375
X-0.1167 I-0.1167 J0.
X0.1167 I0.1167 J0.
X-0.1167 I-0.1167 J0.
X0.1167 I0.1167 J0.
X0.0792 Y0.0375 I-0.0375 J0.
G1 X0.0417
G18 G3 X0.0042 Z1.0516 I0. K0.0375
G0 Z2.4
G17
(2D CONTOUR2)
G0 X0.0445 Y-0.0375
Z2.4
Z2.
G1 Z1.8394 F80.
Z1.8016
G18 G2 X0.082 Z1.7641 I0.0375 K0. F10.
G1 X0.1195
G17 G3 X0.157 Y0. I0. J0.0375
X-0.157 I-0.157 J0.
X0.157 I0.157 J0.
X-0.157 I-0.157 J0.
X0.157 I0.157 J0.
X0.1195 Y0.0375 I-0.0375 J0.
G1 X0.082
G18 G3 X0.0445 Z1.8016 I0. K0.0375
G0 Z2.4
G17
M5
G53 G0 Z0.
(DRILL2)
M9
M1
T104 M6
T13
S1200 M3
G17 G90 G94
G54
M8
G0 X0. Y0.
G43 Z2.4 H104
G0 Z2.
G81 X0. Y0. Z-0.0471 R1.9641 F10.
G80
G0 Z2.4
M5
G53 G0 Z0.
(2D CHAMFER1)
M9
M1
T13 M6
T36
S7500 M3
G17 G90 G94
G54
G64 P0.0004 Q0.0004
M8
G0 X0. Y-0.4705
G43 Z2.4 H13
G0 Z2.
G1 Z1.88 F80.
Z1.6898
G2 Y0.4705 I0. J0.4705 F50.
Y-0.4705 I0. J-0.4705
G0 Z2.4
(2D CONTOUR3)
G0 X0.0922 Y-0.0375
Z2.4
Z2.
G1 Z1.8394 F80.
Z1.7116
G18 G2 X0.1297 Z1.6741 I0.0375 K0. F50.
G1 X0.1672
G17 G3 X0.2047 Y0. I0. J0.0375
X-0.2047 I-0.2047 J0.
X0.2047 I0.2047 J0.
X0.1672 Y0.0375 I-0.0375 J0.
G1 X0.1297
G18 G3 X0.0922 Z1.7116 I0. K0.0375
G0 Z2.4
G17
(2D CHAMFER2)
G0 X0.321 Y0.
Z2.4
Z2.
G1 Z1.7678 F80.
G3 X-0.321 I-0.321 J0. F20.
X0.321 I0.321 J0.
G0 Z2.4
M5
M9
G53 G0 Z0.
M30
%
