%
(OP2 - FLIPPED)
(T13 D=0.375 CR=0. TAPER=45DEG - ZMIN=1.6541 - CHAMFER MILL)
(T36 D=0.375 CR=0. - ZMIN=0.9941 - FLAT END MILL)
G90 G94 G17 G91.1
G20
G53 G0 Z0.
(3D ADAPTIVE ROUGHING1 2)
T36 M6
T13
S7500 M3
G17 G90 G94
G54
G64 P0.004 Q0.004
M8
G0 X-0.4123 Y-0.6593
G43 Z2.3798 H36
G0 Z1.8348
G1 Z1.7973 F60.
X-0.4122 Y-0.659 Z1.7928
X-0.412 Y-0.6582 Z1.7884
X-0.4116 Y-0.6569 Z1.784
X-0.4112 Y-0.6551 Z1.7799
X-0.4106 Y-0.6528 Z1.776
X-0.4099 Y-0.6501 Z1.7725
X-0.4091 Y-0.647 Z1.7693
X-0.4082 Y-0.6436 Z1.7665
X-0.4073 Y-0.6398 Z1.7641
X-0.4062 Y-0.6358 Z1.7623
X-0.4052 Y-0.6316 Z1.7609
X-0.4041 Y-0.6273 Z1.7601
X-0.4029 Y-0.6229 Z1.7598
G3 X-0.3736 Y-0.4188 I-0.9274 J0.2376
G1 Y-0.4128
G3 X-0.3878 Y-0.3737 I-0.2609 J-0.0728
G1 X-0.4063 Y-0.3334
X-0.4258 Y-0.2935
X-0.4444 Y-0.2533
X-0.461 Y-0.2121
X-0.4751 Y-0.17
X-0.486 Y-0.127
X-0.494 Y-0.0834
X-0.4984 Y-0.0392
X-0.499 Y0.0052
X-0.496 Y0.0494
X-0.4892 Y0.0933
X-0.4785 Y0.1364
X-0.464 Y0.1783
X-0.4462 Y0.219
X-0.4248 Y0.2578
X-0.4 Y0.2946
X-0.3721 Y0.3291
X-0.3413 Y0.361
X-0.3076 Y0.39
X-0.2716 Y0.4159
X-0.2335 Y0.4385
X-0.1934 Y0.4577
X-0.1518 Y0.4732
X-0.109 Y0.4847
X-0.0653 Y0.4926
X-0.0211 Y0.4965
X0.0232 Y0.4963
X0.0674 Y0.4922
X0.1111 Y0.4844
X0.1538 Y0.4722
X0.1953 Y0.4567
X0.2353 Y0.4373
X0.2735 Y0.4147
X0.3093 Y0.3885
X0.3428 Y0.3595
X0.3736 Y0.3275
X0.4012 Y0.2928
X0.4259 Y0.2559
X0.4472 Y0.217
X0.4647 Y0.1762
X0.4784 Y0.134
X0.4885 Y0.0908
X0.4947 Y0.0469
X0.4968 Y0.0025
X0.4952 Y-0.0418
X0.4894 Y-0.0858
X0.4797 Y-0.1291
X0.466 Y-0.1713
X0.449 Y-0.2123
X0.4282 Y-0.2515
X0.404 Y-0.2887
X0.3766 Y-0.3236
X0.3463 Y-0.356
X0.3132 Y-0.3855
X0.2775 Y-0.4119
X0.2397 Y-0.4351
X0.1999 Y-0.4549
X0.1586 Y-0.471
X0.1159 Y-0.4831
X0.0724 Y-0.4916
X0.0282 Y-0.4963
X-0.0161 Y-0.4966
X-0.0604 Y-0.4932
X-0.1041 Y-0.4859
X-0.147 Y-0.4744
X-0.1883 Y-0.4582
X-0.2264 Y-0.4354
X-0.2609 Y-0.4075
X-0.2921 Y-0.376
X-0.3203 Y-0.3417
X-0.3457 Y-0.3053
X-0.3683 Y-0.2671
X-0.3879 Y-0.2274
X-0.4045 Y-0.1862
X-0.4177 Y-0.1438
X-0.4272 Y-0.1005
X-0.4329 Y-0.0565
X-0.4346 Y-0.0121
X-0.4321 Y0.0322
X-0.4254 Y0.076
X-0.4145 Y0.119
X-0.3994 Y0.1608
X-0.3802 Y0.2008
X-0.3571 Y0.2387
X-0.3304 Y0.2741
X-0.3002 Y0.3066
X-0.2668 Y0.3359
X-0.2306 Y0.3615
X-0.192 Y0.3834
X-0.1513 Y0.4011
X-0.1091 Y0.4146
X-0.0656 Y0.4236
X-0.0215 Y0.4281
X0.0229 Y0.4279
X0.067 Y0.4232
X0.1104 Y0.4139
X0.1526 Y0.4003
X0.1933 Y0.3824
X0.2318 Y0.3604
X0.2678 Y0.3345
X0.301 Y0.305
X0.3309 Y0.2723
X0.3573 Y0.2366
X0.3799 Y0.1984
X0.3984 Y0.1581
X0.4126 Y0.116
X0.4223 Y0.0727
X0.4275 Y0.0287
X0.4282 Y-0.0157
X0.4242 Y-0.0599
X0.4157 Y-0.1035
X0.4028 Y-0.1459
X0.3855 Y-0.1867
X0.364 Y-0.2256
X0.3388 Y-0.2621
X0.3099 Y-0.2957
X0.2777 Y-0.3263
X0.2425 Y-0.3533
X0.2046 Y-0.3765
X0.1646 Y-0.3956
X0.1228 Y-0.4106
X0.0797 Y-0.4211
X0.0357 Y-0.4271
X-0.0086 Y-0.4283
X-0.0528 Y-0.4239
X-0.0958 Y-0.4132
X-0.137 Y-0.3967
X-0.1757 Y-0.3749
X-0.2114 Y-0.3486
X-0.244 Y-0.3185
X-0.2731 Y-0.285
X-0.2988 Y-0.2488
X-0.3206 Y-0.2102
X-0.3385 Y-0.1696
X-0.352 Y-0.1273
X-0.3611 Y-0.0839
X-0.3655 Y-0.0397
X-0.3651 Y0.0047
X-0.3597 Y0.0487
X-0.3494 Y0.0919
X-0.3341 Y0.1335
X-0.3142 Y0.1732
X-0.2897 Y0.2102
X-0.2609 Y0.2439
X-0.2282 Y0.274
X-0.1921 Y0.2998
X-0.1532 Y0.3211
X-0.1119 Y0.3374
X-0.069 Y0.3485
X-0.025 Y0.3541
X0.0194 Y0.3543
X0.0635 Y0.3491
X0.1065 Y0.3384
X0.1479 Y0.3223
X0.187 Y0.3013
X0.2231 Y0.2756
X0.2558 Y0.2456
X0.2845 Y0.2117
X0.3087 Y0.1745
X0.328 Y0.1345
X0.3422 Y0.0925
X0.3511 Y0.049
X0.3544 Y0.0048
X0.3522 Y-0.0395
X0.3444 Y-0.0832
X0.3313 Y-0.1256
X0.3131 Y-0.1661
X0.2898 Y-0.2039
X0.2621 Y-0.2385
X0.2302 Y-0.2694
X0.1948 Y-0.2961
X0.1563 Y-0.3182
X0.1153 Y-0.335
X0.0722 Y-0.3458
X0.028 Y-0.3499
X-0.0162 Y-0.3472
X-0.0596 Y-0.3376
X-0.101 Y-0.3217
X-0.1397 Y-0.3001
X-0.1751 Y-0.2733
X-0.2065 Y-0.242
X-0.2336 Y-0.2068
X-0.2557 Y-0.1683
X-0.2724 Y-0.1272
X-0.2835 Y-0.0842
X-0.2887 Y-0.0402
X-0.2877 Y0.0042
X-0.2804 Y0.0479
X-0.2668 Y0.0902
X-0.2472 Y0.13
X-0.2218 Y0.1664
X-0.1912 Y0.1985
X-0.1559 Y0.2254
X-0.1169 Y0.2466
X-0.0751 Y0.2614
X-0.0314 Y0.2693
X0.013 Y0.2701
X0.0569 Y0.2638
X0.0992 Y0.2505
X0.1388 Y0.2304
X0.1746 Y0.2042
X0.2057 Y0.1725
X0.2311 Y0.1361
X0.2502 Y0.0961
X0.2624 Y0.0534
X0.2675 Y0.0094
X0.2653 Y-0.035
X0.2558 Y-0.0783
X0.2393 Y-0.1195
X0.2162 Y-0.1574
X0.1867 Y-0.1906
X0.1516 Y-0.2176
X0.1117 Y-0.2371
X0.0687 Y-0.2482
X0.0244 Y-0.2505
X-0.0194 Y-0.2439
X-0.0612 Y-0.2289
X-0.0992 Y-0.206
X-0.132 Y-0.1761
X-0.1582 Y-0.1402
X-0.1766 Y-0.0999
X-0.1861 Y-0.0565
X-0.186 Y-0.0122
X-0.1758 Y0.031
X-0.1556 Y0.0705
X-0.125 Y0.1026
G2 X0.0076 Y0.1204 I0.0839 J-0.1231
G1 X0.0119 Y0.1194
X0.0163 Y0.1189
X0.0207 Y0.119
X0.0251 Y0.1195
X0.0294 Y0.1206
X0.0335 Y0.1222
X0.0374 Y0.1242
X0.0413 Y0.1266 Z1.7601
X0.0451 Y0.1288 Z1.7609
X0.0488 Y0.1311 Z1.7623
X0.0524 Y0.1332 Z1.7641
X0.0557 Y0.1352 Z1.7665
X0.0588 Y0.137 Z1.7693
X0.0615 Y0.1386 Z1.7725
X0.0639 Y0.1401 Z1.776
X0.0659 Y0.1413 Z1.7799
X0.0675 Y0.1422 Z1.784
X0.0687 Y0.1429 Z1.7884
X0.0694 Y0.1433 Z1.7928
X0.0696 Y0.1435 Z1.7973
G0 Z2.3798
(2D ADAPTIVE ROUGHING1 2)
G0 X0.093 Y-0.0175
Z2.3798
Z1.8798
G3 X-0.0211 Y0.0922 Z1.8634 I-0.093 J0.0175 F40.
X-0.076 Y-0.0557 Z1.847 I0.021 J-0.092
X0.0811 Y-0.047 Z1.8306 I0.0757 J0.0558
X0.0106 Y0.0931 Z1.8142 I-0.0811 J0.047
X-0.0894 Y-0.0271 Z1.7978 I-0.0106 J-0.0929
X0.0602 Y-0.0707 Z1.7814 I0.0891 J0.0272
X0.0405 Y0.0835 Z1.765 I-0.0604 J0.0706
X-0.0925 Y0.0041 Z1.7486 I-0.0405 J-0.0833
X0.033 Y-0.0859 Z1.7322 I0.0922 J-0.0039
X0.0653 Y0.0646 Z1.7158 I-0.0332 J0.0859
X-0.0852 Y0.0342 Z1.6994 I-0.0653 J-0.0645
X0.0025 Y-0.0912 Z1.683 I0.0849 J-0.034
X0.0822 Y0.0389 Z1.6666 I-0.0027 J0.0911
X-0.0683 Y0.06 Z1.6502 I-0.0822 J-0.0388
X-0.0277 Y-0.086 Z1.6338 I0.0681 J-0.0597
X0.0896 Y0.0092 Z1.6174 I0.0275 J0.0861
X-0.0442 Y0.0785 Z1.601 I-0.0896 J-0.0092
X-0.0543 Y-0.0713 Z1.5846 I0.044 J-0.0782
X0.0867 Y-0.0209 Z1.5682 I0.054 J0.0714
X-0.0155 Y0.0878 Z1.5518 I-0.0867 J0.0209
X-0.0742 Y-0.0488 Z1.5354 I0.0154 J-0.0876
X0.074 Y-0.0481 Z1.519 I0.0739 J0.0489
X0.0144 Y0.0871 Z1.5026 I-0.0741 J0.0481
X-0.0854 Y-0.0212 Z1.4862 I-0.0145 J-0.0868
X0.0532 Y-0.0693 Z1.4698 I0.0851 J0.0213
X0.0421 Y0.0765 Z1.4534 I-0.0534 J0.0693
X-0.0868 Y0.0083 Z1.437 I-0.0421 J-0.0763
X0.0269 Y-0.0823 Z1.4206 I0.0865 J-0.0081
X0.0644 Y0.0576 Z1.4042 I-0.0271 J0.0823
X-0.0784 Y0.0363 Z1.3878 I-0.0644 J-0.0575
X-0.0021 Y-0.0858 Z1.3714 I0.0781 J-0.036
X0.0791 Y0.0325 Z1.355 I0.0018 J0.0857
X-0.0613 Y0.0596 Z1.3386 I-0.0791 J-0.0325
X-0.0302 Y-0.0794 Z1.3221 I0.0611 J-0.0593
X0.0845 Y0.0043 Z1.3057 I0.0299 J0.0795
X-0.0377 Y0.0758 Z1.2893 I-0.0845 J-0.0043
X-0.0544 Y-0.0643 Z1.2729 I0.0376 J-0.0755
X0.0803 Y-0.0238 Z1.2565 I0.054 J0.0643
X-0.0103 Y0.0831 Z1.2401 I-0.0803 J0.0238
X-0.0719 Y-0.0422 Z1.2237 I0.0102 J-0.0828
X0.067 Y-0.0486 Z1.2073 I0.0716 J0.0423
X0.0177 Y0.0809 Z1.1909 I-0.0671 J0.0486
X-0.0811 Y-0.0158 Z1.1745 I-0.0177 J-0.0807
X0.0465 Y-0.0675 Z1.1581 I0.0808 J0.0159
X0.043 Y0.0697 Z1.1417 I-0.0467 J0.0674
X-0.0809 Y0.0119 Z1.1253 I-0.043 J-0.0695
X0.0212 Y-0.0783 Z1.1089 I0.0806 J-0.0117
X0.063 Y0.0508 Z1.0925 I-0.0214 J0.0783
X-0.0716 Y0.0377 Z1.0761 I-0.063 J-0.0507
X-0.006 Y-0.0801 Z1.0597 I0.0714 J-0.0374
X0.0755 Y0.0267 Z1.0433 I0.0058 J0.0801
X-0.0545 Y0.0587 Z1.0269 I-0.0755 J-0.0266
X-0.032 Y-0.0728 Z1.0105 I0.0543 J-0.0584
X0.0791 Y0. Z0.9941 I0.0317 J0.0728
X-0.0797 I-0.0794 J0.
X0.0791 Y-0.0037 I0.0794 J0.
G1 Y0.
X0.0798 Y0.0278 F60.
G3 X0.0478 Y0.0822 I-0.0649 J-0.0016
X-0.0762 Y0.0623 I-0.0511 J-0.0774
X-0.0521 Y-0.084 I0.0758 J-0.0627
X0.0895 Y-0.0403 I0.0518 J0.0837
X0.0695 Y0.0843 I-0.093 J0.0489
X-0.1066 Y0.0233 I-0.0693 J-0.0846
X0.1065 Y-0.0232 I0.1066 J-0.0233
X0.0694 Y0.0842 I-0.1066 J0.0233
G1 X0.0656 Y0.0864
X0.0616 Y0.0881
X0.0573 Y0.0893
X0.053 Y0.0901
X0.0486 Y0.0903
X0.0442 Y0.09
X0.0398 Y0.0892
X0.0355 Y0.0881 Z0.9944
X0.0311 Y0.087 Z0.9952
X0.0269 Y0.086 Z0.9965
X0.0229 Y0.085 Z0.9984
X0.0192 Y0.0841 Z1.0007
X0.0157 Y0.0832 Z1.0035
X0.0126 Y0.0824 Z1.0067
X0.0099 Y0.0817 Z1.0103
X0.0076 Y0.0812 Z1.0142
X0.0058 Y0.0807 Z1.0183
X0.0045 Y0.0804 Z1.0226
X0.0037 Y0.0802 Z1.0271
X0.0035 Y0.0801 Z1.0316
G0 Z2.3798
(2D CONTOUR1 2)
G64 P0.0004 Q0.0004
G0 X0.0042 Y-0.0375
Z2.3798
Z1.9798
G1 Z1.0316 F80.
G18 G2 X0.0417 Z0.9941 I0.0375 K0. F10.
G1 X0.0792
G17 G3 X0.1167 Y0. I0. J0.0375
X-0.1167 I-0.1167 J0.
X0.1167 I0.1167 J0.
X-0.1167 I-0.1167 J0.
X0.1167 I0.1167 J0.
X0.0792 Y0.0375 I-0.0375 J0.
G1 X0.0417
G18 G3 X0.0042 Z1.0316 I0. K0.0375
G0 Z2.3798
G17
(2D CONTOUR2 2)
G0 X0.0445 Y-0.0375
Z2.3798
Z1.9798
G1 Z1.8192 F80.
Z1.7816
G18 G2 X0.082 Z1.7441 I0.0375 K0. F10.
G1 X0.1195
G17 G3 X0.157 Y0. I0. J0.0375
X-0.157 I-0.157 J0.
X0.157 I0.157 J0.
X-0.157 I-0.157 J0.
X0.157 I0.157 J0.
X0.1195 Y0.0375 I-0.0375 J0.
G1 X0.082
G18 G3 X0.0445 Z1.7816 I0. K0.0375
G0 Z2.3798
G17
M5
G53 G0 Z0.
(2D CHAMFER1 2)
M9
M1
T13 M6
T36
S7500 M3
G17 G90 G94
G54
M8
G0 X0. Y-0.4705
G43 Z2.3798 H13
G0 Z1.9798
G1 Z1.8598 F80.
Z1.6698
G2 Y0.4705 I0. J0.4705 F50.
Y-0.4705 I0. J-0.4705
G0 Z2.3798
(2D CONTOUR3 2)
G0 X0.0922 Y-0.0375
Z2.3798
Z1.9798
G1 Z1.8192 F80.
Z1.6916
G18 G2 X0.1297 Z1.6541 I0.0375 K0. F50.
G1 X0.1672
G17 G3 X0.2047 Y0. I0. J0.0375
X-0.2047 I-0.2047 J0.
X0.2047 I0.2047 J0.
X0.1672 Y0.0375 I-0.0375 J0.
G1 X0.1297
G18 G3 X0.0922 Z1.6916 I0. K0.0375
G0 Z2.3798
G17
(2D CHAMFER2 2)
G0 X0.321 Y0.
Z2.3798
Z1.9798
G1 Z1.7478 F80.
G3 X-0.321 I-0.321 J0. F20.
X0.321 I0.321 J0.
G0 Z2.3798
M5
M9
G53 G0 Z0.
M30
%
