%
(16 MM SPREADER OP1)
(T12 D=0.2362 CR=0. TAPER=45DEG - ZMIN=2.1941 - CHAMFER MILL)
(T36 D=0.375 CR=0. - ZMIN=1.04 - FLAT END MILL)
(T51 D=0.201 CR=0. TAPER=118DEG - ZMIN=1.0796 - DRILL)
(T101 D=0.1 CR=0. TAPER=135DEG - ZMIN=1.1193 - DRILL)
G90 G94 G17 G91.1
G20
G53 G0 Z0.
(ADAPTIVE1)
T36 M6
T51
S5000 M3
G17 G90 G94
G54
G64 P0.004 Q0.004
M8
G0 X1.1798 Y-0.706
G43 Z2.9241 H36
G0 Z1.6841
G1 Z1.6466 F50.
X1.1795 Y-0.7059 Z1.6421
X1.1787 Y-0.7057 Z1.6376
X1.1774 Y-0.7054 Z1.6333
X1.1756 Y-0.7049 Z1.6292
X1.1733 Y-0.7043 Z1.6253
X1.1706 Y-0.7036 Z1.6217
X1.1675 Y-0.7028 Z1.6185
X1.1641 Y-0.702 Z1.6157
X1.1603 Y-0.701 Z1.6134
X1.1563 Y-0.7 Z1.6115
X1.1521 Y-0.6989 Z1.6102
X1.1478 Y-0.6978 Z1.6094
X1.1434 Y-0.6967 Z1.6091
G3 X0.9393 Y-0.6673 I-0.2376 J-0.9274
G1 X0.9365
X0.9326 Y-0.6718
X0.9295 Y-0.677
X0.9267 Y-0.6823
X0.9085 Y-0.7228
X0.8834 Y-0.7594
X0.8517 Y-0.7903
X0.8152 Y-0.8156
X0.7755 Y-0.8355
X0.7338 Y-0.8507
X0.6909 Y-0.8619
G2 X0.5148 Y-0.8821 I-0.208 J1.039
X0.2042 Y-0.8869 I-0.2589 J6.7517
G1 X0.1155 Y-0.8872
X0.0713 Y-0.8833
X0.0298 Y-0.8676
X-0.0071 Y-0.8429
X-0.0384 Y-0.8114
X-0.0639 Y-0.7751
X-0.0841 Y-0.7356
X-0.0995 Y-0.694
X-0.1109 Y-0.6511
G2 X-0.1314 Y-0.475 I1.0216 J0.2082
X-0.1362 Y-0.1645 I6.617 J0.2583
G1 X-0.1365 Y-0.1201
X-0.134 Y-0.0758
X-0.1194 Y-0.0339
X-0.0955 Y0.0035
X-0.0646 Y0.0354
X-0.0288 Y0.0615
X0.0105 Y0.0822
X0.0519 Y0.0981
X0.0947 Y0.1099
G2 X0.2707 Y0.1311 I0.2086 J-0.9868
X0.5812 Y0.1362 I0.2584 J-6.3486
G1 X0.6256 Y0.1365
X0.6699 Y0.1353
X0.7122 Y0.1218
X0.7501 Y0.0987
X0.7825 Y0.0684
X0.8092 Y0.0329
X0.8304 Y-0.0061
X0.8467 Y-0.0473
X0.8588 Y-0.09
X0.8676 Y-0.1335
G2 X0.8828 Y-0.3102 I-1.3424 J-0.2047
X0.8861 Y-0.5321 I-6.6812 J-0.2103
G1 X0.881 Y-0.5761
X0.8679 Y-0.6185
X0.8475 Y-0.6579
X0.8206 Y-0.6932
X0.7885 Y-0.7239
X0.7524 Y-0.7497
X0.7287 Y-0.7627
X0.722 Y-0.7666
X0.7156 Y-0.7709
X0.7094 Y-0.7755
X0.6947 Y-0.7874
X0.6835 Y-0.796
X0.6386 Y-0.8277
G2 X0.5152 Y-0.8629 I-0.1143 J0.1671
G1 X0.504 Y-0.8631
X0.246
G2 X0.1787 Y-0.8579 I-0.0109 J0.3017
X0.1113 Y-0.8277 I0.0561 J0.2153
G1 X0.0665 Y-0.796
X0.0553 Y-0.7874
X0.0328 Y-0.7693
G2 X-0.0334 Y-0.6958 I0.773 J0.762
X-0.0915 Y-0.5946 I0.7003 J0.4696
X-0.1242 Y-0.4855 I0.8902 J0.3267
X-0.1321 Y-0.3921 I1.7599 J0.1946
X-0.1257 Y-0.3247 I0.3857 J-0.0024
X-0.1159 Y-0.2667 I0.7269 J-0.0937
G1 X-0.1116 Y-0.2514
X-0.108 Y-0.2357
X-0.0996 Y-0.1921
X-0.0888 Y-0.1491
X-0.0707 Y-0.1085
X-0.046 Y-0.0717
X-0.0158 Y-0.0392
X0.0188 Y-0.0114
X0.0567 Y0.0117
X0.097 Y0.0303
X0.1037 Y0.033
X0.1103 Y0.0361
X0.1166 Y0.0397
G2 X0.1673 Y0.0676 I0.1984 J-0.3005
X0.2571 Y0.0982 I0.4298 J-1.1123
G1 X0.2796 Y0.103
G2 X0.3806 Y0.1123 I0.1463 J-1.0307
X0.472 Y0.1026 I-0.1269 J-1.6398
G1 X0.4798 Y0.1013
X0.5144 Y0.0969
X0.5586 Y0.0931
X0.6018 Y0.083
X0.6425 Y0.0652
X0.6794 Y0.0406
X0.7119 Y0.0104
X0.7396 Y-0.0243
X0.7626 Y-0.0622
X0.7658 Y-0.0688
X0.7695 Y-0.0751
X0.7735 Y-0.0813
G3 X0.7996 Y-0.0962 I0.0301 J0.0224
G1 X0.8181 Y-0.0936 F300.
G3 X0.862 Y0.0576 I-0.0092 J0.0847
G1 X0.7283 Y0.1557
X0.661 Y0.1928
X0.504 Y0.223
G3 X0.4451 Y0.1172 I-0.0167 J-0.06
X0.472 Y0.1026 I0.0422 J0.0458 F50.
G1 X0.4927 Y0.0981
G2 X0.5937 Y0.0628 I-0.2588 J-0.9023
X0.6835 Y0.008 I-0.6918 J-1.234
X0.7503 Y-0.0549 I-0.8647 J-0.9864
G1 X0.7732 Y-0.0809
G2 X0.8154 Y-0.1448 I-2.2527 J-1.5353
G1 X0.8293 Y-0.17
G2 X0.8662 Y-0.2685 I-0.9345 J-0.4068
X0.8813 Y-0.3696 I-1.0619 J-0.2101
G1 X0.8816 Y-0.3809
X0.882 Y-0.3921
G2 X0.8742 Y-0.4855 I-1.8606 J0.1092
X0.8415 Y-0.5946 I-0.9582 J0.2279
X0.7833 Y-0.6958 I-0.7836 J0.3829
X0.7171 Y-0.7694 I-0.8732 J0.7193
G1 X0.7094 Y-0.7755
X0.6947 Y-0.7874
X0.6852 Y-0.7947
X0.6835 Y-0.796
X0.6386 Y-0.8277
G2 X0.5152 Y-0.8629 I-0.1143 J0.1671
G1 X0.504 Y-0.8631
X0.246
G2 X0.1787 Y-0.8579 I-0.0109 J0.3017
X0.1113 Y-0.8277 I0.0561 J0.2153
G1 X0.0665 Y-0.796
X0.0553 Y-0.7874
X0.0328 Y-0.7693
G2 X-0.0334 Y-0.6958 I0.773 J0.762
X-0.0915 Y-0.5946 I0.7019 J0.4705
X-0.1243 Y-0.4855 I0.8991 J0.3295
X-0.132 Y-0.3921 I1.8193 J0.1987
X-0.1256 Y-0.3247 I0.3808 J-0.0024
G1 X-0.1225 Y-0.3022
X-0.1216 Y-0.2971
X-0.1205 Y-0.2909
X-0.1163 Y-0.2685
X-0.1158 Y-0.2668
G2 X-0.0795 Y-0.1699 I1.0309 J-0.3313
G1 X-0.0655 Y-0.1448
G2 X-0.0233 Y-0.0809 I2.7824 J-1.7925
X0.073 Y0.0128 I0.5583 J-0.4775
G1 X0.0909 Y0.0239
X0.1001 Y0.0296
X0.1166 Y0.0397
G3 X0.1329 Y0.0649 Z1.6107 I-0.0207 J0.0313
X0.0889 Y0.1078 Z1.6145 I-0.037 J0.0061 F300.
G1 X-0.0345 Y0.0755 Z1.6472
G3 X-0.0794 Y0.0511 Z1.6673 I0.023 J-0.0957
G1 X-0.1408 Y-0.0211 Z1.7137
X-0.1892 Y-0.0998 Z1.7679
X-0.2305 Y-0.201 Z1.8404
X-0.2476 Y-0.2606 Z1.8841
X-0.2614 Y-0.3697 Z1.9636
X-0.1949 Y-0.752 Z2.2107
G3 X-0.1923 Y-0.7632 Z2.2161 I0.0971 J0.0161
G1 X-0.1915 Y-0.7658 Z2.2173
X-0.19 Y-0.7702 Z2.2194
X-0.1883 Y-0.7744 Z2.2214
G3 X-0.1827 Y-0.7857 Z2.2269 I0.0905 J0.0386
G1 X-0.1803 Y-0.7895 Z2.2288
X-0.1777 Y-0.7933 Z2.2307
X-0.175 Y-0.7969 Z2.2326
X-0.1721 Y-0.8004 Z2.2344
X-0.1691 Y-0.8037 Z2.2362
X-0.1645 Y-0.8082 Z2.2387
X-0.1613 Y-0.8111 Z2.2404
X-0.1579 Y-0.8138 Z2.242
G3 X-0.1498 Y-0.8194 Z2.2457 I0.0601 J0.078
G1 X-0.1467 Y-0.8213 Z2.247
G3 X-0.1354 Y-0.8268 Z2.2513 I0.0489 J0.0854
X-0.1242 Y-0.8306 Z2.2552 I0.0377 J0.0909
G1 Y-0.8307
G3 X-0.113 Y-0.8331 Z2.2587 I0.0264 J0.0948
X-0.1018 Y-0.8342 Z2.262 I0.0152 J0.0972
X-0.0906 Y-0.834 Z2.265 I0.004 J0.0983
X-0.0794 Y-0.8325 Z2.2679 I-0.0072 J0.0982
G1 X-0.0714 Y-0.8307 Z2.2698
X-0.0681 Y-0.8297 Z2.2706
G3 X-0.0569 Y-0.8254 Z2.2731 I-0.0297 J0.0939
X-0.0458 Y-0.8194 Z2.2756 I-0.0409 J0.0895
G1 X-0.0457
G3 X-0.0053 Y-0.7694 Z2.2814 I-0.0521 J0.0835
X0.0006 Y-0.7393 Z2.2841 I-0.0925 J0.0336 F50.
X-0.0069 Y-0.6966 I-0.1443 J-0.0032
G1 X-0.0193 Y-0.654
X-0.0332 Y-0.6119
X-0.0463 Y-0.5695
X-0.0567 Y-0.5264
X-0.0645 Y-0.4827
X-0.0685 Y-0.4385
X-0.069 Y-0.3941
X-0.0652 Y-0.3499
X-0.0577 Y-0.3062
X-0.0457 Y-0.2635
X-0.0301 Y-0.2219
X-0.0101 Y-0.1823
X0.0135 Y-0.1447
X0.0408 Y-0.1097
X0.0714 Y-0.0776
X0.105 Y-0.0487
X0.1414 Y-0.0233
X0.1802 Y-0.0016
X0.2209 Y0.0159
X0.2632 Y0.0294
X0.3066 Y0.0384
X0.3507 Y0.0433
X0.3951
X0.4393 Y0.0392
X0.4828 Y0.0303
X0.5252 Y0.0174
X0.566 Y0.
X0.605 Y-0.0212
X0.6415 Y-0.0464
X0.6753 Y-0.0752
X0.7061 Y-0.1071
X0.7334 Y-0.1421
X0.7572 Y-0.1795
X0.7769 Y-0.2193
X0.7928 Y-0.2607
X0.8041 Y-0.3037
X0.8113 Y-0.3474
X0.8137 Y-0.3917
X0.8119 Y-0.4361
X0.8054 Y-0.48
X0.7947 Y-0.523
X0.7796 Y-0.5647
X0.7603 Y-0.6047
X0.7371 Y-0.6426
X0.7102 Y-0.6778
X0.6796 Y-0.71
X0.644 Y-0.7364
X0.6049 Y-0.7574
X0.5635 Y-0.7735
X0.5208 Y-0.7855
G2 X0.3005 Y-0.808 I-0.2124 J0.9909
G1 X0.2565 Y-0.8022
X0.2138 Y-0.7903
X0.1743 Y-0.7701
X0.1388 Y-0.7434
X0.1074 Y-0.7121
X0.08 Y-0.6772
X0.0564 Y-0.6396
X0.0366 Y-0.5999
X0.0207 Y-0.5585
X0.0088 Y-0.5157
X0.0011 Y-0.472
X-0.0021 Y-0.4278
X-0.0008 Y-0.3834
X0.0053 Y-0.3394
X0.0161 Y-0.2964
X0.0317 Y-0.2549
X0.0518 Y-0.2153
X0.0764 Y-0.1784
X0.1051 Y-0.1445
X0.1375 Y-0.1143
X0.1733 Y-0.0881
X0.212 Y-0.0663
X0.2529 Y-0.0492
X0.2956 Y-0.0371
X0.3395 Y-0.0303
X0.3838 Y-0.0288
X0.428 Y-0.0327
X0.4715 Y-0.0418
X0.5135 Y-0.0561
X0.5534 Y-0.0754
X0.5907 Y-0.0995
X0.6249 Y-0.1278
X0.6554 Y-0.16
X0.6818 Y-0.1957
X0.7037 Y-0.2343
X0.7207 Y-0.2753
X0.7326 Y-0.318
X0.7393 Y-0.3619
X0.7407 Y-0.4062
X0.7366 Y-0.4504
X0.7272 Y-0.4938
X0.7125 Y-0.5356
X0.6918 Y-0.5749
X0.6653 Y-0.6105
X0.6338 Y-0.6417
X0.5983 Y-0.6684
X0.5599 Y-0.6906
X0.5193 Y-0.7085
X0.4772 Y-0.7227
X0.4342 Y-0.7334
X0.3903 Y-0.74
X0.3459 Y-0.7399
X0.3022 Y-0.7323
X0.2604 Y-0.7175
X0.2214 Y-0.6962
X0.1861 Y-0.6694
X0.1548 Y-0.6379
X0.1282 Y-0.6024
X0.1064 Y-0.5638
X0.09 Y-0.5225
X0.0791 Y-0.4795
X0.074 Y-0.4354
X0.0748 Y-0.3911
X0.0817 Y-0.3472
X0.0947 Y-0.3048
X0.1134 Y-0.2646
X0.1378 Y-0.2275
X0.1672 Y-0.1943
X0.2013 Y-0.1658
X0.2392 Y-0.1427
X0.2801 Y-0.1256
X0.3231 Y-0.1149
X0.3673 Y-0.1108
X0.4116 Y-0.1136
X0.4549 Y-0.1232
X0.4963 Y-0.1393
X0.5346 Y-0.1616
X0.569 Y-0.1897
X0.5987 Y-0.2227
X0.6228 Y-0.2599
X0.6393 Y-0.3011
X0.6495 Y-0.3443
X0.6523 Y-0.3886
X0.6471 Y-0.4326
X0.634 Y-0.475
X0.6137 Y-0.5145
X0.5873 Y-0.5501
X0.5558 Y-0.5814
X0.52 Y-0.6076
X0.4803 Y-0.6274
X0.4375 Y-0.6391
X0.3932 Y-0.642
X0.3493 Y-0.6358
X0.3075 Y-0.6209
X0.2695 Y-0.598
X0.2368 Y-0.568
X0.2108 Y-0.5321
X0.1924 Y-0.4916
X0.1829 Y-0.4483
X0.1828 Y-0.4039
X0.1924 Y-0.3606
X0.2116 Y-0.3206
X0.2397 Y-0.2863
X0.2754 Y-0.2599
X0.3166 Y-0.2435
G2 X0.4224 Y-0.2679 I0.0204 J-0.1535
G1 X0.4514 Y-0.2787
X0.9751 Y-0.4742 F300.
G2 X0.9639 Y-0.6612 I-0.0358 J-0.0917
G1 X0.9393 Y-0.6673
Z1.0709
Z1.04 F50.
X0.9365
X0.9326 Y-0.6718
X0.9295 Y-0.677
X0.9267 Y-0.6823
X0.9085 Y-0.7228
X0.8834 Y-0.7594
X0.8517 Y-0.7903
X0.8152 Y-0.8156
X0.7755 Y-0.8355
X0.7338 Y-0.8507
X0.6909 Y-0.8619
G2 X0.5148 Y-0.8821 I-0.208 J1.039
X0.2042 Y-0.8869 I-0.2589 J6.7517
G1 X0.1155 Y-0.8872
X0.0713 Y-0.8833
X0.0298 Y-0.8676
X-0.0071 Y-0.8429
X-0.0384 Y-0.8114
X-0.0639 Y-0.7751
X-0.0841 Y-0.7356
X-0.0995 Y-0.694
X-0.1109 Y-0.6511
G2 X-0.1314 Y-0.475 I1.0216 J0.2082
X-0.1362 Y-0.1645 I6.617 J0.2583
G1 X-0.1365 Y-0.1201
X-0.134 Y-0.0758
X-0.1194 Y-0.0339
X-0.0955 Y0.0035
X-0.0646 Y0.0354
X-0.0288 Y0.0615
X0.0105 Y0.0822
X0.0519 Y0.0981
X0.0947 Y0.1099
G2 X0.2707 Y0.1311 I0.2086 J-0.9868
X0.5812 Y0.1362 I0.2584 J-6.3486
G1 X0.6256 Y0.1365
X0.6699 Y0.1353
X0.7122 Y0.1218
X0.7501 Y0.0987
X0.7825 Y0.0684
X0.8092 Y0.0329
X0.8304 Y-0.0061
X0.8467 Y-0.0473
X0.8588 Y-0.09
X0.8676 Y-0.1335
G2 X0.8828 Y-0.3102 I-1.3424 J-0.2047
X0.8861 Y-0.5321 I-6.6812 J-0.2103
G1 X0.881 Y-0.5761
X0.8679 Y-0.6185
X0.8475 Y-0.6579
X0.8206 Y-0.6932
X0.7885 Y-0.7239
X0.7524 Y-0.7497
X0.7287 Y-0.7627
X0.722 Y-0.7666
X0.7156 Y-0.7709
X0.7094 Y-0.7755
X0.6947 Y-0.7874
X0.6835 Y-0.796
X0.6386 Y-0.8277
G2 X0.5152 Y-0.8629 I-0.1143 J0.1671
G1 X0.504 Y-0.8631
X0.246
G2 X0.1787 Y-0.8579 I-0.0109 J0.3017
X0.1113 Y-0.8277 I0.0561 J0.2153
G1 X0.0665 Y-0.796
X0.0553 Y-0.7874
X0.0328 Y-0.7693
G2 X-0.0334 Y-0.6958 I0.773 J0.762
X-0.0915 Y-0.5946 I0.7003 J0.4696
X-0.1242 Y-0.4855 I0.8902 J0.3267
X-0.1321 Y-0.3921 I1.7599 J0.1946
X-0.1257 Y-0.3247 I0.3857 J-0.0024
X-0.1159 Y-0.2667 I0.7269 J-0.0937
G1 X-0.1116 Y-0.2514
X-0.108 Y-0.2357
X-0.0996 Y-0.1921
X-0.0888 Y-0.1491
X-0.0707 Y-0.1085
X-0.046 Y-0.0717
X-0.0158 Y-0.0392
X0.0188 Y-0.0114
X0.0567 Y0.0117
X0.097 Y0.0303
X0.1037 Y0.033
X0.1103 Y0.0361
X0.1166 Y0.0397
G2 X0.1673 Y0.0676 I0.1984 J-0.3005
X0.2571 Y0.0982 I0.4298 J-1.1123
G1 X0.2796 Y0.103
G2 X0.3806 Y0.1123 I0.1463 J-1.0307
X0.472 Y0.1026 I-0.1269 J-1.6398
G1 X0.4798 Y0.1013
X0.5144 Y0.0969
X0.5586 Y0.0931
X0.6018 Y0.083
X0.6425 Y0.0652
X0.6794 Y0.0406
X0.7119 Y0.0104
X0.7396 Y-0.0243
X0.7626 Y-0.0622
X0.7658 Y-0.0688
X0.7695 Y-0.0751
X0.7735 Y-0.0813
G3 X0.7996 Y-0.0962 I0.0301 J0.0224
G1 X0.8181 Y-0.0936 F300.
G3 X0.862 Y0.0576 I-0.0092 J0.0847
G1 X0.7283 Y0.1557
X0.661 Y0.1928
X0.504 Y0.223
G3 X0.4451 Y0.1172 I-0.0167 J-0.06
X0.472 Y0.1026 I0.0422 J0.0458 F50.
G1 X0.4927 Y0.0981
G2 X0.5937 Y0.0628 I-0.2588 J-0.9023
X0.6835 Y0.008 I-0.6918 J-1.234
X0.7503 Y-0.0549 I-0.8647 J-0.9864
G1 X0.7732 Y-0.0809
G2 X0.8154 Y-0.1448 I-2.2527 J-1.5353
G1 X0.8293 Y-0.17
G2 X0.8662 Y-0.2685 I-0.9345 J-0.4068
X0.8813 Y-0.3696 I-1.0619 J-0.2101
G1 X0.8816 Y-0.3809
X0.882 Y-0.3921
G2 X0.8742 Y-0.4855 I-1.8606 J0.1092
X0.8415 Y-0.5946 I-0.9582 J0.2279
X0.7833 Y-0.6958 I-0.7836 J0.3829
X0.7171 Y-0.7694 I-0.8732 J0.7193
G1 X0.7094 Y-0.7755
X0.6947 Y-0.7874
X0.6852 Y-0.7947
X0.6835 Y-0.796
X0.6386 Y-0.8277
G2 X0.5152 Y-0.8629 I-0.1143 J0.1671
G1 X0.504 Y-0.8631
X0.246
G2 X0.1787 Y-0.8579 I-0.0109 J0.3017
X0.1113 Y-0.8277 I0.0561 J0.2153
G1 X0.0665 Y-0.796
X0.0553 Y-0.7874
X0.0328 Y-0.7693
G2 X-0.0334 Y-0.6958 I0.773 J0.762
X-0.0915 Y-0.5946 I0.7019 J0.4705
X-0.1243 Y-0.4855 I0.8991 J0.3295
X-0.132 Y-0.3921 I1.8193 J0.1987
X-0.1256 Y-0.3247 I0.3808 J-0.0024
G1 X-0.1225 Y-0.3022
X-0.1216 Y-0.2971
X-0.1205 Y-0.2909
X-0.1163 Y-0.2685
X-0.1158 Y-0.2668
G2 X-0.0795 Y-0.1699 I1.0309 J-0.3313
G1 X-0.0655 Y-0.1448
G2 X-0.0233 Y-0.0809 I2.7824 J-1.7925
X0.073 Y0.0128 I0.5583 J-0.4775
G1 X0.0909 Y0.0239
X0.1001 Y0.0296
X0.1166 Y0.0397
G3 X0.133 Y0.0649 I-0.0207 J0.0313
G1 X0.1337 Y0.0694 Z1.0403
X0.1344 Y0.0738 Z1.0411
X0.1351 Y0.078 Z1.0424
X0.1358 Y0.0821 Z1.0443
X0.1364 Y0.0859 Z1.0466
X0.137 Y0.0894 Z1.0494
X0.1375 Y0.0926 Z1.0526
X0.1379 Y0.0954 Z1.0562
X0.1383 Y0.0977 Z1.0601
X0.1386 Y0.0995 Z1.0642
X0.1388 Y0.1008 Z1.0685
X0.139 Y0.1016 Z1.073
Y0.1019 Z1.0775
G0 Z2.9241
(2D CONTOUR1)
G64 P0.0004 Q0.0004
G0 X0.9895 Y-0.3508
Z2.9241
Z2.5241
G1 Z2.3635 F80.
Z1.0775
X0.9892 Z1.073 F50.
X0.9884 Z1.0685
X0.987 Z1.0642
X0.9852 Z1.0601
X0.9828 Y-0.3509 Z1.0562
X0.98 Z1.0526
X0.9768 Z1.0494
X0.9733 Y-0.351 Z1.0466
X0.9694 Z1.0443
X0.9653 Y-0.3511 Z1.0424
X0.961 Z1.0411
X0.9565 Y-0.3512 Z1.0403
X0.952 Z1.04
X0.9145 Y-0.3516
G3 X0.8774 Y-0.3895 I0.0004 J-0.0375
G2 X0.6182 Y-0.8346 I-0.5024 J-0.0054
X0.5274 Y-0.8581 I-0.0908 J0.1641
G1 X0.2225
G2 X0.1317 Y-0.8346 I0. J0.1875
X0.6182 Y0.0447 I0.2433 J0.4397
Y-0.8346 I-0.2433 J-0.4397
X0.5274 Y-0.8581 I-0.0908 J0.1641
G1 X0.2225
G2 X0.1317 Y-0.8346 I0. J0.1875
X0.6182 Y0.0447 I0.2433 J0.4397
X0.8774 Y-0.3895 I-0.2433 J-0.4397
G3 X0.9153 Y-0.4266 I0.0375 J0.0004
G1 X0.9528 Y-0.4262
X0.9573 Y-0.4261 Z1.0403
X0.9618 Z1.0411
X0.9661 Z1.0424
X0.9702 Y-0.426 Z1.0443
X0.9741 Z1.0466
X0.9777 Y-0.4259 Z1.0494
X0.9809 Z1.0526
X0.9837 Z1.0562
X0.986 Y-0.4258 Z1.0601
X0.9879 Z1.0642
X0.9892 Z1.0685
X0.99 Z1.073
X0.9903 Z1.0775
G0 Z2.9241
M5
G53 G0 Z0.
(DRILL1)
M9
M1
T51 M6
T101
S5000 M3
G17 G90 G94
G54
M8
G0 X0.375 Y-0.395
G43 Z2.9241 H51
G0 Z2.5241
Z2.4841
G1 Z2.1841 F25.
G0 Z2.4841
Z2.2641
G1 Z2.0841 F25.
G0 Z2.4841
Z2.1641
G1 Z1.9841 F25.
G0 Z2.4841
Z2.0641
G1 Z1.8841 F25.
G0 Z2.4841
Z1.9641
G1 Z1.7841 F25.
G0 Z2.4841
Z1.8641
G1 Z1.6841 F25.
G0 Z2.4841
Z1.7641
G1 Z1.5841 F25.
G0 Z2.4841
Z1.6641
G1 Z1.4841 F25.
G0 Z2.4841
Z1.5641
G1 Z1.3841 F25.
G0 Z2.4841
Z1.4641
G1 Z1.2841 F25.
G0 Z2.4841
Z1.3641
G1 Z1.1841 F25.
G0 Z2.4841
Z1.2641
G1 Z1.0841 F25.
G0 Z2.4841
Z1.1641
G1 Z1.0796 F25.
G4 P0.05
G0 Z2.5241
Z2.9241
(DRILL2)
G0 X0.5443 Y-0.26
Z2.9241
Z2.5241
G98 G81 X0.5443 Y-0.26 Z2.2591 R2.4841 F25.
X0.375 Y-0.1784
X0.2057 Y-0.26
X0.1639 Y-0.4431
X0.281 Y-0.5901
X0.4689
X0.5861 Y-0.4431
G80
G0 Z2.9241
M5
G53 G0 Z0.
(DRILL3)
M9
M1
T101 M6
T12
S2500 M3
G17 G90 G94
G54
M8
G0 X0.5443 Y-0.26
G43 Z2.9241 H101
G0 Z2.5241
Z2.4841
G1 Z2.2341 F5.
G0 Z2.4841
Z2.3141
G1 Z2.1841 F5.
G0 Z2.4841
Z2.2641
G1 Z2.1341 F5.
G0 Z2.4841
Z2.2141
G1 Z2.0841 F5.
G0 Z2.4841
Z2.1641
G1 Z2.0341 F5.
G0 Z2.4841
Z2.1141
G1 Z1.9841 F5.
G0 Z2.4841
Z2.0641
G1 Z1.9341 F5.
G0 Z2.4841
Z2.0141
G1 Z1.8841 F5.
G0 Z2.4841
Z1.9641
G1 Z1.8341 F5.
G0 Z2.4841
Z1.9141
G1 Z1.7841 F5.
G0 Z2.4841
Z1.8641
G1 Z1.7341 F5.
G0 Z2.4841
Z1.8141
G1 Z1.6841 F5.
G0 Z2.4841
Z1.7641
G1 Z1.6341 F5.
G0 Z2.4841
Z1.7141
G1 Z1.5841 F5.
G0 Z2.4841
Z1.6641
G1 Z1.5341 F5.
G0 Z2.4841
Z1.6141
G1 Z1.4841 F5.
G0 Z2.4841
Z1.5641
G1 Z1.4341 F5.
G0 Z2.4841
Z1.5141
G1 Z1.3841 F5.
G0 Z2.4841
Z1.4641
G1 Z1.3341 F5.
G0 Z2.4841
Z1.4141
G1 Z1.2841 F5.
G0 Z2.4841
Z1.3641
G1 Z1.2341 F5.
G0 Z2.4841
Z1.3141
G1 Z1.1841 F5.
G0 Z2.4841
Z1.2641
G1 Z1.1341 F5.
G0 Z2.4841
Z1.2141
G1 Z1.1193 F5.
G4 P0.05
G0 Z2.5241
X0.375 Y-0.1784
Z2.4841
G1 Z2.2341 F5.
G0 Z2.4841
Z2.3141
G1 Z2.1841 F5.
G0 Z2.4841
Z2.2641
G1 Z2.1341 F5.
G0 Z2.4841
Z2.2141
G1 Z2.0841 F5.
G0 Z2.4841
Z2.1641
G1 Z2.0341 F5.
G0 Z2.4841
Z2.1141
G1 Z1.9841 F5.
G0 Z2.4841
Z2.0641
G1 Z1.9341 F5.
G0 Z2.4841
Z2.0141
G1 Z1.8841 F5.
G0 Z2.4841
Z1.9641
G1 Z1.8341 F5.
G0 Z2.4841
Z1.9141
G1 Z1.7841 F5.
G0 Z2.4841
Z1.8641
G1 Z1.7341 F5.
G0 Z2.4841
Z1.8141
G1 Z1.6841 F5.
G0 Z2.4841
Z1.7641
G1 Z1.6341 F5.
G0 Z2.4841
Z1.7141
G1 Z1.5841 F5.
G0 Z2.4841
Z1.6641
G1 Z1.5341 F5.
G0 Z2.4841
Z1.6141
G1 Z1.4841 F5.
G0 Z2.4841
Z1.5641
G1 Z1.4341 F5.
G0 Z2.4841
Z1.5141
G1 Z1.3841 F5.
G0 Z2.4841
Z1.4641
G1 Z1.3341 F5.
G0 Z2.4841
Z1.4141
G1 Z1.2841 F5.
G0 Z2.4841
Z1.3641
G1 Z1.2341 F5.
G0 Z2.4841
Z1.3141
G1 Z1.1841 F5.
G0 Z2.4841
Z1.2641
G1 Z1.1341 F5.
G0 Z2.4841
Z1.2141
G1 Z1.1193 F5.
G4 P0.05
G0 Z2.5241
X0.2057 Y-0.26
Z2.4841
G1 Z2.2341 F5.
G0 Z2.4841
Z2.3141
G1 Z2.1841 F5.
G0 Z2.4841
Z2.2641
G1 Z2.1341 F5.
G0 Z2.4841
Z2.2141
G1 Z2.0841 F5.
G0 Z2.4841
Z2.1641
G1 Z2.0341 F5.
G0 Z2.4841
Z2.1141
G1 Z1.9841 F5.
G0 Z2.4841
Z2.0641
G1 Z1.9341 F5.
G0 Z2.4841
Z2.0141
G1 Z1.8841 F5.
G0 Z2.4841
Z1.9641
G1 Z1.8341 F5.
G0 Z2.4841
Z1.9141
G1 Z1.7841 F5.
G0 Z2.4841
Z1.8641
G1 Z1.7341 F5.
G0 Z2.4841
Z1.8141
G1 Z1.6841 F5.
G0 Z2.4841
Z1.7641
G1 Z1.6341 F5.
G0 Z2.4841
Z1.7141
G1 Z1.5841 F5.
G0 Z2.4841
Z1.6641
G1 Z1.5341 F5.
G0 Z2.4841
Z1.6141
G1 Z1.4841 F5.
G0 Z2.4841
Z1.5641
G1 Z1.4341 F5.
G0 Z2.4841
Z1.5141
G1 Z1.3841 F5.
G0 Z2.4841
Z1.4641
G1 Z1.3341 F5.
G0 Z2.4841
Z1.4141
G1 Z1.2841 F5.
G0 Z2.4841
Z1.3641
G1 Z1.2341 F5.
G0 Z2.4841
Z1.3141
G1 Z1.1841 F5.
G0 Z2.4841
Z1.2641
G1 Z1.1341 F5.
G0 Z2.4841
Z1.2141
G1 Z1.1193 F5.
G4 P0.05
G0 Z2.5241
X0.1639 Y-0.4431
Z2.4841
G1 Z2.2341 F5.
G0 Z2.4841
Z2.3141
G1 Z2.1841 F5.
G0 Z2.4841
Z2.2641
G1 Z2.1341 F5.
G0 Z2.4841
Z2.2141
G1 Z2.0841 F5.
G0 Z2.4841
Z2.1641
G1 Z2.0341 F5.
G0 Z2.4841
Z2.1141
G1 Z1.9841 F5.
G0 Z2.4841
Z2.0641
G1 Z1.9341 F5.
G0 Z2.4841
Z2.0141
G1 Z1.8841 F5.
G0 Z2.4841
Z1.9641
G1 Z1.8341 F5.
G0 Z2.4841
Z1.9141
G1 Z1.7841 F5.
G0 Z2.4841
Z1.8641
G1 Z1.7341 F5.
G0 Z2.4841
Z1.8141
G1 Z1.6841 F5.
G0 Z2.4841
Z1.7641
G1 Z1.6341 F5.
G0 Z2.4841
Z1.7141
G1 Z1.5841 F5.
G0 Z2.4841
Z1.6641
G1 Z1.5341 F5.
G0 Z2.4841
Z1.6141
G1 Z1.4841 F5.
G0 Z2.4841
Z1.5641
G1 Z1.4341 F5.
G0 Z2.4841
Z1.5141
G1 Z1.3841 F5.
G0 Z2.4841
Z1.4641
G1 Z1.3341 F5.
G0 Z2.4841
Z1.4141
G1 Z1.2841 F5.
G0 Z2.4841
Z1.3641
G1 Z1.2341 F5.
G0 Z2.4841
Z1.3141
G1 Z1.1841 F5.
G0 Z2.4841
Z1.2641
G1 Z1.1341 F5.
G0 Z2.4841
Z1.2141
G1 Z1.1193 F5.
G4 P0.05
G0 Z2.5241
X0.281 Y-0.5901
Z2.4841
G1 Z2.2341 F5.
G0 Z2.4841
Z2.3141
G1 Z2.1841 F5.
G0 Z2.4841
Z2.2641
G1 Z2.1341 F5.
G0 Z2.4841
Z2.2141
G1 Z2.0841 F5.
G0 Z2.4841
Z2.1641
G1 Z2.0341 F5.
G0 Z2.4841
Z2.1141
G1 Z1.9841 F5.
G0 Z2.4841
Z2.0641
G1 Z1.9341 F5.
G0 Z2.4841
Z2.0141
G1 Z1.8841 F5.
G0 Z2.4841
Z1.9641
G1 Z1.8341 F5.
G0 Z2.4841
Z1.9141
G1 Z1.7841 F5.
G0 Z2.4841
Z1.8641
G1 Z1.7341 F5.
G0 Z2.4841
Z1.8141
G1 Z1.6841 F5.
G0 Z2.4841
Z1.7641
G1 Z1.6341 F5.
G0 Z2.4841
Z1.7141
G1 Z1.5841 F5.
G0 Z2.4841
Z1.6641
G1 Z1.5341 F5.
G0 Z2.4841
Z1.6141
G1 Z1.4841 F5.
G0 Z2.4841
Z1.5641
G1 Z1.4341 F5.
G0 Z2.4841
Z1.5141
G1 Z1.3841 F5.
G0 Z2.4841
Z1.4641
G1 Z1.3341 F5.
G0 Z2.4841
Z1.4141
G1 Z1.2841 F5.
G0 Z2.4841
Z1.3641
G1 Z1.2341 F5.
G0 Z2.4841
Z1.3141
G1 Z1.1841 F5.
G0 Z2.4841
Z1.2641
G1 Z1.1341 F5.
G0 Z2.4841
Z1.2141
G1 Z1.1193 F5.
G4 P0.05
G0 Z2.5241
X0.4689
Z2.4841
G1 Z2.2341 F5.
G0 Z2.4841
Z2.3141
G1 Z2.1841 F5.
G0 Z2.4841
Z2.2641
G1 Z2.1341 F5.
G0 Z2.4841
Z2.2141
G1 Z2.0841 F5.
G0 Z2.4841
Z2.1641
G1 Z2.0341 F5.
G0 Z2.4841
Z2.1141
G1 Z1.9841 F5.
G0 Z2.4841
Z2.0641
G1 Z1.9341 F5.
G0 Z2.4841
Z2.0141
G1 Z1.8841 F5.
G0 Z2.4841
Z1.9641
G1 Z1.8341 F5.
G0 Z2.4841
Z1.9141
G1 Z1.7841 F5.
G0 Z2.4841
Z1.8641
G1 Z1.7341 F5.
G0 Z2.4841
Z1.8141
G1 Z1.6841 F5.
G0 Z2.4841
Z1.7641
G1 Z1.6341 F5.
G0 Z2.4841
Z1.7141
G1 Z1.5841 F5.
G0 Z2.4841
Z1.6641
G1 Z1.5341 F5.
G0 Z2.4841
Z1.6141
G1 Z1.4841 F5.
G0 Z2.4841
Z1.5641
G1 Z1.4341 F5.
G0 Z2.4841
Z1.5141
G1 Z1.3841 F5.
G0 Z2.4841
Z1.4641
G1 Z1.3341 F5.
G0 Z2.4841
Z1.4141
G1 Z1.2841 F5.
G0 Z2.4841
Z1.3641
G1 Z1.2341 F5.
G0 Z2.4841
Z1.3141
G1 Z1.1841 F5.
G0 Z2.4841
Z1.2641
G1 Z1.1341 F5.
G0 Z2.4841
Z1.2141
G1 Z1.1193 F5.
G4 P0.05
G0 Z2.5241
X0.5861 Y-0.4431
Z2.4841
G1 Z2.2341 F5.
G0 Z2.4841
Z2.3141
G1 Z2.1841 F5.
G0 Z2.4841
Z2.2641
G1 Z2.1341 F5.
G0 Z2.4841
Z2.2141
G1 Z2.0841 F5.
G0 Z2.4841
Z2.1641
G1 Z2.0341 F5.
G0 Z2.4841
Z2.1141
G1 Z1.9841 F5.
G0 Z2.4841
Z2.0641
G1 Z1.9341 F5.
G0 Z2.4841
Z2.0141
G1 Z1.8841 F5.
G0 Z2.4841
Z1.9641
G1 Z1.8341 F5.
G0 Z2.4841
Z1.9141
G1 Z1.7841 F5.
G0 Z2.4841
Z1.8641
G1 Z1.7341 F5.
G0 Z2.4841
Z1.8141
G1 Z1.6841 F5.
G0 Z2.4841
Z1.7641
G1 Z1.6341 F5.
G0 Z2.4841
Z1.7141
G1 Z1.5841 F5.
G0 Z2.4841
Z1.6641
G1 Z1.5341 F5.
G0 Z2.4841
Z1.6141
G1 Z1.4841 F5.
G0 Z2.4841
Z1.5641
G1 Z1.4341 F5.
G0 Z2.4841
Z1.5141
G1 Z1.3841 F5.
G0 Z2.4841
Z1.4641
G1 Z1.3341 F5.
G0 Z2.4841
Z1.4141
G1 Z1.2841 F5.
G0 Z2.4841
Z1.3641
G1 Z1.2341 F5.
G0 Z2.4841
Z1.3141
G1 Z1.1841 F5.
G0 Z2.4841
Z1.2641
G1 Z1.1341 F5.
G0 Z2.4841
Z1.2141
G1 Z1.1193 F5.
G4 P0.05
G0 Z2.5241
Z2.9241
M5
G53 G0 Z0.
(2D CHAMFER1)
M9
M1
T12 M6
T36
S7500 M3
G17 G90 G94
G54
G64 P0.0004 Q0.0004
M8
G0 X0.3868 Y-0.1635
G43 Z2.9241 H12
G0 Z2.5241
G1 Z2.4041 F80.
Z2.2341
G3 X0.3631 Y-0.1933 I-0.0119 J-0.0149 F40.
X0.3868 Y-0.1635 I0.0119 J0.0149
G0 Z2.5241
X0.3923 Y-0.0404
G1 Z2.4041 F80.
Z2.2341
G2 X0.5468 Y-0.7056 I-0.0173 J-0.3545 F40.
X0.5274 Y-0.7106 I-0.0194 J0.035
G1 X0.2225
G2 X0.2031 Y-0.7056 I0. J0.04
X0.3923 Y-0.0404 I0.1718 J0.3106
G0 Z2.5241
X0.5592 Y-0.2481
G1 Z2.4041 F80.
Z2.2341
G3 X0.5294 Y-0.2718 I-0.0149 J-0.0119 F40.
X0.5592 Y-0.2481 I0.0149 J0.0119
G0 Z2.5241
X0.601 Y-0.4313
G1 Z2.4041 F80.
Z2.2341
G3 X0.5712 Y-0.455 I-0.0149 J-0.0119 F40.
X0.601 Y-0.4313 I0.0149 J0.0119
G0 Z2.5241
X0.4732 Y-0.5715
G1 Z2.4041 F80.
Z2.2341
G3 X0.4647 Y-0.6086 I-0.0042 J-0.0186 F40.
X0.4732 Y-0.5715 I0.0042 J0.0186
G0 Z2.5241
X0.3001 Y-0.5901
G1 Z2.4041 F80.
Z2.2341
G3 X0.262 I-0.0191 J0. F40.
X0.3001 I0.0191 J0.
G0 Z2.5241
X0.1829 Y-0.4431
G1 Z2.4041 F80.
Z2.2341
G3 X0.1448 I-0.0191 J0. F40.
X0.1829 I0.0191 J0.
G0 Z2.5241
X0.2247 Y-0.26
G1 Z2.4041 F80.
Z2.2341
G3 X0.1866 I-0.0191 J0. F40.
X0.2247 I0.0191 J0.
G0 Z2.9241
(2D CONTOUR3)
G0 X0.3914 Y-0.409
Z2.9241
Z2.5241
G1 Z2.3635 F80.
Z2.2081
G18 G2 X0.4054 Z2.1941 I0.014 K0. F40.
G1 X0.4194
G17 G3 X0.4334 Y-0.395 I0. J0.014
X0.3165 I-0.0584 J0.
X0.4334 I0.0584 J0.
X0.3165 I-0.0584 J0.
X0.4334 I0.0584 J0.
X0.4194 Y-0.381 I-0.014 J0.
G1 X0.4054
G18 G3 X0.3914 Z2.2081 I0. K0.014
G0 Z2.9241
G17
M5
M9
G53 G0 Z0.
M30
%
