%
(16 MM SPREADER OP2)
(T12 D=0.2362 CR=0. TAPER=45DEG - ZMIN=2.1641 - CHAMFER MILL)
(T36 D=0.375 CR=0. - ZMIN=1.2 - FLAT END MILL)
(T51 D=0.201 CR=0. TAPER=118DEG - ZMIN=1.0396 - DRILL)
(T101 D=0.1 CR=0. TAPER=135DEG - ZMIN=1.0793 - DRILL)
G90 G94 G17 G91.1
G20
G53 G0 Z0.
(ADAPTIVE1 2)
T36 M6
T51
S5000 M3
G17 G90 G94
G54
G64 P0.004 Q0.004
M8
G0 X-0.4908 Y0.0354
G43 Z2.8841 H36
G0 Z1.6441
G1 Z1.6066 F50.
X-0.4905 Z1.6021
X-0.4897 Y0.0352 Z1.5976
X-0.4884 Y0.0348 Z1.5933
X-0.4866 Y0.0344 Z1.5892
X-0.4843 Y0.0338 Z1.5853
X-0.4816 Y0.0331 Z1.5817
X-0.4785 Y0.0323 Z1.5785
X-0.4751 Y0.0314 Z1.5757
X-0.4713 Y0.0304 Z1.5734
X-0.4673 Y0.0294 Z1.5715
X-0.4631 Y0.0283 Z1.5702
X-0.4588 Y0.0272 Z1.5694
X-0.4544 Y0.0261 Z1.5691
G3 X-0.2503 Y-0.0032 I0.2376 J0.9274
G1 X-0.2447
X-0.2413 Y0.0017
X-0.2384 Y0.0069
X-0.2358 Y0.0123
X-0.2183 Y0.0531
X-0.193 Y0.0896
X-0.1611 Y0.1204
X-0.1245 Y0.1456
X-0.0848 Y0.1654
X-0.0431 Y0.1804
X-0.0001 Y0.1916
G2 X0.176 Y0.2116 I0.2079 J-1.0469
X0.4866 Y0.2163 I0.2584 J-6.8124
G1 X0.5753 Y0.2166
X0.6641
X0.7079 Y0.2099
X0.7486 Y0.1921
X0.7843 Y0.1657
X0.8143 Y0.133
X0.8386 Y0.0959
X0.8577 Y0.0559
X0.8722 Y0.0139
X0.8828 Y-0.0291
G2 X0.9018 Y-0.2054 I-1.0985 J-0.2072
X0.9062 Y-0.5604 I-8.3003 J-0.2805
G1 X0.901 Y-0.6044
X0.8841 Y-0.6454
X0.8584 Y-0.6816
X0.8263 Y-0.7122
X0.7896 Y-0.7371
X0.7497 Y-0.7567
X0.7079 Y-0.7716
X0.6649 Y-0.7826
G2 X0.4887 Y-0.8022 I-0.2078 J1.0633
X0.1782 Y-0.8068 I-0.2589 J6.9396
G1 X0.0894 Y-0.8072
X0.0451
X0.0012 Y-0.8003
X-0.0393 Y-0.7823
X-0.0749 Y-0.7558
X-0.1048 Y-0.723
X-0.1291 Y-0.6858
X-0.1481 Y-0.6457
X-0.1625 Y-0.6038
X-0.1731 Y-0.5607
G2 X-0.1919 Y-0.3844 I1.105 J0.2071
X-0.1961 Y-0.1626 I5.3391 J0.2117
G1 X-0.1946 Y-0.1182
X-0.1859 Y-0.0747
X-0.1694 Y-0.0335
X-0.1459 Y0.0041
X-0.1165 Y0.0374
X-0.0825 Y0.0659
G2 X-0.0257 Y0.1003 I0.4456 J-0.671
G1 X-0.0178 Y0.1064
X-0.0047 Y0.1168
X0.0065 Y0.1255
X0.0513 Y0.1572
G2 X0.1747 Y0.1923 I0.1143 J-0.1671
G1 X0.186 Y0.1925
X0.444
G2 X0.5132 Y0.1869 I0.0112 J-0.2938
G1 X0.519 Y0.1854
X0.5628 Y0.1783
X0.6064 Y0.1703
X0.648 Y0.1548
X0.6863 Y0.1324
X0.7203 Y0.104
X0.7497 Y0.0707
X0.7744 Y0.0338
X0.7945 Y-0.0057
X0.8106 Y-0.0471
X0.823 Y-0.0897
G2 X0.8481 Y-0.2652 I-0.9749 J-0.2289
X0.8547 Y-0.4425 I-3.1515 J-0.2063
G1 X0.8525 Y-0.4868
X0.8419 Y-0.5299
X0.8234 Y-0.5703
X0.798 Y-0.6066
X0.767 Y-0.6384
X0.7317 Y-0.6653
X0.6933 Y-0.6875
X0.6526 Y-0.7053
G2 X0.5267 Y-0.7371 I-0.2189 J0.5997
G1 X0.5189 Y-0.7396
X0.5113 Y-0.7424
G2 X0.4327 Y-0.7686 I-0.4461 J1.2044
G1 X0.4103 Y-0.7735
G2 X0.3094 Y-0.7829 I-0.1463 J1.0307
X0.2179 Y-0.7732 I0.1269 J1.6397
G1 X0.2113 Y-0.772
X0.1777 Y-0.7678
X0.1335 Y-0.7639
X0.0902 Y-0.7541
X0.0494 Y-0.7366
X0.0123 Y-0.7123
X-0.0204 Y-0.6824
X-0.0484 Y-0.6479
X-0.0716 Y-0.61
G3 X-0.0832 Y-0.5896 I-0.0713 J-0.0272
G1 X-0.0863 Y-0.5864
X-0.0897 Y-0.5836
X-0.0934 Y-0.5812
X-0.0974 Y-0.5793
X-0.1016 Y-0.5778
X-0.1059 Y-0.5769
X-0.1103 Y-0.5764
X-0.1281 Y-0.5801 F300.
G3 X-0.1618 Y-0.7343 I0.0141 J-0.0838
G1 X-0.0272 Y-0.8344
X0.0065 Y-0.8528
X0.186 Y-0.8936
G3 X0.2448 Y-0.7877 I0.0167 J0.06
X0.2196 Y-0.7736 I-0.0422 J-0.0458 F50.
G1 X0.2179 Y-0.7731
X0.1972 Y-0.7686
G2 X0.0962 Y-0.7333 I0.2588 J0.9023
X0.0064 Y-0.6785 I0.6918 J1.234
X-0.0604 Y-0.6157 I0.8646 J0.9864
G1 X-0.0833 Y-0.5896
G2 X-0.1255 Y-0.5258 I2.253 J1.5355
G1 X-0.1394 Y-0.5006
G2 X-0.1763 Y-0.4021 I0.9345 J0.4067
X-0.1914 Y-0.3009 I1.0619 J0.2101
G1 X-0.1917 Y-0.2897
X-0.1921 Y-0.2784
G2 X-0.1843 Y-0.1851 I1.8606 J-0.1092
X-0.1516 Y-0.076 I0.9582 J-0.2279
X-0.0934 Y0.0253 I0.7836 J-0.3829
X-0.0272 Y0.0988 I0.8732 J-0.7193
G1 X-0.0178 Y0.1064
G3 X-0.0075 Y0.1206 I-0.0245 J0.0284
G1 X-0.0023 Y0.1327
G2 X0.1291 Y0.2712 I0.27 J-0.1245 F300.
X0.1408 Y0.2751 I0.0175 J-0.0332
G1 X0.3081 Y0.301
G2 X0.3205 Y0.3008 I0.0057 J-0.0371
X0.4896 Y0.2061 I-0.0528 J-0.2926
G1 X0.4962 Y0.1984 F50.
G3 X0.5131 Y0.1869 I0.0288 J0.024
G2 X0.5786 Y0.1572 I-0.0575 J-0.2138
G1 X0.6235 Y0.1255
X0.6347 Y0.1168
X0.6571 Y0.0988
G2 X0.7233 Y0.0253 I-0.7729 J-0.762
X0.7814 Y-0.076 I-0.7003 J-0.4696
X0.8142 Y-0.1851 I-0.8902 J-0.3267
X0.822 Y-0.2784 I-1.76 J-0.1946
X0.8189 Y-0.3234 I-0.3328 J0.0005
G1 X0.8148 Y-0.3676
X0.8087 Y-0.4115
X0.7968 Y-0.4543
X0.7786 Y-0.4947
X0.7543 Y-0.5319
G3 X0.7383 Y-0.552 I0.1173 J-0.1102
X0.746 Y-0.5784 I0.0159 J-0.0097
X0.7716 Y-0.5678 I0.0081 J0.0167 F300.
G1 X0.8546 Y-0.3328
G3 X0.842 Y-0.3087 I-0.0175 J0.0062
X0.8188 Y-0.3234 I-0.0049 J-0.0179 F50.
G2 X0.8063 Y-0.4021 I-1.1661 J0.1451
X0.7694 Y-0.5006 I-1.0563 J0.3392
G1 X0.7554 Y-0.5258
G2 X0.7132 Y-0.5897 I-2.7823 J1.7924
X0.6169 Y-0.6834 I-0.5583 J0.4775
X0.545 Y-0.7269 I-1.2751 J2.0251
G1 X0.5259 Y-0.7503 Z1.5758
X0.4888 Y-0.7962 Z1.5889 F300.
X0.4327 Y-0.8695 Z1.6449
G2 X0.3542 Y-0.9103 Z1.7236 I-0.0798 J0.0576
G1 X0.2196 Y-0.9039 Z1.8712
X0.1523 Y-0.8925 Z1.9505
X0.0423 Y-0.8514 Z2.0796
X-0.016 Y-0.8185 Z2.1426
G2 X-0.0601 Y-0.7394 Z2.2077 I0.0543 J0.0821
G1 X-0.0596 Y-0.6466 Z2.2353
X-0.0594 Y-0.6169 Z2.2441 F50.
G3 X-0.0668 Y-0.577 I-0.1383 J-0.005
G1 X-0.0796 Y-0.5345
X-0.0936 Y-0.4924
X-0.1063 Y-0.4499
X-0.1171 Y-0.4069
X-0.1245 Y-0.3631
X-0.1287 Y-0.319
X-0.1289 Y-0.2746
X-0.1254 Y-0.2303
X-0.1176 Y-0.1867
X-0.1058 Y-0.1439
X-0.0899 Y-0.1025
X-0.07 Y-0.0628
X-0.0464 Y-0.0252
X-0.0191 Y0.0097
X0.012 Y0.0415
X0.0479 Y0.0675
X0.0872 Y0.0881
X0.1286 Y0.1039
X0.1714 Y0.1157
G2 X0.3918 Y0.1373 I0.2081 J-0.9871
G1 X0.4358 Y0.1312
X0.4786 Y0.1198
X0.5197 Y0.1031
X0.5587 Y0.0818
X0.5949 Y0.0562
X0.6281 Y0.0267
X0.6579 Y-0.0061
X0.684 Y-0.0421
X0.7063 Y-0.0804
X0.7243 Y-0.121
X0.7383 Y-0.1631
X0.7476 Y-0.2065
X0.7526 Y-0.2505
X0.7529 Y-0.2949
X0.7489 Y-0.3391
X0.7402 Y-0.3826
X0.7273 Y-0.4251
X0.7101 Y-0.466
X0.6888 Y-0.5049
X0.6639 Y-0.5416
X0.6351 Y-0.5754
X0.6033 Y-0.6064
X0.5684 Y-0.6337
X0.531 Y-0.6576
X0.4912 Y-0.6774
X0.4498 Y-0.6932
X0.4069 Y-0.7046
X0.3631 Y-0.7117
X0.3188 Y-0.7143
X0.2745 Y-0.7124
X0.2306 Y-0.7061
X0.1875 Y-0.6953
X0.1457 Y-0.6804
X0.1074 Y-0.658
X0.0732 Y-0.6297
X0.0431 Y-0.5972
X0.0168 Y-0.5614
X-0.0059 Y-0.5233
X-0.025 Y-0.4832
X-0.0405 Y-0.4416
X-0.0521 Y-0.3988
X-0.0597 Y-0.3551
X-0.0629 Y-0.3108
X-0.0616 Y-0.2665
X-0.0557 Y-0.2225
X-0.045 Y-0.1794
X-0.0296 Y-0.1378
X-0.0088 Y-0.0987
X0.0176 Y-0.063
X0.0489 Y-0.0315
X0.0842 Y-0.0046
X0.1224 Y0.0179
X0.1629 Y0.0362
X0.2048 Y0.0507
X0.2477 Y0.0618
X0.2915 Y0.0692
X0.3358 Y0.0716
X0.3801 Y0.0685
X0.4236 Y0.0599
X0.4656 Y0.0456
X0.5054 Y0.026
X0.5423 Y0.0014
X0.5758 Y-0.0278
X0.6052 Y-0.061
X0.6302 Y-0.0977
X0.6503 Y-0.1373
X0.6652 Y-0.179
X0.6749 Y-0.2223
X0.6792 Y-0.2665
X0.6779 Y-0.3109
X0.6711 Y-0.3547
X0.6591 Y-0.3974
X0.6419 Y-0.4383
X0.6199 Y-0.4769
X0.5934 Y-0.5124
X0.5626 Y-0.5445
X0.5283 Y-0.5725
X0.4907 Y-0.5962
X0.4507 Y-0.6152
X0.4085 Y-0.6292
X0.365 Y-0.6379
X0.3208 Y-0.6412
X0.2765 Y-0.6379
X0.2334 Y-0.6274
X0.1925 Y-0.6101
X0.1547 Y-0.587
X0.1205 Y-0.5587
X0.0903 Y-0.5261
X0.0646 Y-0.49
X0.0436 Y-0.4509
X0.0275 Y-0.4096
X0.0167 Y-0.3665
X0.0116 Y-0.3224
X0.0124 Y-0.2781
X0.02 Y-0.2343
X0.0345 Y-0.1924
X0.0556 Y-0.1534
X0.0824 Y-0.118
X0.1139 Y-0.0868
X0.1493 Y-0.0601
X0.1879 Y-0.0381
X0.2291 Y-0.0216
X0.2722 Y-0.0111
X0.3164 Y-0.0072
X0.3607 Y-0.0102
X0.4039 Y-0.0202
X0.445 Y-0.037
X0.4827 Y-0.0604
X0.5162 Y-0.0895
X0.5444 Y-0.1237
X0.5667 Y-0.1621
X0.5809 Y-0.2042
X0.5885 Y-0.2479
X0.589 Y-0.2922
X0.5825 Y-0.3361
X0.5691 Y-0.3784
X0.549 Y-0.418
X0.5229 Y-0.4539
X0.4913 Y-0.485
X0.455 Y-0.5105
X0.4145 Y-0.5287
X0.3712 Y-0.5384
X0.3268 Y-0.5393
X0.2832 Y-0.5313
X0.2419 Y-0.515
X0.2044 Y-0.4913
X0.1721 Y-0.4608
X0.1464 Y-0.4247
X0.129 Y-0.3839
X0.121 Y-0.3402
X0.1227 Y-0.2959
X0.1339 Y-0.2529
X0.1541 Y-0.2134
X0.1827 Y-0.1795
X0.2186 Y-0.1535
G2 X0.3621 Y-0.1654 I0.0604 J-0.1418
G1 X0.3655 Y-0.1668 Z2.2443
X0.3688 Y-0.1682 Z2.245
X0.372 Y-0.1696 Z2.2461
X0.3753 Y-0.17 Z2.2475
X0.3783 Y-0.1704 Z2.2493
X0.3811 Y-0.1707 Z2.2514
X0.384 Y-0.1703 Z2.2543
X0.3866 Y-0.1699 Z2.2576
X0.3886 Y-0.1696 Z2.2611
X0.3902 Y-0.1694 Z2.2649
X0.3913 Y-0.1692 Z2.2689
X0.3918 Y-0.1691 Z2.2729
X0.3919 Z2.275
G0 Z2.4841
X-0.4908 Y0.0354
Z1.275
G1 Z1.2375 F50.
X-0.4905 Z1.233
X-0.4897 Y0.0352 Z1.2285
X-0.4884 Y0.0348 Z1.2242
X-0.4866 Y0.0344 Z1.2201
X-0.4843 Y0.0338 Z1.2162
X-0.4816 Y0.0331 Z1.2126
X-0.4785 Y0.0323 Z1.2094
X-0.4751 Y0.0314 Z1.2066
X-0.4713 Y0.0304 Z1.2043
X-0.4673 Y0.0294 Z1.2024
X-0.4631 Y0.0283 Z1.2011
X-0.4588 Y0.0272 Z1.2003
X-0.4544 Y0.0261 Z1.2
G3 X-0.2503 Y-0.0032 I0.2376 J0.9274
G1 X-0.2447
X-0.2413 Y0.0017
X-0.2384 Y0.0069
X-0.2358 Y0.0123
X-0.2183 Y0.0531
X-0.193 Y0.0896
X-0.1611 Y0.1204
X-0.1245 Y0.1456
X-0.0848 Y0.1654
X-0.0431 Y0.1804
X-0.0001 Y0.1916
G2 X0.176 Y0.2116 I0.2079 J-1.0469
X0.4866 Y0.2163 I0.2584 J-6.8124
G1 X0.5753 Y0.2166
X0.6641
X0.7079 Y0.2099
X0.7486 Y0.1921
X0.7843 Y0.1657
X0.8143 Y0.133
X0.8386 Y0.0959
X0.8577 Y0.0559
X0.8722 Y0.0139
X0.8828 Y-0.0291
G2 X0.9018 Y-0.2054 I-1.0985 J-0.2072
X0.9062 Y-0.5604 I-8.3003 J-0.2805
G1 X0.901 Y-0.6044
X0.8841 Y-0.6454
X0.8584 Y-0.6816
X0.8263 Y-0.7122
X0.7896 Y-0.7371
X0.7497 Y-0.7567
X0.7079 Y-0.7716
X0.6649 Y-0.7826
G2 X0.4887 Y-0.8022 I-0.2078 J1.0633
X0.1782 Y-0.8068 I-0.2589 J6.9396
G1 X0.0894 Y-0.8072
X0.0451
X0.0012 Y-0.8003
X-0.0393 Y-0.7823
X-0.0749 Y-0.7558
X-0.1048 Y-0.723
X-0.1291 Y-0.6858
X-0.1481 Y-0.6457
X-0.1625 Y-0.6038
X-0.1731 Y-0.5607
G2 X-0.1919 Y-0.3844 I1.105 J0.2071
X-0.1961 Y-0.1626 I5.3391 J0.2117
G1 X-0.1946 Y-0.1182
X-0.1859 Y-0.0747
X-0.1694 Y-0.0335
X-0.1459 Y0.0041
X-0.1165 Y0.0374
X-0.0825 Y0.0659
G2 X-0.0257 Y0.1003 I0.4456 J-0.671
G1 X-0.0178 Y0.1064
X-0.0047 Y0.1168
X0.0065 Y0.1255
X0.0513 Y0.1572
G2 X0.1747 Y0.1923 I0.1143 J-0.1671
G1 X0.186 Y0.1925
X0.444
G2 X0.5132 Y0.1869 I0.0112 J-0.2938
G1 X0.519 Y0.1854
X0.5628 Y0.1783
X0.6064 Y0.1703
X0.648 Y0.1548
X0.6863 Y0.1324
X0.7203 Y0.104
X0.7497 Y0.0707
X0.7744 Y0.0338
X0.7945 Y-0.0057
X0.8106 Y-0.0471
X0.823 Y-0.0897
G2 X0.8481 Y-0.2652 I-0.9749 J-0.2289
X0.8547 Y-0.4425 I-3.1515 J-0.2063
G1 X0.8525 Y-0.4868
X0.8419 Y-0.5299
X0.8234 Y-0.5703
X0.798 Y-0.6066
X0.767 Y-0.6384
X0.7317 Y-0.6653
X0.6933 Y-0.6875
X0.6526 Y-0.7053
G2 X0.5267 Y-0.7371 I-0.2189 J0.5997
G1 X0.5189 Y-0.7396
X0.5113 Y-0.7424
G2 X0.4327 Y-0.7686 I-0.4461 J1.2044
G1 X0.4103 Y-0.7735
G2 X0.3094 Y-0.7829 I-0.1463 J1.0307
X0.2179 Y-0.7732 I0.1269 J1.6397
G1 X0.2113 Y-0.772
X0.1777 Y-0.7678
X0.1335 Y-0.7639
X0.0902 Y-0.7541
X0.0494 Y-0.7366
X0.0123 Y-0.7123
X-0.0204 Y-0.6824
X-0.0484 Y-0.6479
X-0.0716 Y-0.61
G3 X-0.0832 Y-0.5896 I-0.0713 J-0.0272
G1 X-0.0863 Y-0.5864
X-0.0897 Y-0.5836
X-0.0934 Y-0.5812
X-0.0974 Y-0.5793
X-0.1016 Y-0.5778
X-0.1059 Y-0.5769
X-0.1103 Y-0.5764
X-0.1281 Y-0.5801 F300.
G3 X-0.1618 Y-0.7343 I0.0141 J-0.0838
G1 X-0.0272 Y-0.8344
X0.0065 Y-0.8528
X0.186 Y-0.8936
G3 X0.2448 Y-0.7877 I0.0167 J0.06
X0.2196 Y-0.7736 I-0.0422 J-0.0458 F50.
G1 X0.2179 Y-0.7731
X0.1972 Y-0.7686
G2 X0.0962 Y-0.7333 I0.2588 J0.9023
X0.0064 Y-0.6785 I0.6918 J1.234
X-0.0604 Y-0.6157 I0.8646 J0.9864
G1 X-0.0833 Y-0.5896
G2 X-0.1255 Y-0.5258 I2.253 J1.5355
G1 X-0.1394 Y-0.5006
G2 X-0.1763 Y-0.4021 I0.9345 J0.4067
X-0.1914 Y-0.3009 I1.0619 J0.2101
G1 X-0.1917 Y-0.2897
X-0.1921 Y-0.2784
G2 X-0.1843 Y-0.1851 I1.8606 J-0.1092
X-0.1516 Y-0.076 I0.9582 J-0.2279
X-0.0934 Y0.0253 I0.7836 J-0.3829
X-0.0272 Y0.0988 I0.8732 J-0.7193
G1 X-0.0178 Y0.1064
G3 X-0.0075 Y0.1206 I-0.0245 J0.0284
G1 X-0.0023 Y0.1327
G2 X0.1291 Y0.2712 I0.27 J-0.1245 F300.
X0.1408 Y0.2751 I0.0175 J-0.0332
G1 X0.3081 Y0.301
G2 X0.3205 Y0.3008 I0.0057 J-0.0371
X0.4896 Y0.2061 I-0.0528 J-0.2926
G1 X0.4962 Y0.1984 F50.
G3 X0.5131 Y0.1869 I0.0288 J0.024
G2 X0.5786 Y0.1572 I-0.0575 J-0.2138
G1 X0.6235 Y0.1255
X0.6347 Y0.1168
X0.6571 Y0.0988
G2 X0.7233 Y0.0253 I-0.7729 J-0.762
X0.7814 Y-0.076 I-0.7003 J-0.4696
X0.8142 Y-0.1851 I-0.8902 J-0.3267
X0.822 Y-0.2784 I-1.76 J-0.1946
X0.8189 Y-0.3234 I-0.3328 J0.0005
G1 X0.8148 Y-0.3676
X0.8087 Y-0.4115
X0.7968 Y-0.4543
X0.7786 Y-0.4947
X0.7543 Y-0.5319
G3 X0.7383 Y-0.552 I0.1173 J-0.1102
X0.746 Y-0.5784 I0.0159 J-0.0097
X0.7716 Y-0.5678 I0.0081 J0.0167 F300.
G1 X0.8546 Y-0.3328
G3 X0.842 Y-0.3087 I-0.0175 J0.0062
X0.8188 Y-0.3234 I-0.0049 J-0.0179 F50.
G2 X0.8063 Y-0.4021 I-1.1661 J0.1451
X0.7694 Y-0.5006 I-1.0563 J0.3392
G1 X0.7554 Y-0.5258
G2 X0.7132 Y-0.5897 I-2.7823 J1.7924
X0.6169 Y-0.6834 I-0.5583 J0.4775
X0.545 Y-0.7269 I-1.2751 J2.0251
G1 X0.5414 Y-0.7295
X0.5381 Y-0.7324
X0.5352 Y-0.7357
X0.5327 Y-0.7393
X0.5306 Y-0.7432
X0.529 Y-0.7474
X0.5279 Y-0.7516
X0.527 Y-0.7561 Z1.2003
X0.5262 Y-0.7604 Z1.2011
X0.5254 Y-0.7647 Z1.2024
X0.5246 Y-0.7687 Z1.2043
X0.5239 Y-0.7726 Z1.2066
X0.5232 Y-0.7761 Z1.2094
X0.5226 Y-0.7792 Z1.2126
X0.5221 Y-0.7819 Z1.2162
X0.5216 Y-0.7842 Z1.2201
X0.5213 Y-0.7861 Z1.2242
X0.521 Y-0.7874 Z1.2285
X0.5209 Y-0.7882 Z1.233
X0.5208 Y-0.7885 Z1.2375
G0 Z2.8841
(2D CONTOUR1 2)
G64 P0.0004 Q0.0004
G0 Z2.9841
X-0.2621 Y-0.3193
Z2.4841
G1 Z2.288 F80.
Z1.2
X-0.2246 Y-0.3189 F50.
G3 X-0.1875 Y-0.281 I-0.0004 J0.0375
G2 X0.0717 Y0.1641 I0.5024 J0.0054
X0.1625 Y0.1875 I0.0908 J-0.1641
G1 X0.4674
G2 X0.5582 Y0.1641 I0. J-0.1875
X0.0717 Y-0.7152 I-0.2433 J-0.4397
Y0.1641 I0.2433 J0.4397
X0.1625 Y0.1875 I0.0908 J-0.1641
G1 X0.4674
G2 X0.5582 Y0.1641 I0. J-0.1875
X0.0717 Y-0.7152 I-0.2433 J-0.4397
X-0.1875 Y-0.281 I0.2433 J0.4397
G3 X-0.2254 Y-0.2439 I-0.0375 J-0.0004
G1 X-0.2629 Y-0.2444
G0 Z2.9841
M5
G53 G0 Z0.
(DRILL1 2)
M9
M1
T51 M6
T101
S5000 M3
G17 G90 G94
G54
M8
G0 X0.315 Y-0.2756
G43 Z2.8841 H51
G0 Z2.4841
Z2.4441
G1 Z2.1441 F25.
G0 Z2.4441
Z2.2241
G1 Z2.0441 F25.
G0 Z2.4441
Z2.1241
G1 Z1.9441 F25.
G0 Z2.4441
Z2.0241
G1 Z1.8441 F25.
G0 Z2.4441
Z1.9241
G1 Z1.7441 F25.
G0 Z2.4441
Z1.8241
G1 Z1.6441 F25.
G0 Z2.4441
Z1.7241
G1 Z1.5441 F25.
G0 Z2.4441
Z1.6241
G1 Z1.4441 F25.
G0 Z2.4441
Z1.5241
G1 Z1.3441 F25.
G0 Z2.4441
Z1.4241
G1 Z1.2441 F25.
G0 Z2.4441
Z1.3241
G1 Z1.1441 F25.
G0 Z2.4441
Z1.2241
G1 Z1.0441 F25.
G0 Z2.4441
Z1.1241
G1 Z1.0396 F25.
G4 P0.05
G0 Z2.4841
Z2.8841
(DRILL2 2)
G0 X0.4843 Y-0.4106
Z2.8841
Z2.4841
G98 G81 X0.4843 Y-0.4106 Z2.2191 R2.4441 F25.
X0.5261 Y-0.2274
X0.4089 Y-0.0805
X0.221
X0.1039 Y-0.2274
X0.1457 Y-0.4106
X0.315 Y-0.4921
G80
G0 Z2.8841
M5
G53 G0 Z0.
(DRILL3 2)
M9
M1
T101 M6
T12
S2500 M3
G17 G90 G94
G54
M8
G0 X0.4843 Y-0.4106
G43 Z2.8841 H101
G0 Z2.4841
Z2.4441
G1 Z2.1941 F5.
G0 Z2.4441
Z2.2741
G1 Z2.1441 F5.
G0 Z2.4441
Z2.2241
G1 Z2.0941 F5.
G0 Z2.4441
Z2.1741
G1 Z2.0441 F5.
G0 Z2.4441
Z2.1241
G1 Z1.9941 F5.
G0 Z2.4441
Z2.0741
G1 Z1.9441 F5.
G0 Z2.4441
Z2.0241
G1 Z1.8941 F5.
G0 Z2.4441
Z1.9741
G1 Z1.8441 F5.
G0 Z2.4441
Z1.9241
G1 Z1.7941 F5.
G0 Z2.4441
Z1.8741
G1 Z1.7441 F5.
G0 Z2.4441
Z1.8241
G1 Z1.6941 F5.
G0 Z2.4441
Z1.7741
G1 Z1.6441 F5.
G0 Z2.4441
Z1.7241
G1 Z1.5941 F5.
G0 Z2.4441
Z1.6741
G1 Z1.5441 F5.
G0 Z2.4441
Z1.6241
G1 Z1.4941 F5.
G0 Z2.4441
Z1.5741
G1 Z1.4441 F5.
G0 Z2.4441
Z1.5241
G1 Z1.3941 F5.
G0 Z2.4441
Z1.4741
G1 Z1.3441 F5.
G0 Z2.4441
Z1.4241
G1 Z1.2941 F5.
G0 Z2.4441
Z1.3741
G1 Z1.2441 F5.
G0 Z2.4441
Z1.3241
G1 Z1.1941 F5.
G0 Z2.4441
Z1.2741
G1 Z1.1441 F5.
G0 Z2.4441
Z1.2241
G1 Z1.0941 F5.
G0 Z2.4441
Z1.1741
G1 Z1.0793 F5.
G4 P0.05
G0 Z2.4841
X0.5261 Y-0.2274
Z2.4441
G1 Z2.1941 F5.
G0 Z2.4441
Z2.2741
G1 Z2.1441 F5.
G0 Z2.4441
Z2.2241
G1 Z2.0941 F5.
G0 Z2.4441
Z2.1741
G1 Z2.0441 F5.
G0 Z2.4441
Z2.1241
G1 Z1.9941 F5.
G0 Z2.4441
Z2.0741
G1 Z1.9441 F5.
G0 Z2.4441
Z2.0241
G1 Z1.8941 F5.
G0 Z2.4441
Z1.9741
G1 Z1.8441 F5.
G0 Z2.4441
Z1.9241
G1 Z1.7941 F5.
G0 Z2.4441
Z1.8741
G1 Z1.7441 F5.
G0 Z2.4441
Z1.8241
G1 Z1.6941 F5.
G0 Z2.4441
Z1.7741
G1 Z1.6441 F5.
G0 Z2.4441
Z1.7241
G1 Z1.5941 F5.
G0 Z2.4441
Z1.6741
G1 Z1.5441 F5.
G0 Z2.4441
Z1.6241
G1 Z1.4941 F5.
G0 Z2.4441
Z1.5741
G1 Z1.4441 F5.
G0 Z2.4441
Z1.5241
G1 Z1.3941 F5.
G0 Z2.4441
Z1.4741
G1 Z1.3441 F5.
G0 Z2.4441
Z1.4241
G1 Z1.2941 F5.
G0 Z2.4441
Z1.3741
G1 Z1.2441 F5.
G0 Z2.4441
Z1.3241
G1 Z1.1941 F5.
G0 Z2.4441
Z1.2741
G1 Z1.1441 F5.
G0 Z2.4441
Z1.2241
G1 Z1.0941 F5.
G0 Z2.4441
Z1.1741
G1 Z1.0793 F5.
G4 P0.05
G0 Z2.4841
X0.4089 Y-0.0805
Z2.4441
G1 Z2.1941 F5.
G0 Z2.4441
Z2.2741
G1 Z2.1441 F5.
G0 Z2.4441
Z2.2241
G1 Z2.0941 F5.
G0 Z2.4441
Z2.1741
G1 Z2.0441 F5.
G0 Z2.4441
Z2.1241
G1 Z1.9941 F5.
G0 Z2.4441
Z2.0741
G1 Z1.9441 F5.
G0 Z2.4441
Z2.0241
G1 Z1.8941 F5.
G0 Z2.4441
Z1.9741
G1 Z1.8441 F5.
G0 Z2.4441
Z1.9241
G1 Z1.7941 F5.
G0 Z2.4441
Z1.8741
G1 Z1.7441 F5.
G0 Z2.4441
Z1.8241
G1 Z1.6941 F5.
G0 Z2.4441
Z1.7741
G1 Z1.6441 F5.
G0 Z2.4441
Z1.7241
G1 Z1.5941 F5.
G0 Z2.4441
Z1.6741
G1 Z1.5441 F5.
G0 Z2.4441
Z1.6241
G1 Z1.4941 F5.
G0 Z2.4441
Z1.5741
G1 Z1.4441 F5.
G0 Z2.4441
Z1.5241
G1 Z1.3941 F5.
G0 Z2.4441
Z1.4741
G1 Z1.3441 F5.
G0 Z2.4441
Z1.4241
G1 Z1.2941 F5.
G0 Z2.4441
Z1.3741
G1 Z1.2441 F5.
G0 Z2.4441
Z1.3241
G1 Z1.1941 F5.
G0 Z2.4441
Z1.2741
G1 Z1.1441 F5.
G0 Z2.4441
Z1.2241
G1 Z1.0941 F5.
G0 Z2.4441
Z1.1741
G1 Z1.0793 F5.
G4 P0.05
G0 Z2.4841
X0.221
Z2.4441
G1 Z2.1941 F5.
G0 Z2.4441
Z2.2741
G1 Z2.1441 F5.
G0 Z2.4441
Z2.2241
G1 Z2.0941 F5.
G0 Z2.4441
Z2.1741
G1 Z2.0441 F5.
G0 Z2.4441
Z2.1241
G1 Z1.9941 F5.
G0 Z2.4441
Z2.0741
G1 Z1.9441 F5.
G0 Z2.4441
Z2.0241
G1 Z1.8941 F5.
G0 Z2.4441
Z1.9741
G1 Z1.8441 F5.
G0 Z2.4441
Z1.9241
G1 Z1.7941 F5.
G0 Z2.4441
Z1.8741
G1 Z1.7441 F5.
G0 Z2.4441
Z1.8241
G1 Z1.6941 F5.
G0 Z2.4441
Z1.7741
G1 Z1.6441 F5.
G0 Z2.4441
Z1.7241
G1 Z1.5941 F5.
G0 Z2.4441
Z1.6741
G1 Z1.5441 F5.
G0 Z2.4441
Z1.6241
G1 Z1.4941 F5.
G0 Z2.4441
Z1.5741
G1 Z1.4441 F5.
G0 Z2.4441
Z1.5241
G1 Z1.3941 F5.
G0 Z2.4441
Z1.4741
G1 Z1.3441 F5.
G0 Z2.4441
Z1.4241
G1 Z1.2941 F5.
G0 Z2.4441
Z1.3741
G1 Z1.2441 F5.
G0 Z2.4441
Z1.3241
G1 Z1.1941 F5.
G0 Z2.4441
Z1.2741
G1 Z1.1441 F5.
G0 Z2.4441
Z1.2241
G1 Z1.0941 F5.
G0 Z2.4441
Z1.1741
G1 Z1.0793 F5.
G4 P0.05
G0 Z2.4841
X0.1039 Y-0.2274
Z2.4441
G1 Z2.1941 F5.
G0 Z2.4441
Z2.2741
G1 Z2.1441 F5.
G0 Z2.4441
Z2.2241
G1 Z2.0941 F5.
G0 Z2.4441
Z2.1741
G1 Z2.0441 F5.
G0 Z2.4441
Z2.1241
G1 Z1.9941 F5.
G0 Z2.4441
Z2.0741
G1 Z1.9441 F5.
G0 Z2.4441
Z2.0241
G1 Z1.8941 F5.
G0 Z2.4441
Z1.9741
G1 Z1.8441 F5.
G0 Z2.4441
Z1.9241
G1 Z1.7941 F5.
G0 Z2.4441
Z1.8741
G1 Z1.7441 F5.
G0 Z2.4441
Z1.8241
G1 Z1.6941 F5.
G0 Z2.4441
Z1.7741
G1 Z1.6441 F5.
G0 Z2.4441
Z1.7241
G1 Z1.5941 F5.
G0 Z2.4441
Z1.6741
G1 Z1.5441 F5.
G0 Z2.4441
Z1.6241
G1 Z1.4941 F5.
G0 Z2.4441
Z1.5741
G1 Z1.4441 F5.
G0 Z2.4441
Z1.5241
G1 Z1.3941 F5.
G0 Z2.4441
Z1.4741
G1 Z1.3441 F5.
G0 Z2.4441
Z1.4241
G1 Z1.2941 F5.
G0 Z2.4441
Z1.3741
G1 Z1.2441 F5.
G0 Z2.4441
Z1.3241
G1 Z1.1941 F5.
G0 Z2.4441
Z1.2741
G1 Z1.1441 F5.
G0 Z2.4441
Z1.2241
G1 Z1.0941 F5.
G0 Z2.4441
Z1.1741
G1 Z1.0793 F5.
G4 P0.05
G0 Z2.4841
X0.1457 Y-0.4106
Z2.4441
G1 Z2.1941 F5.
G0 Z2.4441
Z2.2741
G1 Z2.1441 F5.
G0 Z2.4441
Z2.2241
G1 Z2.0941 F5.
G0 Z2.4441
Z2.1741
G1 Z2.0441 F5.
G0 Z2.4441
Z2.1241
G1 Z1.9941 F5.
G0 Z2.4441
Z2.0741
G1 Z1.9441 F5.
G0 Z2.4441
Z2.0241
G1 Z1.8941 F5.
G0 Z2.4441
Z1.9741
G1 Z1.8441 F5.
G0 Z2.4441
Z1.9241
G1 Z1.7941 F5.
G0 Z2.4441
Z1.8741
G1 Z1.7441 F5.
G0 Z2.4441
Z1.8241
G1 Z1.6941 F5.
G0 Z2.4441
Z1.7741
G1 Z1.6441 F5.
G0 Z2.4441
Z1.7241
G1 Z1.5941 F5.
G0 Z2.4441
Z1.6741
G1 Z1.5441 F5.
G0 Z2.4441
Z1.6241
G1 Z1.4941 F5.
G0 Z2.4441
Z1.5741
G1 Z1.4441 F5.
G0 Z2.4441
Z1.5241
G1 Z1.3941 F5.
G0 Z2.4441
Z1.4741
G1 Z1.3441 F5.
G0 Z2.4441
Z1.4241
G1 Z1.2941 F5.
G0 Z2.4441
Z1.3741
G1 Z1.2441 F5.
G0 Z2.4441
Z1.3241
G1 Z1.1941 F5.
G0 Z2.4441
Z1.2741
G1 Z1.1441 F5.
G0 Z2.4441
Z1.2241
G1 Z1.0941 F5.
G0 Z2.4441
Z1.1741
G1 Z1.0793 F5.
G4 P0.05
G0 Z2.4841
X0.315 Y-0.4921
Z2.4441
G1 Z2.1941 F5.
G0 Z2.4441
Z2.2741
G1 Z2.1441 F5.
G0 Z2.4441
Z2.2241
G1 Z2.0941 F5.
G0 Z2.4441
Z2.1741
G1 Z2.0441 F5.
G0 Z2.4441
Z2.1241
G1 Z1.9941 F5.
G0 Z2.4441
Z2.0741
G1 Z1.9441 F5.
G0 Z2.4441
Z2.0241
G1 Z1.8941 F5.
G0 Z2.4441
Z1.9741
G1 Z1.8441 F5.
G0 Z2.4441
Z1.9241
G1 Z1.7941 F5.
G0 Z2.4441
Z1.8741
G1 Z1.7441 F5.
G0 Z2.4441
Z1.8241
G1 Z1.6941 F5.
G0 Z2.4441
Z1.7741
G1 Z1.6441 F5.
G0 Z2.4441
Z1.7241
G1 Z1.5941 F5.
G0 Z2.4441
Z1.6741
G1 Z1.5441 F5.
G0 Z2.4441
Z1.6241
G1 Z1.4941 F5.
G0 Z2.4441
Z1.5741
G1 Z1.4441 F5.
G0 Z2.4441
Z1.5241
G1 Z1.3941 F5.
G0 Z2.4441
Z1.4741
G1 Z1.3441 F5.
G0 Z2.4441
Z1.4241
G1 Z1.2941 F5.
G0 Z2.4441
Z1.3741
G1 Z1.2441 F5.
G0 Z2.4441
Z1.3241
G1 Z1.1941 F5.
G0 Z2.4441
Z1.2741
G1 Z1.1441 F5.
G0 Z2.4441
Z1.2241
G1 Z1.0941 F5.
G0 Z2.4441
Z1.1741
G1 Z1.0793 F5.
G4 P0.05
G0 Z2.4841
Z2.8841
M5
G53 G0 Z0.
(2D CHAMFER1 2)
M9
M1
T12 M6
T36
S7500 M3
G17 G90 G94
G54
G64 P0.0004 Q0.0004
M8
G0 X0.334 Y-0.4921
G43 Z2.8841 H12
G0 Z2.4841
G1 Z2.3641 F80.
Z2.1941
G3 X0.2959 I-0.0191 J0. F40.
X0.334 I0.0191 J0.
G0 Z2.4841
X0.315 Y-0.6306
G1 Z2.3641 F80.
Z2.1941
G2 X0.1431 Y0.035 I0. J0.355 F40.
X0.1625 Y0.04 I0.0194 J-0.035
G1 X0.4674
G2 X0.4868 Y0.035 I0. J-0.04
X0.315 Y-0.6306 I-0.1718 J-0.3106
G0 Z2.4841
X0.5033 Y-0.4106
G1 Z2.3641 F80.
Z2.1941
G3 X0.4652 I-0.0191 J0. F40.
X0.5033 I0.0191 J0.
G0 Z2.4841
X0.5446 Y-0.2232
G1 Z2.3641 F80.
Z2.1941
G3 X0.5075 Y-0.2316 I-0.0186 J-0.0042 F40.
X0.5446 Y-0.2232 I0.0186 J0.0042
G0 Z2.4841
X0.4261 Y-0.0722
G1 Z2.3641 F80.
Z2.1941
G3 X0.3917 Y-0.0888 I-0.0172 J-0.0083 F40.
X0.4261 Y-0.0722 I0.0172 J0.0083
G0 Z2.4841
X0.2382
G1 Z2.3641 F80.
Z2.1941
G3 X0.2038 Y-0.0888 I-0.0172 J-0.0083 F40.
X0.2382 Y-0.0722 I0.0172 J0.0083
G0 Z2.4841
X0.1229 Y-0.2274
G1 Z2.3641 F80.
Z2.1941
G3 X0.0848 I-0.0191 J0. F40.
X0.1229 I0.0191 J0.
G0 Z2.4841
X0.1647 Y-0.4106
G1 Z2.3641 F80.
Z2.1941
G3 X0.1266 I-0.0191 J0. F40.
X0.1647 I0.0191 J0.
G0 Z2.8841
(2D CONTOUR3 2)
G0 X0.3314 Y-0.2896
Z2.8841
Z2.4841
G1 Z2.3235 F80.
Z2.1781
G18 G2 X0.3454 Z2.1641 I0.014 K0. F40.
G1 X0.3594
G17 G3 X0.3734 Y-0.2756 I0. J0.014
X0.2565 I-0.0584 J0.
X0.3734 I0.0584 J0.
X0.2565 I-0.0584 J0.
X0.3734 I0.0584 J0.
X0.3594 Y-0.2616 I-0.014 J0.
G1 X0.3454
G18 G3 X0.3314 Z2.1781 I0. K0.014
G0 Z2.8841
G17
M5
M9
G53 G0 Z0.
M30
%
