%
(18 MM SPREADER OP1)
(T12 D=0.2362 CR=0. TAPER=45DEG - ZMIN=2.1941 - CHAMFER MILL)
(T36 D=0.375 CR=0. - ZMIN=1.04 - FLAT END MILL)
(T51 D=0.201 CR=0. TAPER=118DEG - ZMIN=1.0796 - DRILL)
(T101 D=0.1 CR=0. TAPER=135DEG - ZMIN=1.1193 - DRILL)
G90 G94 G17 G91.1
G20
G53 G0 Z0.
(ADAPTIVE1)
T36 M6
T51
S5000 M3
G17 G90 G94
G54
G64 P0.004 Q0.004
M8
G0 X-0.0381 Y-1.1772
G43 Z2.9241 H36
G0 Z1.6841
G1 Z1.6466 F50.
X-0.038 Y-1.1769 Z1.6421
X-0.0378 Y-1.1761 Z1.6376
X-0.0375 Y-1.1748 Z1.6333
X-0.037 Y-1.173 Z1.6292
X-0.0365 Y-1.1708 Z1.6253
X-0.0358 Y-1.1681 Z1.6217
X-0.035 Y-1.165 Z1.6185
X-0.0341 Y-1.1615 Z1.6157
X-0.0331 Y-1.1577 Z1.6134
X-0.0321 Y-1.1537 Z1.6115
X-0.031 Y-1.1496 Z1.6102
X-0.0299 Y-1.1452 Z1.6094
X-0.0288 Y-1.1409 Z1.6091
G3 X0.0006 Y-0.9367 I-0.9274 J0.2376
G1 Y-0.9312
X-0.032 Y-0.901
X-0.0588 Y-0.8656
X-0.0801 Y-0.8267
X-0.0965 Y-0.7855
X-0.1087 Y-0.7428
X-0.1175 Y-0.6993
X-0.1238 Y-0.6554
X-0.1265 Y-0.6275
X-0.1284 Y-0.6147
X-0.1316 Y-0.6022
X-0.1359 Y-0.5901
G2 X-0.1612 Y-0.2846 I0.5145 J0.1963
G3 X-0.1405 Y-0.0921 I-1.0882 J0.214
G1 X-0.13 Y-0.049
X-0.1092 Y-0.0097
X-0.0807 Y0.0242
X-0.0464 Y0.0525
X-0.0083 Y0.0751
X0.0324 Y0.0927
X0.0748 Y0.1059
X0.1181 Y0.1155
X0.162 Y0.1224
X0.2028 Y0.1268
X0.21 Y0.1278
X0.2171 Y0.1291
X0.2241 Y0.1309
G2 X0.4304 Y0.1492 I0.1498 J-0.518
G3 X0.7407 Y0.1376 I0.2826 J3.4121
G1 X0.7836 Y0.1258
X0.8223 Y0.1042
X0.8558 Y0.0751
X0.8835 Y0.0404
X0.9057 Y0.002
X0.9228 Y-0.039
X0.9356 Y-0.0814
X0.945 Y-0.1248
G2 X0.9613 Y-0.3014 I-1.2606 J-0.2054
X0.965 Y-0.6564 I-9.8413 J-0.2813
G1 X0.955 Y-0.6995
X0.9344 Y-0.7389
X0.906 Y-0.7729
X0.8718 Y-0.8013
X0.8338 Y-0.8241
X0.793 Y-0.8417
X0.7507 Y-0.855
G2 X0.6426 Y-0.8745 I-0.2167 J0.893
G1 X0.6277 Y-0.8792
X0.6134 Y-0.8854
G2 X0.5763 Y-0.8972 I-0.0617 J0.129
G1 X0.5538 Y-0.9009
X0.5314 Y-0.9016
X0.5202 Y-0.9018
X0.2285
X0.2173 Y-0.9016
G2 X0.1387 Y-0.8871 I-0.0046 J0.1962
X-0.1358 Y-0.59 I0.2336 J0.4912
G1 X-0.1372 Y-0.5874
X-0.1388 Y-0.5849
G2 X-0.1518 Y-0.5636 I0.2538 J0.169
X-0.1643 Y-0.5383 I0.2668 J0.1477 F300.
X-0.1673 Y-0.5263 I0.0343 J0.0151
G1 X-0.1816 Y-0.3531
G2 X-0.1805 Y-0.3408 I0.0374 J0.0031
X-0.1722 Y-0.3135 I0.2955 J-0.0751
X-0.163 Y-0.2906 I0.2872 J-0.1024 F50.
G1 X-0.1618 Y-0.2877
X-0.1609 Y-0.2847
G2 X0.2241 Y0.1311 I0.5351 J-0.1094
G1 X0.2269 Y0.132
X0.2296 Y0.1331
G2 X0.2507 Y0.1426 I0.1194 J-0.2372
G1 X0.2525 Y0.1433
X0.2568 Y0.1445 F300.
X0.2613 Y0.1452
X0.3921 Y0.1566
X0.3962 Y0.1567
X0.4004 Y0.1564
X0.403 Y0.156 F50.
G2 X0.4254 Y0.1503 I-0.054 J-0.26
G1 X0.4279 Y0.1496
X0.4304 Y0.1491
G2 X0.5538 Y0.1218 I-0.0549 J-0.5407
G1 X0.5667 Y0.1177
X0.5796 Y0.114
X0.5958 Y0.1101
X0.6393 Y0.1014
X0.6822 Y0.09
X0.7225 Y0.0714
X0.759 Y0.0462
X0.7912 Y0.0157
X0.8187 Y-0.0192
X0.8415 Y-0.0573
X0.8599 Y-0.0976
X0.8744 Y-0.1395
X0.8856 Y-0.1825
G3 X0.8955 Y-0.2299 I0.4183 J0.0624
G2 X0.9195 Y-0.4309 I-0.5162 J-0.1635
G1 X0.9181 Y-0.4752
X0.917 Y-0.5196
X0.9147 Y-0.5639
X0.9042 Y-0.607
X0.8858 Y-0.6474
X0.8606 Y-0.6839
X0.8298 Y-0.7158
X0.8067 Y-0.7337
X0.8002 Y-0.739
X0.7941 Y-0.7447
X0.7884 Y-0.7508
G3 X0.7803 Y-0.7797 I0.029 J-0.0238
X0.8343 Y-0.808 I0.0371 J0.0051 F300.
G1 X0.9353 Y-0.7672
G3 X0.975 Y-0.7345 I-0.03 J0.0768
G1 X1.0138 Y-0.6619
X1.0436 Y-0.4421
G3 X0.9304 Y-0.4023 I-0.0622 J0.004
X0.9195 Y-0.4309 I0.051 J-0.0359 F50.
G2 X0.6135 Y-0.8855 I-0.5442 J0.036
G1 X0.6098 Y-0.8878
X0.6063 Y-0.8906
X0.6032 Y-0.8937
X0.6005 Y-0.8972
X0.5982 Y-0.9009
X0.5964 Y-0.905
X0.5951 Y-0.9092
G3 X0.6436 Y-0.9537 I0.0364 J-0.0091 F300.
G1 X0.767 Y-0.9315
G3 X0.8119 Y-0.9094 I-0.0196 J0.0964
G1 X0.8792 Y-0.8441
X0.9145 Y-0.8019
X0.9656 Y-0.7232
X1.0046 Y-0.6445
X1.0362 Y-0.5374
X1.0461 Y-0.4758
X1.0501 Y-0.3825
X1.0443 Y-0.3072
X1.0277 Y-0.2172
X0.9965 Y-0.0935
X0.9689 Y-0.0244
X0.9327 Y0.0414
X0.8904 Y0.099
X0.8567 Y0.1321
G3 X0.8455 Y0.1425 I-0.0723 J-0.0668
G1 X0.7894 Y0.1822
X0.5987 Y0.238
G3 X0.5294 Y0.1402 I-0.0208 J-0.0587
X0.5426 Y0.1279 I0.0486 J0.039 F50.
G1 X0.5538 Y0.1218
G2 X0.8955 Y-0.2299 I-0.1798 J-0.5164
G1 X0.9016 Y-0.2409 Z1.6092
X0.9167 Y-0.2513 Z1.6098
X0.9241 Y-0.2564 Z1.61 F300.
X0.999 Y-0.2959 Z1.618
G2 X1.0505 Y-0.3859 Z1.6379 I-0.0469 J-0.0865
G1 X1.0436 Y-0.4983 Z1.6706
X1.0232 Y-0.5883 Z1.7045
X0.9997 Y-0.6557 Z1.7346
X0.9465 Y-0.7556 Z1.7877
X0.8904 Y-0.8324 Z1.8364
X0.8208 Y-0.9031 Z1.8896
X0.7446 Y-0.9619 Z1.9426
X0.6545 Y-1.0096 Z1.9988
X0.5987 Y-1.0257 Z2.0303
X0.509 Y-1.0335 Z2.0778
X0.2173 Y-1.0324 Z2.2086
X0.1387 Y-1.0238 Z2.2351
X0.0939 Y-1.0092 Z2.2485
X0.0589 Y-0.9931 Z2.2581
G2 X0.0041 Y-0.9119 Z2.276 I0.0434 J0.0884
G1 X0.0015 Y-0.8245 Z2.282
X0.0006 Y-0.7937 Z2.2841 F50.
Y-0.7877
G3 X-0.0122 Y-0.7482 I-0.2434 J-0.0571
G1 X-0.0293 Y-0.7072
X-0.0474 Y-0.6667
X-0.0645 Y-0.6258
X-0.0796 Y-0.5841
X-0.092 Y-0.5415
X-0.1014 Y-0.4981
X-0.1073 Y-0.4541
X-0.1096 Y-0.4098
X-0.1082 Y-0.3655
X-0.1029 Y-0.3214
X-0.0938 Y-0.278
X-0.0808 Y-0.2355
X-0.064 Y-0.1945
X-0.0436 Y-0.1551
X-0.0197 Y-0.1177
X0.0075 Y-0.0826
X0.0378 Y-0.0502
X0.0709 Y-0.0207
X0.1067 Y0.0056
X0.1447 Y0.0285
X0.1846 Y0.0478
X0.2262 Y0.0634
X0.269 Y0.0751
X0.3127 Y0.0828
X0.3569 Y0.0864
X0.4013 Y0.086
X0.4454 Y0.0815
X0.489 Y0.0729
X0.5315 Y0.0603
X0.5727 Y0.0439
X0.6122 Y0.0237
X0.6497 Y0.
X0.685 Y-0.027
X0.7175 Y-0.0572
X0.7471 Y-0.0903
X0.7735 Y-0.1259
X0.7965 Y-0.1638
X0.816 Y-0.2037
X0.8317 Y-0.2452
X0.8435 Y-0.288
X0.8513 Y-0.3317
X0.8551 Y-0.3759
X0.8547 Y-0.4203
X0.8502 Y-0.4644
X0.8418 Y-0.508
X0.8293 Y-0.5505
X0.813 Y-0.5918
X0.793 Y-0.6314
X0.7694 Y-0.669
X0.7423 Y-0.7042
X0.7122 Y-0.7368
X0.6783 Y-0.7654
X0.6404 Y-0.7885
X0.5999 Y-0.8064
X0.5576 Y-0.82
X0.5143 Y-0.8298
G2 X0.2935 Y-0.848 I-0.215 J1.26
G1 X0.2494 Y-0.8433
X0.2065 Y-0.8319
X0.1665 Y-0.8126
X0.1301 Y-0.7873
X0.0972 Y-0.7575
X0.0678 Y-0.7243
X0.0417 Y-0.6884
X0.0188 Y-0.6504
X-0.0009 Y-0.6106
X-0.0172 Y-0.5694
X-0.0299 Y-0.5268
X-0.0387 Y-0.4833
X-0.0435 Y-0.4392
X-0.044 Y-0.3949
X-0.0403 Y-0.3506
X-0.0322 Y-0.307
X-0.0197 Y-0.2644
X-0.0029 Y-0.2234
X0.0181 Y-0.1843
X0.043 Y-0.1475
X0.0716 Y-0.1136
X0.1036 Y-0.0829
X0.1388 Y-0.0558
X0.1766 Y-0.0326
X0.2167 Y-0.0136
X0.2586 Y0.001
X0.3018 Y0.0112
X0.3458 Y0.0166
X0.3902 Y0.0172
X0.4344 Y0.0131
X0.4778 Y0.0042
X0.5201 Y-0.0093
X0.5607 Y-0.0272
X0.5992 Y-0.0494
X0.635 Y-0.0756
X0.6677 Y-0.1055
X0.6971 Y-0.1388
X0.7227 Y-0.175
X0.7443 Y-0.2138
X0.7616 Y-0.2546
X0.7744 Y-0.2971
X0.7825 Y-0.3408
X0.7859 Y-0.385
X0.7845 Y-0.4294
X0.7784 Y-0.4733
X0.7676 Y-0.5164
X0.7522 Y-0.558
X0.7322 Y-0.5976
X0.7071 Y-0.6342
X0.6771 Y-0.6669
X0.643 Y-0.6953
X0.6057 Y-0.7193
X0.5659 Y-0.739
X0.5244 Y-0.7548
X0.4818 Y-0.7672
X0.4385 Y-0.7766
X0.3946 Y-0.7831
X0.3502 Y-0.7848
X0.3062 Y-0.7797
X0.2634 Y-0.7679
X0.2228 Y-0.7499
X0.1851 Y-0.7266
X0.1507 Y-0.6985
X0.1199 Y-0.6665
X0.0931 Y-0.6312
X0.0705 Y-0.593
X0.0523 Y-0.5525
X0.0389 Y-0.5103
X0.0302 Y-0.4667
X0.0266 Y-0.4225
X0.0283 Y-0.3782
X0.0352 Y-0.3343
X0.0474 Y-0.2917
X0.0646 Y-0.2508
X0.0868 Y-0.2123
X0.1137 Y-0.177
X0.1448 Y-0.1454
X0.1797 Y-0.118
X0.2178 Y-0.0953
X0.2585 Y-0.0777
X0.3012 Y-0.0656
X0.3451 Y-0.0591
X0.3895 Y-0.0583
X0.4336 Y-0.0634
X0.4766 Y-0.0742
X0.5178 Y-0.0906
X0.5566 Y-0.1122
X0.5922 Y-0.1387
X0.6239 Y-0.1697
X0.6513 Y-0.2046
X0.6739 Y-0.2428
X0.6913 Y-0.2837
X0.7031 Y-0.3264
X0.7091 Y-0.3704
X0.7093 Y-0.4148
X0.7032 Y-0.4587
X0.6904 Y-0.5012
X0.6713 Y-0.5412
X0.6462 Y-0.5779
X0.6162 Y-0.6105
X0.5821 Y-0.6389
X0.5448 Y-0.663
X0.5051 Y-0.6827
X0.4631 Y-0.6972
X0.4195 Y-0.7052
X0.3751 Y-0.706
X0.3312 Y-0.6994
X0.2889 Y-0.686
X0.2493 Y-0.666
X0.2133 Y-0.6401
X0.1816 Y-0.6091
X0.1549 Y-0.5736
X0.1338 Y-0.5346
X0.1189 Y-0.4928
X0.1105 Y-0.4492
X0.1088 Y-0.4048
X0.1142 Y-0.3608
X0.1265 Y-0.3182
X0.1455 Y-0.2781
X0.1721 Y-0.2425
X0.204 Y-0.2117
X0.2406 Y-0.1867
X0.281 Y-0.1682
X0.3239 Y-0.1569
X0.3681 Y-0.1533
X0.4123 Y-0.1576
X0.4549 Y-0.1698
X0.4947 Y-0.1895
X0.5302 Y-0.2162
X0.5602 Y-0.2488
X0.5834 Y-0.2867
X0.5983 Y-0.3285
X0.6041 Y-0.3725
X0.6006 Y-0.4167
X0.5885 Y-0.4594
X0.5682 Y-0.4989
X0.5402 Y-0.5333
X0.5051 Y-0.5604
X0.4645 Y-0.5784
X0.4208 Y-0.5859
X0.3766 Y-0.5822
X0.3348 Y-0.5673
G2 X0.274 Y-0.4902 I0.0851 J0.1296
G1 X0.2721 Y-0.4862
X0.2698 Y-0.4825
X0.2671 Y-0.479
X0.2639 Y-0.4759
X0.2605 Y-0.4732
X0.2567 Y-0.4709
X0.2527 Y-0.4691
G3 X0.2022 Y-0.5096 I-0.0134 J-0.035 F300.
G1 X0.2004 Y-0.9369
G2 X0.0062 Y-0.9593 I-0.0984 J0.0001
G1 X0.0006 Y-0.9367
Z1.0709
Z1.04 F50.
Y-0.9312
X-0.032 Y-0.901
X-0.0588 Y-0.8656
X-0.0801 Y-0.8267
X-0.0965 Y-0.7855
X-0.1087 Y-0.7428
X-0.1175 Y-0.6993
X-0.1238 Y-0.6554
X-0.1265 Y-0.6275
X-0.1284 Y-0.6147
X-0.1316 Y-0.6022
X-0.1359 Y-0.5901
G2 X-0.1612 Y-0.2846 I0.5145 J0.1963
G3 X-0.1405 Y-0.0921 I-1.0882 J0.214
G1 X-0.13 Y-0.049
X-0.1092 Y-0.0097
X-0.0807 Y0.0242
X-0.0464 Y0.0525
X-0.0083 Y0.0751
X0.0324 Y0.0927
X0.0748 Y0.1059
X0.1181 Y0.1155
X0.162 Y0.1224
X0.2028 Y0.1268
X0.21 Y0.1278
X0.2171 Y0.1291
X0.2241 Y0.1309
G2 X0.4304 Y0.1492 I0.1498 J-0.518
G3 X0.7407 Y0.1376 I0.2826 J3.4121
G1 X0.7836 Y0.1258
X0.8223 Y0.1042
X0.8558 Y0.0751
X0.8835 Y0.0404
X0.9057 Y0.002
X0.9228 Y-0.039
X0.9356 Y-0.0814
X0.945 Y-0.1248
G2 X0.9613 Y-0.3014 I-1.2606 J-0.2054
X0.965 Y-0.6564 I-9.8413 J-0.2813
G1 X0.955 Y-0.6995
X0.9344 Y-0.7389
X0.906 Y-0.7729
X0.8718 Y-0.8013
X0.8338 Y-0.8241
X0.793 Y-0.8417
X0.7507 Y-0.855
G2 X0.6426 Y-0.8745 I-0.2167 J0.893
G1 X0.6277 Y-0.8792
X0.6134 Y-0.8854
G2 X0.5763 Y-0.8972 I-0.0617 J0.129
G1 X0.5538 Y-0.9009
X0.5314 Y-0.9016
X0.5202 Y-0.9018
X0.2285
X0.2173 Y-0.9016
G2 X0.1387 Y-0.8871 I-0.0046 J0.1962
X-0.1358 Y-0.59 I0.2336 J0.4912
G1 X-0.1372 Y-0.5874
X-0.1388 Y-0.5849
G2 X-0.1518 Y-0.5636 I0.2538 J0.169
X-0.1643 Y-0.5383 I0.2668 J0.1477 F300.
X-0.1673 Y-0.5263 I0.0343 J0.0151
G1 X-0.1816 Y-0.3531
G2 X-0.1805 Y-0.3408 I0.0374 J0.0031
X-0.1722 Y-0.3135 I0.2955 J-0.0751
X-0.163 Y-0.2906 I0.2872 J-0.1024 F50.
G1 X-0.1618 Y-0.2877
X-0.1609 Y-0.2847
G2 X0.2241 Y0.1311 I0.5351 J-0.1094
G1 X0.2269 Y0.132
X0.2296 Y0.1331
G2 X0.2507 Y0.1426 I0.1194 J-0.2372
G1 X0.2525 Y0.1433
X0.2568 Y0.1445 F300.
X0.2613 Y0.1452
X0.3921 Y0.1566
X0.3962 Y0.1567
X0.4004 Y0.1564
X0.403 Y0.156 F50.
G2 X0.4254 Y0.1503 I-0.054 J-0.26
G1 X0.4279 Y0.1496
X0.4304 Y0.1491
G2 X0.5538 Y0.1218 I-0.0549 J-0.5407
G1 X0.5667 Y0.1177
X0.5796 Y0.114
X0.5958 Y0.1101
X0.6393 Y0.1014
X0.6822 Y0.09
X0.7225 Y0.0714
X0.759 Y0.0462
X0.7912 Y0.0157
X0.8187 Y-0.0192
X0.8415 Y-0.0573
X0.8599 Y-0.0976
X0.8744 Y-0.1395
X0.8856 Y-0.1825
G3 X0.8955 Y-0.2299 I0.4183 J0.0624
G2 X0.9195 Y-0.4309 I-0.5162 J-0.1635
G1 X0.9181 Y-0.4752
X0.917 Y-0.5196
X0.9147 Y-0.5639
X0.9042 Y-0.607
X0.8858 Y-0.6474
X0.8606 Y-0.6839
X0.8298 Y-0.7158
X0.8067 Y-0.7337
X0.8002 Y-0.739
X0.7941 Y-0.7447
X0.7884 Y-0.7508
G3 X0.7803 Y-0.7797 I0.029 J-0.0238
X0.8343 Y-0.808 I0.0371 J0.0051 F300.
G1 X0.9353 Y-0.7672
G3 X0.975 Y-0.7345 I-0.03 J0.0768
G1 X1.0138 Y-0.6619
X1.0436 Y-0.4421
G3 X0.9304 Y-0.4023 I-0.0622 J0.004
X0.9195 Y-0.4309 I0.051 J-0.0359 F50.
G2 X0.6135 Y-0.8855 I-0.5442 J0.036
G1 X0.6098 Y-0.8878
X0.6063 Y-0.8906
X0.6032 Y-0.8937
X0.6005 Y-0.8972
X0.5982 Y-0.9009
X0.5964 Y-0.905
X0.5951 Y-0.9092
G3 X0.6436 Y-0.9537 I0.0364 J-0.0091 F300.
G1 X0.767 Y-0.9315
G3 X0.8119 Y-0.9094 I-0.0196 J0.0964
G1 X0.8792 Y-0.8441
X0.9145 Y-0.8019
X0.9656 Y-0.7232
X1.0046 Y-0.6445
X1.0362 Y-0.5374
X1.0461 Y-0.4758
X1.0501 Y-0.3825
X1.0443 Y-0.3072
X1.0277 Y-0.2172
X0.9965 Y-0.0935
X0.9689 Y-0.0244
X0.9327 Y0.0414
X0.8904 Y0.099
X0.8567 Y0.1321
G3 X0.8455 Y0.1425 I-0.0723 J-0.0668
G1 X0.7894 Y0.1822
X0.5987 Y0.238
G3 X0.5294 Y0.1402 I-0.0208 J-0.0587
X0.5426 Y0.1279 I0.0486 J0.039 F50.
G1 X0.5538 Y0.1218
G2 X0.8955 Y-0.2299 I-0.1798 J-0.5164
G1 X0.8972 Y-0.234
X0.8993 Y-0.2379
X0.902 Y-0.2414
X0.905 Y-0.2447
X0.9083 Y-0.2475
X0.912 Y-0.25
X0.916 Y-0.252
X0.9201 Y-0.2538 Z1.0403
X0.9242 Y-0.2556 Z1.0411
X0.9281 Y-0.2573 Z1.0424
X0.9319 Y-0.259 Z1.0443
X0.9355 Y-0.2605 Z1.0466
X0.9387 Y-0.2619 Z1.0494
X0.9417 Y-0.2632 Z1.0526
X0.9442 Y-0.2643 Z1.0562
X0.9464 Y-0.2653 Z1.0601
X0.9481 Y-0.266 Z1.0642
X0.9493 Y-0.2666 Z1.0685
X0.9501 Y-0.2669 Z1.073
X0.9503 Y-0.267 Z1.0775
G0 Z2.9241
(2D CONTOUR1)
G64 P0.0004 Q0.0004
G0 X1.0283 Y-0.3506
Z2.9241
Z2.5241
G1 Z2.3635 F80.
Z1.0775
X1.028 Z1.073 F50.
X1.0272 Z1.0685
X1.0258 Z1.0642
X1.024 Z1.0601
X1.0216 Z1.0562
X1.0188 Y-0.3507 Z1.0526
X1.0156 Z1.0494
X1.0121 Z1.0466
X1.0082 Y-0.3508 Z1.0443
X1.0041 Z1.0424
X0.9997 Z1.0411
X0.9953 Y-0.3509 Z1.0403
X0.9908 Z1.04
X0.9533 Y-0.3513
G3 X0.9161 Y-0.3891 I0.0004 J-0.0375
G2 X0.6226 Y-0.876 I-0.5418 J-0.0052
X0.5367 Y-0.8968 I-0.0859 J0.1667
G1 X0.212
G2 X0.1261 Y-0.876 I0. J0.1875
X0.6226 Y0.0873 I0.2482 J0.4816
Y-0.876 I-0.2482 J-0.4816
X0.5367 Y-0.8968 I-0.0859 J0.1667
G1 X0.212
G2 X0.1261 Y-0.876 I0. J0.1875
X0.6226 Y0.0873 I0.2482 J0.4816
X0.9161 Y-0.3891 I-0.2482 J-0.4816
G3 X0.954 Y-0.4263 I0.0375 J0.0004
G1 X0.9915 Y-0.4259
X0.996 Z1.0403
X1.0005 Y-0.4258 Z1.0411
X1.0048 Z1.0424
X1.0089 Z1.0443
X1.0128 Y-0.4257 Z1.0466
X1.0164 Z1.0494
X1.0196 Z1.0526
X1.0224 Y-0.4256 Z1.0562
X1.0247 Z1.0601
X1.0266 Z1.0642
X1.0279 Z1.0685
X1.0287 Z1.073
X1.029 Z1.0775
G0 Z2.9241
M5
G53 G0 Z0.
(DRILL1)
M9
M1
T51 M6
T101
S5000 M3
G17 G90 G94
G54
M8
G0 X0.3743 Y-0.3943
G43 Z2.9241 H51
G0 Z2.5241
Z2.4841
G1 Z2.1841 F25.
G0 Z2.4841
Z2.2641
G1 Z2.0841 F25.
G0 Z2.4841
Z2.1641
G1 Z1.9841 F25.
G0 Z2.4841
Z2.0641
G1 Z1.8841 F25.
G0 Z2.4841
Z1.9641
G1 Z1.7841 F25.
G0 Z2.4841
Z1.8641
G1 Z1.6841 F25.
G0 Z2.4841
Z1.7641
G1 Z1.5841 F25.
G0 Z2.4841
Z1.6641
G1 Z1.4841 F25.
G0 Z2.4841
Z1.5641
G1 Z1.3841 F25.
G0 Z2.4841
Z1.4641
G1 Z1.2841 F25.
G0 Z2.4841
Z1.3641
G1 Z1.1841 F25.
G0 Z2.4841
Z1.2641
G1 Z1.0841 F25.
G0 Z2.4841
Z1.1641
G1 Z1.0796 F25.
G4 P0.05
G0 Z2.5241
Z2.9241
(DRILL2)
G0 X0.1896 Y-0.247
Z2.9241
Z2.5241
G98 G81 X0.1896 Y-0.247 Z2.2591 R2.4841 F25.
X0.144 Y-0.4469
X0.2718 Y-0.6072
X0.4768
X0.6046 Y-0.4469
X0.559 Y-0.247
X0.3743 Y-0.1581
G80
G0 Z2.9241
M5
G53 G0 Z0.
(DRILL3)
M9
M1
T101 M6
T12
S2500 M3
G17 G90 G94
G54
M8
G0 X0.1896 Y-0.247
G43 Z2.9241 H101
G0 Z2.5241
Z2.4841
G1 Z2.2341 F5.
G0 Z2.4841
Z2.3141
G1 Z2.1841 F5.
G0 Z2.4841
Z2.2641
G1 Z2.1341 F5.
G0 Z2.4841
Z2.2141
G1 Z2.0841 F5.
G0 Z2.4841
Z2.1641
G1 Z2.0341 F5.
G0 Z2.4841
Z2.1141
G1 Z1.9841 F5.
G0 Z2.4841
Z2.0641
G1 Z1.9341 F5.
G0 Z2.4841
Z2.0141
G1 Z1.8841 F5.
G0 Z2.4841
Z1.9641
G1 Z1.8341 F5.
G0 Z2.4841
Z1.9141
G1 Z1.7841 F5.
G0 Z2.4841
Z1.8641
G1 Z1.7341 F5.
G0 Z2.4841
Z1.8141
G1 Z1.6841 F5.
G0 Z2.4841
Z1.7641
G1 Z1.6341 F5.
G0 Z2.4841
Z1.7141
G1 Z1.5841 F5.
G0 Z2.4841
Z1.6641
G1 Z1.5341 F5.
G0 Z2.4841
Z1.6141
G1 Z1.4841 F5.
G0 Z2.4841
Z1.5641
G1 Z1.4341 F5.
G0 Z2.4841
Z1.5141
G1 Z1.3841 F5.
G0 Z2.4841
Z1.4641
G1 Z1.3341 F5.
G0 Z2.4841
Z1.4141
G1 Z1.2841 F5.
G0 Z2.4841
Z1.3641
G1 Z1.2341 F5.
G0 Z2.4841
Z1.3141
G1 Z1.1841 F5.
G0 Z2.4841
Z1.2641
G1 Z1.1341 F5.
G0 Z2.4841
Z1.2141
G1 Z1.1193 F5.
G4 P0.05
G0 Z2.5241
X0.144 Y-0.4469
Z2.4841
G1 Z2.2341 F5.
G0 Z2.4841
Z2.3141
G1 Z2.1841 F5.
G0 Z2.4841
Z2.2641
G1 Z2.1341 F5.
G0 Z2.4841
Z2.2141
G1 Z2.0841 F5.
G0 Z2.4841
Z2.1641
G1 Z2.0341 F5.
G0 Z2.4841
Z2.1141
G1 Z1.9841 F5.
G0 Z2.4841
Z2.0641
G1 Z1.9341 F5.
G0 Z2.4841
Z2.0141
G1 Z1.8841 F5.
G0 Z2.4841
Z1.9641
G1 Z1.8341 F5.
G0 Z2.4841
Z1.9141
G1 Z1.7841 F5.
G0 Z2.4841
Z1.8641
G1 Z1.7341 F5.
G0 Z2.4841
Z1.8141
G1 Z1.6841 F5.
G0 Z2.4841
Z1.7641
G1 Z1.6341 F5.
G0 Z2.4841
Z1.7141
G1 Z1.5841 F5.
G0 Z2.4841
Z1.6641
G1 Z1.5341 F5.
G0 Z2.4841
Z1.6141
G1 Z1.4841 F5.
G0 Z2.4841
Z1.5641
G1 Z1.4341 F5.
G0 Z2.4841
Z1.5141
G1 Z1.3841 F5.
G0 Z2.4841
Z1.4641
G1 Z1.3341 F5.
G0 Z2.4841
Z1.4141
G1 Z1.2841 F5.
G0 Z2.4841
Z1.3641
G1 Z1.2341 F5.
G0 Z2.4841
Z1.3141
G1 Z1.1841 F5.
G0 Z2.4841
Z1.2641
G1 Z1.1341 F5.
G0 Z2.4841
Z1.2141
G1 Z1.1193 F5.
G4 P0.05
G0 Z2.5241
X0.2718 Y-0.6072
Z2.4841
G1 Z2.2341 F5.
G0 Z2.4841
Z2.3141
G1 Z2.1841 F5.
G0 Z2.4841
Z2.2641
G1 Z2.1341 F5.
G0 Z2.4841
Z2.2141
G1 Z2.0841 F5.
G0 Z2.4841
Z2.1641
G1 Z2.0341 F5.
G0 Z2.4841
Z2.1141
G1 Z1.9841 F5.
G0 Z2.4841
Z2.0641
G1 Z1.9341 F5.
G0 Z2.4841
Z2.0141
G1 Z1.8841 F5.
G0 Z2.4841
Z1.9641
G1 Z1.8341 F5.
G0 Z2.4841
Z1.9141
G1 Z1.7841 F5.
G0 Z2.4841
Z1.8641
G1 Z1.7341 F5.
G0 Z2.4841
Z1.8141
G1 Z1.6841 F5.
G0 Z2.4841
Z1.7641
G1 Z1.6341 F5.
G0 Z2.4841
Z1.7141
G1 Z1.5841 F5.
G0 Z2.4841
Z1.6641
G1 Z1.5341 F5.
G0 Z2.4841
Z1.6141
G1 Z1.4841 F5.
G0 Z2.4841
Z1.5641
G1 Z1.4341 F5.
G0 Z2.4841
Z1.5141
G1 Z1.3841 F5.
G0 Z2.4841
Z1.4641
G1 Z1.3341 F5.
G0 Z2.4841
Z1.4141
G1 Z1.2841 F5.
G0 Z2.4841
Z1.3641
G1 Z1.2341 F5.
G0 Z2.4841
Z1.3141
G1 Z1.1841 F5.
G0 Z2.4841
Z1.2641
G1 Z1.1341 F5.
G0 Z2.4841
Z1.2141
G1 Z1.1193 F5.
G4 P0.05
G0 Z2.5241
X0.4768
Z2.4841
G1 Z2.2341 F5.
G0 Z2.4841
Z2.3141
G1 Z2.1841 F5.
G0 Z2.4841
Z2.2641
G1 Z2.1341 F5.
G0 Z2.4841
Z2.2141
G1 Z2.0841 F5.
G0 Z2.4841
Z2.1641
G1 Z2.0341 F5.
G0 Z2.4841
Z2.1141
G1 Z1.9841 F5.
G0 Z2.4841
Z2.0641
G1 Z1.9341 F5.
G0 Z2.4841
Z2.0141
G1 Z1.8841 F5.
G0 Z2.4841
Z1.9641
G1 Z1.8341 F5.
G0 Z2.4841
Z1.9141
G1 Z1.7841 F5.
G0 Z2.4841
Z1.8641
G1 Z1.7341 F5.
G0 Z2.4841
Z1.8141
G1 Z1.6841 F5.
G0 Z2.4841
Z1.7641
G1 Z1.6341 F5.
G0 Z2.4841
Z1.7141
G1 Z1.5841 F5.
G0 Z2.4841
Z1.6641
G1 Z1.5341 F5.
G0 Z2.4841
Z1.6141
G1 Z1.4841 F5.
G0 Z2.4841
Z1.5641
G1 Z1.4341 F5.
G0 Z2.4841
Z1.5141
G1 Z1.3841 F5.
G0 Z2.4841
Z1.4641
G1 Z1.3341 F5.
G0 Z2.4841
Z1.4141
G1 Z1.2841 F5.
G0 Z2.4841
Z1.3641
G1 Z1.2341 F5.
G0 Z2.4841
Z1.3141
G1 Z1.1841 F5.
G0 Z2.4841
Z1.2641
G1 Z1.1341 F5.
G0 Z2.4841
Z1.2141
G1 Z1.1193 F5.
G4 P0.05
G0 Z2.5241
X0.6046 Y-0.4469
Z2.4841
G1 Z2.2341 F5.
G0 Z2.4841
Z2.3141
G1 Z2.1841 F5.
G0 Z2.4841
Z2.2641
G1 Z2.1341 F5.
G0 Z2.4841
Z2.2141
G1 Z2.0841 F5.
G0 Z2.4841
Z2.1641
G1 Z2.0341 F5.
G0 Z2.4841
Z2.1141
G1 Z1.9841 F5.
G0 Z2.4841
Z2.0641
G1 Z1.9341 F5.
G0 Z2.4841
Z2.0141
G1 Z1.8841 F5.
G0 Z2.4841
Z1.9641
G1 Z1.8341 F5.
G0 Z2.4841
Z1.9141
G1 Z1.7841 F5.
G0 Z2.4841
Z1.8641
G1 Z1.7341 F5.
G0 Z2.4841
Z1.8141
G1 Z1.6841 F5.
G0 Z2.4841
Z1.7641
G1 Z1.6341 F5.
G0 Z2.4841
Z1.7141
G1 Z1.5841 F5.
G0 Z2.4841
Z1.6641
G1 Z1.5341 F5.
G0 Z2.4841
Z1.6141
G1 Z1.4841 F5.
G0 Z2.4841
Z1.5641
G1 Z1.4341 F5.
G0 Z2.4841
Z1.5141
G1 Z1.3841 F5.
G0 Z2.4841
Z1.4641
G1 Z1.3341 F5.
G0 Z2.4841
Z1.4141
G1 Z1.2841 F5.
G0 Z2.4841
Z1.3641
G1 Z1.2341 F5.
G0 Z2.4841
Z1.3141
G1 Z1.1841 F5.
G0 Z2.4841
Z1.2641
G1 Z1.1341 F5.
G0 Z2.4841
Z1.2141
G1 Z1.1193 F5.
G4 P0.05
G0 Z2.5241
X0.559 Y-0.247
Z2.4841
G1 Z2.2341 F5.
G0 Z2.4841
Z2.3141
G1 Z2.1841 F5.
G0 Z2.4841
Z2.2641
G1 Z2.1341 F5.
G0 Z2.4841
Z2.2141
G1 Z2.0841 F5.
G0 Z2.4841
Z2.1641
G1 Z2.0341 F5.
G0 Z2.4841
Z2.1141
G1 Z1.9841 F5.
G0 Z2.4841
Z2.0641
G1 Z1.9341 F5.
G0 Z2.4841
Z2.0141
G1 Z1.8841 F5.
G0 Z2.4841
Z1.9641
G1 Z1.8341 F5.
G0 Z2.4841
Z1.9141
G1 Z1.7841 F5.
G0 Z2.4841
Z1.8641
G1 Z1.7341 F5.
G0 Z2.4841
Z1.8141
G1 Z1.6841 F5.
G0 Z2.4841
Z1.7641
G1 Z1.6341 F5.
G0 Z2.4841
Z1.7141
G1 Z1.5841 F5.
G0 Z2.4841
Z1.6641
G1 Z1.5341 F5.
G0 Z2.4841
Z1.6141
G1 Z1.4841 F5.
G0 Z2.4841
Z1.5641
G1 Z1.4341 F5.
G0 Z2.4841
Z1.5141
G1 Z1.3841 F5.
G0 Z2.4841
Z1.4641
G1 Z1.3341 F5.
G0 Z2.4841
Z1.4141
G1 Z1.2841 F5.
G0 Z2.4841
Z1.3641
G1 Z1.2341 F5.
G0 Z2.4841
Z1.3141
G1 Z1.1841 F5.
G0 Z2.4841
Z1.2641
G1 Z1.1341 F5.
G0 Z2.4841
Z1.2141
G1 Z1.1193 F5.
G4 P0.05
G0 Z2.5241
X0.3743 Y-0.1581
Z2.4841
G1 Z2.2341 F5.
G0 Z2.4841
Z2.3141
G1 Z2.1841 F5.
G0 Z2.4841
Z2.2641
G1 Z2.1341 F5.
G0 Z2.4841
Z2.2141
G1 Z2.0841 F5.
G0 Z2.4841
Z2.1641
G1 Z2.0341 F5.
G0 Z2.4841
Z2.1141
G1 Z1.9841 F5.
G0 Z2.4841
Z2.0641
G1 Z1.9341 F5.
G0 Z2.4841
Z2.0141
G1 Z1.8841 F5.
G0 Z2.4841
Z1.9641
G1 Z1.8341 F5.
G0 Z2.4841
Z1.9141
G1 Z1.7841 F5.
G0 Z2.4841
Z1.8641
G1 Z1.7341 F5.
G0 Z2.4841
Z1.8141
G1 Z1.6841 F5.
G0 Z2.4841
Z1.7641
G1 Z1.6341 F5.
G0 Z2.4841
Z1.7141
G1 Z1.5841 F5.
G0 Z2.4841
Z1.6641
G1 Z1.5341 F5.
G0 Z2.4841
Z1.6141
G1 Z1.4841 F5.
G0 Z2.4841
Z1.5641
G1 Z1.4341 F5.
G0 Z2.4841
Z1.5141
G1 Z1.3841 F5.
G0 Z2.4841
Z1.4641
G1 Z1.3341 F5.
G0 Z2.4841
Z1.4141
G1 Z1.2841 F5.
G0 Z2.4841
Z1.3641
G1 Z1.2341 F5.
G0 Z2.4841
Z1.3141
G1 Z1.1841 F5.
G0 Z2.4841
Z1.2641
G1 Z1.1341 F5.
G0 Z2.4841
Z1.2141
G1 Z1.1193 F5.
G4 P0.05
G0 Z2.5241
Z2.9241
M5
G53 G0 Z0.
(2D CHAMFER1)
M9
M1
T12 M6
T36
S7500 M3
G17 G90 G94
G54
G64 P0.0004 Q0.0004
M8
G0 X0.4097 Y-0.1424
G43 Z2.9241 H12
G0 Z2.5241
G1 Z2.4041 F80.
Z2.2341
G3 X0.3389 Y-0.1739 I-0.0354 J-0.0158 F40.
X0.4097 Y-0.1424 I0.0354 J0.0158
G0 Z2.5241
X0.3917 Y-0.0004
G1 Z2.4041 F80.
Z2.2341
G2 X0.555 Y-0.7448 I-0.0174 J-0.3939 F40.
X0.5367 Y-0.7493 I-0.0183 J0.0356
G1 X0.212
G2 X0.1937 Y-0.7448 I0. J0.04
X0.3917 Y-0.0004 I0.1807 J0.3505
G0 Z2.5241
X0.5978 Y-0.247
G1 Z2.4041 F80.
Z2.2341
G3 X0.5203 I-0.0387 J0. F40.
X0.5978 I0.0387 J0.
G0 Z2.5241
X0.6424 Y-0.4555
G1 Z2.4041 F80.
Z2.2341
G3 X0.5669 Y-0.4383 I-0.0378 J0.0086 F40.
X0.6424 Y-0.4555 I0.0378 J-0.0086
G0 Z2.5241
X0.5117 Y-0.5903
G1 Z2.4041 F80.
Z2.2341
G3 X0.4419 Y-0.624 I-0.0349 J-0.0168 F40.
X0.5117 Y-0.5903 I0.0349 J0.0168
G0 Z2.5241
X0.3106 Y-0.6083
G1 Z2.4041 F80.
Z2.2341
G3 X0.2331 Y-0.606 I-0.0387 J0.0012 F40.
X0.3106 Y-0.6083 I0.0387 J-0.0012
G0 Z2.5241
X0.175 Y-0.4237
G1 Z2.4041 F80.
Z2.2341
G3 X0.113 Y-0.4701 I-0.031 J-0.0232 F40.
X0.175 Y-0.4237 I0.031 J0.0232
G0 Z2.5241
X0.2284 Y-0.247
G1 Z2.4041 F80.
Z2.2341
G3 X0.1509 I-0.0387 J0. F40.
X0.2284 I0.0387 J0.
G0 Z2.9241
(2D CONTOUR3)
G0 X0.3908 Y-0.4083
Z2.9241
Z2.5241
G1 Z2.3635 F80.
Z2.2081
G18 G2 X0.4048 Z2.1941 I0.014 K0. F40.
G1 X0.4188
G17 G3 X0.4328 Y-0.3943 I0. J0.014
X0.3159 I-0.0584 J0.
X0.4328 I0.0584 J0.
X0.3159 I-0.0584 J0.
X0.4328 I0.0584 J0.
X0.4188 Y-0.3803 I-0.014 J0.
G1 X0.4048
G18 G3 X0.3908 Z2.2081 I0. K0.014
G0 Z2.9241
G17
M5
M9
G53 G0 Z0.
M30
%
