%
(18 MM SPREADER SEAT TUBE CLEARANCE)
(T36 D=0.375 CR=0. - ZMIN=0. - FLAT END MILL)
G90 G94 G17 G91.1
G20
G53 G0 Z0.
(ADAPTIVE3)
T36 M6
S5000 M3
G17 G90 G94
G54
G64 P0.004 Q0.004
M8
G0 X0.9969 Y-0.4265
G43 Z1.4476 H36
G0 Z0.075
G1 Z0.0375 F50.
X0.9967 Y-0.4267 Z0.033
X0.9963 Y-0.4274 Z0.0285
X0.9955 Y-0.4285 Z0.0242
X0.9944 Y-0.43 Z0.0201
X0.9931 Y-0.4319 Z0.0162
X0.9914 Y-0.4342 Z0.0126
X0.9896 Y-0.4368 Z0.0094
X0.9875 Y-0.4397 Z0.0066
X0.9853 Y-0.4429 Z0.0043
X0.9829 Y-0.4463 Z0.0024
X0.9804 Y-0.4498 Z0.0011
X0.9779 Y-0.4534 Z0.0003
X0.9753 Y-0.4571 Z0.
G3 X0.8752 Y-0.6375 I0.7823 J-0.5519
G1 X0.8709 Y-0.6487
X0.8696 Y-0.6521
G3 X0.8536 Y-0.7349 I0.3362 J-0.1079
X0.8455 Y-0.9394 I1.9711 J-0.1804
G1 X0.845 Y-0.9837
X0.8448 Y-1.0281
X0.8447 Y-1.1169
X0.8445 Y-1.3387
X0.8443 Y-1.5178
G3 X0.861 Y-1.5815 I0.1299 J-0.0001
X0.8856 Y-1.5988 I0.032 J0.0195
X0.9305 Y-1.5625 I0.0074 J0.0368 F300.
G1 X0.9414 Y-0.6677
G3 X0.8917 Y-0.6318 I-0.0375 J0.0005
X0.8696 Y-0.6521 I0.0121 J-0.0355 F50.
G2 X0.8584 Y-0.6746 I-0.1009 J0.0361
G3 X0.8338 Y-0.7481 I0.2001 J-0.108
X0.8192 Y-0.8767 I0.8164 J-0.1576
X0.8148 Y-1.1429 I6.1611 J-0.2342
G1 X0.8146 Y-1.2316
X0.8144 Y-1.4535
G3 X0.8188 Y-1.5057 I0.2591 J-0.0043
G1 X0.8247 Y-1.5241
X0.8332 Y-1.5415
X0.8442 Y-1.5574
G3 X0.8714 Y-1.5704 I0.0283 J0.0246
X0.9101 Y-1.5336 I0.0012 J0.0375 F300.
G1 X0.927 Y-0.6963
G3 X0.8838 Y-0.6585 I-0.0375 J0.0008
X0.8584 Y-0.6746 I0.0057 J-0.0371 F50.
G1 X0.8535 Y-0.6824
X0.85 Y-0.6874
X0.8439 Y-0.6949
G3 X0.8128 Y-0.766 I0.1564 J-0.111
X0.7937 Y-0.8806 I0.5908 J-0.1571
X0.7856 Y-1.0995 I2.5043 J-0.2025
X0.7849 Y-1.4258 I17.9648 J-0.2016
X0.7923 Y-1.4799 I0.2598 J0.0077
G1 X0.7992 Y-1.4977
X0.8085 Y-1.5143
X0.8202 Y-1.5294
X0.8276 Y-1.5375
X0.8359 Y-1.5471
X0.8442 Y-1.5574
G3 X0.8714 Y-1.5704 I0.0283 J0.0246
X0.9101 Y-1.5329 I0.0012 J0.0375 F300.
G1 X0.9098 Y-0.7194
G3 X0.8711 Y-0.682 I-0.0375 J0.
X0.8439 Y-0.6949 I0.0012 J-0.0375 F50.
G1 X0.8359 Y-0.7049
X0.8276 Y-0.7144
X0.8261 Y-0.7161
G3 X0.7911 Y-0.7834 I0.1394 J-0.1152
X0.7675 Y-0.8985 I0.5161 J-0.1661
X0.7563 Y-1.109 I1.8977 J-0.2064
X0.7553 Y-1.3892 I9.1791 J-0.1705
X0.7624 Y-1.4433 I0.3003 J0.0117
G1 X0.7679 Y-1.4586
X0.7752 Y-1.4732
X0.7842 Y-1.4867
G3 X0.8203 Y-1.5293 I0.3394 J0.2503
G1 X0.8235 Y-1.5323
X0.8271 Y-1.5349
X0.8309 Y-1.5371
X0.835 Y-1.5388
X0.8392 Y-1.54
X0.8436 Y-1.5406
X0.848 Y-1.5408
G3 X0.8847 Y-1.5036 I-0.0008 J0.0375 F300.
G1 X0.8904 Y-0.7426
G3 X0.854 Y-0.7049 I-0.0375 J0.0003
X0.8261 Y-0.7161 I-0.0011 J-0.0375 F50.
G1 X0.8052 Y-0.7393
X0.8002 Y-0.7451
G3 X0.7606 Y-0.8259 I0.1696 J-0.133
X0.7387 Y-0.9345 I0.5502 J-0.1679
X0.7266 Y-1.1443 I1.8507 J-0.2119
X0.7264 Y-1.3643 I4.0804 J-0.1142
G1 X0.7279 Y-1.3786
X0.7313 Y-1.3967
X0.7372 Y-1.414
X0.7455 Y-1.4304
G3 X0.7842 Y-1.4867 I0.4181 J0.2465
X0.811 Y-1.5004 I0.029 J0.0238
X0.8507 Y-1.4637 I0.0023 J0.0374 F300.
G1 X0.8651 Y-0.7714
G3 X0.8278 Y-0.7332 I-0.0375 J0.0008
X0.8002 Y-0.7451 I-0.0002 J-0.0375 F50.
X0.7625 Y-0.7947 I0.4175 J-0.3556
X0.7218 Y-0.9022 I0.2743 J-0.1654
X0.7028 Y-1.0386 I0.8491 J-0.1879
X0.6962 Y-1.3074 I3.2454 J-0.2144
G1 X0.6975 Y-1.3215
X0.7003 Y-1.3353
X0.7046 Y-1.3488
G3 X0.7455 Y-1.4304 I0.4887 J0.1936
X0.7705 Y-1.447 I0.0315 J0.0203
X0.8145 Y-1.4111 I0.0065 J0.0369 F300.
G1 X0.8299 Y-0.8182
G3 X0.7887 Y-0.7799 I-0.0375 J0.001
X0.7625 Y-0.7947 I0.0038 J-0.0373 F50.
X0.7154 Y-0.8782 I0.4687 J-0.3196
X0.682 Y-1.0046 I0.4318 J-0.1816
X0.6675 Y-1.2108 I1.4954 J-0.2089
G1 X0.6682 Y-1.2191
X0.6694 Y-1.2273
G3 X0.687 Y-1.2517 I0.0367 J0.0079
X0.7433 Y-1.2244 I0.0191 J0.0323 F300.
G1 X0.786 Y-0.9003
G3 X0.7388 Y-0.8593 I-0.0372 J0.0049
X0.7155 Y-0.8782 I0.01 J-0.0361 F50.
X0.6782 Y-0.9857 I0.552 J-0.2517
X0.6668 Y-1.0418 I0.2947 J-0.0891
X0.6748 Y-1.2551 I0.5897 J-0.0847
X0.7044 Y-1.3489 I0.8838 J0.228
G1 X0.7064 Y-1.3528 Z0.0005
X0.7088 Y-1.3565 Z0.001
X0.7116 Y-1.3599 Z0.0014
X0.7148 Y-1.3629 Z0.0019
X0.7183 Y-1.3655 Z0.0024
X0.7222 Y-1.3677 Z0.0029
X0.7262 Y-1.3695 Z0.0034
G3 X0.7751 Y-1.345 Z0.0101 I0.013 J0.0352 F300.
G1 X0.9214 Y-0.907 Z0.3127
G3 X0.7687 Y-0.7954 Z0.3732 I-0.0925 J0.0338
X0.7491 Y-0.8157 Z0.38 I0.0602 J-0.0778 F50.
G1 X0.7481 Y-0.8172
G3 X0.6843 Y-0.9632 I0.4516 J-0.284
X0.6667 Y-1.0418 I0.4126 J-0.1338
G1 X0.6665 Y-1.0457
X0.6671 Y-1.0727
X0.6697 Y-1.2031 F300.
X0.6702 Y-1.2295 F50.
X0.6706 Y-1.234
G3 X0.6844 Y-1.2888 I0.3418 J0.0571
X0.7481 Y-1.4348 I0.5105 J0.1357
G1 X0.7603 Y-1.446 Z0.3801
X0.7715 Y-1.4502 Z0.3803
X0.7723 Y-1.4504
X0.7731 Y-1.4505
X0.7738 Y-1.4506
G3 X0.815 Y-1.4236 Z0.382 I0.0051 J0.0372 F300.
G1 X0.9285 Y-0.8921 Z0.4446
G3 X0.7516 Y-0.8136 Z0.4552 I-0.0958 J0.0228
G1 X0.7508 Y-0.8148 F50.
G3 X0.7349 Y-0.8396 I0.7969 J-0.5306
X0.7042 Y-0.9037 I0.3854 J-0.2236
G1 X0.7031 Y-0.9077
X0.7025 Y-0.9119
X0.7023 Y-0.9161
X0.7026 Y-0.9203
X0.7034 Y-0.9244
X0.7046 Y-0.9285
X0.7063 Y-0.9323
X0.7069 Y-0.9336
G2 X0.7432 Y-1.0392 I-0.3883 J-0.1924 F300.
G1 X0.7438 Y-1.043
X0.7439 Y-1.0467
Y-1.2052
X0.7438 Y-1.209
X0.7432 Y-1.2127
G2 X0.7069 Y-1.3183 I-0.4246 J0.0867
G1 X0.7063 Y-1.3197 F50.
G3 X0.7042 Y-1.3483 I0.0335 J-0.0168
X0.7481 Y-1.4348 I0.4599 J0.1789
G1 X0.7603 Y-1.446 Z0.4553
X0.7715 Y-1.4502 Z0.4555
X0.7723 Y-1.4504
X0.7731 Y-1.4505 Z0.4556
X0.7738 Y-1.4506
G3 X0.815 Y-1.4236 Z0.4573 I0.0051 J0.0372 F300.
G1 X0.9415 Y-0.8733 Z0.5284
G3 X0.9437 Y-0.8621 Z0.5297 I-0.0951 J0.0252
X0.9447 Y-0.8508 Z0.531 I-0.0974 J0.014
X0.9444 Y-0.8396 Z0.5322 I-0.0984 J0.0028
X0.9427 Y-0.8284 Z0.5334 I-0.0981 J-0.0085
X0.9397 Y-0.8172 Z0.5345 I-0.0964 J-0.0197
G1 Y-0.8171 Z0.5346
G3 X0.7674 Y-0.7893 Z0.5437 I-0.0934 J-0.031
G1 X0.7666 Y-0.7904 F50.
G3 X0.7496 Y-0.8146 I0.7755 J-0.5614
X0.7073 Y-0.8958 I0.4328 J-0.2774
G1 X0.7062 Y-0.8998
X0.7055 Y-0.904
X0.7053 Y-0.9082
X0.7056 Y-0.9124
X0.7064 Y-0.9165
X0.7076 Y-0.9205
X0.7092 Y-0.9244
X0.7099 Y-0.9257
G2 X0.7475 Y-1.0351 I-0.4021 J-0.1993 F300.
G1 X0.748 Y-1.0389
X0.7482 Y-1.0427
X0.7481 Y-1.2081
X0.7479 Y-1.2118
X0.7473 Y-1.2156
G2 X0.7089 Y-1.3263 I-0.4396 J0.0906
G1 X0.7084 Y-1.3272
G3 X0.7077 Y-1.3572 I0.034 J-0.0159 F50.
X0.7481 Y-1.4348 I0.4695 J0.1953
G1 X0.7507 Y-1.4383 Z0.5439
X0.7538 Y-1.4414 Z0.544
X0.7572 Y-1.4442 Z0.5441
X0.7609 Y-1.4466 Z0.5443
X0.7649 Y-1.4485 Z0.5444
X0.7691 Y-1.4499 Z0.5445
X0.7734 Y-1.4508 Z0.5447
G3 X0.8164 Y-1.4173 Z0.5465 I0.0056 J0.0371 F300.
G1 X0.877 Y-1.0081 Z0.6161
G3 X0.6879 Y-0.9563 Z0.6343 I-0.0969 J0.0174
G1 X0.6874 Y-0.9576 Z0.6344 F50.
G3 X0.6779 Y-0.9856 I0.9019 J-0.3212
X0.6668 Y-1.0418 I0.3429 J-0.0972
G1 X0.6665 Y-1.0457
X0.6671 Y-1.0727
X0.6697 Y-1.2031 F300.
X0.6702 Y-1.2295 F50.
X0.6706 Y-1.234
X0.6724 Y-1.2439
X0.6747 Y-1.2551
X0.6779 Y-1.2664
G3 X0.6978 Y-1.2889 I0.0357 J0.0115
G1 X0.7019 Y-1.2908 Z0.6347
X0.7059 Y-1.2927 Z0.6355
X0.7099 Y-1.2945 Z0.6368
X0.7136 Y-1.2962 Z0.6387
X0.7171 Y-1.2979 Z0.641
X0.7203 Y-1.2994 Z0.6438
X0.7233 Y-1.3007 Z0.647
X0.7258 Y-1.3019 Z0.6506
X0.7279 Y-1.3029 Z0.6545
X0.7296 Y-1.3037 Z0.6586
X0.7308 Y-1.3042 Z0.6629
X0.7316 Y-1.3046 Z0.6674
X0.7318 Y-1.3047 Z0.6719
G0 Z1.4476
(2D CONTOUR7)
G64 P0.0004 Q0.0004
G0 X0.9987 Y-0.6873
Z1.4476
Z1.0476
G1 Z0.887 F80.
Z0.0584
X0.9985 Y-0.6871 Z0.0539 F50.
X0.998 Y-0.6866 Z0.0494
X0.997 Y-0.6856 Z0.0451
X0.9957 Y-0.6843 Z0.041
X0.994 Y-0.6827 Z0.0371
X0.992 Y-0.6807 Z0.0335
X0.9898 Y-0.6784 Z0.0303
X0.9872 Y-0.6759 Z0.0275
X0.9845 Y-0.6732 Z0.0252
X0.9816 Y-0.6703 Z0.0233
X0.9785 Y-0.6672 Z0.022
X0.9753 Y-0.6641 Z0.0212
X0.9721 Y-0.6609 Z0.0209
X0.9455 Y-0.6345
G3 X0.8925 Y-0.6347 I-0.0264 J-0.0266
G1 X0.822 Y-0.7056
X0.8214 Y-0.7063
X0.8211 Y-0.7066
X0.8202 Y-0.7074
X0.8191 Y-0.7086
X0.8173 Y-0.7104
X0.8154 Y-0.7125
X0.8132 Y-0.7148
X0.8108 Y-0.7174
X0.8081 Y-0.7203
X0.8052 Y-0.7234
X0.8021 Y-0.7269
X0.7989 Y-0.7306
X0.7956 Y-0.7343
X0.7877 Y-0.7437
X0.7796 Y-0.7538
X0.7712 Y-0.7646
X0.7626 Y-0.7763
X0.7588 Y-0.7816
X0.7549 Y-0.7873
X0.7457 Y-0.8012
X0.7367 Y-0.8155
X0.7279 Y-0.8306
X0.7194 Y-0.8462
X0.7114 Y-0.8618
X0.7042 Y-0.8771
X0.6974 Y-0.8927
X0.6908 Y-0.9091
X0.6844 Y-0.9262
X0.6785 Y-0.9437
X0.6731 Y-0.9616
X0.6683 Y-0.9796
X0.664 Y-0.9978
X0.6603 Y-1.0161
X0.6572 Y-1.0347
X0.6546 Y-1.0534
X0.6526 Y-1.0721
X0.6512 Y-1.0905
X0.6504 Y-1.1085
X0.6501 Y-1.126
X0.6504 Y-1.1434
X0.6512 Y-1.1615
X0.6526 Y-1.1799
X0.6546 Y-1.1986
X0.6572 Y-1.2173
X0.6603 Y-1.2358
X0.664 Y-1.2542
X0.6683 Y-1.2723
X0.6731 Y-1.2904
X0.6785 Y-1.3082
X0.6844 Y-1.3258
X0.6908 Y-1.3429
X0.6974 Y-1.3593
X0.7042 Y-1.3749
X0.7114 Y-1.3901
X0.7194 Y-1.4058
X0.7279 Y-1.4214
X0.7367 Y-1.4364
X0.7457 Y-1.4508
X0.7549 Y-1.4647
X0.7588 Y-1.4703
X0.7626 Y-1.4757
X0.7712 Y-1.4874
X0.7796 Y-1.4982
X0.7877 Y-1.5082
X0.7956 Y-1.5176
X0.7989 Y-1.5214
X0.8021 Y-1.5251
X0.8052 Y-1.5285
X0.8081 Y-1.5317
X0.8108 Y-1.5346
X0.8132 Y-1.5372
X0.8154 Y-1.5395
X0.8173 Y-1.5415
X0.8191 Y-1.5433
X0.8202 Y-1.5446
X0.8211 Y-1.5454
X0.8214 Y-1.5457
X0.8925 Y-1.6173
G3 X0.9455 Y-1.6175 I0.0266 J0.0264
G1 X0.9721 Y-1.5911
X0.9753 Y-1.5879 Z0.0212
X0.9785 Y-1.5847 Z0.022
X0.9816 Y-1.5817 Z0.0233
X0.9845 Y-1.5788 Z0.0252
X0.9872 Y-1.5761 Z0.0275
X0.9898 Y-1.5735 Z0.0303
X0.992 Y-1.5713 Z0.0335
X0.994 Y-1.5693 Z0.0371
X0.9957 Y-1.5677 Z0.041
X0.997 Y-1.5664 Z0.0451
X0.998 Y-1.5654 Z0.0494
X0.9985 Y-1.5648 Z0.0539
X0.9987 Y-1.5646 Z0.0584
G0 Z1.0476
Y-0.6873
G1 Z0.887 F80.
Z0.0584
X0.9985 Y-0.6871 Z0.0539 F50.
X0.998 Y-0.6866 Z0.0494
X0.997 Y-0.6856 Z0.0451
X0.9957 Y-0.6843 Z0.041
X0.994 Y-0.6827 Z0.0371
X0.992 Y-0.6807 Z0.0335
X0.9898 Y-0.6784 Z0.0303
X0.9872 Y-0.6759 Z0.0275
X0.9845 Y-0.6732 Z0.0252
X0.9816 Y-0.6703 Z0.0233
X0.9785 Y-0.6672 Z0.022
X0.9753 Y-0.6641 Z0.0212
X0.9721 Y-0.6609 Z0.0209
X0.9455 Y-0.6345
G3 X0.8925 Y-0.6347 I-0.0264 J-0.0266
G1 X0.822 Y-0.7056
X0.8214 Y-0.7063
X0.8211 Y-0.7066
X0.8202 Y-0.7074
X0.8191 Y-0.7086
X0.8173 Y-0.7104
X0.8154 Y-0.7125
X0.8132 Y-0.7148
X0.8108 Y-0.7174
X0.8081 Y-0.7203
X0.8052 Y-0.7234
X0.8021 Y-0.7269
X0.7989 Y-0.7306
X0.7956 Y-0.7343
X0.7877 Y-0.7437
X0.7796 Y-0.7538
X0.7712 Y-0.7646
X0.7626 Y-0.7763
X0.7588 Y-0.7816
X0.7549 Y-0.7873
X0.7457 Y-0.8012
X0.7367 Y-0.8155
X0.7279 Y-0.8306
X0.7194 Y-0.8462
X0.7114 Y-0.8618
X0.7042 Y-0.8771
X0.6974 Y-0.8927
X0.6908 Y-0.9091
X0.6844 Y-0.9262
X0.6785 Y-0.9437
X0.6731 Y-0.9616
X0.6683 Y-0.9796
X0.664 Y-0.9978
X0.6603 Y-1.0161
X0.6572 Y-1.0347
X0.6546 Y-1.0534
X0.6526 Y-1.0721
X0.6512 Y-1.0905
X0.6504 Y-1.1085
X0.6501 Y-1.126
X0.6504 Y-1.1434
X0.6512 Y-1.1615
X0.6526 Y-1.1799
X0.6546 Y-1.1986
X0.6572 Y-1.2173
X0.6603 Y-1.2358
X0.664 Y-1.2542
X0.6683 Y-1.2723
X0.6731 Y-1.2904
X0.6785 Y-1.3082
X0.6844 Y-1.3258
X0.6908 Y-1.3429
X0.6974 Y-1.3593
X0.7042 Y-1.3749
X0.7114 Y-1.3901
X0.7194 Y-1.4058
X0.7279 Y-1.4214
X0.7367 Y-1.4364
X0.7457 Y-1.4508
X0.7549 Y-1.4647
X0.7588 Y-1.4703
X0.7626 Y-1.4757
X0.7712 Y-1.4874
X0.7796 Y-1.4982
X0.7877 Y-1.5082
X0.7956 Y-1.5176
X0.7989 Y-1.5214
X0.8021 Y-1.5251
X0.8052 Y-1.5285
X0.8081 Y-1.5317
X0.8108 Y-1.5346
X0.8132 Y-1.5372
X0.8154 Y-1.5395
X0.8173 Y-1.5415
X0.8191 Y-1.5433
X0.8202 Y-1.5446
X0.8211 Y-1.5454
X0.8214 Y-1.5457
X0.8925 Y-1.6173
G3 X0.9455 Y-1.6175 I0.0266 J0.0264
G1 X0.9721 Y-1.5911
X0.9753 Y-1.5879 Z0.0212
X0.9785 Y-1.5847 Z0.022
X0.9816 Y-1.5817 Z0.0233
X0.9845 Y-1.5788 Z0.0252
X0.9872 Y-1.5761 Z0.0275
X0.9898 Y-1.5735 Z0.0303
X0.992 Y-1.5713 Z0.0335
X0.994 Y-1.5693 Z0.0371
X0.9957 Y-1.5677 Z0.041
X0.997 Y-1.5664 Z0.0451
X0.998 Y-1.5654 Z0.0494
X0.9985 Y-1.5648 Z0.0539
X0.9987 Y-1.5646 Z0.0584
G0 Z1.4476
M5
M9
G53 G0 Z0.
M30
%
