%
(18 MM SPREADER 2,332 OP2)
(T12 D=0.2362 CR=0. TAPER=45DEG - ZMIN=2.172 - CHAMFER MILL)
(T36 D=0.375 CR=0. - ZMIN=1.122 - FLAT END MILL)
(T51 D=0.201 CR=0. TAPER=118DEG - ZMIN=1.0396 - DRILL)
G90 G94 G17 G91.1
G20
G53 G0 Z0.
(ADAPTIVE1 2)
T36 M6
T51
S5000 M3
G17 G90 G94
G54
G64 P0.004 Q0.004
M8
G0 X-0.0581 Y-1.1199
G43 Z2.892 H36
G0 Z1.652
G1 Z1.6145 F50.
X-0.058 Y-1.1197 Z1.6099
X-0.0578 Y-1.1189 Z1.6055
X-0.0575 Y-1.1176 Z1.6012
X-0.057 Y-1.1158 Z1.597
X-0.0564 Y-1.1135 Z1.5932
X-0.0558 Y-1.1108 Z1.5896
X-0.055 Y-1.1077 Z1.5864
X-0.0541 Y-1.1042 Z1.5836
X-0.0531 Y-1.1005 Z1.5813
X-0.0521 Y-1.0965 Z1.5794
X-0.051 Y-1.0923 Z1.5781
X-0.0499 Y-1.088 Z1.5772
X-0.0488 Y-1.0836 Z1.577
G3 X-0.0194 Y-0.8794 I-0.9274 J0.2376
G1 Y-0.8739
X-0.052 Y-0.8437
X-0.0788 Y-0.8084
X-0.1001 Y-0.7694
X-0.1165 Y-0.7282
X-0.1287 Y-0.6856
G2 X-0.149 Y-0.5402 I0.8452 J0.192
G1 X-0.1507 Y-0.5265
X-0.1539 Y-0.513
X-0.1587 Y-0.5001
X-0.1668 Y-0.4776
G2 X-0.1888 Y-0.3767 I1.1846 J0.3113
G1 X-0.1902 Y-0.3542
X-0.1906 Y-0.343
Y-0.2869
G2 X-0.1798 Y-0.2084 I0.3159 J-0.0034
G3 X-0.1622 Y-0.0586 I-1.228 J0.2202
G1 X-0.1593 Y-0.0143
X-0.1444 Y0.0275
X-0.1202 Y0.0647
X-0.0891 Y0.0963
X-0.0531 Y0.1223
X-0.0138 Y0.1428
X0.0277 Y0.1585
G2 X0.1433 Y0.1826 I0.1834 J-0.5924
G1 X0.1486 Y0.1839
X0.1538 Y0.1855
G2 X0.2211 Y0.1924 I0.0592 J-0.245
G1 X0.2654 Y0.1947
G2 X0.6648 Y0.1965 I0.3008 J-22.2734
G1 X0.7091 Y0.1954
X0.7514 Y0.1818
X0.7892 Y0.1587
X0.8216 Y0.1284
X0.8483 Y0.0929
X0.8695 Y0.0539
X0.8858 Y0.0126
X0.8979 Y-0.0301
X0.9067 Y-0.0736
G2 X0.9219 Y-0.2503 I-1.344 J-0.2047
X0.9253 Y-0.6052 I-10.6042 J-0.281
G1 X0.9132 Y-0.6478
X0.8909 Y-0.6862
X0.8613 Y-0.7193
X0.8263 Y-0.7466
X0.7877 Y-0.7684
X0.7466 Y-0.7851
X0.704 Y-0.7977
X0.6606 Y-0.8068
G2 X0.484 Y-0.8227 I-0.2053 J1.2933
G1 X0.4396 Y-0.8241
X0.3953 Y-0.825
G2 X0.1734 Y-0.8265 I-0.2132 J15.8708
G1 X0.1294 Y-0.821
X0.0876 Y-0.806
X0.0496 Y-0.7831
X0.0164 Y-0.7537
X-0.0118 Y-0.7194
X-0.0168 Y-0.712
X-0.0225 Y-0.7051
X-0.0289 Y-0.6988
G2 X-0.0683 Y-0.6572 I0.2005 J0.2292
X-0.1234 Y-0.5787 I0.9185 J0.7037
G1 X-0.1288 Y-0.5674
X-0.1538 Y-0.5113
X-0.1587 Y-0.5001
X-0.16 Y-0.4975
X-0.1616 Y-0.495
G2 X-0.1748 Y-0.4737 I0.231 J0.1578
X-0.1855 Y-0.4525 I0.2442 J0.1365 F300.
X-0.1887 Y-0.4398 I0.0342 J0.0154
G1 X-0.2011 Y-0.2742
G2 X-0.1998 Y-0.2612 I0.0374 J0.0028
X-0.1917 Y-0.2369 I0.2692 J-0.076
X-0.1825 Y-0.2156 I0.2612 J-0.1003 F50.
G1 X-0.181 Y-0.2121
X-0.1799 Y-0.2084
X-0.1751 Y-0.1859
G2 X-0.1538 Y-0.1186 I0.2797 J-0.0513
G1 X-0.1288 Y-0.0625
G2 X-0.0927 Y-0.0065 I0.2768 J-0.1384
G1 X-0.0682 Y0.0272
X-0.0593 Y0.0386
G2 X0.0306 Y0.1201 I0.5797 J-0.5487
X0.1124 Y0.1681 I0.5177 J-0.7886
G1 X0.1149 Y0.1697
X0.1172 Y0.1715
X0.121 Y0.1745
X0.125 Y0.1773
G2 X0.1377 Y0.1828 I0.021 J-0.031
G1 X0.139 Y0.1831
X0.1903 Y0.1948 F300.
X0.1905 Y0.1949
G2 X0.2041 Y0.1954 I0.0081 J-0.0366 F50.
G1 X0.2137 Y0.1935
X0.2174 Y0.1928
X0.2211 Y0.1925
X0.4679
G2 X0.5388 Y0.1844 I0.0079 J-0.247
G1 X0.5464 Y0.1815
X0.568 Y0.1749
X0.6108 Y0.1634
X0.653 Y0.1495
X0.6922 Y0.1289
X0.7276 Y0.1021
X0.7585 Y0.0702
X0.7847 Y0.0344
X0.8064 Y-0.0043
X0.8239 Y-0.0451
X0.8375 Y-0.0873
X0.8467 Y-0.1249
X0.8478 Y-0.1293
X0.8492 Y-0.1338
X0.8507 Y-0.1382
X0.8557 Y-0.1523
G2 X0.8778 Y-0.2533 I-1.1846 J-0.3113
G1 X0.8792 Y-0.2757
X0.8796 Y-0.2869
Y-0.343
X0.8792 Y-0.3542
X0.8786 Y-0.3986
X0.8775 Y-0.443
X0.8768 Y-0.4873
X0.8696 Y-0.5311
X0.8543 Y-0.5727
X0.8316 Y-0.6109
X0.8028 Y-0.6446
X0.7692 Y-0.6736
X0.732 Y-0.6978
G3 X0.6899 Y-0.7238 I0.0634 J-0.1492
G2 X0.6475 Y-0.7578 I-0.3369 J0.3779
X0.5577 Y-0.8076 I-0.659 J1.0819
X0.4791 Y-0.8222 I-0.0754 J0.1865
G1 X0.4679 Y-0.8224
X0.2211
G2 X0.1502 Y-0.8144 I-0.0079 J0.247
G1 X0.1314 Y-0.8074
G2 X0.0641 Y-0.7709 I0.3155 J0.6624
G1 X0.0417 Y-0.7576
X0.0304 Y-0.7501
X0.008 Y-0.7316
X-0.0004 Y-0.7245
X-0.0289 Y-0.6988
G3 X-0.0577 Y-0.6904 I-0.0241 J-0.0288
X-0.0851 Y-0.7469 I0.0048 J-0.0372 F300.
G1 X-0.0146 Y-0.8591
G3 X0.0192 Y-0.8949 I0.0862 J0.0474
G1 X0.0865 Y-0.9304
X0.1987 Y-0.952
X0.4903 Y-0.9509
X0.5912 Y-0.9345
X0.6535 Y-0.904
X0.7483 Y-0.8458
X0.8621 Y-0.7657
X0.9277 Y-0.6991
X0.968 Y-0.6347
X0.9939 Y-0.5674
X1.0033 Y-0.3654
G3 X0.9053 Y-0.3093 I-0.0621 J0.0052
G1 Y-0.3094
G3 X0.8895 Y-0.3254 I0.0359 J-0.0509
X0.8792 Y-0.3542 I0.0516 J-0.0348 F50.
G1 X0.8777 Y-0.3767
G2 X0.8559 Y-0.4777 I-1.2845 J0.2251
G1 X0.8477 Y-0.5001
X0.8428 Y-0.5113
X0.8178 Y-0.5674
G2 X0.7817 Y-0.6235 I-0.2768 J0.1384
G1 X0.7572 Y-0.6572
X0.7483 Y-0.6685
X0.737 Y-0.6802
X0.7268 Y-0.6908
X0.69 Y-0.7239
G3 X0.6785 Y-0.7517 I0.026 J-0.027
X0.737 Y-0.7819 I0.0375 J0.0008 F300.
G1 X0.8492 Y-0.729
G3 X0.8843 Y-0.702 I-0.0409 J0.0895
G1 X0.9171 Y-0.6572
X0.9661 Y-0.5562
X0.9871 Y-0.4889
X1.0047 Y-0.3991
X1.0088 Y-0.2869
X1.0058 Y-0.2308
X0.9701 Y-0.0737
X0.9339 Y0.0272
X0.8882 Y0.1128
X0.8491 Y0.1619
X0.8043 Y0.207
X0.7707 Y0.233
X0.5912 Y0.2978
G3 X0.5217 Y0.1996 I-0.0215 J-0.0585
X0.5464 Y0.1815 I0.048 J0.0397 F50.
G1 X0.5576 Y0.1775
G2 X0.6248 Y0.141 I-0.3155 J-0.6624
G1 X0.6473 Y0.1276
X0.6585 Y0.1202
G2 X0.7485 Y0.0386 I-0.5509 J-0.6975
X0.8124 Y-0.0512 I-0.9492 J-0.7434
G1 X0.8178 Y-0.0625
X0.8428 Y-0.1186
X0.8477 Y-0.1298
X0.8507 Y-0.1382
X0.8606 Y-0.1523 Z1.5771
X0.8714 Y-0.1606 Z1.5785
X0.9726 Y-0.2381 Z1.5915 F300.
G2 X1.0093 Y-0.3206 Z1.6116 I-0.0615 J-0.0769
G1 X0.9992 Y-0.4328 Z1.6468
X0.9777 Y-0.5225 Z1.6827
X0.9449 Y-0.6024 Z1.7211
X0.9297 Y-0.6347 Z1.738
X0.9291 Y-0.6361 Z1.7387
X0.9285 Y-0.6374 Z1.7395
X0.9278 Y-0.6387 Z1.7402
X0.8828 Y-0.706 Z1.7809
X0.8332 Y-0.7693 Z1.8235
X0.737 Y-0.8535 Z1.8939
X0.6249 Y-0.9202 Z1.9666
X0.58 Y-0.9366 Z1.9929
X0.5015 Y-0.951 Z2.0357
X0.2099 Y-0.9511 Z2.1704
X0.0977 Y-0.9345 Z2.2087
X0.0344 Y-0.904 Z2.227
G2 X-0.0146 Y-0.8254 Z2.2439 I0.0491 J0.0853
G1 X-0.0182 Y-0.7395 Z2.2498
X-0.0194 Y-0.7087 Z2.252 F50.
Y-0.7027
G3 X-0.032 Y-0.6645 I-0.2577 J-0.0636
G1 X-0.0494 Y-0.6237
X-0.0673 Y-0.5831
X-0.0845 Y-0.5422
X-0.0995 Y-0.5004
X-0.1119 Y-0.4578
X-0.1209 Y-0.4144
X-0.1267 Y-0.3704
X-0.1285 Y-0.326
X-0.1267 Y-0.2817
X-0.1207 Y-0.2377
X-0.1113 Y-0.1944
X-0.0974 Y-0.1522
X-0.08 Y-0.1114
X-0.0587 Y-0.0725
X-0.0339 Y-0.0357
X-0.0058 Y-0.0014
X0.0255 Y0.0301
X0.0598 Y0.0583
X0.0979 Y0.0809
X0.1387 Y0.0985
X0.1811 Y0.1116
X0.2244 Y0.1212
G2 X0.401 Y0.1375 I0.1889 J-1.0876
G1 X0.4451 Y0.1332
X0.4885 Y0.124
X0.5306 Y0.11
X0.571 Y0.0916
X0.6093 Y0.0692
X0.6451 Y0.0429
X0.6782 Y0.0134
X0.708 Y-0.0194
X0.7348 Y-0.0549
X0.7577 Y-0.0929
X0.7771 Y-0.1328
X0.7924 Y-0.1744
X0.8038 Y-0.2173
X0.8111 Y-0.2611
X0.814 Y-0.3053
X0.813 Y-0.3497
X0.8075 Y-0.3937
X0.7983 Y-0.4371
X0.7846 Y-0.4793
X0.7673 Y-0.5202
X0.746 Y-0.5591
X0.7211 Y-0.5959
X0.6929 Y-0.6301
X0.6616 Y-0.6615
X0.6271 Y-0.6894
X0.5887 Y-0.7118
X0.5479 Y-0.7291
X0.5055 Y-0.7421
X0.4621 Y-0.7516
G2 X0.2855 Y-0.7672 I-0.183 J1.0601
G1 X0.2414 Y-0.7626
X0.198 Y-0.7533
X0.1572 Y-0.7359
X0.1197 Y-0.712
X0.086 Y-0.6833
X0.0557 Y-0.6508
X0.0287 Y-0.6156
X0.0049 Y-0.5781
X-0.0156 Y-0.5388
X-0.0327 Y-0.4978
X-0.0462 Y-0.4556
X-0.0559 Y-0.4123
X-0.0615 Y-0.3682
X-0.0628 Y-0.3239
X-0.0597 Y-0.2796
X-0.0521 Y-0.2359
X-0.04 Y-0.1932
X-0.0236 Y-0.152
X-0.0028 Y-0.1128
X0.0226 Y-0.0764
X0.0526 Y-0.0437
X0.0867 Y-0.0153
X0.124 Y0.0088
X0.1637 Y0.0286
X0.2051 Y0.0446
X0.2476 Y0.0572
X0.291 Y0.0664
X0.3351 Y0.0714
X0.3795 Y0.0716
X0.4236 Y0.0668
X0.4668 Y0.0569
X0.5087 Y0.042
X0.5485 Y0.0224
X0.5857 Y-0.0018
X0.6198 Y-0.0301
X0.6505 Y-0.0622
X0.6772 Y-0.0976
X0.6998 Y-0.1358
X0.7179 Y-0.1763
X0.7313 Y-0.2186
X0.7398 Y-0.2622
X0.7434 Y-0.3064
X0.7421 Y-0.3507
X0.7358 Y-0.3947
X0.7247 Y-0.4376
X0.7087 Y-0.479
X0.6882 Y-0.5184
X0.6629 Y-0.5548
X0.6328 Y-0.5874
X0.5987 Y-0.6158
X0.5613 Y-0.6397
X0.5215 Y-0.6594
X0.4801 Y-0.6752
X0.4375 Y-0.6876
X0.394 Y-0.6966
X0.3499 Y-0.7011
X0.3055 Y-0.6992
X0.2621 Y-0.6904
X0.2204 Y-0.6751
X0.1813 Y-0.6541
X0.1454 Y-0.628
X0.1131 Y-0.5977
X0.0846 Y-0.5636
X0.0602 Y-0.5266
X0.0402 Y-0.4869
X0.025 Y-0.4453
X0.0146 Y-0.4021
X0.0094 Y-0.3581
Y-0.3137
X0.015 Y-0.2697
X0.0263 Y-0.2268
X0.0438 Y-0.186
X0.0669 Y-0.1481
X0.0952 Y-0.1139
X0.1277 Y-0.0838
X0.1638 Y-0.0579
X0.2026 Y-0.0364
X0.2438 Y-0.0198
X0.2867 Y-0.0086
X0.3307 Y-0.003
X0.3751 Y-0.0035
X0.419 Y-0.01
X0.4615 Y-0.0227
X0.5018 Y-0.0412
X0.5392 Y-0.0652
X0.5727 Y-0.0942
X0.6018 Y-0.1278
X0.6259 Y-0.165
X0.6445 Y-0.2053
X0.6572 Y-0.2478
X0.6638 Y-0.2917
X0.6643 Y-0.3361
X0.6582 Y-0.38
X0.6454 Y-0.4225
X0.6262 Y-0.4625
X0.601 Y-0.499
X0.5709 Y-0.5316
X0.5367 Y-0.5599
X0.4992 Y-0.5837
X0.4589 Y-0.6022
X0.4162 Y-0.6142
X0.3721 Y-0.6188
X0.3278 Y-0.6158
X0.2847 Y-0.6054
X0.2438 Y-0.5881
X0.2063 Y-0.5644
X0.173 Y-0.5351
X0.1446 Y-0.501
X0.1219 Y-0.4629
X0.1055 Y-0.4216
X0.0962 Y-0.3782
X0.0947 Y-0.3339
X0.101 Y-0.29
X0.115 Y-0.2479
X0.1361 Y-0.2088
X0.1634 Y-0.1738
X0.1964 Y-0.1441
X0.234 Y-0.1207
X0.2753 Y-0.1045
X0.3189 Y-0.0961
X0.3633 Y-0.0963
X0.4065 Y-0.1065
X0.4469 Y-0.1248
X0.4829 Y-0.1507
X0.513 Y-0.1833
X0.5354 Y-0.2216
X0.5488 Y-0.2639
X0.5526 Y-0.3081
X0.5467 Y-0.3521
X0.5313 Y-0.3937
X0.5062 Y-0.4303
X0.4723 Y-0.459
G2 X0.3589 Y-0.4677 I-0.0677 J0.1381
G1 X0.3546 Y-0.4668
X0.3502 Y-0.4664
X0.3458 Y-0.4665
X0.3414 Y-0.4671
X0.3372 Y-0.4683
X0.3331 Y-0.4699
X0.3292 Y-0.472
G3 X0.3147 Y-0.4889 I0.0199 J-0.0318 F300.
G1 X0.1763 Y-0.9078
G2 X-0.0133 Y-0.904 I-0.0943 J0.0283
G1 X-0.0194 Y-0.8794
Z1.153
Z1.122 F50.
Y-0.8739
X-0.052 Y-0.8437
X-0.0788 Y-0.8084
X-0.1001 Y-0.7694
X-0.1165 Y-0.7282
X-0.1287 Y-0.6856
G2 X-0.149 Y-0.5402 I0.8452 J0.192
G1 X-0.1507 Y-0.5265
X-0.1539 Y-0.513
X-0.1587 Y-0.5001
X-0.1668 Y-0.4776
G2 X-0.1888 Y-0.3767 I1.1846 J0.3113
G1 X-0.1902 Y-0.3542
X-0.1906 Y-0.343
Y-0.2869
G2 X-0.1798 Y-0.2084 I0.3159 J-0.0034
G3 X-0.1622 Y-0.0586 I-1.228 J0.2202
G1 X-0.1593 Y-0.0143
X-0.1444 Y0.0275
X-0.1202 Y0.0647
X-0.0891 Y0.0963
X-0.0531 Y0.1223
X-0.0138 Y0.1428
X0.0277 Y0.1585
G2 X0.1433 Y0.1826 I0.1834 J-0.5924
G1 X0.1486 Y0.1839
X0.1538 Y0.1855
G2 X0.2211 Y0.1924 I0.0592 J-0.245
G1 X0.2654 Y0.1947
G2 X0.6648 Y0.1965 I0.3008 J-22.2734
G1 X0.7091 Y0.1954
X0.7514 Y0.1818
X0.7892 Y0.1587
X0.8216 Y0.1284
X0.8483 Y0.0929
X0.8695 Y0.0539
X0.8858 Y0.0126
X0.8979 Y-0.0301
X0.9067 Y-0.0736
G2 X0.9219 Y-0.2503 I-1.344 J-0.2047
X0.9253 Y-0.6052 I-10.6042 J-0.281
G1 X0.9132 Y-0.6478
X0.8909 Y-0.6862
X0.8613 Y-0.7193
X0.8263 Y-0.7466
X0.7877 Y-0.7684
X0.7466 Y-0.7851
X0.704 Y-0.7977
X0.6606 Y-0.8068
G2 X0.484 Y-0.8227 I-0.2053 J1.2933
G1 X0.4396 Y-0.8241
X0.3953 Y-0.825
G2 X0.1734 Y-0.8265 I-0.2132 J15.8708
G1 X0.1294 Y-0.821
X0.0876 Y-0.806
X0.0496 Y-0.7831
X0.0164 Y-0.7537
X-0.0118 Y-0.7194
X-0.0168 Y-0.712
X-0.0225 Y-0.7051
X-0.0289 Y-0.6988
G2 X-0.0683 Y-0.6572 I0.2005 J0.2292
X-0.1234 Y-0.5787 I0.9185 J0.7037
G1 X-0.1288 Y-0.5674
X-0.1538 Y-0.5113
X-0.1587 Y-0.5001
X-0.16 Y-0.4975
X-0.1616 Y-0.495
G2 X-0.1748 Y-0.4737 I0.231 J0.1578
X-0.1855 Y-0.4525 I0.2442 J0.1365 F300.
X-0.1887 Y-0.4398 I0.0342 J0.0154
G1 X-0.2011 Y-0.2742
G2 X-0.1998 Y-0.2612 I0.0374 J0.0028
X-0.1917 Y-0.2369 I0.2692 J-0.076
X-0.1825 Y-0.2156 I0.2612 J-0.1003 F50.
G1 X-0.181 Y-0.2121
X-0.1799 Y-0.2084
X-0.1751 Y-0.1859
G2 X-0.1538 Y-0.1186 I0.2797 J-0.0513
G1 X-0.1288 Y-0.0625
G2 X-0.0927 Y-0.0065 I0.2768 J-0.1384
G1 X-0.0682 Y0.0272
X-0.0593 Y0.0386
G2 X0.0306 Y0.1201 I0.5797 J-0.5487
X0.1124 Y0.1681 I0.5177 J-0.7886
G1 X0.1149 Y0.1697
X0.1172 Y0.1715
X0.121 Y0.1745
X0.125 Y0.1773
G2 X0.1377 Y0.1828 I0.021 J-0.031
G1 X0.139 Y0.1831
X0.1903 Y0.1948 F300.
X0.1905 Y0.1949
G2 X0.2041 Y0.1954 I0.0081 J-0.0366 F50.
G1 X0.2137 Y0.1935
X0.2174 Y0.1928
X0.2211 Y0.1925
X0.4679
G2 X0.5388 Y0.1844 I0.0079 J-0.247
G1 X0.5464 Y0.1815
X0.568 Y0.1749
X0.6108 Y0.1634
X0.653 Y0.1495
X0.6922 Y0.1289
X0.7276 Y0.1021
X0.7585 Y0.0702
X0.7847 Y0.0344
X0.8064 Y-0.0043
X0.8239 Y-0.0451
X0.8375 Y-0.0873
X0.8467 Y-0.1249
X0.8478 Y-0.1293
X0.8492 Y-0.1338
X0.8507 Y-0.1382
X0.8557 Y-0.1523
G2 X0.8778 Y-0.2533 I-1.1846 J-0.3113
G1 X0.8792 Y-0.2757
X0.8796 Y-0.2869
Y-0.343
X0.8792 Y-0.3542
X0.8786 Y-0.3986
X0.8775 Y-0.443
X0.8768 Y-0.4873
X0.8696 Y-0.5311
X0.8543 Y-0.5727
X0.8316 Y-0.6109
X0.8028 Y-0.6446
X0.7692 Y-0.6736
X0.732 Y-0.6978
G3 X0.6899 Y-0.7238 I0.0634 J-0.1492
G2 X0.6475 Y-0.7578 I-0.3369 J0.3779
X0.5577 Y-0.8076 I-0.659 J1.0819
X0.4791 Y-0.8222 I-0.0754 J0.1865
G1 X0.4679 Y-0.8224
X0.2211
G2 X0.1502 Y-0.8144 I-0.0079 J0.247
G1 X0.1314 Y-0.8074
G2 X0.0641 Y-0.7709 I0.3155 J0.6624
G1 X0.0417 Y-0.7576
X0.0304 Y-0.7501
X0.008 Y-0.7316
X-0.0004 Y-0.7245
X-0.0289 Y-0.6988
G3 X-0.0577 Y-0.6904 I-0.0241 J-0.0288
X-0.0851 Y-0.7469 I0.0048 J-0.0372 F300.
G1 X-0.0146 Y-0.8591
G3 X0.0192 Y-0.8949 I0.0862 J0.0474
G1 X0.0865 Y-0.9304
X0.1987 Y-0.952
X0.4903 Y-0.9509
X0.5912 Y-0.9345
X0.6535 Y-0.904
X0.7483 Y-0.8458
X0.8621 Y-0.7657
X0.9277 Y-0.6991
X0.968 Y-0.6347
X0.9939 Y-0.5674
X1.0033 Y-0.3654
G3 X0.9053 Y-0.3093 I-0.0621 J0.0052
G1 Y-0.3094
G3 X0.8895 Y-0.3254 I0.0359 J-0.0509
X0.8792 Y-0.3542 I0.0516 J-0.0348 F50.
G1 X0.8777 Y-0.3767
G2 X0.8559 Y-0.4777 I-1.2845 J0.2251
G1 X0.8477 Y-0.5001
X0.8428 Y-0.5113
X0.8178 Y-0.5674
G2 X0.7817 Y-0.6235 I-0.2768 J0.1384
G1 X0.7572 Y-0.6572
X0.7483 Y-0.6685
X0.737 Y-0.6802
X0.7268 Y-0.6908
X0.69 Y-0.7239
G3 X0.6785 Y-0.7517 I0.026 J-0.027
X0.737 Y-0.7819 I0.0375 J0.0008 F300.
G1 X0.8492 Y-0.729
G3 X0.8843 Y-0.702 I-0.0409 J0.0895
G1 X0.9171 Y-0.6572
X0.9661 Y-0.5562
X0.9871 Y-0.4889
X1.0047 Y-0.3991
X1.0088 Y-0.2869
X1.0058 Y-0.2308
X0.9701 Y-0.0737
X0.9339 Y0.0272
X0.8882 Y0.1128
X0.8491 Y0.1619
X0.8043 Y0.207
X0.7707 Y0.233
X0.5912 Y0.2978
G3 X0.5217 Y0.1996 I-0.0215 J-0.0585
X0.5464 Y0.1815 I0.048 J0.0397 F50.
G1 X0.5576 Y0.1775
G2 X0.6248 Y0.141 I-0.3155 J-0.6624
G1 X0.6473 Y0.1276
X0.6585 Y0.1202
G2 X0.7485 Y0.0386 I-0.5509 J-0.6975
X0.8124 Y-0.0512 I-0.9492 J-0.7434
G1 X0.8178 Y-0.0625
X0.8428 Y-0.1186
X0.8477 Y-0.1298
X0.8507 Y-0.1382
G3 X0.8721 Y-0.1593 I0.0348 J0.0139
G1 X0.8763 Y-0.1609 Z1.1223
X0.8805 Y-0.1625 Z1.1231
X0.8845 Y-0.164 Z1.1245
X0.8884 Y-0.1655 Z1.1263
X0.892 Y-0.1669 Z1.1287
X0.8953 Y-0.1682 Z1.1315
X0.8983 Y-0.1693 Z1.1347
X0.9009 Y-0.1703 Z1.1382
X0.9031 Y-0.1712 Z1.1421
X0.9048 Y-0.1718 Z1.1462
X0.9061 Y-0.1723 Z1.1506
X0.9068 Y-0.1726 Z1.155
X0.9071 Y-0.1727 Z1.1595
G0 Z2.892
(2D CONTOUR1 2)
G64 P0.0004 Q0.0004
G0 Z2.992
X-0.2625 Y-0.3525
Z2.492
G1 Z2.2959 F80.
Z1.122
X-0.225 F50.
G3 X-0.1875 Y-0.315 I0. J0.0375
G2 X0.129 Y0.1714 I0.532 J0.
X0.2049 Y0.1875 I0.076 J-0.1714
G1 X0.484
G2 X0.56 Y0.1714 I0. J-0.1875
Y-0.8013 I-0.2155 J-0.4864
X0.484 Y-0.8174 I-0.076 J0.1714
G1 X0.2049
G2 X0.129 Y-0.8013 I0. J0.1875
Y0.1714 I0.2155 J0.4864
X0.2049 Y0.1875 I0.076 J-0.1714
G1 X0.484
G2 X0.56 Y0.1714 I0. J-0.1875
Y-0.8013 I-0.2155 J-0.4864
X0.484 Y-0.8174 I-0.076 J0.1714
G1 X0.2049
G2 X0.129 Y-0.8013 I0. J0.1875
X-0.1875 Y-0.315 I0.2155 J0.4864
G3 X-0.225 Y-0.2775 I-0.0375 J0.
G1 X-0.2625
G0 Z2.992
M5
G53 G0 Z0.
(DRILL1 2)
M9
M1
T51 M6
T12
S5000 M3
G17 G90 G94
G54
M8
G0 X0.3445 Y-0.315
G43 Z2.892 H51
G0 Z2.492
Z2.452
G1 Z2.132 F25.
G0 Z2.452
Z2.212
G1 Z2.012 F25.
G0 Z2.452
Z2.092
G1 Z1.892 F25.
G0 Z2.452
Z1.972
G1 Z1.772 F25.
G0 Z2.452
Z1.852
G1 Z1.652 F25.
G0 Z2.452
Z1.732
G1 Z1.532 F25.
G0 Z2.452
Z1.612
G1 Z1.412 F25.
G0 Z2.452
Z1.492
G1 Z1.292 F25.
G0 Z2.452
Z1.372
G1 Z1.172 F25.
G0 Z2.452
Z1.252
G1 Z1.052 F25.
G0 Z2.452
Z1.132
G1 Z1.0396 F25.
G4 P0.05
G0 Z2.492
Z2.892
M5
G53 G0 Z0.
(2D CHAMFER1 2)
M9
M1
T12 M6
T36
S7500 M3
G17 G90 G94
G54
G64 P0.0004 Q0.0004
M8
G0 X0.4029 Y-0.315
G43 Z2.892 H12
G0 Z2.492
G1 Z2.372 F80.
Z2.202
G3 X0.2861 I-0.0584 J0. F40.
X0.4029 I0.0584 J0.
G0 Z2.492
X0.729
G1 Z2.372 F80.
Z2.202
G2 X0.5002 Y-0.6665 I-0.3845 J0. F40.
X0.484 Y-0.6699 I-0.0162 J0.0366
G1 X0.2049
G2 X0.1887 Y-0.6665 I0. J0.04
Y0.0366 I0.1557 J0.3515
X0.2049 Y0.04 I0.0162 J-0.0366
G1 X0.484
G2 X0.5002 Y0.0366 I0. J-0.04
X0.729 Y-0.315 I-0.1557 J-0.3515
G0 Z2.892
(2D CONTOUR3 2)
G0 X0.3609 Y-0.329
Z2.892
Z2.492
G1 Z2.3313 F80.
Z2.186
G18 G2 X0.3749 Z2.172 I0.014 K0. F20.
G1 X0.3889
G17 G3 X0.4029 Y-0.315 I0. J0.014
X0.2861 I-0.0584 J0.
X0.4029 I0.0584 J0.
X0.2861 I-0.0584 J0.
X0.4029 I0.0584 J0.
X0.3889 Y-0.301 I-0.014 J0.
G1 X0.3749
G18 G3 X0.3609 Z2.186 I0. K0.014
G0 Z2.892
G17
M5
M9
G53 G0 Z0.
M30
%
