%
(18 MM SPREADER OP2)
(T12 D=0.2362 CR=0. TAPER=45DEG - ZMIN=2.1641 - CHAMFER MILL)
(T36 D=0.375 CR=0. - ZMIN=1.2 - FLAT END MILL)
(T51 D=0.201 CR=0. TAPER=118DEG - ZMIN=1.0396 - DRILL)
(T101 D=0.1 CR=0. TAPER=135DEG - ZMIN=1.0793 - DRILL)
G90 G94 G17 G91.1
G20
G53 G0 Z0.
(ADAPTIVE1 2)
T36 M6
T51
S5000 M3
G17 G90 G94
G54
G64 P0.004 Q0.004
M8
G0 X-0.0581 Y-1.1402
G43 Z2.8841 H36
G0 Z1.6441
G1 Z1.6066 F50.
X-0.058 Y-1.1399 Z1.6021
X-0.0578 Y-1.1391 Z1.5976
X-0.0575 Y-1.1378 Z1.5933
X-0.057 Y-1.136 Z1.5892
X-0.0565 Y-1.1337 Z1.5853
X-0.0558 Y-1.131 Z1.5817
X-0.055 Y-1.1279 Z1.5785
X-0.0541 Y-1.1245 Z1.5757
X-0.0531 Y-1.1207 Z1.5734
X-0.0521 Y-1.1167 Z1.5715
X-0.051 Y-1.1125 Z1.5702
X-0.0499 Y-1.1082 Z1.5694
X-0.0488 Y-1.1038 Z1.5691
G3 X-0.0194 Y-0.8997 I-0.9274 J0.2376
G1 Y-0.8941
X-0.052 Y-0.864
X-0.0788 Y-0.8286
X-0.1001 Y-0.7897
X-0.1165 Y-0.7485
X-0.1287 Y-0.7058
G2 X-0.1503 Y-0.5398 I0.9073 J0.2023
G1 X-0.1518 Y-0.5273
X-0.1546 Y-0.5152
X-0.1585 Y-0.5033
G2 X-0.1772 Y-0.1885 I0.5096 J0.1882
G3 X-0.1612 Y-0.038 I-0.9917 J0.1812
G1 X-0.1471 Y0.0041
X-0.1236 Y0.0417
X-0.0931 Y0.0739
X-0.0574 Y0.1003
X-0.0183 Y0.1213
X0.0231 Y0.1374
X0.0502 Y0.145
X0.0608 Y0.1484
X0.071 Y0.1528
X0.0808 Y0.1579
G2 X0.1314 Y0.1827 I0.1635 J-0.2704
X0.1973 Y0.1923 I0.0628 J-0.1993
G1 X0.2085 Y0.1925
X0.5002
X0.5114 Y0.1923
X0.5338 Y0.1916
X0.5357 Y0.1913
G3 X0.7127 Y0.1793 I0.1971 J1.5922
G1 X0.7561 Y0.1698
X0.7957 Y0.1498
X0.8302 Y0.1219
X0.8589 Y0.0881
X0.882 Y0.0502
X0.9 Y0.0097
X0.9136 Y-0.0326
X0.9235 Y-0.0758
G2 X0.9409 Y-0.2523 I-1.1845 J-0.2062
X0.9449 Y-0.6073 I-9.075 J-0.28
G1 X0.9374 Y-0.6509
X0.9187 Y-0.6912
X0.8917 Y-0.7264
X0.8586 Y-0.756
X0.8212 Y-0.7798
X0.781 Y-0.7985
X0.7389 Y-0.8126
X0.6958 Y-0.823
G2 X0.5111 Y-0.8416 I-0.2101 J1.155
G1 X0.5022 Y-0.8424
X0.4934 Y-0.8436
X0.4847 Y-0.8454
G2 X0.2982 Y-0.8584 I-0.13 J0.5208
G1 X0.254 Y-0.8553
X0.2097 Y-0.8519
X0.1654 Y-0.8498
X0.1217 Y-0.8423
X0.0806 Y-0.8256
X0.0435 Y-0.8013
X0.0112 Y-0.7709
X-0.0161 Y-0.7358
X-0.036 Y-0.7017
X-0.0408 Y-0.694
X-0.0462 Y-0.6866
X-0.0521 Y-0.6796
G2 X-0.1584 Y-0.5033 I0.3894 J0.3549
G1 X-0.1603 Y-0.4995
X-0.1626 Y-0.496
X-0.1653 Y-0.4927
X-0.1684 Y-0.4898
X-0.1717 Y-0.4873
X-0.1753 Y-0.4851
X-0.1791 Y-0.4833
X-0.1805 Y-0.4828
G2 X-0.2667 Y-0.3906 I0.057 J0.1398 F300.
G1 X-0.2676 Y-0.3874
X-0.2682 Y-0.3842
X-0.2686 Y-0.381
X-0.2721 Y-0.3225
Y-0.3192
X-0.2719 Y-0.316
X-0.2714 Y-0.3127
G2 X-0.1971 Y-0.2112 I0.1479 J-0.0303
G1 X-0.1953 Y-0.2103 F50.
G3 X-0.1774 Y-0.1885 I-0.0179 J0.033
G2 X0.0807 Y0.158 I0.5318 J-0.1268
G1 X0.0843 Y0.1606
X0.0876 Y0.1635
X0.0905 Y0.1669
X0.093 Y0.1705
X0.1 Y0.1817
G2 X0.2089 Y0.2743 I0.2154 J-0.1432 F300.
X0.2214 Y0.2775 I0.0154 J-0.0342
G1 X0.3705 Y0.2893
G2 X0.3833 Y0.2882 I0.003 J-0.0374
X0.5107 Y0.2082 I-0.0678 J-0.2496
G1 X0.5142 Y0.2041 F50.
G3 X0.5357 Y0.1913 I0.0288 J0.024
G2 X0.5899 Y0.1779 I-0.0203 J-0.1981
G1 X0.6011 Y0.1722
X0.6114 Y0.1676
X0.6527 Y0.1512
X0.6929 Y0.1324
X0.7298 Y0.1077
X0.7626 Y0.0779
X0.791 Y0.0438
X0.8149 Y0.0064
X0.8343 Y-0.0335
X0.8499 Y-0.075
G3 X0.8608 Y-0.1102 I0.2784 J0.0669
G2 X0.8992 Y-0.3571 I-0.5056 J-0.2051
G1 X0.8976 Y-0.4015
X0.8967 Y-0.4458
X0.8962 Y-0.4902
X0.892 Y-0.5344
X0.8795 Y-0.577
X0.8594 Y-0.6165
X0.8327 Y-0.652
X0.8007 Y-0.6827
X0.7647 Y-0.7087
X0.7258 Y-0.7299
G3 X0.6796 Y-0.7544 I0.0532 J-0.1564
G2 X0.4847 Y-0.8455 I-0.327 J0.4452
G1 X0.4819 Y-0.8464
X0.4792 Y-0.8475
G2 X0.4592 Y-0.8557 I-0.1038 J0.224
G1 X0.4559 Y-0.8567
X0.4525 Y-0.8574 F300.
X0.4491 Y-0.8578
X0.3346 Y-0.8657
X0.3314 Y-0.8658
X0.3283 Y-0.8656
X0.3242 Y-0.865 F50.
G2 X0.3034 Y-0.8596 I0.0512 J0.2415
G1 X0.3008 Y-0.8589
X0.2982 Y-0.8584
G2 X-0.0522 Y-0.6797 I0.0547 J0.5403
G1 X-0.0555 Y-0.6767
X-0.059 Y-0.6741
X-0.0629 Y-0.672
X-0.067 Y-0.6703
X-0.0712 Y-0.6691
X-0.0756 Y-0.6685
X-0.08 Y-0.6683
G3 X-0.1148 Y-0.7169 I0.001 J-0.0375 F300.
G1 X-0.0608 Y-0.8325
G3 X-0.0266 Y-0.8744 I0.0904 J0.0389
G1 X0.0478 Y-0.9193
X0.1075 Y-0.9448
X0.2309 Y-0.9816
X0.3207 Y-0.9899
X0.3992 Y-0.989
X0.4777 Y-0.9816
X0.5787 Y-0.9522
X0.646 Y-0.9265
X0.7246 Y-0.8825
X0.8704 Y-0.7918
X0.9378 Y-0.7282
X0.9771 Y-0.672
X1.005 Y-0.6109
X1.0162 Y-0.5657
X1.0234 Y-0.3684
G3 X0.9104 Y-0.3286 I-0.0622 J0.0036
X0.8993 Y-0.3571 I0.0507 J-0.0362 F50.
G2 X0.6795 Y-0.7542 I-0.5467 J0.0433
G1 X0.6763 Y-0.7573
X0.6736 Y-0.7608
X0.6712 Y-0.7646
X0.6693 Y-0.7686
X0.6679 Y-0.7728
X0.6671 Y-0.7771
X0.6667 Y-0.7815
G3 X0.6909 Y-0.8179 I0.0375 J-0.0013 F300.
G1 X0.7133 Y-0.8192
X0.8367 Y-0.7721
G3 X0.8816 Y-0.7395 I-0.0331 J0.0927
G1 X0.943 Y-0.6495
X0.9826 Y-0.5626
X1.006 Y-0.4921
X1.0259 Y-0.4021
X1.03 Y-0.3122
X1.0236 Y-0.211
X1.0032 Y-0.121
X0.9489 Y0.0289
X0.9219 Y0.0814
X0.8816 Y0.1381
X0.8367 Y0.1871
X0.6572 Y0.2834
G3 X0.5788 Y0.193 I-0.0261 J-0.0566
X0.6011 Y0.1722 I0.0524 J0.0337 F50.
G2 X0.8608 Y-0.1102 I-0.2427 J-0.4837
G1 Z1.6
Z2.2441 F300.
X0.8704 Y-0.1229
X0.9153 Y-0.1413
X0.9602 Y-0.1569
G2 X1.0293 Y-0.2527 I-0.0293 J-0.094
G1 X1.0287 Y-0.3684
X1.0149 Y-0.4583
X0.9884 Y-0.5483
X0.9489 Y-0.6392
X0.8899 Y-0.7282
X0.8078 Y-0.8181
X0.7354 Y-0.8744
X0.6609 Y-0.9193
X0.6011 Y-0.9448
X0.4777 Y-0.9816
X0.3543 Y-0.991
X0.2309 Y-0.9816
X0.13 Y-0.9522
X0.0626 Y-0.9265
X0.0402 Y-0.9154
G2 X-0.0193 Y-0.8294 I0.0388 J0.0904
G1 X-0.0194 Y-0.7483
Y-0.7174 F50.
G3 X-0.0241 Y-0.6924 I-0.0654 J0.0007
X-0.0715 Y-0.5786 I-1.1512 J-0.4126
G1 X-0.0881 Y-0.5375
X-0.1026 Y-0.4956
X-0.1145 Y-0.4528
X-0.123 Y-0.4093
X-0.1282 Y-0.3652
X-0.1297 Y-0.3208
X-0.1274 Y-0.2765
X-0.1213 Y-0.2326
X-0.1113 Y-0.1893
X-0.0974 Y-0.1472
X-0.0799 Y-0.1064
X-0.0588 Y-0.0674
X-0.0341 Y-0.0305
X-0.0061 Y0.0039
X0.0248 Y0.0357
X0.0599 Y0.0629
X0.0987 Y0.0845
X0.1398 Y0.1012
X0.1824 Y0.1136
X0.2258 Y0.1227
G2 X0.4469 Y0.138 I0.1945 J-1.2033
G1 X0.4908 Y0.1315
X0.5336 Y0.1199
X0.5749 Y0.1036
X0.6141 Y0.0829
X0.6509 Y0.0581
X0.6851 Y0.0298
X0.7162 Y-0.0018
X0.7442 Y-0.0362
X0.7687 Y-0.0732
X0.7896 Y-0.1124
X0.8067 Y-0.1534
X0.8198 Y-0.1957
X0.829 Y-0.2391
X0.8341 Y-0.2832
X0.8351 Y-0.3276
X0.8319 Y-0.3718
X0.8246 Y-0.4156
X0.8134 Y-0.4585
X0.7982 Y-0.5002
X0.7792 Y-0.5403
X0.7566 Y-0.5785
X0.7306 Y-0.6145
X0.7014 Y-0.6479
X0.6693 Y-0.6785
X0.6345 Y-0.706
X0.5972 Y-0.7301
X0.5579 Y-0.7508
X0.5169 Y-0.7677
X0.4745 Y-0.7808
X0.4311 Y-0.7899
X0.387 Y-0.7949
X0.3426 Y-0.7959
X0.2984 Y-0.7927
X0.2546 Y-0.7856
X0.2117 Y-0.7744
X0.1702 Y-0.7585
X0.1322 Y-0.7356
X0.0978 Y-0.7076
X0.0669 Y-0.6757
X0.0393 Y-0.641
X0.0147 Y-0.6041
X-0.0069 Y-0.5653
X-0.0255 Y-0.525
X-0.0408 Y-0.4834
X-0.0525 Y-0.4406
X-0.0605 Y-0.3969
X-0.0644 Y-0.3527
X-0.0641 Y-0.3083
X-0.0595 Y-0.2642
X-0.0506 Y-0.2207
X-0.0374 Y-0.1784
X-0.0199 Y-0.1376
X0.002 Y-0.099
X0.029 Y-0.0638
X0.0605 Y-0.0325
X0.0958 Y-0.0057
X0.1341 Y0.0168
X0.1745 Y0.0352
X0.2164 Y0.0498
X0.2593 Y0.0612
X0.3028 Y0.0698
X0.3468 Y0.0751
X0.3912 Y0.0761
X0.4354 Y0.0722
X0.4789 Y0.0632
X0.521 Y0.0493
X0.5612 Y0.0305
X0.5989 Y0.0071
X0.6336 Y-0.0205
X0.6649 Y-0.052
X0.6925 Y-0.0867
X0.716 Y-0.1244
X0.7351 Y-0.1644
X0.7497 Y-0.2063
X0.7594 Y-0.2496
X0.7644 Y-0.2937
X0.7645 Y-0.3381
X0.7598 Y-0.3822
X0.7504 Y-0.4256
X0.7362 Y-0.4676
X0.7176 Y-0.5079
X0.6948 Y-0.5459
X0.668 Y-0.5813
X0.6375 Y-0.6136
X0.6038 Y-0.6424
X0.5671 Y-0.6673
X0.5279 Y-0.6882
X0.4867 Y-0.7047
X0.444 Y-0.7167
X0.4002 Y-0.7241
X0.3559 Y-0.7266
X0.3117 Y-0.7235
X0.2684 Y-0.7138
X0.2269 Y-0.6979
X0.188 Y-0.6766
X0.1522 Y-0.6504
X0.1197 Y-0.6202
X0.0907 Y-0.5866
X0.0656 Y-0.55
X0.0444 Y-0.511
X0.0276 Y-0.47
X0.0153 Y-0.4274
X0.0077 Y-0.3836
X0.005 Y-0.3393
X0.0074 Y-0.295
X0.0153 Y-0.2514
X0.0291 Y-0.2092
X0.0489 Y-0.1695
X0.0743 Y-0.1331
X0.1044 Y-0.1005
X0.1385 Y-0.0721
X0.1757 Y-0.0479
X0.2153 Y-0.0279
X0.2569 Y-0.0123
X0.2999 Y-0.0015
X0.344 Y0.0039
X0.3883 Y0.0037
X0.4323 Y-0.0025
X0.475 Y-0.0146
X0.5156 Y-0.0324
X0.5534 Y-0.0557
X0.5876 Y-0.084
X0.6175 Y-0.1167
X0.6426 Y-0.1533
X0.6625 Y-0.193
X0.6768 Y-0.235
X0.6852 Y-0.2786
X0.6876 Y-0.3229
X0.684 Y-0.3671
X0.6746 Y-0.4104
X0.6593 Y-0.4521
X0.6387 Y-0.4914
X0.613 Y-0.5276
X0.5828 Y-0.56
X0.5484 Y-0.5882
X0.5107 Y-0.6115
X0.4701 Y-0.6294
X0.4272 Y-0.6409
X0.3831 Y-0.6452
X0.3388 Y-0.6423
X0.2956 Y-0.6322
X0.2545 Y-0.6155
X0.2163 Y-0.5929
X0.1819 Y-0.5649
X0.1519 Y-0.5322
X0.1268 Y-0.4955
X0.1072 Y-0.4557
X0.0937 Y-0.4135
X0.0869 Y-0.3696
X0.0877 Y-0.3253
X0.096 Y-0.2817
X0.1116 Y-0.2401
X0.1338 Y-0.2017
X0.1618 Y-0.1673
X0.1948 Y-0.1377
X0.2321 Y-0.1136
X0.2728 Y-0.096
X0.3159 Y-0.0855
X0.3602 Y-0.0827
X0.4043 Y-0.0879
X0.4466 Y-0.1012
X0.4858 Y-0.1219
X0.5204 Y-0.1497
X0.5492 Y-0.1835
X0.5711 Y-0.2221
X0.5853 Y-0.2641
X0.5915 Y-0.3081
X0.5892 Y-0.3524
X0.5787 Y-0.3955
X0.5602 Y-0.4358
X0.5338 Y-0.4715
X0.5003 Y-0.5006
X0.461 Y-0.5212
X0.418 Y-0.5323
X0.3737 Y-0.5333
X0.3303 Y-0.5241
X0.2903 Y-0.5049
X0.2566 Y-0.4759
X0.2323 Y-0.4388
G2 X0.2254 Y-0.3677 I0.1445 J0.0498
G1 X0.2256 Y-0.3633
X0.2253 Y-0.3589
X0.2244 Y-0.3546
X0.2231 Y-0.3504
X0.2213 Y-0.3464
X0.219 Y-0.3426
X0.2163 Y-0.3391
G3 X0.1509 Y-0.3684 I-0.0281 J-0.0248 F300.
G1 X0.1621 Y-1.0655
G2 X-0.0341 Y-1.0768 Z1.2 I-0.0984 J0.0002
G1 X-0.0359 Y-1.0462
G3 X-0.021 Y-0.9306 I-0.9403 J0.1799
X-0.0194 Y-0.8997 I-0.9552 J0.0643 F50.
G1 Y-0.8941
X-0.052 Y-0.864
X-0.0788 Y-0.8286
X-0.1001 Y-0.7897
X-0.1165 Y-0.7485
X-0.1287 Y-0.7058
G2 X-0.1503 Y-0.5398 I0.9073 J0.2023
G1 X-0.1518 Y-0.5273
X-0.1546 Y-0.5152
X-0.1585 Y-0.5033
G2 X-0.1772 Y-0.1885 I0.5096 J0.1882
G3 X-0.1612 Y-0.038 I-0.9917 J0.1812
G1 X-0.1471 Y0.0041
X-0.1236 Y0.0417
X-0.0931 Y0.0739
X-0.0574 Y0.1003
X-0.0183 Y0.1213
X0.0231 Y0.1374
X0.0502 Y0.145
X0.0608 Y0.1484
X0.071 Y0.1528
X0.0808 Y0.1579
G2 X0.1314 Y0.1827 I0.1635 J-0.2704
X0.1973 Y0.1923 I0.0628 J-0.1993
G1 X0.2085 Y0.1925
X0.5002
X0.5114 Y0.1923
X0.5338 Y0.1916
X0.5357 Y0.1913
G3 X0.7127 Y0.1793 I0.1971 J1.5922
G1 X0.7561 Y0.1698
X0.7957 Y0.1498
X0.8302 Y0.1219
X0.8589 Y0.0881
X0.882 Y0.0502
X0.9 Y0.0097
X0.9136 Y-0.0326
X0.9235 Y-0.0758
G2 X0.9409 Y-0.2523 I-1.1845 J-0.2062
X0.9449 Y-0.6073 I-9.075 J-0.28
G1 X0.9374 Y-0.6509
X0.9187 Y-0.6912
X0.8917 Y-0.7264
X0.8586 Y-0.756
X0.8212 Y-0.7798
X0.781 Y-0.7985
X0.7389 Y-0.8126
X0.6958 Y-0.823
G2 X0.5111 Y-0.8416 I-0.2101 J1.155
G1 X0.5022 Y-0.8424
X0.4934 Y-0.8436
X0.4847 Y-0.8454
G2 X0.2982 Y-0.8584 I-0.13 J0.5208
G1 X0.254 Y-0.8553
X0.2097 Y-0.8519
X0.1654 Y-0.8498
X0.1217 Y-0.8423
X0.0806 Y-0.8256
X0.0435 Y-0.8013
X0.0112 Y-0.7709
X-0.0161 Y-0.7358
X-0.036 Y-0.7017
X-0.0408 Y-0.694
X-0.0462 Y-0.6866
X-0.0521 Y-0.6796
G2 X-0.1584 Y-0.5033 I0.3894 J0.3549
G1 X-0.1603 Y-0.4995
X-0.1626 Y-0.496
X-0.1653 Y-0.4927
X-0.1684 Y-0.4898
X-0.1717 Y-0.4873
X-0.1753 Y-0.4851
X-0.1791 Y-0.4833
X-0.1805 Y-0.4828
G2 X-0.2667 Y-0.3906 I0.057 J0.1398 F300.
G1 X-0.2676 Y-0.3874
X-0.2682 Y-0.3842
X-0.2686 Y-0.381
X-0.2721 Y-0.3225
Y-0.3192
X-0.2719 Y-0.316
X-0.2714 Y-0.3127
G2 X-0.1971 Y-0.2112 I0.1479 J-0.0303
G1 X-0.1953 Y-0.2103 F50.
G3 X-0.1774 Y-0.1885 I-0.0179 J0.033
G2 X0.0807 Y0.158 I0.5318 J-0.1268
G1 X0.0843 Y0.1606
X0.0876 Y0.1635
X0.0905 Y0.1669
X0.093 Y0.1705
X0.1 Y0.1817
G2 X0.2089 Y0.2743 I0.2154 J-0.1432 F300.
X0.2214 Y0.2775 I0.0154 J-0.0342
G1 X0.3705 Y0.2893
G2 X0.3833 Y0.2882 I0.003 J-0.0374
X0.5107 Y0.2082 I-0.0678 J-0.2496
G1 X0.5142 Y0.2041 F50.
G3 X0.5357 Y0.1913 I0.0288 J0.024
G2 X0.5899 Y0.1779 I-0.0203 J-0.1981
G1 X0.6011 Y0.1722
X0.6114 Y0.1676
X0.6527 Y0.1512
X0.6929 Y0.1324
X0.7298 Y0.1077
X0.7626 Y0.0779
X0.791 Y0.0438
X0.8149 Y0.0064
X0.8343 Y-0.0335
X0.8499 Y-0.075
G3 X0.8608 Y-0.1102 I0.2784 J0.0669
G2 X0.8992 Y-0.3571 I-0.5056 J-0.2051
G1 X0.8976 Y-0.4015
X0.8967 Y-0.4458
X0.8962 Y-0.4902
X0.892 Y-0.5344
X0.8795 Y-0.577
X0.8594 Y-0.6165
X0.8327 Y-0.652
X0.8007 Y-0.6827
X0.7647 Y-0.7087
X0.7258 Y-0.7299
G3 X0.6796 Y-0.7544 I0.0532 J-0.1564
G2 X0.4847 Y-0.8455 I-0.327 J0.4452
G1 X0.4819 Y-0.8464
X0.4792 Y-0.8475
G2 X0.4592 Y-0.8557 I-0.1038 J0.224
G1 X0.4559 Y-0.8567
X0.4525 Y-0.8574 F300.
X0.4491 Y-0.8578
X0.3346 Y-0.8657
X0.3314 Y-0.8658
X0.3283 Y-0.8656
X0.3242 Y-0.865 F50.
G2 X0.3034 Y-0.8596 I0.0512 J0.2415
G1 X0.3008 Y-0.8589
X0.2982 Y-0.8584
G2 X-0.0522 Y-0.6797 I0.0547 J0.5403
G1 X-0.0555 Y-0.6767
X-0.059 Y-0.6741
X-0.0629 Y-0.672
X-0.067 Y-0.6703
X-0.0712 Y-0.6691
X-0.0756 Y-0.6685
X-0.08 Y-0.6683
G3 X-0.1148 Y-0.7169 I0.001 J-0.0375 F300.
G1 X-0.0608 Y-0.8325
G3 X-0.0266 Y-0.8744 I0.0904 J0.0389
G1 X0.0478 Y-0.9193
X0.1075 Y-0.9448
X0.2309 Y-0.9816
X0.3207 Y-0.9899
X0.3992 Y-0.989
X0.4777 Y-0.9816
X0.5787 Y-0.9522
X0.646 Y-0.9265
X0.7246 Y-0.8825
X0.8704 Y-0.7918
X0.9378 Y-0.7282
X0.9771 Y-0.672
X1.005 Y-0.6109
X1.0162 Y-0.5657
X1.0234 Y-0.3684
G3 X0.9104 Y-0.3286 I-0.0622 J0.0036
X0.8993 Y-0.3571 I0.0507 J-0.0362 F50.
G2 X0.6795 Y-0.7542 I-0.5467 J0.0433
G1 X0.6763 Y-0.7573
X0.6736 Y-0.7608
X0.6712 Y-0.7646
X0.6693 Y-0.7686
X0.6679 Y-0.7728
X0.6671 Y-0.7771
X0.6667 Y-0.7815
G3 X0.6909 Y-0.8179 I0.0375 J-0.0013 F300.
G1 X0.7133 Y-0.8192
X0.8367 Y-0.7721
G3 X0.8816 Y-0.7395 I-0.0331 J0.0927
G1 X0.943 Y-0.6495
X0.9826 Y-0.5626
X1.006 Y-0.4921
X1.0259 Y-0.4021
X1.03 Y-0.3122
X1.0236 Y-0.211
X1.0032 Y-0.121
X0.9489 Y0.0289
X0.9219 Y0.0814
X0.8816 Y0.1381
X0.8367 Y0.1871
X0.6572 Y0.2834
G3 X0.5788 Y0.193 I-0.0261 J-0.0566
X0.6011 Y0.1722 I0.0524 J0.0337 F50.
G2 X0.8608 Y-0.1102 I-0.2427 J-0.4837
G1 X0.8629 Y-0.1141
X0.8654 Y-0.1177
X0.8683 Y-0.121
X0.8716 Y-0.124
X0.8753 Y-0.1265
X0.8792 Y-0.1286
X0.8833 Y-0.1302
X0.8876 Y-0.1316 Z1.2003
X0.8918 Y-0.133 Z1.2011
X0.8959 Y-0.1343 Z1.2024
X0.8998 Y-0.1356 Z1.2043
X0.9035 Y-0.1368 Z1.2066
X0.9069 Y-0.1379 Z1.2094
X0.9099 Y-0.1389 Z1.2126
X0.9126 Y-0.1398 Z1.2162
X0.9148 Y-0.1405 Z1.2201
X0.9166 Y-0.1411 Z1.2242
X0.9179 Y-0.1415 Z1.2285
X0.9187 Y-0.1418 Z1.233
X0.9189 Z1.2375
G0 Z2.8841
(2D CONTOUR1 2)
G64 P0.0004 Q0.0004
G0 Z2.9841
X-0.2621 Y-0.3584
Z2.4841
G1 Z2.288 F80.
Z1.2
X-0.2246 Y-0.358 F50.
G3 X-0.1875 Y-0.3201 I-0.0004 J0.0375
G2 X0.1061 Y0.1667 I0.5418 J0.0052
X0.192 Y0.1875 I0.0859 J-0.1667
G1 X0.5167
G2 X0.6026 Y0.1667 I0. J-0.1875
X0.1061 Y-0.7966 I-0.2482 J-0.4816
Y0.1667 I0.2482 J0.4816
X0.192 Y0.1875 I0.0859 J-0.1667
G1 X0.5167
G2 X0.6026 Y0.1667 I0. J-0.1875
X0.1061 Y-0.7966 I-0.2482 J-0.4816
X-0.1875 Y-0.3201 I0.2482 J0.4816
G3 X-0.2253 Y-0.283 I-0.0375 J-0.0004
G1 X-0.2628 Y-0.2834
G0 Z2.9841
M5
G53 G0 Z0.
(DRILL1 2)
M9
M1
T51 M6
T101
S5000 M3
G17 G90 G94
G54
M8
G0 X0.3543 Y-0.315
G43 Z2.8841 H51
G0 Z2.4841
Z2.4441
G1 Z2.1441 F25.
G0 Z2.4441
Z2.2241
G1 Z2.0441 F25.
G0 Z2.4441
Z2.1241
G1 Z1.9441 F25.
G0 Z2.4441
Z2.0241
G1 Z1.8441 F25.
G0 Z2.4441
Z1.9241
G1 Z1.7441 F25.
G0 Z2.4441
Z1.8241
G1 Z1.6441 F25.
G0 Z2.4441
Z1.7241
G1 Z1.5441 F25.
G0 Z2.4441
Z1.6241
G1 Z1.4441 F25.
G0 Z2.4441
Z1.5241
G1 Z1.3441 F25.
G0 Z2.4441
Z1.4241
G1 Z1.2441 F25.
G0 Z2.4441
Z1.3241
G1 Z1.1441 F25.
G0 Z2.4441
Z1.2241
G1 Z1.0441 F25.
G0 Z2.4441
Z1.1241
G1 Z1.0396 F25.
G4 P0.05
G0 Z2.4841
Z2.8841
(DRILL2 2)
G0 X0.1696 Y-0.4622
Z2.8841
Z2.4841
G98 G81 X0.1696 Y-0.4622 Z2.2191 R2.4441 F25.
X0.3543 Y-0.5512
X0.539 Y-0.4622
X0.5846 Y-0.2624
X0.4568 Y-0.1021
X0.2518
X0.124 Y-0.2624
G80
G0 Z2.8841
M5
G53 G0 Z0.
(DRILL3 2)
M9
M1
T101 M6
T12
S2500 M3
G17 G90 G94
G54
M8
G0 X0.1696 Y-0.4622
G43 Z2.8841 H101
G0 Z2.4841
Z2.4441
G1 Z2.1941 F5.
G0 Z2.4441
Z2.2741
G1 Z2.1441 F5.
G0 Z2.4441
Z2.2241
G1 Z2.0941 F5.
G0 Z2.4441
Z2.1741
G1 Z2.0441 F5.
G0 Z2.4441
Z2.1241
G1 Z1.9941 F5.
G0 Z2.4441
Z2.0741
G1 Z1.9441 F5.
G0 Z2.4441
Z2.0241
G1 Z1.8941 F5.
G0 Z2.4441
Z1.9741
G1 Z1.8441 F5.
G0 Z2.4441
Z1.9241
G1 Z1.7941 F5.
G0 Z2.4441
Z1.8741
G1 Z1.7441 F5.
G0 Z2.4441
Z1.8241
G1 Z1.6941 F5.
G0 Z2.4441
Z1.7741
G1 Z1.6441 F5.
G0 Z2.4441
Z1.7241
G1 Z1.5941 F5.
G0 Z2.4441
Z1.6741
G1 Z1.5441 F5.
G0 Z2.4441
Z1.6241
G1 Z1.4941 F5.
G0 Z2.4441
Z1.5741
G1 Z1.4441 F5.
G0 Z2.4441
Z1.5241
G1 Z1.3941 F5.
G0 Z2.4441
Z1.4741
G1 Z1.3441 F5.
G0 Z2.4441
Z1.4241
G1 Z1.2941 F5.
G0 Z2.4441
Z1.3741
G1 Z1.2441 F5.
G0 Z2.4441
Z1.3241
G1 Z1.1941 F5.
G0 Z2.4441
Z1.2741
G1 Z1.1441 F5.
G0 Z2.4441
Z1.2241
G1 Z1.0941 F5.
G0 Z2.4441
Z1.1741
G1 Z1.0793 F5.
G4 P0.05
G0 Z2.4841
X0.3543 Y-0.5512
Z2.4441
G1 Z2.1941 F5.
G0 Z2.4441
Z2.2741
G1 Z2.1441 F5.
G0 Z2.4441
Z2.2241
G1 Z2.0941 F5.
G0 Z2.4441
Z2.1741
G1 Z2.0441 F5.
G0 Z2.4441
Z2.1241
G1 Z1.9941 F5.
G0 Z2.4441
Z2.0741
G1 Z1.9441 F5.
G0 Z2.4441
Z2.0241
G1 Z1.8941 F5.
G0 Z2.4441
Z1.9741
G1 Z1.8441 F5.
G0 Z2.4441
Z1.9241
G1 Z1.7941 F5.
G0 Z2.4441
Z1.8741
G1 Z1.7441 F5.
G0 Z2.4441
Z1.8241
G1 Z1.6941 F5.
G0 Z2.4441
Z1.7741
G1 Z1.6441 F5.
G0 Z2.4441
Z1.7241
G1 Z1.5941 F5.
G0 Z2.4441
Z1.6741
G1 Z1.5441 F5.
G0 Z2.4441
Z1.6241
G1 Z1.4941 F5.
G0 Z2.4441
Z1.5741
G1 Z1.4441 F5.
G0 Z2.4441
Z1.5241
G1 Z1.3941 F5.
G0 Z2.4441
Z1.4741
G1 Z1.3441 F5.
G0 Z2.4441
Z1.4241
G1 Z1.2941 F5.
G0 Z2.4441
Z1.3741
G1 Z1.2441 F5.
G0 Z2.4441
Z1.3241
G1 Z1.1941 F5.
G0 Z2.4441
Z1.2741
G1 Z1.1441 F5.
G0 Z2.4441
Z1.2241
G1 Z1.0941 F5.
G0 Z2.4441
Z1.1741
G1 Z1.0793 F5.
G4 P0.05
G0 Z2.4841
X0.539 Y-0.4622
Z2.4441
G1 Z2.1941 F5.
G0 Z2.4441
Z2.2741
G1 Z2.1441 F5.
G0 Z2.4441
Z2.2241
G1 Z2.0941 F5.
G0 Z2.4441
Z2.1741
G1 Z2.0441 F5.
G0 Z2.4441
Z2.1241
G1 Z1.9941 F5.
G0 Z2.4441
Z2.0741
G1 Z1.9441 F5.
G0 Z2.4441
Z2.0241
G1 Z1.8941 F5.
G0 Z2.4441
Z1.9741
G1 Z1.8441 F5.
G0 Z2.4441
Z1.9241
G1 Z1.7941 F5.
G0 Z2.4441
Z1.8741
G1 Z1.7441 F5.
G0 Z2.4441
Z1.8241
G1 Z1.6941 F5.
G0 Z2.4441
Z1.7741
G1 Z1.6441 F5.
G0 Z2.4441
Z1.7241
G1 Z1.5941 F5.
G0 Z2.4441
Z1.6741
G1 Z1.5441 F5.
G0 Z2.4441
Z1.6241
G1 Z1.4941 F5.
G0 Z2.4441
Z1.5741
G1 Z1.4441 F5.
G0 Z2.4441
Z1.5241
G1 Z1.3941 F5.
G0 Z2.4441
Z1.4741
G1 Z1.3441 F5.
G0 Z2.4441
Z1.4241
G1 Z1.2941 F5.
G0 Z2.4441
Z1.3741
G1 Z1.2441 F5.
G0 Z2.4441
Z1.3241
G1 Z1.1941 F5.
G0 Z2.4441
Z1.2741
G1 Z1.1441 F5.
G0 Z2.4441
Z1.2241
G1 Z1.0941 F5.
G0 Z2.4441
Z1.1741
G1 Z1.0793 F5.
G4 P0.05
G0 Z2.4841
X0.5846 Y-0.2624
Z2.4441
G1 Z2.1941 F5.
G0 Z2.4441
Z2.2741
G1 Z2.1441 F5.
G0 Z2.4441
Z2.2241
G1 Z2.0941 F5.
G0 Z2.4441
Z2.1741
G1 Z2.0441 F5.
G0 Z2.4441
Z2.1241
G1 Z1.9941 F5.
G0 Z2.4441
Z2.0741
G1 Z1.9441 F5.
G0 Z2.4441
Z2.0241
G1 Z1.8941 F5.
G0 Z2.4441
Z1.9741
G1 Z1.8441 F5.
G0 Z2.4441
Z1.9241
G1 Z1.7941 F5.
G0 Z2.4441
Z1.8741
G1 Z1.7441 F5.
G0 Z2.4441
Z1.8241
G1 Z1.6941 F5.
G0 Z2.4441
Z1.7741
G1 Z1.6441 F5.
G0 Z2.4441
Z1.7241
G1 Z1.5941 F5.
G0 Z2.4441
Z1.6741
G1 Z1.5441 F5.
G0 Z2.4441
Z1.6241
G1 Z1.4941 F5.
G0 Z2.4441
Z1.5741
G1 Z1.4441 F5.
G0 Z2.4441
Z1.5241
G1 Z1.3941 F5.
G0 Z2.4441
Z1.4741
G1 Z1.3441 F5.
G0 Z2.4441
Z1.4241
G1 Z1.2941 F5.
G0 Z2.4441
Z1.3741
G1 Z1.2441 F5.
G0 Z2.4441
Z1.3241
G1 Z1.1941 F5.
G0 Z2.4441
Z1.2741
G1 Z1.1441 F5.
G0 Z2.4441
Z1.2241
G1 Z1.0941 F5.
G0 Z2.4441
Z1.1741
G1 Z1.0793 F5.
G4 P0.05
G0 Z2.4841
X0.4568 Y-0.1021
Z2.4441
G1 Z2.1941 F5.
G0 Z2.4441
Z2.2741
G1 Z2.1441 F5.
G0 Z2.4441
Z2.2241
G1 Z2.0941 F5.
G0 Z2.4441
Z2.1741
G1 Z2.0441 F5.
G0 Z2.4441
Z2.1241
G1 Z1.9941 F5.
G0 Z2.4441
Z2.0741
G1 Z1.9441 F5.
G0 Z2.4441
Z2.0241
G1 Z1.8941 F5.
G0 Z2.4441
Z1.9741
G1 Z1.8441 F5.
G0 Z2.4441
Z1.9241
G1 Z1.7941 F5.
G0 Z2.4441
Z1.8741
G1 Z1.7441 F5.
G0 Z2.4441
Z1.8241
G1 Z1.6941 F5.
G0 Z2.4441
Z1.7741
G1 Z1.6441 F5.
G0 Z2.4441
Z1.7241
G1 Z1.5941 F5.
G0 Z2.4441
Z1.6741
G1 Z1.5441 F5.
G0 Z2.4441
Z1.6241
G1 Z1.4941 F5.
G0 Z2.4441
Z1.5741
G1 Z1.4441 F5.
G0 Z2.4441
Z1.5241
G1 Z1.3941 F5.
G0 Z2.4441
Z1.4741
G1 Z1.3441 F5.
G0 Z2.4441
Z1.4241
G1 Z1.2941 F5.
G0 Z2.4441
Z1.3741
G1 Z1.2441 F5.
G0 Z2.4441
Z1.3241
G1 Z1.1941 F5.
G0 Z2.4441
Z1.2741
G1 Z1.1441 F5.
G0 Z2.4441
Z1.2241
G1 Z1.0941 F5.
G0 Z2.4441
Z1.1741
G1 Z1.0793 F5.
G4 P0.05
G0 Z2.4841
X0.2518
Z2.4441
G1 Z2.1941 F5.
G0 Z2.4441
Z2.2741
G1 Z2.1441 F5.
G0 Z2.4441
Z2.2241
G1 Z2.0941 F5.
G0 Z2.4441
Z2.1741
G1 Z2.0441 F5.
G0 Z2.4441
Z2.1241
G1 Z1.9941 F5.
G0 Z2.4441
Z2.0741
G1 Z1.9441 F5.
G0 Z2.4441
Z2.0241
G1 Z1.8941 F5.
G0 Z2.4441
Z1.9741
G1 Z1.8441 F5.
G0 Z2.4441
Z1.9241
G1 Z1.7941 F5.
G0 Z2.4441
Z1.8741
G1 Z1.7441 F5.
G0 Z2.4441
Z1.8241
G1 Z1.6941 F5.
G0 Z2.4441
Z1.7741
G1 Z1.6441 F5.
G0 Z2.4441
Z1.7241
G1 Z1.5941 F5.
G0 Z2.4441
Z1.6741
G1 Z1.5441 F5.
G0 Z2.4441
Z1.6241
G1 Z1.4941 F5.
G0 Z2.4441
Z1.5741
G1 Z1.4441 F5.
G0 Z2.4441
Z1.5241
G1 Z1.3941 F5.
G0 Z2.4441
Z1.4741
G1 Z1.3441 F5.
G0 Z2.4441
Z1.4241
G1 Z1.2941 F5.
G0 Z2.4441
Z1.3741
G1 Z1.2441 F5.
G0 Z2.4441
Z1.3241
G1 Z1.1941 F5.
G0 Z2.4441
Z1.2741
G1 Z1.1441 F5.
G0 Z2.4441
Z1.2241
G1 Z1.0941 F5.
G0 Z2.4441
Z1.1741
G1 Z1.0793 F5.
G4 P0.05
G0 Z2.4841
X0.124 Y-0.2624
Z2.4441
G1 Z2.1941 F5.
G0 Z2.4441
Z2.2741
G1 Z2.1441 F5.
G0 Z2.4441
Z2.2241
G1 Z2.0941 F5.
G0 Z2.4441
Z2.1741
G1 Z2.0441 F5.
G0 Z2.4441
Z2.1241
G1 Z1.9941 F5.
G0 Z2.4441
Z2.0741
G1 Z1.9441 F5.
G0 Z2.4441
Z2.0241
G1 Z1.8941 F5.
G0 Z2.4441
Z1.9741
G1 Z1.8441 F5.
G0 Z2.4441
Z1.9241
G1 Z1.7941 F5.
G0 Z2.4441
Z1.8741
G1 Z1.7441 F5.
G0 Z2.4441
Z1.8241
G1 Z1.6941 F5.
G0 Z2.4441
Z1.7741
G1 Z1.6441 F5.
G0 Z2.4441
Z1.7241
G1 Z1.5941 F5.
G0 Z2.4441
Z1.6741
G1 Z1.5441 F5.
G0 Z2.4441
Z1.6241
G1 Z1.4941 F5.
G0 Z2.4441
Z1.5741
G1 Z1.4441 F5.
G0 Z2.4441
Z1.5241
G1 Z1.3941 F5.
G0 Z2.4441
Z1.4741
G1 Z1.3441 F5.
G0 Z2.4441
Z1.4241
G1 Z1.2941 F5.
G0 Z2.4441
Z1.3741
G1 Z1.2441 F5.
G0 Z2.4441
Z1.3241
G1 Z1.1941 F5.
G0 Z2.4441
Z1.2741
G1 Z1.1441 F5.
G0 Z2.4441
Z1.2241
G1 Z1.0941 F5.
G0 Z2.4441
Z1.1741
G1 Z1.0793 F5.
G4 P0.05
G0 Z2.4841
Z2.8841
M5
G53 G0 Z0.
(2D CHAMFER1 2)
M9
M1
T12 M6
T36
S7500 M3
G17 G90 G94
G54
G64 P0.0004 Q0.0004
M8
G0 X0.3897 Y-0.5354
G43 Z2.8841 H12
G0 Z2.4841
G1 Z2.3641 F80.
Z2.1941
G3 X0.3189 Y-0.5669 I-0.0354 J-0.0158 F40.
X0.3897 Y-0.5354 I0.0354 J0.0158
G0 Z2.4841
X0.5744 Y-0.4465
G1 Z2.3641 F80.
Z2.1941
G3 X0.5036 Y-0.478 I-0.0354 J-0.0158 F40.
X0.5744 Y-0.4465 I0.0354 J0.0158
G0 Z2.4841
X0.337 Y-0.7089
G1 Z2.3641 F80.
Z2.1941
G2 X0.1737 Y0.0356 I0.0174 J0.3939 F40.
X0.192 Y0.04 I0.0183 J-0.0356
G1 X0.5167
G2 X0.535 Y0.0356 I0. J-0.04
X0.337 Y-0.7089 I-0.1807 J-0.3505
G0 Z2.4841
X0.2084 Y-0.4622
G1 Z2.3641 F80.
Z2.1941
G3 X0.1309 I-0.0387 J0. F40.
X0.2084 I0.0387 J0.
G0 Z2.4841
X0.1628 Y-0.2624
G1 Z2.3641 F80.
Z2.1941
G3 X0.0853 I-0.0387 J0. F40.
X0.1628 I0.0387 J0.
G0 Z2.4841
X0.2906 Y-0.1021
G1 Z2.3641 F80.
Z2.1941
G3 X0.2131 I-0.0387 J0. F40.
X0.2906 I0.0387 J0.
G0 Z2.4841
X0.4917 Y-0.1189
G1 Z2.3641 F80.
Z2.1941
G3 X0.4219 Y-0.0853 I-0.0349 J0.0168 F40.
X0.4917 Y-0.1189 I0.0349 J-0.0168
G0 Z2.4841
X0.6224 Y-0.2538
G1 Z2.3641 F80.
Z2.1941
G3 X0.5469 Y-0.271 I-0.0378 J-0.0086 F40.
X0.6224 Y-0.2538 I0.0378 J0.0086
G0 Z2.8841
(2D CONTOUR3 2)
G0 X0.3708 Y-0.329
Z2.8841
Z2.4841
G1 Z2.3235 F80.
Z2.1781
G18 G2 X0.3848 Z2.1641 I0.014 K0. F40.
G1 X0.3988
G17 G3 X0.4128 Y-0.315 I0. J0.014
X0.2959 I-0.0584 J0.
X0.4128 I0.0584 J0.
X0.2959 I-0.0584 J0.
X0.4128 I0.0584 J0.
X0.3988 Y-0.301 I-0.014 J0.
G1 X0.3848
G18 G3 X0.3708 Z2.1781 I0. K0.014
G0 Z2.8841
G17
M5
M9
G53 G0 Z0.
M30
%
