%
(18 MM SPREADER 2,332 OP1)
(T12 D=0.2362 CR=0. TAPER=45DEG - ZMIN=2.202 - CHAMFER MILL)
(T36 D=0.375 CR=0. - ZMIN=1.162 - FLAT END MILL)
(T51 D=0.201 CR=0. TAPER=118DEG - ZMIN=1.0796 - DRILL)
G90 G94 G17 G91.1
G20
G53 G0 Z0.
(ADAPTIVE1)
T36 M6
T51
S5000 M3
G17 G90 G94
G54
G64 P0.004 Q0.004
M8
G0 X-0.0381 Y-1.1799
G43 Z2.932 H36
G0 Z1.692
G1 Z1.6545 F50.
X-0.038 Y-1.1797 Z1.6499
X-0.0378 Y-1.1789 Z1.6455
X-0.0375 Y-1.1776 Z1.6412
X-0.037 Y-1.1758 Z1.637
X-0.0364 Y-1.1735 Z1.6332
X-0.0358 Y-1.1708 Z1.6296
X-0.035 Y-1.1677 Z1.6264
X-0.0341 Y-1.1642 Z1.6236
X-0.0331 Y-1.1605 Z1.6213
X-0.0321 Y-1.1565 Z1.6194
X-0.031 Y-1.1523 Z1.6181
X-0.0299 Y-1.148 Z1.6172
X-0.0288 Y-1.1436 Z1.617
G3 X0.0006 Y-0.9394 I-0.9274 J0.2376
G1 Y-0.9339
X-0.032 Y-0.9037
X-0.0588 Y-0.8684
X-0.0801 Y-0.8294
X-0.0965 Y-0.7882
X-0.1087 Y-0.7456
G2 X-0.129 Y-0.6002 I0.8452 J0.192
G1 X-0.1307 Y-0.5865
X-0.1339 Y-0.573
X-0.1387 Y-0.5601
X-0.1468 Y-0.5376
G2 X-0.1688 Y-0.4367 I1.1846 J0.3113
G1 X-0.1702 Y-0.4142
X-0.1706 Y-0.403
Y-0.3469
G2 X-0.1598 Y-0.2684 I0.3159 J-0.0034
G3 X-0.1422 Y-0.1186 I-1.228 J0.2202
G1 X-0.1393 Y-0.0743
X-0.1244 Y-0.0325
X-0.1002 Y0.0047
X-0.0691 Y0.0363
X-0.0331 Y0.0623
X0.0062 Y0.0828
X0.0477 Y0.0985
G2 X0.1633 Y0.1226 I0.1834 J-0.5924
G1 X0.1686 Y0.1239
X0.1738 Y0.1255
G2 X0.2411 Y0.1324 I0.0592 J-0.245
G1 X0.2854 Y0.1347
G2 X0.6848 Y0.1365 I0.3008 J-22.2735
G1 X0.7291 Y0.1354
X0.7714 Y0.1218
X0.8092 Y0.0987
X0.8416 Y0.0684
X0.8683 Y0.0329
X0.8895 Y-0.0061
X0.9058 Y-0.0474
X0.9179 Y-0.0901
X0.9267 Y-0.1336
G2 X0.9419 Y-0.3103 I-1.344 J-0.2047
X0.9453 Y-0.6652 I-10.6043 J-0.281
G1 X0.9332 Y-0.7078
X0.9109 Y-0.7462
X0.8813 Y-0.7793
X0.8463 Y-0.8066
X0.8077 Y-0.8284
X0.7666 Y-0.8451
X0.724 Y-0.8577
X0.6806 Y-0.8668
G2 X0.504 Y-0.8827 I-0.2053 J1.2933
G1 X0.4596 Y-0.8841
X0.4153 Y-0.885
G2 X0.1934 Y-0.8865 I-0.2132 J15.8718
G1 X0.1494 Y-0.881
X0.1076 Y-0.866
X0.0696 Y-0.8431
X0.0364 Y-0.8137
X0.0082 Y-0.7794
X0.0032 Y-0.772
X-0.0025 Y-0.7651
X-0.0089 Y-0.7588
G2 X-0.0483 Y-0.7172 I0.2005 J0.2292
X-0.1034 Y-0.6387 I0.9185 J0.7036
G1 X-0.1088 Y-0.6274
X-0.1338 Y-0.5713
X-0.1387 Y-0.5601
X-0.14 Y-0.5575
X-0.1416 Y-0.555
G2 X-0.1548 Y-0.5337 I0.231 J0.1578
X-0.1655 Y-0.5125 I0.2442 J0.1365 F300.
X-0.1687 Y-0.4998 I0.0342 J0.0154
G1 X-0.1811 Y-0.3342
G2 X-0.1798 Y-0.3212 I0.0374 J0.0028
X-0.1717 Y-0.2969 I0.2692 J-0.076
X-0.1625 Y-0.2756 I0.2612 J-0.1003 F50.
G1 X-0.161 Y-0.2721
X-0.1599 Y-0.2684
X-0.1551 Y-0.2459
G2 X-0.1338 Y-0.1786 I0.2797 J-0.0513
G1 X-0.1088 Y-0.1225
G2 X-0.0727 Y-0.0665 I0.2768 J-0.1384
G1 X-0.0482 Y-0.0328
X-0.0393 Y-0.0214
G2 X0.0506 Y0.0601 I0.5797 J-0.5487
X0.1324 Y0.1081 I0.5177 J-0.7886
G1 X0.1349 Y0.1097
X0.1372 Y0.1115
X0.141 Y0.1145
X0.145 Y0.1173
G2 X0.1577 Y0.1228 I0.021 J-0.031
G1 X0.159 Y0.1231
X0.2103 Y0.1348 F300.
X0.2105 Y0.1349
G2 X0.2241 Y0.1354 I0.0081 J-0.0366 F50.
G1 X0.2337 Y0.1335
X0.2374 Y0.1328
X0.2411 Y0.1325
X0.4879
G2 X0.5588 Y0.1244 I0.0079 J-0.247
G1 X0.5664 Y0.1215
X0.588 Y0.1149
X0.6308 Y0.1034
X0.673 Y0.0895
X0.7122 Y0.0689
X0.7476 Y0.0421
X0.7785 Y0.0102
X0.8047 Y-0.0256
X0.8264 Y-0.0643
X0.8439 Y-0.1051
X0.8575 Y-0.1473
X0.8667 Y-0.1849
X0.8678 Y-0.1893
X0.8692 Y-0.1938
X0.8707 Y-0.1982
X0.8757 Y-0.2123
G2 X0.8978 Y-0.3133 I-1.1847 J-0.3113
G1 X0.8992 Y-0.3357
X0.8996 Y-0.3469
Y-0.403
X0.8992 Y-0.4142
X0.8986 Y-0.4586
X0.8975 Y-0.503
X0.8968 Y-0.5473
X0.8896 Y-0.5911
X0.8743 Y-0.6327
X0.8516 Y-0.6709
X0.8228 Y-0.7046
X0.7892 Y-0.7336
X0.752 Y-0.7578
G3 X0.7099 Y-0.7838 I0.0634 J-0.1492
G2 X0.6675 Y-0.8178 I-0.3369 J0.3779
X0.5777 Y-0.8676 I-0.659 J1.0818
X0.4991 Y-0.8822 I-0.0754 J0.1865
G1 X0.4879 Y-0.8824
X0.2411
G2 X0.1702 Y-0.8744 I-0.0079 J0.247
G1 X0.1514 Y-0.8674
G2 X0.0841 Y-0.8309 I0.3155 J0.6624
G1 X0.0617 Y-0.8176
X0.0504 Y-0.8101
X0.028 Y-0.7916
X0.0196 Y-0.7845
X-0.0089 Y-0.7588
G3 X-0.0377 Y-0.7504 I-0.0241 J-0.0288
X-0.0651 Y-0.8069 I0.0048 J-0.0372 F300.
G1 X0.0054 Y-0.9191
G3 X0.0392 Y-0.9549 I0.0862 J0.0474
G1 X0.1065 Y-0.9904
X0.1963 Y-1.0105
X0.5215 Y-1.0114
X0.6112 Y-0.9945
X0.6735 Y-0.964
X0.7683 Y-0.9058
X0.8821 Y-0.8257
X0.9477 Y-0.7591
X0.988 Y-0.6947
X1.0139 Y-0.6274
X1.0233 Y-0.4254
G3 X0.9253 Y-0.3693 I-0.0621 J0.0052
G1 Y-0.3694
G3 X0.9095 Y-0.3854 I0.0359 J-0.0509
X0.8992 Y-0.4142 I0.0516 J-0.0348 F50.
G1 X0.8977 Y-0.4367
G2 X0.8759 Y-0.5377 I-1.2846 J0.2251
G1 X0.8677 Y-0.5601
X0.8628 Y-0.5713
X0.8378 Y-0.6274
G2 X0.8017 Y-0.6835 I-0.2768 J0.1384
G1 X0.7772 Y-0.7172
X0.7683 Y-0.7285
X0.757 Y-0.7402
X0.7468 Y-0.7508
X0.71 Y-0.7839
G3 X0.6985 Y-0.8117 I0.026 J-0.027
X0.757 Y-0.8419 I0.0375 J0.0008 F300.
G1 X0.8692 Y-0.789
G3 X0.9043 Y-0.762 I-0.0409 J0.0895
G1 X0.9371 Y-0.7172
X0.9861 Y-0.6162
X1.0071 Y-0.5489
X1.0247 Y-0.4591
X1.0288 Y-0.3469
X1.0258 Y-0.2908
X0.9901 Y-0.1337
X0.9539 Y-0.0328
X0.9082 Y0.0528
X0.8691 Y0.1019
X0.8243 Y0.147
X0.7907 Y0.173
X0.6112 Y0.2378
G3 X0.5417 Y0.1396 I-0.0215 J-0.0585
X0.5664 Y0.1215 I0.048 J0.0397 F50.
G1 X0.5776 Y0.1175
G2 X0.6448 Y0.081 I-0.3155 J-0.6624
G1 X0.6673 Y0.0676
X0.6785 Y0.0602
G2 X0.7685 Y-0.0214 I-0.5509 J-0.6975
X0.8324 Y-0.1112 I-0.9492 J-0.7434
G1 X0.8378 Y-0.1225
X0.8628 Y-0.1786
X0.8677 Y-0.1898
X0.8707 Y-0.1982
X0.8806 Y-0.2123 Z1.6171
X0.8914 Y-0.2206 Z1.6185
X0.9926 Y-0.2981 Z1.6315 F300.
G2 X1.0293 Y-0.3806 Z1.6516 I-0.0615 J-0.0769
G1 X1.0192 Y-0.4928 Z1.6868
X0.9977 Y-0.5825 Z1.7227
X0.9649 Y-0.6624 Z1.7611
X0.9497 Y-0.6947 Z1.778
X0.9491 Y-0.6961 Z1.7787
X0.9485 Y-0.6974 Z1.7795
X0.9478 Y-0.6987 Z1.7802
X0.9028 Y-0.766 Z1.8209
X0.8532 Y-0.8293 Z1.8635
X0.757 Y-0.9135 Z1.9339
X0.6449 Y-0.9802 Z2.0066
X0.6 Y-0.9966 Z2.0329
X0.5215 Y-1.011 Z2.0757
X0.2299 Y-1.0111 Z2.2104
X0.1177 Y-0.9945 Z2.2487
X0.0544 Y-0.964 Z2.267
G2 X0.0054 Y-0.8854 Z2.2839 I0.0491 J0.0853
G1 X0.0018 Y-0.7995 Z2.2898
X0.0006 Y-0.7687 Z2.292 F50.
Y-0.7627
G3 X-0.012 Y-0.7245 I-0.2577 J-0.0636
G1 X-0.0294 Y-0.6837
X-0.0473 Y-0.6431
X-0.0645 Y-0.6022
X-0.0795 Y-0.5604
X-0.0919 Y-0.5178
X-0.1009 Y-0.4744
X-0.1067 Y-0.4304
X-0.1085 Y-0.386
X-0.1067 Y-0.3417
X-0.1007 Y-0.2977
X-0.0913 Y-0.2544
X-0.0774 Y-0.2122
X-0.06 Y-0.1714
X-0.0387 Y-0.1325
X-0.0139 Y-0.0957
X0.0142 Y-0.0614
X0.0455 Y-0.0299
X0.0798 Y-0.0017
X0.1179 Y0.0209
X0.1587 Y0.0385
X0.2011 Y0.0516
X0.2444 Y0.0612
G2 X0.421 Y0.0775 I0.1889 J-1.0876
G1 X0.4651 Y0.0732
X0.5085 Y0.064
X0.5506 Y0.05
X0.591 Y0.0316
X0.6293 Y0.0092
X0.6651 Y-0.0171
X0.6982 Y-0.0466
X0.728 Y-0.0794
X0.7548 Y-0.1149
X0.7777 Y-0.1529
X0.7971 Y-0.1928
X0.8124 Y-0.2344
X0.8238 Y-0.2773
X0.8311 Y-0.3211
X0.834 Y-0.3653
X0.833 Y-0.4097
X0.8275 Y-0.4537
X0.8183 Y-0.4971
X0.8046 Y-0.5393
X0.7873 Y-0.5802
X0.766 Y-0.6191
X0.7411 Y-0.6559
X0.7129 Y-0.6901
X0.6816 Y-0.7215
X0.6471 Y-0.7494
X0.6087 Y-0.7718
X0.5679 Y-0.7891
X0.5255 Y-0.8021
X0.4821 Y-0.8116
G2 X0.3055 Y-0.8272 I-0.183 J1.0601
G1 X0.2614 Y-0.8226
X0.218 Y-0.8133
X0.1772 Y-0.7959
X0.1397 Y-0.772
X0.106 Y-0.7433
X0.0757 Y-0.7108
X0.0487 Y-0.6756
X0.0249 Y-0.6381
X0.0044 Y-0.5988
X-0.0127 Y-0.5578
X-0.0262 Y-0.5156
X-0.0359 Y-0.4723
X-0.0415 Y-0.4282
X-0.0428 Y-0.3839
X-0.0397 Y-0.3396
X-0.0321 Y-0.2959
X-0.02 Y-0.2532
X-0.0036 Y-0.212
X0.0172 Y-0.1728
X0.0426 Y-0.1364
X0.0726 Y-0.1037
X0.1067 Y-0.0753
X0.144 Y-0.0512
X0.1837 Y-0.0314
X0.2251 Y-0.0154
X0.2676 Y-0.0028
X0.311 Y0.0064
X0.3551 Y0.0114
X0.3995 Y0.0116
X0.4436 Y0.0068
X0.4868 Y-0.0031
X0.5287 Y-0.018
X0.5685 Y-0.0376
X0.6057 Y-0.0618
X0.6398 Y-0.0901
X0.6705 Y-0.1222
X0.6972 Y-0.1576
X0.7198 Y-0.1958
X0.7379 Y-0.2363
X0.7513 Y-0.2786
X0.7598 Y-0.3222
X0.7634 Y-0.3664
X0.7621 Y-0.4107
X0.7558 Y-0.4547
X0.7447 Y-0.4976
X0.7287 Y-0.539
X0.7082 Y-0.5784
X0.6829 Y-0.6148
X0.6528 Y-0.6474
X0.6187 Y-0.6758
X0.5813 Y-0.6997
X0.5415 Y-0.7194
X0.5001 Y-0.7352
X0.4575 Y-0.7476
X0.414 Y-0.7566
X0.3699 Y-0.7611
X0.3255 Y-0.7592
X0.2821 Y-0.7504
X0.2404 Y-0.7351
X0.2013 Y-0.7141
X0.1654 Y-0.688
X0.1331 Y-0.6577
X0.1046 Y-0.6236
X0.0802 Y-0.5866
X0.0602 Y-0.5469
X0.045 Y-0.5053
X0.0346 Y-0.4621
X0.0294 Y-0.4181
Y-0.3737
X0.035 Y-0.3297
X0.0463 Y-0.2868
X0.0638 Y-0.246
X0.0869 Y-0.2081
X0.1152 Y-0.1739
X0.1477 Y-0.1438
X0.1838 Y-0.1179
X0.2226 Y-0.0964
X0.2638 Y-0.0798
X0.3067 Y-0.0686
X0.3507 Y-0.063
X0.3951 Y-0.0635
X0.439 Y-0.07
X0.4815 Y-0.0827
X0.5218 Y-0.1012
X0.5592 Y-0.1252
X0.5927 Y-0.1542
X0.6218 Y-0.1878
X0.6459 Y-0.225
X0.6645 Y-0.2653
X0.6772 Y-0.3078
X0.6838 Y-0.3517
X0.6843 Y-0.3961
X0.6782 Y-0.44
X0.6654 Y-0.4825
X0.6462 Y-0.5225
X0.621 Y-0.559
X0.5909 Y-0.5916
X0.5567 Y-0.6199
X0.5192 Y-0.6437
X0.4789 Y-0.6622
X0.4362 Y-0.6742
X0.3921 Y-0.6788
X0.3478 Y-0.6758
X0.3047 Y-0.6654
X0.2638 Y-0.6481
X0.2263 Y-0.6244
X0.193 Y-0.5951
X0.1646 Y-0.561
X0.1419 Y-0.5229
X0.1255 Y-0.4816
X0.1162 Y-0.4382
X0.1147 Y-0.3939
X0.121 Y-0.35
X0.135 Y-0.3079
X0.1561 Y-0.2688
X0.1834 Y-0.2338
X0.2164 Y-0.2041
X0.254 Y-0.1807
X0.2953 Y-0.1645
X0.3389 Y-0.1561
X0.3833 Y-0.1563
X0.4265 Y-0.1665
X0.4669 Y-0.1848
X0.5029 Y-0.2107
X0.533 Y-0.2433
X0.5554 Y-0.2816
X0.5688 Y-0.3239
X0.5726 Y-0.3681
X0.5667 Y-0.4121
X0.5513 Y-0.4537
X0.5262 Y-0.4903
X0.4923 Y-0.519
G2 X0.3789 Y-0.5277 I-0.0677 J0.1381
G1 X0.3746 Y-0.5268
X0.3702 Y-0.5264
X0.3658 Y-0.5265
X0.3614 Y-0.5271
X0.3572 Y-0.5283
X0.3531 Y-0.5299
X0.3492 Y-0.532
G3 X0.3347 Y-0.5489 I0.0199 J-0.0318 F300.
G1 X0.1963 Y-0.9678
G2 X0.0067 Y-0.964 I-0.0943 J0.0283
G1 X0.0006 Y-0.9394
Z1.193
Z1.162 F50.
Y-0.9339
X-0.032 Y-0.9037
X-0.0588 Y-0.8684
X-0.0801 Y-0.8294
X-0.0965 Y-0.7882
X-0.1087 Y-0.7456
G2 X-0.129 Y-0.6002 I0.8452 J0.192
G1 X-0.1307 Y-0.5865
X-0.1339 Y-0.573
X-0.1387 Y-0.5601
X-0.1468 Y-0.5376
G2 X-0.1688 Y-0.4367 I1.1846 J0.3113
G1 X-0.1702 Y-0.4142
X-0.1706 Y-0.403
Y-0.3469
G2 X-0.1598 Y-0.2684 I0.3159 J-0.0034
G3 X-0.1422 Y-0.1186 I-1.228 J0.2202
G1 X-0.1393 Y-0.0743
X-0.1244 Y-0.0325
X-0.1002 Y0.0047
X-0.0691 Y0.0363
X-0.0331 Y0.0623
X0.0062 Y0.0828
X0.0477 Y0.0985
G2 X0.1633 Y0.1226 I0.1834 J-0.5924
G1 X0.1686 Y0.1239
X0.1738 Y0.1255
G2 X0.2411 Y0.1324 I0.0592 J-0.245
G1 X0.2854 Y0.1347
G2 X0.6848 Y0.1365 I0.3008 J-22.2735
G1 X0.7291 Y0.1354
X0.7714 Y0.1218
X0.8092 Y0.0987
X0.8416 Y0.0684
X0.8683 Y0.0329
X0.8895 Y-0.0061
X0.9058 Y-0.0474
X0.9179 Y-0.0901
X0.9267 Y-0.1336
G2 X0.9419 Y-0.3103 I-1.344 J-0.2047
X0.9453 Y-0.6652 I-10.6043 J-0.281
G1 X0.9332 Y-0.7078
X0.9109 Y-0.7462
X0.8813 Y-0.7793
X0.8463 Y-0.8066
X0.8077 Y-0.8284
X0.7666 Y-0.8451
X0.724 Y-0.8577
X0.6806 Y-0.8668
G2 X0.504 Y-0.8827 I-0.2053 J1.2933
G1 X0.4596 Y-0.8841
X0.4153 Y-0.885
G2 X0.1934 Y-0.8865 I-0.2132 J15.8718
G1 X0.1494 Y-0.881
X0.1076 Y-0.866
X0.0696 Y-0.8431
X0.0364 Y-0.8137
X0.0082 Y-0.7794
X0.0032 Y-0.772
X-0.0025 Y-0.7651
X-0.0089 Y-0.7588
G2 X-0.0483 Y-0.7172 I0.2005 J0.2292
X-0.1034 Y-0.6387 I0.9185 J0.7036
G1 X-0.1088 Y-0.6274
X-0.1338 Y-0.5713
X-0.1387 Y-0.5601
X-0.14 Y-0.5575
X-0.1416 Y-0.555
G2 X-0.1548 Y-0.5337 I0.231 J0.1578
X-0.1655 Y-0.5125 I0.2442 J0.1365 F300.
X-0.1687 Y-0.4998 I0.0342 J0.0154
G1 X-0.1811 Y-0.3342
G2 X-0.1798 Y-0.3212 I0.0374 J0.0028
X-0.1717 Y-0.2969 I0.2692 J-0.076
X-0.1625 Y-0.2756 I0.2612 J-0.1003 F50.
G1 X-0.161 Y-0.2721
X-0.1599 Y-0.2684
X-0.1551 Y-0.2459
G2 X-0.1338 Y-0.1786 I0.2797 J-0.0513
G1 X-0.1088 Y-0.1225
G2 X-0.0727 Y-0.0665 I0.2768 J-0.1384
G1 X-0.0482 Y-0.0328
X-0.0393 Y-0.0214
G2 X0.0506 Y0.0601 I0.5797 J-0.5487
X0.1324 Y0.1081 I0.5177 J-0.7886
G1 X0.1349 Y0.1097
X0.1372 Y0.1115
X0.141 Y0.1145
X0.145 Y0.1173
G2 X0.1577 Y0.1228 I0.021 J-0.031
G1 X0.159 Y0.1231
X0.2103 Y0.1348 F300.
X0.2105 Y0.1349
G2 X0.2241 Y0.1354 I0.0081 J-0.0366 F50.
G1 X0.2337 Y0.1335
X0.2374 Y0.1328
X0.2411 Y0.1325
X0.4879
G2 X0.5588 Y0.1244 I0.0079 J-0.247
G1 X0.5664 Y0.1215
X0.588 Y0.1149
X0.6308 Y0.1034
X0.673 Y0.0895
X0.7122 Y0.0689
X0.7476 Y0.0421
X0.7785 Y0.0102
X0.8047 Y-0.0256
X0.8264 Y-0.0643
X0.8439 Y-0.1051
X0.8575 Y-0.1473
X0.8667 Y-0.1849
X0.8678 Y-0.1893
X0.8692 Y-0.1938
X0.8707 Y-0.1982
X0.8757 Y-0.2123
G2 X0.8978 Y-0.3133 I-1.1847 J-0.3113
G1 X0.8992 Y-0.3357
X0.8996 Y-0.3469
Y-0.403
X0.8992 Y-0.4142
X0.8986 Y-0.4586
X0.8975 Y-0.503
X0.8968 Y-0.5473
X0.8896 Y-0.5911
X0.8743 Y-0.6327
X0.8516 Y-0.6709
X0.8228 Y-0.7046
X0.7892 Y-0.7336
X0.752 Y-0.7578
G3 X0.7099 Y-0.7838 I0.0634 J-0.1492
G2 X0.6675 Y-0.8178 I-0.3369 J0.3779
X0.5777 Y-0.8676 I-0.659 J1.0818
X0.4991 Y-0.8822 I-0.0754 J0.1865
G1 X0.4879 Y-0.8824
X0.2411
G2 X0.1702 Y-0.8744 I-0.0079 J0.247
G1 X0.1514 Y-0.8674
G2 X0.0841 Y-0.8309 I0.3155 J0.6624
G1 X0.0617 Y-0.8176
X0.0504 Y-0.8101
X0.028 Y-0.7916
X0.0196 Y-0.7845
X-0.0089 Y-0.7588
G3 X-0.0377 Y-0.7504 I-0.0241 J-0.0288
X-0.0651 Y-0.8069 I0.0048 J-0.0372 F300.
G1 X0.0054 Y-0.9191
G3 X0.0392 Y-0.9549 I0.0862 J0.0474
G1 X0.1065 Y-0.9904
X0.1963 Y-1.0105
X0.5215 Y-1.0114
X0.6112 Y-0.9945
X0.6735 Y-0.964
X0.7683 Y-0.9058
X0.8821 Y-0.8257
X0.9477 Y-0.7591
X0.988 Y-0.6947
X1.0139 Y-0.6274
X1.0233 Y-0.4254
G3 X0.9253 Y-0.3693 I-0.0621 J0.0052
G1 Y-0.3694
G3 X0.9095 Y-0.3854 I0.0359 J-0.0509
X0.8992 Y-0.4142 I0.0516 J-0.0348 F50.
G1 X0.8977 Y-0.4367
G2 X0.8759 Y-0.5377 I-1.2846 J0.2251
G1 X0.8677 Y-0.5601
X0.8628 Y-0.5713
X0.8378 Y-0.6274
G2 X0.8017 Y-0.6835 I-0.2768 J0.1384
G1 X0.7772 Y-0.7172
X0.7683 Y-0.7285
X0.757 Y-0.7402
X0.7468 Y-0.7508
X0.71 Y-0.7839
G3 X0.6985 Y-0.8117 I0.026 J-0.027
X0.757 Y-0.8419 I0.0375 J0.0008 F300.
G1 X0.8692 Y-0.789
G3 X0.9043 Y-0.762 I-0.0409 J0.0895
G1 X0.9371 Y-0.7172
X0.9861 Y-0.6162
X1.0071 Y-0.5489
X1.0247 Y-0.4591
X1.0288 Y-0.3469
X1.0258 Y-0.2908
X0.9901 Y-0.1337
X0.9539 Y-0.0328
X0.9082 Y0.0528
X0.8691 Y0.1019
X0.8243 Y0.147
X0.7907 Y0.173
X0.6112 Y0.2378
G3 X0.5417 Y0.1396 I-0.0215 J-0.0585
X0.5664 Y0.1215 I0.048 J0.0397 F50.
G1 X0.5776 Y0.1175
G2 X0.6448 Y0.081 I-0.3155 J-0.6624
G1 X0.6673 Y0.0676
X0.6785 Y0.0602
G2 X0.7685 Y-0.0214 I-0.5509 J-0.6975
X0.8324 Y-0.1112 I-0.9492 J-0.7434
G1 X0.8378 Y-0.1225
X0.8628 Y-0.1786
X0.8677 Y-0.1898
X0.8707 Y-0.1982
G3 X0.8921 Y-0.2193 I0.0348 J0.0139
G1 X0.8963 Y-0.2209 Z1.1623
X0.9005 Y-0.2225 Z1.1631
X0.9045 Y-0.224 Z1.1645
X0.9084 Y-0.2255 Z1.1663
X0.912 Y-0.2269 Z1.1687
X0.9153 Y-0.2282 Z1.1715
X0.9183 Y-0.2293 Z1.1747
X0.9209 Y-0.2303 Z1.1782
X0.9231 Y-0.2312 Z1.1821
X0.9248 Y-0.2318 Z1.1862
X0.9261 Y-0.2323 Z1.1906
X0.9268 Y-0.2326 Z1.195
X0.9271 Y-0.2327 Z1.1995
G0 Z2.932
(2D CONTOUR1)
G64 P0.0004 Q0.0004
G0 X1.009 Y-0.3375
Z2.932
Z2.532
G1 Z2.3713 F80.
Z1.1995
G18 G3 X0.9715 Z1.162 I-0.0375 K0. F50.
G1 X0.934
G17 G3 X0.8965 Y-0.375 I0. J-0.0375
G2 X0.58 Y-0.8613 I-0.532 J0.
X0.504 Y-0.8774 I-0.076 J0.1714
G1 X0.2249
G2 X0.149 Y-0.8613 I0. J0.1875
Y0.1114 I0.2155 J0.4864
X0.2249 Y0.1275 I0.076 J-0.1714
G1 X0.504
G2 X0.58 Y0.1114 I0. J-0.1875
Y-0.8613 I-0.2155 J-0.4864
X0.504 Y-0.8774 I-0.076 J0.1714
G1 X0.2249
G2 X0.149 Y-0.8613 I0. J0.1875
Y0.1114 I0.2155 J0.4864
X0.2249 Y0.1275 I0.076 J-0.1714
G1 X0.504
G2 X0.58 Y0.1114 I0. J-0.1875
X0.8965 Y-0.375 I-0.2155 J-0.4864
G3 X0.934 Y-0.4125 I0.0375 J0.
G1 X0.9715
G18 G2 X1.009 Z1.1995 I0. K0.0375
G0 Z2.932
G17
M5
G53 G0 Z0.
(DRILL1)
M9
M1
T51 M6
T12
S5000 M3
G17 G90 G94
G54
M8
G0 X0.3645 Y-0.375
G43 Z2.932 H51
G0 Z2.532
Z2.492
G1 Z2.172 F25.
G0 Z2.492
Z2.252
G1 Z2.052 F25.
G0 Z2.492
Z2.132
G1 Z1.932 F25.
G0 Z2.492
Z2.012
G1 Z1.812 F25.
G0 Z2.492
Z1.892
G1 Z1.692 F25.
G0 Z2.492
Z1.772
G1 Z1.572 F25.
G0 Z2.492
Z1.652
G1 Z1.452 F25.
G0 Z2.492
Z1.532
G1 Z1.332 F25.
G0 Z2.492
Z1.412
G1 Z1.212 F25.
G0 Z2.492
Z1.292
G1 Z1.092 F25.
G0 Z2.492
Z1.172
G1 Z1.0796 F25.
G4 P0.05
G0 Z2.532
Z2.932
M5
G53 G0 Z0.
(2D CHAMFER1)
M9
M1
T12 M6
T36
S7500 M3
G17 G90 G94
G54
G64 P0.0004 Q0.0004
M8
G0 X0.4229 Y-0.375
G43 Z2.932 H12
G0 Z2.532
G1 Z2.412 F80.
Z2.242
G3 X0.3061 I-0.0584 J0. F40.
X0.4229 I0.0584 J0.
G0 Z2.532
X0.749
G1 Z2.412 F80.
Z2.242
G2 X0.5202 Y-0.7265 I-0.3845 J0. F40.
X0.504 Y-0.7299 I-0.0162 J0.0366
G1 X0.2249
G2 X0.2087 Y-0.7265 I0. J0.04
Y-0.0234 I0.1557 J0.3515
X0.2249 Y-0.02 I0.0162 J-0.0366
G1 X0.504
G2 X0.5202 Y-0.0234 I0. J-0.04
X0.749 Y-0.375 I-0.1557 J-0.3515
G0 Z2.932
(2D CONTOUR3)
G0 X0.3809 Y-0.389
Z2.932
Z2.532
G1 Z2.3713 F80.
Z2.216
G18 G2 X0.3949 Z2.202 I0.014 K0. F20.
G1 X0.4089
G17 G3 X0.4229 Y-0.375 I0. J0.014
X0.3061 I-0.0584 J0.
X0.4229 I0.0584 J0.
X0.3061 I-0.0584 J0.
X0.4229 I0.0584 J0.
X0.4089 Y-0.361 I-0.014 J0.
G1 X0.3949
G18 G3 X0.3809 Z2.216 I0. K0.014
G0 Z2.932
G17
M5
M9
G53 G0 Z0.
M30
%
