%
(18MM SPREADER 2,332 OP3 JUST HOLES)
(T12 D=0.2362 CR=0. TAPER=45DEG - ZMIN=2.202 - CHAMFER MILL)
(T51 D=0.201 CR=0. TAPER=118DEG - ZMIN=2.227 - DRILL)
(T101 D=0.1 CR=0. TAPER=135DEG - ZMIN=1.1013 - DRILL)
G90 G94 G17 G91.1
G20
G53 G0 Z0.
(DRILL2 3)
T51 M6
T101
S5000 M3
G17 G90 G94
G54
M8
G0 X0.2362 Y-0.1274
G43 Z2.892 H51
G0 Z2.492
G98 G81 X0.2362 Y-0.1274 Z2.227 R2.452 F25.
X0.4528
X0.561 Y-0.315
X0.4528 Y-0.5025
X0.2362
X0.128 Y-0.315
G80
G0 Z2.892
M5
G53 G0 Z0.
(DRILL3 3)
M9
M1
T101 M6
T12
S2500 M3
G17 G90 G94
G54
M8
G0 X0.2362 Y-0.1274
G43 Z2.892 H101
G0 Z2.492
Z2.452
G1 Z2.052 F7.5
G0 Z2.452
Z2.132
G1 Z1.922 F7.5
G0 Z2.452
Z2.002
G1 Z1.862 F7.5
G0 Z2.452
Z1.942
G1 Z1.802 F7.5
G0 Z2.452
Z1.882
G1 Z1.742 F7.5
G0 Z2.452
Z1.822
G1 Z1.682 F7.5
G0 Z2.452
Z1.762
G1 Z1.622 F7.5
G0 Z2.452
Z1.702
G1 Z1.562 F7.5
G0 Z2.452
Z1.642
G1 Z1.502 F7.5
G0 Z2.452
Z1.582
G1 Z1.442 F7.5
G0 Z2.452
Z1.522
G1 Z1.382 F7.5
G0 Z2.452
Z1.462
G1 Z1.322 F7.5
G0 Z2.452
Z1.402
G1 Z1.262 F7.5
G0 Z2.452
Z1.342
G1 Z1.202 F7.5
G0 Z2.452
Z1.282
G1 Z1.142 F7.5
G0 Z2.452
Z1.222
G1 Z1.1013 F7.5
G4 P0.05
G0 Z2.492
X0.4528
Z2.452
G1 Z2.052 F7.5
G0 Z2.452
Z2.132
G1 Z1.922 F7.5
G0 Z2.452
Z2.002
G1 Z1.862 F7.5
G0 Z2.452
Z1.942
G1 Z1.802 F7.5
G0 Z2.452
Z1.882
G1 Z1.742 F7.5
G0 Z2.452
Z1.822
G1 Z1.682 F7.5
G0 Z2.452
Z1.762
G1 Z1.622 F7.5
G0 Z2.452
Z1.702
G1 Z1.562 F7.5
G0 Z2.452
Z1.642
G1 Z1.502 F7.5
G0 Z2.452
Z1.582
G1 Z1.442 F7.5
G0 Z2.452
Z1.522
G1 Z1.382 F7.5
G0 Z2.452
Z1.462
G1 Z1.322 F7.5
G0 Z2.452
Z1.402
G1 Z1.262 F7.5
G0 Z2.452
Z1.342
G1 Z1.202 F7.5
G0 Z2.452
Z1.282
G1 Z1.142 F7.5
G0 Z2.452
Z1.222
G1 Z1.1013 F7.5
G4 P0.05
G0 Z2.492
X0.561 Y-0.315
Z2.452
G1 Z2.052 F7.5
G0 Z2.452
Z2.132
G1 Z1.922 F7.5
G0 Z2.452
Z2.002
G1 Z1.862 F7.5
G0 Z2.452
Z1.942
G1 Z1.802 F7.5
G0 Z2.452
Z1.882
G1 Z1.742 F7.5
G0 Z2.452
Z1.822
G1 Z1.682 F7.5
G0 Z2.452
Z1.762
G1 Z1.622 F7.5
G0 Z2.452
Z1.702
G1 Z1.562 F7.5
G0 Z2.452
Z1.642
G1 Z1.502 F7.5
G0 Z2.452
Z1.582
G1 Z1.442 F7.5
G0 Z2.452
Z1.522
G1 Z1.382 F7.5
G0 Z2.452
Z1.462
G1 Z1.322 F7.5
G0 Z2.452
Z1.402
G1 Z1.262 F7.5
G0 Z2.452
Z1.342
G1 Z1.202 F7.5
G0 Z2.452
Z1.282
G1 Z1.142 F7.5
G0 Z2.452
Z1.222
G1 Z1.1013 F7.5
G4 P0.05
G0 Z2.492
X0.4528 Y-0.5025
Z2.452
G1 Z2.052 F7.5
G0 Z2.452
Z2.132
G1 Z1.922 F7.5
G0 Z2.452
Z2.002
G1 Z1.862 F7.5
G0 Z2.452
Z1.942
G1 Z1.802 F7.5
G0 Z2.452
Z1.882
G1 Z1.742 F7.5
G0 Z2.452
Z1.822
G1 Z1.682 F7.5
G0 Z2.452
Z1.762
G1 Z1.622 F7.5
G0 Z2.452
Z1.702
G1 Z1.562 F7.5
G0 Z2.452
Z1.642
G1 Z1.502 F7.5
G0 Z2.452
Z1.582
G1 Z1.442 F7.5
G0 Z2.452
Z1.522
G1 Z1.382 F7.5
G0 Z2.452
Z1.462
G1 Z1.322 F7.5
G0 Z2.452
Z1.402
G1 Z1.262 F7.5
G0 Z2.452
Z1.342
G1 Z1.202 F7.5
G0 Z2.452
Z1.282
G1 Z1.142 F7.5
G0 Z2.452
Z1.222
G1 Z1.1013 F7.5
G4 P0.05
G0 Z2.492
X0.2362
Z2.452
G1 Z2.052 F7.5
G0 Z2.452
Z2.132
G1 Z1.922 F7.5
G0 Z2.452
Z2.002
G1 Z1.862 F7.5
G0 Z2.452
Z1.942
G1 Z1.802 F7.5
G0 Z2.452
Z1.882
G1 Z1.742 F7.5
G0 Z2.452
Z1.822
G1 Z1.682 F7.5
G0 Z2.452
Z1.762
G1 Z1.622 F7.5
G0 Z2.452
Z1.702
G1 Z1.562 F7.5
G0 Z2.452
Z1.642
G1 Z1.502 F7.5
G0 Z2.452
Z1.582
G1 Z1.442 F7.5
G0 Z2.452
Z1.522
G1 Z1.382 F7.5
G0 Z2.452
Z1.462
G1 Z1.322 F7.5
G0 Z2.452
Z1.402
G1 Z1.262 F7.5
G0 Z2.452
Z1.342
G1 Z1.202 F7.5
G0 Z2.452
Z1.282
G1 Z1.142 F7.5
G0 Z2.452
Z1.222
G1 Z1.1013 F7.5
G4 P0.05
G0 Z2.492
X0.128 Y-0.315
Z2.452
G1 Z2.052 F7.5
G0 Z2.452
Z2.132
G1 Z1.922 F7.5
G0 Z2.452
Z2.002
G1 Z1.862 F7.5
G0 Z2.452
Z1.942
G1 Z1.802 F7.5
G0 Z2.452
Z1.882
G1 Z1.742 F7.5
G0 Z2.452
Z1.822
G1 Z1.682 F7.5
G0 Z2.452
Z1.762
G1 Z1.622 F7.5
G0 Z2.452
Z1.702
G1 Z1.562 F7.5
G0 Z2.452
Z1.642
G1 Z1.502 F7.5
G0 Z2.452
Z1.582
G1 Z1.442 F7.5
G0 Z2.452
Z1.522
G1 Z1.382 F7.5
G0 Z2.452
Z1.462
G1 Z1.322 F7.5
G0 Z2.452
Z1.402
G1 Z1.262 F7.5
G0 Z2.452
Z1.342
G1 Z1.202 F7.5
G0 Z2.452
Z1.282
G1 Z1.142 F7.5
G0 Z2.452
Z1.222
G1 Z1.1013 F7.5
G4 P0.05
G0 Z2.492
Z2.892
M5
G53 G0 Z0.
(2D CHAMFER1 3)
M9
M1
T12 M6
T51
S7500 M3
G17 G90 G94
G54
G64 P0.0004 Q0.0004
M8
G0 X0.275 Y-0.5025
G43 Z2.892 H12
G0 Z2.492
G1 Z2.372 F80.
Z2.202
G3 X0.1975 I-0.0387 J0. F40.
X0.275 I0.0387 J0.
G0 Z2.492
X0.4913 Y-0.5065
G1 Z2.372 F80.
Z2.202
G3 X0.4142 Y-0.4984 I-0.0385 J0.004 F40.
X0.4913 Y-0.5065 I0.0385 J-0.004
G0 Z2.492
X0.5946 Y-0.2956
G1 Z2.372 F80.
Z2.202
G3 X0.5275 Y-0.3343 I-0.0335 J-0.0194 F40.
X0.5946 Y-0.2956 I0.0335 J0.0194
G0 Z2.492
X0.4915 Y-0.1274
G1 Z2.372 F80.
Z2.202
G3 X0.414 I-0.0387 J0. F40.
X0.4915 I0.0387 J0.
G0 Z2.492
X0.275
G1 Z2.372 F80.
Z2.202
G3 X0.1975 I-0.0387 J0. F40.
X0.275 I0.0387 J0.
G0 Z2.492
X0.1667 Y-0.315
G1 Z2.372 F80.
Z2.202
G3 X0.0892 I-0.0387 J0. F40.
X0.1667 I0.0387 J0.
G0 Z2.892
M5
M9
G53 G0 Z0.
M30
%
