%
(FIXTURE PLATE SETUP)
(T32 D=0.1875 CR=0. - ZMIN=-0.4924 - FLAT END MILL)
(T35 D=0.375 CR=0. - ZMIN=0. - FLAT END MILL)
(T51 D=0.201 CR=0. TAPER=118DEG - ZMIN=-0.5828 - DRILL)
G90 G94 G17 G91.1
G20
G53 G0 Z0.
(DRILL4)
T51 M6
T32
S5000 M3
G17 G90 G94
G54
M8
G0 X2.0818 Y-4.1082
G43 Z0.6 H51
G0 Z0.2
G98 G81 X2.0818 Y-4.1082 Z-0.5828 R0.2 F25.
X6.2748 Y-3.8468
X5.0044 Y-0.5008
X9.1802 Y-0.9622
G80
G0 Z0.6
M5
G53 G0 Z0.
(2D CONTOUR6)
M9
M1
T32 M6
T35
S7500 M3
G17 G90 G94
G54
G64 P0.0004 Q0.0004
M8
G0 X6.2804 Y-3.8464
G43 Z0.6 H32
G0 Z0.2
G1 Z0.0375 F20.
Z-0.0985
X6.2991 Y-3.8453 F10.
G3 X6.2505 Y-3.8483 I-0.0243 J-0.0015
X6.2991 Y-3.8453 I0.0243 J0.0015
G1 X6.2804 Y-3.8464
Z-0.197 F20.
X6.2991 Y-3.8453 F10.
G3 X6.2505 Y-3.8483 I-0.0243 J-0.0015
X6.2991 Y-3.8453 I0.0243 J0.0015
G1 X6.2804 Y-3.8464
Z-0.2955 F20.
X6.2991 Y-3.8453 F10.
G3 X6.2505 Y-3.8483 I-0.0243 J-0.0015
X6.2991 Y-3.8453 I0.0243 J0.0015
G1 X6.2804 Y-3.8464
Z-0.394 F20.
X6.2991 Y-3.8453 F10.
G3 X6.2505 Y-3.8483 I-0.0243 J-0.0015
X6.2991 Y-3.8453 I0.0243 J0.0015
G1 X6.2804 Y-3.8464
Z-0.4924 F20.
X6.2991 Y-3.8453 F10.
G3 X6.2505 Y-3.8483 I-0.0243 J-0.0015
X6.2991 Y-3.8453 I0.0243 J0.0015
X6.2505 Y-3.8483 I-0.0243 J-0.0015
X6.2991 Y-3.8453 I0.0243 J0.0015
G1 X6.2804 Y-3.8464
G0 Z0.2
X5.01 Y-0.5005
G1 Z0.0375 F20.
Z-0.0985
X5.0287 Y-0.4993 F10.
G3 X4.9801 Y-0.5024 I-0.0243 J-0.0015
X5.0287 Y-0.4993 I0.0243 J0.0015
G1 X5.01 Y-0.5005
Z-0.197 F20.
X5.0287 Y-0.4993 F10.
G3 X4.9801 Y-0.5024 I-0.0243 J-0.0015
X5.0287 Y-0.4993 I0.0243 J0.0015
G1 X5.01 Y-0.5005
Z-0.2955 F20.
X5.0287 Y-0.4993 F10.
G3 X4.9801 Y-0.5024 I-0.0243 J-0.0015
X5.0287 Y-0.4993 I0.0243 J0.0015
G1 X5.01 Y-0.5005
Z-0.394 F20.
X5.0287 Y-0.4993 F10.
G3 X4.9801 Y-0.5024 I-0.0243 J-0.0015
X5.0287 Y-0.4993 I0.0243 J0.0015
G1 X5.01 Y-0.5005
Z-0.4924 F20.
X5.0287 Y-0.4993 F10.
G3 X4.9801 Y-0.5024 I-0.0243 J-0.0015
X5.0287 Y-0.4993 I0.0243 J0.0015
X4.9801 Y-0.5024 I-0.0243 J-0.0015
X5.0287 Y-0.4993 I0.0243 J0.0015
G1 X5.01 Y-0.5005
G0 Z0.2
X9.1858 Y-0.9618
G1 Z0.0375 F20.
Z-0.0985
X9.2045 Y-0.9606 F10.
G3 X9.1558 Y-0.9637 I-0.0243 J-0.0015
X9.2045 Y-0.9606 I0.0243 J0.0015
G1 X9.1858 Y-0.9618
Z-0.197 F20.
X9.2045 Y-0.9606 F10.
G3 X9.1558 Y-0.9637 I-0.0243 J-0.0015
X9.2045 Y-0.9606 I0.0243 J0.0015
G1 X9.1858 Y-0.9618
Z-0.2955 F20.
X9.2045 Y-0.9606 F10.
G3 X9.1558 Y-0.9637 I-0.0243 J-0.0015
X9.2045 Y-0.9606 I0.0243 J0.0015
G1 X9.1858 Y-0.9618
Z-0.394 F20.
X9.2045 Y-0.9606 F10.
G3 X9.1558 Y-0.9637 I-0.0243 J-0.0015
X9.2045 Y-0.9606 I0.0243 J0.0015
G1 X9.1858 Y-0.9618
Z-0.4924 F20.
X9.2045 Y-0.9606 F10.
G3 X9.1558 Y-0.9637 I-0.0243 J-0.0015
X9.2045 Y-0.9606 I0.0243 J0.0015
X9.1558 Y-0.9637 I-0.0243 J-0.0015
X9.2045 Y-0.9606 I0.0243 J0.0015
G1 X9.1858 Y-0.9618
G0 Z0.2
X2.0873 Y-4.1078
G1 Z0.0375 F20.
Z-0.0985
X2.1061 Y-4.1066 F10.
G3 X2.0574 Y-4.1097 I-0.0243 J-0.0015
X2.1061 Y-4.1066 I0.0243 J0.0015
G1 X2.0873 Y-4.1078
Z-0.197 F20.
X2.1061 Y-4.1066 F10.
G3 X2.0574 Y-4.1097 I-0.0243 J-0.0015
X2.1061 Y-4.1066 I0.0243 J0.0015
G1 X2.0873 Y-4.1078
Z-0.2955 F20.
X2.1061 Y-4.1066 F10.
G3 X2.0574 Y-4.1097 I-0.0243 J-0.0015
X2.1061 Y-4.1066 I0.0243 J0.0015
G1 X2.0873 Y-4.1078
Z-0.394 F20.
X2.1061 Y-4.1066 F10.
G3 X2.0574 Y-4.1097 I-0.0243 J-0.0015
X2.1061 Y-4.1066 I0.0243 J0.0015
G1 X2.0873 Y-4.1078
Z-0.4924 F20.
X2.1061 Y-4.1066 F10.
G3 X2.0574 Y-4.1097 I-0.0243 J-0.0015
X2.1061 Y-4.1066 I0.0243 J0.0015
X2.0574 Y-4.1097 I-0.0243 J-0.0015
X2.1061 Y-4.1066 I0.0243 J0.0015
G1 X2.0873 Y-4.1078
G0 Z0.6
M5
G53 G0 Z0.
(FACE1)
M9
M1
T35 M6
T51
S7500 M3
G17 G90 G94
G54
M8
G0 X10.8434 Y-5.0304
G43 Z0.6 H35
G0 Z0.2
G1 Z0.0375 F80.
G18 G3 X10.8059 Z0. I-0.0375 K0. F70.
G1 X10.7421
X-0.3498
X-0.35
G17 G2 Y-4.7875 I0. J0.1214
G1 X10.7423
G3 Y-4.5447 I0. J0.1214
G1 X-0.35
G2 Y-4.3018 I0. J0.1214
G1 X10.7423
G3 Y-4.059 I0. J0.1214
G1 X-0.35
G2 Y-3.8161 I0. J0.1214
G1 X10.7423
G3 Y-3.5733 I0. J0.1214
G1 X-0.35
G2 Y-3.3304 I0. J0.1214
G1 X10.7423
G3 Y-3.0876 I0. J0.1214
G1 X-0.35
G2 Y-2.8448 I0. J0.1214
G1 X10.7423
G3 Y-2.6019 I0. J0.1214
G1 X-0.35
G2 Y-2.3591 I0. J0.1214
G1 X10.7423
G3 Y-2.1162 I0. J0.1214
G1 X-0.35
G2 Y-1.8734 I0. J0.1214
G1 X10.7423
G3 Y-1.6305 I0. J0.1214
G1 X-0.35
G2 Y-1.3877 I0. J0.1214
G1 X10.7423
G3 Y-1.1448 I0. J0.1214
G1 X-0.35
G2 Y-0.902 I0. J0.1214
G1 X10.7423
G3 Y-0.6592 I0. J0.1214
G1 X-0.35
G2 Y-0.4163 I0. J0.1214
G1 X10.7423
G3 Y-0.1735 I0. J0.1214
G1 X-0.35
G2 Y0.0694 I0. J0.1214
G1 X10.7423
G18 G2 X10.7798 Z0.0375 I0. K0.0375
G0 Z0.6
G17
M5
M9
G53 G0 Z0.
M30
%
