%
(FS BOTTLE CAGE RELOCATOR OP1)
(T12 D=0.2362 CR=0. TAPER=45DEG - ZMIN=0.4 - CHAMFER MILL)
(T33 D=0.25 CR=0. - ZMIN=0.2925 - FLAT END MILL)
(T51 D=0.201 CR=0. TAPER=118DEG - ZMIN=0.2521 - DRILL)
(T101 D=0.1 CR=0. TAPER=135DEG - ZMIN=0.2918 - DRILL)
G90 G94 G17 G91.1
G20
G53 G0 Z0.
(2D CONTOUR1)
T33 M6
T51
S7500 M3
G17 G90 G94
G54
G64 P0.0004 Q0.0004
M8
G0 X0.225 Y0.1469
G43 Z1.1 H33
G0 Z0.7
G1 Z0.5394 F80.
Z0.3175
G19 G2 Y0.1219 Z0.2925 J-0.025 K0. F50.
G1 Y0.0969
G17 G3 X0.25 Y0.0719 I0.025 J0.
G1 X2.75
G2 Y-0.5719 I0. J-0.3219
G1 X0.25
G2 Y0.0719 I0. J0.3219
G1 X2.75
G2 Y-0.5719 I0. J-0.3219
G1 X0.25
G2 Y0.0719 I0. J0.3219
G3 X0.275 Y0.0969 I0. J0.025
G1 Y0.1219
G19 G3 Y0.1469 Z0.3175 J0. K0.025
G0 Z1.1
G17
(FACE1)
G0 X3.1625 Y-0.4556
Z1.1
Z0.7
G1 Z0.495 F80.
G18 G3 X3.1375 Z0.47 I-0.025 K0. F50.
G1 X3.1
X-0.1
G3 X-0.125 Z0.495 I0. K0.025
G0 Z0.7
X3.1625 Y-0.2882
G1 Z0.495 F80.
G3 X3.1375 Z0.47 I-0.025 K0. F50.
G1 X3.1
X-0.1
G3 X-0.125 Z0.495 I0. K0.025
G0 Z0.7
X3.1625 Y-0.1207
G1 Z0.495 F80.
G3 X3.1375 Z0.47 I-0.025 K0. F50.
G1 X3.1
X-0.1
G3 X-0.125 Z0.495 I0. K0.025
G0 Z1.1
G17
M5
G53 G0 Z0.
(DRILL1)
M9
M1
T51 M6
T101
S5000 M3
G17 G90 G94
G54
M8
G0 X1.0374 Y-0.25
G43 Z1.1 H51
G0 Z0.7
G98 G81 X1.0374 Y-0.25 Z0.445 R0.67 F25.
G80
G0 Z1.1
(DRILL2)
G0 X0.25 Y-0.25
Z1.1
Z0.7
G81 X0.25 Y-0.25 Z0.2521 R0.67 F25.
X2.75
G80
G0 Z1.1
M5
G53 G0 Z0.
(DRILL3)
M9
M1
T101 M6
T12
S5000 M3
G17 G90 G94
G54
M8
G0 X1.0374 Y-0.25
G43 Z1.1 H101
G0 Z0.7
G81 X1.0374 Y-0.25 Z0.2918 R0.67 F15.
G80
G0 Z1.1
M5
G53 G0 Z0.
(2D CHAMFER1)
M9
M1
T12 M6
T33
S7500 M3
G17 G90 G94
G54
G64 P0.0004 Q0.0004
M8
G0 X0.25 Y0.0069
G43 Z1.1 H12
G0 Z0.7
G1 Z0.58 F80.
Z0.4
X2.75 F40.
G2 Y-0.5069 I0. J-0.2569
G1 X0.25
G2 Y0.0069 I0. J0.2569
G0 Z0.7
X0.2983 Y-0.25
G1 Z0.58 F80.
Z0.4
G3 X0.2017 I-0.0483 J0. F40.
X0.2983 I0.0483 J0.
G0 Z0.7
X1.0548 Y-0.2354
G1 Z0.58 F80.
Z0.4
G3 X1.02 Y-0.2646 I-0.0174 J-0.0146 F40.
X1.0548 Y-0.2354 I0.0174 J0.0146
G0 Z0.7
X2.7983 Y-0.25
G1 Z0.58 F80.
Z0.4
G3 X2.7017 I-0.0483 J0. F40.
X2.7983 I0.0483 J0.
G0 Z1.1
M5
M9
G53 G0 Z0.
M30
%
