%
(FS BOTTLE CAGE RELOCATOR OP2)
(T12 D=0.2362 CR=0. TAPER=45DEG - ZMIN=0.1375 - CHAMFER MILL)
(T33 D=0.25 CR=0. - ZMIN=0.1575 - FLAT END MILL)
G90 G94 G17 G91.1
G20
G53 G0 Z0.
(ADAPTIVE1)
T33 M6
T12
S7500 M3
G17 G90 G94
G54
G64 P0.004 Q0.004
M8
G0 X-0.0784 Y-0.7351
G43 Z1.07 H33
G0 Z0.67
Z0.2075
G1 Z0.1825 F50.
X-0.0783 Y-0.7348 Z0.1786
X-0.0781 Y-0.7339 Z0.1748
X-0.0777 Y-0.7324 Z0.1711
X-0.0772 Y-0.7304 Z0.1678
X-0.0766 Y-0.728 Z0.1648
X-0.0758 Y-0.7251 Z0.1623
X-0.075 Y-0.7218 Z0.1602
X-0.0741 Y-0.7183 Z0.1587
X-0.0732 Y-0.7146 Z0.1578
X-0.0722 Y-0.7109 Z0.1575
G3 X-0.0526 Y-0.5748 I-0.6183 J0.1584
G1 Y-0.5662
X-0.0742 Y-0.5372
X-0.0905 Y-0.5048
X-0.1023 Y-0.4706
X-0.1106 Y-0.4354
X-0.1163 Y-0.3997
X-0.1201 Y-0.3637
X-0.1226 Y-0.3276
X-0.1243 Y-0.2915
X-0.1254 Y-0.2553
X-0.1261 Y-0.2191
X-0.1266 Y-0.183
X-0.1269 Y-0.1468
X-0.1271 Y-0.1106
X-0.1273 Y-0.0744
X-0.1274 Y-0.0382
X-0.1252 Y-0.0203
X-0.1142 Y0.0142
X-0.0932 Y0.0436
X-0.0658 Y0.0673
X-0.0344 Y0.0853
X-0.0007 Y0.0985
X0.0342 Y0.1079
X0.0698 Y0.1144
X0.1057 Y0.1188
X0.1418 Y0.1217
X0.1779 Y0.1236
X0.2141 Y0.1249
X0.2502 Y0.1257
X0.2864 Y0.1262
X0.3226 Y0.1266
X0.3588 Y0.1268
X0.395 Y0.1269
X0.4673 Y0.1271
X0.6121 Y0.1272
X1.2271 Y0.1273
X2.8553 Y0.1276
X2.8733 Y0.1255
X2.9078 Y0.1145
X2.9373 Y0.0936
X2.9609 Y0.0662
X2.979 Y0.0349
X2.9923 Y0.0012
X3.0017 Y-0.0337
X3.0083 Y-0.0693
X3.0127 Y-0.1052
X3.0156 Y-0.1413
X3.0176 Y-0.1774
X3.0189 Y-0.2136
X3.0197 Y-0.2497
X3.0203 Y-0.2859
X3.0206 Y-0.3221
X3.0209 Y-0.3583
X3.0154 Y-0.394
X2.998 Y-0.4258
X2.9729 Y-0.4518
X2.943 Y-0.4721
X2.9101 Y-0.4872
X2.8756 Y-0.4981
X2.8402 Y-0.5057
X2.8044 Y-0.5109
X2.7684 Y-0.5144
X2.7323 Y-0.5166
X2.6961 Y-0.5181
X2.66 Y-0.5191
X2.6238 Y-0.5197
X2.5876 Y-0.5201
X2.5514 Y-0.5204
X2.5152 Y-0.5206
X2.4429 Y-0.5207
X2.3343 Y-0.5209
X1.5745 Y-0.521
X1.3212 Y-0.5211
X0.0911 Y-0.5213
X0.0562 Y-0.5116
X0.0253 Y-0.4929
X-0.0006 Y-0.4676
X-0.0213 Y-0.4379
X-0.0373 Y-0.4054
X-0.0492 Y-0.3713
X-0.0579 Y-0.3361
X-0.064 Y-0.3005
X-0.0683 Y-0.2645
X-0.0713 Y-0.2285
X-0.0733 Y-0.1924
X-0.0747 Y-0.1562
X-0.0757 Y-0.12
X-0.0705 Y-0.0842
X-0.0566 Y-0.0508
X-0.0353 Y-0.0215
X-0.0087 Y0.0029
X0.0217 Y0.0225
X0.0545 Y0.0377
X0.0889 Y0.0492
X0.1241 Y0.0576
X0.1597 Y0.0636
X0.1957 Y0.0679
X0.2317 Y0.0709
X0.2679 Y0.0729
X0.304 Y0.0743
X0.3402 Y0.0752
X0.3764 Y0.0759
X0.4125 Y0.0763
X0.4487 Y0.0766
X0.4849 Y0.0768
X0.5211 Y0.0769
X0.5934 Y0.0771
X0.7382 Y0.0772
X2.1131 Y0.0775
X2.7644 Y0.0776
X2.8004 Y0.0746
X2.8346 Y0.0626
X2.865 Y0.043
X2.8907 Y0.0175
X2.9115 Y-0.012
X2.9279 Y-0.0443
X2.9403 Y-0.0783
X2.9494 Y-0.1133
X2.9561 Y-0.1489
X2.9608 Y-0.1847
X2.9641 Y-0.2208
X2.9664 Y-0.2569
X2.9662 Y-0.2931
X2.9565 Y-0.3279
X2.9386 Y-0.3593
X2.9143 Y-0.3861
X2.8854 Y-0.408
X2.8536 Y-0.4252
X2.8198 Y-0.4382
X2.785 Y-0.4479
X2.7495 Y-0.4549
X2.7137 Y-0.4599
X2.6776 Y-0.4634
X2.6415 Y-0.4658
X2.6054 Y-0.4675
X2.5692 Y-0.4686
X2.5331 Y-0.4693
X2.4969 Y-0.4699
X2.4607 Y-0.4702
X2.4245 Y-0.4704
X2.3883 Y-0.4706
X2.316 Y-0.4708
X2.2074 Y-0.4709
X2.1712
X0.1812 Y-0.4713
X0.1454 Y-0.4662
X0.1117 Y-0.453
X0.0817 Y-0.4328
X0.0562 Y-0.4072
X0.0353 Y-0.3776
X0.0188 Y-0.3454
X0.0061 Y-0.3116
X-0.0035 Y-0.2767
X-0.0105 Y-0.2412
X-0.0156 Y-0.2054
X-0.0158 Y-0.1692
X-0.0077 Y-0.1339
X0.0084 Y-0.1015
X0.0309 Y-0.0731
X0.0581 Y-0.0493
X0.0887 Y-0.0301
X0.1216 Y-0.0149
X0.1559 Y-0.0033
X0.191 Y0.0054
X0.2266 Y0.0117
X0.2625 Y0.0163
X0.2985 Y0.0196
X0.3346 Y0.022
X0.3708 Y0.0236
X0.4069 Y0.0247
X0.4431 Y0.0255
X0.4793 Y0.026
X0.5155 Y0.0264
X0.5516 Y0.0267
X0.5878 Y0.0268
X0.6602 Y0.027
X0.7687 Y0.0272
X1.1306 Y0.0273
X1.4924 Y0.0274
X2.6864 Y0.0276
X2.7225 Y0.0257
X2.7576 Y0.0167
X2.7899 Y0.0005
X2.8183 Y-0.0219
X2.8423 Y-0.049
X2.8619 Y-0.0794
X2.8774 Y-0.1121
X2.8893 Y-0.1463
X2.8983 Y-0.1813
X2.902 Y-0.2173
X2.8966 Y-0.2531
X2.8826 Y-0.2864
X2.8616 Y-0.3159
X2.8352 Y-0.3407
X2.8052 Y-0.3609
X2.7727 Y-0.3767
X2.7386 Y-0.3889
X2.7036 Y-0.398
X2.668 Y-0.4047
X2.6322 Y-0.4096
X2.5962 Y-0.413
X2.5601 Y-0.4154
X2.5239 Y-0.4171
X2.4878 Y-0.4183
X2.4516 Y-0.4191
X2.4154 Y-0.4197
X2.3792 Y-0.4201
X2.3431 Y-0.4203
X2.3069 Y-0.4205
X2.2345 Y-0.4207
X2.126 Y-0.4209
X1.8003 Y-0.421
X0.5701 Y-0.4212
X0.2807 Y-0.4213
X0.2445 Y-0.4209
X0.2087 Y-0.4153
X0.1748 Y-0.4027
X0.1442 Y-0.3835
X0.1176 Y-0.3589
X0.0954 Y-0.3303
X0.0774 Y-0.2989
X0.0641 Y-0.2653
X0.0594 Y-0.2294
X0.0644 Y-0.1936
X0.0782 Y-0.1602
X0.0991 Y-0.1306
X0.1253 Y-0.1056
X0.1552 Y-0.0853
X0.1876 Y-0.0691
X0.2216 Y-0.0566
X0.2565 Y-0.0473
X0.292 Y-0.0403
X0.3278 Y-0.0352
X0.3638 Y-0.0316
X0.3999 Y-0.0289
X0.436 Y-0.0271
X0.4722 Y-0.0258
X0.5084 Y-0.0249
X0.5445 Y-0.0242
X0.5807 Y-0.0238
X0.6169 Y-0.0235
X0.6531 Y-0.0233
X0.6893 Y-0.0231
X0.7616 Y-0.0229
X0.8702 Y-0.0228
X1.232 Y-0.0227
X1.3405
X2.6069 Y-0.0224
X2.6431 Y-0.023
X2.6789 Y-0.0284
X2.7129 Y-0.0406
X2.7439 Y-0.0593
X2.7711 Y-0.0832
X2.7937 Y-0.1114
X2.8087 Y-0.1443
X2.8123 Y-0.1803
X2.8051 Y-0.2158
X2.7889 Y-0.2481
X2.7659 Y-0.2761
X2.738 Y-0.2992
X2.7069 Y-0.3176
X2.6737 Y-0.332
X2.6392 Y-0.3429
X2.6039 Y-0.3509
X2.5682 Y-0.3568
X2.5323 Y-0.361
X2.4962 Y-0.364
X2.4601 Y-0.3661
X2.4239 Y-0.3676
X2.3878 Y-0.3686
X2.3516 Y-0.3693
X2.3154 Y-0.3698
X2.2792 Y-0.3702
X2.243 Y-0.3704
X2.2069 Y-0.3706
X2.1345 Y-0.3708
X2.026 Y-0.3709
X1.6641 Y-0.371
X0.4701 Y-0.3712
X0.434 Y-0.3713
X0.4139 Y-0.3704
X0.4016 Y-0.37
X0.3875 Y-0.3695
X0.3612 Y-0.3688
X0.325 Y-0.368
X0.289 Y-0.3648
X0.254 Y-0.3556
X0.2214 Y-0.3398
X0.2146 Y-0.3339
X0.2084 Y-0.3273
X0.2029 Y-0.3202
X0.1981 Y-0.3125
X0.194 Y-0.3044
X0.1908 Y-0.2959
X0.1885 Y-0.2872
X0.187 Y-0.2783
X0.1864 Y-0.2692
X0.1867 Y-0.2602
X0.1879 Y-0.2512
X0.1962 Y-0.216
X0.2149 Y-0.185
X0.2401 Y-0.1591
X0.2697 Y-0.1382
X0.302 Y-0.1219
X0.336 Y-0.1096
X0.371 Y-0.1004
X0.4066 Y-0.0937
X0.4424 Y-0.0888
X0.4784 Y-0.0854
X0.5145 Y-0.0829
X0.5507 Y-0.0812
X0.5868 Y-0.08
X0.623 Y-0.0792
X0.6592 Y-0.0786
X0.6954 Y-0.0782
X0.7315 Y-0.0779
X0.7677 Y-0.0777
X0.8039 Y-0.0776
X0.8763 Y-0.0774
X1.021 Y-0.0773
X1.7446 Y-0.0771
X2.5406 Y-0.0769
X2.5768 Y-0.0776
X2.5948 Y-0.0799
X2.6036 Y-0.0818
X2.6123 Y-0.0842
X2.6208 Y-0.0874
X2.6289 Y-0.0915
X2.6365 Y-0.0963
X2.6437 Y-0.1018
X2.6502 Y-0.1081
X2.6561 Y-0.1149
X2.6614 Y-0.1223
X2.6658 Y-0.1302
X2.6695 Y-0.1384
X2.6723 Y-0.147
X2.6743 Y-0.1559
X2.6754 Y-0.1648
X2.6756 Y-0.1739
X2.6749 Y-0.1829
X2.6733 Y-0.1918
X2.6708 Y-0.2005
X2.6675 Y-0.2089
X2.6634 Y-0.217
X2.6586 Y-0.2246
X2.6529 Y-0.2317
X2.6467 Y-0.2382
X2.6191 Y-0.2616
X2.586 Y-0.2762
X2.5515 Y-0.2872
X2.5163 Y-0.2954
X2.4806 Y-0.3015
X2.4447 Y-0.3058
X2.4086 Y-0.309
X2.3725 Y-0.3112
X2.3364 Y-0.3128
X2.3002 Y-0.3139
X2.264 Y-0.3146
X2.2278 Y-0.3152
X2.1917 Y-0.3156
X2.1555 Y-0.3158
X2.1193 Y-0.316
X2.0469 Y-0.3162
X1.9384 Y-0.3164
X1.7213 Y-0.3165
X0.5273 Y-0.3167
X0.4911 Y-0.3166
X0.4549 Y-0.316
X0.4368 Y-0.3157
G3 X0.4135 Y-0.3329 I0.0004 J-0.025
G1 X0.4123 Y-0.3366 Z0.1578
X0.4111 Y-0.3402 Z0.1587
X0.4099 Y-0.3436 Z0.1602
X0.4089 Y-0.3468 Z0.1623
X0.408 Y-0.3496 Z0.1648
X0.4072 Y-0.3521 Z0.1678
X0.4065 Y-0.354 Z0.1711
X0.4061 Y-0.3554 Z0.1748
X0.4058 Y-0.3563 Z0.1786
X0.4057 Y-0.3566 Z0.1825
G0 Z1.07
M5
G53 G0 Z0.
(2D CHAMFER1 2)
M9
M1
T12 M6
T33
S7500 M3
G17 G90 G94
G54
G64 P0.0004 Q0.0004
M8
G0 X0.1969 Y0.01
G43 Z1.07 H12
G0 Z0.67
G1 Z0.55 F80.
Z0.1375
X2.6969 F10.
G2 Y-0.4037 I0. J-0.2069
G1 X0.1969
G2 Y0.01 I0. J0.2069
G0 Z0.67
X0.2951 Y-0.1969
G1 Z0.55 F80.
Z0.1375
G3 X0.0986 I-0.0983 J0. F10.
X0.2951 I0.0983 J0.
G0 Z0.67
X1.055 Y-0.1801
G1 Z0.55 F80.
Z0.1375
G3 X0.9135 Y-0.2136 I-0.0707 J-0.0168 F10.
X1.055 Y-0.1801 I0.0707 J0.0168
G0 Z0.67
X2.7951 Y-0.1969
G1 Z0.55 F80.
Z0.1375
G3 X2.5986 I-0.0983 J0. F10.
X2.7951 I0.0983 J0.
G0 Z1.07
M5
M9
G53 G0 Z0.
M30
%
