%
(NEEDLE BEARING PRESS TOOL OP1)
(T12 D=0.2362 CR=0. TAPER=45DEG - ZMIN=0.5838 - CHAMFER MILL)
(T33 D=0.25 CR=0. - ZMIN=0.16 - FLAT END MILL)
(T53 D=0.264 CR=0. TAPER=118DEG - ZMIN=0.0807 - DRILL)
G90 G94 G17 G91.1
G20
G53 G0 Z0.
(DRILL1)
T53 M6
T33
S5000 M3
G17 G90 G94
G54
M8
G0 X2.3708 Y-0.5037
G43 Z1.7255 H53
G0 Z1.3255
G1 Z0.5255 F30.
G0 Z1.3255
Z0.6055
G1 Z0.0807 F30.
G4 P0.05
G0 Z1.3255
X1.487
G1 Z0.5255 F30.
G0 Z1.3255
Z0.6055
G1 Z0.0807 F30.
G4 P0.05
G0 Z1.3255
X0.5037
G1 Z0.5255 F30.
G0 Z1.3255
Z0.6055
G1 Z0.0807 F30.
G4 P0.05
G0 Z1.3255
Z1.7255
M5
G53 G0 Z0.
(ADAPTIVE1)
M9
M1
T33 M6
T12
S7500 M3
G17 G90 G94
G54
G64 P0.004 Q0.004
M8
G0 X2.9666 Y0.2171
G43 Z1.7255 H33
G0 Z0.6918
G1 Z0.6668 F50.
X2.9664 Y0.2169 Z0.6629
X2.9656 Y0.2163 Z0.6591
X2.9645 Y0.2153 Z0.6555
X2.9629 Y0.214 Z0.6521
X2.9609 Y0.2124 Z0.6491
X2.9586 Y0.2106 Z0.6466
X2.956 Y0.2085 Z0.6445
X2.9532 Y0.2062 Z0.643
X2.9502 Y0.2038 Z0.6421
X2.9472 Y0.2013 Z0.6418
G3 X2.8502 Y0.1038 I0.4014 J-0.4962
G1 X2.8475 Y0.1002
G2 X2.8492 Y-0.2616 I-22.4928 J-0.2875
G1 X2.8496 Y-0.9129
X2.8481 Y-0.9309
X2.8381 Y-0.9657
X2.8178 Y-0.9956
X2.7908 Y-1.0197
X2.7597 Y-1.0382
X2.7262 Y-1.0518
X2.6913 Y-1.0615
G2 X2.5477 Y-1.0776 I-0.1618 J0.7931
X2.2583 Y-1.0811 I-0.2301 J7.0627
G1 X2.1135 Y-1.0814
X1.9688 Y-1.0815
X0.0873 Y-1.0819
X0.0517 Y-1.0759
X0.0201 Y-1.0583
X-0.0058 Y-1.033
X-0.0259 Y-1.0029
X-0.0409 Y-0.97
X-0.0516 Y-0.9354
G2 X-0.0698 Y-0.7921 I0.708 J0.1627
X-0.0739 Y-0.5027 I6.2187 J0.2321
G1 X-0.0743 Y-0.3941
X-0.0745 Y-0.0866
X-0.0682 Y-0.0509
X-0.0503 Y-0.0195
X-0.0249 Y0.0062
X0.0053 Y0.0262
X0.0383 Y0.0411
X0.0729 Y0.0518
G2 X0.2162 Y0.0698 I0.1624 J-0.7139
X0.5056 Y0.0737 I0.2301 J-6.2766
G1 X0.6142 Y0.074
X0.8674 Y0.0741
X2.6404 Y0.0745
X2.6758 Y0.0674
X2.707 Y0.049
X2.7324 Y0.0233
X2.7521 Y-0.0071
X2.7668 Y-0.0402
X2.7773 Y-0.0748
G2 X2.7951 Y-0.2182 I-0.7269 J-0.1627
X2.799 Y-0.5076 I-6.3724 J-0.2323
G1 X2.7994 Y-0.6523
X2.7995 Y-0.8332
X2.7944 Y-0.8691
X2.7806 Y-0.9025
X2.7595 Y-0.9319
X2.7329 Y-0.9565
X2.7026 Y-0.9762
X2.6699 Y-0.9916
X2.6356 Y-1.0031
G2 X2.4927 Y-1.0249 I-0.1758 J0.6732
X2.2396 Y-1.0308 I-0.2185 J3.924
G1 X2.2034 Y-1.0312
X2.131 Y-1.0313
X1.9863 Y-1.0315
X1.6607
X0.516 Y-1.0318
X0.5076 Y-1.0319
X0.4994 Y-1.0318
X0.4632 Y-1.033
G3 X0.1738 Y-1.0319 I-0.2236 J-20.8794
G1 X0.1379 Y-1.0269
X0.1045 Y-1.0131
X0.0752 Y-0.9919
X0.0506 Y-0.9653
X0.0309 Y-0.935
X0.0156 Y-0.9022
X0.0041 Y-0.8679
G2 X-0.0177 Y-0.7251 I0.6727 J0.1755
X-0.0235 Y-0.5239 I3.3452 J0.1975
G1 X-0.0239 Y-0.5212
X-0.0244 Y-0.516
Y-0.4914
X-0.0243 Y-0.49
Y-0.1584
X-0.0152 Y-0.1233
X0.002 Y-0.0915
X0.0257 Y-0.0642
X0.0541 Y-0.0418
X0.0857 Y-0.024
X0.1192 Y-0.0104
X0.1539 Y-0.0003
G2 X0.2972 Y0.0185 I0.1744 J-0.774
X0.483 Y0.0234 I0.1932 J-3.8138
G1 X0.4912 Y0.0242
X0.5076 Y0.0245
X0.5158 Y0.0244
X0.552 Y0.024
X2.5058 Y0.0244
X2.542 Y0.0245
X2.5781 Y0.0217
X2.6123 Y0.01
X2.6428 Y-0.0094
X2.6686 Y-0.0348
X2.6896 Y-0.0643
X2.7059 Y-0.0966
X2.7184 Y-0.1305
X2.7276 Y-0.1655
G2 X2.7423 Y-0.2751 I-0.7567 J-0.1579
G1 X2.744 Y-0.2873
X2.7472 Y-0.2991
X2.7519 Y-0.3104
G2 X2.7778 Y-0.3681 I-0.3419 J-0.1881
G1 X2.7798 Y-0.3764
X2.7934 Y-0.4339
G2 X2.7981 Y-0.4914 I-0.2138 J-0.0465
G1 Y-0.516
G2 X2.7934 Y-0.5735 I-0.2211 J-0.0109
G1 X2.7798 Y-0.631
X2.7777 Y-0.6393
X2.7751 Y-0.6475
G3 X2.7603 Y-0.7154 I0.3638 J-0.1144
G1 X2.7562 Y-0.7514
X2.752 Y-0.7873
X2.7414 Y-0.8219
X2.7239 Y-0.8536
X2.7008 Y-0.8814
X2.6732 Y-0.9048
X2.6424 Y-0.9238
X2.6095 Y-0.9389
X2.5752 Y-0.9504
G2 X2.4326 Y-0.9735 I-0.1845 J0.6884
X2.1794 Y-0.9806 I-0.2254 J3.4966
G1 X2.1433 Y-0.9811
X2.0709 Y-0.9813
X1.9624 Y-0.9814
X1.6367 Y-0.9816
X0.9854 Y-0.9817
X0.7478
X0.7353 Y-0.9826
X0.7231 Y-0.9851
X0.7114 Y-0.9893
X0.7038 Y-0.9926
X0.6965 Y-0.9956
X0.6637 Y-1.0057
X0.6226 Y-1.0181
X0.6144 Y-1.0202
X0.598 Y-1.0233
X0.5897 Y-1.0246
X0.5322 Y-1.0302
X0.516 Y-1.0318
X0.5121 Y-1.0326
X0.5097 Y-1.0331
X0.5073
X0.5049 Y-1.0327
X0.5022 Y-1.0321
X0.4994 Y-1.0318
G2 X0.409 Y-1.0234 I0.0624 J1.1687
G1 X0.3926 Y-1.0199
X0.3844 Y-1.018
X0.3433 Y-1.0056
G3 X0.2279 Y-0.9868 I-0.1569 J-0.6003
G1 X0.1929 Y-0.9776
X0.1605 Y-0.9615
X0.1318 Y-0.9394
X0.1075 Y-0.9127
X0.0875 Y-0.8825
X0.0716 Y-0.85
X0.0593 Y-0.816
X0.0499 Y-0.7808
X0.0477 Y-0.772
X0.0446 Y-0.7634
X0.0408 Y-0.7551
X0.0227 Y-0.7214
G2 X0.0043 Y-0.6721 I0.2028 J0.1041
G1 X-0.0107 Y-0.6228
X-0.0126 Y-0.6146
X-0.016 Y-0.5982
X-0.0171 Y-0.59
X-0.0239 Y-0.5212
X-0.024 Y-0.5205
X-0.0247 Y-0.5174
X-0.0257 Y-0.5137
X-0.026 Y-0.5113
X-0.0262 Y-0.509
Y-0.5018
X-0.0261 Y-0.4995
X-0.0258 Y-0.4971
X-0.025 Y-0.4934
X-0.0243 Y-0.49
X-0.018 Y-0.4256
G2 X-0.0106 Y-0.3846 I0.2229 J-0.0186
G1 X0.0018 Y-0.3435
G3 X0.0197 Y-0.2332 I-0.5398 J0.1444
G1 X0.0279 Y-0.1979
X0.043 Y-0.165
X0.0642 Y-0.1357
X0.0903 Y-0.1107
X0.1201 Y-0.0901
X0.1523 Y-0.0737
G2 X0.2355 Y-0.0479 I0.1685 J-0.3976
G1 X0.2438 Y-0.0448
X0.2518 Y-0.041
X0.2858 Y-0.0228
G2 X0.3351 Y-0.0045 I0.1054 J-0.2077
G1 X0.3844 Y0.0106
G2 X0.4419 Y0.0196 I0.0722 J-0.2748
G1 X0.483 Y0.0236
X0.4853 Y0.024
X0.4868 Y0.0244
X0.4909 Y0.0255
X0.4932 Y0.0258
X0.4955 Y0.026
X0.5042 Y0.0262
X0.5065 Y0.0261
X0.5087 Y0.0258
X0.5129 Y0.025
X0.5158 Y0.0244
X0.5487 Y0.0212
X0.5897 Y0.0172
X0.598 Y0.0159
X0.6144 Y0.0128
X0.6226 Y0.0107
X0.6637 Y-0.0017
G3 X0.7748 Y-0.0199 I0.1455 J0.539
X0.9918 Y-0.0253 I0.1874 J3.194
G1 X1.028 Y-0.0256
X1.1003 Y-0.0258
X1.2451
X2.4391 Y-0.0256
X2.4752
X2.5112 Y-0.0293
X2.5457 Y-0.0404
X2.5769 Y-0.0586
X2.6041 Y-0.0825
X2.6267 Y-0.1107
X2.645 Y-0.1419
X2.6594 Y-0.1751
X2.6633 Y-0.1848
X2.6686 Y-0.1937
X2.6751 Y-0.2018
G2 X2.7256 Y-0.2622 I-2.4152 J-2.0675
X2.7519 Y-0.3104 I-0.3337 J-0.2135
G3 X2.7668 Y-0.3224 I0.0219 J0.012
G1 X2.7775 Y-0.326
G2 X2.8728 Y-0.4156 I-0.0577 J-0.1567 F300.
G1 X2.8738 Y-0.4183
X2.8745 Y-0.4211
X2.8748 Y-0.424
X2.8812 Y-0.5203
Y-0.5232
X2.8809 Y-0.5261
X2.8803 Y-0.5289
G2 X2.7993 Y-0.6295 I-0.1604 J0.0463
G1 X2.7875 Y-0.6352 F50.
G3 X2.7751 Y-0.6475 I0.0101 J-0.0229
G1 X2.7666 Y-0.6672
X2.7644 Y-0.6721
X2.7396 Y-0.7214
X2.735 Y-0.7296
X2.7183 Y-0.7617
X2.6981 Y-0.7917
X2.6741 Y-0.8188
X2.6467 Y-0.8424
X2.6165 Y-0.8623
X2.5842 Y-0.8787
X2.5505 Y-0.8917
X2.549 Y-0.8922
X2.5483 Y-0.8925
G3 X2.5342 Y-0.9178 I0.0107 J-0.0226
X2.5755 Y-0.9339 I0.0249 J0.0027 F300.
G1 X2.7726 Y-0.7618
G3 X2.7619 Y-0.7187 I-0.0164 J0.0188
X2.735 Y-0.7296 I-0.0057 J-0.0243 F50.
G2 X2.7173 Y-0.7554 I-0.106 J0.054
G1 X2.6977 Y-0.7789
X2.6763 Y-0.8044
X2.668 Y-0.8131
X2.6606 Y-0.82
X2.6516 Y-0.8274
X2.6023 Y-0.8641
G2 X2.5695 Y-0.8834 I-0.0962 J0.1259
X2.4955 Y-0.9144 I-0.6085 J1.3486
G1 X2.4709 Y-0.9199
X2.4216 Y-0.9286
G2 X2.3805 Y-0.932 I-0.0356 J0.181
G1 X2.3444 Y-0.9327
G3 X2.0911 Y-0.9313 I-0.1718 J-8.4987
G1 X1.9102 Y-0.9314
X1.5163 Y-0.9316
X1.5154
X1.5016 Y-0.9321
X1.4934
X1.492 Y-0.932
X1.4558 Y-0.9317
X1.3473 Y-0.9316
X0.8414 Y-0.9317
X0.8253 Y-0.9331
X0.8097 Y-0.9374
X0.7951 Y-0.9443
G2 X0.7114 Y-0.9894 I-0.5582 J0.9357
G1 X0.7081 Y-0.9913
X0.7051 Y-0.9937
X0.7025 Y-0.9965
X0.7003 Y-0.9997
X0.6987 Y-1.0032
X0.6976 Y-1.0069
X0.6972 Y-1.0107
X0.6973 Y-1.0146
G3 X0.7212 Y-1.0368 I0.0249 J0.0027 F300.
G1 X1.4851 Y-1.0564
G3 X1.5262 Y-1.0419 I0.0011 J0.0623
G1 Y-1.0418
G3 X1.5208 Y-0.9423 I-0.04 J0.0478
X1.492 Y-0.932 I-0.0346 J-0.0518 F50.
G2 X1.4159 Y-0.9269 I0.0638 J1.5238
G1 X1.3948 Y-0.922
X1.3866 Y-0.9197
X1.3373 Y-0.9049
G3 X1.24 Y-0.8884 I-0.134 J-0.494
X1.0231 Y-0.8823 I-0.1874 J-2.8226
G1 X0.9869 Y-0.882
X0.9145 Y-0.8818
X0.9042 Y-0.882
G3 X0.8478 Y-0.9028 I0.0018 J-0.0916
G1 X0.8098 Y-0.9339
G2 X0.7951 Y-0.9443 I-0.0682 J0.0814
G3 X0.7832 Y-0.9707 I0.0126 J-0.0216
X0.809 Y-0.9908 I0.0245 J0.0048 F300.
G1 X1.3455 Y-0.9638
G3 X1.3629 Y-0.9222 I-0.0013 J0.025
G1 X1.3627 Y-0.922
G3 X1.3373 Y-0.9049 I-0.0464 J-0.0416 F50.
G2 X1.2881 Y-0.8821 I0.0553 J0.1836
G1 X1.2753 Y-0.8749
G3 X1.2022 Y-0.85 I-0.1185 J-0.2286
X1.0687 Y-0.8355 I-0.1511 J-0.7701
X0.9543 Y-0.8332 I-0.0964 J-1.9261
X0.8882 Y-0.8652 I0.0039 J-0.0925
G1 X0.8807 Y-0.8738
G2 X0.8477 Y-0.9027 I-0.1928 J0.187
G1 X0.845 Y-0.9055
X0.8428 Y-0.9087
X0.8411 Y-0.9122
X0.8399 Y-0.9158
X0.8394 Y-0.9197
Y-0.9235
X0.84 Y-0.9274
X0.8412 Y-0.931
G3 X0.8659 Y-0.9465 I0.0231 J0.0095 F300.
G1 X1.2636 Y-0.921
G3 X1.2864 Y-0.9016 I-0.0016 J0.0249
X1.2753 Y-0.8749 I-0.0244 J0.0056 F50.
G1 X1.2633 Y-0.868
X1.2377 Y-0.8529
X1.2305 Y-0.8472
X1.2246 Y-0.8423
G3 X1.1533 Y-0.8086 I-0.1169 J-0.1552
X1.0437 Y-0.7898 I-0.1482 J-0.5337
X0.9877 Y-0.7884 I-0.037 J-0.3598
X0.9243 Y-0.8216 I0.0075 J-0.0915
G1 X0.8986 Y-0.8529
X0.8937 Y-0.8588
X0.8882 Y-0.8652
G3 X0.8866 Y-0.8942 I0.0195 J-0.0156
X0.9094 Y-0.9058 I0.0211 J0.0133 F300.
G1 X1.2096 Y-0.8859
G3 X1.231 Y-0.8706 I-0.0017 J0.0249
X1.2246 Y-0.8423 I-0.0231 J0.0096 F50.
G1 X1.2141 Y-0.8335
X1.2083 Y-0.8282
X1.1822 Y-0.8036
G3 X1.102 Y-0.7624 I-0.1281 J-0.1506
X1.0213 Y-0.7492 I-0.0835 J-0.2565
X0.9451 Y-0.7934 I0.0024 J-0.0919
G1 X0.9389 Y-0.8036
X0.9323 Y-0.8118
X0.9243 Y-0.8216
G3 X0.9192 Y-0.8368 I0.0199 J-0.0152
X0.9233 Y-0.8506 I0.025 J0.
X0.9459 Y-0.8617 I0.0208 J0.0138 F300.
G1 X1.1662 Y-0.8461
G3 X1.1868 Y-0.8322 I-0.0018 J0.0249
X1.1822 Y-0.8036 I-0.0224 J0.011 F50.
G2 X1.1514 Y-0.7709 I0.1592 J0.1807
G3 X1.1101 Y-0.7375 I-0.0866 J-0.0651
X1.0322 Y-0.718 I-0.0747 J-0.1327
X0.961 Y-0.7655 I0.0095 J-0.0913
G1 X0.9583 Y-0.7707
X0.9538 Y-0.7789
X0.9451 Y-0.7934
G3 X0.9483 Y-0.8222 I0.0218 J-0.0122
X0.9702 Y-0.8304 I0.0187 J0.0166 F300.
G1 X1.1336 Y-0.8088
G3 X1.1499 Y-0.7997 I-0.0033 J0.0248
X1.1516 Y-0.7707 I-0.0195 J0.0157 F50.
G1 X1.1401 Y-0.7538
X1.1349 Y-0.7461
X1.1279 Y-0.7354
G3 X1.0384 Y-0.6936 I-0.081 J-0.0567
G1 X1.0231 Y-0.6975
G3 X0.9762 Y-0.7372 I0.0266 J-0.0789
X0.9809 Y-0.7658 I0.0224 J-0.011
X0.9986 Y-0.7732 I0.0178 J0.0176 F300.
G1 X1.1065 Y-0.7734
G3 X1.1258 Y-0.7643 I0. J0.025
X1.1279 Y-0.7354 I-0.0193 J0.0159 F50.
G1 X1.1187 Y-0.7214
X1.1081 Y-0.705
X1.1073 Y-0.7035
G3 X1.0679 Y-0.6754 I-0.0516 J-0.0307
X0.9877 Y-0.7144 I-0.0163 J-0.0685
X0.994 Y-0.7427 I0.023 J-0.0097
X1.0139 Y-0.7489 I0.0167 J0.0186 F300.
G1 X1.088 Y-0.7393
G3 X1.1027 Y-0.7321 I-0.0032 J0.0248
X1.1073 Y-0.7035 I-0.0178 J0.0175 F50.
G1 X1.1037 Y-0.6968
X1.0991 Y-0.6855
G3 X1.0558 Y-0.656 I-0.0457 J-0.0204
X0.9955 Y-0.6967 I-0.0049 J-0.0578
G1 X0.9948 Y-0.7005
X0.9946 Y-0.7044
X0.9951 Y-0.7082
X0.9961 Y-0.7119
X0.9977 Y-0.7155
X0.9999 Y-0.7187
X1.0025 Y-0.7215
X1.0055 Y-0.724
G3 X1.0236 Y-0.728 I0.0141 J0.0206 F300.
G1 X1.0796 Y-0.7189
G3 X1.0915 Y-0.7135 I-0.004 J0.0247
X1.0991 Y-0.6855 I-0.0159 J0.0193 F50.
G1 X1.0935 Y-0.6721
X1.0914 Y-0.6662
G3 X1.0715 Y-0.6447 I-0.0368 J-0.0141
X1.0018 Y-0.6763 I-0.0208 J-0.0467
X1.0051 Y-0.7036 I0.0354 J-0.0096
G1 X1.0065 Y-0.706
G3 X1.091 Y-0.6966 I0.04 J0.0252 F300.
X1.0914 Y-0.6662 I-0.0445 J0.0158 F50.
G1 X1.0852 Y-0.6491
G3 X1.07 Y-0.6313 I-0.0298 J-0.01
X1.0074 Y-0.6582 I-0.02 J-0.0398
X1.0102 Y-0.6817 I0.0306 J-0.0081
G1 X1.012 Y-0.6845
X1.0139 Y-0.6872
G3 X1.0833 Y-0.6793 I0.0322 J0.0254 F300.
X1.0852 Y-0.6491 I-0.0371 J0.0175 F50.
G1 X1.0795 Y-0.6336
X1.0772 Y-0.6281
X1.0734 Y-0.6234
X1.0688 Y-0.6196
G3 X1.0123 Y-0.6418 I-0.0194 J-0.0335
X1.0149 Y-0.6621 I0.0261 J-0.0069
X1.021 Y-0.67 I0.0308 J0.0175
X1.0759 Y-0.6634 I0.0248 J0.0254 F300.
X1.0795 Y-0.6336 I-0.0301 J0.0188 F50.
G1 X1.0749 Y-0.621
X1.0726 Y-0.6155
X1.0688 Y-0.6108
G3 X1.0276 Y-0.6107 I-0.0207 J-0.0244
G1 X1.0211 Y-0.6179
X1.0169 Y-0.6267
G3 X1.0187 Y-0.6442 I0.0239 J-0.0064
X1.0268 Y-0.6542 I0.0272 J0.0137
X1.0693 Y-0.6501 I0.0192 J0.0237 F300.
X1.0749 Y-0.621 I-0.0233 J0.0196 F50.
G1 X1.0744 Y-0.6195
X1.0728 Y-0.6146
X1.0709 Y-0.609
G3 X1.0598 Y-0.5953 I-0.0213 J-0.0061
X1.0205 Y-0.6146 I-0.0116 J-0.0261
X1.0221 Y-0.6284 I0.0189 J-0.0048
X1.0338 Y-0.6399 I0.0234 J0.0122
X1.0621 Y-0.6368 I0.0117 J0.0237 F300.
X1.0709 Y-0.609 I-0.0166 J0.0206 F50.
X1.0224 Y-0.6064 I-0.0246 J-0.0053
G2 X0.9923 Y-0.7051 I-1.2678 J0.3333
G1 X0.984 Y-0.7223
X0.9803 Y-0.7296
X0.9611 Y-0.7655
G3 X0.9589 Y-0.7808 I0.0224 J-0.011
G1 X0.9612 Y-0.7959
G2 X0.9192 Y-1.003 I-0.3273 J-0.0415 F300.
X0.9067 Y-1.0137 I-0.0216 J0.0125
G1 X0.5523 Y-1.1519
G2 X0.5358 Y-1.1524 I-0.0091 J0.0233
X0.3642 Y-1.0274 I0.0981 J0.315
G1 X0.3563 Y-1.0157 F50.
G3 X0.3433 Y-1.0056 I-0.021 J-0.0135
G2 X0.2853 Y-0.9845 I0.0797 J0.3098
G1 X0.2283 Y-0.9538
X0.2201 Y-0.9488
X0.2037 Y-0.9386
X0.1989 Y-0.935
X0.1489 Y-0.894
G2 X0.1133 Y-0.8584 I0.1214 J0.1568
G1 X0.0722 Y-0.8083
G2 X0.0408 Y-0.7551 I0.3288 J0.2296
G1 X0.0386 Y-0.7519
X0.0359 Y-0.749
X0.0327 Y-0.7467
X0.0293 Y-0.7448
X0.0256 Y-0.7435
X0.0147 Y-0.7403
G2 X-0.0903 Y-0.6628 I0.0638 J0.1964 F300.
X-0.0948 Y-0.6507 I0.0204 J0.0144
G1 X-0.1117 Y-0.4717
G2 X-0.1096 Y-0.459 I0.0249 J0.0024
X-0.0209 Y-0.363 I0.1882 J-0.0849
G1 X-0.011 Y-0.3579 F50.
G3 X0.0018 Y-0.3435 I-0.0108 J0.0225
G2 X0.0186 Y-0.2942 I0.3298 J-0.0849
G1 X0.0229 Y-0.2856
X0.0491 Y-0.2367
X0.0536 Y-0.2285
X0.0685 Y-0.2038
X0.0722 Y-0.1991
X0.1133 Y-0.149
G2 X0.1489 Y-0.1135 I0.1558 J-0.1202
G1 X0.1989 Y-0.0724
G2 X0.2518 Y-0.041 I0.2252 J-0.3198
G3 X0.2635 Y-0.0258 I-0.0126 J0.0216
G1 X0.2666 Y-0.015
G2 X0.3443 Y0.0902 I0.1965 J-0.0639 F300.
X0.3563 Y0.0946 I0.0144 J-0.0204
G1 X0.5353 Y0.1117
G2 X0.5479 Y0.1096 I0.0024 J-0.0249
X0.6441 Y0.021 I-0.0848 J-0.1885
G1 X0.6493 Y0.0111 F50.
G3 X0.6637 Y-0.0017 I0.0225 J0.0109
G2 X0.7458 Y-0.0358 I-0.0734 J-0.2926
G3 X0.8292 Y-0.0608 I0.1257 J0.268
X0.9689 Y-0.0729 I0.1516 J0.935
X1.4031 Y-0.0756 I0.3074 J14.8784
G1 X1.4845 Y-0.0758
X1.488 Y-0.0756
X1.4934 Y-0.0753
X1.5016
G2 X1.6463 Y-0.0756 I0.0643 J-5.1408
G1 X1.7187
X1.8272 Y-0.0757
X2.3756 Y-0.0756
X2.3775
X2.3887 Y-0.0752
X2.397 Y-0.0755
X2.3983 Y-0.0757
X2.4344 Y-0.0783
X2.4698 Y-0.086
X2.4736 Y-0.0875
X2.4776 Y-0.0888
X2.4816 Y-0.0899
G3 X2.508 Y-0.0778 I0.0047 J0.0246
X2.4905 Y-0.0407 I-0.0217 J0.0125 F300.
G1 X2.4064 Y-0.0264
G3 X2.3776 Y-0.0554 I-0.0042 J-0.0246
X2.3983 Y-0.0757 I0.0246 J0.0044 F50.
G1 X2.4134 Y-0.0776
X2.4216 Y-0.0788
X2.4709 Y-0.0875
X2.4955 Y-0.093
G2 X2.5817 Y-0.1298 I-0.5316 J-1.3662
G1 X2.5947 Y-0.1381
X2.6023 Y-0.1433
X2.6516 Y-0.18
X2.6606 Y-0.1874
X2.668 Y-0.1943
X2.6751 Y-0.2018
X2.6927 Y-0.209
X2.7046 Y-0.2094
X2.7831 Y-0.2121 F300.
G2 X2.8767 Y-0.2695 I0.0041 J-0.0983
G1 X2.9034 Y-0.3353
X2.9267 Y-0.4421
X2.9265 Y-0.5653
X2.9063 Y-0.6595
X2.8852 Y-0.7214
X2.8423 Y-0.8036
X2.7831 Y-0.8793
X2.7338 Y-0.9277
X2.6516 Y-0.9883
X2.5777 Y-1.0224
G2 X2.4627 Y-0.9976 I-0.0409 J0.0895
G1 X2.4099 Y-0.9415
X2.3805 Y-0.9319 F50.
X2.3723 Y-0.9317
X2.3641 Y-0.9313
X2.3148 Y-0.9284
X2.2984 Y-0.9263
X2.2902 Y-0.9252
X2.2655 Y-0.9182
X2.2245 Y-0.9059
G3 X2.1089 Y-0.8871 I-0.1495 J-0.5537
X1.8919 Y-0.882 I-0.1861 J-3.3145
X1.6963 Y-0.8821 I-0.0943 J-8.7198
G1 X1.6842 Y-0.8849
X1.6724 Y-0.8891
X1.6248 Y-0.9096
G2 X1.5942 Y-0.9186 I-0.0574 J0.1376
X1.518 Y-0.9317 I-0.3763 J1.97
G1 X1.5154 Y-0.9316
G3 X1.4923 Y-0.9492 I0.0008 J-0.025
X1.5168 Y-0.9816 I0.0239 J-0.0074 F300.
G1 X2.2326 Y-0.9647
G3 X2.2504 Y-0.9228 I-0.0006 J0.025
G1 X2.2502 Y-0.9225
G3 X2.2245 Y-0.9059 I-0.0457 J-0.0424 F50.
G2 X2.1834 Y-0.8889 I0.0404 J0.1553
G1 X2.1587 Y-0.8747
G3 X2.0854 Y-0.8498 I-0.1189 J-0.2295
X1.9521 Y-0.8353 I-0.1509 J-0.7697
X1.7924 Y-0.8321 I-0.1592 J-4.0254
X1.7371 Y-0.8502 I-0.0008 J-0.0911
G2 X1.6987 Y-0.8771 I-0.4236 J0.5641
G1 X1.6799 Y-0.8857
X1.6741 Y-0.8884
X1.6724 Y-0.8891
G3 X1.6583 Y-0.9144 I0.0107 J-0.0226
X1.684 Y-0.9366 I0.0249 J0.0027 F300.
G1 X2.1463 Y-0.9208
G3 X2.1699 Y-0.9014 I-0.0009 J0.025
X2.1587 Y-0.8747 I-0.0244 J0.0056 F50.
G2 X2.1101 Y-0.8448 I0.1967 J0.3746
G1 X2.1095 Y-0.844
G3 X2.0487 Y-0.8122 I-0.1075 J-0.1317
X1.9549 Y-0.7925 I-0.1426 J-0.4449
X1.8491 Y-0.7851 I-0.1302 J-1.1104
X1.7833 Y-0.8136 I0.0008 J-0.092
G2 X1.7666 Y-0.8282 I-0.0741 J0.0679
G1 X1.7371 Y-0.8502
G3 X1.7291 Y-0.8781 I0.0156 J-0.0195
X1.7533 Y-0.8947 I0.0236 J0.0084 F300.
G1 X2.0926 Y-0.8868
G3 X2.1146 Y-0.8725 I-0.0006 J0.025
X2.1095 Y-0.844 I-0.0226 J0.0107 F50.
G1 X2.0922 Y-0.8282
X2.0834 Y-0.82
X2.066 Y-0.8036
G3 X1.9999 Y-0.7668 I-0.1212 J-0.1399
X1.8876 Y-0.7445 I-0.1311 J-0.3672
X1.8151 Y-0.7773 I-0.0018 J-0.0926
G1 X1.7973 Y-0.7986
X1.7928 Y-0.8036
X1.7833 Y-0.8136
G3 X1.7802 Y-0.8424 I0.0187 J-0.0166
X1.8029 Y-0.8552 I0.0218 J0.0122 F300.
G1 X2.0492 Y-0.8461
G3 X2.0707 Y-0.8322 I-0.0009 J0.025
X2.066 Y-0.8036 I-0.0224 J0.011 F50.
G2 X2.0352 Y-0.7707 I0.2069 J0.2253
G3 X1.9821 Y-0.7311 I-0.103 J-0.0824
X1.9079 Y-0.7118 I-0.0793 J-0.1526
X1.8498 Y-0.7366 I0.0062 J-0.0949
G1 X1.8391 Y-0.7486
X1.8384 Y-0.7495
X1.8302 Y-0.7595
X1.8152 Y-0.7774
G3 X1.8139 Y-0.8063 I0.0197 J-0.0154
X1.8361 Y-0.8177 I0.021 J0.0136 F300.
G1 X2.0152 Y-0.809
G3 X2.0335 Y-0.7997 I-0.0012 J0.025
X2.0352 Y-0.7707 I-0.0195 J0.0157 F50.
G1 X2.0296 Y-0.7625
X2.0109 Y-0.734
G3 X1.9301 Y-0.6863 I-0.0936 J-0.0663
X1.8714 Y-0.7054 I-0.005 J-0.0845
G1 X1.8602 Y-0.7166
X1.8514 Y-0.7296
G3 X1.8551 Y-0.7584 I0.0221 J-0.0118
X1.8722 Y-0.7664 I0.0184 J0.017 F300.
G1 X1.9883 Y-0.772
G3 X2.0088 Y-0.7629 I0.0012 J0.025
X2.0109 Y-0.734 I-0.0193 J0.0159 F50.
G1 X2.0026 Y-0.7214
X1.9885 Y-0.6984
G3 X1.9035 Y-0.6703 I-0.0597 J-0.0381
X1.8635 Y-0.706 I0.0247 J-0.0679
X1.869 Y-0.7345 I0.0227 J-0.0104
X1.888 Y-0.7414 I0.0173 J0.018 F300.
G1 X1.9685 Y-0.7357
G3 X1.9855 Y-0.7273 I-0.0017 J0.0249
X1.9885 Y-0.6984 I-0.0188 J0.0165 F50.
G2 X1.98 Y-0.6793 I0.1353 J0.0712
G3 X1.961 Y-0.6567 I-0.0435 J-0.0174
X1.8754 Y-0.6824 I-0.0307 J-0.0532
X1.8808 Y-0.7109 I0.0227 J-0.0104
X1.9006 Y-0.7177 I0.0173 J0.018 F300.
G1 X1.9587 Y-0.7119
G3 X1.9714 Y-0.7069 I-0.0025 J0.0249
X1.98 Y-0.6793 I-0.0151 J0.0199 F50.
G1 X1.9729 Y-0.6597
X1.9705 Y-0.6542
X1.9671 Y-0.6492
G3 X1.9188 Y-0.6351 I-0.0362 J-0.0339
X1.8841 Y-0.6642 I0.0122 J-0.0498
X1.8846 Y-0.6943 I0.036 J-0.0145
G1 X1.8862 Y-0.6975 F300.
G3 X1.9725 Y-0.6901 I0.0415 J0.0231
X1.9729 Y-0.6597 I-0.0448 J0.0157 F50.
G1 X1.9668 Y-0.643
G3 X1.9195 Y-0.62 I-0.0364 J-0.0147
X1.8912 Y-0.6475 I0.01 J-0.0385
X1.8932 Y-0.6752 I0.0304 J-0.0118
G1 X1.8943 Y-0.6771
G3 X1.9647 Y-0.6731 I0.0341 J0.0217 F300.
X1.9668 Y-0.643 I-0.0363 J0.0176 F50.
G1 X1.9609 Y-0.6269
X1.9586 Y-0.6214
X1.9551 Y-0.6165
X1.9507 Y-0.6124
G3 X1.8948 Y-0.6344 I-0.02 J-0.0312
X1.897 Y-0.6528 I0.0274 J-0.006
X1.9041 Y-0.6625 I0.031 J0.0152
X1.957 Y-0.6565 I0.0239 J0.0249 F300.
X1.9609 Y-0.6269 I-0.0289 J0.019 F50.
G1 X1.9595 Y-0.6228
X1.9566 Y-0.6146
X1.9562 Y-0.6133
X1.9541 Y-0.6076
X1.9503 Y-0.603
G3 X1.8982 Y-0.6212 I-0.0201 J-0.026
X1.9002 Y-0.6353 I0.0206 J-0.0042
X1.9114 Y-0.6471 I0.0268 J0.0141
X1.949 Y-0.642 I0.0156 J0.0259 F300.
X1.9562 Y-0.6133 I-0.022 J0.0208 F50.
G1 X1.954 Y-0.6064
X1.9534 Y-0.6038
X1.953 Y-0.6021
X1.9513 Y-0.5963
X1.9474 Y-0.5918
X1.9425 Y-0.5883
G3 X1.9012 Y-0.6087 I-0.0122 J-0.0273
X1.9026 Y-0.6191 I0.0161 J-0.0032
X1.9171 Y-0.6324 I0.0241 J0.0118
X1.9421 Y-0.6293 I0.0095 J0.0251 F300.
X1.953 Y-0.6021 I-0.0155 J0.0219 F50.
X1.9038 Y-0.5982 I-0.025 J-0.0032
G2 X1.8913 Y-0.6475 I-1.283 J0.3004
G1 X1.8836 Y-0.6653
X1.8805 Y-0.6721
X1.8558 Y-0.7214
G3 X1.8612 Y-0.7499 I0.0227 J-0.0104
G1 X1.864 Y-0.7526 Z0.6421
X1.8668 Y-0.7553 Z0.643
X1.8694 Y-0.7578 Z0.6445
X1.8718 Y-0.7601 Z0.6466
X1.874 Y-0.7621 Z0.6491
X1.8758 Y-0.7639 Z0.6521
X1.8773 Y-0.7653 Z0.6555
X1.8784 Y-0.7664 Z0.6591
X1.879 Y-0.767 Z0.6629
X1.8792 Y-0.7672 Z0.6668
G0 Z1.3255
X1.4511 Y-0.0522
Z0.6918
G1 Z0.6668 F50.
X1.4514 Y-0.0524 Z0.6629
X1.4522 Y-0.0529 Z0.6591
X1.4534 Y-0.0537 Z0.6555
X1.4551 Y-0.0548 Z0.6521
X1.4573 Y-0.0562 Z0.6491
X1.4598 Y-0.0578 Z0.6466
X1.4626 Y-0.0596 Z0.6445
X1.4657 Y-0.0615 Z0.643
X1.4689 Y-0.0636 Z0.6421
X1.4722 Y-0.0657 Z0.6418
G3 X1.5016 Y-0.0753 I0.0335 J0.0525
G1 X1.518 Y-0.0759
G2 X1.6084 Y-0.0921 I-0.1916 J-1.3296
G1 X1.6166 Y-0.0947
X1.6229 Y-0.097
G3 X1.7081 Y-0.1159 I0.1234 J0.3554
X1.8887 Y-0.1245 I0.1675 J1.611
X2.1471 Y-0.1255 I0.1944 J16.1343
G1 X2.1622 Y-0.1243
X2.177 Y-0.1206
X2.1909 Y-0.1145
G2 X2.2162 Y-0.1039 I0.0609 J-0.1112
G1 X2.2655 Y-0.0892
X2.2902 Y-0.0822
X2.3025 Y-0.0806
X2.3148 Y-0.079
X2.3641 Y-0.0761
X2.3723 Y-0.0757
X2.3775 Y-0.0756
X2.3887 Y-0.0722
X2.4 Y-0.0573
X2.3999 Y-0.0568
X2.3983 Y-0.0395 F300.
X2.3887 Y-0.0292
X2.3559 Y-0.0244
X1.6494 Y0.0217
G3 X1.5993 Y-0.0776 I0. J-0.0623
X1.6229 Y-0.097 I0.0502 J0.0369 F50.
G2 X1.7001 Y-0.1311 I-0.6635 J-1.6078
G3 X1.7603 Y-0.154 I0.1017 J0.1767
X1.8806 Y-0.1704 I0.147 J0.629
X2.0643 Y-0.175 I0.1767 J3.4126
X2.1177 Y-0.1572 I0.0001 J0.0887
G2 X2.1909 Y-0.1145 I0.6564 J-1.0416
G3 X2.2027 Y-0.088 I-0.0127 J0.0215
X2.1772 Y-0.0679 I-0.0245 J-0.0049 F300.
G1 X1.7137 Y-0.0859
G3 X1.6907 Y-0.1038 I0.001 J-0.025
X1.7001 Y-0.1312 I0.024 J-0.0071 F50.
G2 X1.7522 Y-0.1684 I-0.4956 J-0.7486
G3 X1.8211 Y-0.1991 I0.1205 J0.1782
X1.9347 Y-0.218 I0.1526 J0.5664
G1 X1.9708 Y-0.2205
X2.0019 Y-0.2219
G3 X2.0627 Y-0.2056 I0.0067 J0.0968
G1 X2.0733 Y-0.1969
G2 X2.1175 Y-0.157 I0.5133 J-0.524
G1 X2.1203 Y-0.1544
X2.1227 Y-0.1514
X2.1246 Y-0.148
X2.1259 Y-0.1444
X2.1267 Y-0.1407
X2.1269 Y-0.1368
X2.1265 Y-0.133
X2.1255 Y-0.1293
G3 X2.1011 Y-0.1127 I-0.0235 J-0.0084 F300.
G1 X1.7669 Y-0.1239
G3 X1.7442 Y-0.1405 I0.0008 J-0.025
X1.7522 Y-0.1684 I0.0236 J-0.0084 F50.
G2 X1.7891 Y-0.1998 I-0.108 J-0.1647
G3 X1.8587 Y-0.2404 I0.1172 J0.1211
X1.9685 Y-0.2626 I0.1312 J0.3656
X2.0406 Y-0.2302 I0.002 J0.0921
G2 X2.0733 Y-0.1969 I0.2746 J-0.2374
G3 X2.078 Y-0.1683 I-0.0178 J0.0176
X2.0552 Y-0.1543 I-0.0224 J-0.011 F300.
G1 X1.8074 Y-0.1583
G3 X1.786 Y-0.1711 I0.0004 J-0.025
X1.7891 Y-0.1999 I0.0218 J-0.0122 F50.
G1 X1.7928 Y-0.2038
X1.7973 Y-0.2088
X1.8219 Y-0.2381
G3 X1.9028 Y-0.287 I0.1263 J0.1175
X1.9715 Y-0.2924 I0.0431 J0.1099
X2.0235 Y-0.2543 I-0.0261 J0.0901
G1 X2.0296 Y-0.2449
X2.0355 Y-0.2362
X2.0406 Y-0.2302
G3 X2.042 Y-0.2012 I-0.0196 J0.0155
X2.0199 Y-0.1897 I-0.0211 J-0.0135 F300.
G1 X1.8405 Y-0.1978
G3 X1.8206 Y-0.2092 I0.0011 J-0.025
X1.8219 Y-0.2381 I0.021 J-0.0136 F50.
G2 X1.8482 Y-0.272 I-0.2005 J-0.1824
G3 X1.9413 Y-0.3206 I0.0892 J0.0573
X1.9959 Y-0.2938 I-0.0098 J0.0889
G1 X2.0055 Y-0.2816
G3 X2.0033 Y-0.2527 I-0.0214 J0.0129
X1.9859 Y-0.2438 I-0.0192 J-0.016 F300.
G1 X1.872 Y-0.2353
G3 X1.8518 Y-0.2433 I-0.0019 J-0.0249
X1.8481 Y-0.272 I0.0184 J-0.017 F50.
G1 X1.8514 Y-0.2778
X1.8548 Y-0.284
X1.864 Y-0.3024
G3 X1.9319 Y-0.3422 I0.0629 J0.0295
X1.9891 Y-0.3079 I-0.0043 J0.0721
X1.9862 Y-0.2791 I-0.0217 J0.0123
X1.9685 Y-0.2706 I-0.0188 J-0.0165 F300.
G1 X1.8879 Y-0.267
G3 X1.8695 Y-0.2739 I-0.0011 J-0.025
X1.864 Y-0.3024 I0.0173 J-0.018 F50.
G1 X1.8788 Y-0.3319
X1.8818 Y-0.3371
G2 X1.8964 Y-0.365 I-0.0697 J-0.0541
G3 X1.9818 Y-0.3237 I0.0197 J0.0683
X1.9742 Y-0.2957 I-0.0234 J0.0087
X1.9555 Y-0.2902 I-0.0159 J-0.0193 F300.
G1 X1.8988 Y-0.2966
G3 X1.8842 Y-0.3034 I0.0028 J-0.0248
X1.8788 Y-0.3319 I0.0173 J-0.018 F50.
G2 X1.9015 Y-0.401 I-0.218 J-0.1098
G3 X1.908 Y-0.4175 I0.0389 J0.0059
X1.9205 Y-0.4262 I0.0202 J0.0157
G1 X1.9235 Y-0.4267
G3 X1.9599 Y-0.3833 I-0.0413 J0.0717
X1.9407 Y-0.373 I-0.0105 J0.0034
G1 X1.9403 Y-0.3735 F300.
X1.9217 Y-0.4005
X1.9154 Y-0.4096 F50.
G3 X1.9205 Y-0.4262 I0.0091 J-0.0063
X1.9532 Y-0.4036 I0.0074 J0.0242
G2 X1.9873 Y-0.3105 I1.1676 J-0.3752
G1 X2.0027 Y-0.2859
X2.0191 Y-0.2609
X2.0235 Y-0.2543
X2.0267 Y-0.2367
X2.0195 Y-0.2258
X2.0158 Y-0.2202 F300.
X1.7727 Y-0.0234
X1.7046 Y0.0098
X1.6412 Y0.0347
X1.5262 Y0.0541
X0.7787 Y0.0804
G3 X0.7239 Y-0.0144 I-0.0016 J-0.0623
X0.7391 Y-0.0313 I0.0532 J0.0325 F50.
G1 X0.7458 Y-0.0358
G2 X0.8063 Y-0.0704 I-0.2779 J-0.5549
G3 X0.8675 Y-0.0986 I0.1066 J0.151
X0.973 Y-0.1175 I0.1462 J0.5136
X1.1899 Y-0.1249 I0.1976 J2.6012
G1 X1.226 Y-0.1253
X1.2638 Y-0.1255
X1.279 Y-0.1243
X1.2938 Y-0.1205
X1.3077 Y-0.1144
G2 X1.3373 Y-0.1025 I0.0675 J-0.125
G1 X1.3866 Y-0.0877
G2 X1.4441 Y-0.0783 I0.0596 J-0.1831
G1 X1.488 Y-0.0756
G3 X1.51 Y-0.0567 I-0.0023 J0.0249
X1.4857 Y-0.0257 I-0.0243 J0.006 F300.
G1 X0.822 Y-0.0263
G3 X0.7986 Y-0.0426 I0. J-0.025
X0.8062 Y-0.0706 I0.0234 J-0.0087 F50.
G2 X0.8558 Y-0.1112 I-0.988 J-1.2575
G3 X0.932 Y-0.1473 I0.1267 J0.1691
X1.0452 Y-0.1671 I0.1548 J0.5508
X1.1802 Y-0.1736 I0.1586 J1.8839
X1.2377 Y-0.1545 I0.0024 J0.0887
G2 X1.3077 Y-0.1144 I0.9337 J-1.5473
G1 X1.3109 Y-0.1122
X1.3137 Y-0.1095
X1.316 Y-0.1064
X1.3179 Y-0.103
X1.3192 Y-0.0994
X1.3199 Y-0.0956
X1.32 Y-0.0918
X1.3196 Y-0.0879
G3 X1.2951 Y-0.0679 I-0.0245 J-0.0049 F300.
G1 X0.8725 Y-0.0676
G3 X0.8495 Y-0.083 I0. J-0.025
X0.8558 Y-0.1112 I0.0231 J-0.0097 F50.
G2 X0.8889 Y-0.143 I-0.1074 J-0.1447
G3 X0.9521 Y-0.1843 I0.1157 J0.1084
X1.028 Y-0.2061 I0.1393 J0.3415
X1.1283 Y-0.2181 I0.129 J0.6526
X1.1936 Y-0.1931 I0.0021 J0.0923
G2 X1.2377 Y-0.1545 I0.33 J-0.3334
G3 X1.2448 Y-0.1264 I-0.0162 J0.0191
X1.2222 Y-0.1105 I-0.0233 J-0.009 F300.
G1 X0.9091 Y-0.1024
G3 X0.8873 Y-0.1141 I-0.0006 J-0.025
X0.8889 Y-0.143 I0.0211 J-0.0133 F50.
G1 X0.8937 Y-0.1486
X0.8986 Y-0.1545
X0.9256 Y-0.1874
G3 X0.9891 Y-0.2297 I0.1223 J0.1145
X1.0844 Y-0.2553 I0.1319 J0.3012
X1.1593 Y-0.2267 I0.0079 J0.0918
G2 X1.1936 Y-0.1931 I0.4873 J-0.4623
G1 X1.1961 Y-0.1901
X1.1981 Y-0.1868
X1.1996 Y-0.1833
X1.2005 Y-0.1795
X1.2008 Y-0.1757
X1.2005 Y-0.1718
X1.1996 Y-0.168
X1.1982 Y-0.1645
G3 X1.1761 Y-0.1505 I-0.0224 J-0.011 F300.
G1 X0.9458 Y-0.1472
G3 X0.9246 Y-0.1584 I-0.0004 J-0.025
X0.9256 Y-0.1874 I0.0208 J-0.0138 F50.
G2 X0.9489 Y-0.2203 I-0.1329 J-0.1187
G3 X1.0132 Y-0.2711 I0.1172 J0.0821
X1.0844 Y-0.2851 I0.0583 J0.1089
X1.1455 Y-0.2457 I-0.0163 J0.0924
G2 X1.1592 Y-0.2266 I0.1278 J-0.0777
G1 X1.1616 Y-0.2236
X1.1634 Y-0.2202
X1.1646 Y-0.2165
X1.1653 Y-0.2127
X1.1654 Y-0.2089
X1.1649 Y-0.205
X1.1639 Y-0.2013
X1.1622 Y-0.1978
G3 X1.1408 Y-0.1852 I-0.0217 J-0.0124 F300.
G1 X0.971 Y-0.1831
G3 X0.952 Y-0.1914 I-0.0003 J-0.025
X0.9489 Y-0.2202 I0.0187 J-0.0166 F50.
G1 X0.9538 Y-0.2285
X0.9594 Y-0.2387
X0.9697 Y-0.2581
G3 X1.0454 Y-0.3099 I0.0935 J0.0553
X1.128 Y-0.272 I0.0108 J0.0854
X1.1259 Y-0.243 I-0.0214 J0.013
X1.1092 Y-0.2341 I-0.0193 J-0.0159 F300.
G1 X0.9948 Y-0.2222
G3 X0.9744 Y-0.2295 I-0.0026 J-0.0249
X0.9697 Y-0.2581 I0.0178 J-0.0176 F50.
G1 X0.9803 Y-0.2778
X0.984 Y-0.2851
X0.9865 Y-0.2905
G3 X1.0404 Y-0.3297 I0.0621 J0.0287
X1.1117 Y-0.2968 I0.0098 J0.0724
X1.1093 Y-0.2679 I-0.0215 J0.0128
X1.0912 Y-0.2591 I-0.0191 J-0.0161 F300.
G1 X1.0106 Y-0.2558
G3 X0.9928 Y-0.2622 I-0.001 J-0.025
X0.9865 Y-0.2905 I0.0167 J-0.0186 F50.
G1 X0.9923 Y-0.3029
X0.9955 Y-0.3106
X0.9962 Y-0.3131
G3 X1.0083 Y-0.3336 I0.0437 J0.012
X1.1033 Y-0.3115 I0.0397 J0.0447
X1.0957 Y-0.2835 I-0.0234 J0.0087
X1.0783 Y-0.2779 I-0.0159 J-0.0193 F300.
G1 X1.0188 Y-0.2816
G3 X1.0062 Y-0.2859 I0.0015 J-0.025
X0.9962 Y-0.3131 I0.0141 J-0.0206 F50.
G1 X1.0031 Y-0.3353
X1.0051 Y-0.3409
G2 X1.0183 Y-0.3663 I-0.1316 J-0.0843
G3 X1.0945 Y-0.3329 I0.0209 J0.056
X1.0935 Y-0.3031 I-0.0368 J0.0136
G1 X1.0933 Y-0.3028
G3 X1.005 Y-0.3049 I-0.0437 J-0.0202 F300.
X1.0031 Y-0.3353 I0.0446 J-0.018 F50.
G2 X1.0235 Y-0.4039 I-1.5643 J-0.5013
G3 X1.0396 Y-0.4175 I0.0234 J0.0114
G1 X1.0415 Y-0.4179
X1.0445 Y-0.4181
G3 X1.0759 Y-0.3838 I-0.0256 J0.0549
X1.0566 Y-0.3736 I-0.0105 J0.0034
G1 X1.0413 Y-0.3932 F300.
X1.0357 Y-0.4004 F50.
G3 X1.0415 Y-0.4179 I0.0087 J-0.0068
X1.0701 Y-0.401 I0.0047 J0.0246
G2 X1.1037 Y-0.3106 I0.9997 J-0.3199
X1.1455 Y-0.2458 I0.8044 J-0.473
G1 X1.1469 Y-0.2431
X1.148 Y-0.2404
X1.1484 Y-0.2377 Z0.642
X1.1488 Y-0.235 Z0.6424
X1.1493 Y-0.2324 Z0.6431
X1.1487 Y-0.2293 Z0.6445
X1.1482 Y-0.2264 Z0.6463
X1.1477 Y-0.2238 Z0.6484
X1.1465 Y-0.2217 Z0.6509
X1.1456 Y-0.22 Z0.6537
X1.1448 Y-0.2186 Z0.6568
X1.1442 Y-0.2176 Z0.66
X1.1439 Y-0.217 Z0.6634
X1.1437 Y-0.2168 Z0.6668
G0 Z1.3255
X0.5037 Y-0.5037
Z1.1905
G1 Z1.1655 F50.
Z0.6418 F80.
X0.5021 Y-0.5012 F50.
X0.5006 Y-0.5009
X0.4994 Y-0.5018
X0.4986 Y-0.5031
Y-0.5046
X0.4996 Y-0.5074
X0.5007 Y-0.5085
X0.5036 Y-0.5091
X0.5051 Y-0.5092
X0.5077 Y-0.5077
X0.5095 Y-0.5053
X0.5098 Y-0.5038
X0.5097 Y-0.5023
X0.5085 Y-0.4996
X0.5063 Y-0.4975
X0.5035 Y-0.4964
X0.5005 Y-0.4965
X0.4977 Y-0.4976
X0.4956 Y-0.4998
X0.4944 Y-0.5025
X0.4942 Y-0.5055
X0.4949 Y-0.5084
X0.4966 Y-0.5109
X0.4989 Y-0.5128
X0.5017 Y-0.5139
X0.5047 Y-0.5142
X0.5076 Y-0.5136
X0.5103 Y-0.5123
X0.5125 Y-0.5103
X0.5141 Y-0.5077
X0.5149 Y-0.5048
X0.515 Y-0.4988
X0.5122 Y-0.4935
X0.5074 Y-0.49
X0.5015 Y-0.4887
X0.4957 Y-0.4899
X0.4907 Y-0.4933
X0.4873 Y-0.4983
X0.4859 Y-0.5041
X0.4866 Y-0.5101
X0.4893 Y-0.5155
X0.4935 Y-0.5197
G3 X0.5248 Y-0.5043 I0.0112 J0.0168
X0.4831 Y-0.4859 I-0.0239 J0.0022
X0.5074 Y-0.535 I0.0205 J-0.0204
X0.5284 Y-0.4765 I-0.003 J0.0341
X0.4602 Y-0.4994 I-0.0287 J-0.0274
X0.5223 Y-0.5482 I0.0447 J-0.007
X0.5368 Y-0.4603 I-0.018 J0.0482
X0.4442 Y-0.4862 I-0.0378 J-0.0434
X0.5084 Y-0.5712 I0.0603 J-0.0211
X0.5706 Y-0.472 I-0.0025 J0.0707
X0.4458 Y-0.4449 I-0.0718 J-0.0296
X0.4561 Y-0.5793 I0.0562 J-0.0633
X0.5963 Y-0.5281 I0.0515 J0.0763
X0.5132 Y-0.4002 I-0.0949 J0.0293
X0.3925 Y-0.5213 I-0.0146 J-0.1061
X0.4077 Y-0.5663 I0.101 J0.009
X0.6015 Y-0.576 I0.1002 J0.0619
X0.56 Y-0.3861 I-0.0985 J0.078
X0.3737 Y-0.4535 I-0.0626 J-0.118
X0.4683 Y-0.6464 I0.1305 J-0.0556
X0.6575 Y-0.5199 I0.0401 J0.1448
X0.5145 Y-0.3401 I-0.1571 J0.0219
X0.4923 Y-0.3397 I-0.0126 J-0.0727
G1 X0.4747 Y-0.3416
X0.4665 Y-0.3428
X0.4641 Y-0.3435
X0.4368 Y-0.3531
G3 X0.3987 Y-0.3763 I0.092 J-0.1938
G1 X0.3762 Y-0.3989
G3 X0.354 Y-0.4338 I0.23 J-0.1704
G1 X0.3483 Y-0.4503
X0.3433 Y-0.4647
G3 X0.3386 Y-0.5037 I0.3055 J-0.057
X0.3432 Y-0.5427 I0.3683 J0.0242
G1 X0.3515 Y-0.5662
X0.3541 Y-0.5735
G3 X0.3761 Y-0.6085 I0.2453 J0.1298
G1 X0.3987 Y-0.631
G3 X0.4337 Y-0.6532 I0.1763 J0.2396
G1 X0.4501 Y-0.659
X0.4641 Y-0.6639
G3 X0.5035 Y-0.6688 I0.0528 J0.2637
X0.5433 Y-0.664 I-0.0169 J0.3079
G1 X0.5733 Y-0.6534
G3 X0.6087 Y-0.6311 I-0.1318 J0.2489
G1 X0.6308 Y-0.6089
G3 X0.6534 Y-0.5736 I-0.2117 J0.1598
G1 X0.6637 Y-0.5439
X0.6647 Y-0.5407
G3 X0.6688 Y-0.4996 I-0.267 J0.0475
G1 X0.6658 Y-0.4749
X0.6647 Y-0.4667
X0.6637 Y-0.4635
X0.6533 Y-0.4339
G3 X0.6309 Y-0.3984 I-0.2434 J-0.1291
G1 X0.6087 Y-0.3764
G3 X0.5734 Y-0.3539 I-0.1744 J-0.2358
G1 X0.5433 Y-0.3435
G3 X0.5035 Y-0.3386 I-0.0523 J-0.2597
G1 X0.4994 Y-0.3389
X0.4923 Y-0.3397
X0.4894 Y-0.3403
X0.4866 Y-0.3412
X0.4841 Y-0.3428 Z0.642
X0.4816 Y-0.3444 Z0.6425
X0.4792 Y-0.3459 Z0.6434
X0.4772 Y-0.3484 Z0.6449
X0.4754 Y-0.3507 Z0.6468
X0.4738 Y-0.3528 Z0.6491
X0.473 Y-0.3552 Z0.6521
X0.4723 Y-0.3572 Z0.6555
X0.4718 Y-0.3586 Z0.6591
X0.4715 Y-0.3595 Z0.6629
X0.4714 Y-0.3597 Z0.6668
G0 Z1.3255
X-0.0253 Y-0.8211
Z0.7418
G1 Z0.7168 F50.
X-0.0252 Y-0.8208 Z0.7129
X-0.025 Y-0.8199 Z0.7091
X-0.0246 Y-0.8185 Z0.7055
X-0.0241 Y-0.8165 Z0.7021
X-0.0235 Y-0.814 Z0.6991
X-0.0227 Y-0.8111 Z0.6966
X-0.0219 Y-0.8079 Z0.6945
X-0.021 Y-0.8044 Z0.693
X-0.02 Y-0.8007 Z0.6921
X-0.0191 Y-0.7969 Z0.6918
G3 X0.0005 Y-0.6608 I-0.6183 J0.1584
G1 Y-0.6246
G3 X0.0091 Y-0.5942 I-0.1814 J0.0678
G1 X0.0155 Y-0.5586
X0.0204 Y-0.5228
G2 X0.0475 Y-0.3808 I0.7883 J-0.0768
G1 X0.0594 Y-0.3466
G2 X0.1771 Y-0.1663 I0.4595 J-0.1713
X0.328 Y-0.0684 I0.3311 J-0.3454
G1 X0.3621 Y-0.0562
X0.397 Y-0.0468
X0.4325 Y-0.0396
X0.4685 Y-0.0358
X0.5046 Y-0.0343
X0.5408 Y-0.0358
X0.5767 Y-0.0402
X0.6122 Y-0.0469
G2 X0.776 Y-0.1213 I-0.1137 J-0.4681
X0.9179 Y-0.2831 I-0.2749 J-0.3842
G1 X0.9336 Y-0.3157
X0.9475 Y-0.3491
X0.955 Y-0.3667
X0.9604 Y-0.3779
X0.9778 Y-0.4097
X0.9857 Y-0.445
X0.9864 Y-0.4812
G2 X0.9493 Y-0.6577 I-0.6626 J0.047
X0.8575 Y-0.8125 I-0.4636 J0.1703
G1 X0.8327 Y-0.8388
G2 X0.713 Y-0.9194 I-0.3615 J0.4083
G1 X0.6799 Y-0.9342
X0.6458 Y-0.9462
G2 X0.5033 Y-0.9681 I-0.1426 J0.4539
G1 X0.4671 Y-0.9665
X0.4312 Y-0.9621
X0.3957 Y-0.9553
G2 X0.2322 Y-0.8803 I0.1126 J0.461
G1 X0.2038 Y-0.8579
X0.177 Y-0.8335
X0.1524 Y-0.807
X0.1299 Y-0.7787
X0.1094 Y-0.7489
X0.0942 Y-0.716
X0.0848 Y-0.6811
X0.0798 Y-0.6453
G2 X0.1022 Y-0.4124 I0.6471 J0.0551
X0.1633 Y-0.2818 I0.4536 J-0.1325
G1 X0.1849 Y-0.2527
G2 X0.2934 Y-0.158 I0.3226 J-0.2601
G1 X0.3252 Y-0.1407
X0.3583 Y-0.1262
X0.3927 Y-0.1148
X0.4279 Y-0.1065
X0.4637 Y-0.1013
X0.4998 Y-0.0994
X0.536 Y-0.1007
X0.5719 Y-0.1052
X0.6072 Y-0.1129
X0.6418 Y-0.1237
X0.6752 Y-0.1376
X0.7072 Y-0.1544
X0.7376 Y-0.174
X0.7661 Y-0.1963
X0.7926 Y-0.2209
X0.8167 Y-0.2479
X0.8384 Y-0.2769
X0.8578 Y-0.3074
X0.8757 Y-0.3389
X0.8925 Y-0.3709
X0.9043 Y-0.4051
X0.9115 Y-0.4406
X0.9119 Y-0.4451
X0.9147 Y-0.4812
X0.9139 Y-0.5173
G2 X0.846 Y-0.7211 I-0.4256 J0.0287
G1 X0.8247 Y-0.7503
X0.8006 Y-0.7774
G2 X0.6838 Y-0.8617 I-0.2985 J0.2908
G1 X0.6506 Y-0.8761
X0.6163 Y-0.8875
X0.5811 Y-0.8959
X0.5453 Y-0.901
X0.5092 Y-0.903
X0.473 Y-0.9017
X0.4371 Y-0.8972
X0.4017 Y-0.8896
X0.3672 Y-0.8787
X0.3338 Y-0.8648
X0.3019 Y-0.8478
X0.2715 Y-0.8281
X0.2431 Y-0.8057
X0.2169 Y-0.7808
X0.1943 Y-0.7525
X0.1763 Y-0.7211
X0.1627 Y-0.6876
X0.153 Y-0.6527
X0.147 Y-0.6171
X0.144 Y-0.581
Y-0.5765
X0.1441 Y-0.572
X0.1501 Y-0.5489
X0.1521 Y-0.5421
G2 X0.2037 Y-0.484 I0.0934 J-0.031 F300.
G1 X1.2798 Y0.015
X1.3783 Y0.0451
X1.5098 Y0.0553
X2.4216 Y0.0521
X2.5284 Y0.0324
X2.6105 Y0.0003
X2.668 Y-0.0299
X2.7536 Y-0.097
X2.7995 Y-0.1468
G2 X2.8137 Y-0.2613 I-0.072 J-0.0671
G1 X2.7818 Y-0.3271
X2.7778 Y-0.3353 F50.
X2.7746 Y-0.3569
Y-0.3931
G3 X2.7617 Y-0.446 I0.3226 J-0.1066
X2.752 Y-0.5115 I1.7111 J-0.2872
G1 X2.7519 Y-0.5163
X2.7516 Y-0.5407
G2 X2.7463 Y-0.5735 I-0.1493 J0.0074
X2.7258 Y-0.6475 I-0.8076 J0.1835
X2.6845 Y-0.7232 I-1.252 J0.6346
G1 X2.6763 Y-0.7343
G2 X2.6188 Y-0.7955 I-0.8793 J0.7691
G1 X2.6105 Y-0.8019
G2 X2.5366 Y-0.8489 I-0.4978 J0.7001
X2.4462 Y-0.879 I-0.2809 J0.6934
G1 X2.438 Y-0.8803
G2 X2.3641 Y-0.8858 I-0.0946 J0.7698
X2.3148 Y-0.8809 I-0.0059 J0.1888
G1 X2.282 Y-0.8747
G2 X2.2409 Y-0.8636 I0.0267 J0.1805
X2.1618 Y-0.8247 I0.3979 J0.908
X2.0965 Y-0.7708 I1.0787 J1.3737
G1 X2.0888 Y-0.7625
G2 X2.0353 Y-0.6886 I0.7549 J0.6026
G1 X2.0273 Y-0.6712
X2.0081 Y-0.6228
G2 X1.9946 Y-0.5648 I0.1867 J0.0743
G1 X1.9914 Y-0.5407
G2 Y-0.4667 I0.2088 J0.037
X1.9999 Y-0.4092 I0.6559 J-0.0676
G1 X2.0052 Y-0.3928
X2.0081 Y-0.3846
X2.0273 Y-0.3362
X2.0354 Y-0.3188
G2 X2.0887 Y-0.2448 I0.8195 J-0.534
X2.1459 Y-0.1958 I0.373 J-0.3767
G1 X2.1618 Y-0.1828
G2 X2.2572 Y-0.1378 I0.3395 J-0.5958
X2.3476 Y-0.1215 I0.227 J-1.003
G1 X2.3641 Y-0.1216
G2 X2.438 Y-0.1271 I-0.0201 J-0.774
G1 X2.4463 Y-0.1284
G2 X2.5284 Y-0.1549 I-0.2362 J-0.8729
G1 X2.5366 Y-0.1585
G2 X2.6106 Y-0.2055 I-0.4306 J-0.7603
G1 X2.6189 Y-0.212
G2 X2.6764 Y-0.273 I-0.9443 J-0.948
G1 X2.6845 Y-0.2843
G2 X2.7258 Y-0.3599 I-1.1452 J-0.6751
X2.7503 Y-0.4524 I-0.7626 J-0.2512
G1 X2.7511 Y-0.4585
X2.7516 Y-0.4667
X2.7519 Y-0.4914
Y-0.5163
G3 X2.7584 Y-0.5324 I0.025 J0.0006
G1 X2.7685 Y-0.5408
X2.8174 Y-0.5818 F300.
G2 X2.8416 Y-0.705 I-0.0623 J-0.0762
G1 X2.7913 Y-0.797
X2.7831 Y-0.8085
G2 X2.7748 Y-0.82 I-0.0838 J0.0516
G1 X2.6927 Y-0.9031
X2.5899 Y-0.9679
X2.4791 Y-1.0051
X2.4216 Y-1.0131
X1.4934 Y-1.0628
X1.3783 Y-1.0525
G2 X1.2962 Y-0.9807 I0.0129 J0.0976
G1 X1.2767 Y-0.9047
X1.269 Y-0.8747 F50.
Y-0.8687
G3 X1.2494 Y-0.8279 I-0.1614 J-0.0522
G1 X1.2299 Y-0.7975
X1.2097 Y-0.7675
G2 X1.1416 Y-0.6425 I0.5296 J0.3696
G1 X1.1349 Y-0.6298
X1.1169 Y-0.5985
X1.1083 Y-0.5633
X1.1072 Y-0.5272
G2 X1.136 Y-0.3858 I0.4886 J-0.0259
G1 X1.1501 Y-0.3525
X1.1671 Y-0.3206
X1.1871 Y-0.2904
X1.2095 Y-0.262
X1.2349 Y-0.2363
X1.2624 Y-0.2128
X1.2923 Y-0.1923
X1.3239 Y-0.1747
X1.357 Y-0.1602
X1.3915 Y-0.1493
X1.4268 Y-0.1414
X1.4628 Y-0.1375
X1.499 Y-0.1367
X1.535 Y-0.1398
X1.5706 Y-0.1464
X1.6054 Y-0.1563
X1.639 Y-0.1698
X1.6713 Y-0.1861
X1.7015 Y-0.2059
X1.7299 Y-0.2284
X1.7558 Y-0.2537
X1.779 Y-0.2815
X1.7996 Y-0.3112
X1.8169 Y-0.343
X1.8321 Y-0.3751
X1.8491 Y-0.407
X1.8585 Y-0.442
X1.8607 Y-0.4781
X1.859 Y-0.5142
X1.8549 Y-0.5502
X1.8474 Y-0.5855
X1.837 Y-0.6202
X1.8234 Y-0.6537
X1.8066 Y-0.6858
X1.7871 Y-0.7163
X1.7645 Y-0.7445
X1.7395 Y-0.7707
X1.7118 Y-0.794
X1.6822 Y-0.8147
X1.6506 Y-0.8324
X1.6174 Y-0.8468
X1.583 Y-0.8582
X1.5477 Y-0.8656
X1.5117 Y-0.8701
X1.4756 Y-0.8706
X1.4395 Y-0.8677
X1.4044 Y-0.8589
X1.3718 Y-0.8432
X1.3507 Y-0.8287
X1.3463 Y-0.826
X1.3419 Y-0.8235
X1.3373 Y-0.8213
G2 X1.518 Y-0.154 I0.1496 J0.3176
X1.456 Y-0.8535 I-0.031 J-0.3498
X1.3372 Y-0.8213 I0.031 J0.3498
G1 X1.3208 Y-0.8204 Z0.6926
X1.3077 Y-0.8231 Z0.698
X1.2029 Y-0.8447 Z0.7407 F300.
G2 X1.1101 Y-0.8036 Z0.8213 I-0.0173 J0.0863
G1 X1.0498 Y-0.6919 Z0.9402
X1.0204 Y-0.6228 Z1.0049
X1.0188 Y-0.6188 Z1.0083
X1.0174 Y-0.6146 Z1.0117
X1.0169 Y-0.6129 Z1.0131
X1.0153 Y-0.6064 Z1.0181
X1.0146 Y-0.6023 Z1.0211
X1.014 Y-0.5982 Z1.0241
X1.0136 Y-0.5941 Z1.027
X1.0135 Y-0.59 Z1.0299
Y-0.5859 Z1.0326
X1.0137 Y-0.5818 Z1.0354
X1.0141 Y-0.5776 Z1.0381
X1.0147 Y-0.5735 Z1.0407
X1.0155 Y-0.5694 Z1.0433
X1.0165 Y-0.5653 Z1.0459
X1.0169 Y-0.564 Z1.0467
X1.0192 Y-0.5571 Z1.051
X1.0209 Y-0.553 Z1.0534
X1.0228 Y-0.5489 Z1.0559
X1.0251 Y-0.5447 Z1.0584
X1.0275 Y-0.5407 Z1.0608
X1.0303 Y-0.5366 Z1.0631
X1.0333 Y-0.5327 Z1.0654
X1.0336 Y-0.5325 Z1.0655
G2 X1.0413 Y-0.5242 Z1.0703 I0.0679 J-0.056
G1 X1.0415 Y-0.524 Z1.0705
G2 X1.0498 Y-0.5172 Z1.0744 I0.0599 J-0.0645
G1 X1.0515 Y-0.516 Z1.0751
X1.0547 Y-0.5139 Z1.0763
X1.058 Y-0.5119 Z1.0775
X1.062 Y-0.5098 Z1.0788
X1.0662 Y-0.5078 Z1.08
X1.1053 Y-0.4988 Z1.0851
X1.1085 Y-0.498 Z1.0855 F50.
G3 X1.136 Y-0.4996 I0.0498 J0.6363
G1 X1.1399
G3 X1.1633 Y-0.4668 I-0.1449 J0.1279
G1 X1.1813 Y-0.4354
X1.1987 Y-0.4037
X1.2175 Y-0.3727
X1.2385 Y-0.3433
X1.2621 Y-0.3158
X1.2883 Y-0.2909
X1.3171 Y-0.269
X1.3481 Y-0.2504
X1.3812 Y-0.2357
X1.4158 Y-0.2251
X1.4514 Y-0.2187
X1.4875 Y-0.2167
X1.5236 Y-0.2192
X1.5591 Y-0.2263
X1.5934 Y-0.2377
X1.6261 Y-0.2533
X1.6565 Y-0.2729
X1.6842 Y-0.2962
X1.7088 Y-0.3227
X1.7299 Y-0.3521
X1.747 Y-0.384
X1.76 Y-0.4177
X1.7687 Y-0.4529
X1.7729 Y-0.4888
X1.7725 Y-0.525
X1.7675 Y-0.5608
X1.758 Y-0.5957
X1.7442 Y-0.6292
X1.7264 Y-0.6606
X1.7046 Y-0.6896
X1.6795 Y-0.7156
X1.6512 Y-0.7382
X1.6203 Y-0.757
X1.5873 Y-0.7718
X1.5527 Y-0.7823
X1.517 Y-0.7885
X1.4809 Y-0.79
X1.4448 Y-0.7869
X1.4095 Y-0.7793
X1.3753 Y-0.7673
X1.343 Y-0.7511
X1.3129 Y-0.731
X1.2857 Y-0.7072
X1.2616 Y-0.6801
X1.2411 Y-0.6503
X1.2272 Y-0.6169
X1.2213 Y-0.5812
X1.2219 Y-0.5451
X1.2276 Y-0.5093
X1.2326 Y-0.492
X1.2341 Y-0.4877
X1.2463 Y-0.4536
X1.2623 Y-0.4212
X1.2821 Y-0.3909
X1.3054 Y-0.3632
X1.3322 Y-0.3389
X1.363 Y-0.3199
X1.396 Y-0.3051
X1.4308 Y-0.2952
X1.4667 Y-0.2907
X1.5029 Y-0.2918
X1.5384 Y-0.2988
X1.5723 Y-0.3114
X1.6037 Y-0.3294
X1.6316 Y-0.3525
X1.6552 Y-0.3799
X1.6738 Y-0.4109
X1.6868 Y-0.4447
X1.6938 Y-0.4801
X1.6946 Y-0.5163
X1.6893 Y-0.5521
X1.6777 Y-0.5864
X1.6605 Y-0.6182
X1.638 Y-0.6465
X1.6109 Y-0.6705
X1.5801 Y-0.6895
X1.5464 Y-0.7028
X1.511 Y-0.7101
X1.4748 Y-0.7112
X1.439 Y-0.7059
X1.4047 Y-0.6944
X1.373 Y-0.677
X1.3468 Y-0.652
X1.3373 Y-0.6366
X1.3354 Y-0.6325
X1.3336 Y-0.6283
G3 X1.3274 Y-0.6202 I-0.0226 J-0.0108
G1 X1.3218 Y-0.6153
G3 X1.3101 Y-0.6096 I-0.0164 J-0.0189
X1.3007 Y-0.6587 I-0.0047 J-0.0246 F300.
X1.3132 Y-0.6579 I0.0047 J0.0246
G1 X1.8591 Y-0.4777
G3 X1.8434 Y-0.4302 I-0.0078 J0.0237
X1.8451 Y-0.4782 I0.0078 J-0.0237
G1 X1.8523 Y-0.48
G3 X1.9576 Y-0.4978 I0.1584 J0.6183
X1.9884 Y-0.4996 I0.0531 J0.636 F50.
G1 X1.9922
X1.9964 Y-0.4953
X2.0002 Y-0.4906
G3 X2.0447 Y-0.4124 I-0.4524 J0.3092
G1 X2.062 Y-0.3806
X2.0807 Y-0.3496
X2.1019 Y-0.3203
X2.1254 Y-0.2928
X2.1516 Y-0.2678
X2.18 Y-0.2455
X2.2107 Y-0.2262
X2.2432 Y-0.2104
X2.2772 Y-0.198
X2.3125 Y-0.1898
X2.3483 Y-0.1851
X2.3845 Y-0.185
X2.4205 Y-0.1884
X2.4558 Y-0.1963
X2.4901 Y-0.2078
X2.5228 Y-0.2234
X2.5535 Y-0.2425
X2.582 Y-0.2648
X2.6076 Y-0.2904
X2.6303 Y-0.3185
X2.6495 Y-0.3492
X2.6656 Y-0.3816
X2.6773 Y-0.4159
X2.6854 Y-0.4511
X2.6892 Y-0.4871
X2.689 Y-0.5233
X2.6847 Y-0.5592
X2.6763 Y-0.5944
X2.6642 Y-0.6285
X2.648 Y-0.6609
X2.6286 Y-0.6914
X2.6055 Y-0.7193
X2.5798 Y-0.7448
X2.551 Y-0.7667
X2.5202 Y-0.7855
X2.4872 Y-0.8005
X2.4528 Y-0.8118
X2.4174 Y-0.8191
X2.3814 Y-0.8222
X2.3452 Y-0.8215
X2.3094 Y-0.8164
X2.2743 Y-0.8076
X2.2405 Y-0.7945
X2.2083 Y-0.7782
X2.1783 Y-0.7578
X2.1507 Y-0.7344
X2.1261 Y-0.7079
X2.1045 Y-0.6788
X2.0864 Y-0.6476
X2.0745 Y-0.6134
X2.0703 Y-0.5775
X2.072 Y-0.5413
X2.0783 Y-0.5057
X2.0899 Y-0.4714
X2.1041 Y-0.4381
X2.1212 Y-0.4062
X2.1413 Y-0.3761
X2.1644 Y-0.3483
X2.1906 Y-0.3233
X2.2195 Y-0.3015
X2.2234 Y-0.2993
X2.2551 Y-0.2818
X2.2888 Y-0.2687
X2.324 Y-0.2602
X2.36 Y-0.2568
X2.3961 Y-0.2584
X2.4317 Y-0.2652
X2.4659 Y-0.2771
X2.498 Y-0.2937
X2.5274 Y-0.3148
X2.5534 Y-0.34
X2.5754 Y-0.3687
X2.593 Y-0.4003
X2.6057 Y-0.4342
X2.6133 Y-0.4696
X2.6157 Y-0.5057
X2.6127 Y-0.5417
X2.6044 Y-0.5769
X2.5911 Y-0.6106
X2.573 Y-0.6419
X2.5504 Y-0.6702
X2.5239 Y-0.6948
X2.4941 Y-0.7153
X2.4615 Y-0.7311
X2.427 Y-0.7419
X2.3913 Y-0.7477
X2.3551 Y-0.748
X2.3193 Y-0.743
X2.2845 Y-0.7328
X2.2517 Y-0.7176
X2.2215 Y-0.6977
X2.1954 Y-0.6726
X2.1756 Y-0.6423
X2.1628 Y-0.6085
X2.157 Y-0.5728
X2.1574 Y-0.5366
X2.1637 Y-0.501
X2.1696 Y-0.4839
X2.1713 Y-0.4797
X2.1732 Y-0.4756
G3 X2.1664 Y-0.4474 I-0.0232 J0.0094
G1 X1.5344 Y-0.1698 F300.
G3 X1.4851 Y-0.1623 I-0.0391 J-0.0903
G1 X1.3701 Y-0.1763
X0.5037 Y-0.5037
Z0.1909
Z0.16 F50.
X0.5009 Y-0.5047
X0.5004 Y-0.5061
X0.5013 Y-0.5073
X0.5026 Y-0.5082
X0.5041 Y-0.5084
X0.5055 Y-0.5085
X0.5069 Y-0.5078
X0.5081 Y-0.507
X0.5093 Y-0.5042
Y-0.5012
X0.5087 Y-0.4998
X0.5077 Y-0.4987
X0.5051 Y-0.4973
X0.5021 Y-0.4969
X0.4993 Y-0.498
X0.4971 Y-0.5001
X0.4958 Y-0.5028
X0.4957 Y-0.5058
X0.4965 Y-0.5086
X0.4983 Y-0.511
X0.5008 Y-0.5127
X0.5037 Y-0.5135
X0.5067 Y-0.5134
X0.5095 Y-0.5123
X0.5119 Y-0.5105
X0.5137 Y-0.5082
X0.5149 Y-0.5054
X0.5152 Y-0.5024
X0.5141 Y-0.4965
X0.5103 Y-0.4918
X0.5049 Y-0.4894
X0.4989 Y-0.4896
X0.4934 Y-0.4921
X0.4893 Y-0.4964
X0.4871 Y-0.502
X0.487 Y-0.508
X0.4889 Y-0.5137
X0.4926 Y-0.5184
G3 X0.5252 Y-0.5063 I0.0128 J0.0154
X0.4906 Y-0.4804 I-0.0234 J0.0048
X0.4968 Y-0.5351 I0.0128 J-0.0263
X0.5398 Y-0.4937 I0.0093 J0.0334
X0.474 Y-0.4716 I-0.0393 J-0.008
X0.4916 Y-0.5524 I0.0295 J-0.0359
X0.5598 Y-0.5047 I0.0156 J0.0503
X0.4788 Y-0.4452 I-0.0592 J0.0044
X0.4494 Y-0.5489 I0.0225 J-0.0624
X0.568 Y-0.5473 I0.0587 J0.0444
X0.5323 Y-0.4229 I-0.0647 J0.0487
X0.4105 Y-0.4929 I-0.0337 J-0.0822
X0.5125 Y-0.6048 I0.0955 J-0.0154
X0.6107 Y-0.4802 I-0.0047 J0.1047
X0.4603 Y-0.3936 I-0.1114 J-0.0195
X0.403 Y-0.4353 I0.035 J-0.1082
X0.5309 Y-0.6311 I0.1043 J-0.0716
X0.6348 Y-0.4565 I-0.0233 J0.1321
X0.4556 Y-0.3635 I-0.136 J-0.0429
X0.3506 Y-0.5129 I0.0421 J-0.1412
X0.5439 Y-0.6604 I0.1572 J0.0056
X0.6161 Y-0.6238 I-0.0292 J0.1472
G1 X0.6226 Y-0.6171
X0.6308 Y-0.6089
G3 X0.6534 Y-0.5736 I-0.2117 J0.1598
G1 X0.6637 Y-0.5439
X0.6647 Y-0.5407
G3 X0.6688 Y-0.4996 I-0.267 J0.0475
G1 X0.6658 Y-0.4749
X0.6647 Y-0.4667
X0.6637 Y-0.4635
X0.6533 Y-0.4339
G3 X0.6309 Y-0.3984 I-0.2434 J-0.1291
G1 X0.6087 Y-0.3764
G3 X0.5734 Y-0.3539 I-0.1744 J-0.2358
G1 X0.5433 Y-0.3435
G3 X0.5035 Y-0.3386 I-0.0523 J-0.2597
X0.4641 Y-0.3434 I0.0196 J-0.3244
G1 X0.4337 Y-0.3542
X0.4245 Y-0.359
X0.4156 Y-0.3643
X0.407 Y-0.3701
X0.3987 Y-0.3763
X0.3762 Y-0.3989
G3 X0.354 Y-0.4338 I0.23 J-0.1704
G1 X0.3483 Y-0.4503
X0.3433 Y-0.4647
G3 X0.3386 Y-0.5037 I0.3055 J-0.057
X0.3432 Y-0.5427 I0.3683 J0.0242
G1 X0.3515 Y-0.5662
X0.3541 Y-0.5735
G3 X0.3761 Y-0.6085 I0.2453 J0.1298
G1 X0.3987 Y-0.631
G3 X0.4337 Y-0.6532 I0.1763 J0.2396
G1 X0.4501 Y-0.659
X0.4641 Y-0.6639
G3 X0.5035 Y-0.6688 I0.0528 J0.2637
X0.5433 Y-0.664 I-0.0169 J0.3079
G1 X0.5733 Y-0.6534
G3 X0.6087 Y-0.6311 I-0.1318 J0.2489
G1 X0.616 Y-0.6237
X0.6179 Y-0.6214
X0.6195 Y-0.6189
X0.6205 Y-0.6161 Z0.1602
X0.6215 Y-0.6133 Z0.1607
X0.6224 Y-0.6106 Z0.1616
X0.6226 Y-0.6086 Z0.1625
X0.6228 Y-0.6066 Z0.1635
X0.6223 Y-0.6041 Z0.1654
X0.6219 Y-0.6018 Z0.1675
X0.6215 Y-0.5997 Z0.1699
X0.6212 Y-0.598 Z0.1726
X0.6206 Y-0.5967 Z0.1755
X0.6202 Y-0.5957 Z0.1786
X0.6199 Y-0.5952 Z0.1817
Y-0.595 Z0.185
G0 Z1.3255
X2.9666 Y0.2171
Z0.21
G1 Z0.185 F50.
X2.9664 Y0.2169 Z0.1811
X2.9656 Y0.2163 Z0.1773
X2.9645 Y0.2153 Z0.1737
X2.9629 Y0.214 Z0.1703
X2.9609 Y0.2124 Z0.1673
X2.9586 Y0.2106 Z0.1648
X2.956 Y0.2085 Z0.1627
X2.9532 Y0.2062 Z0.1612
X2.9502 Y0.2038 Z0.1603
X2.9472 Y0.2013 Z0.16
G3 X2.8502 Y0.1038 I0.4014 J-0.4962
G1 X2.8475 Y0.1002
G2 X2.8492 Y-0.2616 I-22.4928 J-0.2875
G1 X2.8496 Y-0.9129
X2.8481 Y-0.9309
X2.8381 Y-0.9657
X2.8178 Y-0.9956
X2.7908 Y-1.0197
X2.7597 Y-1.0382
X2.7262 Y-1.0518
X2.6913 Y-1.0615
G2 X2.5477 Y-1.0776 I-0.1618 J0.7931
X2.2583 Y-1.0811 I-0.2301 J7.0627
G1 X2.1135 Y-1.0814
X1.9688 Y-1.0815
X0.0873 Y-1.0819
X0.0517 Y-1.0759
X0.0201 Y-1.0583
X-0.0058 Y-1.033
X-0.0259 Y-1.0029
X-0.0409 Y-0.97
X-0.0516 Y-0.9354
G2 X-0.0698 Y-0.7921 I0.708 J0.1627
X-0.0739 Y-0.5027 I6.2187 J0.2321
G1 X-0.0743 Y-0.3941
X-0.0745 Y-0.0866
X-0.0682 Y-0.0509
X-0.0503 Y-0.0195
X-0.0249 Y0.0062
X0.0053 Y0.0262
X0.0383 Y0.0411
X0.0729 Y0.0518
G2 X0.2162 Y0.0698 I0.1624 J-0.7139
X0.5056 Y0.0737 I0.2301 J-6.2766
G1 X0.6142 Y0.074
X0.8674 Y0.0741
X2.6404 Y0.0745
X2.6758 Y0.0674
X2.707 Y0.049
X2.7324 Y0.0233
X2.7521 Y-0.0071
X2.7668 Y-0.0402
X2.7773 Y-0.0748
G2 X2.7951 Y-0.2182 I-0.7269 J-0.1627
X2.799 Y-0.5076 I-6.3724 J-0.2323
G1 X2.7994 Y-0.6523
X2.7995 Y-0.8332
X2.7944 Y-0.8691
X2.7806 Y-0.9025
X2.7595 Y-0.9319
X2.7329 Y-0.9565
X2.7026 Y-0.9762
X2.6699 Y-0.9916
X2.6356 Y-1.0031
G2 X2.4927 Y-1.0249 I-0.1758 J0.6732
X2.2396 Y-1.0308 I-0.2185 J3.924
G1 X2.2034 Y-1.0312
X2.131 Y-1.0313
X1.9863 Y-1.0315
X1.6607
X0.516 Y-1.0318
X0.5076 Y-1.0319
X0.4994 Y-1.0318
X0.4632 Y-1.033
G3 X0.1738 Y-1.0319 I-0.2236 J-20.8794
G1 X0.1379 Y-1.0269
X0.1045 Y-1.0131
X0.0752 Y-0.9919
X0.0506 Y-0.9653
X0.0309 Y-0.935
X0.0156 Y-0.9022
X0.0041 Y-0.8679
G2 X-0.0177 Y-0.7251 I0.6727 J0.1755
X-0.0235 Y-0.5239 I3.3452 J0.1975
G1 X-0.0239 Y-0.5212
X-0.0244 Y-0.516
Y-0.4914
X-0.0243 Y-0.49
Y-0.1584
X-0.0152 Y-0.1233
X0.002 Y-0.0915
X0.0257 Y-0.0642
X0.0541 Y-0.0418
X0.0857 Y-0.024
X0.1192 Y-0.0104
X0.1539 Y-0.0003
G2 X0.2972 Y0.0185 I0.1744 J-0.774
X0.483 Y0.0234 I0.1932 J-3.8138
G1 X0.4912 Y0.0242
X0.5076 Y0.0245
X0.5158 Y0.0244
X0.552 Y0.024
X2.5058 Y0.0244
X2.542 Y0.0245
X2.5781 Y0.0217
X2.6123 Y0.01
X2.6428 Y-0.0094
X2.6686 Y-0.0348
X2.6896 Y-0.0643
X2.7059 Y-0.0966
X2.7184 Y-0.1305
X2.7276 Y-0.1655
G2 X2.7423 Y-0.2751 I-0.7567 J-0.1579
G1 X2.744 Y-0.2873
X2.7472 Y-0.2991
X2.7519 Y-0.3104
G2 X2.7778 Y-0.3681 I-0.3419 J-0.1881
G1 X2.7798 Y-0.3764
X2.7934 Y-0.4339
G2 X2.7981 Y-0.4914 I-0.2138 J-0.0465
G1 Y-0.516
G2 X2.7934 Y-0.5735 I-0.2211 J-0.0109
G1 X2.7798 Y-0.631
X2.7777 Y-0.6393
X2.7751 Y-0.6475
G3 X2.7603 Y-0.7154 I0.3638 J-0.1144
G1 X2.7562 Y-0.7514
X2.752 Y-0.7873
X2.7414 Y-0.8219
X2.7239 Y-0.8536
X2.7008 Y-0.8814
X2.6732 Y-0.9048
X2.6424 Y-0.9238
X2.6095 Y-0.9389
X2.5752 Y-0.9504
G2 X2.4326 Y-0.9735 I-0.1845 J0.6884
X2.1794 Y-0.9806 I-0.2254 J3.4966
G1 X2.1433 Y-0.9811
X2.0709 Y-0.9813
X1.9624 Y-0.9814
X1.6367 Y-0.9816
X0.9854 Y-0.9817
X0.7478
X0.7353 Y-0.9826
X0.7231 Y-0.9851
X0.7114 Y-0.9893
X0.7038 Y-0.9926
X0.6965 Y-0.9956
X0.6637 Y-1.0057
X0.6226 Y-1.0181
X0.6144 Y-1.0202
X0.598 Y-1.0233
X0.5897 Y-1.0246
X0.5322 Y-1.0302
X0.516 Y-1.0318
X0.5121 Y-1.0326
X0.5097 Y-1.0331
X0.5073
X0.5049 Y-1.0327
X0.5022 Y-1.0321
X0.4994 Y-1.0318
G2 X0.409 Y-1.0234 I0.0624 J1.1687
G1 X0.3926 Y-1.0199
X0.3844 Y-1.018
X0.3433 Y-1.0056
G3 X0.2279 Y-0.9868 I-0.1569 J-0.6003
G1 X0.1929 Y-0.9776
X0.1605 Y-0.9615
X0.1318 Y-0.9394
X0.1075 Y-0.9127
X0.0875 Y-0.8825
X0.0716 Y-0.85
X0.0593 Y-0.816
X0.0499 Y-0.7808
X0.0477 Y-0.772
X0.0446 Y-0.7634
X0.0408 Y-0.7551
X0.0227 Y-0.7214
G2 X0.0043 Y-0.6721 I0.2028 J0.1041
G1 X-0.0107 Y-0.6228
X-0.0126 Y-0.6146
X-0.016 Y-0.5982
X-0.0171 Y-0.59
X-0.0239 Y-0.5212
X-0.024 Y-0.5205
X-0.0247 Y-0.5174
X-0.0257 Y-0.5137
X-0.026 Y-0.5113
X-0.0262 Y-0.509
Y-0.5018
X-0.0261 Y-0.4995
X-0.0258 Y-0.4971
X-0.025 Y-0.4934
X-0.0243 Y-0.49
X-0.018 Y-0.4256
G2 X-0.0106 Y-0.3846 I0.2229 J-0.0186
G1 X0.0018 Y-0.3435
G3 X0.0197 Y-0.2332 I-0.5398 J0.1444
G1 X0.0279 Y-0.1979
X0.043 Y-0.165
X0.0642 Y-0.1357
X0.0903 Y-0.1107
X0.1201 Y-0.0901
X0.1523 Y-0.0737
G2 X0.2355 Y-0.0479 I0.1685 J-0.3976
G1 X0.2438 Y-0.0448
X0.2518 Y-0.041
X0.2858 Y-0.0228
G2 X0.3351 Y-0.0045 I0.1054 J-0.2077
G1 X0.3844 Y0.0106
G2 X0.4419 Y0.0196 I0.0722 J-0.2748
G1 X0.483 Y0.0236
X0.4853 Y0.024
X0.4868 Y0.0244
X0.4909 Y0.0255
X0.4932 Y0.0258
X0.4955 Y0.026
X0.5042 Y0.0262
X0.5065 Y0.0261
X0.5087 Y0.0258
X0.5129 Y0.025
X0.5158 Y0.0244
X0.5487 Y0.0212
X0.5897 Y0.0172
X0.598 Y0.0159
X0.6144 Y0.0128
X0.6226 Y0.0107
X0.6637 Y-0.0017
G3 X0.7748 Y-0.0199 I0.1455 J0.539
X0.9918 Y-0.0253 I0.1874 J3.194
G1 X1.028 Y-0.0256
X1.1003 Y-0.0258
X1.2451
X2.4391 Y-0.0256
X2.4752
X2.5112 Y-0.0293
X2.5457 Y-0.0404
X2.5769 Y-0.0586
X2.6041 Y-0.0825
X2.6267 Y-0.1107
X2.645 Y-0.1419
X2.6594 Y-0.1751
X2.6633 Y-0.1848
X2.6686 Y-0.1937
X2.6751 Y-0.2018
G2 X2.7256 Y-0.2622 I-2.4152 J-2.0675
X2.7519 Y-0.3104 I-0.3337 J-0.2135
G3 X2.7668 Y-0.3224 I0.0219 J0.012
G1 X2.7775 Y-0.326
G2 X2.8728 Y-0.4156 I-0.0577 J-0.1567 F300.
G1 X2.8738 Y-0.4183
X2.8745 Y-0.4211
X2.8748 Y-0.424
X2.8812 Y-0.5203
Y-0.5232
X2.8809 Y-0.5261
X2.8803 Y-0.5289
G2 X2.7993 Y-0.6295 I-0.1604 J0.0463
G1 X2.7875 Y-0.6352 F50.
G3 X2.7751 Y-0.6475 I0.0101 J-0.0229
G1 X2.7666 Y-0.6672
X2.7644 Y-0.6721
X2.7396 Y-0.7214
X2.735 Y-0.7296
X2.7183 Y-0.7617
X2.6981 Y-0.7917
X2.6741 Y-0.8188
X2.6467 Y-0.8424
X2.6165 Y-0.8623
X2.5842 Y-0.8787
X2.5505 Y-0.8917
X2.549 Y-0.8922
X2.5483 Y-0.8925
G3 X2.5342 Y-0.9178 I0.0107 J-0.0226
X2.5755 Y-0.9339 I0.0249 J0.0027 F300.
G1 X2.7726 Y-0.7618
G3 X2.7619 Y-0.7187 I-0.0164 J0.0188
X2.735 Y-0.7296 I-0.0057 J-0.0243 F50.
G2 X2.7173 Y-0.7554 I-0.106 J0.054
G1 X2.6977 Y-0.7789
X2.6763 Y-0.8044
X2.668 Y-0.8131
X2.6606 Y-0.82
X2.6516 Y-0.8274
X2.6023 Y-0.8641
G2 X2.5695 Y-0.8834 I-0.0962 J0.1259
X2.4955 Y-0.9144 I-0.6085 J1.3486
G1 X2.4709 Y-0.9199
X2.4216 Y-0.9286
G2 X2.3805 Y-0.932 I-0.0356 J0.181
G1 X2.3444 Y-0.9327
G3 X2.0911 Y-0.9313 I-0.1718 J-8.4987
G1 X1.9102 Y-0.9314
X1.5163 Y-0.9316
X1.5154
X1.5016 Y-0.9321
X1.4934
X1.492 Y-0.932
X1.4558 Y-0.9317
X1.3473 Y-0.9316
X0.8414 Y-0.9317
X0.8253 Y-0.9331
X0.8097 Y-0.9374
X0.7951 Y-0.9443
G2 X0.7114 Y-0.9894 I-0.5582 J0.9357
G1 X0.7081 Y-0.9913
X0.7051 Y-0.9937
X0.7025 Y-0.9965
X0.7003 Y-0.9997
X0.6987 Y-1.0032
X0.6976 Y-1.0069
X0.6972 Y-1.0107
X0.6973 Y-1.0146
G3 X0.7212 Y-1.0368 I0.0249 J0.0027 F300.
G1 X1.4851 Y-1.0564
G3 X1.5262 Y-1.0419 I0.0011 J0.0623
G1 Y-1.0418
G3 X1.5208 Y-0.9423 I-0.04 J0.0478
X1.492 Y-0.932 I-0.0346 J-0.0518 F50.
G2 X1.4159 Y-0.9269 I0.0638 J1.5238
G1 X1.3948 Y-0.922
X1.3866 Y-0.9197
X1.3373 Y-0.9049
G3 X1.24 Y-0.8884 I-0.134 J-0.494
X1.0231 Y-0.8823 I-0.1874 J-2.8226
G1 X0.9869 Y-0.882
X0.9145 Y-0.8818
X0.9042 Y-0.882
G3 X0.8478 Y-0.9028 I0.0018 J-0.0916
G1 X0.8098 Y-0.9339
G2 X0.7951 Y-0.9443 I-0.0682 J0.0814
G3 X0.7832 Y-0.9707 I0.0126 J-0.0216
X0.809 Y-0.9908 I0.0245 J0.0048 F300.
G1 X1.3455 Y-0.9638
G3 X1.3629 Y-0.9222 I-0.0013 J0.025
G1 X1.3627 Y-0.922
G3 X1.3373 Y-0.9049 I-0.0464 J-0.0416 F50.
G2 X1.2881 Y-0.8821 I0.0553 J0.1836
G1 X1.2753 Y-0.8749
G3 X1.2022 Y-0.85 I-0.1185 J-0.2286
X1.0687 Y-0.8355 I-0.1511 J-0.7701
X0.9543 Y-0.8332 I-0.0964 J-1.9261
X0.8882 Y-0.8652 I0.0039 J-0.0925
G1 X0.8807 Y-0.8738
G2 X0.8477 Y-0.9027 I-0.1928 J0.187
G1 X0.845 Y-0.9055
X0.8428 Y-0.9087
X0.8411 Y-0.9122
X0.8399 Y-0.9158
X0.8394 Y-0.9197
Y-0.9235
X0.84 Y-0.9274
X0.8412 Y-0.931
G3 X0.8659 Y-0.9465 I0.0231 J0.0095 F300.
G1 X1.2636 Y-0.921
G3 X1.2864 Y-0.9016 I-0.0016 J0.0249
X1.2753 Y-0.8749 I-0.0244 J0.0056 F50.
G1 X1.2633 Y-0.868
X1.2377 Y-0.8529
X1.2305 Y-0.8472
X1.2246 Y-0.8423
G3 X1.1533 Y-0.8086 I-0.1169 J-0.1552
X1.0437 Y-0.7898 I-0.1482 J-0.5337
X0.9877 Y-0.7884 I-0.037 J-0.3598
X0.9243 Y-0.8216 I0.0075 J-0.0915
G1 X0.8986 Y-0.8529
X0.8937 Y-0.8588
X0.8882 Y-0.8652
G3 X0.8866 Y-0.8942 I0.0195 J-0.0156
X0.9094 Y-0.9058 I0.0211 J0.0133 F300.
G1 X1.2096 Y-0.8859
G3 X1.231 Y-0.8706 I-0.0017 J0.0249
X1.2246 Y-0.8423 I-0.0231 J0.0096 F50.
G1 X1.2141 Y-0.8335
X1.2083 Y-0.8282
X1.1822 Y-0.8036
G3 X1.102 Y-0.7624 I-0.1281 J-0.1506
X1.0213 Y-0.7492 I-0.0835 J-0.2565
X0.9451 Y-0.7934 I0.0024 J-0.0919
G1 X0.9389 Y-0.8036
X0.9323 Y-0.8118
X0.9243 Y-0.8216
G3 X0.9192 Y-0.8368 I0.0199 J-0.0152
X0.9233 Y-0.8506 I0.025 J0.
X0.9459 Y-0.8617 I0.0208 J0.0138 F300.
G1 X1.1662 Y-0.8461
G3 X1.1868 Y-0.8322 I-0.0018 J0.0249
X1.1822 Y-0.8036 I-0.0224 J0.011 F50.
G2 X1.1514 Y-0.7709 I0.1592 J0.1807
G3 X1.1101 Y-0.7375 I-0.0866 J-0.0651
X1.0322 Y-0.718 I-0.0747 J-0.1327
X0.961 Y-0.7655 I0.0095 J-0.0913
G1 X0.9583 Y-0.7707
X0.9538 Y-0.7789
X0.9451 Y-0.7934
G3 X0.9483 Y-0.8222 I0.0218 J-0.0122
X0.9702 Y-0.8304 I0.0187 J0.0166 F300.
G1 X1.1336 Y-0.8088
G3 X1.1499 Y-0.7997 I-0.0033 J0.0248
X1.1516 Y-0.7707 I-0.0195 J0.0157 F50.
G1 X1.1401 Y-0.7538
X1.1349 Y-0.7461
X1.1279 Y-0.7354
G3 X1.0384 Y-0.6936 I-0.081 J-0.0567
G1 X1.0231 Y-0.6975
G3 X0.9762 Y-0.7372 I0.0266 J-0.0789
X0.9809 Y-0.7658 I0.0224 J-0.011
X0.9986 Y-0.7732 I0.0178 J0.0176 F300.
G1 X1.1065 Y-0.7734
G3 X1.1258 Y-0.7643 I0. J0.025
X1.1279 Y-0.7354 I-0.0193 J0.0159 F50.
G1 X1.1187 Y-0.7214
X1.1081 Y-0.705
X1.1073 Y-0.7035
G3 X1.0679 Y-0.6754 I-0.0516 J-0.0307
X0.9877 Y-0.7144 I-0.0163 J-0.0685
X0.994 Y-0.7427 I0.023 J-0.0097
X1.0139 Y-0.7489 I0.0167 J0.0186 F300.
G1 X1.088 Y-0.7393
G3 X1.1027 Y-0.7321 I-0.0032 J0.0248
X1.1073 Y-0.7035 I-0.0178 J0.0175 F50.
G1 X1.1037 Y-0.6968
X1.0991 Y-0.6855
G3 X1.0558 Y-0.656 I-0.0457 J-0.0204
X0.9955 Y-0.6967 I-0.0049 J-0.0578
G1 X0.9948 Y-0.7005
X0.9946 Y-0.7044
X0.9951 Y-0.7082
X0.9961 Y-0.7119
X0.9977 Y-0.7155
X0.9999 Y-0.7187
X1.0025 Y-0.7215
X1.0055 Y-0.724
G3 X1.0236 Y-0.728 I0.0141 J0.0206 F300.
G1 X1.0796 Y-0.7189
G3 X1.0915 Y-0.7135 I-0.004 J0.0247
X1.0991 Y-0.6855 I-0.0159 J0.0193 F50.
G1 X1.0935 Y-0.6721
X1.0914 Y-0.6662
G3 X1.0715 Y-0.6447 I-0.0368 J-0.0141
X1.0018 Y-0.6763 I-0.0208 J-0.0467
X1.0051 Y-0.7036 I0.0354 J-0.0096
G1 X1.0065 Y-0.706
G3 X1.091 Y-0.6966 I0.04 J0.0252 F300.
X1.0914 Y-0.6662 I-0.0445 J0.0158 F50.
G1 X1.0852 Y-0.6491
G3 X1.07 Y-0.6313 I-0.0298 J-0.01
X1.0074 Y-0.6582 I-0.02 J-0.0398
X1.0102 Y-0.6817 I0.0306 J-0.0081
G1 X1.012 Y-0.6845
X1.0139 Y-0.6872
G3 X1.0833 Y-0.6793 I0.0322 J0.0254 F300.
X1.0852 Y-0.6491 I-0.0371 J0.0175 F50.
G1 X1.0795 Y-0.6336
X1.0772 Y-0.6281
X1.0734 Y-0.6234
X1.0688 Y-0.6196
G3 X1.0123 Y-0.6418 I-0.0194 J-0.0335
X1.0149 Y-0.6621 I0.0261 J-0.0069
X1.021 Y-0.67 I0.0308 J0.0175
X1.0759 Y-0.6634 I0.0248 J0.0254 F300.
X1.0795 Y-0.6336 I-0.0301 J0.0188 F50.
G1 X1.0749 Y-0.621
X1.0726 Y-0.6155
X1.0688 Y-0.6108
G3 X1.0276 Y-0.6107 I-0.0207 J-0.0244
G1 X1.0211 Y-0.6179
X1.0169 Y-0.6267
G3 X1.0187 Y-0.6442 I0.0239 J-0.0064
X1.0268 Y-0.6542 I0.0272 J0.0137
X1.0693 Y-0.6501 I0.0192 J0.0237 F300.
X1.0749 Y-0.621 I-0.0233 J0.0196 F50.
G1 X1.0744 Y-0.6195
X1.0728 Y-0.6146
X1.0709 Y-0.609
G3 X1.0598 Y-0.5953 I-0.0213 J-0.0061
X1.0205 Y-0.6146 I-0.0116 J-0.0261
X1.0221 Y-0.6284 I0.0189 J-0.0048
X1.0338 Y-0.6399 I0.0234 J0.0122
X1.0621 Y-0.6368 I0.0117 J0.0237 F300.
X1.0709 Y-0.609 I-0.0166 J0.0206 F50.
X1.0224 Y-0.6064 I-0.0246 J-0.0053
G2 X0.9923 Y-0.7051 I-1.2678 J0.3333
G1 X0.984 Y-0.7223
X0.9803 Y-0.7296
X0.9611 Y-0.7655
G3 X0.9589 Y-0.7808 I0.0224 J-0.011
G1 X0.9612 Y-0.7959
G2 X0.9192 Y-1.003 I-0.3273 J-0.0415 F300.
X0.9067 Y-1.0137 I-0.0216 J0.0125
G1 X0.5523 Y-1.1519
G2 X0.5358 Y-1.1524 I-0.0091 J0.0233
X0.3642 Y-1.0274 I0.0981 J0.315
G1 X0.3563 Y-1.0157 F50.
G3 X0.3433 Y-1.0056 I-0.021 J-0.0135
G2 X0.2853 Y-0.9845 I0.0797 J0.3098
G1 X0.2283 Y-0.9538
X0.2201 Y-0.9488
X0.2037 Y-0.9386
X0.1989 Y-0.935
X0.1489 Y-0.894
G2 X0.1133 Y-0.8584 I0.1214 J0.1568
G1 X0.0722 Y-0.8083
G2 X0.0408 Y-0.7551 I0.3288 J0.2296
G1 X0.0386 Y-0.7519
X0.0359 Y-0.749
X0.0327 Y-0.7467
X0.0293 Y-0.7448
X0.0256 Y-0.7435
X0.0147 Y-0.7403
G2 X-0.0903 Y-0.6628 I0.0638 J0.1964 F300.
X-0.0948 Y-0.6507 I0.0204 J0.0144
G1 X-0.1117 Y-0.4717
G2 X-0.1096 Y-0.459 I0.0249 J0.0024
X-0.0209 Y-0.363 I0.1882 J-0.0849
G1 X-0.011 Y-0.3579 F50.
G3 X0.0018 Y-0.3435 I-0.0108 J0.0225
G2 X0.0186 Y-0.2942 I0.3298 J-0.0849
G1 X0.0229 Y-0.2856
X0.0491 Y-0.2367
X0.0536 Y-0.2285
X0.0685 Y-0.2038
X0.0722 Y-0.1991
X0.1133 Y-0.149
G2 X0.1489 Y-0.1135 I0.1558 J-0.1202
G1 X0.1989 Y-0.0724
G2 X0.2518 Y-0.041 I0.2252 J-0.3198
G3 X0.2635 Y-0.0258 I-0.0126 J0.0216
G1 X0.2666 Y-0.015
G2 X0.3443 Y0.0902 I0.1965 J-0.0639 F300.
X0.3563 Y0.0946 I0.0144 J-0.0204
G1 X0.5353 Y0.1117
G2 X0.5479 Y0.1096 I0.0024 J-0.0249
X0.6441 Y0.021 I-0.0848 J-0.1885
G1 X0.6493 Y0.0111 F50.
G3 X0.6637 Y-0.0017 I0.0225 J0.0109
G2 X0.7458 Y-0.0358 I-0.0734 J-0.2926
G3 X0.8292 Y-0.0608 I0.1257 J0.268
X0.9689 Y-0.0729 I0.1516 J0.935
X1.4031 Y-0.0756 I0.3074 J14.8784
G1 X1.4845 Y-0.0758
X1.488 Y-0.0756
X1.4934 Y-0.0753
X1.5016
G2 X1.6463 Y-0.0756 I0.0643 J-5.1408
G1 X1.7187
X1.8272 Y-0.0757
X2.3756 Y-0.0756
X2.3775
X2.3887 Y-0.0752
X2.397 Y-0.0755
X2.3983 Y-0.0757
X2.4344 Y-0.0783
X2.4698 Y-0.086
X2.4736 Y-0.0875
X2.4776 Y-0.0888
X2.4816 Y-0.0899
G3 X2.508 Y-0.0778 I0.0047 J0.0246
X2.4905 Y-0.0407 I-0.0217 J0.0125 F300.
G1 X2.4064 Y-0.0264
G3 X2.3776 Y-0.0554 I-0.0042 J-0.0246
X2.3983 Y-0.0757 I0.0246 J0.0044 F50.
G1 X2.4134 Y-0.0776
X2.4216 Y-0.0788
X2.4709 Y-0.0875
X2.4955 Y-0.093
G2 X2.5817 Y-0.1298 I-0.5316 J-1.3662
G1 X2.5947 Y-0.1381
X2.6023 Y-0.1433
X2.6516 Y-0.18
X2.6606 Y-0.1874
X2.668 Y-0.1943
X2.6751 Y-0.2018
X2.6927 Y-0.209
X2.7046 Y-0.2094
X2.7831 Y-0.2121 F300.
G2 X2.8767 Y-0.2695 I0.0041 J-0.0983
G1 X2.9034 Y-0.3353
X2.9267 Y-0.4421
X2.9265 Y-0.5653
X2.9063 Y-0.6595
X2.8852 Y-0.7214
X2.8423 Y-0.8036
X2.7831 Y-0.8793
X2.7338 Y-0.9277
X2.6516 Y-0.9883
X2.5777 Y-1.0224
G2 X2.4627 Y-0.9976 I-0.0409 J0.0895
G1 X2.4099 Y-0.9415
X2.3805 Y-0.9319 F50.
X2.3723 Y-0.9317
X2.3641 Y-0.9313
X2.3148 Y-0.9284
X2.2984 Y-0.9263
X2.2902 Y-0.9252
X2.2655 Y-0.9182
X2.2245 Y-0.9059
G3 X2.1089 Y-0.8871 I-0.1495 J-0.5537
X1.8919 Y-0.882 I-0.1861 J-3.3145
X1.6963 Y-0.8821 I-0.0943 J-8.7198
G1 X1.6842 Y-0.8849
X1.6724 Y-0.8891
X1.6248 Y-0.9096
G2 X1.5942 Y-0.9186 I-0.0574 J0.1376
X1.518 Y-0.9317 I-0.3763 J1.97
G1 X1.5154 Y-0.9316
G3 X1.4923 Y-0.9492 I0.0008 J-0.025
X1.5168 Y-0.9816 I0.0239 J-0.0074 F300.
G1 X2.2326 Y-0.9647
G3 X2.2504 Y-0.9228 I-0.0006 J0.025
G1 X2.2502 Y-0.9225
G3 X2.2245 Y-0.9059 I-0.0457 J-0.0424 F50.
G2 X2.1834 Y-0.8889 I0.0404 J0.1553
G1 X2.1587 Y-0.8747
G3 X2.0854 Y-0.8498 I-0.1189 J-0.2295
X1.9521 Y-0.8353 I-0.1509 J-0.7697
X1.7924 Y-0.8321 I-0.1592 J-4.0254
X1.7371 Y-0.8502 I-0.0008 J-0.0911
G2 X1.6987 Y-0.8771 I-0.4236 J0.5641
G1 X1.6799 Y-0.8857
X1.6741 Y-0.8884
X1.6724 Y-0.8891
G3 X1.6583 Y-0.9144 I0.0107 J-0.0226
X1.684 Y-0.9366 I0.0249 J0.0027 F300.
G1 X2.1463 Y-0.9208
G3 X2.1699 Y-0.9014 I-0.0009 J0.025
X2.1587 Y-0.8747 I-0.0244 J0.0056 F50.
G2 X2.1101 Y-0.8448 I0.1967 J0.3746
G1 X2.1095 Y-0.844
G3 X2.0487 Y-0.8122 I-0.1075 J-0.1317
X1.9549 Y-0.7925 I-0.1426 J-0.4449
X1.8491 Y-0.7851 I-0.1302 J-1.1104
X1.7833 Y-0.8136 I0.0008 J-0.092
G2 X1.7666 Y-0.8282 I-0.0741 J0.0679
G1 X1.7371 Y-0.8502
G3 X1.7291 Y-0.8781 I0.0156 J-0.0195
X1.7533 Y-0.8947 I0.0236 J0.0084 F300.
G1 X2.0926 Y-0.8868
G3 X2.1146 Y-0.8725 I-0.0006 J0.025
X2.1095 Y-0.844 I-0.0226 J0.0107 F50.
G1 X2.0922 Y-0.8282
X2.0834 Y-0.82
X2.066 Y-0.8036
G3 X1.9999 Y-0.7668 I-0.1212 J-0.1399
X1.8876 Y-0.7445 I-0.1311 J-0.3672
X1.8151 Y-0.7773 I-0.0018 J-0.0926
G1 X1.7973 Y-0.7986
X1.7928 Y-0.8036
X1.7833 Y-0.8136
G3 X1.7802 Y-0.8424 I0.0187 J-0.0166
X1.8029 Y-0.8552 I0.0218 J0.0122 F300.
G1 X2.0492 Y-0.8461
G3 X2.0707 Y-0.8322 I-0.0009 J0.025
X2.066 Y-0.8036 I-0.0224 J0.011 F50.
G2 X2.0352 Y-0.7707 I0.2069 J0.2253
G3 X1.9821 Y-0.7311 I-0.103 J-0.0824
X1.9079 Y-0.7118 I-0.0793 J-0.1526
X1.8498 Y-0.7366 I0.0062 J-0.0949
G1 X1.8391 Y-0.7486
X1.8384 Y-0.7495
X1.8302 Y-0.7595
X1.8152 Y-0.7774
G3 X1.8139 Y-0.8063 I0.0197 J-0.0154
X1.8361 Y-0.8177 I0.021 J0.0136 F300.
G1 X2.0152 Y-0.809
G3 X2.0335 Y-0.7997 I-0.0012 J0.025
X2.0352 Y-0.7707 I-0.0195 J0.0157 F50.
G1 X2.0296 Y-0.7625
X2.0109 Y-0.734
G3 X1.9301 Y-0.6863 I-0.0936 J-0.0663
X1.8714 Y-0.7054 I-0.005 J-0.0845
G1 X1.8602 Y-0.7166
X1.8514 Y-0.7296
G3 X1.8551 Y-0.7584 I0.0221 J-0.0118
X1.8722 Y-0.7664 I0.0184 J0.017 F300.
G1 X1.9883 Y-0.772
G3 X2.0088 Y-0.7629 I0.0012 J0.025
X2.0109 Y-0.734 I-0.0193 J0.0159 F50.
G1 X2.0026 Y-0.7214
X1.9885 Y-0.6984
G3 X1.9035 Y-0.6703 I-0.0597 J-0.0381
X1.8635 Y-0.706 I0.0247 J-0.0679
X1.869 Y-0.7345 I0.0227 J-0.0104
X1.888 Y-0.7414 I0.0173 J0.018 F300.
G1 X1.9685 Y-0.7357
G3 X1.9855 Y-0.7273 I-0.0017 J0.0249
X1.9885 Y-0.6984 I-0.0188 J0.0165 F50.
G2 X1.98 Y-0.6793 I0.1353 J0.0712
G3 X1.961 Y-0.6567 I-0.0435 J-0.0174
X1.8754 Y-0.6824 I-0.0307 J-0.0532
X1.8808 Y-0.7109 I0.0227 J-0.0104
X1.9006 Y-0.7177 I0.0173 J0.018 F300.
G1 X1.9587 Y-0.7119
G3 X1.9714 Y-0.7069 I-0.0025 J0.0249
X1.98 Y-0.6793 I-0.0151 J0.0199 F50.
G1 X1.9729 Y-0.6597
X1.9705 Y-0.6542
X1.9671 Y-0.6492
G3 X1.9188 Y-0.6351 I-0.0362 J-0.0339
X1.8841 Y-0.6642 I0.0122 J-0.0498
X1.8846 Y-0.6943 I0.036 J-0.0145
G1 X1.8862 Y-0.6975 F300.
G3 X1.9725 Y-0.6901 I0.0415 J0.0231
X1.9729 Y-0.6597 I-0.0448 J0.0157 F50.
G1 X1.9668 Y-0.643
G3 X1.9195 Y-0.62 I-0.0364 J-0.0147
X1.8912 Y-0.6475 I0.01 J-0.0385
X1.8932 Y-0.6752 I0.0304 J-0.0118
G1 X1.8943 Y-0.6771
G3 X1.9647 Y-0.6731 I0.0341 J0.0217 F300.
X1.9668 Y-0.643 I-0.0363 J0.0176 F50.
G1 X1.9609 Y-0.6269
X1.9586 Y-0.6214
X1.9551 Y-0.6165
X1.9507 Y-0.6124
G3 X1.8948 Y-0.6344 I-0.02 J-0.0312
X1.897 Y-0.6528 I0.0274 J-0.006
X1.9041 Y-0.6625 I0.031 J0.0152
X1.957 Y-0.6565 I0.0239 J0.0249 F300.
X1.9609 Y-0.6269 I-0.0289 J0.019 F50.
G1 X1.9595 Y-0.6228
X1.9566 Y-0.6146
X1.9562 Y-0.6133
X1.9541 Y-0.6076
X1.9503 Y-0.603
G3 X1.8982 Y-0.6212 I-0.0201 J-0.026
X1.9002 Y-0.6353 I0.0206 J-0.0042
X1.9114 Y-0.6471 I0.0268 J0.0141
X1.949 Y-0.642 I0.0156 J0.0259 F300.
X1.9562 Y-0.6133 I-0.022 J0.0208 F50.
G1 X1.954 Y-0.6064
X1.9534 Y-0.6038
X1.953 Y-0.6021
X1.9513 Y-0.5963
X1.9474 Y-0.5918
X1.9425 Y-0.5883
G3 X1.9012 Y-0.6087 I-0.0122 J-0.0273
X1.9026 Y-0.6191 I0.0161 J-0.0032
X1.9171 Y-0.6324 I0.0241 J0.0118
X1.9421 Y-0.6293 I0.0095 J0.0251 F300.
X1.953 Y-0.6021 I-0.0155 J0.0219 F50.
X1.9038 Y-0.5982 I-0.025 J-0.0032
G2 X1.8913 Y-0.6475 I-1.283 J0.3004
G1 X1.8836 Y-0.6653
X1.8805 Y-0.6721
X1.8558 Y-0.7214
G3 X1.8612 Y-0.7499 I0.0227 J-0.0104
G1 X1.864 Y-0.7526 Z0.1603
X1.8668 Y-0.7553 Z0.1612
X1.8694 Y-0.7578 Z0.1627
X1.8718 Y-0.7601 Z0.1648
X1.874 Y-0.7621 Z0.1673
X1.8758 Y-0.7639 Z0.1703
X1.8773 Y-0.7653 Z0.1737
X1.8784 Y-0.7664 Z0.1773
X1.879 Y-0.767 Z0.1811
X1.8792 Y-0.7672 Z0.185
G0 Z1.3255
X1.4511 Y-0.0522
Z0.21
G1 Z0.185 F50.
X1.4514 Y-0.0524 Z0.1811
X1.4522 Y-0.0529 Z0.1773
X1.4534 Y-0.0537 Z0.1737
X1.4551 Y-0.0548 Z0.1703
X1.4573 Y-0.0562 Z0.1673
X1.4598 Y-0.0578 Z0.1648
X1.4626 Y-0.0596 Z0.1627
X1.4657 Y-0.0615 Z0.1612
X1.4689 Y-0.0636 Z0.1603
X1.4722 Y-0.0657 Z0.16
G3 X1.5016 Y-0.0753 I0.0335 J0.0525
G1 X1.518 Y-0.0759
G2 X1.6084 Y-0.0921 I-0.1916 J-1.3296
G1 X1.6166 Y-0.0947
X1.6229 Y-0.097
G3 X1.7081 Y-0.1159 I0.1234 J0.3554
X1.8887 Y-0.1245 I0.1675 J1.611
X2.1471 Y-0.1255 I0.1944 J16.1343
G1 X2.1622 Y-0.1243
X2.177 Y-0.1206
X2.1909 Y-0.1145
G2 X2.2162 Y-0.1039 I0.0609 J-0.1112
G1 X2.2655 Y-0.0892
X2.2902 Y-0.0822
X2.3025 Y-0.0806
X2.3148 Y-0.079
X2.3641 Y-0.0761
X2.3723 Y-0.0757
X2.3775 Y-0.0756
X2.3887 Y-0.0722
X2.4 Y-0.0573
X2.3999 Y-0.0568
X2.3983 Y-0.0395 F300.
X2.3887 Y-0.0292
X2.3559 Y-0.0244
X1.6494 Y0.0217
G3 X1.5993 Y-0.0776 I0. J-0.0623
X1.6229 Y-0.097 I0.0502 J0.0369 F50.
G2 X1.7001 Y-0.1311 I-0.6635 J-1.6078
G3 X1.7603 Y-0.154 I0.1017 J0.1767
X1.8806 Y-0.1704 I0.147 J0.629
X2.0643 Y-0.175 I0.1767 J3.4126
X2.1177 Y-0.1572 I0.0001 J0.0887
G2 X2.1909 Y-0.1145 I0.6564 J-1.0416
G3 X2.2027 Y-0.088 I-0.0127 J0.0215
X2.1772 Y-0.0679 I-0.0245 J-0.0049 F300.
G1 X1.7137 Y-0.0859
G3 X1.6907 Y-0.1038 I0.001 J-0.025
X1.7001 Y-0.1312 I0.024 J-0.0071 F50.
G2 X1.7522 Y-0.1684 I-0.4956 J-0.7486
G3 X1.8211 Y-0.1991 I0.1205 J0.1782
X1.9347 Y-0.218 I0.1526 J0.5664
G1 X1.9708 Y-0.2205
X2.0019 Y-0.2219
G3 X2.0627 Y-0.2056 I0.0067 J0.0968
G1 X2.0733 Y-0.1969
G2 X2.1175 Y-0.157 I0.5133 J-0.524
G1 X2.1203 Y-0.1544
X2.1227 Y-0.1514
X2.1246 Y-0.148
X2.1259 Y-0.1444
X2.1267 Y-0.1407
X2.1269 Y-0.1368
X2.1265 Y-0.133
X2.1255 Y-0.1293
G3 X2.1011 Y-0.1127 I-0.0235 J-0.0084 F300.
G1 X1.7669 Y-0.1239
G3 X1.7442 Y-0.1405 I0.0008 J-0.025
X1.7522 Y-0.1684 I0.0236 J-0.0084 F50.
G2 X1.7891 Y-0.1998 I-0.108 J-0.1647
G3 X1.8587 Y-0.2404 I0.1172 J0.1211
X1.9685 Y-0.2626 I0.1312 J0.3656
X2.0406 Y-0.2302 I0.002 J0.0921
G2 X2.0733 Y-0.1969 I0.2746 J-0.2374
G3 X2.078 Y-0.1683 I-0.0178 J0.0176
X2.0552 Y-0.1543 I-0.0224 J-0.011 F300.
G1 X1.8074 Y-0.1583
G3 X1.786 Y-0.1711 I0.0004 J-0.025
X1.7891 Y-0.1999 I0.0218 J-0.0122 F50.
G1 X1.7928 Y-0.2038
X1.7973 Y-0.2088
X1.8219 Y-0.2381
G3 X1.9028 Y-0.287 I0.1263 J0.1175
X1.9715 Y-0.2924 I0.0431 J0.1099
X2.0235 Y-0.2543 I-0.0261 J0.0901
G1 X2.0296 Y-0.2449
X2.0355 Y-0.2362
X2.0406 Y-0.2302
G3 X2.042 Y-0.2012 I-0.0196 J0.0155
X2.0199 Y-0.1897 I-0.0211 J-0.0135 F300.
G1 X1.8405 Y-0.1978
G3 X1.8206 Y-0.2092 I0.0011 J-0.025
X1.8219 Y-0.2381 I0.021 J-0.0136 F50.
G2 X1.8482 Y-0.272 I-0.2005 J-0.1824
G3 X1.9413 Y-0.3206 I0.0892 J0.0573
X1.9959 Y-0.2938 I-0.0098 J0.0889
G1 X2.0055 Y-0.2816
G3 X2.0033 Y-0.2527 I-0.0214 J0.0129
X1.9859 Y-0.2438 I-0.0192 J-0.016 F300.
G1 X1.872 Y-0.2353
G3 X1.8518 Y-0.2433 I-0.0019 J-0.0249
X1.8481 Y-0.272 I0.0184 J-0.017 F50.
G1 X1.8514 Y-0.2778
X1.8548 Y-0.284
X1.864 Y-0.3024
G3 X1.9319 Y-0.3422 I0.0629 J0.0295
X1.9891 Y-0.3079 I-0.0043 J0.0721
X1.9862 Y-0.2791 I-0.0217 J0.0123
X1.9685 Y-0.2706 I-0.0188 J-0.0165 F300.
G1 X1.8879 Y-0.267
G3 X1.8695 Y-0.2739 I-0.0011 J-0.025
X1.864 Y-0.3024 I0.0173 J-0.018 F50.
G1 X1.8788 Y-0.3319
X1.8818 Y-0.3371
G2 X1.8964 Y-0.365 I-0.0697 J-0.0541
G3 X1.9818 Y-0.3237 I0.0197 J0.0683
X1.9742 Y-0.2957 I-0.0234 J0.0087
X1.9555 Y-0.2902 I-0.0159 J-0.0193 F300.
G1 X1.8988 Y-0.2966
G3 X1.8842 Y-0.3034 I0.0028 J-0.0248
X1.8788 Y-0.3319 I0.0173 J-0.018 F50.
G2 X1.9015 Y-0.401 I-0.218 J-0.1098
G3 X1.908 Y-0.4175 I0.0389 J0.0059
X1.9205 Y-0.4262 I0.0202 J0.0157
G1 X1.9235 Y-0.4267
G3 X1.9599 Y-0.3833 I-0.0413 J0.0717
X1.9407 Y-0.373 I-0.0105 J0.0034
G1 X1.9403 Y-0.3735 F300.
X1.9217 Y-0.4005
X1.9154 Y-0.4096 F50.
G3 X1.9205 Y-0.4262 I0.0091 J-0.0063
X1.9532 Y-0.4036 I0.0074 J0.0242
G2 X1.9873 Y-0.3105 I1.1676 J-0.3752
G1 X2.0027 Y-0.2859
X2.0191 Y-0.2609
X2.0235 Y-0.2543
X2.0267 Y-0.2367
X2.0195 Y-0.2258
X2.0158 Y-0.2202 F300.
X1.7727 Y-0.0234
X1.7046 Y0.0098
X1.6412 Y0.0347
X1.5262 Y0.0541
X0.7787 Y0.0804
G3 X0.7239 Y-0.0144 I-0.0016 J-0.0623
X0.7391 Y-0.0313 I0.0532 J0.0325 F50.
G1 X0.7458 Y-0.0358
G2 X0.8063 Y-0.0704 I-0.2779 J-0.5549
G3 X0.8675 Y-0.0986 I0.1066 J0.151
X0.973 Y-0.1175 I0.1462 J0.5136
X1.1899 Y-0.1249 I0.1976 J2.6012
G1 X1.226 Y-0.1253
X1.2638 Y-0.1255
X1.279 Y-0.1243
X1.2938 Y-0.1205
X1.3077 Y-0.1144
G2 X1.3373 Y-0.1025 I0.0675 J-0.125
G1 X1.3866 Y-0.0877
G2 X1.4441 Y-0.0783 I0.0596 J-0.1831
G1 X1.488 Y-0.0756
G3 X1.51 Y-0.0567 I-0.0023 J0.0249
X1.4857 Y-0.0257 I-0.0243 J0.006 F300.
G1 X0.822 Y-0.0263
G3 X0.7986 Y-0.0426 I0. J-0.025
X0.8062 Y-0.0706 I0.0234 J-0.0087 F50.
G2 X0.8558 Y-0.1112 I-0.988 J-1.2575
G3 X0.932 Y-0.1473 I0.1267 J0.1691
X1.0452 Y-0.1671 I0.1548 J0.5508
X1.1802 Y-0.1736 I0.1586 J1.8839
X1.2377 Y-0.1545 I0.0024 J0.0887
G2 X1.3077 Y-0.1144 I0.9337 J-1.5473
G1 X1.3109 Y-0.1122
X1.3137 Y-0.1095
X1.316 Y-0.1064
X1.3179 Y-0.103
X1.3192 Y-0.0994
X1.3199 Y-0.0956
X1.32 Y-0.0918
X1.3196 Y-0.0879
G3 X1.2951 Y-0.0679 I-0.0245 J-0.0049 F300.
G1 X0.8725 Y-0.0676
G3 X0.8495 Y-0.083 I0. J-0.025
X0.8558 Y-0.1112 I0.0231 J-0.0097 F50.
G2 X0.8889 Y-0.143 I-0.1074 J-0.1447
G3 X0.9521 Y-0.1843 I0.1157 J0.1084
X1.028 Y-0.2061 I0.1393 J0.3415
X1.1283 Y-0.2181 I0.129 J0.6526
X1.1936 Y-0.1931 I0.0021 J0.0923
G2 X1.2377 Y-0.1545 I0.33 J-0.3334
G3 X1.2448 Y-0.1264 I-0.0162 J0.0191
X1.2222 Y-0.1105 I-0.0233 J-0.009 F300.
G1 X0.9091 Y-0.1024
G3 X0.8873 Y-0.1141 I-0.0006 J-0.025
X0.8889 Y-0.143 I0.0211 J-0.0133 F50.
G1 X0.8937 Y-0.1486
X0.8986 Y-0.1545
X0.9256 Y-0.1874
G3 X0.9891 Y-0.2297 I0.1223 J0.1145
X1.0844 Y-0.2553 I0.1319 J0.3012
X1.1593 Y-0.2267 I0.0079 J0.0918
G2 X1.1936 Y-0.1931 I0.4873 J-0.4623
G1 X1.1961 Y-0.1901
X1.1981 Y-0.1868
X1.1996 Y-0.1833
X1.2005 Y-0.1795
X1.2008 Y-0.1757
X1.2005 Y-0.1718
X1.1996 Y-0.168
X1.1982 Y-0.1645
G3 X1.1761 Y-0.1505 I-0.0224 J-0.011 F300.
G1 X0.9458 Y-0.1472
G3 X0.9246 Y-0.1584 I-0.0004 J-0.025
X0.9256 Y-0.1874 I0.0208 J-0.0138 F50.
G2 X0.9489 Y-0.2203 I-0.1329 J-0.1187
G3 X1.0132 Y-0.2711 I0.1172 J0.0821
X1.0844 Y-0.2851 I0.0583 J0.1089
X1.1455 Y-0.2457 I-0.0163 J0.0924
G2 X1.1592 Y-0.2266 I0.1278 J-0.0777
G1 X1.1616 Y-0.2236
X1.1634 Y-0.2202
X1.1646 Y-0.2165
X1.1653 Y-0.2127
X1.1654 Y-0.2089
X1.1649 Y-0.205
X1.1639 Y-0.2013
X1.1622 Y-0.1978
G3 X1.1408 Y-0.1852 I-0.0217 J-0.0124 F300.
G1 X0.971 Y-0.1831
G3 X0.952 Y-0.1914 I-0.0003 J-0.025
X0.9489 Y-0.2202 I0.0187 J-0.0166 F50.
G1 X0.9538 Y-0.2285
X0.9594 Y-0.2387
X0.9697 Y-0.2581
G3 X1.0454 Y-0.3099 I0.0935 J0.0553
X1.128 Y-0.272 I0.0108 J0.0854
X1.1259 Y-0.243 I-0.0214 J0.013
X1.1092 Y-0.2341 I-0.0193 J-0.0159 F300.
G1 X0.9948 Y-0.2222
G3 X0.9744 Y-0.2295 I-0.0026 J-0.0249
X0.9697 Y-0.2581 I0.0178 J-0.0176 F50.
G1 X0.9803 Y-0.2778
X0.984 Y-0.2851
X0.9865 Y-0.2905
G3 X1.0404 Y-0.3297 I0.0621 J0.0287
X1.1117 Y-0.2968 I0.0098 J0.0724
X1.1093 Y-0.2679 I-0.0215 J0.0128
X1.0912 Y-0.2591 I-0.0191 J-0.0161 F300.
G1 X1.0106 Y-0.2558
G3 X0.9928 Y-0.2622 I-0.001 J-0.025
X0.9865 Y-0.2905 I0.0167 J-0.0186 F50.
G1 X0.9923 Y-0.3029
X0.9955 Y-0.3106
X0.9962 Y-0.3131
G3 X1.0083 Y-0.3336 I0.0437 J0.012
X1.1033 Y-0.3115 I0.0397 J0.0447
X1.0957 Y-0.2835 I-0.0234 J0.0087
X1.0783 Y-0.2779 I-0.0159 J-0.0193 F300.
G1 X1.0188 Y-0.2816
G3 X1.0062 Y-0.2859 I0.0015 J-0.025
X0.9962 Y-0.3131 I0.0141 J-0.0206 F50.
G1 X1.0031 Y-0.3353
X1.0051 Y-0.3409
G2 X1.0183 Y-0.3663 I-0.1316 J-0.0843
G3 X1.0945 Y-0.3329 I0.0209 J0.056
X1.0935 Y-0.3031 I-0.0368 J0.0136
G1 X1.0933 Y-0.3028
G3 X1.005 Y-0.3049 I-0.0437 J-0.0202 F300.
X1.0031 Y-0.3353 I0.0446 J-0.018 F50.
G2 X1.0235 Y-0.4039 I-1.5643 J-0.5013
G3 X1.0396 Y-0.4175 I0.0234 J0.0114
G1 X1.0415 Y-0.4179
X1.0445 Y-0.4181
G3 X1.0759 Y-0.3838 I-0.0256 J0.0549
X1.0566 Y-0.3736 I-0.0105 J0.0034
G1 X1.0413 Y-0.3932 F300.
X1.0357 Y-0.4004 F50.
G3 X1.0415 Y-0.4179 I0.0087 J-0.0068
X1.0701 Y-0.401 I0.0047 J0.0246
G2 X1.1037 Y-0.3106 I0.9997 J-0.3199
X1.1455 Y-0.2458 I0.8044 J-0.473
G1 X1.1473 Y-0.2423
X1.1485 Y-0.2387
X1.1492 Y-0.2348
X1.1493 Y-0.231
X1.1487 Y-0.2271
X1.1476 Y-0.2234
X1.1459 Y-0.22
X1.1437 Y-0.2168
X1.1413 Y-0.2137 Z0.1603
X1.1389 Y-0.2108 Z0.1612
X1.1366 Y-0.2079 Z0.1627
X1.1345 Y-0.2053 Z0.1648
X1.1327 Y-0.203 Z0.1673
X1.1311 Y-0.201 Z0.1703
X1.1298 Y-0.1994 Z0.1737
X1.1288 Y-0.1983 Z0.1773
X1.1283 Y-0.1975 Z0.1811
X1.1281 Y-0.1973 Z0.185
G0 Z1.7255
(2D CONTOUR1)
G64 P0.0004 Q0.0004
G0 X2.3958 Y-0.9517
Z1.7255
Z1.3255
G1 Z1.1649 F80.
Z0.7168
G19 G3 Y-0.9267 Z0.6918 J0.025 K0. F50.
G1 Y-0.9017
G17 G3 X2.3708 Y-0.8767 I-0.025 J0.
G2 Y-0.1307 I0. J0.373
Y-0.8767 I0. J-0.373
Y-0.1307 I0. J0.373
Y-0.8767 I0. J-0.373
G3 X2.3458 Y-0.9017 I0. J-0.025
G1 Y-0.9267
G19 G2 Y-0.9517 Z0.7168 J0. K0.025
G0 Z1.3255
X1.5567 Y-0.9151
G1 Z1.1649 F80.
Z0.7168
X1.5566 Y-0.9148 Z0.7129 F50.
Y-0.9139 Z0.7091
X1.5564 Y-0.9124 Z0.7055
X1.5562 Y-0.9104 Z0.7021
X1.5559 Y-0.9078 Z0.6991
X1.5556 Y-0.9049 Z0.6966
X1.5552 Y-0.9016 Z0.6945
X1.5548 Y-0.8979 Z0.693
X1.5544 Y-0.8942 Z0.6921
X1.554 Y-0.8903 Z0.6918
X1.5513 Y-0.8654
G17 G3 X1.5238 Y-0.8432 I-0.0249 J-0.0027
G2 X1.4502 Y-0.1642 I-0.0368 J0.3395
X1.5238 Y-0.8432 I0.0368 J-0.3395
X1.4502 Y-0.1642 I-0.0368 J0.3395
X1.5238 Y-0.8432 I0.0368 J-0.3395
G3 X1.5016 Y-0.8708 I0.0027 J-0.0249
G1 X1.5043 Y-0.8957
X1.5047 Y-0.8995 Z0.6921
X1.5051 Y-0.9033 Z0.693
X1.5055 Y-0.9069 Z0.6945
X1.5059 Y-0.9103 Z0.6966
X1.5062 Y-0.9132 Z0.6991
X1.5065 Y-0.9158 Z0.7021
X1.5067 Y-0.9178 Z0.7055
X1.5068 Y-0.9193 Z0.7091
X1.5069 Y-0.9202 Z0.7129
X1.507 Y-0.9205 Z0.7168
G0 Z1.7255
X1.4705 Y-0.0091
Z1.3255
G1 Z1.1649 F80.
Z0.205
Y-0.0094 Z0.2011 F50.
Y-0.0103 Z0.1973
X1.4704 Y-0.0118 Z0.1937
Y-0.0138 Z0.1903
Y-0.0164 Z0.1873
X1.4703 Y-0.0194 Z0.1848
Y-0.0227 Z0.1827
X1.4702 Y-0.0263 Z0.1812
X1.4701 Y-0.0301 Z0.1803
Y-0.034 Z0.18
X1.4696 Y-0.059
G3 X1.4942 Y-0.0845 I0.025 J-0.0004
G2 X1.4797 Y-0.9229 I-0.0072 J-0.4192
X1.4942 Y-0.0845 I0.0072 J0.4192
X1.4797 Y-0.9229 I-0.0072 J-0.4192
X1.4942 Y-0.0845 I0.0072 J0.4192
G3 X1.5196 Y-0.0599 I0.0004 J0.025
G1 X1.5201 Y-0.0349
Y-0.031 Z0.1803
X1.5202 Y-0.0272 Z0.1812
X1.5203 Y-0.0236 Z0.1827
Y-0.0202 Z0.1848
X1.5204 Y-0.0172 Z0.1873
Y-0.0147 Z0.1903
Y-0.0126 Z0.1937
X1.5205 Y-0.0111 Z0.1973
Y-0.0102 Z0.2011
Y-0.0099 Z0.205
G0 Z1.3255
X2.3014 Y-0.0137
G1 Z1.1649 F80.
Z0.205
Y-0.014 Z0.2011 F50.
X2.3015 Y-0.0149 Z0.1973
X2.3016 Y-0.0164 Z0.1937
X2.3018 Y-0.0184 Z0.1903
X2.302 Y-0.021 Z0.1873
X2.3023 Y-0.0239 Z0.1848
X2.3026 Y-0.0273 Z0.1827
X2.3029 Y-0.0309 Z0.1812
X2.3033 Y-0.0347 Z0.1803
X2.3036 Y-0.0386 Z0.18
X2.3059 Y-0.0635
G3 X2.333 Y-0.0861 I0.0249 J0.0023
G2 X2.4086 Y-0.9213 I0.0378 J-0.4176
X2.333 Y-0.0861 I-0.0378 J0.4176
X2.4086 Y-0.9213 I0.0378 J-0.4176
X2.333 Y-0.0861 I-0.0378 J0.4176
G3 X2.3557 Y-0.059 I-0.0023 J0.0249
G1 X2.3534 Y-0.0341
X2.3531 Y-0.0302 Z0.1803
X2.3527 Y-0.0264 Z0.1812
X2.3524 Y-0.0228 Z0.1827
X2.3521 Y-0.0194 Z0.1848
X2.3518 Y-0.0165 Z0.1873
X2.3516 Y-0.0139 Z0.1903
X2.3514 Y-0.0119 Z0.1937
X2.3513 Y-0.0104 Z0.1973
X2.3512 Y-0.0095 Z0.2011
Y-0.0092 Z0.205
G0 Z1.3255
X0.4787 Y0.09
G1 Z1.1649 F80.
Z0.205
G19 G2 Y0.065 Z0.18 J-0.025 K0. F50.
G1 Y0.04
G17 G3 X0.5037 Y0.015 I0.025 J0.
G2 Y-1.0224 I0. J-0.5187
Y0.015 I0. J0.5187
Y-1.0224 I0. J-0.5187
Y0.015 I0. J0.5187
G3 X0.5287 Y0.04 I0. J0.025
G1 Y0.065
G19 G3 Y0.09 Z0.205 J0. K0.025
G0 Z1.3255
X0.6049 Y-0.5287
G1 Z1.1649 F80.
Z0.205
G18 G2 X0.6299 Z0.18 I0.025 K0. F50.
G1 X0.6549
G17 G3 X0.6799 Y-0.5037 I0. J0.025
X0.3275 I-0.1762 J0.
X0.6799 I0.1762 J0.
X0.3275 I-0.1762 J0.
X0.6799 I0.1762 J0.
X0.6549 Y-0.4787 I-0.025 J0.
G1 X0.6299
G18 G3 X0.6049 Z0.205 I0. K0.025
G0 Z1.7255
G17
M5
G53 G0 Z0.
(2D CHAMFER1)
M9
M1
T12 M6
T53
S7500 M3
G17 G90 G94
G54
M8
G0 X2.3708 Y-0.8517
G43 Z1.7255 H12
G0 Z1.3255
G1 Z1.1335 F80.
Z0.9775
G2 Y-0.1557 I0. J0.348 F40.
Y-0.8517 I0. J-0.348
G0 Z1.3255
X2.4283 Y-0.5037
G1 Z1.1335 F80.
Z0.9775
G3 X2.3133 I-0.0575 J0. F40.
X2.4283 I0.0575 J0.
G0 Z1.3255
X1.487 Y-0.1872
G1 Z1.1335 F80.
Z0.9775
G2 Y-0.8202 I0. J-0.3165 F40.
Y-0.1872 I0. J0.3165
G0 Z1.3255
X1.5444 Y-0.5037
G1 Z1.1335 F80.
Z0.9775
G3 X1.4295 I-0.0575 J0. F40.
X1.5444 I0.0575 J0.
G0 Z1.7255
X1.4837 Y-0.1094
Z1.3255
G1 Z1.1335 F80.
Z0.5838
G2 X1.4902 Y-0.898 I0.0033 J-0.3943 F40.
X1.4837 Y-0.1094 I-0.0033 J0.3943
G0 Z1.3255
X0.7049 Y-0.5037
G1 Z1.1335 F80.
Z0.5838
G3 X0.3025 I-0.2012 J0. F40.
X0.7049 I0.2012 J0.
G0 Z1.7255
(2D CHAMFER2)
G0 X0.5037 Y-0.9574
Z1.7255
Z1.3255
G1 Z1.2055 F80.
Z0.6168
G2 Y-0.05 I0. J0.4537 F40.
Y-0.9574 I0. J-0.4537
G0 Z1.7255
M5
M9
G53 G0 Z0.
M30
%
