%
(OP2 - ON PLACE)
(T13 D=0.375 CR=0. TAPER=45DEG - ZMIN=0.2143 - CHAMFER MILL)
(T33 D=0.25 CR=0. - ZMIN=0.3593 - FLAT END MILL)
G90 G94 G17 G91.1
G20
G53 G0 Z0.
(2D CONTOUR7)
T33 M6
T13
S5000 M3
G17 G90 G94
G54
G64 P0.0004 Q0.0004
M8
G0 X9.9221 Y-0.9839
G43 Z1.095 H33
G0 Z0.695
G1 Z0.5344 F80.
Z0.3843
X9.9222 Y-0.9842 Z0.3804 F20.
X9.9224 Y-0.9851 Z0.3766
X9.9227 Y-0.9865 Z0.373
X9.9232 Y-0.9885 Z0.3696
X9.9238 Y-0.991 Z0.3667
X9.9245 Y-0.9939 Z0.3641
X9.9253 Y-0.9971 Z0.3621
X9.9261 Y-1.0007 Z0.3606
X9.927 Y-1.0044 Z0.3596
X9.9279 Y-1.0082 Z0.3593
X9.9338 Y-1.0325
G2 X9.9153 Y-1.0626 I-0.0243 J-0.0058
G3 X6.5674 Y-2.7807 I1.8662 J-7.7577
G2 X5.7926 Y-2.5758 I-0.3173 J0.3675
G3 X3.5646 Y-1.2149 I-1.9538 J-0.6944
G2 X3.3599 Y-0.2688 I-0.0642 J0.4813
X5.4066 Y-0.2217 I1.1083 J-3.6682
G3 X9.6617 Y-0.1256 I1.954 J7.7361
G2 X10.2705 Y-0.4637 I0.14 J-0.4649
X9.9153 Y-1.0626 I-0.4687 J-0.1268
G3 X6.5674 Y-2.7807 I1.8662 J-7.7577
G2 X5.7926 Y-2.5758 I-0.3173 J0.3675
G3 X3.5646 Y-1.2149 I-1.9538 J-0.6944
G2 X3.3599 Y-0.2688 I-0.0642 J0.4813
X5.4066 Y-0.2217 I1.1083 J-3.6682
G3 X9.6617 Y-0.1256 I1.954 J7.7361
G2 X10.2705 Y-0.4637 I0.14 J-0.4649
X9.9153 Y-1.0626 I-0.4687 J-0.1268
X9.8852 Y-1.0442 I-0.0058 J0.0243
G1 X9.8793 Y-1.0199
X9.8784 Y-1.0161 Z0.3596
X9.8775 Y-1.0124 Z0.3606
X9.8767 Y-1.0088 Z0.3621
X9.8759 Y-1.0056 Z0.3641
X9.8752 Y-1.0027 Z0.3667
X9.8746 Y-1.0002 Z0.3696
X9.8741 Y-0.9982 Z0.373
X9.8738 Y-0.9967 Z0.3766
X9.8736 Y-0.9959 Z0.3804
X9.8735 Y-0.9956 Z0.3843
G0 Z0.695
X7.0226 Y-3.8626
G1 Z0.5344 F80.
Z0.3843
X7.0227 Y-3.8623 Z0.3804 F20.
X7.0231 Y-3.8615 Z0.3766
X7.0237 Y-3.8601 Z0.373
X7.0245 Y-3.8583 Z0.3696
X7.0256 Y-3.8559 Z0.3667
X7.0268 Y-3.8532 Z0.3641
X7.0281 Y-3.8502 Z0.3621
X7.0296 Y-3.8468 Z0.3606
X7.0312 Y-3.8434 Z0.3596
X7.0328 Y-3.8398 Z0.3593
X7.043 Y-3.817
G2 X7.076 Y-3.8043 I0.0228 J-0.0102
X6.7158 Y-4.7054 I-0.1981 J-0.4433
G3 X2.4702 Y-4.4062 I-2.6633 J-7.5214
G2 X0.4281 Y-4.2614 I-0.7599 J3.7559
X0.6777 Y-3.3262 I0.1625 J0.4576
G3 X2.9681 Y-2.0732 I0.372 J2.0399
G2 X3.7518 Y-1.9055 I0.4492 J-0.1843
G3 X7.0139 Y-3.7815 I5.4966 J5.7837
G2 X7.34 Y-4.3967 I-0.136 J-0.4661
X6.7158 Y-4.7054 I-0.4621 J0.1491
G3 X2.4702 Y-4.4062 I-2.6633 J-7.5214
G2 X0.4281 Y-4.2614 I-0.7599 J3.7559
X0.6777 Y-3.3262 I0.1625 J0.4576
G3 X2.9681 Y-2.0732 I0.372 J2.0399
G2 X3.7518 Y-1.9055 I0.4492 J-0.1843
G3 X7.0139 Y-3.7815 I5.4966 J5.7837
G2 X7.076 Y-3.8043 I-0.136 J-0.4661
X7.0886 Y-3.8374 I-0.0102 J-0.0228
G1 X7.0784 Y-3.8602
X7.0768 Y-3.8638 Z0.3596
X7.0753 Y-3.8672 Z0.3606
X7.0738 Y-3.8705 Z0.3621
X7.0724 Y-3.8736 Z0.3641
X7.0712 Y-3.8763 Z0.3667
X7.0702 Y-3.8787 Z0.3696
X7.0693 Y-3.8805 Z0.373
X7.0687 Y-3.8819 Z0.3766
X7.0683 Y-3.8827 Z0.3804
X7.0682 Y-3.883 Z0.3843
G0 Z1.095
M5
G53 G0 Z0.
(2D CHAMFER1 2)
M9
M1
T13 M6
T33
S7500 M3
G17 G90 G94
G54
M8
G0 X10.2451 Y-1.1564
G43 Z1.095 H13
G0 Z0.695
G1 Z0.2143 F80.
G3 X10.1756 Y-1.143 I-0.0414 J-0.028 F50.
G2 X9.9578 Y-1.2391 I-0.3739 J0.5524
G3 X6.686 Y-2.9181 I1.8238 J-7.5813
G2 X5.6215 Y-2.6366 I-0.4359 J0.5049
G3 X3.5886 Y-1.3948 I-1.7828 J-0.6336
G2 X3.3075 Y-0.095 I-0.0882 J0.6612
X5.4511 Y-0.0457 I1.1608 J-3.842
G3 X9.6094 Y0.0482 I1.9095 J7.5601
G2 X10.1756 Y-1.143 I0.1924 J-0.6387
G3 X10.1623 Y-1.2124 I0.028 J-0.0414
G0 Z0.695
X7.0307 Y-3.5453
G1 Z0.2143 F80.
G3 X7.0647 Y-3.6073 I0.048 J-0.014 F50.
G2 X7.5127 Y-4.4525 I-0.1868 J-0.6404
X6.6553 Y-4.8764 I-0.6348 J0.2048
G3 X2.5062 Y-4.5841 I-2.6027 J-7.3503
G2 X0.3674 Y-4.4325 I-0.7959 J3.9338
X0.7102 Y-3.1477 I0.2232 J0.6286
G3 X2.8002 Y-2.0044 I0.3395 J1.8613
G2 X3.8768 Y-1.774 I0.6172 J-0.2531
G3 X7.0647 Y-3.6073 I5.3716 J5.6522
X7.1267 Y-3.5733 I0.014 J0.048
G0 Z1.095
(2D CONTOUR2 2)
G0 X4.4334 Y-2.9298
Z1.095
Z0.695
G1 Z0.3218 F80.
X4.4336 Y-2.9296 Z0.3173 F20.
X4.4341 Y-2.929 Z0.3129
X4.4349 Y-2.9279 Z0.3085
X4.4359 Y-2.9263 Z0.3044
X4.4373 Y-2.9244 Z0.3005
X4.4389 Y-2.9222 Z0.297
X4.4408 Y-2.9196 Z0.2938
X4.4429 Y-2.9167 Z0.291
X4.4451 Y-2.9135 Z0.2886
X4.4475 Y-2.9101 Z0.2868
X4.45 Y-2.9066 Z0.2854
X4.4526 Y-2.903 Z0.2846
X4.4552 Y-2.8993 Z0.2843
X4.477 Y-2.8688
G3 X4.4683 Y-2.8165 I-0.0305 J0.0218
G2 X4.1911 Y-2.6096 I4.7802 J6.6947
G3 X3.9119 Y-2.6441 I-0.1224 J-0.157
G2 X3.0631 Y-2.7757 I-0.4945 J0.3866
G3 X2.8006 Y-2.8094 I-0.1123 J-0.1644
G2 X1.3879 Y-3.5822 I-1.7509 J1.523
G3 X1.2179 Y-3.7851 I0.029 J-0.197
G2 X1.1962 Y-3.9686 I-0.6274 J-0.0188
G3 X1.3694 Y-4.219 I0.1921 J-0.0522
X1.4526 Y-4.226 I0.3411 J3.5687
X1.6643 Y-4.0533 I0.0143 J0.1986
G2 X2.4819 Y-3.9774 I0.4174 J-0.0548
G3 X2.7038 Y-4.112 I0.1892 J0.0618
G2 X5.7525 Y-4.1782 I1.3488 J-8.1148
G3 X5.888 Y-4.013 I0.0249 J0.1178
G2 X5.8594 Y-3.7783 I0.3868 J0.1662
G3 X5.7477 Y-3.5658 I-0.1964 J0.0324
G2 X4.1911 Y-2.6096 I3.5008 J7.444
G3 X3.9119 Y-2.6441 I-0.1224 J-0.157
G2 X3.0631 Y-2.7757 I-0.4945 J0.3866
G3 X2.8006 Y-2.8094 I-0.1123 J-0.1644
G2 X1.3879 Y-3.5822 I-1.7509 J1.523
G3 X1.2179 Y-3.7851 I0.029 J-0.197
G2 X1.1962 Y-3.9686 I-0.6274 J-0.0188
G3 X1.3694 Y-4.219 I0.1921 J-0.0522
X1.4526 Y-4.226 I0.3411 J3.5687
X1.6643 Y-4.0533 I0.0143 J0.1986
G2 X2.4819 Y-3.9774 I0.4174 J-0.0548
G3 X2.7038 Y-4.112 I0.1892 J0.0618
G2 X5.7525 Y-4.1782 I1.3488 J-8.1148
G3 X5.888 Y-4.013 I0.0249 J0.1178
G2 X5.8594 Y-3.7783 I0.3868 J0.1662
G3 X5.7477 Y-3.5658 I-0.1964 J0.0324
G2 X4.4683 Y-2.8165 I3.5008 J7.444
G3 X4.416 Y-2.8252 I-0.0218 J-0.0305
G1 X4.3942 Y-2.8557
X4.3916 Y-2.8594 Z0.2846
X4.389 Y-2.863 Z0.2854
X4.3865 Y-2.8666 Z0.2868
X4.3841 Y-2.8699 Z0.2886
X4.3818 Y-2.8731 Z0.291
X4.3797 Y-2.876 Z0.2938
X4.3779 Y-2.8786 Z0.297
X4.3763 Y-2.8809 Z0.3005
X4.3749 Y-2.8828 Z0.3044
X4.3738 Y-2.8843 Z0.3085
X4.373 Y-2.8854 Z0.3129
X4.3726 Y-2.886 Z0.3173
X4.3724 Y-2.8863 Z0.3218
G0 Z0.695
X4.5243 Y-0.7365
G1 Z0.3218 F80.
X4.5246 Y-0.7364 Z0.3173 F20.
X4.5254 Y-0.7361 Z0.3129
X4.5266 Y-0.7356 Z0.3085
X4.5283 Y-0.7349 Z0.3044
X4.5305 Y-0.734 Z0.3005
X4.5331 Y-0.733 Z0.297
X4.536 Y-0.7318 Z0.2938
X4.5393 Y-0.7304 Z0.291
X4.5429 Y-0.729 Z0.2886
X4.5468 Y-0.7274 Z0.2868
X4.5508 Y-0.7258 Z0.2854
X4.5549 Y-0.7241 Z0.2846
X4.5591 Y-0.7224 Z0.2843
X4.5938 Y-0.7083
G3 X4.6144 Y-0.6594 I-0.0141 J0.0347
G2 X4.5849 Y-0.5357 I0.39 J0.1586
G3 X4.3817 Y-0.3531 I-0.1984 J-0.0165
X4.2982 Y-0.3561 I0.0866 J-3.5839
X4.1132 Y-0.598 I0.0094 J-0.1989
G2 X4.1262 Y-0.7823 I-0.6129 J-0.1355
G3 X4.2862 Y-0.9931 I0.1985 J-0.0155
G2 X5.6604 Y-1.8325 I-0.4475 J-2.277
G3 X5.921 Y-1.8787 I0.1563 J0.1233
G2 X6.7625 Y-2.0507 I0.329 J-0.5345
G3 X7.0398 Y-2.0984 I0.1625 J0.115
G2 X8.6402 Y-1.2176 I4.7418 J-6.7219
G3 X8.762 Y-1.0107 I-0.076 J0.184
G2 X8.8017 Y-0.7777 I0.4182 J0.0486
G3 X8.6743 Y-0.6062 I-0.1082 J0.0527
G2 X5.6259 Y-0.5267 I-1.3137 J8.1205
G3 X5.3979 Y-0.6506 I-0.042 J-0.1946
G2 X4.5849 Y-0.5357 I-0.3935 J0.1497
G3 X4.3817 Y-0.3531 I-0.1984 J-0.0165
X4.2982 Y-0.3561 I0.0866 J-3.5839
X4.1132 Y-0.598 I0.0094 J-0.1989
G2 X4.1262 Y-0.7823 I-0.6129 J-0.1355
G3 X4.2862 Y-0.9931 I0.1985 J-0.0155
G2 X5.6604 Y-1.8325 I-0.4475 J-2.277
G3 X5.921 Y-1.8787 I0.1563 J0.1233
G2 X6.7625 Y-2.0507 I0.329 J-0.5345
G3 X7.0398 Y-2.0984 I0.1625 J0.115
G2 X8.6402 Y-1.2176 I4.7418 J-6.7219
G3 X8.762 Y-1.0107 I-0.076 J0.184
G2 X8.8017 Y-0.7777 I0.4182 J0.0486
G3 X8.6743 Y-0.6062 I-0.1082 J0.0527
G2 X5.6259 Y-0.5267 I-1.3137 J8.1205
G3 X5.3979 Y-0.6506 I-0.042 J-0.1946
G2 X4.6144 Y-0.6594 I-0.3935 J0.1497
G3 X4.5656 Y-0.6388 I-0.0347 J-0.0141
G1 X4.5308 Y-0.6529
X4.5266 Y-0.6546 Z0.2846
X4.5225 Y-0.6563 Z0.2854
X4.5185 Y-0.6579 Z0.2868
X4.5147 Y-0.6595 Z0.2886
X4.5111 Y-0.661 Z0.291
X4.5078 Y-0.6623 Z0.2938
X4.5048 Y-0.6635 Z0.297
X4.5022 Y-0.6646 Z0.3005
X4.5001 Y-0.6654 Z0.3044
X4.4983 Y-0.6661 Z0.3085
X4.4971 Y-0.6667 Z0.3129
X4.4963 Y-0.667 Z0.3173
X4.4961 Y-0.6671 Z0.3218
G0 Z1.095
(2D CHAMFER3 2)
G0 X6.5151 Y-2.3745
Z1.095
Z0.695
G1 Z0.2693 F80.
G3 X5.9851 Y-2.4519 I-0.265 J-0.0387 F50.
X6.5151 Y-2.3745 I0.265 J0.0387
G0 Z0.695
X7.1457 Y-4.2556
G1 Z0.2693 F80.
G3 X6.6102 Y-4.2397 I-0.2677 J0.0079 F50.
X7.1457 Y-4.2556 I0.2677 J-0.0079
G0 Z0.695
X3.6835 Y-2.2872
G1 Z0.2693 F80.
G3 X3.1511 Y-2.2278 I-0.2662 J0.0297 F50.
X3.6835 Y-2.2872 I0.2662 J-0.0297
G0 Z0.695
X3.7677 Y-0.7166
G1 Z0.2693 F80.
G3 X3.2331 Y-0.7505 I-0.2673 J-0.017 F50.
X3.7677 Y-0.7166 I0.2673 J0.017
G0 Z0.695
X0.8567 Y-3.8336
G1 Z0.2693 F80.
G3 X0.3244 Y-3.7742 I-0.2662 J0.0297 F50.
X0.8567 Y-3.8336 I0.2662 J-0.0297
G0 Z0.695
X10.0696 Y-0.5906
G1 Z0.2693 F80.
G3 X9.5339 I-0.2678 J0. F50.
X10.0696 I0.2678 J0.
G0 Z1.095
M5
M9
G53 G0 Z0.
M30
%
