%
(SHOCK SPACER 4.5 MM OP1)
(T33 D=0.25 CR=0. - ZMIN=0.178 - FLAT END MILL)
(T54 D=0.3125 CR=0. TAPER=118DEG - ZMIN=0.1091 - DRILL)
G90 G94 G17 G91.1
G20
G53 G0 Z0.
(DRILL1)
T54 M6
T33
S5000 M3
G17 G90 G94
G54
M8
G0 X0.3953 Y-0.2501
G43 Z1.1002 H54
G0 Z0.7002
G98 G81 X0.3953 Y-0.2501 Z0.1091 R0.6802 F40.
G80
G0 Z1.1002
M5
G53 G0 Z0.
(2D CONTOUR1)
M9
M1
T33 M6
T54
S7500 M3
G17 G90 G94
G54
G64 P0.0004 Q0.0004
M8
G0 X0.8906 Y-0.2251
G43 Z1.1002 H33
G0 Z0.7002
G1 Z0.203 F80.
G18 G3 X0.8656 Z0.178 I-0.025 K0. F20.
G1 X0.8406
G17 G3 X0.8156 Y-0.2501 I0. J-0.025
G2 X0.6276 Y-0.6003 I-0.4203 J0.
X0.5585 Y-0.6211 I-0.0691 J0.1042
G1 X0.2321
G2 X0.163 Y-0.6003 I0. J0.125
Y0.1002 I0.2323 J0.3502
X0.2321 Y0.121 I0.0691 J-0.1042
G1 X0.5585
G2 X0.6276 Y0.1002 I0. J-0.125
Y-0.6003 I-0.2323 J-0.3502
X0.5585 Y-0.6211 I-0.0691 J0.1042
G1 X0.2321
G2 X0.163 Y-0.6003 I0. J0.125
Y0.1002 I0.2323 J0.3502
X0.2321 Y0.121 I0.0691 J-0.1042
G1 X0.5585
G2 X0.6276 Y0.1002 I0. J-0.125
X0.8156 Y-0.2501 I-0.2323 J-0.3502
G3 X0.8406 Y-0.2751 I0.025 J0.
G1 X0.8656
G18 G2 X0.8906 Z0.203 I0. K0.025
G0 Z1.1002
G17
(2D CONTOUR2)
G0 X0.3931 Y-0.2751
Z1.1002
Z0.7002
G1 Z0.5395 F80.
Z0.278
G18 G2 X0.4181 Z0.253 I0.025 K0. F20.
G1 X0.4431
G17 G3 X0.4681 Y-0.2501 I0. J0.025
X0.3224 I-0.0728 J0.
X0.4681 I0.0728 J0.
X0.3224 I-0.0728 J0.
X0.4681 I0.0728 J0.
X0.4431 Y-0.2251 I-0.025 J0.
G1 X0.4181
G18 G3 X0.3931 Z0.278 I0. K0.025
G0 Z1.1002
G17
M5
M9
G53 G0 Z0.
M30
%
