%
(SHOCK SPACER 4.5 MM OP2)
(T33 D=0.25 CR=0. - ZMIN=0.1772 - FLAT END MILL)
G90 G94 G17 G91.1
G20
G53 G0 Z0.
(FACE1)
T33 M6
S7500 M3
G17 G90 G94
G54
G64 P0.0004 Q0.0004
M8
G0 X0.847 Y-0.5361
G43 Z1.0802 H33
G0 Z0.3772
G1 Z0.2022 F80.
G18 G3 X0.822 Z0.1772 I-0.025 K0. F20.
G1 X0.7906
X-0.2
G3 X-0.225 Z0.2022 I0. K0.025
G0 Z0.6802
X0.8531 Y-0.452
Z0.3772
G1 Z0.2022 F80.
G3 X0.8281 Z0.1772 I-0.025 K0. F20.
G1 X0.7906
X-0.2
G3 X-0.225 Z0.2022 I0. K0.025
G0 Z0.6802
X0.8531 Y-0.3679
Z0.3772
G1 Z0.2022 F80.
G3 X0.8281 Z0.1772 I-0.025 K0. F20.
G1 X0.7906
X-0.2
G3 X-0.225 Z0.2022 I0. K0.025
G0 Z0.6802
X0.8531 Y-0.2839
Z0.3772
G1 Z0.2022 F80.
G3 X0.8281 Z0.1772 I-0.025 K0. F20.
G1 X0.7906
X-0.2
G3 X-0.225 Z0.2022 I0. K0.025
G0 Z0.6802
X0.8531 Y-0.1998
Z0.3772
G1 Z0.2022 F80.
G3 X0.8281 Z0.1772 I-0.025 K0. F20.
G1 X0.7906
X-0.2
G3 X-0.225 Z0.2022 I0. K0.025
G0 Z0.6802
X0.8531 Y-0.1157
Z0.3772
G1 Z0.2022 F80.
G3 X0.8281 Z0.1772 I-0.025 K0. F20.
G1 X0.7906
X-0.2
G3 X-0.225 Z0.2022 I0. K0.025
G0 Z1.0802
G17
M5
M9
G53 G0 Z0.
M30
%
