%
(OP1 2X1,1X0,75)
(T13 D=0.375 CR=0. TAPER=45DEG - ZMIN=0.63 - CHAMFER MILL)
(T35 D=0.375 CR=0. - ZMIN=0.14 - FLAT END MILL)
G90 G94 G17 G91.1
G20
G53 G0 Z0.
(FACE1)
T35 M6
T13
S7500 M3
G17 G90 G94
G54
G64 P0.0004 Q0.0004
M8
G0 X2.2437 Y-1.0087
G43 Z1.35 H35
G0 Z0.95
G1 Z0.7775 F80.
G18 G3 X2.2062 Z0.74 I-0.0375 K0. F60.
G1 X2.1
X-0.1
G3 X-0.1375 Z0.7775 I0. K0.0375
G0 Z0.95
X2.2437 Y-0.7328
G1 Z0.7775 F80.
G3 X2.2062 Z0.74 I-0.0375 K0. F60.
G1 X2.1
X-0.1
G3 X-0.1375 Z0.7775 I0. K0.0375
G0 Z0.95
X2.2437 Y-0.457
G1 Z0.7775 F80.
G3 X2.2062 Z0.74 I-0.0375 K0. F60.
G1 X2.1
X-0.1
G3 X-0.1375 Z0.7775 I0. K0.0375
G0 Z0.95
X2.2437 Y-0.1811
G1 Z0.7775 F80.
G3 X2.2062 Z0.74 I-0.0375 K0. F60.
G1 X2.1
X-0.1
G3 X-0.1375 Z0.7775 I0. K0.0375
G0 Z1.35
G17
(2D ADAPTIVE1)
G64 P0.004 Q0.004
G0 X-0.0294 Y-1.492
Z1.35
Z0.2562
G1 Z0.14 F60.
G3 X0. Y-1.2878 I-0.9274 J0.2376
G1 Y-1.2835
X-0.0117 Y-1.2613
G3 X-0.0513 Y-1.2173 I-0.1069 J-0.0564
G2 X-0.0865 Y-1.1896 I0.0938 J0.1552
X-0.1403 Y-1.1337 I0.5219 J0.5566
X-0.1812 Y-1.0213 I0.159 J0.1215
G1 X-0.1818 Y-0.9989
Y-0.1011
X-0.1811 Y-0.0787
G2 X-0.12 Y0.056 I0.197 J-0.0082
X-0.0667 Y0.1072 I0.4753 J-0.4406
G1 X-0.0424 Y0.1233
G2 X-0.0105 Y0.1381 I0.0862 J-0.1448
X0.0681 Y0.1494 I0.0703 J-0.2097
X0.2365 Y0.1493 I0.0783 J-12.4401
X0.3087 Y0.1345 I-0.0039 J-0.2025
G1 X0.3153 Y0.1321
X0.3418 Y0.124
X0.3769 Y0.1155
G3 X0.553 Y0.0953 I0.2193 J1.1337
X0.9079 Y0.0884 I0.3141 J6.9824
G1 X0.9523 Y0.088
X1.041 Y0.0877
X1.1741 Y0.0876
X1.4404 Y0.0875
X1.5786
G3 X1.6496 Y0.1105 I0. J0.1208
G1 X1.6512 Y0.1117
X1.6736 Y0.1263
G2 X1.7635 Y0.1492 I0.0933 J-0.1783
X1.9543 I0.0924 J-12.9274
X2.033 Y0.1286 I-0.0129 J-0.2103
G1 X2.0424 Y0.1233
X2.0666 Y0.1071
G2 X2.1339 Y0.0412 I-0.45 J-0.5269
X2.1767 Y-0.045 I-0.1458 J-0.1261
G1 X2.1805 Y-0.0675
X2.1811 Y-0.0787
X2.1818 Y-0.1011
Y-0.9989
X2.1811 Y-1.0213
G2 X2.12 Y-1.156 I-0.197 J0.0082
X2.0667 Y-1.2072 I-0.4753 J0.4406
G1 X2.0424 Y-1.2233
G2 X2.0105 Y-1.2381 I-0.0862 J0.1448
X1.9319 Y-1.2494 I-0.0703 J0.2097
G1 X1.9206 Y-1.2495
X0.0794
X0.0569 Y-1.2493
X0.0277 Y-1.2594
X-0.0778 Y-1.2962 F300.
G2 X-0.134 Y-1.3019 I-0.0377 J0.0909
G1 X-0.1341
G2 X-0.1901 Y-1.2694 I0.0186 J0.0966
G1 X-0.2603 Y-1.1897
X-0.2912 Y-1.1268
X-0.3068 Y-1.0662
X-0.3121 Y-1.0213
X-0.3119 Y-0.0675
X-0.2966 Y0.0111
X-0.2789 Y0.056
X-0.2575 Y0.0938
X-0.1901 Y0.1693
X-0.1115 Y0.2343
X-0.0554 Y0.2599
X-0.0105 Y0.2733
X0.0457 Y0.2794
X0.1692 Y0.2793
G2 X0.2514 Y0.2243 I-0.0062 J-0.0982
G1 X0.2772 Y0.1682
G3 X0.2851 Y0.154 I0.058 J0.0227
X0.3087 Y0.1345 I0.0502 J0.0369 F60.
G1 X0.3151 Y0.1318
X0.3264 Y0.1263
X0.3488 Y0.1117
X0.36 Y0.1036
X0.3713 Y0.0931
G3 X0.4526 Y0.045 I0.1678 J0.1908
G1 X0.4772 Y0.036
X0.5088 Y0.0266
X0.5502 Y0.017
G3 X0.7264 Y-0.0032 I0.2364 J1.2866
X1.0813 Y-0.0113 I0.3278 J6.5424
X1.476 Y-0.0122 I0.2644 J31.2866
X1.5699 Y0.0335 I-0.0011 J0.1216
G1 X1.5726 Y0.0369
X1.5791 Y0.0448
G2 X1.64 Y0.1035 I0.9969 J-0.9723
G1 X1.6496 Y0.1105
G3 X1.6639 Y0.137 I-0.0231 J0.0296
X1.6259 Y0.1776 I-0.0374 J0.0031 F300.
G1 X0.3971 Y0.1571
G3 X0.3603 Y0.1211 I0.0006 J-0.0375
X0.3713 Y0.0931 I0.0375 J-0.0014 F60.
G2 X0.4303 Y0.0337 I-0.4447 J-0.501
G1 X0.4345 Y0.0274
G3 X0.5002 Y-0.0264 I0.1611 J0.1296
X0.5989 Y-0.0661 I0.2112 J0.3824
G1 X0.6411 Y-0.0769
G3 X0.8169 Y-0.1 I0.2522 J1.235
X1.1273 Y-0.1104 I0.3188 J4.9068
X1.3935 Y-0.1114 I0.1724 J10.3518
G1 X1.4225 Y-0.1091
X1.4463 Y-0.1059
G3 X1.5395 Y-0.0238 I-0.0219 J0.1189
X1.5353 Y0.006 I-0.0361 J0.0102
X1.5056 Y0.0238 I-0.032 J-0.0196 F300.
G1 X0.4679 Y0.0857
G3 X0.4292 Y0.0569 I-0.0022 J-0.0374
X0.4345 Y0.0274 I0.0365 J-0.0087 F60.
G2 X0.4584 Y-0.0175 I-0.1401 J-0.1034
G3 X0.5118 Y-0.0865 I0.1478 J0.0593
X0.603 Y-0.1393 I0.2131 J0.2626
G1 X0.6333 Y-0.1509
G3 X0.801 Y-0.1882 I0.2652 J0.7965
X1.0665 Y-0.2067 I0.3122 J2.5687
X1.3327 Y-0.2095 I0.1841 J4.8209
G1 X1.3663 Y-0.2068
G3 X1.4502 Y-0.1888 I-0.0338 J0.3614
X1.5267 Y-0.0899 I-0.0435 J0.1127
G1 X1.528 Y-0.0787
X1.5295 Y-0.0675
X1.5332 Y-0.045
X1.5363 Y-0.0338
X1.5395 Y-0.0238
G3 X1.5353 Y0.006 I-0.0361 J0.0102
X1.5036 Y0.0239 I-0.032 J-0.0196 F300.
G1 X0.4945 Y0.031
G3 X0.4618 Y0.0123 I-0.0003 J-0.0375
X0.4584 Y-0.0175 I0.0324 J-0.0188 F60.
G2 X0.4707 Y-0.0693 I-0.1954 J-0.074
G3 X0.504 Y-0.1361 I0.1373 J0.0267
X0.5855 Y-0.2031 I0.2201 J0.1845
G1 X0.6084 Y-0.2158
X0.6344 Y-0.2281
X0.6662 Y-0.2409
G3 X0.8347 Y-0.2821 I0.285 J0.7995
X1.0998 Y-0.3045 I0.3286 J2.3132
X1.3216 Y-0.304 I0.107 J1.8734
G1 X1.3559 Y-0.2996
G3 X1.4313 Y-0.2809 I-0.0521 J0.371
X1.4985 Y-0.2192 I-0.0426 J0.1138
G1 X1.5013 Y-0.2133
G3 X1.5216 Y-0.1348 I-0.6328 J0.2062
G1 X1.5267 Y-0.0899
G3 X1.5169 Y-0.0615 I-0.0374 J0.003
X1.4901 Y-0.0494 I-0.0276 J-0.0254 F300.
G1 X0.5089 Y-0.0282
G3 X0.4801 Y-0.0407 I-0.0008 J-0.0375
X0.4708 Y-0.0693 I0.028 J-0.0249 F60.
G1 X0.472 Y-0.0787
X0.4784 Y-0.1348
G3 X0.5264 Y-0.2271 I0.1771 J0.0335
X0.6059 Y-0.291 I0.2433 J0.2212
G1 X0.6296 Y-0.3044
X0.658 Y-0.3182
G3 X0.8182 Y-0.3683 I0.304 J0.6913
X1.0823 Y-0.3994 I0.3425 J1.7679
X1.304 Y-0.3983 I0.1032 J1.433
X1.3661 Y-0.3735 I-0.0141 J0.1257
G1 X1.3779 Y-0.3631
X1.4379 Y-0.3031
G3 X1.4848 Y-0.2471 I-0.2481 J0.2557
G1 X1.4905 Y-0.2358
X1.496 Y-0.2246
X1.4985 Y-0.2192
G3 X1.4983 Y-0.1892 I-0.0344 J0.0148
X1.4669 Y-0.167 I-0.0343 J-0.0152 F300.
G1 X0.5187 Y-0.0944
G3 X0.4883 Y-0.1064 I-0.0029 J-0.0374
X0.4784 Y-0.1348 I0.0276 J-0.0254 F60.
X0.4988 Y-0.2133 I0.6114 J0.1167
X0.5226 Y-0.2583 I0.2516 J0.1041
G1 X0.5317 Y-0.2694
X0.5397 Y-0.279
X0.5509 Y-0.2919
X0.5958 Y-0.3368
X0.607 Y-0.348
G3 X0.6927 Y-0.4067 I0.243 J0.2629
G1 X0.7211 Y-0.4202
G3 X0.8827 Y-0.4688 I0.3007 J0.7071
X1.1986 Y-0.497 I0.2987 J1.5605
X1.2794 Y-0.4616 I-0.0053 J0.122
G1 X1.3779 Y-0.3631
G3 X1.3878 Y-0.3348 I-0.0274 J0.0256
X1.3512 Y-0.3001 I-0.0374 J-0.0028 F300.
G1 X0.6352 Y-0.2849
G3 X0.597 Y-0.3197 I-0.0008 J-0.0375
X0.607 Y-0.348 I0.0374 J-0.0028 F60.
G1 X0.7192 Y-0.4602
G3 X0.7961 Y-0.5136 I0.2121 J0.2234
G1 X0.821 Y-0.5254
X0.8507 Y-0.5373
G3 X1.0019 Y-0.5749 I0.253 J0.6963
G1 X1.0096 Y-0.5753
X1.0173 Y-0.5754
G3 X1.044 Y-0.5616 I-0.0024 J0.0374
X1.0284 Y-0.5029 I-0.0291 J0.0237 F300.
G1 X0.7601 Y-0.3997
G3 X0.7093 Y-0.4319 I-0.0135 J-0.035
X0.7192 Y-0.4602 I0.0374 J-0.0028 F60.
G1 X0.753 Y-0.494
G3 X0.7978 Y-0.531 I0.2803 J0.2938
G1 X0.8091 Y-0.5368
X0.8316 Y-0.5479
G3 X0.8765 Y-0.5607 I0.1117 J0.3055
G1 X0.9102 Y-0.5684
X0.9214 Y-0.5706
G3 X1.0786 Y-0.5705 I0.078 J0.6299
X1.1685 Y-0.5481 I-0.1248 J0.6943
G1 X1.1909 Y-0.5368
X1.2021 Y-0.5309
G3 X1.2471 Y-0.4938 I-0.2064 J0.2964
G1 X1.2794 Y-0.4616
G3 X1.2894 Y-0.4332 I-0.0274 J0.0256
G1 X1.2891 Y-0.4287 Z0.1403
X1.2887 Y-0.4243 Z0.1411
X1.2884 Y-0.42 Z0.1424
X1.2881 Y-0.4159 Z0.1443
X1.2878 Y-0.412 Z0.1466
X1.2875 Y-0.4084 Z0.1494
X1.2873 Y-0.4052 Z0.1526
X1.2871 Y-0.4025 Z0.1562
X1.2869 Y-0.4001 Z0.1601
X1.2868 Y-0.3983 Z0.1642
X1.2867 Y-0.3969 Z0.1685
X1.2866 Y-0.3961 Z0.173
Y-0.3958 Z0.1775
G0 Z1.35
(2D CONTOUR1)
G64 P0.0004 Q0.0004
G0 X-0.2843 Y-0.5875
Z1.35
Z0.95
G1 Z0.7894 F80.
Z0.1775
G18 G2 X-0.2468 Z0.14 I0.0375 K0. F60.
G1 X-0.2093
G17 G3 X-0.1718 Y-0.55 I0. J0.0375
G1 Y-0.0874
G2 X-0.1168 Y0.0452 I0.1875 J0.
G1 X-0.0775 Y0.0846
G2 X0.0551 Y0.1395 I0.1326 J-0.1326
G1 X0.2338
G2 X0.3645 Y0.0863 I0. J-0.1875
G1 X0.405 Y0.047
G2 X0.4614 Y-0.0772 I-0.1308 J-0.1344
G3 X0.4838 Y-0.2045 I0.5386 J0.0292
X0.5354 Y-0.2905 I0.1973 J0.0598
G1 X0.7575 Y-0.5127
G3 X0.8435 Y-0.5642 I0.1458 J0.1458
X1.1565 I0.1565 J0.5162
X1.2425 Y-0.5127 I-0.0598 J0.1973
G1 X1.4646 Y-0.2905
G3 X1.5162 Y-0.2045 I-0.1458 J0.1458
X1.5386 Y-0.0772 I-0.5162 J0.1565
G2 X1.595 Y0.047 I0.1872 J-0.0102
G1 X1.6355 Y0.0863
G2 X1.7662 Y0.1395 I0.1308 J-0.1344
G1 X1.9449
G2 X2.0775 Y0.0846 I0. J-0.1875
G1 X2.1168 Y0.0452
G2 X2.1718 Y-0.0874 I-0.1326 J-0.1326
G1 Y-1.0126
G2 X2.1168 Y-1.1452 I-0.1875 J0.
G1 X2.0775 Y-1.1846
G2 X1.9449 Y-1.2395 I-0.1326 J0.1326
G1 X0.0551
G2 X-0.0775 Y-1.1846 I0. J0.1875
G1 X-0.1168 Y-1.1452
G2 X-0.1718 Y-1.0126 I0.1326 J0.1326
G1 Y-0.55
Y-0.0874
G2 X-0.1168 Y0.0452 I0.1875 J0.
G1 X-0.0775 Y0.0846
G2 X0.0551 Y0.1395 I0.1326 J-0.1326
G1 X0.2338
G2 X0.3645 Y0.0863 I0. J-0.1875
G1 X0.405 Y0.047
G2 X0.4614 Y-0.0772 I-0.1308 J-0.1344
G3 X0.4838 Y-0.2045 I0.5386 J0.0292
X0.5354 Y-0.2905 I0.1973 J0.0598
G1 X0.7575 Y-0.5127
G3 X0.8435 Y-0.5642 I0.1458 J0.1458
X1.1565 I0.1565 J0.5162
X1.2425 Y-0.5127 I-0.0598 J0.1973
G1 X1.4646 Y-0.2905
G3 X1.5162 Y-0.2045 I-0.1458 J0.1458
X1.5386 Y-0.0772 I-0.5162 J0.1565
G2 X1.595 Y0.047 I0.1872 J-0.0102
G1 X1.6355 Y0.0863
G2 X1.7662 Y0.1395 I0.1308 J-0.1344
G1 X1.9449
G2 X2.0775 Y0.0846 I0. J-0.1875
G1 X2.1168 Y0.0452
G2 X2.1718 Y-0.0874 I-0.1326 J-0.1326
G1 Y-1.0126
G2 X2.1168 Y-1.1452 I-0.1875 J0.
G1 X2.0775 Y-1.1846
G2 X1.9449 Y-1.2395 I-0.1326 J0.1326
G1 X0.0551
G2 X-0.0775 Y-1.1846 I0. J0.1875
G1 X-0.1168 Y-1.1452
G2 X-0.1718 Y-1.0126 I0.1326 J0.1326
G1 Y-0.55
G3 X-0.2093 Y-0.5125 I-0.0375 J0.
G1 X-0.2468
G18 G3 X-0.2843 Z0.1775 I0. K0.0375
G0 Z1.35
G17
M5
G53 G0 Z0.
(2D CHAMFER1)
M9
M1
T13 M6
T35
S7500 M3
G17 G90 G94
G54
M8
G0 X-0.0808 Y-0.55
G43 Z1.35 H13
G0 Z0.95
G1 Z0.83 F80.
Z0.63
Y-0.0874 F50.
G2 X-0.0525 Y-0.0192 I0.0965 J0.
G1 X-0.0131 Y0.0202
G2 X0.0551 Y0.0485 I0.0682 J-0.0682
G1 X0.2338
G2 X0.3011 Y0.0211 I0. J-0.0965
G1 X0.3415 Y-0.0182
G2 X0.3706 Y-0.0822 I-0.0673 J-0.0692
G3 X0.3967 Y-0.2309 I0.6294 J0.0341
X0.471 Y-0.3548 I0.2844 J0.0862
G1 X0.6932 Y-0.577
G3 X0.8171 Y-0.6513 I0.2102 J0.2102
X1.1829 I0.1829 J0.6033
X1.3068 Y-0.577 I-0.0862 J0.2844
G1 X1.529 Y-0.3548
G3 X1.6033 Y-0.2309 I-0.2102 J0.2102
X1.6294 Y-0.0822 I-0.6033 J0.1829
G2 X1.6585 Y-0.0182 I0.0964 J-0.0052
G1 X1.6989 Y0.0211
G2 X1.7662 Y0.0485 I0.0673 J-0.0692
G1 X1.9449
G2 X2.0131 Y0.0202 I0. J-0.0965
G1 X2.0525 Y-0.0192
G2 X2.0808 Y-0.0874 I-0.0682 J-0.0682
G1 Y-1.0126
G2 X2.0525 Y-1.0808 I-0.0965 J0.
G1 X2.0131 Y-1.1202
G2 X1.9449 Y-1.1485 I-0.0682 J0.0682
G1 X0.0551
G2 X-0.0131 Y-1.1202 I0. J0.0965
G1 X-0.0525 Y-1.0808
G2 X-0.0808 Y-1.0126 I0.0682 J0.0682
G1 Y-0.55
G0 Z1.35
M5
M9
G53 G0 Z0.
M30
%
