%
(OP2)
(T13 D=0.375 CR=0. TAPER=45DEG - ZMIN=0.49 - CHAMFER MILL)
(T35 D=0.375 CR=0. - ZMIN=0.6 - FLAT END MILL)
G90 G94 G17 G91.1
G20
G53 G0 Z0.
(FACE2)
T35 M6
T13
S7500 M3
G17 G90 G94
G54
G64 P0.0004 Q0.0004
M8
G0 X2.2279 Y-1.0532
G43 Z1.34 H35
G0 Z0.94
G1 Z0.6375 F80.
G18 G3 X2.1904 Z0.6 I-0.0375 K0. F60.
G1 X2.0843
X-0.1157
G3 X-0.1532 Z0.6375 I0. K0.0375
G0 Z0.94
X2.228 Y-0.869
G1 Z0.6375 F80.
G3 X2.1905 Z0.6 I-0.0375 K0. F60.
G1 X2.0843
X-0.1157
G3 X-0.1532 Z0.6375 I0. K0.0375
G0 Z0.94
X2.228 Y-0.6848
G1 Z0.6375 F80.
G3 X2.1905 Z0.6 I-0.0375 K0. F60.
G1 X2.0843
X-0.1157
G3 X-0.1532 Z0.6375 I0. K0.0375
G0 Z0.94
X2.228 Y-0.5006
G1 Z0.6375 F80.
G3 X2.1905 Z0.6 I-0.0375 K0. F60.
G1 X2.0843
X-0.1157
G3 X-0.1532 Z0.6375 I0. K0.0375
G0 Z0.94
X2.228 Y-0.3163
G1 Z0.6375 F80.
G3 X2.1905 Z0.6 I-0.0375 K0. F60.
G1 X2.0843
X-0.1157
G3 X-0.1532 Z0.6375 I0. K0.0375
G0 Z0.94
X2.228 Y-0.1321
G1 Z0.6375 F80.
G3 X2.1905 Z0.6 I-0.0375 K0. F60.
G1 X2.0843
X-0.1157
G3 X-0.1532 Z0.6375 I0. K0.0375
G0 Z1.34
G17
M5
G53 G0 Z0.
(2D CHAMFER1 2)
M9
M1
T13 M6
T35
S7500 M3
G17 G90 G94
G54
M8
G0 X2.065 Y-0.502
G43 Z1.34 H13
G0 Z0.94
G1 Z0.82 F80.
Z0.49
Y-0.9646 F50.
G2 X2.0367 Y-1.0328 I-0.0965 J0.
G1 X1.9974 Y-1.0722
G2 X1.9291 Y-1.1004 I-0.0682 J0.0682
G1 X1.7505
G2 X1.6832 Y-1.0731 I0. J0.0965
G1 X1.6428 Y-1.0337
G2 X1.6137 Y-0.9698 I0.0673 J0.0692
G3 X1.5875 Y-0.8211 I-0.6294 J-0.0341
X1.5132 Y-0.6971 I-0.2844 J-0.0862
G1 X1.2911 Y-0.4749
G3 X1.1671 Y-0.4007 I-0.2102 J-0.2102
X0.8014 I-0.1829 J-0.6033
X0.6774 Y-0.4749 I0.0862 J-0.2844
G1 X0.4553 Y-0.6971
G3 X0.381 Y-0.8211 I0.2102 J-0.2102
X0.3548 Y-0.9698 I0.6033 J-0.1829
G2 X0.3258 Y-1.0337 I-0.0964 J0.0052
G1 X0.2853 Y-1.0731
G2 X0.218 Y-1.1004 I-0.0673 J0.0692
G1 X0.0394
G2 X-0.0289 Y-1.0722 I0. J0.0965
G1 X-0.0682 Y-1.0328
G2 X-0.0965 Y-0.9646 I0.0682 J0.0682
G1 Y-0.0394
G2 X-0.0682 Y0.0289 I0.0965 J0.
G1 X-0.0289 Y0.0682
G2 X0.0394 Y0.0965 I0.0682 J-0.0682
G1 X1.9291
G2 X1.9974 Y0.0682 I0. J-0.0965
G1 X2.0367 Y0.0289
G2 X2.065 Y-0.0394 I-0.0682 J-0.0682
G1 Y-0.502
G0 Z1.34
M5
M9
G53 G0 Z0.
M30
%
