%
(OP3 - HOLE IN END)
(T33 D=0.25 CR=0. - ZMIN=0.672 - FLAT END MILL)
(T54 D=0.3125 CR=0. TAPER=118DEG - ZMIN=0.5681 - DRILL)
G90 G94 G17 G91.1
G20
G53 G0 Z0.
(DRILL1)
T54 M6
T33
S5000 M3
G17 G90 G94
G54
M8
G0 X0.9843 Y-0.3
G43 Z1.652 H54
G0 Z1.252
G98 G81 X0.9843 Y-0.3 Z0.5681 R1.2039 F40.
G80
G0 Z1.652
(DRILL2)
G0 X0.5906 Y-0.3
Z1.652
Z1.252
G81 X0.5906 Y-0.3 Z0.9843 R1.2039 F40.
G80
G0 Z1.652
M5
G53 G0 Z0.
(2D CONTOUR2)
M9
M1
T33 M6
T54
S7500 M3
G17 G90 G94
G54
G64 P0.0004 Q0.0004
M8
G0 X0.9996 Y-0.2999
G43 Z1.652 H33
G0 Z1.252
G1 Z1.0913 F80.
Z0.687
X0.9997 Y-0.2997 Z0.6841 F10.
X0.9999 Y-0.2988 Z0.6813
X1.0002 Y-0.2975 Z0.6787
X1.0006 Y-0.2956 Z0.6764
X1.0011 Y-0.2934 Z0.6745
X1.0016 Y-0.2909 Z0.6731
X1.0022 Y-0.2881 Z0.6723
X1.0029 Y-0.2853 Z0.672
X1.0094 Y-0.256
G3 X0.998 Y-0.2381 I-0.0146 J0.0032
G1 X0.9965 Y-0.2378
X0.9932 Y-0.2372
X0.9901 Y-0.2368
X0.9871 Y-0.2366
X0.9843 Y-0.2365
X0.9814 Y-0.2366
X0.9784 Y-0.2368
X0.9753 Y-0.2372
X0.972 Y-0.2378
X0.9688 Y-0.2385
X0.9657 Y-0.2393
X0.9627 Y-0.2403
X0.9599 Y-0.2414
X0.9572 Y-0.2426
X0.9544 Y-0.244
X0.9516 Y-0.2456
X0.9488 Y-0.2474
X0.9462 Y-0.2493
X0.9437 Y-0.2512
X0.9414 Y-0.2532
X0.9394 Y-0.2551
X0.9375 Y-0.2571
X0.9355 Y-0.2594
X0.9335 Y-0.2619
X0.9317 Y-0.2646
X0.9299 Y-0.2673
X0.9283 Y-0.2702
X0.9269 Y-0.2729
X0.9256 Y-0.2757
X0.9246 Y-0.2784
X0.9236 Y-0.2814
X0.9227 Y-0.2846
X0.922 Y-0.2878
X0.9215 Y-0.291
X0.9211 Y-0.2942
X0.9209 Y-0.2972
X0.9208 Y-0.3
X0.9209 Y-0.3028
X0.9211 Y-0.3058
X0.9215 Y-0.309
X0.922 Y-0.3122
X0.9227 Y-0.3154
X0.9236 Y-0.3186
X0.9246 Y-0.3216
X0.9256 Y-0.3243
X0.9269 Y-0.3271
X0.9283 Y-0.3298
X0.9299 Y-0.3327
X0.9317 Y-0.3354
X0.9335 Y-0.3381
X0.9355 Y-0.3406
X0.9375 Y-0.3429
X0.9394 Y-0.3449
X0.9414 Y-0.3468
X0.9437 Y-0.3488
X0.9462 Y-0.3507
X0.9488 Y-0.3526
X0.9516 Y-0.3544
X0.9544 Y-0.356
X0.9572 Y-0.3574
X0.9599 Y-0.3586
X0.9627 Y-0.3597
X0.9657 Y-0.3607
X0.9688 Y-0.3615
X0.972 Y-0.3622
X0.9753 Y-0.3628
X0.9784 Y-0.3632
X0.9815 Y-0.3634
X0.9843 Y-0.3635
X0.9871 Y-0.3634
X0.9901 Y-0.3632
X0.9932 Y-0.3628
X0.9965 Y-0.3622
X0.9997 Y-0.3615
X1.0028 Y-0.3607
X1.0058 Y-0.3597
X1.0086 Y-0.3586
X1.0113 Y-0.3574
X1.0141 Y-0.356
X1.0169 Y-0.3544
X1.0197 Y-0.3526
X1.0224 Y-0.3507
X1.0248 Y-0.3488
X1.0271 Y-0.3468
X1.0291 Y-0.3449
X1.031 Y-0.3429
X1.033 Y-0.3406
X1.035 Y-0.3381
X1.0369 Y-0.3354
X1.0386 Y-0.3327
X1.0402 Y-0.3298
X1.0416 Y-0.3271
X1.0429 Y-0.3243
X1.0439 Y-0.3216
X1.0449 Y-0.3186
X1.0458 Y-0.3154
X1.0465 Y-0.3122
X1.047 Y-0.309
X1.0474 Y-0.3058
X1.0476 Y-0.3028
X1.0477 Y-0.3
X1.0476 Y-0.2972
X1.0474 Y-0.2942
X1.047 Y-0.291
X1.0465 Y-0.2878
X1.0458 Y-0.2846
X1.0449 Y-0.2814
X1.0439 Y-0.2784
X1.0429 Y-0.2757
X1.0416 Y-0.2729
X1.0402 Y-0.2702
X1.0386 Y-0.2673
X1.0369 Y-0.2646
X1.035 Y-0.2619
X1.033 Y-0.2594
X1.031 Y-0.2571
X1.0291 Y-0.2551
X1.0271 Y-0.2532
X1.0248 Y-0.2512
X1.0223 Y-0.2493
X1.0197 Y-0.2474
X1.0169 Y-0.2456
X1.0141 Y-0.244
X1.0113 Y-0.2426
X1.0086 Y-0.2414
X1.0058 Y-0.2403
X1.0028 Y-0.2393
X0.9997 Y-0.2385
X0.998 Y-0.2381
X0.9965 Y-0.2378
X0.9932 Y-0.2372
X0.9901 Y-0.2368
X0.9871 Y-0.2366
X0.9843 Y-0.2365
X0.9814 Y-0.2366
X0.9784 Y-0.2368
X0.9753 Y-0.2372
X0.972 Y-0.2378
X0.9688 Y-0.2385
X0.9657 Y-0.2393
X0.9627 Y-0.2403
X0.9599 Y-0.2414
X0.9572 Y-0.2426
X0.9544 Y-0.244
X0.9516 Y-0.2456
X0.9488 Y-0.2474
X0.9462 Y-0.2493
X0.9437 Y-0.2512
X0.9414 Y-0.2532
X0.9394 Y-0.2551
X0.9375 Y-0.2571
X0.9355 Y-0.2594
X0.9335 Y-0.2619
X0.9317 Y-0.2646
X0.9299 Y-0.2673
X0.9283 Y-0.2702
X0.9269 Y-0.2729
X0.9256 Y-0.2757
X0.9246 Y-0.2784
X0.9236 Y-0.2814
X0.9227 Y-0.2846
X0.922 Y-0.2878
X0.9215 Y-0.291
X0.9211 Y-0.2942
X0.9209 Y-0.2972
X0.9208 Y-0.3
X0.9209 Y-0.3028
X0.9211 Y-0.3058
X0.9215 Y-0.309
X0.922 Y-0.3122
X0.9227 Y-0.3154
X0.9236 Y-0.3186
X0.9246 Y-0.3216
X0.9256 Y-0.3243
X0.9269 Y-0.3271
X0.9283 Y-0.3298
X0.9299 Y-0.3327
X0.9317 Y-0.3354
X0.9335 Y-0.3381
X0.9355 Y-0.3406
X0.9375 Y-0.3429
X0.9394 Y-0.3449
X0.9414 Y-0.3468
X0.9437 Y-0.3488
X0.9462 Y-0.3507
X0.9488 Y-0.3526
X0.9516 Y-0.3544
X0.9544 Y-0.356
X0.9572 Y-0.3574
X0.9599 Y-0.3586
X0.9627 Y-0.3597
X0.9657 Y-0.3607
X0.9688 Y-0.3615
X0.972 Y-0.3622
X0.9753 Y-0.3628
X0.9784 Y-0.3632
X0.9815 Y-0.3634
X0.9843 Y-0.3635
X0.9871 Y-0.3634
X0.9901 Y-0.3632
X0.9932 Y-0.3628
X0.9965 Y-0.3622
X0.9997 Y-0.3615
X1.0028 Y-0.3607
X1.0058 Y-0.3597
X1.0086 Y-0.3586
X1.0113 Y-0.3574
X1.0141 Y-0.356
X1.0169 Y-0.3544
X1.0197 Y-0.3526
X1.0224 Y-0.3507
X1.0248 Y-0.3488
X1.0271 Y-0.3468
X1.0291 Y-0.3449
X1.031 Y-0.3429
X1.033 Y-0.3406
X1.035 Y-0.3381
X1.0369 Y-0.3354
X1.0386 Y-0.3327
X1.0402 Y-0.3298
X1.0416 Y-0.3271
X1.0429 Y-0.3243
X1.0439 Y-0.3216
X1.0449 Y-0.3186
X1.0458 Y-0.3154
X1.0465 Y-0.3122
X1.047 Y-0.309
X1.0474 Y-0.3058
X1.0476 Y-0.3028
X1.0477 Y-0.3
X1.0476 Y-0.2972
X1.0474 Y-0.2942
X1.047 Y-0.291
X1.0465 Y-0.2878
X1.0458 Y-0.2846
X1.0449 Y-0.2814
X1.0439 Y-0.2784
X1.0429 Y-0.2757
X1.0416 Y-0.2729
X1.0402 Y-0.2702
X1.0386 Y-0.2673
X1.0369 Y-0.2646
X1.035 Y-0.2619
X1.033 Y-0.2594
X1.031 Y-0.2571
X1.0291 Y-0.2551
X1.0271 Y-0.2532
X1.0248 Y-0.2512
X1.0223 Y-0.2493
X1.0197 Y-0.2474
X1.0169 Y-0.2456
X1.0141 Y-0.244
X1.0113 Y-0.2426
X1.0086 Y-0.2414
X1.0058 Y-0.2403
X1.0028 Y-0.2393
X0.9997 Y-0.2385
X0.998 Y-0.2381
G3 X0.9801 Y-0.2495 I-0.0032 J-0.0146
G1 X0.9736 Y-0.2788
X0.973 Y-0.2817 Z0.6723
X0.9723 Y-0.2844 Z0.6731
X0.9718 Y-0.2869 Z0.6745
X0.9713 Y-0.2891 Z0.6764
X0.9709 Y-0.291 Z0.6787
X0.9706 Y-0.2923 Z0.6813
X0.9704 Y-0.2932 Z0.6841
X0.9703 Y-0.2934 Z0.687
G0 Z1.652
M5
M9
G53 G0 Z0.
M30
%
