%
(SHOCK MOUNT OP1, 1,75X1,61X1,25)
(T13 D=0.375 CR=0. TAPER=45DEG - ZMIN=1.0836 - CHAMFER MILL)
(T33 D=0.25 CR=0. - ZMIN=0.2 - FLAT END MILL)
(T36 D=0.375 CR=0. - ZMIN=0.18 - FLAT END MILL)
(T51 D=0.201 CR=0. TAPER=118DEG - ZMIN=0.1196 - DRILL)
(T54 D=0.3125 CR=0. TAPER=118DEG - ZMIN=-0.1139 - DRILL)
G90 G94 G17 G91.1
G20
G53 G0 Z0.
(FACE2)
T36 M6
T51
S5000 M3
G17 G90 G94
G54
G64 P0.0004 Q0.0004
M8
G0 X1.9973 Y-1.5654
G43 Z1.8436 H36
G0 Z1.4436
G1 Z1.2511 F80.
G18 G3 X1.9598 Z1.2136 I-0.0375 K0. F50.
G1 X1.8535
X-0.1
G17 G2 Y-1.3346 I0. J0.1154
G1 X1.8535
G3 Y-1.1038 I0. J0.1154
G1 X-0.1
G2 Y-0.873 I0. J0.1154
G1 X1.8535
G3 Y-0.6422 I0. J0.1154
G1 X-0.1
G2 Y-0.4114 I0. J0.1154
G1 X1.8535
G3 Y-0.1806 I0. J0.1154
G1 X-0.1
G18 G3 X-0.1375 Z1.2511 I0. K0.0375
G0 Z1.8436
G17
(FLAT1)
G0 X-0.2079 Y-0.2508
Z1.8436
Z1.2836
G1 Z1.2442 F80.
Y-0.251 Z1.241 F50.
X-0.2075 Y-0.2513 Z1.2365
X-0.2066 Y-0.2515 Z1.232
X-0.2052 Z1.2277
X-0.2034 Y-0.2513 Z1.2236
X-0.201 Y-0.251 Z1.2198
X-0.1982 Y-0.2506 Z1.2162
X-0.1951 Y-0.2501 Z1.213
X-0.1916 Y-0.2494 Z1.2102
X-0.1878 Y-0.2486 Z1.2079
X-0.1837 Y-0.2476 Z1.2061
X-0.1795 Y-0.2466 Z1.2047
X-0.1752 Y-0.2455 Z1.2039
X-0.1708 Y-0.2444 Z1.2036
X-0.1346 Y-0.2346
G2 X0.0364 Y-0.2092 I0.1945 J-0.7217
G3 X0.197 Y-0.1452 I-0.008 J0.2535
G2 X0.3274 Y-0.0961 I0.1291 J-0.1452
G1 X1.4057 Y-0.1031
G2 X1.6335 Y-0.4035 I-0.0015 J-0.2377
G1 X1.3928 Y-1.2836
G2 X0.921 Y-1.3771 I-0.2593 J0.0709
G1 X0.1724 Y-0.4093
G2 X0.197 Y-0.1452 I0.1537 J0.1189
X0.3884 Y-0.2037 I0.0779 J-0.0875
G3 X0.5452 Y-0.328 I0.1601 J0.0409
G1 X1.3038 Y-0.343
G2 X1.3749 Y-0.4368 I-0.0015 J-0.075
G1 X1.1882 Y-1.1582
G2 X1.0629 Y-1.1839 I-0.0689 J0.0178
G1 X0.4884 Y-0.441
G2 X0.5452 Y-0.328 I0.0555 J0.0429
X0.7562 Y-0.447 I-0.005 J-0.2555
G3 X0.9739 Y-0.5531 I0.1946 J0.123
G2 X0.997 Y-0.5549 I0.0065 J-0.0647
G1 X1.0328 Y-0.5643
G2 X1.0888 Y-0.6365 I-0.019 J-0.0725
G1 X1.0889 Y-0.6708
G2 X0.9707 Y-0.7114 I-0.066 J-0.0003
G1 X0.929 Y-0.6576
G2 X0.9739 Y-0.5531 I0.0514 J0.0398
G1 X1.0112 Y-0.5493
X1.0157 Y-0.5488 Z1.2039
X1.0202 Y-0.5483 Z1.2047
X1.0245 Y-0.5478 Z1.2061
X1.0285 Y-0.5472 Z1.2079
X1.0324 Y-0.5466 Z1.2102
X1.0359 Y-0.546 Z1.213
X1.0391 Y-0.5454 Z1.2162
X1.0418 Y-0.5448 Z1.2198
X1.0441 Y-0.5442 Z1.2236
X1.0459 Y-0.5437 Z1.2277
X1.0472 Y-0.5432 Z1.232
X1.048 Y-0.5427 Z1.2365
X1.0482 Y-0.5423 Z1.241
Y-0.5422 Z1.2442
G0 Z1.8436
(2D ADAPTIVE3)
S7500 M3
G64 P0.004 Q0.004
G0 X-0.0294 Y-2.0065
Z1.8436
Z1.4436
Z0.2962
G1 Z0.2587 F60.
Z0.18
G3 X0. Y-1.8023 I-0.9274 J0.2376
G1 Y-1.7968
X-0.0325 Y-1.7666
X-0.0594 Y-1.7312
X-0.0807 Y-1.6923
X-0.0971 Y-1.6511
X-0.1093 Y-1.6084
X-0.1181 Y-1.565
X-0.1244 Y-1.521
X-0.1287 Y-1.4769
X-0.1317 Y-1.4326
X-0.1337 Y-1.3883
X-0.135 Y-1.3439
X-0.1358 Y-1.2995
X-0.1364 Y-1.2552
X-0.1368 Y-1.2108
X-0.137 Y-1.1664
X-0.1372 Y-1.1221
X-0.1374 Y-1.0333
X-0.1375 Y-0.9002
Y-0.3892
X-0.1378 Y-0.38
X-0.1389 Y-0.3708
X-0.1406 Y-0.3617
X-0.1432 Y-0.3392
X-0.1441 Y-0.328
X-0.1452 Y-0.3055
X-0.1468 Y-0.2718
X-0.1461 Y-0.2606
X-0.1454 Y-0.2493
X-0.1447 Y-0.2049
X-0.1421 Y-0.1607
X-0.1405 Y-0.1163
X-0.137 Y-0.0721
X-0.1216 Y-0.0304
X-0.0972 Y0.0066
X-0.0659 Y0.038
X-0.0297 Y0.0638
X0.0097 Y0.0841
X0.0513 Y0.0997
X0.0941 Y0.1112
X0.1261 Y0.1173
X0.1337 Y0.119
X0.1412 Y0.1211
X0.1485 Y0.1237
X0.1581 Y0.1274
X0.1694 Y0.131
X0.1806 Y0.1343
X0.1918 Y0.1363
X0.203 Y0.1382
X0.2143 Y0.14
X0.2367 Y0.1428
X0.248 Y0.1442
X0.2704 Y0.1466
X0.2816 Y0.1472
X0.3041 Y0.1475
X0.3266
X1.4382
X1.4494
X1.4719 Y0.1472
X1.4831 Y0.1466
X1.4944 Y0.1455
X1.5387 Y0.1432
X1.583 Y0.1412
X1.6274 Y0.1399
X1.6717 Y0.139
X1.7142 Y0.1261
X1.7523 Y0.1034
X1.785 Y0.0735
X1.8121 Y0.0383
X1.8336 Y-0.0005
X1.8501 Y-0.0417
X1.8625 Y-0.0843
X1.8714 Y-0.1278
X1.8723 Y-0.1326
X1.8734 Y-0.1374
X1.8748 Y-0.1421
X1.8769 Y-0.1482
X1.8842 Y-0.1706
X1.8874 Y-0.1806
X1.8928 Y-0.2044
X1.8946 Y-0.2156
X1.8969 Y-0.2381
X1.8989 Y-0.2606
X1.8999 Y-0.2718
X1.9002 Y-0.283
X1.9005 Y-0.2943
X1.9003 Y-0.3055
X1.8999 Y-0.3089
X1.8972 Y-0.3532
X1.895 Y-0.3975
X1.8936 Y-0.4419
X1.8927 Y-0.4862
X1.8921 Y-0.5306
X1.8917 Y-0.575
X1.8915 Y-0.6193
X1.8913 Y-0.6637
X1.8912 Y-0.7525
X1.8911 Y-0.8856
X1.891 Y-1.5068
X1.8841 Y-1.5506
X1.8661 Y-1.5912
X1.8396 Y-1.6268
X1.8068 Y-1.6567
X1.7697 Y-1.681
X1.7295 Y-1.6999
X1.6876 Y-1.7143
X1.6445 Y-1.7249
X1.6008 Y-1.7325
X1.5567 Y-1.7378
X1.5125 Y-1.7415
X1.4682 Y-1.7439
X1.4238 Y-1.7456
X1.3795 Y-1.7467
X1.3351 Y-1.7474
X1.2907 Y-1.7478
X1.2604 Y-1.7481
X1.2526 Y-1.7483
X1.2449 Y-1.7491
X1.2372 Y-1.7503
X1.2361 Y-1.7505
X1.2136 Y-1.7529
X1.2024 Y-1.7541
X1.1799 Y-1.7564
X1.1687 Y-1.7572
X1.1463 Y-1.7586
X1.135 Y-1.7579
X1.1238 Y-1.757
X1.0795 Y-1.7554
X1.0352 Y-1.753
X0.9908 Y-1.7515
X0.9464 Y-1.7505
X0.9021 Y-1.7499
X0.8577 Y-1.7495
X0.8133 Y-1.7492
X0.769 Y-1.7491
X0.6802 Y-1.7489
X0.5471 Y-1.7488
X0.1921 Y-1.7487
X0.1481 Y-1.7432
X0.1064 Y-1.7281
X0.0685 Y-1.705
X0.0353 Y-1.6755
X0.0072 Y-1.6412
X-0.0159 Y-1.6033
X-0.0344 Y-1.563
X-0.0488 Y-1.521
X-0.0597 Y-1.478
X-0.0678 Y-1.4343
X-0.0737 Y-1.3904
X-0.0779 Y-1.3462
X-0.0809 Y-1.3019
X-0.083 Y-1.2576
X-0.0844 Y-1.2133
X-0.0854 Y-1.1689
X-0.0861 Y-1.1245
X-0.0865 Y-1.0802
X-0.0869 Y-1.0358
X-0.0871 Y-0.9914
X-0.0872 Y-0.947
X-0.0874 Y-0.8583
Y-0.8139
X-0.0875 Y-0.592
Y-0.5374
X-0.0883 Y-0.5225
X-0.0909 Y-0.5079
X-0.0951 Y-0.4936
X-0.1009 Y-0.4799
X-0.1114 Y-0.4587
X-0.114 Y-0.4516
X-0.1226 Y-0.426
X-0.1321 Y-0.3954
X-0.1338 Y-0.3892
X-0.138 Y-0.3729
X-0.1406 Y-0.3617
X-0.1415 Y-0.3589
X-0.1426 Y-0.3562
G2 X-0.1469 Y-0.3451 I0.1239 J0.0552
X-0.1489 Y-0.3347 I0.0355 J0.0122
G1 X-0.1491 Y-0.3322
X-0.1515 Y-0.2795 F300.
G2 X-0.1505 Y-0.2689 I0.0375 J0.0017 F60.
X-0.1472 Y-0.2575 I0.1318 J-0.0321
G1 X-0.1461 Y-0.2535
X-0.1454 Y-0.2493
X-0.145 Y-0.244
X-0.1442 Y-0.2381
X-0.14 Y-0.2156
X-0.1378 Y-0.2044
X-0.1334 Y-0.1819
X-0.1308 Y-0.1706
X-0.128 Y-0.1594
X-0.1248 Y-0.1482
X-0.1153 Y-0.1257
X-0.1114 Y-0.1165
X-0.0996 Y-0.092
X-0.0941 Y-0.0807
X-0.0824 Y-0.0583
X-0.0777 Y-0.0509
X-0.0664 Y-0.035
X-0.058 Y-0.0245
X-0.0328 Y0.0056
X-0.0199 Y0.0204
X-0.0103 Y0.0299
X-0.0085 Y0.0316
X0.0009 Y0.0396
X0.0234 Y0.0566
X0.0354 Y0.0654
X0.0571 Y0.0809
X0.0683 Y0.0879
X0.0795 Y0.0946
X0.0874 Y0.0991
X0.102 Y0.1051
X0.1147 Y0.1103
X0.1244 Y0.1142
X0.1485 Y0.1237
G3 X0.1584 Y0.1299 I-0.0147 J0.0345
G2 X0.173 Y0.1424 I0.6727 J-0.772
X0.3027 Y0.235 I0.6582 J-0.7844 F300.
X0.3214 Y0.2404 I0.0194 J-0.0321
G1 X1.309 Y0.2581
G2 X1.3279 Y0.2534 I0.0007 J-0.0375
X1.4677 Y0.1601 I-0.4967 J-0.8954
X1.4759 Y0.1535 I-0.6365 J-0.8021 F60.
G3 X1.4944 Y0.1455 I0.0236 J0.0291
G1 X1.5088 Y0.144
X1.5393 Y0.1405
X1.5505 Y0.1386
X1.5617 Y0.1365
X1.573 Y0.1342
X1.5842 Y0.1307
X1.5954 Y0.1269
X1.6291 Y0.1149
X1.6406 Y0.1103
X1.6628 Y0.1007
X1.6662 Y0.0991
X1.674 Y0.0943
X1.6965 Y0.0802
X1.7196 Y0.0654
X1.7302 Y0.0582
X1.7414 Y0.0499
X1.7526 Y0.0398
X1.761 Y0.0316
X1.7863 Y0.0057
X1.7932 Y-0.0021
X1.8129 Y-0.0245
X1.82 Y-0.0347
X1.8312 Y-0.0528
X1.8345 Y-0.0583
X1.8481 Y-0.0807
X1.8537 Y-0.0907
X1.8651 Y-0.1145
X1.8693 Y-0.1257
X1.8748 Y-0.1421
X1.876 Y-0.1448
X1.8773 Y-0.1474
G2 X1.8861 Y-0.1645 I-0.1917 J-0.1089
G1 X1.8872 Y-0.1672
X1.8881 Y-0.17
X1.8887 Y-0.1723 F300.
X1.8891 Y-0.1747
X1.9039 Y-0.2764
X1.9042 Y-0.2784
X1.9043 Y-0.2827 F60.
X1.904 Y-0.287
G2 X1.9005 Y-0.3059 I-0.2183 J0.0307
G1 X1.8999 Y-0.3089
X1.8978 Y-0.328
X1.8963 Y-0.3392
X1.8931 Y-0.3617
X1.8912 Y-0.3729
X1.887 Y-0.3954
X1.8841 Y-0.4067
X1.8694 Y-0.4628
X1.861 Y-0.5032
X1.8568 Y-0.5277
X1.8524 Y-0.5612
X1.8484 Y-0.6054
X1.8458 Y-0.6497
X1.8441 Y-0.694
X1.8431 Y-0.7384
X1.8424 Y-0.7827
X1.8419 Y-0.8271
X1.8416 Y-0.8715
X1.8414 Y-0.9158
X1.8413 Y-0.9602
X1.8412 Y-1.049
X1.8411 Y-1.2264
X1.841 Y-1.4039
X1.8348 Y-1.4479
X1.8204 Y-1.4898
X1.7986 Y-1.5285
X1.7705 Y-1.5628
X1.7374 Y-1.5924
X1.7005 Y-1.6171
X1.661 Y-1.6372
X1.6196 Y-1.6532
X1.577 Y-1.6655
X1.5336 Y-1.6749
X1.4898 Y-1.6818
X1.4457 Y-1.6868
X1.4245 Y-1.6886
X1.4058 Y-1.6915
X1.3878 Y-1.6972
X1.3708 Y-1.7055
X1.3621 Y-1.7103
X1.335 Y-1.7216
X1.3259 Y-1.7248
X1.281 Y-1.7397
X1.2698 Y-1.7433
X1.2669 Y-1.744
X1.2473 Y-1.7484
X1.2372 Y-1.7503
X1.2343 Y-1.7511
X1.2315 Y-1.7521
G2 X1.2181 Y-1.7567 I-0.0602 J0.1512
G1 X1.2139 Y-1.7578
X1.2095 Y-1.7583
X1.2075 Y-1.7584
X1.1542 Y-1.7615 F300.
X1.1516 Y-1.7616 F60.
X1.1472
X1.1429 Y-1.7611
G2 X1.129 Y-1.758 I0.0284 J0.1602
G1 X1.1264 Y-1.7574
X1.1238 Y-1.757
X1.1126 Y-1.7561
X1.0789 Y-1.7519
X1.0564 Y-1.7491
X1.0452 Y-1.747
X1.0227 Y-1.7417
X1.0115 Y-1.7379
X1.0003 Y-1.734
X0.9781 Y-1.7273
X0.9638 Y-1.7236
X0.9458 Y-1.7197
X0.9226 Y-1.7155
X0.8915 Y-1.7112
X0.8473 Y-1.7067
X0.803 Y-1.7039
X0.7587 Y-1.7021
X0.7143 Y-1.701
X0.67 Y-1.7002
X0.6256 Y-1.6997
X0.5812 Y-1.6994
X0.5369 Y-1.6992
X0.4925 Y-1.699
X0.4037 Y-1.6989
X0.315 Y-1.6988
X0.2706 Y-1.698
X0.2269 Y-1.6906
X0.185 Y-1.6759
X0.1462 Y-1.6544
X0.1113 Y-1.627
X0.0809 Y-1.5947
X0.0551 Y-1.5586
X0.0337 Y-1.5197
X0.0164 Y-1.4788
X0.0028 Y-1.4366
X-0.0079 Y-1.3935
X-0.0159 Y-1.3499
X-0.022 Y-1.3059
X-0.0264 Y-1.2618
X-0.0296 Y-1.2175
X-0.032 Y-1.1732
X-0.0336 Y-1.1289
X-0.0348 Y-1.0845
X-0.0356 Y-1.0401
X-0.0362 Y-0.9958
X-0.0366 Y-0.9514
X-0.0369 Y-0.907
X-0.0371 Y-0.8627
X-0.0372 Y-0.8183
X-0.0374 Y-0.7295
Y-0.6408
X-0.0377 Y-0.608
X-0.0387 Y-0.5884
X-0.0406 Y-0.5782
X-0.0444 Y-0.5686
X-0.05 Y-0.5599
X-0.0556 Y-0.5528
X-0.0637 Y-0.5415
X-0.0845 Y-0.5078
X-0.0915 Y-0.4966
X-0.0982 Y-0.4853
X-0.1009 Y-0.4799
G3 X-0.1246 Y-0.4613 I-0.033 J-0.0178
X-0.1714 Y-0.4966 I-0.0094 J-0.0363 F300.
G1 X-0.1554 Y-1.2833
X-0.1306 Y-1.4406
X-0.1029 Y-1.5305
X-0.0721 Y-1.5979
X-0.0288 Y-1.6654
X0.0243 Y-1.7216
X0.0683 Y-1.7589
X0.1357 Y-1.7949
X0.2143 Y-1.8209
X0.9778 Y-1.8542
G3 X1.0251 Y-1.7519 I-0.0004 J0.0623
X1.0115 Y-1.7398 I-0.0477 J-0.0401 F60.
G1 X1.0003 Y-1.734
X0.9654 Y-1.7216
X0.9554 Y-1.7179
X0.9329 Y-1.7085
X0.9217 Y-1.7021
X0.9164 Y-1.6993
X0.9101 Y-1.6962
X0.9025 Y-1.6928
X0.8931 Y-1.6891
X0.8823 Y-1.6853
X0.8695 Y-1.6813
X0.8536 Y-1.6771
X0.8346 Y-1.6727
X0.8103 Y-1.6681
X0.7785 Y-1.6634
X0.7345 Y-1.6585
X0.6902 Y-1.6553
X0.6459 Y-1.6532
X0.6016 Y-1.6517
X0.5572 Y-1.6508
X0.5128 Y-1.6501
X0.4685 Y-1.6497
X0.3797 Y-1.649
X0.3354 Y-1.6462
X0.2919 Y-1.6377
X0.2502 Y-1.6226
X0.2112 Y-1.6013
X0.1759 Y-1.5745
X0.1447 Y-1.5429
X0.1177 Y-1.5077
X0.095 Y-1.4696
X0.0763 Y-1.4293
X0.0612 Y-1.3876
X0.0492 Y-1.3449
X0.0398 Y-1.3015
X0.0327 Y-1.2577
X0.0272 Y-1.2137
X0.0232 Y-1.1695
X0.0202 Y-1.1252
X0.018 Y-1.0809
X0.0164 Y-1.0366
X0.0153 Y-0.9922
X0.0145 Y-0.9478
X0.0139 Y-0.9035
X0.0135 Y-0.8591
X0.0132 Y-0.8147
X0.013 Y-0.7703
X0.0128 Y-0.726
X0.0125 Y-0.6816
X0.0124 Y-0.6783
X0.0107 Y-0.6619
X0.0069 Y-0.6459
X0.0011 Y-0.6304
X-0.0066 Y-0.6158
X-0.0161 Y-0.6023
X-0.0328 Y-0.5817
X-0.05 Y-0.5599
G3 X-0.077 Y-0.5467 I-0.0286 J-0.0243
X-0.116 Y-0.5865 I-0.0016 J-0.0375 F300.
G1 X-0.0964 Y-1.272
X-0.072 Y-1.3956
X-0.0501 Y-1.4631
X-0.0137 Y-1.5417
X0.0234 Y-1.5989
X0.0683 Y-1.651
X0.1132 Y-1.6904
X0.1591 Y-1.7216
X0.2255 Y-1.7526
X0.3041 Y-1.7739
X0.888 Y-1.8165
G3 X0.9424 Y-1.7247 I-0.0005 J0.0623
X0.9317 Y-1.7103 I-0.0549 J-0.0295 F60.
G1 X0.9217 Y-1.7021
X0.8982 Y-1.6878
X0.8768 Y-1.6744
X0.8655 Y-1.6673
X0.864 Y-1.6662
X0.8556 Y-1.6611
X0.8491 Y-1.6575
X0.8421 Y-1.6539
X0.8335 Y-1.6498
X0.8229 Y-1.6454
X0.8118 Y-1.6412
X0.7983 Y-1.6367
X0.7821 Y-1.632
X0.763 Y-1.6272
X0.7395 Y-1.6223
X0.7095 Y-1.6171
X0.6702 Y-1.612
X0.626 Y-1.6078
X0.5817 Y-1.605
X0.5374 Y-1.6031
X0.4487 Y-1.6004
X0.4044 Y-1.5968
X0.3609 Y-1.5884
X0.3189 Y-1.5741
X0.2794 Y-1.5539
X0.2431 Y-1.5283
X0.2107 Y-1.498
X0.1823 Y-1.4639
X0.1579 Y-1.4268
X0.1375 Y-1.3874
X0.1208 Y-1.3463
X0.1072 Y-1.3041
X0.0964 Y-1.261
X0.088 Y-1.2174
X0.0815 Y-1.1736
X0.0765 Y-1.1295
X0.0728 Y-1.0852
X0.07 Y-1.041
X0.068 Y-0.9966
X0.0665 Y-0.9523
X0.0654 Y-0.9079
X0.0645 Y-0.8636
X0.064 Y-0.8192
X0.0635 Y-0.7748
X0.0627 Y-0.7477
X0.062 Y-0.737
X0.06 Y-0.7212
X0.0561 Y-0.7059
X0.0503 Y-0.6911
X0.0428 Y-0.6772
X0.0336 Y-0.6642
X-0.0161 Y-0.6023
G3 X-0.0433 Y-0.5894 I-0.0284 J-0.0245
X-0.0818 Y-0.6314 I-0.0013 J-0.0375 F300.
G1 X-0.04 Y-1.2383
X-0.0239 Y-1.317
X0.0023 Y-1.4023
X0.0497 Y-1.4973
X0.0954 Y-1.5642
X0.1634 Y-1.6316
X0.2255 Y-1.6724
X0.296 Y-1.704
X0.349 Y-1.7173
X0.8206 Y-1.7784
G3 X0.8834 Y-1.6899 I0.0064 J0.062
X0.864 Y-1.6662 I-0.0564 J-0.0265 F60.
G1 X0.8627 Y-1.6654
X0.8431 Y-1.6511
X0.8327 Y-1.6429
X0.8259 Y-1.6363
X0.8212 Y-1.6322
X0.8165 Y-1.6285
X0.8117 Y-1.6249
X0.8061 Y-1.6212
X0.8001 Y-1.6175
X0.7926 Y-1.6132
X0.7845 Y-1.609
X0.775 Y-1.6046
X0.7633 Y-1.5996
X0.751 Y-1.595
X0.736 Y-1.5899
X0.7185 Y-1.5848
X0.6978 Y-1.5795
X0.6728 Y-1.5742
X0.6412 Y-1.5687
X0.5993 Y-1.563
X0.5551 Y-1.5588
X0.5109 Y-1.5552
X0.4668 Y-1.55
X0.4234 Y-1.5408
X0.3814 Y-1.5263
X0.3418 Y-1.5064
X0.3052 Y-1.4813
X0.2721 Y-1.4517
X0.2429 Y-1.4183
X0.2176 Y-1.3819
X0.1962 Y-1.343
X0.1783 Y-1.3024
X0.1636 Y-1.2605
X0.1518 Y-1.2178
X0.1425 Y-1.1744
X0.1351 Y-1.1306
X0.1295 Y-1.0866
X0.1251 Y-1.0425
X0.1219 Y-0.9982
X0.1194 Y-0.9539
X0.1176 Y-0.9096
X0.1148 Y-0.8209
X0.1134 Y-0.7983
X0.1132 Y-0.7966
X0.11 Y-0.7782
X0.1041 Y-0.7605
X0.0958 Y-0.7438
X0.0852 Y-0.7284
X0.0336 Y-0.6642
G3 X0.0065 Y-0.6513 I-0.0284 J-0.0245
X-0.0323 Y-0.6876 I-0.0013 J-0.0375 F300.
G1 X0.015 Y-1.2046
X0.0463 Y-1.317
X0.0863 Y-1.413
X0.1244 Y-1.4765
X0.1598 Y-1.5193
X0.1918 Y-1.5537
G3 X0.203 Y-1.5641 I0.0722 J0.0669
G1 X0.2704 Y-1.6149
X0.3417 Y-1.6505
X0.4052 Y-1.6688
X0.7645 Y-1.7397
G3 X0.843 Y-1.6878 I0.0167 J0.06
G1 X0.8434 Y-1.6766
G3 X0.8412 Y-1.6628 I-0.0622 J-0.0031
X0.8259 Y-1.6363 I-0.06 J-0.0169 F60.
G1 X0.8206 Y-1.6312
X0.7872 Y-1.5979
X0.7816 Y-1.5928
X0.777 Y-1.5889
X0.7721 Y-1.5851
X0.7665 Y-1.5811
X0.7603 Y-1.577
X0.7527 Y-1.5723
X0.7448 Y-1.5679
X0.7351 Y-1.5629
X0.7243 Y-1.558
X0.7119 Y-1.5528
X0.6967 Y-1.5471
X0.6808 Y-1.5419
X0.6605 Y-1.536
X0.6362 Y-1.53
X0.5928 Y-1.5209
X0.5491 Y-1.5133
X0.5056 Y-1.5041
X0.4632 Y-1.4911
X0.4225 Y-1.4735
X0.3842 Y-1.451
X0.349 Y-1.424
X0.3173 Y-1.3929
X0.2894 Y-1.3585
X0.2651 Y-1.3213
X0.2446 Y-1.282
X0.2274 Y-1.2411
X0.2133 Y-1.199
X0.2019 Y-1.1561
X0.1927 Y-1.1127
X0.1856 Y-1.0689
X0.18 Y-1.0249
X0.1756 Y-0.9807
X0.1723 Y-0.9365
X0.1695 Y-0.8922
X0.1671 Y-0.8635
X0.1668 Y-0.8613
X0.1634 Y-0.8436
X0.1576 Y-0.8265
X0.1494 Y-0.8103
X0.1391 Y-0.7955
X0.0852 Y-0.7284
G3 X0.0581 Y-0.7154 I-0.0284 J-0.0245
X0.0194 Y-0.755 I-0.0013 J-0.0375 F300.
G1 X0.0845 Y-1.2271
X0.1314 Y-1.3467
X0.1592 Y-1.397
X0.2157 Y-1.4743
X0.2882 Y-1.5426
X0.349 Y-1.5814
X0.3844 Y-1.5979
X0.7212 Y-1.6991
G3 X0.8017 Y-1.6249 I0.0201 J0.059
X0.7954 Y-1.6092 I-0.0604 J-0.0152 F60.
G1 X0.7872 Y-1.5979
X0.7757 Y-1.5862
X0.7664 Y-1.5755
X0.7572 Y-1.5642
X0.7522 Y-1.5586
X0.748 Y-1.5543
X0.7436 Y-1.5502
X0.7391 Y-1.5463
X0.7336 Y-1.542
X0.7278 Y-1.5377
X0.7209 Y-1.533
X0.713 Y-1.5282
X0.7042 Y-1.5231
X0.6932 Y-1.5174
X0.6806 Y-1.5114
X0.6659 Y-1.5052
X0.6439 Y-1.4967
X0.6019 Y-1.4824
X0.5597 Y-1.4689
X0.5182 Y-1.4531
X0.4782 Y-1.4337
X0.4406 Y-1.4103
X0.4057 Y-1.3829
X0.3741 Y-1.3517
X0.3461 Y-1.3173
X0.3216 Y-1.2803
X0.3005 Y-1.2412
X0.2828 Y-1.2006
X0.2681 Y-1.1587
X0.256 Y-1.116
X0.2463 Y-1.0727
X0.2385 Y-1.029
X0.2323 Y-0.9851
X0.2269 Y-0.941
X0.2255 Y-0.9316
X0.2219 Y-0.9148
X0.2161 Y-0.8985
X0.2082 Y-0.8832
X0.1983 Y-0.869
X0.1391 Y-0.7955
G3 X0.112 Y-0.7825 I-0.0284 J-0.0245
X0.0733 Y-0.8225 I-0.0013 J-0.0375 F300.
G1 X0.1469 Y-1.207
X0.1716 Y-1.272
X0.2189 Y-1.3619
X0.2929 Y-1.4537
X0.3602 Y-1.5128
X0.4164 Y-1.5487
X0.6859 Y-1.6602
G3 X0.7691 Y-1.5924 I0.0216 J0.0584
X0.764 Y-1.5755 I-0.0616 J-0.0094 F60.
G1 X0.7572 Y-1.5642
X0.7481 Y-1.553
X0.7228 Y-1.5215
X0.7174 Y-1.5154
X0.7132 Y-1.5111
X0.7086 Y-1.5067
X0.7037 Y-1.5023
X0.6974 Y-1.4972
X0.6897 Y-1.4913
X0.6806 Y-1.485
X0.6694 Y-1.4777
X0.6516 Y-1.4672
X0.6126 Y-1.446
X0.5732 Y-1.4257
X0.5347 Y-1.4036
X0.4981 Y-1.3785
X0.4639 Y-1.3502
X0.4325 Y-1.3188
X0.4044 Y-1.2845
X0.3795 Y-1.2477
X0.358 Y-1.209
X0.3396 Y-1.1686
X0.3241 Y-1.127
X0.3113 Y-1.0845
X0.3006 Y-1.0414
X0.2937 Y-1.0096
X0.2896 Y-0.9951
X0.284 Y-0.9812
X0.2767 Y-0.968
X0.268 Y-0.9558
X0.1983 Y-0.869
G3 X0.1711 Y-0.8561 I-0.0284 J-0.0245
X0.1331 Y-0.9011 I-0.0013 J-0.0375 F300.
G1 X0.2169 Y-1.2158
X0.2704 Y-1.3155
X0.3081 Y-1.3732
X0.3602 Y-1.4298
X0.641 Y-1.6124
G3 X0.7345 Y-1.5498 I0.0319 J0.0535
X0.7228 Y-1.5215 I-0.0616 J-0.0091 F60.
G1 X0.6799 Y-1.4681
X0.6707 Y-1.4578
X0.6642 Y-1.451
X0.6544 Y-1.4416
X0.6385 Y-1.4274
X0.6043 Y-1.3991
X0.5697 Y-1.3713
X0.5363 Y-1.3421
X0.5049 Y-1.3108
X0.4759 Y-1.2772
X0.4497 Y-1.2414
X0.4264 Y-1.2036
X0.4061 Y-1.1642
X0.3885 Y-1.1234
X0.3838 Y-1.1107
X0.3783 Y-1.0978
X0.3714 Y-1.0856
X0.3632 Y-1.0742
X0.268 Y-0.9558
G3 X0.2409 Y-0.9428 I-0.0284 J-0.0245
X0.2037 Y-0.9911 I-0.0013 J-0.0375 F300.
G1 X0.3431 Y-1.317
X0.3827 Y-1.3681
X0.5897 Y-1.553
G3 X0.6917 Y-1.4968 I0.0403 J0.0475
G1 X0.6916 Y-1.4967
X0.6799 Y-1.4681 F60.
X0.3632 Y-1.0742
G3 X0.3361 Y-1.0612 I-0.0284 J-0.0245
X0.2976 Y-1.1034 I-0.0013 J-0.0375 F300.
G1 X0.3378 Y-1.2451
X0.3738 Y-1.2945
X0.6916 Y-1.6878
X0.7586 Y-1.75
X0.8655 Y-1.8201
X0.923 Y-1.8452
X1.0115 Y-1.8741
X1.1141 Y-1.8872
X1.1687 Y-1.8879
X1.2922 Y-1.8733
X1.674 Y-1.7714
X1.7189 Y-1.7532
X1.7941 Y-1.7103
X1.8424 Y-1.6735
X1.9013 Y-1.6092
X1.9388 Y-1.5417
G3 X1.9435 Y-1.5305 I-0.0881 J0.0438
G1 X1.9676 Y-1.4406
X1.9912 Y-0.4853
G3 X1.8851 Y-0.4366 I-0.0621 J0.0046
X1.8694 Y-0.4628 I0.044 J-0.0441 F60.
G1 X1.82 Y-0.6515
X1.8116 Y-0.6914
X1.8073 Y-0.717
X1.8028 Y-0.7516
X1.7987 Y-0.7958
X1.7961 Y-0.8401
X1.7944 Y-0.8844
X1.7933 Y-0.9288
X1.7925 Y-0.9731
X1.792 Y-1.0175
X1.7917 Y-1.0619
X1.7915 Y-1.1063
X1.7913 Y-1.1506
X1.7912 Y-1.2394
X1.7911 Y-1.2837
X1.79 Y-1.3281
X1.7832 Y-1.372
X1.7693 Y-1.4141
X1.7488 Y-1.4535
X1.7224 Y-1.4892
X1.6911 Y-1.5206
X1.6559 Y-1.5476
X1.6177 Y-1.5702
X1.5774 Y-1.5886
X1.5355 Y-1.6034
X1.5255 Y-1.6063
X1.5108 Y-1.6115
X1.4968 Y-1.6184
X1.4838 Y-1.627
X1.4719 Y-1.637
X1.4607 Y-1.6477
X1.4524 Y-1.6541
X1.427 Y-1.672
X1.4195 Y-1.6766
X1.3933 Y-1.6923
X1.3708 Y-1.7055
G3 X1.354 Y-1.7304 I0.0201 J-0.0317
X1.4045 Y-1.7721 I0.0369 J-0.0067 F300.
G1 X1.674 Y-1.6876
X1.7382 Y-1.6473
X1.7863 Y-1.6085
X1.8312 Y-1.5598
X1.8676 Y-1.5065
X1.89 Y-1.4609
X1.9082 Y-1.4069
X1.9187 Y-1.3507
X1.9416 Y-0.6764
G3 X1.8357 Y-0.6252 I-0.0619 J0.007
X1.8234 Y-0.6427 I0.044 J-0.0442 F60.
G1 X1.82 Y-0.6515
X1.7693 Y-0.845
X1.7618 Y-0.8809
X1.7574 Y-0.9067
X1.7529 Y-0.9415
X1.7488 Y-0.9857
X1.7462 Y-1.03
X1.7444 Y-1.0743
X1.7433 Y-1.1187
X1.7426 Y-1.1631
X1.742 Y-1.2074
X1.7403 Y-1.2518
X1.734 Y-1.2957
X1.7216 Y-1.3383
X1.703 Y-1.3786
X1.6786 Y-1.4157
X1.6493 Y-1.4489
X1.6159 Y-1.4782
X1.6007 Y-1.4892
X1.5887 Y-1.499
X1.5779 Y-1.5103
X1.5685 Y-1.5227
X1.5484 Y-1.553
X1.528 Y-1.581
X1.5236 Y-1.5867
X1.5168 Y-1.5938
X1.4944 Y-1.6156
X1.4719 Y-1.637
X1.4672 Y-1.6429
G3 X1.4612 Y-1.6651 I0.0315 J-0.0204
X1.5168 Y-1.6961 I0.0375 J0.0018 F300.
G1 X1.7414 Y-1.5404
X1.7894 Y-1.4855
X1.8231 Y-1.4294
X1.8475 Y-1.3732
X1.8641 Y-1.3057
X1.8911 Y-0.8674
G3 X1.785 Y-0.8187 I-0.0621 J0.0046
X1.7693 Y-0.845 I0.044 J-0.0441 F60.
G1 X1.7193 Y-1.036
X1.7118 Y-1.0717
X1.7072 Y-1.0986
X1.7015 Y-1.1426
X1.6965 Y-1.1867
X1.6886 Y-1.2303
X1.6756 Y-1.2728
X1.6573 Y-1.3132
X1.6483 Y-1.3281
X1.6424 Y-1.339
X1.6375 Y-1.3504
X1.6338 Y-1.3622
G3 X1.6394 Y-1.3917 I0.0366 J-0.0083
G1 X1.6516 Y-1.4024 F300.
G3 X1.7712 Y-1.3956 I0.0567 J0.0578
G1 X1.7975 Y-1.3621
G3 X1.8142 Y-1.317 I-0.0642 J0.0494
G1 X1.8411 Y-1.0585
G3 X1.735 Y-1.0097 I-0.0621 J0.0046
X1.7193 Y-1.036 I0.044 J-0.0441 F60.
G1 X1.6334 Y-1.3638
X1.6249 Y-1.3956
X1.6209 Y-1.4069
X1.6128 Y-1.4294
X1.6042 Y-1.4518
X1.5998 Y-1.4631
X1.5902 Y-1.4855
X1.5848 Y-1.4968
X1.5842 Y-1.4979
X1.578 Y-1.508
X1.5701 Y-1.5203
X1.5685 Y-1.5227
G3 X1.5644 Y-1.5525 I0.032 J-0.0196
G1 X1.5656 Y-1.5568 Z0.1803
X1.5668 Y-1.5611 Z0.1811
X1.568 Y-1.5653 Z0.1824
X1.5691 Y-1.5692 Z0.1843
X1.5701 Y-1.573 Z0.1866
X1.5711 Y-1.5764 Z0.1894
X1.572 Y-1.5795 Z0.1926
X1.5727 Y-1.5822 Z0.1962
X1.5733 Y-1.5844 Z0.2001
X1.5738 Y-1.5862 Z0.2042
X1.5742 Y-1.5875 Z0.2085
X1.5744 Y-1.5883 Z0.213
X1.5745 Y-1.5886 Z0.2175
G0 Z1.8436
(2D CONTOUR5)
S5000 M3
G64 P0.0004 Q0.0004
G0 X-0.2318 Y-0.4297
Z1.8436
Z1.4436
G1 Z1.283 F80.
Z0.2175
X-0.2315 Z0.213 F50.
X-0.2307 Y-0.4295 Z0.2085
X-0.2294 Y-0.4292 Z0.2042
X-0.2276 Y-0.4289 Z0.2001
X-0.2253 Y-0.4284 Z0.1962
X-0.2226 Y-0.4278 Z0.1926
X-0.2194 Y-0.4272 Z0.1894
X-0.2159 Y-0.4265 Z0.1866
X-0.2121 Y-0.4257 Z0.1843
X-0.2081 Y-0.4249 Z0.1824
X-0.2038 Y-0.424 Z0.1811
X-0.1995 Y-0.4232 Z0.1803
X-0.1951 Y-0.4223 Z0.18
X-0.1583 Y-0.4148
G3 X-0.129 Y-0.3706 I-0.0075 J0.0367
G2 X0.2862 Y0.1375 I0.4152 J0.0844
G1 X1.4673
G2 X1.8772 Y-0.3936 I0. J-0.4237
G1 X1.6166 Y-1.3883
G2 X0.7733 Y-1.5684 I-0.467 J0.1223
G1 X-0.044 Y-0.5517
G2 X0.2862 Y0.1375 I0.3302 J0.2655
G1 X1.4673
G2 X1.8772 Y-0.3936 I0. J-0.4237
G1 X1.6166 Y-1.3883
G2 X0.7733 Y-1.5684 I-0.467 J0.1223
G1 X-0.044 Y-0.5517
G2 X-0.129 Y-0.3706 I0.3302 J0.2655
G3 X-0.1732 Y-0.3413 I-0.0367 J-0.0075
G1 X-0.21 Y-0.3488
X-0.2144 Y-0.3497 Z0.1803
X-0.2188 Y-0.3505 Z0.1811
X-0.223 Y-0.3514 Z0.1824
X-0.2271 Y-0.3522 Z0.1843
X-0.2309 Y-0.353 Z0.1866
X-0.2344 Y-0.3537 Z0.1894
X-0.2375 Y-0.3543 Z0.1926
X-0.2402 Y-0.3549 Z0.1962
X-0.2425 Y-0.3554 Z0.2001
X-0.2443 Y-0.3557 Z0.2042
X-0.2457 Y-0.356 Z0.2085
X-0.2465 Y-0.3562 Z0.213
X-0.2467 Z0.2175
G0 Z1.8436
M5
G53 G0 Z0.
(DRILL3)
M9
M1
T51 M6
T54
S5000 M3
G17 G90 G94
G54
M8
G0 X0.2862 Y-0.2862
G43 Z1.8436 H51
G0 Z1.4436
Z1.4036
G1 Z0.9036 F25.
G0 Z1.4036
Z0.9836
G1 Z0.6036 F25.
G0 Z1.4036
Z0.6836
G1 Z0.3036 F25.
G0 Z1.4036
Z0.3836
G1 Z0.1196 F25.
G4 P0.05
G0 Z1.4436
X1.4673
Z1.4036
G1 Z0.9036 F25.
G0 Z1.4036
Z0.9836
G1 Z0.6036 F25.
G0 Z1.4036
Z0.6836
G1 Z0.3036 F25.
G0 Z1.4036
Z0.3836
G1 Z0.1196 F25.
G4 P0.05
G0 Z1.4436
Z1.8436
M5
G53 G0 Z0.
(DRILL4)
M9
M1
T54 M6
T33
S5000 M3
G17 G90 G94
G54
M8
G0 X1.1496 Y-1.266
G43 Z1.8436 H54
G0 Z1.4436
Z1.4036
G1 Z0.7036 F40.
G0 Z1.4036
Z0.7836
G1 Z0.2036 F40.
G0 Z1.4036
Z0.2836
G1 Z-0.1139 F40.
G4 P0.05
G0 Z1.4436
Z1.8436
M5
G53 G0 Z0.
(2D CONTOUR6)
M9
M1
T33 M6
T13
S7500 M3
G17 G90 G94
G54
G64 P0.0004 Q0.0004
M8
G0 X1.1821 Y-1.266
G43 Z1.8436 H33
G0 Z1.4436
G1 Z1.283 F80.
Z1.0349
G3 X1.1171 I-0.0325 J0. F5.
X1.1821 I0.0325 J0.
X1.1171 I-0.0325 J0.
X1.1821 I0.0325 J0.
G1 Z0.8262 F80.
G3 X1.1171 I-0.0325 J0. F5.
X1.1821 I0.0325 J0.
X1.1171 I-0.0325 J0.
X1.1821 I0.0325 J0.
G1 Z0.6174 F80.
G3 X1.1171 I-0.0325 J0. F5.
X1.1821 I0.0325 J0.
X1.1171 I-0.0325 J0.
X1.1821 I0.0325 J0.
G1 Z0.4087 F80.
G3 X1.1171 I-0.0325 J0. F5.
X1.1821 I0.0325 J0.
X1.1171 I-0.0325 J0.
X1.1821 I0.0325 J0.
G1 Z0.2 F80.
G3 X1.1171 I-0.0325 J0. F5.
X1.1821 I0.0325 J0.
X1.1171 I-0.0325 J0.
X1.1821 I0.0325 J0.
G0 Z1.8436
M5
G53 G0 Z0.
(2D CHAMFER2)
M9
M1
T13 M6
T36
S7500 M3
G17 G90 G94
G54
M8
G0 X-0.0398 Y-0.3525
G43 Z1.8436 H13
G0 Z1.4436
G1 Z1.0836 F80.
G2 X0.2862 Y0.0465 I0.3261 J0.0662 F50.
G1 X1.4673
G2 X1.7892 Y-0.3705 I0. J-0.3327
G1 X1.5286 Y-1.3653
G2 X0.8443 Y-1.5114 I-0.379 J0.0993
G1 X0.0269 Y-0.4947
G2 X-0.0398 Y-0.3525 I0.2593 J0.2085
G0 Z1.8436
(2D CHAMFER3)
G0 X1.2106 Y-1.266
Z1.8436
Z1.4436
G1 Z1.3236 F80.
Z1.1036
G3 X1.0886 I-0.061 J0. F50.
X1.2106 I0.061 J0.
G0 Z1.4436
X1.4889 Y-0.2862
G1 Z1.3236 F80.
Z1.1036
G3 X1.4457 I-0.0216 J0. F50.
X1.4889 I0.0216 J0.
G0 Z1.4436
X0.3078
G1 Z1.3236 F80.
Z1.1036
G3 X0.2646 I-0.0216 J0. F50.
X0.3078 I0.0216 J0.
G0 Z1.8436
M5
M9
G53 G0 Z0.
M30
%
