%
(SHOCK MOUNT OP2)
(T13 D=0.375 CR=0. TAPER=45DEG - ZMIN=0.9036 - CHAMFER MILL)
(T36 D=0.375 CR=0. - ZMIN=1.0236 - FLAT END MILL)
G90 G94 G17 G91.1
G20
G53 G0 Z0.
(FACE2 2)
T36 M6
T13
S5000 M3
G17 G90 G94
G54
G64 P0.0004 Q0.0004
M8
G0 X1.9473 Y-1.5154
G43 Z1.8036 H36
G0 Z1.4036
G1 Z1.0711 F80.
G18 G3 X1.9098 Z1.0336 I-0.0375 K0. F50.
G1 X1.8035
X-0.15
G17 G2 Y-1.2846 I0. J0.1154
G1 X1.8035
G3 Y-1.0538 I0. J0.1154
G1 X-0.15
G2 Y-0.823 I0. J0.1154
G1 X1.8035
G3 Y-0.5922 I0. J0.1154
G1 X-0.15
G2 Y-0.3614 I0. J0.1154
G1 X1.8035
G3 Y-0.1306 I0. J0.1154
G1 X-0.15
G18 G3 X-0.1875 Z1.0711 I0. K0.0375
G0 Z1.8036
G17
(FLAT1 2)
G0 X1.9107 Y-0.2069
Z1.8036
Z1.1036
G1 Z1.0642 F80.
Y-0.2067 Z1.061 F50.
X1.9103 Y-0.2065 Z1.0565
X1.9093 Z1.052
X1.908 Y-0.2067 Z1.0477
X1.9061 Y-0.2072 Z1.0436
X1.9039 Y-0.2079 Z1.0398
X1.9012 Y-0.2087 Z1.0362
X1.8982 Y-0.2098 Z1.033
X1.8948 Y-0.2111 Z1.0302
X1.8912 Y-0.2126 Z1.0279
X1.8874 Y-0.2142 Z1.026
X1.8834 Y-0.2159 Z1.0247
X1.8794 Y-0.2177 Z1.0239
X1.8753 Y-0.2195 Z1.0236
X1.8412 Y-0.2353
G2 X1.688 Y-0.2828 I-0.2539 J0.548
G3 X1.5527 Y-0.369 I0.0344 J-0.2033
G1 X1.545 Y-0.3794
X0.785 Y-1.3323
G2 X0.3156 Y-1.234 I-0.2099 J0.1674
G1 X0.0773 Y-0.3406
G2 X0.3119 Y-0.0444 I0.2276 J0.0607
G1 X1.4047 Y-0.0767
G2 X1.5527 Y-0.369 I-0.0055 J-0.1864
X1.3212 Y-0.4812 I-0.2147 J0.1482
G3 X1.086 Y-0.5853 I-0.0179 J-0.2774
G1 X0.6464 Y-1.1363
G2 X0.5209 Y-1.1092 I-0.0561 J0.0447
G1 X0.3361 Y-0.3805
G2 X0.4101 Y-0.2871 I0.0727 J0.0184
G1 X1.1665 Y-0.3002
G2 X1.221 Y-0.416 I-0.0012 J-0.0713
G1 X1.086 Y-0.5853
G2 X0.9106 Y-0.6176 I-0.1063 J0.0848
G3 X0.7337 Y-0.6411 I-0.0734 J-0.1245
G2 X0.652 Y-0.5731 I-0.0381 J0.0373
G1 X0.6583 Y-0.5641
X0.672 Y-0.5489
G2 X0.7518 Y-0.619 I0.0383 J-0.0369
G1 X0.7355 Y-0.6391
X0.7337 Y-0.6411
X0.7082 Y-0.6685
X0.7051 Y-0.6718 Z1.0239
X0.7021 Y-0.6751 Z1.0247
X0.6993 Y-0.6784 Z1.026
X0.6966 Y-0.6815 Z1.0279
X0.6941 Y-0.6845 Z1.0302
X0.6918 Y-0.6873 Z1.033
X0.6899 Y-0.6898 Z1.0362
X0.6882 Y-0.692 Z1.0398
X0.6868 Y-0.694 Z1.0436
X0.6858 Y-0.6956 Z1.0477
X0.6852 Y-0.6968 Z1.052
X0.6849 Y-0.6977 Z1.0565
X0.685 Y-0.6982 Z1.061
X0.6851 Y-0.6983 Z1.0642
G0 Z1.8036
M5
G53 G0 Z0.
(2D CHAMFER2 2)
M9
M1
T13 M6
T36
S7500 M3
G17 G90 G94
G54
M8
G0 X1.7434 Y-0.3025
G43 Z1.8036 H13
G0 Z1.4036
G1 Z0.9036 F80.
G2 X1.6766 Y-0.4447 I-0.3261 J0.0662 F50.
G1 X0.8593 Y-1.4614
G2 X0.175 Y-1.3153 I-0.3053 J0.2455
G1 X-0.0856 Y-0.3205
G2 X0.2362 Y0.0965 I0.3219 J0.0843
G1 X1.4173
G2 X1.7434 Y-0.3025 I0. J-0.3327
G0 Z1.8036
(2D CHAMFER3 2)
G0 X0.6149 Y-1.216
Z1.8036
Z1.4036
G1 Z1.2836 F80.
Z0.9236
G3 X0.493 I-0.061 J0. F50.
X0.6149 I0.061 J0.
G0 Z1.4036
X0.2578 Y-0.2362
G1 Z1.2836 F80.
Z0.9236
G3 X0.2146 I-0.0216 J0. F50.
X0.2578 I0.0216 J0.
G0 Z1.4036
X1.4389
G1 Z1.2836 F80.
Z0.9236
G3 X1.3957 I-0.0216 J0. F50.
X1.4389 I0.0216 J0.
G0 Z1.8036
M5
M9
G53 G0 Z0.
M30
%
