%
(SHOCK MOUNT OP3)
(T36 D=0.375 CR=0. - ZMIN=0. - FLAT END MILL)
G90 G94 G17 G91.1
G20
G53 G0 Z0.
(ADAPTIVE1)
T36 M6
S5000 M3
G17 G90 G94
G54
G64 P0.004 Q0.004
M8
G0 X0.2814 Y-1.3154
G43 Z2.1612 H36
G0 Z0.5181
G1 Z0.4806 F50.
X0.2811 Y-1.3153 Z0.4761
X0.2804 Y-1.3149 Z0.4716
X0.2792 Y-1.3143 Z0.4673
X0.2776 Y-1.3134 Z0.4631
X0.2755 Y-1.3123 Z0.4593
X0.2731 Y-1.311 Z0.4557
X0.2702 Y-1.3095 Z0.4525
X0.2671 Y-1.3078 Z0.4497
X0.2637 Y-1.306 Z0.4474
X0.26 Y-1.304 Z0.4455
X0.2562 Y-1.302 Z0.4442
X0.2523 Y-1.2999 Z0.4433
X0.2483 Y-1.2978 Z0.4431
G3 X0.0568 Y-1.2212 I-0.4492 J-0.8454
G2 X-0.0975 Y-1.0798 I0.0397 J0.1982
X-0.1058 Y-1.0236 I0.1792 J0.0551
G1 X-0.1059 Y-0.9898
Y-0.9223
G3 X-0.1081 Y-0.9108 I-0.0375 J-0.0013
G1 X-0.113 Y-0.8956
X-0.1136 Y-0.8925
G2 X-0.114 Y-0.8819 I0.0369 J0.0066 F300.
G1 X-0.1028 Y-0.7774
X-0.1023 Y-0.7739
G2 X-0.0989 Y-0.7643 I0.0367 J-0.0075 F50.
G1 X-0.0909 Y-0.7504
X-0.0887 Y-0.7463
X-0.087 Y-0.7424
X-0.0795 Y-0.728
G3 X-0.0578 Y-0.6542 I-0.2649 J0.118
X-0.0431 Y-0.5077 I-0.9938 J0.1738
X-0.0408 Y-0.3784 I-1.7902 J0.0967
X-0.0669 Y-0.3143 I-0.1357 J-0.018
G1 X-0.0699 Y-0.3111
X-0.0733 Y-0.3082
X-0.0769 Y-0.3058
X-0.0809 Y-0.3037
X-0.085 Y-0.3022
X-0.0893 Y-0.3012
X-0.0937 Y-0.3006
G3 X-0.1335 Y-0.3365 I-0.0023 J-0.0374 F300.
G1 X-0.1495 Y-0.7078
G3 X-0.1036 Y-0.746 I0.0375 J-0.0016
X-0.0795 Y-0.728 I-0.0085 J0.0365 F50.
G2 X-0.0575 Y-0.6974 I0.1436 J-0.0802
G3 X-0.0193 Y-0.6079 I-0.2066 J0.1409
X0.0024 Y-0.4371 I-0.6704 J0.1723
X-0.039 Y-0.3462 I-0.1312 J-0.0049
G1 X-0.0425 Y-0.3435
X-0.0463 Y-0.3412
X-0.0503 Y-0.3394
X-0.0545 Y-0.3381
X-0.0589 Y-0.3373
X-0.0633 Y-0.337
X-0.0677 Y-0.3372
G3 X-0.101 Y-0.3717 I0.0041 J-0.0373 F300.
G1 X-0.1235 Y-0.6703
G3 X-0.0845 Y-0.7106 I0.0374 J-0.0028
X-0.0575 Y-0.6974 I-0.0015 J0.0375 F50.
G2 X-0.0332 Y-0.6722 I0.1023 J-0.0748
G3 X0.0075 Y-0.6091 I-0.1172 J0.1202
X0.0383 Y-0.4648 I-0.3349 J0.1467
X-0.0219 Y-0.3601 I-0.1305 J-0.0053
G1 X-0.0257 Y-0.3578
X-0.0298 Y-0.356
X-0.034 Y-0.3547
X-0.0383 Y-0.3539
X-0.0427 Y-0.3536
X-0.0471 Y-0.3538
X-0.0515 Y-0.3545
G3 X-0.0806 Y-0.3893 I0.0084 J-0.0366 F300.
G1 X-0.0926 Y-0.64
G3 X-0.0626 Y-0.6785 I0.0375 J-0.0018
X-0.0332 Y-0.6722 I0.0075 J0.0367 F50.
G1 X-0.022 Y-0.6635
X-0.0107 Y-0.6564
X-0.0096 Y-0.6557
G3 X0.0338 Y-0.6065 I-0.0768 J0.1115
X0.0689 Y-0.4836 I-0.2103 J0.1265
X0.0317 Y-0.3966 I-0.1277 J-0.0032
G1 X0.017 Y-0.384
X0.0005 Y-0.3738
G3 X-0.0294 Y-0.3714 I-0.0177 J-0.0331
X-0.0546 Y-0.4051 I0.0123 J-0.0354 F300.
G1 X-0.0647 Y-0.6209
G3 X-0.0395 Y-0.6581 I0.0375 J-0.0018
X-0.0096 Y-0.6557 I0.0123 J0.0354 F50.
G1 X0.0005 Y-0.6498
X0.0118 Y-0.644
X0.0139 Y-0.6431
G3 X0.0629 Y-0.5982 I-0.0499 J0.1036
X0.0958 Y-0.4834 I-0.1532 J0.106
X0.023 Y-0.3841 I-0.1164 J-0.009
X-0.007 Y-0.3861 I-0.0127 J-0.0353
X-0.0272 Y-0.4176 I0.0173 J-0.0333 F300.
G1 X-0.0363 Y-0.606
G3 X-0.0161 Y-0.6412 I0.0375 J-0.0018
X0.0139 Y-0.6431 I0.0173 J0.0333 F50.
G1 X0.0343 Y-0.635
X0.04 Y-0.6332
G3 X0.0938 Y-0.5874 I-0.0379 J0.099
X0.115 Y-0.4531 I-0.1306 J0.0895
X0.0608 Y-0.3969 I-0.0915 J-0.034
G1 X0.0455 Y-0.3922
G3 X0.0158 Y-0.3965 I-0.0099 J-0.0362
X-0.0019 Y-0.4271 I0.0198 J-0.0318 F300.
G1 X-0.0073 Y-0.5958
G3 X0.0103 Y-0.6288 I0.0375 J-0.0012
X0.04 Y-0.6332 I0.0198 J0.0318 F50.
G1 X0.0455 Y-0.6315
X0.0568 Y-0.629
X0.0602 Y-0.6284
G3 X0.1136 Y-0.5922 I-0.02 J0.0871
X0.1434 Y-0.4683 I-0.1178 J0.0939
X0.0944 Y-0.4066 I-0.0994 J-0.0287
G1 X0.0796 Y-0.4001
X0.064 Y-0.396
G3 X0.0351 Y-0.4039 I-0.0054 J-0.0371
X0.0212 Y-0.4322 I0.0236 J-0.0291 F300.
G1 X0.0173 Y-0.5903
G3 X0.0312 Y-0.6204 I0.0375 J-0.0009
X0.0602 Y-0.6284 I0.0236 J0.0291 F50.
G1 X0.068 Y-0.6269
X0.0827 Y-0.6255
G3 X0.1334 Y-0.5961 I-0.0126 J0.0802
X0.1698 Y-0.4853 I-0.1055 J0.0961
X0.0796 Y-0.3978 I-0.1003 J-0.0132
X0.0513 Y-0.4081 I-0.0024 J-0.0374
X0.0397 Y-0.436 I0.0258 J-0.0272 F300.
G1 X0.0427 Y-0.5888
G3 X0.0544 Y-0.6152 I0.0375 J0.0008
X0.0827 Y-0.6255 I0.0258 J0.0272 F50.
G1 X0.0905 Y-0.6247
X0.1017 Y-0.6244
X0.1036 Y-0.6243
G3 X0.1512 Y-0.6016 I-0.0055 J0.0725
X0.1913 Y-0.4757 I-0.0931 J0.0991
X0.0982 Y-0.3992 I-0.0962 J-0.0221
X0.0707 Y-0.4113 I0.0002 J-0.0375
X0.0609 Y-0.4383 I0.0276 J-0.0253 F300.
G1 X0.0673 Y-0.5885
G3 X0.0765 Y-0.6115 I0.0375 J0.0016
X0.1036 Y-0.6243 I0.0283 J0.0246 F50.
G1 X0.1242
G3 X0.1771 Y-0.5993 I-0.0035 J0.0759
X0.214 Y-0.4726 I-0.0943 J0.0962
X0.1196 Y-0.3993 I-0.0947 J-0.0245
G1 X0.1017
X0.0982 Y-0.3992
G3 X0.0707 Y-0.4113 I0.0002 J-0.0375
X0.0614 Y-0.4433 I0.0276 J-0.0253 F300.
G1 X0.0886 Y-0.5935
G3 X0.0971 Y-0.6113 I0.0369 J0.0067
X0.1242 Y-0.6243 I0.0284 J0.0245 F50.
G1 X0.1486
G3 X0.2012 Y-0.5989 I-0.0043 J0.0762
X0.2373 Y-0.4718 I-0.0954 J0.0957
X0.1428 Y-0.3994 I-0.0944 J-0.0252
G1 X0.1196 Y-0.3993
G3 X0.0925 Y-0.4122 I0.0012 J-0.0375
X0.084 Y-0.444 I0.0283 J-0.0246 F300.
G1 X0.1131 Y-0.5939
G3 X0.1215 Y-0.6113 I0.0368 J0.0071
X0.1486 Y-0.6243 I0.0284 J0.0245 F50.
G1 X0.1711
G3 X0.2282 Y-0.5953 I-0.0038 J0.0782
X0.261 Y-0.4728 I-0.099 J0.0922
X0.1659 Y-0.3994 I-0.095 J-0.0247
G1 X0.1428
G3 X0.1157 Y-0.4123 I0.0013 J-0.0375
X0.1073 Y-0.4438 I0.0284 J-0.0245 F300.
G1 X0.1355 Y-0.5937
G3 X0.144 Y-0.6113 I0.0369 J0.0069
X0.1711 Y-0.6243 I0.0284 J0.0245 F50.
G1 X0.1951
G3 X0.2479 Y-0.5993 I-0.0035 J0.0757
X0.2828 Y-0.4665 I-0.0952 J0.096
X0.1914 Y-0.3993 I-0.0915 J-0.0287
G1 X0.1659 Y-0.3994
G3 X0.1388 Y-0.4123 I0.0013 J-0.0375
X0.1304 Y-0.444 I0.0284 J-0.0245 F300.
G1 X0.1596 Y-0.594
G3 X0.168 Y-0.6113 I0.0368 J0.0072
X0.1951 Y-0.6243 I0.0284 J0.0245 F50.
G1 X0.2189
G3 X0.2716 Y-0.5991 I-0.0038 J0.0757
X0.3079 Y-0.4717 I-0.0962 J0.0963
X0.2142 Y-0.3994 I-0.0936 J-0.0244
G1 X0.1914
G3 X0.1643 Y-0.4123 I0.0013 J-0.0375
X0.1558 Y-0.4436 I0.0284 J-0.0245 F300.
G1 X0.1833 Y-0.5936
G3 X0.1918 Y-0.6113 I0.0369 J0.0068
X0.2189 Y-0.6243 I0.0284 J0.0245 F50.
G1 X0.2429
G3 X0.2954 Y-0.5988 I-0.0043 J0.0758
X0.3325 Y-0.4765 I-0.0965 J0.0961
X0.2367 Y-0.3994 I-0.0958 J-0.0209
G1 X0.2142
G3 X0.1871 Y-0.4123 I0.0013 J-0.0375
X0.1787 Y-0.4439 I0.0284 J-0.0245 F300.
G1 X0.2074 Y-0.5938
G3 X0.2158 Y-0.6113 I0.0368 J0.007
X0.2429 Y-0.6243 I0.0284 J0.0245 F50.
G1 X0.2654
G3 X0.3224 Y-0.5952 I-0.0039 J0.0781
X0.3561 Y-0.4777 I-0.0989 J0.092
X0.2592 Y-0.3994 I-0.0969 J-0.0208
G1 X0.2367
G3 X0.2096 Y-0.4123 I0.0013 J-0.0375
X0.2012 Y-0.4439 I0.0284 J-0.0245 F300.
G1 X0.2298 Y-0.5938
G3 X0.2383 Y-0.6113 I0.0368 J0.007
X0.2654 Y-0.6243 I0.0284 J0.0245 F50.
G1 X0.2894
G3 X0.3421 Y-0.5992 I-0.0037 J0.0758
X0.3794 Y-0.4778 I-0.0946 J0.0955
X0.2817 Y-0.3994 I-0.0977 J-0.0216
G1 X0.2592
G3 X0.2321 Y-0.4123 I0.0013 J-0.0375
X0.2237 Y-0.4442 I0.0284 J-0.0245 F300.
G1 X0.2539 Y-0.5942
G3 X0.2623 Y-0.6113 I0.0368 J0.0074
X0.2894 Y-0.6243 I0.0284 J0.0245 F50.
G1 X0.3131
G3 X0.3658 Y-0.599 I-0.0039 J0.0758
X0.4027 Y-0.4778 I-0.0944 J0.0949
X0.3043 Y-0.3994 I-0.0983 J-0.0223
G1 X0.2817
G3 X0.2546 Y-0.4123 I0.0013 J-0.0375
X0.2463 Y-0.4445 I0.0284 J-0.0245 F300.
G1 X0.2777 Y-0.5945
G3 X0.286 Y-0.6113 I0.0367 J0.0077
X0.3131 Y-0.6243 I0.0284 J0.0245 F50.
G1 X0.3369
G3 X0.3895 Y-0.5989 I-0.0041 J0.0757
X0.4259 Y-0.4775 I-0.0944 J0.0944
X0.3273 Y-0.3994 I-0.0984 J-0.0229
G1 X0.3043
G3 X0.2772 Y-0.4123 I0.0013 J-0.0375
X0.269 Y-0.4448 I0.0284 J-0.0245 F300.
G1 X0.3015 Y-0.5947
G3 X0.3098 Y-0.6113 I0.0366 J0.008
X0.3369 Y-0.6243 I0.0284 J0.0245 F50.
G1 X0.3604
G3 X0.413 Y-0.5988 I-0.0041 J0.0756
X0.4477 Y-0.4716 I-0.0945 J0.0942
X0.3524 Y-0.3994 I-0.0952 J-0.0267
G1 X0.3273
G3 X0.3003 Y-0.4123 I0.0013 J-0.0375
X0.292 Y-0.4449 I0.0284 J-0.0245 F300.
G1 X0.3251 Y-0.5949
G3 X0.3333 Y-0.6113 I0.0366 J0.0081
X0.3604 Y-0.6243 I0.0284 J0.0245 F50.
G1 X0.3829
G3 X0.4399 Y-0.5951 I-0.0038 J0.0777
X0.4715 Y-0.4724 I-0.0989 J0.0909
X0.3761 Y-0.3994 I-0.0953 J-0.0257
G1 X0.3524
G3 X0.3253 Y-0.4123 I0.0013 J-0.0375
X0.317 Y-0.4443 I0.0284 J-0.0245 F300.
G1 X0.3474 Y-0.5943
G3 X0.3558 Y-0.6113 I0.0368 J0.0075
X0.3829 Y-0.6243 I0.0284 J0.0245 F50.
G1 X0.4072
G3 X0.4598 Y-0.5988 I-0.0041 J0.0754
X0.4948 Y-0.4715 I-0.096 J0.0949
X0.4001 Y-0.3994 I-0.0946 J-0.026
G1 X0.3761
G3 X0.349 Y-0.4123 I0.0013 J-0.0375
X0.3407 Y-0.4445 I0.0284 J-0.0245 F300.
G1 X0.3718 Y-0.5944
G3 X0.3801 Y-0.6113 I0.0367 J0.0076
X0.4072 Y-0.6243 I0.0284 J0.0245 F50.
G1 X0.4297
G3 X0.4867 Y-0.595 I-0.0039 J0.0776
X0.5186 Y-0.4723 I-0.0996 J0.0914
X0.4235 Y-0.3994 I-0.095 J-0.0254
G1 X0.4001
G3 X0.373 Y-0.4123 I0.0013 J-0.0375
X0.3646 Y-0.4441 I0.0284 J-0.0245 F300.
G1 X0.3943 Y-0.5941
G3 X0.4026 Y-0.6113 I0.0368 J0.0073
X0.4297 Y-0.6243 I0.0284 J0.0245 F50.
G1 X0.4538
G3 X0.5064 Y-0.5989 I-0.0039 J0.0754
X0.542 Y-0.4718 I-0.0959 J0.0954
X0.4473 Y-0.3994 I-0.0946 J-0.0256
G1 X0.4235
G3 X0.3964 Y-0.4123 I0.0013 J-0.0375
X0.3881 Y-0.4442 I0.0284 J-0.0245 F300.
G1 X0.4183 Y-0.5942
G3 X0.4267 Y-0.6113 I0.0368 J0.0074
X0.4538 Y-0.6243 I0.0284 J0.0245 F50.
G1 X0.4776
G3 X0.5301 Y-0.5987 I-0.0043 J0.0756
X0.5654 Y-0.4714 I-0.0962 J0.0953
X0.471 Y-0.3994 I-0.0944 J-0.0257
G1 X0.4473
G3 X0.4202 Y-0.4123 I0.0013 J-0.0375
X0.4118 Y-0.4442 I0.0284 J-0.0245 F300.
G1 X0.4421 Y-0.5942
G3 X0.4505 Y-0.6113 I0.0368 J0.0074
X0.4776 Y-0.6243 I0.0284 J0.0245 F50.
G1 X0.5011
G3 X0.5536 Y-0.5986 I-0.0045 J0.0757
X0.5888 Y-0.4707 I-0.0963 J0.0953
X0.4953 Y-0.3994 I-0.0934 J-0.0255
G1 X0.471
G3 X0.4439 Y-0.4123 I0.0013 J-0.0375
X0.4355 Y-0.4442 I0.0284 J-0.0245 F300.
G1 X0.4657 Y-0.5942
G3 X0.474 Y-0.6113 I0.0368 J0.0074
X0.5011 Y-0.6243 I0.0284 J0.0245 F50.
G1 X0.524
G3 X0.5767 Y-0.599 I-0.0038 J0.0755
X0.6137 Y-0.4767 I-0.0962 J0.0959
X0.5178 Y-0.3994 I-0.0958 J-0.0207
G1 X0.4953
G3 X0.4682 Y-0.4123 I0.0013 J-0.0375
X0.4598 Y-0.4439 I0.0284 J-0.0245 F300.
G1 X0.4885 Y-0.5938
G3 X0.4969 Y-0.6113 I0.0368 J0.007
X0.524 Y-0.6243 I0.0284 J0.0245 F50.
G1 X0.548
G3 X0.6005 Y-0.5986 I-0.0045 J0.0757
X0.6372 Y-0.4768 I-0.096 J0.0953
X0.5403 Y-0.3994 I-0.0968 J-0.0217
G1 X0.5178
G3 X0.4907 Y-0.4123 I0.0013 J-0.0375
X0.4824 Y-0.4442 I0.0284 J-0.0245 F300.
G1 X0.5126 Y-0.5942
G3 X0.5209 Y-0.6113 I0.0368 J0.0074
X0.548 Y-0.6243 I0.0284 J0.0245 F50.
G1 X0.5705
G3 X0.6233 Y-0.5993 I-0.0034 J0.0755
X0.6607 Y-0.4779 I-0.0946 J0.0956
X0.5628 Y-0.3994 I-0.0978 J-0.0216
G1 X0.5403
G3 X0.5132 Y-0.4123 I0.0013 J-0.0375
X0.5049 Y-0.4442 I0.0284 J-0.0245 F300.
G1 X0.5351 Y-0.5942
G3 X0.5434 Y-0.6113 I0.0368 J0.0074
X0.5705 Y-0.6243 I0.0284 J0.0245 F50.
G1 X0.5943
G3 X0.647 Y-0.5991 I-0.0037 J0.0756
X0.6839 Y-0.4779 I-0.0943 J0.095
X0.5855 Y-0.3994 I-0.0984 J-0.0223
G1 X0.5628
G3 X0.5357 Y-0.4123 I0.0013 J-0.0375
X0.5274 Y-0.4445 I0.0284 J-0.0245 F300.
G1 X0.5589 Y-0.5945
G3 X0.5672 Y-0.6113 I0.0367 J0.0077
X0.5943 Y-0.6243 I0.0284 J0.0245 F50.
G1 X0.618
G3 X0.6707 Y-0.599 I-0.004 J0.0756
X0.7071 Y-0.4776 I-0.0943 J0.0944
X0.6085 Y-0.3994 I-0.0985 J-0.0228
G1 X0.5855
G3 X0.5584 Y-0.4123 I0.0013 J-0.0375
X0.5501 Y-0.4448 I0.0284 J-0.0245 F300.
G1 X0.5827 Y-0.5947
G3 X0.5909 Y-0.6113 I0.0366 J0.008
X0.618 Y-0.6243 I0.0284 J0.0245 F50.
G1 X0.6415
G3 X0.6941 Y-0.5989 I-0.004 J0.0755
X0.729 Y-0.4717 I-0.0944 J0.0942
X0.6336 Y-0.3994 I-0.0953 J-0.0266
G1 X0.6085
G3 X0.5814 Y-0.4123 I0.0013 J-0.0375
X0.5732 Y-0.4449 I0.0284 J-0.0245 F300.
G1 X0.6062 Y-0.5949
G3 X0.6144 Y-0.6113 I0.0366 J0.0081
X0.6415 Y-0.6243 I0.0284 J0.0245 F50.
G1 X0.6659
G3 X0.7182 Y-0.5983 I-0.005 J0.0756
X0.7523 Y-0.4708 I-0.0961 J0.094
X0.6579 Y-0.3994 I-0.0943 J-0.0266
G1 X0.6336
G3 X0.6065 Y-0.4123 I0.0013 J-0.0375
X0.5982 Y-0.4447 I0.0284 J-0.0245 F300.
G1 X0.6305 Y-0.5947
G3 X0.6388 Y-0.6113 I0.0367 J0.0079
X0.6659 Y-0.6243 I0.0284 J0.0245 F50.
G1 X0.6884
G3 X0.741 Y-0.5989 I-0.0039 J0.0752
X0.7761 Y-0.4716 I-0.0962 J0.0951
X0.6815 Y-0.3994 I-0.0946 J-0.0258
G1 X0.6579
G3 X0.6308 Y-0.4123 I0.0013 J-0.0375
X0.6224 Y-0.4443 I0.0284 J-0.0245 F300.
G1 X0.6529 Y-0.5943
G3 X0.6613 Y-0.6113 I0.0367 J0.0075
X0.6884 Y-0.6243 I0.0284 J0.0245 F50.
G1 X0.7124
G3 X0.7648 Y-0.5984 I-0.0046 J0.0754
X0.7996 Y-0.471 I-0.0967 J0.0949
X0.7053 Y-0.3994 I-0.0942 J-0.0261
G1 X0.6815
G3 X0.6544 Y-0.4123 I0.0013 J-0.0375
X0.646 Y-0.4444 I0.0284 J-0.0245 F300.
G1 X0.677 Y-0.5944
G3 X0.6853 Y-0.6113 I0.0367 J0.0076
X0.7124 Y-0.6243 I0.0284 J0.0245 F50.
G1 X0.7349
G3 X0.7876 Y-0.599 I-0.0037 J0.0752
X0.8234 Y-0.4719 I-0.096 J0.0957
X0.7287 Y-0.3994 I-0.0946 J-0.0254
G1 X0.7053
G3 X0.6782 Y-0.4123 I0.0013 J-0.0375
X0.6699 Y-0.4441 I0.0284 J-0.0245 F300.
G1 X0.6994 Y-0.594
G3 X0.7078 Y-0.6113 I0.0368 J0.0072
X0.7349 Y-0.6243 I0.0284 J0.0245 F50.
G1 X0.7587
G3 X0.8112 Y-0.5988 I-0.0042 J0.0755
X0.8468 Y-0.4716 I-0.0961 J0.0955
X0.7524 Y-0.3994 I-0.0944 J-0.0256
G1 X0.7287
G3 X0.7016 Y-0.4123 I0.0013 J-0.0375
X0.6933 Y-0.4442 I0.0284 J-0.0245 F300.
G1 X0.7232 Y-0.5941
G3 X0.7316 Y-0.6113 I0.0368 J0.0073
X0.7587 Y-0.6243 I0.0284 J0.0245 F50.
G1 X0.7822
G3 X0.8348 Y-0.5987 I-0.0043 J0.0756
X0.8702 Y-0.471 I-0.0962 J0.0955
X0.7765 Y-0.3994 I-0.0937 J-0.0255
G1 X0.7524
G3 X0.7253 Y-0.4123 I0.0013 J-0.0375
X0.7169 Y-0.4442 I0.0284 J-0.0245 F300.
G1 X0.7468 Y-0.5941
G3 X0.7552 Y-0.6113 I0.0368 J0.0073
X0.7822 Y-0.6243 I0.0284 J0.0245 F50.
G1 X0.8051
G3 X0.8579 Y-0.5991 I-0.0037 J0.0755
X0.8951 Y-0.4769 I-0.0959 J0.096
X0.799 Y-0.3994 I-0.096 J-0.0207
G1 X0.7765
G3 X0.7494 Y-0.4123 I0.0013 J-0.0375
X0.7409 Y-0.4439 I0.0284 J-0.0245 F300.
G1 X0.7696 Y-0.5938
G3 X0.7781 Y-0.6113 I0.0368 J0.007
X0.8051 Y-0.6243 I0.0284 J0.0245 F50.
G1 X0.8292
G3 X0.8817 Y-0.5987 I-0.0043 J0.0757
X0.9185 Y-0.477 I-0.0957 J0.0953
X0.8215 Y-0.3994 I-0.0969 J-0.0217
G1 X0.799
G3 X0.7719 Y-0.4123 I0.0013 J-0.0375
X0.7635 Y-0.4442 I0.0284 J-0.0245 F300.
G1 X0.7937 Y-0.5942
G3 X0.8021 Y-0.6113 I0.0368 J0.0074
X0.8292 Y-0.6243 I0.0284 J0.0245 F50.
G1 X0.8529
G3 X0.9054 Y-0.5986 I-0.0046 J0.0758
X0.9418 Y-0.4772 I-0.0953 J0.0948
X0.844 Y-0.3994 I-0.0977 J-0.0224
G1 X0.8215
G3 X0.7944 Y-0.4123 I0.0013 J-0.0375
X0.7861 Y-0.4445 I0.0284 J-0.0245 F300.
G1 X0.8175 Y-0.5945
G3 X0.8258 Y-0.6113 I0.0367 J0.0077
X0.8529 Y-0.6243 I0.0284 J0.0245 F50.
G1 X0.8754
G3 X0.9282 Y-0.5993 I-0.0035 J0.0755
X0.9653 Y-0.4781 I-0.0942 J0.0951
X0.8666 Y-0.3994 I-0.0985 J-0.0223
G1 X0.844
G3 X0.8169 Y-0.4123 I0.0013 J-0.0375
X0.8086 Y-0.4445 I0.0284 J-0.0245 F300.
G1 X0.84 Y-0.5945
G3 X0.8483 Y-0.6113 I0.0367 J0.0077
X0.8754 Y-0.6243 I0.0284 J0.0245 F50.
G1 X0.8991
G3 X0.9518 Y-0.5991 I-0.0037 J0.0755
X0.9871 Y-0.472 I-0.0941 J0.0945
X0.8916 Y-0.3994 I-0.0954 J-0.0264
G1 X0.8666
G3 X0.8395 Y-0.4123 I0.0013 J-0.0375
X0.8313 Y-0.4448 I0.0284 J-0.0245 F300.
G1 X0.8638 Y-0.5947
G3 X0.8721 Y-0.6113 I0.0366 J0.0079
X0.8991 Y-0.6243 I0.0284 J0.0245 F50.
G1 X0.9227
G3 X0.9753 Y-0.599 I-0.0038 J0.0754
X1.0106 Y-0.4718 I-0.0951 J0.0948
X0.9155 Y-0.3994 I-0.0949 J-0.0259
G1 X0.8916
G3 X0.8645 Y-0.4123 I0.0013 J-0.0375
X0.8562 Y-0.4444 I0.0284 J-0.0245 F300.
G1 X0.8873 Y-0.5944
G3 X0.8956 Y-0.6113 I0.0367 J0.0076
X0.9227 Y-0.6243 I0.0284 J0.0245 F50.
G1 X0.947
G3 X0.9994 Y-0.5984 I-0.0048 J0.0756
X1.0339 Y-0.4709 I-0.0965 J0.0946
X0.9396 Y-0.3994 I-0.0943 J-0.0263
G1 X0.9155
G3 X0.8884 Y-0.4123 I0.0013 J-0.0375
X0.8801 Y-0.4445 I0.0284 J-0.0245 F300.
G1 X0.9116 Y-0.5945
G3 X0.9199 Y-0.6113 I0.0367 J0.0077
X0.947 Y-0.6243 I0.0284 J0.0245 F50.
G1 X0.9695
G3 X1.0222 Y-0.599 I-0.0037 J0.0752
X1.0577 Y-0.4718 I-0.0961 J0.0955
X0.9631 Y-0.3994 I-0.0946 J-0.0256
G1 X0.9396
G3 X0.9125 Y-0.4123 I0.0013 J-0.0375
X0.9041 Y-0.4442 I0.0284 J-0.0245 F300.
G1 X0.9341 Y-0.5941
G3 X0.9424 Y-0.6113 I0.0368 J0.0073
X0.9695 Y-0.6243 I0.0284 J0.0245 F50.
G1 X0.9935
G3 X1.046 Y-0.5986 I-0.0045 J0.0755
X1.0811 Y-0.4713 I-0.0964 J0.0952
X0.9868 Y-0.3994 I-0.0943 J-0.0258
G1 X0.9631
G3 X0.936 Y-0.4123 I0.0013 J-0.0375
X0.9276 Y-0.4443 I0.0284 J-0.0245 F300.
G1 X0.9581 Y-0.5943
G3 X0.9664 Y-0.6113 I0.0367 J0.0075
X0.9935 Y-0.6243 I0.0284 J0.0245 F50.
G1 X1.016
G3 X1.0688 Y-0.5992 I-0.0035 J0.0753
X1.1049 Y-0.4722 I-0.0957 J0.0959
X1.0101 Y-0.3994 I-0.0947 J-0.0252
G1 X0.9868
G3 X0.9598 Y-0.4123 I0.0013 J-0.0375
X0.9513 Y-0.444 I0.0284 J-0.0245 F300.
G1 X0.9805 Y-0.594
G3 X0.9889 Y-0.6113 I0.0368 J0.0072
X1.016 Y-0.6243 I0.0284 J0.0245 F50.
G1 X1.0398
G3 X1.0925 Y-0.599 I-0.0039 J0.0756
X1.128 Y-0.4705 I-0.0958 J0.0957
X1.0351 Y-0.3993 I-0.0929 J-0.0251
G1 X1.0101 Y-0.3994
G3 X0.983 Y-0.4123 I0.0013 J-0.0375
X0.9747 Y-0.4441 I0.0284 J-0.0245 F300.
G1 X1.0043 Y-0.5941
G3 X1.0127 Y-0.6113 I0.0368 J0.0073
X1.0398 Y-0.6243 I0.0284 J0.0245 F50.
G1 X1.0638
G3 X1.1163 Y-0.5986 I-0.0045 J0.0758
X1.1529 Y-0.476 I-0.0966 J0.0956
X1.0576 Y-0.3994 I-0.0952 J-0.0208
G1 X1.0351
G3 X1.008 Y-0.4123 I0.0013 J-0.0375
X0.9996 Y-0.4439 I0.0284 J-0.0245 F300.
G1 X1.0283 Y-0.5938
G3 X1.0367 Y-0.6113 I0.0368 J0.007
X1.0638 Y-0.6243 I0.0284 J0.0245 F50.
G1 X1.0863
G3 X1.1391 Y-0.5993 I-0.0034 J0.0755
X1.1766 Y-0.4772 I-0.0955 J0.0962
X1.0801 Y-0.3994 I-0.0964 J-0.0208
G1 X1.0576
G3 X1.0305 Y-0.4123 I0.0013 J-0.0375
X1.0221 Y-0.4439 I0.0284 J-0.0245 F300.
G1 X1.0508 Y-0.5938
G3 X1.0592 Y-0.6113 I0.0368 J0.007
X1.0863 Y-0.6243 I0.0284 J0.0245 F50.
G1 X1.1103
G3 X1.1629 Y-0.599 I-0.004 J0.0757
X1.2 Y-0.4774 I-0.0951 J0.0954
X1.1026 Y-0.3994 I-0.0973 J-0.0217
G1 X1.0801
G3 X1.053 Y-0.4123 I0.0013 J-0.0375
X1.0446 Y-0.4442 I0.0284 J-0.0245 F300.
G1 X1.0749 Y-0.5942
G3 X1.0832 Y-0.6113 I0.0368 J0.0074
X1.1103 Y-0.6243 I0.0284 J0.0245 F50.
G1 X1.1341
G3 X1.1866 Y-0.5988 I-0.0043 J0.0758
X1.2233 Y-0.4775 I-0.0949 J0.0949
X1.1252 Y-0.3994 I-0.098 J-0.0224
G1 X1.1026
G3 X1.0755 Y-0.4123 I0.0013 J-0.0375
X1.0672 Y-0.4445 I0.0284 J-0.0245 F300.
G1 X1.0987 Y-0.5945
G3 X1.107 Y-0.6113 I0.0367 J0.0077
X1.1341 Y-0.6243 I0.0284 J0.0245 F50.
G1 X1.1565
G3 X1.2135 Y-0.5952 I-0.0039 J0.078
X1.2454 Y-0.4725 I-0.0979 J0.0909
X1.1498 Y-0.3994 I-0.0956 J-0.0258
G1 X1.1252
G3 X1.0981 Y-0.4123 I0.0013 J-0.0375
X1.0898 Y-0.4445 I0.0284 J-0.0245 F300.
G1 X1.1211 Y-0.5945
G3 X1.1294 Y-0.6113 I0.0367 J0.0077
X1.1565 Y-0.6243 I0.0284 J0.0245 F50.
G1 X1.1813
G3 X1.2338 Y-0.5986 I-0.0045 J0.0757
X1.2686 Y-0.4713 I-0.0955 J0.0945
X1.1739 Y-0.3994 I-0.0946 J-0.0262
G1 X1.1498
G3 X1.1227 Y-0.4123 I0.0013 J-0.0375
X1.1144 Y-0.4445 I0.0284 J-0.0245 F300.
G1 X1.1459 Y-0.5945
G3 X1.1542 Y-0.6113 I0.0367 J0.0077
X1.1813 Y-0.6243 I0.0284 J0.0245 F50.
G1 X1.2038
G3 X1.2566 Y-0.5992 I-0.0034 J0.0753
X1.2924 Y-0.4721 I-0.0956 J0.0955
X1.1974 Y-0.3994 I-0.0949 J-0.0255
G1 X1.1739
G3 X1.1468 Y-0.4123 I0.0013 J-0.0375
X1.1385 Y-0.4441 I0.0284 J-0.0245 F300.
G1 X1.1683 Y-0.5941
G3 X1.1767 Y-0.6113 I0.0368 J0.0073
X1.2038 Y-0.6243 I0.0284 J0.0245 F50.
G1 X1.2282
G3 X1.2806 Y-0.5986 I-0.0045 J0.0755
X1.3157 Y-0.4713 I-0.0963 J0.095
X1.2213 Y-0.3994 I-0.0943 J-0.0259
G1 X1.1974
G3 X1.1703 Y-0.4123 I0.0013 J-0.0375
X1.162 Y-0.4444 I0.0284 J-0.0245 F300.
G1 X1.1927 Y-0.5943
G3 X1.2011 Y-0.6113 I0.0367 J0.0075
X1.2282 Y-0.6243 I0.0284 J0.0245 F50.
G1 X1.2507
G3 X1.3034 Y-0.5992 I-0.0034 J0.0753
X1.3395 Y-0.4722 I-0.0957 J0.0958
X1.2447 Y-0.3994 I-0.0947 J-0.0253
G1 X1.2213
G3 X1.1942 Y-0.4123 I0.0013 J-0.0375
X1.1858 Y-0.444 I0.0284 J-0.0245 F300.
G1 X1.2152 Y-0.594
G3 X1.2236 Y-0.6113 I0.0368 J0.0072
X1.2507 Y-0.6243 I0.0284 J0.0245 F50.
G1 X1.2747
G3 X1.3272 Y-0.5988 I-0.0041 J0.0756
X1.3629 Y-0.4716 I-0.096 J0.0955
X1.2684 Y-0.3994 I-0.0945 J-0.0256
G1 X1.2447
G3 X1.2176 Y-0.4123 I0.0013 J-0.0375
X1.2092 Y-0.4442 I0.0284 J-0.0245 F300.
G1 X1.2392 Y-0.5942
G3 X1.2476 Y-0.6113 I0.0368 J0.0074
X1.2747 Y-0.6243 I0.0284 J0.0245 F50.
G1 X1.2972
G3 X1.3542 Y-0.5951 I-0.0039 J0.0779
X1.3851 Y-0.4667 I-0.0993 J0.0919
X1.2936 Y-0.3993 I-0.0915 J-0.0285
G1 X1.2684 Y-0.3994
G3 X1.2413 Y-0.4123 I0.0013 J-0.0375
X1.2328 Y-0.4439 I0.0284 J-0.0245 F300.
G1 X1.2616 Y-0.5939
G3 X1.2701 Y-0.6113 I0.0368 J0.0071
X1.2972 Y-0.6243 I0.0284 J0.0245 F50.
G1 X1.322
G3 X1.3745 Y-0.5985 I-0.0047 J0.0758
X1.41 Y-0.4712 I-0.097 J0.0957
X1.3163 Y-0.3994 I-0.0937 J-0.0251
G1 X1.2936
G3 X1.2665 Y-0.4123 I0.0013 J-0.0375
X1.258 Y-0.4438 I0.0284 J-0.0245 F300.
G1 X1.2865 Y-0.5938
G3 X1.2949 Y-0.6113 I0.0368 J0.007
X1.322 Y-0.6243 I0.0284 J0.0245 F50.
G1 X1.3449
G3 X1.4023 Y-0.5959 I-0.003 J0.0783
X1.4364 Y-0.4736 I-0.0991 J0.0935
X1.3417 Y-0.3994 I-0.0946 J-0.0231
G1 X1.3163
G3 X1.2892 Y-0.4123 I0.0013 J-0.0375
X1.2807 Y-0.4439 I0.0284 J-0.0245 F300.
G1 X1.3094 Y-0.5938
G3 X1.3178 Y-0.6113 I0.0368 J0.007
X1.3449 Y-0.6243 I0.0284 J0.0245 F50.
G1 X1.3702
G3 X1.4235 Y-0.6002 I-0.0024 J0.0763
G2 X1.5182 Y-0.5619 I0.1032 J-0.1185
G3 X1.4783 Y-0.4592 I-0.4589 J-0.1194
X1.4082 Y-0.4046 I-0.1076 J-0.0659
G1 X1.3906 Y-0.4007
X1.3725 Y-0.3994
X1.3417
G3 X1.3146 Y-0.4123 I0.0013 J-0.0375
X1.3062 Y-0.4438 I0.0284 J-0.0245 F300.
G1 X1.3347 Y-0.5938
G3 X1.3431 Y-0.6113 I0.0368 J0.007
X1.3702 Y-0.6243 I0.0284 J0.0245 F50.
G1 X1.395
G3 X1.4921 Y-0.6108 I-0.0424 J0.6639
G1 X1.5363 Y-0.6143
G3 X1.5861 Y-0.6243 I0.0512 J0.126
X1.6133 Y-0.6114 I-0.0011 J0.0375
X1.585 Y-0.5493 I-0.0283 J0.0246 F300.
G1 X1.3963
G3 X1.3679 Y-0.6113 I0. J-0.0375
X1.395 Y-0.6243 I0.0284 J0.0245 F50.
G1 X1.588
X1.5974
X1.612 Y-0.6248
G3 X1.6223 Y-0.6237 I0.0011 J0.0375
G1 X1.6263 Y-0.6229
X1.6305 Y-0.6226
X1.6428 Y-0.6223
X1.8023 Y-0.6186 F300.
G2 X1.8395 Y-0.6653 I0.0009 J-0.0375
G3 X1.8117 Y-0.8386 I0.9274 J-0.2376
X1.8102 Y-0.8695 I0.9552 J-0.0643 F50.
G1 Y-0.8792
X1.8105 Y-0.8852
G2 X1.8101 Y-0.9424 I-0.1694 J-0.0276
G1 X1.8102 Y-0.947
Y-1.0011
G2 X1.8047 Y-1.0686 I-0.2728 J-0.0121
X1.7796 Y-1.1292 I-0.1693 J0.0346
G1 X1.7777 Y-1.1332
X1.7762 Y-1.1373
X1.7752 Y-1.1416
X1.7748 Y-1.146
Y-1.1504
X1.7754 Y-1.1548
X1.7765 Y-1.1591
X1.7779 Y-1.1634 Z0.4433
X1.7792 Y-1.1676 Z0.4442
X1.7806 Y-1.1717 Z0.4455
X1.7818 Y-1.1756 Z0.4474
X1.783 Y-1.1793 Z0.4497
X1.7841 Y-1.1827 Z0.4525
X1.7851 Y-1.1858 Z0.4557
X1.7859 Y-1.1884 Z0.4593
X1.7867 Y-1.1907 Z0.4631
X1.7872 Y-1.1924 Z0.4673
X1.7876 Y-1.1937 Z0.4716
X1.7879 Y-1.1945 Z0.4761
X1.788 Y-1.1947 Z0.4806
G0 Z1.7612
X1.8429 Y-0.2195
Z0.5181
G1 Z0.4806 F50.
X1.8427 Y-0.2196 Z0.4761
X1.8421 Y-0.2202 Z0.4716
X1.8411 Y-0.221 Z0.4673
X1.8396 Y-0.2222 Z0.4631
X1.8379 Y-0.2238 Z0.4593
X1.8357 Y-0.2256 Z0.4557
X1.8333 Y-0.2276 Z0.4525
X1.8306 Y-0.23 Z0.4497
X1.8276 Y-0.2325 Z0.4474
X1.8245 Y-0.2351 Z0.4455
X1.8212 Y-0.238 Z0.4442
X1.8178 Y-0.2408 Z0.4433
X1.8144 Y-0.2438 Z0.4431
G3 X1.7965 Y-0.269 I0.0404 J-0.0474
G1 X1.7962 Y-0.27
X1.7914 Y-0.2812
X1.7773 Y-0.3071
G2 X1.6873 Y-0.3825 I-0.1682 J0.1093
X1.5974 Y-0.3991 I-0.0813 J0.1887
G1 X1.5861 Y-0.3994
X1.3725
X1.3689 Y-0.4 Z0.4433
X1.3653 Y-0.4007 Z0.444
X1.3619 Y-0.4013 Z0.445
X1.3584 Y-0.403 Z0.4468
X1.3551 Y-0.4047 Z0.4491
X1.3522 Y-0.4062 Z0.4519
X1.3502 Y-0.408 Z0.455
X1.3485 Y-0.4095 Z0.4584
X1.3472 Y-0.4107 Z0.462
X1.3462 Y-0.4116 Z0.4659
X1.3456 Y-0.4122 Z0.4699
X1.3454 Y-0.4123 Z0.474
G0 Z1.7612
X0.4138 Y-1.3133
Z0.6817
G1 Z0.6442 F50.
X0.4135 Y-1.3132 Z0.6396
X0.4128 Y-1.3128 Z0.6352
X0.4116 Y-1.3122 Z0.6309
X0.41 Y-1.3113 Z0.6267
X0.4079 Y-1.3102 Z0.6229
X0.4054 Y-1.3089 Z0.6193
X0.4026 Y-1.3075 Z0.6161
X0.3994 Y-1.3058 Z0.6133
X0.396 Y-1.304 Z0.611
X0.3923 Y-1.3021 Z0.6091
X0.3885 Y-1.3001 Z0.6078
X0.3845 Y-1.2981 Z0.6069
X0.3805 Y-1.296 Z0.6067
G3 X0.1883 Y-1.2212 I-0.4415 J-0.8495
G2 X0.113 Y-1.1893 I0.0391 J0.1973
G1 X0.0905 Y-1.1713
G2 X0.047 Y-1.1136 I0.1488 J0.1575
G1 X0.0378 Y-1.091
G2 X0.0258 Y-1.0236 I0.1831 J0.0673
G1 X0.0256 Y-0.9898
Y-0.9161
G3 X0.0126 Y-0.889 I-0.0375 J-0.0013
G1 X0.0092 Y-0.8861 Z0.6069
X0.0058 Y-0.8832 Z0.6078
X0.0025 Y-0.8804 Z0.6091
X-0.0006 Y-0.8777 Z0.611
X-0.0035 Y-0.8751 Z0.6133
X-0.0062 Y-0.8728 Z0.6161
X-0.0087 Y-0.8707 Z0.6193
X-0.0108 Y-0.8689 Z0.6229
X-0.0125 Y-0.8674 Z0.6267
X-0.0139 Y-0.8662 Z0.6309
X-0.015 Y-0.8653 Z0.6352
X-0.0156 Y-0.8647 Z0.6396
X-0.0158 Y-0.8646 Z0.6442
G0 Z1.7612
X1.806 Y-0.6178
Z0.6817
G1 Z0.6442 F50.
X1.8059 Y-0.618 Z0.6396
X1.8057 Y-0.6188 Z0.6352
X1.8054 Y-0.6201 Z0.6309
X1.8049 Y-0.6219 Z0.6267
X1.8043 Y-0.6242 Z0.6229
X1.8036 Y-0.6269 Z0.6193
X1.8028 Y-0.63 Z0.6161
X1.8019 Y-0.6335 Z0.6133
X1.801 Y-0.6372 Z0.611
X1.8 Y-0.6412 Z0.6091
X1.7989 Y-0.6454 Z0.6078
X1.7978 Y-0.6497 Z0.6069
X1.7967 Y-0.6541 Z0.6067
G3 X1.7673 Y-0.8583 I0.9274 J-0.2376
G1 Y-1.0011
G2 X1.7594 Y-1.0798 I-0.2738 J-0.0123
G1 X1.7553 Y-1.091
X1.7506 Y-1.1023
X1.7499 Y-1.1059 Z0.6069
X1.7491 Y-1.1094 Z0.6075
X1.7484 Y-1.1128 Z0.6086
X1.7483 Y-1.1153 Z0.6097
X1.7487 Y-1.1184 Z0.6114
X1.7491 Y-1.1212 Z0.6134
X1.7495 Y-1.1237 Z0.6157
X1.7499 Y-1.126 Z0.6183
X1.7507 Y-1.1282 Z0.6217
X1.7514 Y-1.13 Z0.6254
X1.7519 Y-1.1313 Z0.6294
X1.7522 Y-1.132 Z0.6334
X1.7523 Y-1.1323 Z0.6376
G0 Z1.7612
X0.6034 Y-1.2991
Z0.9126
G1 Z0.8751 F50.
X0.6032 Y-1.2989 Z0.8706
X0.6024 Y-1.2986 Z0.8661
X0.6012 Y-1.2981 Z0.8618
X0.5995 Y-1.2973 Z0.8577
X0.5973 Y-1.2964 Z0.8538
X0.5948 Y-1.2952 Z0.8502
X0.5919 Y-1.2939 Z0.847
X0.5886 Y-1.2925 Z0.8442
X0.5851 Y-1.2909 Z0.8419
X0.5813 Y-1.2892 Z0.84
X0.5773 Y-1.2875 Z0.8387
X0.5733 Y-1.2857 Z0.8379
X0.5691 Y-1.2839 Z0.8376
G3 X0.3727 Y-1.2211 I-0.3879 J-0.8752
G2 X0.3369 Y-1.21 I0.0695 J0.289
G3 X0.2857 Y-1.192 I-0.1583 J-0.3678
G2 X0.1937 Y-1.0014 I0.0557 J0.1443
G1 X0.2037 Y-0.9735
X0.2079 Y-0.9593
X0.2104 Y-0.9447
X0.2112 Y-0.9299
G3 X0.1982 Y-0.9028 I-0.0375 J-0.0013
G1 X0.1948 Y-0.8999 Z0.8379
X0.1914 Y-0.897 Z0.8387
X0.1882 Y-0.8942 Z0.84
X0.185 Y-0.8915 Z0.8419
X0.1821 Y-0.8889 Z0.8442
X0.1794 Y-0.8866 Z0.847
X0.177 Y-0.8845 Z0.8502
X0.1749 Y-0.8827 Z0.8538
X0.1731 Y-0.8812 Z0.8577
X0.1717 Y-0.8799 Z0.8618
X0.1707 Y-0.8791 Z0.8661
X0.17 Y-0.8785 Z0.8706
X0.1698 Y-0.8783 Z0.8751
G0 Z1.7612
X0.3806 Y-1.2619
Z0.9126
G1 Z0.8751 F50.
X0.3805 Y-1.2617 Z0.8706
X0.38 Y-1.261 Z0.8661
X0.3793 Y-1.2599 Z0.8618
X0.3783 Y-1.2583 Z0.8577
X0.377 Y-1.2564 Z0.8538
X0.3754 Y-1.254 Z0.8502
X0.3736 Y-1.2514 Z0.847
X0.3717 Y-1.2484 Z0.8442
X0.3695 Y-1.2452 Z0.8419
X0.3672 Y-1.2418 Z0.84
X0.3648 Y-1.2382 Z0.8387
X0.3624 Y-1.2344 Z0.8379
X0.3599 Y-1.2307 Z0.8376
G3 X0.3369 Y-1.21 I-0.0519 J-0.0345
G2 X0.2591 Y-1.1531 I0.0746 J0.1835
G1 X0.2539 Y-1.1473
X0.2479 Y-1.1385
X0.2326 Y-1.1135
G2 X0.2114 Y-1.0236 I0.1889 J0.092
G1 X0.2112 Y-0.9898
Y-0.9161
G3 X0.1982 Y-0.889 I-0.0375 J-0.0013
G1 X0.0905 Y-0.8111 F300.
G2 X0.0679 Y-0.6749 I0.0579 J0.0796
G1 X0.1467 Y-0.5832
X0.185 Y-0.5512
X0.2367 Y-0.5208
X0.3154 Y-0.4977
X1.5913 Y-0.4949
G2 X1.6874 Y-0.5484 I0.0083 J-0.0981
G1 X1.7187 Y-0.6074
G2 X1.7287 Y-0.6524 I-0.0884 J-0.0433
G1 X1.7293 Y-0.6729
G3 X1.7084 Y-0.8174 I0.9343 J-0.2089
X1.7068 Y-0.8483 I0.9552 J-0.0643 F50.
G1 Y-0.8773
X1.709 Y-0.9217
G3 X1.7068 Y-0.9488 I0.2205 J-0.0319
G1 X1.7072 Y-0.9532
X1.7081 Y-0.9575
X1.7096 Y-0.9617
X1.7115 Y-0.9657
X1.7138 Y-0.9694
X1.7166 Y-0.9728
X1.7198 Y-0.9759
G3 X1.7818 Y-0.9462 I0.0245 J0.0284 F300.
X1.7334 Y-0.8762 I-0.0787 J-0.0027
X1.7144 Y-0.871 I-0.0303 J-0.0727 F50.
X1.7068 Y-0.8773 I-0.001 J-0.0066
G1 Y-1.0011
G2 X1.7014 Y-1.0686 I-0.2728 J-0.0121
X1.6761 Y-1.1292 I-0.1734 J0.0366
G1 X1.6748 Y-1.1326 Z0.8378
X1.6735 Y-1.136 Z0.8385
X1.6722 Y-1.1393 Z0.8395
X1.6719 Y-1.1422 Z0.8408
X1.6716 Y-1.145 Z0.8424
X1.6713 Y-1.1476 Z0.8443
X1.6717 Y-1.1506 Z0.8471
X1.6721 Y-1.1532 Z0.8502
X1.6724 Y-1.1554 Z0.8537
X1.6727 Y-1.1571 Z0.8574
X1.6728 Y-1.1583 Z0.8613
X1.673 Y-1.1589 Z0.8649
X1.6731 Y-1.1591 Z0.8685
G0 Z1.7612
X0.7835 Y-1.3167
Z1.1435
G1 Z1.106 F50.
X0.7832 Y-1.3166 Z1.1015
X0.7825 Y-1.3162 Z1.097
X0.7813 Y-1.3156 Z1.0927
X0.7797 Y-1.3147 Z1.0886
X0.7776 Y-1.3136 Z1.0847
X0.7752 Y-1.3123 Z1.0811
X0.7723 Y-1.3107 Z1.0779
X0.7692 Y-1.3091 Z1.0751
X0.7658 Y-1.3072 Z1.0728
X0.7622 Y-1.3053 Z1.0709
X0.7584 Y-1.3032 Z1.0696
X0.7544 Y-1.3011 Z1.0688
X0.7505 Y-1.2989 Z1.0685
G3 X0.5594 Y-1.2212 I-0.4542 J-0.8428
G1 X0.5403 Y-1.2165
X0.5352 Y-1.2148
X0.5178 Y-1.2077
G3 X0.4672 Y-1.1904 I-0.9593 J-2.7312
G2 X0.3846 Y-0.9847 I0.0584 J0.1428
G1 X0.3914 Y-0.9671
X0.3955 Y-0.9487
X0.3969 Y-0.9299
G3 X0.3839 Y-0.9028 I-0.0375 J-0.0013
X0.3253 Y-0.9469 I-0.0245 J-0.0284 F300.
G1 X0.4681 Y-1.2574
G3 X0.5378 Y-1.2301 I0.0341 J0.0157
X0.5178 Y-1.2077 I-0.0357 J-0.0116 F50.
G2 X0.428 Y-1.1302 I0.0778 J0.1811
X0.3971 Y-1.0236 I0.1726 J0.1078
G1 X0.3969 Y-0.9898
Y-0.9386
G3 X0.3839 Y-0.9115 I-0.0375 J-0.0013
G1 X0.2817 Y-0.8683 F300.
G2 X0.2307 Y-0.7536 I0.0438 J0.0881
G1 X0.2471 Y-0.6974
X0.3154 Y-0.5901
X0.3829 Y-0.5364
X0.4279 Y-0.5166
X0.5066 Y-0.4959
X1.5412 Y-0.4937
G2 X1.6405 Y-0.5624 I0.0054 J-0.0983
G1 X1.6657 Y-0.6299
X1.6688 Y-0.6743
G3 X1.6479 Y-0.8189 I0.9343 J-0.2089
X1.6463 Y-0.8498 I0.9552 J-0.0643 F50.
G1 Y-0.8773
X1.6485 Y-0.9217
G3 X1.6463 Y-0.9464 I0.153 J-0.0263
X1.6593 Y-0.9735 I0.0375 J0.0013
X1.7213 Y-0.9438 I0.0245 J0.0284 F300.
X1.6719 Y-0.8734 I-0.0787 J-0.0027
X1.6566 Y-0.869 I-0.0293 J-0.0731 F50.
X1.6463 Y-0.8773 I-0.0016 J-0.0086
G1 Y-1.0011
X1.6462 Y-1.0185
X1.6469 Y-1.0221 Z1.0687
X1.6475 Y-1.0257 Z1.0694
X1.6481 Y-1.0291 Z1.0704
X1.6499 Y-1.0326 Z1.0722
X1.6515 Y-1.0359 Z1.0746
X1.653 Y-1.0388 Z1.0774
X1.6548 Y-1.0408 Z1.0804
X1.6563 Y-1.0425 Z1.0838
X1.6576 Y-1.0439 Z1.0874
X1.6584 Y-1.0448 Z1.0913
X1.659 Y-1.0454 Z1.0953
X1.6592 Y-1.0456 Z1.0994
G0 Z1.7612
X0.9133 Y-1.31
Z1.301
G1 Z1.2635 F50.
X0.9131 Y-1.3099 Z1.2589
X0.9123 Y-1.3095 Z1.2545
X0.9111 Y-1.3089 Z1.2502
X0.9095 Y-1.3081 Z1.246
X0.9074 Y-1.307 Z1.2422
X0.9049 Y-1.3058 Z1.2386
X0.902 Y-1.3044 Z1.2354
X0.8988 Y-1.3028 Z1.2326
X0.8954 Y-1.301 Z1.2303
X0.8917 Y-1.2992 Z1.2284
X0.8878 Y-1.2972 Z1.2271
X0.8838 Y-1.2952 Z1.2262
X0.8798 Y-1.2932 Z1.226
G3 X0.6865 Y-1.2212 I-0.429 J-0.8559
G2 X0.6151 Y-1.1922 I0.0383 J0.1969
G1 X0.6078 Y-1.1866
X0.5872 Y-1.1703
X0.5866 Y-1.1698
X0.5628 Y-1.1427
G2 X0.5264 Y-1.0573 I0.1683 J0.1223
G1 X0.5242 Y-1.0348
X0.5235 Y-1.0236
Y-0.9898
Y-0.9336
G3 X0.5105 Y-0.9065 I-0.0375 J-0.0013
G1 X0.507 Y-0.9035 Z1.2262
X0.5037 Y-0.9006 Z1.2271
X0.5004 Y-0.8978 Z1.2284
X0.4973 Y-0.8951 Z1.2303
X0.4943 Y-0.8926 Z1.2326
X0.4916 Y-0.8902 Z1.2354
X0.4892 Y-0.8882 Z1.2386
X0.4871 Y-0.8863 Z1.2422
X0.4853 Y-0.8848 Z1.246
X0.4839 Y-0.8836 Z1.2502
X0.4829 Y-0.8827 Z1.2545
X0.4823 Y-0.8822 Z1.2589
X0.4821 Y-0.882 Z1.2635
G0 Z1.7612
X1.6437 Y-0.6162
Z1.301
G1 Z1.2635 F50.
Y-0.6165 Z1.2589
X1.6435 Y-0.6173 Z1.2545
X1.6431 Y-0.6186 Z1.2502
X1.6427 Y-0.6204 Z1.246
X1.6421 Y-0.6227 Z1.2422
X1.6414 Y-0.6254 Z1.2386
X1.6406 Y-0.6285 Z1.2354
X1.6397 Y-0.6319 Z1.2326
X1.6387 Y-0.6357 Z1.2303
X1.6377 Y-0.6397 Z1.2284
X1.6366 Y-0.6439 Z1.2271
X1.6355 Y-0.6482 Z1.2262
X1.6344 Y-0.6526 Z1.226
G3 X1.6051 Y-0.8567 I0.9274 J-0.2376
G1 Y-1.0011
X1.605 Y-1.0123
G3 X1.6179 Y-1.0394 Z1.2262 I0.0375 J0.0012
G1 X1.7059 Y-1.136 Z1.2324 F300.
G2 X1.6986 Y-1.2684 Z1.2457 I-0.0763 J-0.0622
G1 X1.6199 Y-1.3421 Z1.2606
X1.5609 Y-1.3766 Z1.2714
X1.5074 Y-1.3936 Z1.2807
X1.3463 Y-1.4197 Z1.3095
X1.26 Y-1.4237 Z1.3248
X0.9227 Y-1.4246 Z1.3727
G2 X0.8248 Y-1.361 Z1.3812 I-0.0057 J0.0983
G1 X0.7859 Y-1.2751 Z1.3834
G3 X0.7198 Y-1.1791 I-0.8202 J-0.4938
X0.7003 Y-1.155 I-0.7541 J-0.5899 F50.
G1 X0.6897 Y-1.1432
X0.6893 Y-1.1427
X0.6753 Y-1.1198
G2 X0.6503 Y-1.0236 I0.1726 J0.0962
G1 X0.6501 Y-0.9898
Y-0.9336
G3 X0.6371 Y-0.9065 I-0.0375 J-0.0013
G1 X0.5403 Y-0.8705 F300.
G2 X0.4789 Y-0.7536 I0.0339 J0.0924
G1 X0.4932 Y-0.7054
X0.5178 Y-0.6502
X0.5628 Y-0.5936
X0.609 Y-0.5512
X0.6753 Y-0.5167
X0.754 Y-0.496
X1.4624
G2 X1.551 Y-0.5737 I-0.0077 J-0.0981
G1 X1.5669 Y-0.6541
X1.5677 Y-0.6828
G3 X1.5468 Y-0.8274 I0.9343 J-0.2089
X1.5452 Y-0.8583 I0.9552 J-0.0643 F50.
G1 Y-0.9898
X1.5458 Y-0.9934 Z1.3837
X1.5465 Y-0.997 Z1.3843
X1.5471 Y-1.0004 Z1.3854
X1.5489 Y-1.0039 Z1.3872
X1.5505 Y-1.0072 Z1.3895
X1.552 Y-1.0101 Z1.3923
X1.5538 Y-1.0121 Z1.3954
X1.5553 Y-1.0138 Z1.3988
X1.5566 Y-1.0151 Z1.4024
X1.5575 Y-1.0161 Z1.4063
X1.558 Y-1.0167 Z1.4103
X1.5582 Y-1.0169 Z1.4144
G0 Z1.7612
X0.6977 Y-1.0653
Z1.5351
G1 Z1.4976 F50.
X0.6978 Y-1.0651 Z1.4931
X0.6983 Y-1.0644 Z1.4887
X0.6989 Y-1.0632 Z1.4843
X0.6999 Y-1.0616 Z1.4802
X0.7011 Y-1.0596 Z1.4763
X0.7025 Y-1.0572 Z1.4728
X0.7041 Y-1.0545 Z1.4696
X0.7059 Y-1.0514 Z1.4668
X0.7079 Y-1.048 Z1.4644
X0.71 Y-1.0445 Z1.4626
X0.7122 Y-1.0408 Z1.4612
X0.7145 Y-1.0369 Z1.4604
X0.7168 Y-1.033 Z1.4601
G3 X0.7254 Y-1.0033 I-0.0537 J0.0317
G1 X0.7253 Y-0.9611
G3 X0.7124 Y-0.934 I-0.0375 J-0.0013
G1 X0.7089 Y-0.9311 Z1.4604
X0.7056 Y-0.9282 Z1.4612
X0.7023 Y-0.9254 Z1.4626
X0.6992 Y-0.9227 Z1.4644
X0.6962 Y-0.9201 Z1.4668
X0.6935 Y-0.9178 Z1.4696
X0.6911 Y-0.9157 Z1.4728
X0.689 Y-0.9139 Z1.4763
X0.6872 Y-0.9124 Z1.4802
X0.6858 Y-0.9111 Z1.4843
X0.6848 Y-0.9103 Z1.4887
X0.6842 Y-0.9097 Z1.4931
X0.6839 Y-0.9096 Z1.4976
G0 Z2.1612
(2D ADAPTIVE5)
G0 X1.019 Y-0.4482
Z2.1612
Z1.7612
Z1.6612
G3 X0.8542 Y-0.4745 Z1.6438 I-0.0743 J-0.0636 F40.
X0.9523 Y-0.6089 Z1.6263 I0.0902 J-0.0372
X1.0271 Y-0.4609 Z1.6088 I-0.0079 J0.0969
X0.8618 Y-0.4615 Z1.5913 I-0.0825 J-0.0509
X0.9373 Y-0.608 Z1.5738 I0.0826 J-0.0501
X1.0331 Y-0.4746 Z1.5563 I0.0071 J0.0961
X0.8712 Y-0.45 Z1.5388 I-0.0885 J-0.0372
X0.9228 Y-0.6049 Z1.5213 I0.0732 J-0.0617
X1.0369 Y-0.4889 Z1.5039 I0.0216 J0.0929
X0.8822 Y-0.4401 Z1.4864 I-0.0923 J-0.023
X0.909 Y-0.5996 Z1.4689 I0.0622 J-0.0715
X1.0384 Y-0.5035 Z1.4514 I0.0353 J0.0876
X0.8945 Y-0.4322 Z1.4339 I-0.0938 J-0.0084
X0.8964 Y-0.5923 Z1.4164 I0.05 J-0.0795
X1.0377 Y-0.518 Z1.3989 I0.0479 J0.0804
X0.9077 Y-0.4263 Z1.3815 I-0.0931 J0.0061
X0.8852 Y-0.5832 Z1.364 I0.0368 J-0.0854
X1.0347 Y-0.5321 Z1.3465 I0.0591 J0.0713
X0.9216 Y-0.4225 Z1.329 I-0.0901 J0.0202
X0.8756 Y-0.5726 Z1.3115 I0.0229 J-0.0891
X1.0297 Y-0.5454 Z1.294 I0.0687 J0.0608
X0.9357 Y-0.421 Z1.2765 I-0.0851 J0.0335
X0.8678 Y-0.5608 Z1.259 I0.0089 J-0.0907
X1.0227 Y-0.5577 Z1.2416 I0.0765 J0.049
X0.9497 Y-0.4216 Z1.2241 I-0.0781 J0.0457
X0.862 Y-0.548 Z1.2066 I-0.0052 J-0.0901
X1.014 Y-0.5686 Z1.1891 I0.0823 J0.0362
X0.9634 Y-0.4244 Z1.1716 I-0.0694 J0.0566
X0.8583 Y-0.5347 Z1.1541 I-0.0188 J-0.0873
X1.0038 Y-0.578 Z1.1366 I0.086 J0.0229
X0.9763 Y-0.4292 Z1.1192 I-0.0593 J0.066
X0.8567 Y-0.521 Z1.1017 I-0.0317 J-0.0825
X0.9924 Y-0.5856 Z1.0842 I0.0876 J0.0093
X0.9882 Y-0.4359 Z1.0667 I-0.0479 J0.0735
X0.8573 Y-0.5075 Z1.0492 I-0.0435 J-0.0759
X0.9801 Y-0.5912 Z1.0317 I0.0871 J-0.0043
X0.9988 Y-0.4443 Z1.0142 I-0.0356 J0.0792
X0.8599 Y-0.4943 Z0.9967 I-0.0541 J-0.0675
X0.9672 Y-0.5949 Z0.9793 I0.0845 J-0.0174
X1.0079 Y-0.454 Z0.9618 I-0.0228 J0.0829
X0.8645 Y-0.4818 Z0.9443 I-0.0632 J-0.0578
X0.954 Y-0.5965 Z0.9268 I0.0799 J-0.0299
X1.0152 Y-0.465 Z0.9093 I-0.0096 J0.0845
X0.8708 Y-0.4703 Z0.8918 I-0.0706 J-0.0468
X0.9409 Y-0.596 Z0.8743 I0.0735 J-0.0414
X1.0208 Y-0.4768 Z0.8569 I0.0034 J0.084
X0.8788 Y-0.46 Z0.8394 I-0.0761 J-0.035
X0.9282 Y-0.5936 Z0.8219 I0.0656 J-0.0517
X1.0244 Y-0.4893 Z0.8044 I0.0162 J0.0816
X0.8882 Y-0.4512 Z0.7869 I-0.0797 J-0.0226
X0.9161 Y-0.5892 Z0.7694 I0.0562 J-0.0605
X1.026 Y-0.5019 Z0.7519 I0.0282 J0.0773
X0.8988 Y-0.444 Z0.7344 I-0.0814 J-0.01
X0.905 Y-0.5831 Z0.717 I0.0457 J-0.0677
X1.0256 Y-0.5146 Z0.6995 I0.0393 J0.0712
X0.9101 Y-0.4386 Z0.682 I-0.081 J0.0027
X0.895 Y-0.5755 Z0.6645 I0.0343 J-0.0731
X1.0233 Y-0.5269 Z0.647 I0.0493 J0.0636
X0.9221 Y-0.435 Z0.6295 I-0.0787 J0.0149
X0.8865 Y-0.5665 Z0.612 I0.0224 J-0.0766
X1.0192 Y-0.5385 Z0.5945 I0.0578 J0.0546
X0.9343 Y-0.4334 Z0.5771 I-0.0746 J0.0266
X0.8795 Y-0.5564 Z0.5596 I0.0102 J-0.0783
X1.0134 Y-0.5493 Z0.5421 I0.0648 J0.0445
X0.9465 Y-0.4337 Z0.5246 I-0.0689 J0.0373
X0.8742 Y-0.5454 Z0.5071 I-0.0019 J-0.078
X1.0061 Y-0.5589 Z0.4896 I0.07 J0.0336
X0.9583 Y-0.4359 Z0.4721 I-0.0616 J0.0469
X0.8708 Y-0.534 Z0.4547 I-0.0137 J-0.0759
X0.9975 Y-0.5672 Z0.4372 I0.0735 J0.0222
X0.9696 Y-0.4398 Z0.4197 I-0.053 J0.0552
X0.8692 Y-0.5222 Z0.4022 I-0.025 J-0.072
X0.9878 Y-0.5739 Z0.3847 I0.0751 J0.0105
X0.9799 Y-0.4453 Z0.3672 I-0.0433 J0.0619
X0.8694 Y-0.5105 Z0.3497 I-0.0353 J-0.0665
X0.9773 Y-0.579 Z0.3322 I0.0749 J-0.0012
X0.9892 Y-0.4523 Z0.3148 I-0.0329 J0.067
X0.8714 Y-0.4991 Z0.2973 I-0.0446 J-0.0595
X0.9663 Y-0.5824 Z0.2798 I0.073 J-0.0126
X0.9972 Y-0.4605 Z0.2623 I-0.0219 J0.0704
X0.8751 Y-0.4883 Z0.2448 I-0.0526 J-0.0513
X0.955 Y-0.584 Z0.2273 I0.0693 J-0.0234
X1.0037 Y-0.4698 Z0.2098 I-0.0106 J0.072
X0.8803 Y-0.4783 Z0.1924 I-0.0591 J-0.042
X0.9438 Y-0.5839 Z0.1749 I0.064 J-0.0334
X1.0087 Y-0.4798 Z0.1574 I0.0006 J0.0719
X0.887 Y-0.4694 Z0.1399 I-0.064 J-0.032
X0.9328 Y-0.582 Z0.1224 I0.0574 J-0.0423
X1.012 Y-0.4904 Z0.1049 I0.0115 J0.07
X0.8949 Y-0.4617 Z0.0874 I-0.0673 J-0.0215
X0.9225 Y-0.5785 Z0.0699 I0.0496 J-0.05
X1.0136 Y-0.5012 Z0.0525 I0.0219 J0.0666
X0.9037 Y-0.4554 Z0.035 I-0.0689 J-0.0107
X0.9129 Y-0.5735 Z0.0175 I0.0407 J-0.0563
X1.0135 Y-0.5119 Z0. I0.0314 J0.0616
X0.8752 I-0.0692 J0.
X1.0135 I0.0692 J0.
G1 X1.0143 Y-0.4883 F50.
Y-0.4823
X1.0134 Y-0.4764
X1.0117 Y-0.4706
X1.0093 Y-0.4651
X1.0064 Y-0.4599
X1.003 Y-0.4549
X0.9992 Y-0.4503
X0.9949 Y-0.4461
X0.9904 Y-0.4422
X0.9855 Y-0.4387
X0.9803 Y-0.4356
X0.9749 Y-0.433
X0.9694 Y-0.4307
X0.9636 Y-0.4289
X0.9578 Y-0.4276
X0.9519 Y-0.4266
X0.9459 Y-0.4262
X0.9399 Y-0.4261
X0.9339 Y-0.4265
X0.928 Y-0.4273
X0.9221 Y-0.4286
X0.9163 Y-0.4302
X0.9107 Y-0.4323
X0.9052 Y-0.4348
X0.8999 Y-0.4376
X0.8949 Y-0.4408
X0.89 Y-0.4444
X0.8855 Y-0.4483
X0.8812 Y-0.4525
X0.8772 Y-0.4569
X0.8735 Y-0.4617
X0.8702 Y-0.4667
X0.8673 Y-0.4719
X0.8647 Y-0.4773
X0.8624 Y-0.4829
X0.8606 Y-0.4886
X0.8592 Y-0.4944
X0.8582 Y-0.5003
X0.8576 Y-0.5063
X0.8574 Y-0.5123
X0.8576 Y-0.5183
X0.8582 Y-0.5243
X0.8593 Y-0.5302
X0.8608 Y-0.536
X0.8626 Y-0.5417
X0.8649 Y-0.5473
X0.8675 Y-0.5527
X0.8705 Y-0.5579
X0.8738 Y-0.5629
X0.8775 Y-0.5676
X0.8815 Y-0.5721
X0.8858 Y-0.5763
X0.8903 Y-0.5802
X0.8952 Y-0.5837
X0.9002 Y-0.5869
X0.9055 Y-0.5898
X0.911 Y-0.5923
X0.9166 Y-0.5944
X0.9223 Y-0.5961
X0.9282 Y-0.5974
X0.9341 Y-0.5983
X0.9401 Y-0.5988
X0.9461 Y-0.5989
X0.9521 Y-0.5986
X0.958 Y-0.5978
X0.9639 Y-0.5967
X0.9697 Y-0.5951
X0.9754 Y-0.5932
X0.9809 Y-0.5909
X0.9863 Y-0.5881
X0.9914 Y-0.5851
X0.9964 Y-0.5816
X1.001 Y-0.5779
X1.0055 Y-0.5738
X1.0096 Y-0.5695
X1.0134 Y-0.5648
X1.0169 Y-0.5599
X1.02 Y-0.5548
X1.0228 Y-0.5495
X1.0254 Y-0.5441
X1.0278 Y-0.5386
X1.0299 Y-0.533
X1.0317 Y-0.5273
X1.0332 Y-0.5215
X1.0344 Y-0.5156
X1.0353 Y-0.5096
X1.0358 Y-0.5037
X1.0359 Y-0.4977
X1.0356 Y-0.4917
X1.035 Y-0.4857
X1.0339 Y-0.4798
X1.0325 Y-0.474
X1.0307 Y-0.4683
X1.0285 Y-0.4627
X1.0259 Y-0.4573
X1.0229 Y-0.452
X1.0197 Y-0.447
X1.0161 Y-0.4422
X1.0121 Y-0.4377
X1.0079 Y-0.4334
X1.0035 Y-0.4294
X0.9987 Y-0.4257
X0.9938 Y-0.4223
X0.9886 Y-0.4192
X0.9833 Y-0.4165
X0.9778 Y-0.4141
X0.9722 Y-0.412
X0.9664 Y-0.4103
X0.9606 Y-0.4089
X0.9547 Y-0.4079
X0.9487 Y-0.4073
X0.9427 Y-0.407
X0.9367 Y-0.4071
X0.9307 Y-0.4075
X0.9248 Y-0.4083
X0.9189 Y-0.4095
X0.9131 Y-0.4109
X0.9074 Y-0.4128
X0.9018 Y-0.4149
X0.8963 Y-0.4174
X0.891 Y-0.4202
X0.8858 Y-0.4232
X0.8809 Y-0.4266
X0.8761 Y-0.4303
X0.8716 Y-0.4342
X0.8673 Y-0.4384
X0.8632 Y-0.4428
X0.8594 Y-0.4474
X0.8559 Y-0.4523
X0.8526 Y-0.4573
X0.8497 Y-0.4626
X0.847 Y-0.4679
X0.8447 Y-0.4735
X0.8426 Y-0.4791
X0.8409 Y-0.4849
X0.8395 Y-0.4907
X0.8385 Y-0.4966
X0.8378 Y-0.5026
X0.8374 Y-0.5086
Y-0.5146
X0.8377 Y-0.5205
X0.8383 Y-0.5265
X0.8393 Y-0.5324
X0.8406 Y-0.5383
X0.8422 Y-0.5441
X0.8441 Y-0.5497
X0.8464 Y-0.5553
X0.849 Y-0.5607
X0.8519 Y-0.566
X0.855 Y-0.5711
X0.8585 Y-0.576
X0.8622 Y-0.5807
X0.8662 Y-0.5852
X0.8704 Y-0.5895
X0.8748 Y-0.5935
X0.8795 Y-0.5972
X0.8844 Y-0.6007
X0.8895 Y-0.604
X0.8947 Y-0.6069
X0.9001 Y-0.6095
X0.9056 Y-0.6118
X0.9113 Y-0.6139
X0.917 Y-0.6155
X0.9229 Y-0.6169
X0.9288 Y-0.618
X0.9347 Y-0.6187
X0.9407 Y-0.619
X0.9467 Y-0.6191
X0.9527 Y-0.6188
X0.9587 Y-0.6181
X0.9646 Y-0.6172
X0.9705 Y-0.6159
X0.9762 Y-0.6142
X0.9819 Y-0.6123
X0.9875 Y-0.61
X0.9929 Y-0.6075
X0.9982 Y-0.6046
X1.0033 Y-0.6014
X1.0082 Y-0.598
X1.0129 Y-0.5943
X1.0174 Y-0.5903
X1.0217 Y-0.5862
X1.0259 Y-0.5818
X1.0298 Y-0.5773
X1.0334 Y-0.5725
X1.0369 Y-0.5676
X1.0401 Y-0.5625
X1.0431 Y-0.5573
X1.0458 Y-0.552
X1.0482 Y-0.5465
X1.0504 Y-0.5409
X1.0523 Y-0.5352
X1.0539 Y-0.5294
X1.0552 Y-0.5236
X1.0562 Y-0.5177
X1.057 Y-0.5117
X1.0572 Y-0.5078
X1.0573 Y-0.5048
Y-0.5018
Y-0.5017
X1.0569 Y-0.4929
X1.0564 Y-0.4869
X1.0555 Y-0.481
X1.0544 Y-0.4751
X1.049 Y-0.4594
X1.0411 Y-0.4448
X1.0309 Y-0.4317
X1.0187 Y-0.4205
X1.0048 Y-0.4114
X0.9896 Y-0.4048
X0.9735 Y-0.4007
X0.957 Y-0.3994
G3 X0.9299 Y-0.4123 I0.0013 J-0.0375
X0.9314 Y-0.4629 I0.0284 J-0.0245 F300.
G1 X0.9929 Y-0.5265
G3 X1.0443 Y-0.5288 I0.0269 J0.0261
X1.0573 Y-0.5017 I-0.0245 J0.0284 F50.
G1 Y-0.4647
X1.057 Y-0.4587
X1.0563 Y-0.4527
X1.055 Y-0.4469
X1.0491 Y-0.4337
X1.0407 Y-0.4221
X1.03 Y-0.4125
X1.0175 Y-0.4053
X1.0038 Y-0.4009
X0.9895 Y-0.3994
G3 X0.9601 Y-0.4078 I0.0022 J-0.0634
X0.931 Y-0.4812 I0.0316 J-0.055 F300.
X1.049 Y-0.4941 I0.0618 J0.0188
X1.0573 Y-0.4647 I-0.0562 J0.0317 F50.
G1 Y-0.4456
Y-0.4422
Y-0.4409
X1.0569 Y-0.4349
X1.0538 Y-0.4254
X1.0485 Y-0.4168
X1.0415 Y-0.4096
X1.0331 Y-0.4041
X1.0237 Y-0.4007
X1.0137 Y-0.3994
G3 X0.9859 Y-0.411 I0.0007 J-0.0408
X0.976 Y-0.4539 I0.0286 J-0.0292 F300.
X1.0457 Y-0.4688 I0.0394 J0.0141
X1.0573 Y-0.4409 I-0.0302 J0.029 F50.
G1 X1.0572 Y-0.4344
X1.0569 Y-0.4316
X1.056 Y-0.4274
X1.0546 Y-0.4232
X1.0518 Y-0.4176
X1.0498 Y-0.4148
X1.0475 Y-0.412
X1.0457 Y-0.4101
X1.0429 Y-0.4076
X1.0401 Y-0.4055
X1.0345 Y-0.4025
X1.0296 Y-0.4007
X1.0232 Y-0.3995
X1.012 Y-0.3994
X0.916
X0.91 Y-0.3997
X0.9041 Y-0.4003
X0.8982 Y-0.4014
X0.8924 Y-0.4029
X0.8867 Y-0.4048
X0.8811 Y-0.4071
X0.8757 Y-0.4097
X0.8705 Y-0.4126
X0.8654 Y-0.4159
X0.8606 Y-0.4194
X0.8559 Y-0.4232
X0.8515 Y-0.4273
X0.8473 Y-0.4315
X0.8433 Y-0.436
X0.8396 Y-0.4407
X0.8361 Y-0.4456
X0.8329 Y-0.4507
X0.83 Y-0.4559
X0.8273 Y-0.4613
X0.8248 Y-0.4668
X0.8227 Y-0.4724
X0.8208 Y-0.4781
X0.8193 Y-0.4839
X0.818 Y-0.4897
X0.8169 Y-0.4956
X0.8162 Y-0.5016
X0.8158 Y-0.5076
X0.8156 Y-0.5136
X0.8158 Y-0.5196
X0.8162 Y-0.5256
X0.8169 Y-0.5315
X0.8179 Y-0.5374
X0.8192 Y-0.5433
X0.8207 Y-0.5491
X0.8226 Y-0.5549
X0.8293 Y-0.5696
X0.8382 Y-0.5831
X0.849 Y-0.595
X0.8615 Y-0.6052
X0.8754 Y-0.6134
X0.8904 Y-0.6194
X0.9061 Y-0.623
X0.9222 Y-0.6243
X0.9733
X0.9793 Y-0.624
X0.9852 Y-0.6234
X0.9912 Y-0.6224
X0.997 Y-0.6209
X1.0114 Y-0.6147
X1.0245 Y-0.6061
X1.0358 Y-0.5952
X1.045 Y-0.5825
X1.0518 Y-0.5684
X1.0559 Y-0.5532
X1.0573 Y-0.5376
G3 X1.0505 Y-0.5076 I-0.0815 J-0.0028
X0.9527 Y-0.4622 I-0.0747 J-0.0328 F300.
X0.9433 Y-0.6175 I0.0234 J-0.0794
X0.9733 Y-0.6243 I0.0329 J0.0759 F50.
G1 X1.0026
X1.0086 Y-0.624
X1.0146 Y-0.623
X1.0203 Y-0.6214
X1.0307 Y-0.6162
X1.0397 Y-0.6089
X1.0472 Y-0.6001
X1.0528 Y-0.5899
X1.0562 Y-0.5788
X1.0573 Y-0.5673
G3 X1.0476 Y-0.5384 I-0.0531 J-0.0019
X0.9886 Y-0.5183 I-0.0434 J-0.0307 F300.
X0.9737 Y-0.6147 I0.0159 J-0.0518
X1.0026 Y-0.6243 I0.0308 J0.0445 F50.
G1 X1.012
X1.0232 Y-0.6241
X1.0288 Y-0.6231
X1.0345 Y-0.6211
X1.0399 Y-0.6182
X1.0426 Y-0.6163
X1.0453 Y-0.6139
X1.0457 Y-0.6136
X1.0482 Y-0.6108
X1.0503 Y-0.6081
X1.0535 Y-0.6027
X1.0556 Y-0.5972
X1.0569 Y-0.5917
X1.057 Y-0.5915
X1.0573 Y-0.5802
Y-0.5018
G3 X1.0443 Y-0.4747 I-0.0375 J-0.0013
G1 X1.0422 Y-0.4729 F300.
X1.0399 Y-0.4714
X0.9441 Y-0.411
X0.9347 Y-0.4051 F50.
G3 X0.916 Y-0.3994 I-0.02 J-0.0317
G1 X0.8851
X0.8791 Y-0.3997
X0.8732 Y-0.4005
X0.8673 Y-0.4019
X0.8617 Y-0.4038
X0.8561 Y-0.4061
X0.8508 Y-0.4088
X0.8456 Y-0.4119
X0.8407 Y-0.4153
X0.836 Y-0.419
X0.8315 Y-0.423
X0.8272 Y-0.4272
X0.8232 Y-0.4317
X0.8194 Y-0.4363
X0.8159 Y-0.4412
X0.8126 Y-0.4462
X0.8095 Y-0.4514
X0.8067 Y-0.4567
X0.8042 Y-0.4621
X0.8019 Y-0.4676
X0.7999 Y-0.4733
X0.7981 Y-0.479
X0.7966 Y-0.4848
X0.7953 Y-0.4907
X0.7943 Y-0.4966
X0.7936 Y-0.5026
X0.7931 Y-0.5085
X0.7929 Y-0.5145
X0.793 Y-0.5205
X0.7933 Y-0.5265
X0.7939 Y-0.5325
X0.7948 Y-0.5384
X0.7959 Y-0.5443
X0.7973 Y-0.5502
X0.8032 Y-0.5656
X0.8115 Y-0.5799
X0.822 Y-0.5927
X0.8345 Y-0.6037
X0.8485 Y-0.6125
X0.8637 Y-0.619
X0.8798 Y-0.6229
X0.8963 Y-0.6243
X0.9222
G3 X0.9493 Y-0.6113 I-0.0013 J0.0375
X0.9573 Y-0.5778 I-0.0284 J0.0245 F300.
G1 X0.9202 Y-0.4278
G3 X0.9122 Y-0.4123 I-0.0364 J-0.009
X0.8851 Y-0.3994 I-0.0284 J-0.0245 F50.
G1 X0.8599
X0.8539 Y-0.3997
X0.848 Y-0.4005
X0.8422 Y-0.402
X0.8365 Y-0.4041
X0.8311 Y-0.4066
X0.8258 Y-0.4095
X0.8208 Y-0.4127
X0.8159 Y-0.4163
X0.8113 Y-0.4201
X0.807 Y-0.4243
X0.8028 Y-0.4286
X0.7989 Y-0.4332
X0.7953 Y-0.4379
X0.7919 Y-0.4429
X0.7887 Y-0.4479
X0.7857 Y-0.4532
X0.783 Y-0.4585
X0.7806 Y-0.464
X0.7784 Y-0.4696
X0.7764 Y-0.4753
X0.7747 Y-0.481
X0.7732 Y-0.4868
X0.772 Y-0.4927
X0.771 Y-0.4986
X0.7703 Y-0.5046
X0.7698 Y-0.5105
X0.7697 Y-0.5165
Y-0.5225
X0.7701 Y-0.5285
X0.7707 Y-0.5345
X0.7716 Y-0.5404
X0.7728 Y-0.5463
X0.7742 Y-0.5521
X0.78 Y-0.5672
X0.7881 Y-0.5811
X0.7984 Y-0.5936
X0.8105 Y-0.6042
X0.8242 Y-0.6128
X0.839 Y-0.6191
X0.8547 Y-0.623
X0.8708 Y-0.6243
X0.8963
G3 X0.9234 Y-0.6113 I-0.0013 J0.0375
X0.9314 Y-0.578 I-0.0284 J0.0245 F300.
G1 X0.895 Y-0.428
G3 X0.887 Y-0.4123 I-0.0364 J-0.0088
X0.8599 Y-0.3994 I-0.0284 J-0.0245 F50.
G1 X0.8359
X0.8299 Y-0.3997
X0.824 Y-0.4006
X0.8182 Y-0.4022
X0.8126 Y-0.4043
X0.8072 Y-0.4069
X0.802 Y-0.4099
X0.797 Y-0.4132
X0.7922 Y-0.4169
X0.7877 Y-0.4208
X0.7834 Y-0.425
X0.7793 Y-0.4293
X0.7754 Y-0.4339
X0.7718 Y-0.4387
X0.7684 Y-0.4437
X0.7652 Y-0.4488
X0.7623 Y-0.454
X0.7596 Y-0.4594
X0.7572 Y-0.4649
X0.755 Y-0.4705
X0.753 Y-0.4761
X0.7513 Y-0.4819
X0.7499 Y-0.4877
X0.7486 Y-0.4936
X0.7476 Y-0.4995
X0.7469 Y-0.5054
X0.7465 Y-0.5114
X0.7463 Y-0.5174
Y-0.5234
X0.7467 Y-0.5294
X0.7473 Y-0.5354
X0.7482 Y-0.5413
X0.7493 Y-0.5472
X0.7507 Y-0.553
X0.7564 Y-0.5679
X0.7644 Y-0.5817
X0.7745 Y-0.594
X0.7865 Y-0.6045
X0.7999 Y-0.613
X0.8146 Y-0.6192
X0.8301 Y-0.623
X0.8459 Y-0.6243
X0.8708
G3 X0.8979 Y-0.6113 I-0.0013 J0.0375
X0.906 Y-0.5783 I-0.0284 J0.0245 F300.
G1 X0.8711 Y-0.4283
G3 X0.863 Y-0.4123 I-0.0365 J-0.0085
X0.8359 Y-0.3994 I-0.0284 J-0.0245 F50.
G1 X0.8135
X0.8075 Y-0.3997
X0.8015 Y-0.4005
X0.7957 Y-0.4021
X0.7901 Y-0.4042
X0.7847 Y-0.4067
X0.7795 Y-0.4097
X0.7744 Y-0.413
X0.7696 Y-0.4166
X0.7651 Y-0.4205
X0.7607 Y-0.4246
X0.7566 Y-0.429
X0.7527 Y-0.4335
X0.7491 Y-0.4383
X0.7456 Y-0.4432
X0.7424 Y-0.4483
X0.7395 Y-0.4535
X0.7368 Y-0.4589
X0.7343 Y-0.4643
X0.732 Y-0.4699
X0.73 Y-0.4755
X0.7282 Y-0.4813
X0.7267 Y-0.4871
X0.7254 Y-0.4929
X0.7244 Y-0.4988
X0.7236 Y-0.5048
X0.7231 Y-0.5108
X0.7228 Y-0.5168
Y-0.5228
X0.7231 Y-0.5288
X0.7236 Y-0.5347
X0.7244 Y-0.5407
X0.7255 Y-0.5466
X0.7269 Y-0.5524
X0.7271 Y-0.5531
X0.7326 Y-0.5679
X0.7404 Y-0.5817
X0.7504 Y-0.594
X0.7622 Y-0.6045
X0.7755 Y-0.613
X0.7901 Y-0.6192
X0.8054 Y-0.623
X0.8212 Y-0.6243
X0.8459
G3 X0.873 Y-0.6113 I-0.0013 J0.0375
X0.8813 Y-0.5789 I-0.0284 J0.0245 F300.
G1 X0.8488 Y-0.4289
G3 X0.8406 Y-0.4123 I-0.0367 J-0.0079
X0.8135 Y-0.3994 I-0.0284 J-0.0245 F50.
G1 X0.7898
X0.7838 Y-0.3997
X0.7778 Y-0.4006
X0.7721 Y-0.4023
X0.7665 Y-0.4044
X0.7611 Y-0.407
X0.7559 Y-0.41
X0.7509 Y-0.4133
X0.7461 Y-0.417
X0.7415 Y-0.4209
X0.7372 Y-0.425
X0.7331 Y-0.4294
X0.7292 Y-0.434
X0.7256 Y-0.4387
X0.7222 Y-0.4437
X0.719 Y-0.4488
X0.716 Y-0.454
X0.7133 Y-0.4593
X0.7108 Y-0.4648
X0.7085 Y-0.4703
X0.7065 Y-0.476
X0.7048 Y-0.4817
X0.7032 Y-0.4875
X0.7019 Y-0.4934
X0.7009 Y-0.4993
X0.7001 Y-0.5052
X0.6995 Y-0.5112
X0.6993 Y-0.5172
Y-0.5232
X0.6995 Y-0.5292
X0.7001 Y-0.5352
X0.7008 Y-0.5411
X0.7019 Y-0.547
X0.702 Y-0.5475
X0.7071 Y-0.5633
X0.7148 Y-0.5781
X0.7249 Y-0.5914
X0.737 Y-0.6028
X0.7508 Y-0.612
X0.766 Y-0.6187
X0.7821 Y-0.6229
X0.7987 Y-0.6243
X0.8212
G3 X0.8483 Y-0.6113 I-0.0013 J0.0375
X0.8566 Y-0.5791 I-0.0284 J0.0245 F300.
G1 X0.8251 Y-0.4291
G3 X0.8169 Y-0.4123 I-0.0367 J-0.0077
X0.7898 Y-0.3994 I-0.0284 J-0.0245 F50.
G1 X0.7673
X0.7613 Y-0.3997
X0.7554 Y-0.4006
X0.7496 Y-0.4021
X0.744 Y-0.4042
X0.7385 Y-0.4067
X0.7333 Y-0.4097
X0.7283 Y-0.413
X0.7235 Y-0.4165
X0.7189 Y-0.4204
X0.7145 Y-0.4245
X0.7104 Y-0.4289
X0.7064 Y-0.4334
X0.7028 Y-0.4381
X0.6993 Y-0.443
X0.6961 Y-0.4481
X0.6931 Y-0.4533
X0.6903 Y-0.4586
X0.6877 Y-0.4641
X0.6854 Y-0.4696
X0.6834 Y-0.4752
X0.6815 Y-0.4809
X0.68 Y-0.4867
X0.6786 Y-0.4926
X0.6775 Y-0.4985
X0.6767 Y-0.5044
X0.6761 Y-0.5104
X0.6758 Y-0.5164
Y-0.5224
X0.676 Y-0.5284
X0.6765 Y-0.5344
X0.6773 Y-0.5403
X0.6784 Y-0.5463
X0.6835 Y-0.5624
X0.6913 Y-0.5774
X0.7014 Y-0.5908
X0.7137 Y-0.6024
X0.7277 Y-0.6118
X0.7431 Y-0.6186
X0.7594 Y-0.6229
X0.7763 Y-0.6243
X0.7987
G3 X0.8258 Y-0.6113 I-0.0013 J0.0375
X0.8341 Y-0.5791 I-0.0284 J0.0245 F300.
G1 X0.8027 Y-0.4291
G3 X0.7944 Y-0.4123 I-0.0367 J-0.0077
X0.7673 Y-0.3994 I-0.0284 J-0.0245 F50.
G1 X0.7436
X0.7376 Y-0.3997
X0.7317 Y-0.4006
X0.7259 Y-0.4022
X0.7203 Y-0.4044
X0.7149 Y-0.4069
X0.7097 Y-0.4099
X0.7046 Y-0.4132
X0.6998 Y-0.4168
X0.6953 Y-0.4207
X0.6909 Y-0.4248
X0.6868 Y-0.4291
X0.6829 Y-0.4337
X0.6792 Y-0.4384
X0.6757 Y-0.4433
X0.6725 Y-0.4484
X0.6695 Y-0.4536
X0.6667 Y-0.4589
X0.6642 Y-0.4644
X0.6619 Y-0.4699
X0.6598 Y-0.4755
X0.658 Y-0.4813
X0.6565 Y-0.487
X0.6551 Y-0.4929
X0.654 Y-0.4988
X0.6532 Y-0.5047
X0.6527 Y-0.5107
X0.6524 Y-0.5167
Y-0.5227
X0.6527 Y-0.5287
X0.6532 Y-0.5347
X0.654 Y-0.5406
X0.6551 Y-0.5465
X0.6604 Y-0.5626
X0.6682 Y-0.5775
X0.6784 Y-0.5909
X0.6907 Y-0.6025
X0.7047 Y-0.6118
X0.7202 Y-0.6187
X0.7365 Y-0.6229
X0.7533 Y-0.6243
X0.7763
G3 X0.8034 Y-0.6113 I-0.0013 J0.0375
X0.8116 Y-0.5788 I-0.0284 J0.0245 F300.
G1 X0.7789 Y-0.4288
G3 X0.7707 Y-0.4123 I-0.0366 J-0.008
X0.7436 Y-0.3994 I-0.0284 J-0.0245 F50.
G1 X0.7201
X0.7141 Y-0.3997
X0.7082 Y-0.4006
X0.7024 Y-0.4023
X0.6968 Y-0.4044
X0.6914 Y-0.407
X0.6862 Y-0.41
X0.6812 Y-0.4133
X0.6764 Y-0.4169
X0.6718 Y-0.4207
X0.6675 Y-0.4249
X0.6633 Y-0.4292
X0.6594 Y-0.4338
X0.6557 Y-0.4385
X0.6523 Y-0.4434
X0.649 Y-0.4485
X0.646 Y-0.4537
X0.6433 Y-0.459
X0.6408 Y-0.4644
X0.6385 Y-0.47
X0.6364 Y-0.4756
X0.6346 Y-0.4813
X0.6331 Y-0.4871
X0.6317 Y-0.493
X0.6307 Y-0.4989
X0.6299 Y-0.5048
X0.6294 Y-0.5108
X0.6291 Y-0.5168
Y-0.5228
X0.6294 Y-0.5288
X0.6299 Y-0.5348
X0.6307 Y-0.5407
X0.6319 Y-0.5466
X0.6371 Y-0.5626
X0.645 Y-0.5776
X0.6552 Y-0.591
X0.6676 Y-0.6025
X0.6816 Y-0.6118
X0.697 Y-0.6187
X0.7134 Y-0.6229
X0.7302 Y-0.6243
X0.7533
G3 X0.7804 Y-0.6113 I-0.0013 J0.0375
X0.7886 Y-0.5787 I-0.0284 J0.0245 F300.
G1 X0.7554 Y-0.4287
G3 X0.7472 Y-0.4123 I-0.0366 J-0.0081
X0.7201 Y-0.3994 I-0.0284 J-0.0245 F50.
G1 X0.6977
X0.6917 Y-0.3997
X0.6857 Y-0.4005
X0.6799 Y-0.402
X0.6743 Y-0.4041
X0.6689 Y-0.4066
X0.6636 Y-0.4095
X0.6586 Y-0.4128
X0.6537 Y-0.4163
X0.6491 Y-0.4202
X0.6447 Y-0.4242
X0.6405 Y-0.4286
X0.6366 Y-0.4331
X0.6329 Y-0.4378
X0.6294 Y-0.4427
X0.6261 Y-0.4477
X0.6231 Y-0.4529
X0.6203 Y-0.4582
X0.6178 Y-0.4636
X0.6154 Y-0.4691
X0.6134 Y-0.4748
X0.6115 Y-0.4805
X0.6099 Y-0.4863
X0.6086 Y-0.4921
X0.6075 Y-0.498
X0.6067 Y-0.504
X0.6061 Y-0.5099
X0.6058 Y-0.5159
Y-0.5219
X0.606 Y-0.5279
X0.6065 Y-0.5339
X0.6073 Y-0.5398
X0.6084 Y-0.5458
X0.6098 Y-0.5516
X0.6153 Y-0.5667
X0.6232 Y-0.5807
X0.6333 Y-0.5933
X0.6453 Y-0.604
X0.6589 Y-0.6127
X0.6736 Y-0.6191
X0.6893 Y-0.623
X0.7053 Y-0.6243
X0.7302
G3 X0.7573 Y-0.6113 I-0.0013 J0.0375
X0.7655 Y-0.5788 I-0.0284 J0.0245 F300.
G1 X0.733 Y-0.4289
G3 X0.7248 Y-0.4123 I-0.0366 J-0.008
X0.6977 Y-0.3994 I-0.0284 J-0.0245 F50.
G1 X0.6734
X0.6674 Y-0.3997
X0.6614 Y-0.4007
X0.6557 Y-0.4023
X0.6501 Y-0.4044
X0.6446 Y-0.407
X0.6394 Y-0.41
X0.627 Y-0.4197
X0.6163 Y-0.4314
X0.6077 Y-0.4446
X0.6014 Y-0.4591
X0.5975 Y-0.4744
X0.5962 Y-0.4902
G3 X0.6034 Y-0.5201 I0.0768 J0.0027
X0.705 Y-0.5573 I0.0696 J0.0325 F300.
X0.7033 Y-0.4061 I-0.0346 J0.0752
X0.6734 Y-0.3994 I-0.0329 J-0.076 F50.
G1 X0.6509
X0.6449 Y-0.3997
X0.639 Y-0.4006
X0.6272 Y-0.4056
X0.6168 Y-0.4129
X0.6081 Y-0.4222
X0.6016 Y-0.4332
X0.5976 Y-0.4453
X0.5962 Y-0.458
G3 X0.6059 Y-0.4869 I0.0534 J0.0019
X0.6669 Y-0.5067 I0.0436 J0.0308 F300.
X0.6799 Y-0.4088 I-0.0179 J0.0522
X0.6509 Y-0.3994 I-0.0309 J-0.0457 F50.
G1 X0.6415
X0.6313 Y-0.3995
X0.6303
X0.624 Y-0.4007
X0.6191 Y-0.4025
X0.6135 Y-0.4055
X0.6107 Y-0.4076
X0.6079 Y-0.4101
X0.606 Y-0.412
X0.6037 Y-0.4148
X0.6018 Y-0.4176
X0.5989 Y-0.4232
X0.5975 Y-0.4274
X0.5966 Y-0.4316
X0.5963 Y-0.4344
X0.5962 Y-0.4456
Y-0.5466
X0.5965 Y-0.5526
X0.5972 Y-0.5585
X0.601 Y-0.572
X0.6071 Y-0.5846
X0.6152 Y-0.5959
X0.6252 Y-0.6057
X0.6367 Y-0.6137
X0.6494 Y-0.6195
X0.6629 Y-0.6231
X0.6769 Y-0.6243
G3 X0.7067 Y-0.617 I-0.0026 J0.0754
X0.7464 Y-0.527 I-0.0325 J0.0681 F300.
X0.6034 Y-0.5167 I-0.0735 J-0.0223
X0.5962 Y-0.5466 I0.0696 J-0.0325 F50.
G1 Y-0.5724
X0.5965 Y-0.5784
X0.5973 Y-0.5843
X0.6016 Y-0.5953
X0.6081 Y-0.605
X0.6166 Y-0.6131
X0.6267 Y-0.6192
X0.6378 Y-0.623
X0.6494 Y-0.6243
G3 X0.6781 Y-0.6141 I-0.0018 J0.0503
X0.696 Y-0.56 I-0.0304 J0.04 F300.
X0.6063 Y-0.5437 I-0.0489 J-0.0142
X0.5962 Y-0.5724 I0.0408 J-0.0305 F50.
G1 Y-0.5802
X0.5966 Y-0.5915
Y-0.5917
X0.5979 Y-0.5972
X0.6001 Y-0.6027
X0.6033 Y-0.6081
X0.6053 Y-0.6108
X0.6079 Y-0.6136
X0.6082 Y-0.6139
X0.6109 Y-0.6163
X0.6136 Y-0.6182
X0.6191 Y-0.6211
X0.6247 Y-0.6231
X0.6303 Y-0.6241
X0.6415 Y-0.6243
X0.7053
G3 X0.7324 Y-0.6113 I-0.0013 J0.0375
G1 X0.7354 Y-0.6079 Z0.0003
X0.7383 Y-0.6045 Z0.0011
X0.7411 Y-0.6012 Z0.0024
X0.7438 Y-0.5981 Z0.0043
X0.7463 Y-0.5951 Z0.0066
X0.7487 Y-0.5924 Z0.0094
X0.7507 Y-0.59 Z0.0126
X0.7526 Y-0.5879 Z0.0162
X0.7541 Y-0.5861 Z0.0201
X0.7553 Y-0.5847 Z0.0242
X0.7562 Y-0.5837 Z0.0285
X0.7567 Y-0.5831 Z0.033
X0.7569 Y-0.5829 Z0.0375
G0 Z2.1612
(2D CONTOUR7)
G64 P0.0004 Q0.0004
G0 X-0.2745 Y-0.5238
Z2.1612
Z1.7612
G1 Z1.6006 F80.
Z0.4706
G19 G2 Y-0.5613 Z0.4331 J-0.0375 K0. F30.
G1 Y-0.5988
G17 G3 X-0.237 Y-0.6363 I0.0375 J0.
G1 X1.063
X1.6099
X1.8099
G3 X1.8474 Y-0.5988 I0. J0.0375
G1 Y-0.5613
G19 G3 Y-0.5238 Z0.4706 J0. K0.0375
G0 Z1.7612
X1.9281 Y-0.4999
G1 Z1.6006 F80.
Z0.4706
G3 Y-0.4624 Z0.4331 J0.0375 K0. F30.
G1 Y-0.4249
G17 G3 X1.8906 Y-0.3874 I-0.0375 J0.
G1 X0.5906
X0.0914
X-0.1086
G3 X-0.1461 Y-0.4249 I0. J-0.0375
G1 Y-0.4624
G19 G2 Y-0.4999 Z0.4706 J0. K0.0375
G0 Z1.7612
X-0.2745 Y-0.5238
G1 Z1.6006 F80.
Z0.4706
G2 Y-0.5613 Z0.4331 J-0.0375 K0. F30.
G1 Y-0.5988
G17 G3 X-0.237 Y-0.6363 I0.0375 J0.
G1 X1.063
X1.6099
X1.8099
G3 X1.8474 Y-0.5988 I0. J0.0375
G1 Y-0.5613
G19 G3 Y-0.5238 Z0.4706 J0. K0.0375
G0 Z1.7612
X1.9281 Y-0.4999
G1 Z1.6006 F80.
Z0.4706
G3 Y-0.4624 Z0.4331 J0.0375 K0. F30.
G1 Y-0.4249
G17 G3 X1.8906 Y-0.3874 I-0.0375 J0.
G1 X0.5906
X0.0914
X-0.1086
G3 X-0.1461 Y-0.4249 I0. J-0.0375
G1 Y-0.4624
G19 G2 Y-0.4999 Z0.4706 J0. K0.0375
G0 Z2.1612
G17
(2D CONTOUR8)
G0 X0.6712 Y-0.5238
Z2.1612
Z1.7612
G1 Z1.6006 F80.
Z0.0375
G19 G2 Y-0.5613 Z0. J-0.0375 K0. F30.
G1 Y-0.5988
G17 G3 X0.7087 Y-0.6363 I0.0375 J0.
G1 X1.063
X1.065 Y-0.636
X1.0667 Y-0.6351
X1.0681 Y-0.6337
X1.069 Y-0.6319
X1.0693 Y-0.6299
Y-0.3937
X1.069 Y-0.3917
X1.0681 Y-0.39
X1.0667 Y-0.3886
X1.065 Y-0.3877
X1.063 Y-0.3874
X0.5906
X0.5886 Y-0.3877
X0.5868 Y-0.3886
X0.5854 Y-0.39
X0.5845 Y-0.3917
X0.5842 Y-0.3937
Y-0.6299
X0.5845 Y-0.6319
X0.5854 Y-0.6337
X0.5868 Y-0.6351
X0.5886 Y-0.636
X0.5906 Y-0.6363
X1.063
X1.065 Y-0.636
X1.0667 Y-0.6351
X1.0681 Y-0.6337
X1.069 Y-0.6319
X1.0693 Y-0.6299
Y-0.3937
X1.069 Y-0.3917
X1.0681 Y-0.39
X1.0667 Y-0.3886
X1.065 Y-0.3877
X1.063 Y-0.3874
X0.5906
X0.5886 Y-0.3877
X0.5868 Y-0.3886
X0.5854 Y-0.39
X0.5845 Y-0.3917
X0.5842 Y-0.3937
Y-0.6299
X0.5845 Y-0.6319
X0.5854 Y-0.6337
X0.5868 Y-0.6351
X0.5886 Y-0.636
X0.5906 Y-0.6363
X0.7087
G3 X0.7462 Y-0.5988 I0. J0.0375
G1 Y-0.5613
G19 G3 Y-0.5238 Z0.0375 J0. K0.0375
G0 Z2.1612
G17
M5
M9
G53 G0 Z0.
M30
%
