%
(DOG SIGN NUMBERS)
(T13 D=0.375 CR=0. TAPER=45DEG - ZMIN=-0.05 - CHAMFER MILL)
(T31 D=0.125 CR=0. - ZMIN=-0.0787 - FLAT END MILL)
G90 G94 G17 G91.1
G20
G53 G0 Z0.
(2D CONTOUR2)
T31 M6
T13
S7500 M3
G17 G90 G94
G54
G64 P0.0004 Q0.0004
M8
G0 X-0.5017 Y0.1498
G43 Z0.6 H31
G0 Z0.2213
G1 X-0.5015 Y0.1496 Z0.2078 F10.
X-0.5008 Y0.1491 Z0.1944
X-0.4996 Y0.1482 Z0.181
X-0.4979 Y0.1469 Z0.1677
X-0.4958 Y0.1453 Z0.1545
X-0.4931 Y0.1433 Z0.1414
X-0.4901 Y0.1409 Z0.1286
X-0.4865 Y0.1382 Z0.1158
X-0.4825 Y0.1352 Z0.1034
X-0.4781 Y0.1318 Z0.0911
X-0.4733 Y0.1281 Z0.0791
X-0.468 Y0.1241 Z0.0674
X-0.4623 Y0.1197 Z0.056
X-0.4562 Y0.1151 Z0.0449
X-0.4497 Y0.1101 Z0.0342
X-0.4428 Y0.1049 Z0.0239
X-0.4356 Y0.0994 Z0.0139
X-0.4281 Y0.0936 Z0.0044
X-0.4202 Y0.0876 Z-0.0047
X-0.4119 Y0.0813 Z-0.0133
X-0.4034 Y0.0748 Z-0.0214
X-0.3946 Y0.0681 Z-0.0291
X-0.3856 Y0.0612 Z-0.0363
X-0.3763 Y0.0541 Z-0.0429
X-0.3667 Y0.0468 Z-0.049
X-0.357 Y0.0394 Z-0.0546
X-0.347 Y0.0318 Z-0.0596
X-0.3369 Y0.0241 Z-0.0641
X-0.3267 Y0.0163 Z-0.0679
X-0.3163 Y0.0083 Z-0.0712
X-0.3058 Y0.0003 Z-0.0739
X-0.2952 Y-0.0077 Z-0.076
X-0.2846 Y-0.0158 Z-0.0775
X-0.2739 Y-0.024 Z-0.0784
X-0.2632 Y-0.0322 Z-0.0787
X-0.2533 Y-0.0397
G3 X-0.2358 Y-0.0374 I0.0076 J0.0099
X-0.0908 Y0.1854 I-1.0963 J0.872
X-0.0018 Y0.4877 I-0.743 J0.383
X-0.0165 Y0.7213 I-0.7443 J0.0705
X-0.1915 Y1.0146 I-0.5706 J-0.1418
X-0.4367 Y1.1555 I-0.4191 J-0.4452
X-0.6176 Y1.1912 I-0.2482 J-0.7818
X-0.9764 Y1.1684 I-0.1098 J-1.1056
X-1.2128 Y1.0663 I0.1874 J-0.7581
X-1.3453 Y0.9463 I0.2971 J-0.4612
X-1.4503 Y0.7411 I0.5248 J-0.398
X-1.4893 Y0.5735 I0.947 J-0.3086
G1 X-1.4891 Y0.5734
X-1.489 Y0.5733
X-1.4889
X-1.4873 Y0.573
X-1.1403 Y0.539
X-1.1388 Y0.5389
X-1.1387
X-1.1386
X-1.1385
G2 X-1.111 Y0.6651 I0.7287 J-0.0928
X-1.0375 Y0.8011 I0.3844 J-0.1199
X-0.8156 Y0.9183 I0.2678 J-0.2386
X-0.592 Y0.9015 I0.0763 J-0.4829
X-0.3663 Y0.642 I-0.1109 J-0.3242
X-0.4019 Y0.3139 I-0.5119 J-0.1105
X-0.5315 Y0.1172 I-0.6188 J0.2666
X-0.7108 Y-0.0681 I-2.4239 J2.167
X-0.9407 Y-0.2864 I-8.8774 J9.1154
G3 X-1.2323 Y-0.5884 I3.3917 J-3.5681
X-1.3575 Y-0.7473 I1.6024 J-1.39
X-1.5408 Y-1.1901 I0.9093 J-0.6359
G1 X-1.5404 Y-1.1902
X-1.5386 Y-1.1903
X0.0039 Y-1.1875
X0.0043 Y-1.1873
X0.0044 Y-1.187
X0.0039 Y-0.8679
X0.0037 Y-0.8676
X0.0034 Y-0.8674
X-0.7647 Y-0.8688
X-0.7691 Y-0.8686
X-0.7779 Y-0.868
X-0.7823 Y-0.8676
X-0.7866 Y-0.8668
X-0.7953 Y-0.865
X-0.7995 Y-0.8639
X-0.8037 Y-0.8625
X-0.8121 Y-0.8595
X-0.8161 Y-0.8578
X-0.8201 Y-0.8559
X-0.8279 Y-0.8517
X-0.8317 Y-0.8495
X-0.8353 Y-0.847
X-0.8425 Y-0.8418
X-0.846 Y-0.8391
X-0.8492 Y-0.8361
X-0.8556 Y-0.8299
X-0.8586 Y-0.8268
X-0.8614 Y-0.8234
X-0.8668 Y-0.8164
X-0.8694 Y-0.8128
X-0.8717 Y-0.809
X-0.8761 Y-0.8013
X-0.8781 Y-0.7974
X-0.8799 Y-0.7934
X-0.8831 Y-0.7852
X-0.8846 Y-0.781
X-0.8857 Y-0.7768
X-0.8878 Y-0.7682
X-0.8887 Y-0.7639
X-0.8893 Y-0.7595
X-0.8901 Y-0.7507
X-0.8903 Y-0.7463
Y-0.7419
X-0.8899 Y-0.733
X-0.8895 Y-0.7287
X-0.8889 Y-0.7243
X-0.8872 Y-0.7156
X-0.8862 Y-0.7113
X-0.885 Y-0.7071
X-0.8821 Y-0.6987
X-0.8805 Y-0.6946
X-0.8787 Y-0.6906
X-0.8747 Y-0.6827
X-0.8726 Y-0.6789
X-0.8702 Y-0.6752
X-0.8651 Y-0.6679
X-0.8617 Y-0.6635
G2 X-0.7467 Y-0.5424 I0.9375 J-0.7751
X-0.5034 Y-0.3144 I6.876 J-7.0943
G3 X-0.2893 Y-0.101 I-2.9435 J3.1666
X-0.0908 Y0.1853 I-1.0548 J0.9436
X-0.0038 Y0.4687 I-0.7495 J0.3853
X-0.013 Y0.7061 I-0.7672 J0.089
X-0.1915 Y1.0146 I-0.5733 J-0.1259
X-0.4367 Y1.1555 I-0.4189 J-0.4449
X-0.6176 Y1.1912 I-0.2482 J-0.7814
X-0.9764 Y1.1684 I-0.1099 J-1.1056
X-1.2128 Y1.0663 I0.1873 J-0.7581
X-1.3453 Y0.9463 I0.2971 J-0.4612
X-1.4503 Y0.7411 I0.5248 J-0.398
X-1.4893 Y0.5735 I0.947 J-0.3086
G1 X-1.4891 Y0.5734
X-1.489 Y0.5733
X-1.4889
X-1.4873 Y0.573
X-1.1403 Y0.539
X-1.1388 Y0.5389
X-1.1387
X-1.1386
X-1.1385
G2 X-1.111 Y0.6651 I0.7287 J-0.0928
X-1.0375 Y0.8011 I0.3844 J-0.1199
X-0.8156 Y0.9183 I0.2678 J-0.2386
X-0.592 Y0.9015 I0.0763 J-0.4829
X-0.3663 Y0.642 I-0.1109 J-0.3242
X-0.4019 Y0.3139 I-0.5119 J-0.1105
X-0.5315 Y0.1172 I-0.6188 J0.2666
X-0.7108 Y-0.0681 I-2.4239 J2.167
X-0.9407 Y-0.2864 I-8.8774 J9.1154
G3 X-1.2323 Y-0.5884 I3.3917 J-3.5681
X-1.3575 Y-0.7473 I1.6024 J-1.39
X-1.5408 Y-1.1901 I0.9093 J-0.6359
G1 X-1.5404 Y-1.1902
X-1.5386 Y-1.1903
X0.0039 Y-1.1875
X0.0043 Y-1.1873
X0.0044 Y-1.187
X0.0039 Y-0.8679
X0.0037 Y-0.8676
X0.0034 Y-0.8674
X-0.7647 Y-0.8688
X-0.7691 Y-0.8686
X-0.7779 Y-0.868
X-0.7823 Y-0.8676
X-0.7866 Y-0.8668
X-0.7953 Y-0.865
X-0.7995 Y-0.8639
X-0.8037 Y-0.8625
X-0.8121 Y-0.8595
X-0.8161 Y-0.8578
X-0.8201 Y-0.8559
X-0.8279 Y-0.8517
X-0.8317 Y-0.8495
X-0.8353 Y-0.847
X-0.8425 Y-0.8418
X-0.846 Y-0.8391
X-0.8492 Y-0.8361
X-0.8556 Y-0.8299
X-0.8586 Y-0.8268
X-0.8614 Y-0.8234
X-0.8668 Y-0.8164
X-0.8694 Y-0.8128
X-0.8717 Y-0.809
X-0.8761 Y-0.8013
X-0.8781 Y-0.7974
X-0.8799 Y-0.7934
X-0.8831 Y-0.7852
X-0.8846 Y-0.781
X-0.8857 Y-0.7768
X-0.8878 Y-0.7682
X-0.8887 Y-0.7639
X-0.8893 Y-0.7595
X-0.8901 Y-0.7507
X-0.8903 Y-0.7463
Y-0.7419
X-0.8899 Y-0.733
X-0.8895 Y-0.7287
X-0.8889 Y-0.7243
X-0.8872 Y-0.7156
X-0.8862 Y-0.7113
X-0.885 Y-0.7071
X-0.8821 Y-0.6987
X-0.8805 Y-0.6946
X-0.8787 Y-0.6906
X-0.8747 Y-0.6827
X-0.8726 Y-0.6789
X-0.8702 Y-0.6752
X-0.8651 Y-0.6679
X-0.8617 Y-0.6635
G2 X-0.7467 Y-0.5424 I0.9375 J-0.7751
X-0.5034 Y-0.3144 I6.876 J-7.0943
G3 X-0.2893 Y-0.101 I-2.9435 J3.1666
X-0.2357 Y-0.0374 I-1.0871 J0.9712
G1 X-0.2344 Y-0.0353
X-0.2336 Y-0.033
X-0.2332 Y-0.0306
X-0.2333 Y-0.0281
X-0.2339 Y-0.0257
X-0.2349 Y-0.0235
X-0.2363 Y-0.0215
X-0.2381 Y-0.0199
X-0.2481 Y-0.0123
X-0.2588 Y-0.0041 Z-0.0784
X-0.2694 Y0.004 Z-0.0775
X-0.2801 Y0.0122 Z-0.076
X-0.2907 Y0.0202 Z-0.0739
X-0.3011 Y0.0282 Z-0.0712
X-0.3115 Y0.0361 Z-0.0679
X-0.3218 Y0.044 Z-0.0641
X-0.3319 Y0.0517 Z-0.0596
X-0.3418 Y0.0592 Z-0.0546
X-0.3516 Y0.0667 Z-0.049
X-0.3611 Y0.074 Z-0.0429
X-0.3704 Y0.0811 Z-0.0363
X-0.3795 Y0.088 Z-0.0291
X-0.3883 Y0.0947 Z-0.0214
X-0.3968 Y0.1012 Z-0.0133
X-0.405 Y0.1075 Z-0.0047
X-0.4129 Y0.1135 Z0.0044
X-0.4205 Y0.1193 Z0.0139
X-0.4277 Y0.1248 Z0.0239
X-0.4345 Y0.13 Z0.0342
X-0.441 Y0.1349 Z0.0449
X-0.4471 Y0.1396 Z0.056
X-0.4528 Y0.1439 Z0.0674
X-0.4581 Y0.148 Z0.0791
X-0.463 Y0.1517 Z0.0911
X-0.4674 Y0.1551 Z0.1034
X-0.4714 Y0.1581 Z0.1158
X-0.4749 Y0.1608 Z0.1286
X-0.478 Y0.1631 Z0.1414
X-0.4806 Y0.1651 Z0.1545
X-0.4827 Y0.1668 Z0.1677
X-0.4844 Y0.168 Z0.181
X-0.4856 Y0.169 Z0.1944
X-0.4863 Y0.1695 Z0.2078
X-0.4866 Y0.1697 Z0.2213
G0 X1.037 Y0.8699
G1 Y0.8696 Z0.2078 F10.
Y0.8687 Z0.1944
X1.0371 Y0.8672 Z0.181
X1.0372 Y0.8651 Z0.1677
X1.0373 Y0.8624 Z0.1545
X1.0374 Y0.8591 Z0.1414
X1.0376 Y0.8553 Z0.1286
X1.0378 Y0.8508 Z0.1158
X1.038 Y0.8458 Z0.1034
X1.0382 Y0.8402 Z0.0911
X1.0384 Y0.8341 Z0.0791
X1.0387 Y0.8275 Z0.0674
X1.039 Y0.8203 Z0.056
X1.0393 Y0.8127 Z0.0449
X1.0396 Y0.8045 Z0.0342
X1.04 Y0.7959 Z0.0239
X1.0403 Y0.7868 Z0.0139
X1.0407 Y0.7773 Z0.0044
X1.0411 Y0.7674 Z-0.0047
X1.0415 Y0.7571 Z-0.0133
X1.042 Y0.7464 Z-0.0214
X1.0424 Y0.7353 Z-0.0291
X1.0429 Y0.7239 Z-0.0363
X1.0433 Y0.7122 Z-0.0429
X1.0438 Y0.7002 Z-0.049
X1.0443 Y0.688 Z-0.0546
X1.0448 Y0.6755 Z-0.0596
X1.0453 Y0.6628 Z-0.0641
X1.0458 Y0.6499 Z-0.0679
X1.0464 Y0.6369 Z-0.0712
X1.0469 Y0.6237 Z-0.0739
X1.0474 Y0.6104 Z-0.076
X1.048 Y0.597 Z-0.0775
X1.0485 Y0.5836 Z-0.0784
X1.049 Y0.5702 Z-0.0787
X1.0495 Y0.5577
G3 X1.0625 Y0.5457 I0.0125 J0.0005
G1 X1.0713 Y0.546
X1.0757 Y0.5461
X1.0801 Y0.5458
X1.0888 Y0.5449
X1.0932 Y0.5443
X1.0974 Y0.5434
X1.106 Y0.5413
X1.1102 Y0.5402
X1.1143 Y0.5387
X1.1225 Y0.5354
X1.1265 Y0.5337
X1.1304 Y0.5316
X1.138 Y0.5273
X1.1417 Y0.5249
X1.1453 Y0.5224
X1.1523 Y0.517
X1.1556 Y0.5142
X1.1588 Y0.5112
X1.1649 Y0.5049
X1.1679 Y0.5016
X1.1706 Y0.4982
X1.1758 Y0.4911
X1.1782 Y0.4874
X1.1804 Y0.4837
X1.1846 Y0.4759
X1.1865 Y0.472
X1.1881 Y0.4679
X1.1912 Y0.4597
X1.1925 Y0.4555
X1.1936 Y0.4512
X1.1955 Y0.4426
X1.1962 Y0.4384
X1.1967 Y0.434
X1.1973 Y0.4252
X1.1975 Y0.4208
X1.2004 Y-1.1848
X1.2005 Y-1.1852
X1.2009 Y-1.1853
X1.5541 Y-1.1847
X1.5544 Y-1.1846
X1.5546 Y-1.1842
X1.5503 Y1.2
X1.5501 Y1.2004
X1.5498 Y1.2005
X1.2694 Y1.2
X1.267 Y1.1998
X1.2669
G2 X1.0311 Y0.8717 I-0.8548 J0.3656
X0.9167 Y0.7782 I-0.7904 J0.8501
X0.6569 Y0.6182 I-0.9852 J1.309
X0.5783 Y0.5843 I-0.6681 J1.4416
G1 X0.5782 Y0.5818
X0.5787 Y0.2851
X0.5788 Y0.2831
Y0.283
X0.5789
Y0.2829
X0.579
G3 X0.9974 Y0.5216 I-0.5634 J1.4737
G1 X1.0048 Y0.5265
X1.0085 Y0.5289
X1.0123 Y0.5309
X1.0202 Y0.5349
X1.0242 Y0.5367
X1.0283 Y0.5382
X1.0367 Y0.541
X1.0409 Y0.5422
X1.0451 Y0.5431
X1.0538 Y0.5447
X1.0582 Y0.5454
X1.0625 Y0.5457
X1.0713 Y0.546
X1.0757 Y0.5461
X1.0801 Y0.5458
X1.0888 Y0.5449
X1.0932 Y0.5443
X1.0974 Y0.5434
X1.106 Y0.5413
X1.1102 Y0.5402
X1.1143 Y0.5387
X1.1225 Y0.5354
X1.1265 Y0.5337
X1.1304 Y0.5316
X1.138 Y0.5273
X1.1417 Y0.5249
X1.1453 Y0.5224
X1.1523 Y0.517
X1.1556 Y0.5142
X1.1588 Y0.5112
X1.1649 Y0.5049
X1.1679 Y0.5016
X1.1706 Y0.4982
X1.1758 Y0.4911
X1.1782 Y0.4874
X1.1804 Y0.4837
X1.1846 Y0.4759
X1.1865 Y0.472
X1.1881 Y0.4679
X1.1912 Y0.4597
X1.1925 Y0.4555
X1.1936 Y0.4512
X1.1955 Y0.4426
X1.1962 Y0.4384
X1.1967 Y0.434
X1.1973 Y0.4252
X1.1975 Y0.4208
X1.2004 Y-1.1848
X1.2005 Y-1.1852
X1.2009 Y-1.1853
X1.5541 Y-1.1847
X1.5544 Y-1.1846
X1.5546 Y-1.1842
X1.5503 Y1.2
X1.5501 Y1.2004
X1.5498 Y1.2005
X1.2694 Y1.2
X1.267 Y1.1998
X1.2669
G2 X1.0311 Y0.8717 I-0.8548 J0.3656
X0.9167 Y0.7782 I-0.7904 J0.8501
X0.6569 Y0.6182 I-0.9852 J1.309
X0.5783 Y0.5843 I-0.6681 J1.4416
G1 X0.5782 Y0.5818
X0.5787 Y0.2851
X0.5788 Y0.2831
Y0.283
X0.5789
Y0.2829
X0.579
G3 X0.9974 Y0.5216 I-0.5634 J1.4737
G1 X1.0048 Y0.5265
X1.0085 Y0.5289
X1.0123 Y0.5309
X1.0202 Y0.5349
X1.0242 Y0.5367
X1.0283 Y0.5382
X1.0367 Y0.541
X1.0409 Y0.5422
X1.0451 Y0.5431
X1.0538 Y0.5447
X1.0582 Y0.5454
X1.0625 Y0.5457
G3 X1.0745 Y0.5587 I-0.0005 J0.0125
G1 X1.074 Y0.5712
X1.0735 Y0.5846 Z-0.0784
X1.0729 Y0.598 Z-0.0775
X1.0724 Y0.6114 Z-0.076
X1.0719 Y0.6247 Z-0.0739
X1.0713 Y0.6379 Z-0.0712
X1.0708 Y0.6509 Z-0.0679
X1.0703 Y0.6638 Z-0.0641
X1.0698 Y0.6765 Z-0.0596
X1.0693 Y0.689 Z-0.0546
X1.0688 Y0.7012 Z-0.049
X1.0683 Y0.7132 Z-0.0429
X1.0678 Y0.7249 Z-0.0363
X1.0674 Y0.7363 Z-0.0291
X1.0669 Y0.7474 Z-0.0214
X1.0665 Y0.7581 Z-0.0133
X1.0661 Y0.7684 Z-0.0047
X1.0657 Y0.7783 Z0.0044
X1.0653 Y0.7878 Z0.0139
X1.0649 Y0.7969 Z0.0239
X1.0646 Y0.8055 Z0.0342
X1.0643 Y0.8137 Z0.0449
X1.064 Y0.8213 Z0.056
X1.0637 Y0.8285 Z0.0674
X1.0634 Y0.8351 Z0.0791
X1.0632 Y0.8412 Z0.0911
X1.0629 Y0.8468 Z0.1034
X1.0627 Y0.8518 Z0.1158
X1.0626 Y0.8563 Z0.1286
X1.0624 Y0.8601 Z0.1414
X1.0623 Y0.8634 Z0.1545
X1.0622 Y0.8661 Z0.1677
X1.0621 Y0.8682 Z0.181
X1.062 Y0.8697 Z0.1944
Y0.8706 Z0.2078
Y0.8709 Z0.2213
G0 Z0.6
M5
G53 G0 Z0.
(2D CHAMFER1)
M9
M1
T13 M6
T31
S7500 M3
G17 G90 G94
G54
M8
G0 X-0.231 Y-0.041
G43 Z0.6 H13
G0 Z0.2
G1 Z-0.05 F80.
X-0.2046 Y-0.0064 F30.
X-0.1781 Y0.0302
X-0.1529 Y0.0675
X-0.1288 Y0.1055
X-0.1175 Y0.1244
X-0.1065 Y0.1436
X-0.0959 Y0.1631
X-0.0857 Y0.1827
X-0.0759 Y0.2025
X-0.0666 Y0.2225
X-0.0579 Y0.2426
X-0.0496 Y0.2629
X-0.0426 Y0.2811
X-0.0361 Y0.2992
X-0.0301 Y0.3175
X-0.0245 Y0.3359
X-0.0194 Y0.3545
X-0.0147 Y0.3731
X-0.0104 Y0.3919
X-0.0066 Y0.4108
X-0.0033 Y0.4298
X-0.0004 Y0.4489
X0.002 Y0.468
X0.0039 Y0.4872
X0.0054 Y0.5064
X0.0065 Y0.5257
X0.0071 Y0.5451
X0.0073 Y0.5642
X0.0065 Y0.5969
X0.0043 Y0.6295
X0.0027 Y0.6452
X0.0007 Y0.6612
X-0.0017 Y0.677
X-0.0045 Y0.6928
X-0.0077 Y0.7085
X-0.0113 Y0.7241
X-0.0153 Y0.7395
X-0.0197 Y0.7547
X-0.0245 Y0.7698
X-0.0297 Y0.7848
X-0.0353 Y0.7996
X-0.0413 Y0.8143
X-0.0478 Y0.8288
X-0.0546 Y0.8431
X-0.0618 Y0.8571
X-0.0694 Y0.8709
X-0.0773 Y0.8845
X-0.0856 Y0.8978
X-0.0942 Y0.911
X-0.1032 Y0.9238
X-0.1125 Y0.9365
X-0.1222 Y0.949
X-0.1322 Y0.9612
X-0.1426 Y0.9732
X-0.1533 Y0.985
X-0.1643 Y0.9967
X-0.1756 Y1.0081
X-0.1872 Y1.0192
X-0.2006 Y1.0314
X-0.2142 Y1.0431
X-0.2281 Y1.0544
X-0.2424 Y1.0652
X-0.257 Y1.0757
X-0.2719 Y1.0857
X-0.2871 Y1.0953
X-0.3026 Y1.1044
X-0.3185 Y1.1131
X-0.3345 Y1.1214
X-0.3508 Y1.1292
X-0.3673 Y1.1366
X-0.3841 Y1.1435
X-0.4011 Y1.1501
X-0.4183 Y1.1562
X-0.4357 Y1.1619
X-0.4532 Y1.1672
X-0.471 Y1.172
X-0.4889 Y1.1765
X-0.5069 Y1.1806
X-0.525 Y1.1843
X-0.543 Y1.1876
X-0.5802 Y1.1932
X-0.6174 Y1.1974
X-0.6549 Y1.2003
X-0.6926 Y1.2019
X-0.7303 Y1.2024
X-0.7663 Y1.2018
X-0.8022 Y1.2002
X-0.8379 Y1.1974
X-0.8733 Y1.1934
X-0.9085 Y1.1882
X-0.9433 Y1.1817
X-0.9778 Y1.1739
X-1.0121 Y1.1646
X-1.0287 Y1.1596
X-1.0454 Y1.1541
X-1.0619 Y1.1483
X-1.0782 Y1.1422
X-1.0943 Y1.1357
X-1.1102 Y1.1289
X-1.1259 Y1.1217
X-1.1414 Y1.1141
X-1.1567 Y1.1062
X-1.1718 Y1.098
X-1.1867 Y1.0894
X-1.2015 Y1.0804
X-1.216 Y1.0711
X-1.2304 Y1.0614
X-1.2445 Y1.0513
X-1.2584 Y1.0409
X-1.2711 Y1.0308
X-1.2835 Y1.0203
X-1.2954 Y1.0095
X-1.307 Y0.9983
X-1.3183 Y0.9868
X-1.3292 Y0.9748
X-1.3397 Y0.9625
X-1.35 Y0.9498
X-1.3599 Y0.9367
X-1.3694 Y0.9234
X-1.3785 Y0.9098
X-1.3872 Y0.8959
X-1.3956 Y0.8817
X-1.4037 Y0.8673
X-1.4114 Y0.8525
X-1.4187 Y0.8376
X-1.4258 Y0.8224
X-1.4324 Y0.8073
X-1.4449 Y0.7756
X-1.4561 Y0.7434
X-1.4661 Y0.7105
X-1.475 Y0.6771
X-1.4828 Y0.6433
X-1.4895 Y0.6091
X-1.4951 Y0.5757
X-1.4953 Y0.574
Y0.5734
X-1.4952 Y0.5727
X-1.4951 Y0.572
X-1.4949 Y0.5714
X-1.4946 Y0.5708
X-1.4943 Y0.5703
X-1.4939 Y0.5697
X-1.4935 Y0.5692
X-1.493 Y0.5688
X-1.4925 Y0.5684
X-1.492 Y0.5681
X-1.4914 Y0.5678
X-1.4907 Y0.5675
X-1.4901 Y0.5674
X-1.488 Y0.5671
X-1.1407 Y0.533
X-1.1388 Y0.5329
X-1.1382
X-1.1375 Y0.533
X-1.1369 Y0.5331
X-1.1363 Y0.5333
X-1.1358 Y0.5336
X-1.1353 Y0.5339
X-1.1348 Y0.5343
X-1.1343 Y0.5347
X-1.1339 Y0.5351
X-1.1335 Y0.5356
X-1.1331 Y0.5361
X-1.1329 Y0.5367
X-1.1327 Y0.5373
X-1.1325 Y0.5379
X-1.1321 Y0.5401
X-1.1298 Y0.5564
X-1.1296 Y0.5577
X-1.1268 Y0.5749
X-1.1267 Y0.5755
X-1.1266 Y0.5762
X-1.1234 Y0.5932
X-1.1233 Y0.5939
X-1.1231 Y0.5946
X-1.1195 Y0.6113
X-1.1193 Y0.6121
X-1.1191 Y0.6129
X-1.1151 Y0.6293
X-1.1149 Y0.6301
X-1.1147 Y0.631
X-1.1102 Y0.6471
X-1.11 Y0.648
X-1.1097 Y0.6489
X-1.1048 Y0.6646
X-1.1044 Y0.6656
X-1.1041 Y0.6665
X-1.0987 Y0.6819
X-1.0983 Y0.6829
X-1.0979 Y0.6839
X-1.092 Y0.6989
X-1.0916 Y0.7
X-1.0911 Y0.701
X-1.0847 Y0.7156
X-1.0842 Y0.7167
X-1.0836 Y0.7178
X-1.0766 Y0.732
X-1.0762 Y0.7328
X-1.0758 Y0.7336
X-1.0753 Y0.7344
X-1.0676 Y0.7482
X-1.0671 Y0.749
X-1.0666 Y0.7498
X-1.0661 Y0.7507
X-1.0577 Y0.764
X-1.0572 Y0.7649
X-1.0566 Y0.7658
X-1.056 Y0.7666
X-1.0469 Y0.7795
X-1.0462 Y0.7804
X-1.0455 Y0.7813
X-1.0448 Y0.7822
X-1.035 Y0.7945
X-1.0342 Y0.7954
X-1.0334 Y0.7963
X-1.0326 Y0.7972
X-1.0219 Y0.8089
X-1.0211 Y0.8097
X-1.0203 Y0.8105
X-1.0195 Y0.8113
X-1.0077 Y0.8228
X-1.007 Y0.8235
X-1.0062 Y0.8242
X-1.0054 Y0.8249
X-0.993 Y0.8356
X-0.9922 Y0.8363
X-0.9913 Y0.837
X-0.9905 Y0.8377
X-0.9775 Y0.8476
X-0.9766 Y0.8483
X-0.9757 Y0.8489
X-0.9748 Y0.8496
X-0.9613 Y0.8588
X-0.9604 Y0.8594
X-0.9594 Y0.86
X-0.9585 Y0.8606
X-0.9444 Y0.869
X-0.9435 Y0.8695
X-0.9425 Y0.8701
X-0.9416 Y0.8706
X-0.9271 Y0.8782
X-0.9261 Y0.8786
X-0.9252 Y0.8791
X-0.9242 Y0.8796
X-0.9093 Y0.8863
X-0.9084 Y0.8867
X-0.9074 Y0.8871
X-0.9065 Y0.8875
X-0.8911 Y0.8935
X-0.8902 Y0.8938
X-0.8893 Y0.8942
X-0.8883 Y0.8945
X-0.8727 Y0.8996
X-0.8718 Y0.8999
X-0.8709 Y0.9002
X-0.87 Y0.9004
X-0.8542 Y0.9048
X-0.8533 Y0.905
X-0.8525 Y0.9052
X-0.8516 Y0.9054
X-0.8356 Y0.909
X-0.8343 Y0.9093
X-0.8331 Y0.9095
X-0.8169 Y0.9123
X-0.8158 Y0.9125
X-0.8146 Y0.9127
X-0.7983 Y0.9149
X-0.7972 Y0.915
X-0.7961 Y0.9151
X-0.7797 Y0.9166
X-0.7786 Y0.9167
X-0.7776 Y0.9168
X-0.7612 Y0.9177
X-0.7602
X-0.7592
X-0.7427 Y0.918
X-0.7418 Y0.9181
X-0.7409
X-0.7245 Y0.9178
X-0.7236
X-0.7227
X-0.7064 Y0.917
X-0.7054 Y0.9169
X-0.7043
X-0.6881 Y0.9155
X-0.687 Y0.9154
X-0.6859 Y0.9153
X-0.6697 Y0.9133
X-0.6686 Y0.9132
X-0.6674 Y0.913
X-0.6513 Y0.9104
X-0.6501 Y0.9102
X-0.6489 Y0.9099
X-0.6329 Y0.9066
X-0.6317 Y0.9063
X-0.6304 Y0.906
X-0.6146 Y0.902
X-0.6137 Y0.9017
X-0.6128 Y0.9015
X-0.6119 Y0.9012
X-0.5964 Y0.8964
X-0.5955 Y0.8961
X-0.5945 Y0.8958
X-0.5936 Y0.8954
X-0.5783 Y0.8898
X-0.5774 Y0.8894
X-0.5764 Y0.889
X-0.5755 Y0.8886
X-0.5605 Y0.8822
X-0.5596 Y0.8817
X-0.5586 Y0.8813
X-0.5576 Y0.8808
X-0.5432 Y0.8736
X-0.5422 Y0.8731
X-0.5413 Y0.8726
X-0.5403 Y0.872
X-0.5264 Y0.864
X-0.5254 Y0.8634
X-0.5245 Y0.8628
X-0.5235 Y0.8622
X-0.5102 Y0.8534
X-0.5092 Y0.8528
X-0.5083 Y0.8521
X-0.5074 Y0.8515
X-0.4946 Y0.8419
X-0.4937 Y0.8412
X-0.4928 Y0.8405
X-0.4919 Y0.8397
X-0.4796 Y0.8293
X-0.4788 Y0.8286
X-0.4779 Y0.8278
X-0.4771 Y0.827
X-0.4654 Y0.8158
X-0.4645 Y0.815
X-0.4637 Y0.8141
X-0.4522 Y0.8021
X-0.4513 Y0.8012
X-0.4505 Y0.8003
X-0.4497 Y0.7994
X-0.439 Y0.7867
X-0.4382 Y0.7857
X-0.4375 Y0.7848
X-0.4367 Y0.7838
X-0.4269 Y0.7704
X-0.4262 Y0.7694
X-0.4255 Y0.7685
X-0.4248 Y0.7675
X-0.4158 Y0.7534
X-0.4152 Y0.7524
X-0.4146 Y0.7514
X-0.414 Y0.7504
X-0.4058 Y0.7358
X-0.4053 Y0.7348
X-0.4048 Y0.7338
X-0.4043 Y0.7328
X-0.397 Y0.7178
X-0.3966 Y0.7169
X-0.3962 Y0.7159
X-0.3957 Y0.7149
X-0.3893 Y0.6995
X-0.389 Y0.6986
X-0.3886 Y0.6976
X-0.3883 Y0.6966
X-0.3827 Y0.6809
X-0.3824 Y0.68
X-0.3821 Y0.679
X-0.3818 Y0.6781
X-0.3771 Y0.6621
X-0.3768 Y0.6612
X-0.3766 Y0.6603
X-0.3764 Y0.6595
X-0.3724 Y0.6432
X-0.3721 Y0.642
X-0.3718 Y0.6407
X-0.3686 Y0.6242
X-0.3683 Y0.6231
X-0.3682 Y0.6219
X-0.3656 Y0.6053
X-0.3654 Y0.6042
X-0.3653 Y0.6032
X-0.3633 Y0.5864
X-0.3632 Y0.5854
X-0.3631 Y0.5844
X-0.3618 Y0.5676
X-0.3617 Y0.5667
Y0.5658
X-0.3609 Y0.549
Y0.5481
X-0.3608 Y0.5473
X-0.3606 Y0.5305
Y0.5295
Y0.5284
X-0.361 Y0.5088
Y0.5075
X-0.3611 Y0.5062
X-0.3624 Y0.4867
X-0.3625 Y0.4854
X-0.3626 Y0.4841
X-0.3648 Y0.4648
X-0.365 Y0.4635
X-0.3651 Y0.4623
X-0.3682 Y0.4431
X-0.3684 Y0.4419
X-0.3686 Y0.4407
X-0.3724 Y0.4216
X-0.3727 Y0.4204
X-0.373 Y0.4193
X-0.3776 Y0.4003
X-0.3779 Y0.3992
X-0.3782 Y0.3981
X-0.3836 Y0.3793
X-0.3839 Y0.3782
X-0.3843 Y0.3772
X-0.3905 Y0.3585
X-0.3908 Y0.3575
X-0.3912 Y0.3565
X-0.398 Y0.3381
X-0.3984 Y0.3371
X-0.3988 Y0.3362
X-0.4063 Y0.318
X-0.4067 Y0.3171
X-0.4071 Y0.3162
X-0.4152 Y0.2983
X-0.4156 Y0.2975
X-0.416 Y0.2966
X-0.4248 Y0.279
X-0.4252 Y0.2782
X-0.4256 Y0.2774
X-0.4348 Y0.26
X-0.4352 Y0.2593
X-0.4356 Y0.2586
X-0.4454 Y0.2415
X-0.4458 Y0.2408
X-0.4462 Y0.2401
X-0.4565 Y0.2233
X-0.4569 Y0.2226
X-0.4573 Y0.222
X-0.468 Y0.2055
X-0.4686 Y0.2045
X-0.4693 Y0.2035
X-0.4775 Y0.1918
X-0.4781 Y0.1911
X-0.4786 Y0.1904
X-0.4878 Y0.1781
X-0.4882 Y0.1776
X-0.4887 Y0.1771
X-0.4988 Y0.1642
X-0.4995 Y0.1634
X-0.5104 Y0.1501
X-0.511 Y0.1494
X-0.5225 Y0.1359
X-0.523 Y0.1353
X-0.535 Y0.1216
X-0.5356 Y0.121
X-0.5606 Y0.0934
X-0.5612 Y0.0927
X-0.5864 Y0.0657
X-0.5868 Y0.0653
X-0.5992 Y0.0523
X-0.5994 Y0.0521
X-0.6114 Y0.0396
X-0.6117 Y0.0393
X-0.6361 Y0.0144
X-0.6364 Y0.0141
X-0.6616 Y-0.0113
X-0.6619 Y-0.0116
X-0.6878 Y-0.0374
X-0.6881 Y-0.0376
X-0.7145 Y-0.0636
X-0.7148 Y-0.0639
X-0.7684 Y-0.1158
X-0.7687 Y-0.116
X-0.7956 Y-0.1417
X-0.8221 Y-0.1669
X-0.8482 Y-0.1915
X-0.8734 Y-0.2151
X-0.9089 Y-0.2484
X-0.9446 Y-0.2823
X-0.9805 Y-0.3168
X-1.0163 Y-0.3518
X-1.0518 Y-0.3872
X-1.087 Y-0.4228
X-1.1216 Y-0.4586
X-1.1554 Y-0.4945
X-1.1884 Y-0.5302
X-1.2205 Y-0.5661
X-1.2367 Y-0.5846
X-1.2529 Y-0.6035
X-1.2855 Y-0.6427
X-1.3175 Y-0.6831
X-1.3328 Y-0.7033
X-1.3478 Y-0.7236
X-1.3623 Y-0.744
X-1.3761 Y-0.7642
X-1.3891 Y-0.7843
X-1.4015 Y-0.8043
X-1.4147 Y-0.8267
X-1.4274 Y-0.8494
X-1.4395 Y-0.8722
X-1.4512 Y-0.8953
X-1.4623 Y-0.9187
X-1.4728 Y-0.9422
X-1.4829 Y-0.966
X-1.4923 Y-0.99
X-1.5012 Y-1.0143
X-1.5095 Y-1.0388
X-1.5172 Y-1.0635
X-1.5244 Y-1.0882
X-1.5309 Y-1.1131
X-1.5367 Y-1.1382
X-1.542 Y-1.1633
X-1.5465 Y-1.1875
X-1.5467 Y-1.1894
Y-1.1901
Y-1.1908
X-1.5465 Y-1.1914
X-1.5463 Y-1.1921
X-1.546 Y-1.1927
X-1.5457 Y-1.1933
X-1.5452 Y-1.1939
X-1.5447 Y-1.1944
X-1.5442 Y-1.1949
X-1.5436 Y-1.1953
X-1.543 Y-1.1956
X-1.5424 Y-1.1958
X-1.5417 Y-1.196
X-1.541 Y-1.1962
X-1.5388 Y-1.1963
X0.0039 Y-1.1935
X0.0056 Y-1.1933
X0.0072 Y-1.1926
X0.0085 Y-1.1916
X0.0096 Y-1.1902
X0.0102 Y-1.1887
X0.0104 Y-1.187
X0.0099 Y-0.8679
X0.0096 Y-0.8662
X0.009 Y-0.8646
X0.008 Y-0.8633
X0.0066 Y-0.8623
X0.005 Y-0.8616
X0.0034 Y-0.8614
X-0.7647 Y-0.8628
X-0.766
X-0.7673 Y-0.8627
X-0.7686
X-0.7775 Y-0.862
X-0.7814 Y-0.8616
X-0.7854 Y-0.8609
X-0.794 Y-0.8591
X-0.7979 Y-0.8581
X-0.8016 Y-0.8569
X-0.81 Y-0.8539
X-0.8137 Y-0.8524
X-0.8172 Y-0.8506
X-0.8251 Y-0.8464
X-0.8285 Y-0.8445
X-0.8318 Y-0.8422
X-0.8389 Y-0.837
X-0.842 Y-0.8345
X-0.845 Y-0.8319
X-0.8513 Y-0.8257
X-0.8541 Y-0.8228
X-0.8566 Y-0.8198
X-0.862 Y-0.8128
X-0.8644 Y-0.8095
X-0.8665 Y-0.8061
X-0.8708 Y-0.7984
X-0.8727 Y-0.7949
X-0.8742 Y-0.7913
X-0.8775 Y-0.783
X-0.8788 Y-0.7793
X-0.8799 Y-0.7754
X-0.882 Y-0.7668
X-0.8828 Y-0.7629
X-0.8833 Y-0.759
X-0.8841 Y-0.7502
X-0.8843 Y-0.7462
Y-0.7422
X-0.8839 Y-0.7334
X-0.8836 Y-0.7294
X-0.883 Y-0.7255
X-0.8813 Y-0.7168
X-0.8804 Y-0.7129
X-0.8793 Y-0.7091
X-0.8764 Y-0.7007
X-0.875 Y-0.6969
X-0.8734 Y-0.6933
X-0.8694 Y-0.6854
X-0.8674 Y-0.6819
X-0.8653 Y-0.6786
X-0.8602 Y-0.6713
X-0.8571 Y-0.6673
X-0.8316 Y-0.637
X-0.8309 Y-0.6361
X-0.8301 Y-0.6353
X-0.8234 Y-0.6279
X-0.8229 Y-0.6273
X-0.8155 Y-0.6195
X-0.8152 Y-0.6191
X-0.8073 Y-0.6108
X-0.8069 Y-0.6105
X-0.7986 Y-0.6019
X-0.7982 Y-0.6015
X-0.7806 Y-0.5836
X-0.7802 Y-0.5832
X-0.7618 Y-0.565
X-0.7615 Y-0.5647
X-0.743 Y-0.5467
X-0.7428 Y-0.5465
X-0.725 Y-0.5293
X-0.7248 Y-0.5291
X-0.7071 Y-0.5121
X-0.6889 Y-0.4948
X-0.6887 Y-0.4946
X-0.6513 Y-0.4593
X-0.6511 Y-0.4591
X-0.6128 Y-0.4234
X-0.5751 Y-0.3884
X-0.5567 Y-0.3714
X-0.539 Y-0.355
X-0.5193 Y-0.3369
X-0.4995 Y-0.3185
X-0.4595 Y-0.2807
X-0.4196 Y-0.2424
X-0.3805 Y-0.2042
X-0.343 Y-0.1663
X-0.324 Y-0.1466
X-0.3045 Y-0.126
X-0.2851 Y-0.1048
X-0.2662 Y-0.0835
X-0.2482 Y-0.0624
X-0.2399 Y-0.0523
X-0.232 Y-0.0424
X-0.231 Y-0.041
G0 Z0.2
X0.783 Y0.3713
G1 Z-0.05 F80.
X0.7988 Y0.3801 F30.
X0.8249 Y0.3952
X0.8506 Y0.4108
X0.876 Y0.4269
X0.9011 Y0.4435
X0.9257 Y0.4605
X0.9501 Y0.4779
X0.9741 Y0.4958
X0.9982 Y0.5146
X0.9991 Y0.5153
X1. Y0.5159
X1.0009 Y0.5166
X1.0082 Y0.5216
X1.0115 Y0.5237
X1.015 Y0.5256
X1.0229 Y0.5295
X1.0265 Y0.5311
X1.0302 Y0.5325
X1.0385 Y0.5353
X1.0423 Y0.5364
X1.0462 Y0.5372
X1.0549 Y0.5388
X1.0588 Y0.5394
X1.0627 Y0.5397
X1.0715 Y0.54
X1.0754 Y0.5401
X1.0794 Y0.5398
X1.0882 Y0.5389
X1.0921 Y0.5384
X1.096 Y0.5376
X1.1045 Y0.5355
X1.1083 Y0.5345
X1.112 Y0.5331
X1.1202 Y0.5299
X1.1238 Y0.5283
X1.1274 Y0.5264
X1.135 Y0.5221
X1.1384 Y0.52
X1.1416 Y0.5177
X1.1485 Y0.5123
X1.1516 Y0.5098
X1.1544 Y0.507
X1.1606 Y0.5007
X1.1632 Y0.4978
X1.1657 Y0.4947
X1.1709 Y0.4876
X1.1731 Y0.4843
X1.1751 Y0.4809
X1.1793 Y0.4731
X1.181 Y0.4696
X1.1825 Y0.4659
X1.1855 Y0.4576
X1.1868 Y0.4539
X1.1877 Y0.45
X1.1896 Y0.4414
X1.1903 Y0.4375
X1.1907 Y0.4336
X1.1913 Y0.4248
X1.1914 Y0.4235
X1.1915 Y0.4222
Y0.4208
X1.1944 Y-1.1849
X1.1946 Y-1.1865
X1.1953 Y-1.1881
X1.1963 Y-1.1894
X1.1976 Y-1.1905
X1.1992 Y-1.1911
X1.2009 Y-1.1913
X1.5541 Y-1.1907
X1.5558 Y-1.1905
X1.5573 Y-1.1898
X1.5587 Y-1.1888
X1.5597 Y-1.1874
X1.5604 Y-1.1859
X1.5606 Y-1.1842
X1.5563 Y1.2
X1.5561 Y1.2017
X1.5554 Y1.2033
X1.5544 Y1.2046
X1.553 Y1.2057
X1.5515 Y1.2063
X1.5498 Y1.2065
X1.2691 Y1.206
X1.2661 Y1.2058
X1.2652 Y1.2056
X1.2644 Y1.2052
X1.2635 Y1.2048
X1.2628 Y1.2042
X1.2622 Y1.2035
X1.2616 Y1.2028
X1.26 Y1.1996
X1.249 Y1.1744
X1.2486 Y1.1735
X1.2481 Y1.1725
X1.2355 Y1.1464
X1.235 Y1.1454
X1.2346 Y1.1445
X1.221 Y1.1189
X1.2205 Y1.118
X1.22 Y1.1171
X1.2055 Y1.092
X1.205 Y1.0911
X1.2045 Y1.0902
X1.1891 Y1.0656
X1.1886 Y1.0647
X1.188 Y1.0639
X1.1718 Y1.0397
X1.1712 Y1.0389
X1.1706 Y1.0381
X1.1535 Y1.0145
X1.1529 Y1.0137
X1.1523 Y1.0129
X1.1344 Y0.9898
X1.1338 Y0.9891
X1.1332 Y0.9884
X1.1145 Y0.9659
X1.1139 Y0.9652
X1.1133 Y0.9645
X1.094 Y0.9426
X1.0934 Y0.942
X1.0928 Y0.9413
X1.0728 Y0.9201
X1.0722 Y0.9195
X1.0716 Y0.9189
X1.0509 Y0.8982
X1.0504 Y0.8976
X1.0498 Y0.8971
X1.0285 Y0.877
X1.028 Y0.8764
X1.0274 Y0.8759
X1.0056 Y0.8564
X1.005 Y0.8559
X1.0045 Y0.8554
X0.9821 Y0.8365
X0.9816 Y0.836
X0.981 Y0.8355
X0.9582 Y0.8172
X0.9576 Y0.8166
X0.9569 Y0.8161
X0.9144 Y0.7839
X0.9138 Y0.7835
X0.9133 Y0.783
X0.8697 Y0.7517
X0.8691 Y0.7512
X0.8684 Y0.7508
X0.824 Y0.7206
X0.8229 Y0.7199
X0.8003 Y0.7054
X0.7995 Y0.7049
X0.7768 Y0.6907
X0.776 Y0.6902
X0.7531 Y0.6765
X0.7522 Y0.676
X0.7291 Y0.6628
X0.7281 Y0.6622
X0.7047 Y0.6494
X0.7037 Y0.6489
X0.6799 Y0.6365
X0.6788 Y0.6359
X0.6548 Y0.6241
X0.6542 Y0.6238
X0.6536 Y0.6235
X0.6292 Y0.6123
X0.6286 Y0.612
X0.6279 Y0.6117
X0.6033 Y0.601
X0.6026 Y0.6007
X0.6019 Y0.6004
X0.5787 Y0.5911
X0.5755 Y0.5896
X0.5747 Y0.5891
X0.574 Y0.5885
X0.5734 Y0.5877
X0.573 Y0.5869
X0.5726 Y0.586
X0.5724 Y0.5851
X0.5722 Y0.582
X0.5727 Y0.2849
X0.5729 Y0.2824
X0.573 Y0.2816
X0.5732 Y0.2809
X0.5736 Y0.2802
X0.574 Y0.2795
X0.5744 Y0.2789
X0.575 Y0.2784
X0.5756 Y0.2779
X0.5763 Y0.2775
X0.577 Y0.2772
X0.5777 Y0.277
X0.5785 Y0.2768
X0.5792
X0.58
X0.5808 Y0.277
X0.5829 Y0.2777
X0.6095 Y0.2883
X0.6373 Y0.2999
X0.6648 Y0.312
X0.6921 Y0.3246
X0.7191 Y0.3377
X0.746 Y0.3513
X0.7725 Y0.3655
X0.783 Y0.3713
G0 Z0.6
M5
M9
G53 G0 Z0.
M30
%
