%
(CS ANGLE BLOCK)
(T11 D=0.125 CR=0. TAPER=45DEG - ZMIN=1.0218 - CHAMFER MILL)
(T35 D=0.375 CR=0. - ZMIN=0.1689 - FLAT END MILL)
(T51 D=0.201 CR=0. TAPER=118DEG - ZMIN=0.3689 - DRILL)
G90 G94 G17 G91.1
G20
G53 G0 Z0.
(FACE1 2)
T35 M6
T51
S7500 M3
G17 G90 G94
G54
G64 P0.0004 Q0.0004
M8
G0 X4.2438 Y-0.7464
G43 Z1.64 H35
G0 Z1.24
G1 Z1.0725 F80.
G18 G3 X4.2063 Z1.035 I-0.0375 K0. F60.
G1 X4.1
X-0.1
G3 X-0.1375 Z1.0725 I0. K0.0375
G0 Z1.24
X4.2438 Y-0.5578
G1 Z1.0725 F80.
G3 X4.2063 Z1.035 I-0.0375 K0. F60.
G1 X4.1
X-0.1
G3 X-0.1375 Z1.0725 I0. K0.0375
G0 Z1.24
X4.2438 Y-0.3692
G1 Z1.0725 F80.
G3 X4.2063 Z1.035 I-0.0375 K0. F60.
G1 X4.1
X-0.1
G3 X-0.1375 Z1.0725 I0. K0.0375
G0 Z1.24
X4.2438 Y-0.1806
G1 Z1.0725 F80.
G3 X4.2063 Z1.035 I-0.0375 K0. F60.
G1 X4.1
X-0.1
G3 X-0.1375 Z1.0725 I0. K0.0375
G0 Z1.64
G17
(2D ADAPTIVE1 2)
G64 P0.004 Q0.004
G0 X0.2069 Y-1.0426
Z1.64
Z1.24
Z0.2439
G1 Z0.2064 F60.
X0.2067 Y-1.0424 Z0.2018
X0.206 Y-1.042 Z0.1974
X0.2048 Y-1.0413 Z0.1931
X0.2032 Y-1.0404 Z0.1889
X0.2012 Y-1.0392 Z0.1851
X0.1988 Y-1.0377 Z0.1815
X0.1961 Y-1.0361 Z0.1783
X0.193 Y-1.0343 Z0.1755
X0.1897 Y-1.0323 Z0.1732
X0.1861 Y-1.0302 Z0.1713
X0.1824 Y-1.0279 Z0.1699
X0.1786 Y-1.0256 Z0.1691
X0.1747 Y-1.0233 Z0.1689
G3 X-0.0126 Y-0.9371 I-0.4915 J-0.8216
G1 X-0.0192 Y-0.9352
X-0.0417 Y-0.926
X-0.0529 Y-0.9202
X-0.0642 Y-0.9137
X-0.0685 Y-0.9108
X-0.0728 Y-0.9077
X-0.0987 Y-0.8853
X-0.1092 Y-0.8741
X-0.1204 Y-0.8615
X-0.1288 Y-0.8516
X-0.1317 Y-0.8474
X-0.1429 Y-0.8286
X-0.1476 Y-0.818
X-0.1542 Y-0.8026
X-0.1568 Y-0.7956
X-0.1599 Y-0.7844
X-0.1624 Y-0.7731
X-0.1638 Y-0.7619
X-0.1654 Y-0.7464
X-0.1659 Y-0.7395
X-0.166 Y-0.7058
Y-0.6161
X-0.1658 Y-0.6049
X-0.1651 Y-0.5825
X-0.1635 Y-0.5713
X-0.1616 Y-0.56
X-0.1595 Y-0.5488
X-0.1519 Y-0.5264
X-0.1514 Y-0.5254
X-0.1491 Y-0.5198
X-0.1432 Y-0.5012
X-0.1369 Y-0.4773
X-0.1302 Y-0.4456
X-0.1233 Y-0.4018
X-0.1185 Y-0.3576
X-0.1153 Y-0.3134
X-0.113 Y-0.2691
X-0.1114 Y-0.2247
X-0.1102 Y-0.1804
X-0.1094 Y-0.136
X-0.1029 Y-0.0921
X-0.0837 Y-0.0521
X-0.0559 Y-0.0176
X-0.022 Y0.0112
X0.0158 Y0.0344
X0.0562 Y0.0527
X0.0982 Y0.0669
X0.1413 Y0.0777
X0.1849 Y0.0858
X0.2288 Y0.0918
X0.273 Y0.0962
X0.3173 Y0.0994
X0.3616 Y0.1017
X0.4059 Y0.1033
X0.4503 Y0.1045
X0.4946 Y0.1054
X0.539 Y0.106
X0.5834 Y0.1064
X0.6278 Y0.1067
X0.6721 Y0.107
X0.7165 Y0.1071
X0.8052 Y0.1073
X0.9384 Y0.1074
X1.249 Y0.1075
X1.3821
X3.3414
X3.3478 Y0.1077
X3.3542 Y0.1081
X3.3606 Y0.1089
X3.8729 Y0.1853
X3.8758 Y0.186
X3.8786 Y0.1868
G2 X3.9027 Y0.1937 I0.0675 J-0.1907
X3.9127 Y0.1957 I0.0434 J-0.1975 F300.
G1 X3.9158 Y0.196
X3.9188 Y0.1962
X3.972 Y0.1963
X3.975 Y0.1962
X3.9781 Y0.1959
X3.9828 Y0.1951
G2 X4.0122 Y0.1873 I-0.0367 J-0.1989 F60.
G1 X4.0126 Y0.1872
X4.0192 Y0.1852
X4.0417 Y0.1761
X4.0529 Y0.1703
X4.0642 Y0.1638
X4.0686 Y0.1609
X4.073 Y0.1577
X4.1 Y0.1353
X4.1092 Y0.1263
X4.1114 Y0.1241
X4.1204 Y0.114
X4.1213 Y0.1129
X4.13 Y0.1016
X4.1317 Y0.0991
X4.1435 Y0.0792
X4.1484 Y0.068
X4.1542 Y0.0541
X4.1574 Y0.0456
X4.1603 Y0.0344
X4.1627 Y0.0231
X4.164 Y0.0119
X4.1654 Y-0.0024
X4.1659 Y-0.0105
X4.166 Y-0.0554
Y-0.7058
X4.1659 Y-0.7395
X4.1654 Y-0.7466
X4.1638 Y-0.7619
X4.1624 Y-0.7731
X4.1599 Y-0.7844
X4.1568 Y-0.7956
X4.1542 Y-0.8026
X4.1476 Y-0.818
X4.1429 Y-0.8287
X4.1317 Y-0.8474
X4.1288 Y-0.8516
X4.1204 Y-0.8615
X4.1092 Y-0.8741
G3 X4.1004 Y-0.8981 I0.0288 J-0.024
G1 X4.0993 Y-0.9028
X4.0952 Y-0.9189 F300.
G2 X4.0529 Y-0.9805 I-0.0962 J0.0208
G1 X3.9629 Y-1.0455
G2 X3.8954 Y-1.0673 I-0.0619 J0.0765
G1 X0.0258 Y-1.0654
X-0.0304 Y-1.0622
X-0.0979 Y-1.0404
X-0.1654 Y-0.9994
X-0.2242 Y-0.9414
X-0.2602 Y-0.8853
X-0.2861 Y-0.818
X-0.2938 Y-0.7731
X-0.2966 Y-0.6834
X-0.2957 Y-0.661
G2 X-0.2329 Y-0.5745 I0.0983 J-0.0053
G1 X-0.1879 Y-0.5563
G3 X-0.1717 Y-0.5483 I-0.0189 J0.0594
X-0.1514 Y-0.5254 I-0.0352 J0.0514 F60.
G1 X-0.1466 Y-0.5152
X-0.1409 Y-0.504
X-0.1349 Y-0.4928
X-0.1317 Y-0.4878
X-0.118 Y-0.4703
X-0.1153 Y-0.4671
X-0.1089 Y-0.4587
X-0.1036 Y-0.4508
X-0.0982 Y-0.4419
X-0.0923 Y-0.431
X-0.086 Y-0.4178
X-0.0795 Y-0.4022
X-0.0725 Y-0.3828
X-0.0653 Y-0.359
X-0.0579 Y-0.3289
X-0.0502 Y-0.289
X-0.044 Y-0.2451
X-0.0306 Y-0.2028
X-0.0096 Y-0.1636
X0.0176 Y-0.1286
X0.0499 Y-0.0982
X0.086 Y-0.0724
X0.1249 Y-0.0509
X0.1657 Y-0.0335
X0.2078 Y-0.0195
X0.2507 Y-0.0084
X0.2942 Y0.0003
X0.3381 Y0.007
X0.3822 Y0.0121
X0.4264 Y0.016
X0.4707 Y0.019
X0.515 Y0.0212
X0.5593 Y0.0228
X0.6037 Y0.024
X0.648 Y0.025
X0.6924 Y0.0256
X0.7368 Y0.0261
X0.7812 Y0.0265
X0.8255 Y0.0268
X0.8699 Y0.027
X0.9586 Y0.0272
X1.0918 Y0.0274
X1.3136 Y0.0275
X1.6242
X2.8049
X2.8113 Y0.0277
X2.8177 Y0.0281
X2.8241 Y0.0289
X3.3606 Y0.1089
G3 X3.3854 Y0.1258 I-0.0068 J0.0369
X3.3555 Y0.1833 I-0.0317 J0.02 F300.
G1 X0.487 Y0.1493
X0.3167 Y0.1353
X0.2017 Y0.1144
X0.0972 Y0.0792
X0.0033 Y0.0292
X-0.0529 Y-0.0154
X-0.1004 Y-0.0666
X-0.1317 Y-0.1153
X-0.1514 Y-0.1563
X-0.2217 Y-0.4087
G3 X-0.1408 Y-0.4842 I0.06 J-0.0167
X-0.1153 Y-0.4671 I-0.0209 J0.0587 F60.
G1 X-0.1086 Y-0.4591
X-0.0983 Y-0.4479
X-0.0867 Y-0.4367
X-0.0754 Y-0.4277
X-0.0737 Y-0.4265
X-0.0687 Y-0.4224
X-0.064 Y-0.4182
X-0.0585 Y-0.4128
X-0.0531 Y-0.4069
X-0.0472 Y-0.3998
X-0.0405 Y-0.3908
X-0.0341 Y-0.3812
X-0.0261 Y-0.3678
X-0.0053 Y-0.3286
X0.0166 Y-0.2901
X0.0424 Y-0.2539
X0.0721 Y-0.221
X0.1054 Y-0.1917
X0.1417 Y-0.1661
X0.1803 Y-0.1443
X0.2207 Y-0.126
X0.2624 Y-0.1108
X0.305 Y-0.0984
X0.3483 Y-0.0883
X0.3919 Y-0.0803
X0.4358 Y-0.074
X0.4799 Y-0.069
X0.5241 Y-0.0652
X0.5684 Y-0.0621
X0.6127 Y-0.0598
X0.6571 Y-0.0581
X0.7014 Y-0.0567
X0.7458 Y-0.0557
X0.7901 Y-0.0549
X0.8345 Y-0.0543
X0.8789 Y-0.0538
X0.9232 Y-0.0535
X0.9676 Y-0.0533
X1.012 Y-0.0531
X1.1007 Y-0.0528
X1.2339 Y-0.0526
X1.4557 Y-0.0525
X1.7663
X2.2684
X2.2748 Y-0.0523
X2.2812 Y-0.0519
X2.2875 Y-0.0511
X2.8241 Y0.0289
X2.838 Y0.0345
X2.8491 Y0.0459
X2.8493 Y0.046 F300.
X2.8536 Y0.0568
G3 X2.8155 Y0.1033 I-0.0364 J0.009
G1 X0.5883 Y0.0688
X0.4195 Y0.0543
X0.3183 Y0.0374
X0.2283 Y0.0142
X0.1495 Y-0.0142
X0.0933 Y-0.0443
X0.0146 Y-0.0989
X-0.0304 Y-0.1394
X-0.1571 Y-0.3357
G3 X-0.1025 Y-0.4368 I0.0486 J-0.039
X-0.0737 Y-0.4265 I-0.006 J0.062 F60.
G1 X-0.0724 Y-0.4255
X-0.0529 Y-0.4137
X-0.0417 Y-0.4075
X-0.0357 Y-0.405
X-0.0302 Y-0.4025
X-0.0241 Y-0.3992
X-0.0165 Y-0.3946
X-0.0052 Y-0.387
X0.0184 Y-0.3694
X0.0524 Y-0.341
X0.0868 Y-0.3128
X0.1224 Y-0.2864
X0.1596 Y-0.2623
X0.1984 Y-0.2407
X0.2386 Y-0.2219
X0.2799 Y-0.2056
X0.3221 Y-0.1918
X0.3649 Y-0.1803
X0.4082 Y-0.1707
X0.4519 Y-0.1629
X0.4958 Y-0.1565
X0.5399 Y-0.1514
X0.5841 Y-0.1473
X0.6283 Y-0.144
X0.6726 Y-0.1415
X0.717 Y-0.1394
X0.7613 Y-0.1379
X0.8057 Y-0.1366
X0.85 Y-0.1357
X0.8944 Y-0.1349
X0.9388 Y-0.1344
X0.9831 Y-0.1339
X1.0275 Y-0.1336
X1.0719 Y-0.1333
X1.1163 Y-0.1331
X1.205 Y-0.1329
X1.3381 Y-0.1327
X1.56 Y-0.1325
X1.7318
X1.7382 Y-0.1324
X1.7446 Y-0.1319
X1.751 Y-0.1311
X2.2875 Y-0.0511
G3 X2.3124 Y-0.0342 I-0.0068 J0.0369
X2.2756 Y0.0229 I-0.0317 J0.02 F300.
G1 X0.5995 Y-0.0147
X0.4249 Y-0.0352
X0.2958 Y-0.0644
X0.1833 Y-0.1043
X0.1383 Y-0.13
X-0.0979 Y-0.2995
G3 X-0.1092 Y-0.3806 I0.0409 J-0.047
X-0.0661 Y-0.4081 I0.0521 J0.0341
X-0.0357 Y-0.405 I0.0091 J0.0616 F60.
G1 X-0.0192 Y-0.3984
X-0.0079 Y-0.3952
X0.0063 Y-0.3918
X0.0146 Y-0.39
X0.0258 Y-0.3883
X0.0383 Y-0.3858
X0.0523 Y-0.3823
X0.0741 Y-0.3755
X0.1158 Y-0.3603
X0.1568 Y-0.3433
X0.1977 Y-0.3262
X0.2391 Y-0.3101
X0.2809 Y-0.2953
X0.3232 Y-0.282
X0.3661 Y-0.2704
X0.4093 Y-0.2603
X0.4528 Y-0.2517
X0.4966 Y-0.2444
X0.5405 Y-0.2383
X0.5846 Y-0.2333
X0.6288 Y-0.2291
X0.673 Y-0.2258
X0.7173 Y-0.223
X0.7616 Y-0.2208
X0.806 Y-0.2191
X0.8503 Y-0.2176
X0.8947 Y-0.2165
X0.9391 Y-0.2156
X0.9834 Y-0.215
X1.0278 Y-0.2144
X1.0722 Y-0.214
X1.1165 Y-0.2136
X1.1609 Y-0.2134
X1.191 Y-0.2132
X1.1972 Y-0.2131
X1.2034 Y-0.2126
X1.2095 Y-0.2118
X1.751 Y-0.1311
G3 X1.7758 Y-0.1142 I-0.0068 J0.0369
X1.7469 Y-0.0568 I-0.0317 J0.02 F300.
G1 X0.5995 Y-0.101
X0.4645 Y-0.1173
X0.3858 Y-0.1344
X0.0033 Y-0.2661
G3 X-0.0045 Y-0.3842 I0.0154 J-0.0604
X0.0258 Y-0.3883 I0.0233 J0.0578 F60.
G1 X1.2095 Y-0.2118
G3 X1.2344 Y-0.195 I-0.0068 J0.0369
G1 X1.2368 Y-0.1912 Z0.1691
X1.2392 Y-0.1874 Z0.1699
X1.2415 Y-0.1837 Z0.1713
X1.2437 Y-0.1802 Z0.1732
X1.2458 Y-0.177 Z0.1755
X1.2477 Y-0.174 Z0.1783
X1.2494 Y-0.1712 Z0.1815
X1.2509 Y-0.1689 Z0.1851
X1.2521 Y-0.1669 Z0.1889
X1.2531 Y-0.1653 Z0.1931
X1.2539 Y-0.1642 Z0.1974
X1.2543 Y-0.1635 Z0.2018
X1.2544 Y-0.1633 Z0.2064
G0 Z1.64
(2D CONTOUR1 2)
G64 P0.0004 Q0.0004
G0 X-0.2706 Y-0.6114
Z1.64
Z1.24
G1 Z0.2064 F80.
X-0.2703 Z0.2018 F60.
X-0.2695 Y-0.6115 Z0.1974
X-0.2682 Y-0.6116 Z0.1931
X-0.2663 Y-0.6118 Z0.1889
X-0.264 Y-0.6119 Z0.1851
X-0.2612 Y-0.6122 Z0.1815
X-0.258 Y-0.6124 Z0.1783
X-0.2544 Y-0.6127 Z0.1755
X-0.2506 Y-0.6131 Z0.1732
X-0.2465 Y-0.6134 Z0.1713
X-0.2422 Y-0.6138 Z0.1699
X-0.2377 Y-0.6141 Z0.1691
X-0.2332 Y-0.6145 Z0.1689
X-0.1958 Y-0.6176
G3 X-0.1554 Y-0.5834 I0.0031 J0.0374
G2 X-0.1105 Y-0.4766 I0.1869 J-0.0156
G1 X-0.0989 Y-0.463
G2 X0.0155 Y-0.4 I0.142 J-0.1224
G1 X3.9292 Y0.1836
G2 X4.0792 Y0.1402 I0.0277 J-0.1854
G1 X4.0909 Y0.1302
G2 X4.156 Y-0.0119 I-0.1223 J-0.1421
G1 Y-0.7363
G2 X4.1011 Y-0.8689 I-0.1875 J0.
G1 X4.0893 Y-0.8807
G2 X3.9567 Y-0.9356 I-0.1326 J0.1326
G1 X0.0433
G2 X-0.0893 Y-0.8807 I0. J0.1875
G1 X-0.1011 Y-0.8689
G2 X-0.156 Y-0.7363 I0.1326 J0.1326
G1 Y-0.599
G2 X-0.1105 Y-0.4766 I0.1875 J0.
G1 X-0.0989 Y-0.463
G2 X0.0155 Y-0.4 I0.142 J-0.1224
G1 X3.9292 Y0.1836
G2 X4.0792 Y0.1402 I0.0277 J-0.1854
G1 X4.0909 Y0.1302
G2 X4.156 Y-0.0119 I-0.1223 J-0.1421
G1 Y-0.7363
G2 X4.1011 Y-0.8689 I-0.1875 J0.
G1 X4.0893 Y-0.8807
G2 X3.9567 Y-0.9356 I-0.1326 J0.1326
G1 X0.0433
G2 X-0.0893 Y-0.8807 I0. J0.1875
G1 X-0.1011 Y-0.8689
G2 X-0.156 Y-0.7363 I0.1326 J0.1326
G1 Y-0.599
G2 X-0.1554 Y-0.5834 I0.1875 J0.
G3 X-0.1896 Y-0.5429 I-0.0374 J0.0031
G1 X-0.227 Y-0.5398
X-0.2315 Y-0.5394 Z0.1691
X-0.2359 Y-0.539 Z0.1699
X-0.2402 Y-0.5387 Z0.1713
X-0.2443 Y-0.5383 Z0.1732
X-0.2482 Y-0.538 Z0.1755
X-0.2518 Y-0.5377 Z0.1783
X-0.2549 Y-0.5374 Z0.1815
X-0.2577 Y-0.5372 Z0.1851
X-0.2601 Y-0.537 Z0.1889
X-0.2619 Y-0.5369 Z0.1931
X-0.2633 Y-0.5367 Z0.1974
X-0.2641 Z0.2018
X-0.2643 Z0.2064
G0 Z1.64
M5
G53 G0 Z0.
(DRILL1 2)
M9
M1
T51 M6
T11
S5000 M3
G17 G90 G94
G54
M8
G0 X3.248 Y-0.4296
G43 Z1.64 H51
G0 Z1.24
G98 G81 X3.248 Y-0.4296 Z0.3689 R1.235 F25.
X1.3974 Y-0.5668
G80
G0 Z1.64
M5
G53 G0 Z0.
(ENGRAVE1 3)
M9
M1
T11 M6
T35
S7500 M3
G17 G90 G94
G54
G64 P0.0004 Q0.0004
M8
G0 X3.4532 Y-0.2572
G43 Z1.64 H11
G0 Z1.235
G1 Z1.0259 F80.
X3.4561 Y-0.2535 Z1.0258 F10.
X3.458 Y-0.2509 Z1.0256
X3.4599 Y-0.2478 Z1.0254
X3.4608 Y-0.2458
X3.4612 Y-0.2449 Z1.0253
X3.4622 Y-0.2415 Z1.0252
X3.4628 Y-0.2389
X3.4638 Y-0.2312
X3.4639 Y-0.2298 Z1.0251
X3.4634 Y-0.2246
X3.4631 Y-0.2227 Z1.0252
X3.4625 Y-0.2197 Z1.0251
X3.461 Y-0.2153 Z1.0254
X3.4604 Y-0.214 Z1.0256
X3.4585 Y-0.2104
X3.4565 Y-0.2078 Z1.026
X3.4557 Y-0.2067 Z1.0261
X3.4516 Y-0.2024 Z1.0266
X3.4503 Y-0.2014 Z1.0269
X3.4471 Y-0.1992 Z1.0272
X3.4439 Y-0.1974 Z1.0277
X3.4414 Y-0.1962 Z1.0279
X3.4399 Y-0.1953
X3.4391 Y-0.1948 Z1.0278
X3.4384 Y-0.1942 Z1.0277
X3.4376 Y-0.1935 Z1.0274
X3.4361 Y-0.192 Z1.0266
X3.4352 Y-0.1911 Z1.0259
X3.4343 Y-0.1901 Z1.0252
X3.4288 Z1.0264
X3.4279 Z1.0265
X3.4213 Z1.0271
X3.4206 Z1.027
X3.4148 Z1.0264
X3.4129 Y-0.19 Z1.0261
X3.4097 Z1.0253
X3.4085 Y-0.1914 Z1.0263
X3.4073 Y-0.1925 Z1.0272
X3.4057 Y-0.1939 Z1.0278
X3.4045 Y-0.1948 Z1.0281
X3.4033 Y-0.1956 Z1.0282
X3.4022 Y-0.1961 Z1.0281
X3.3994 Y-0.1974 Z1.0278
X3.3966 Y-0.199 Z1.0273
X3.393 Y-0.2013 Z1.0269
X3.3921 Y-0.2019 Z1.0266
X3.3885 Y-0.2056 Z1.026
X3.3869 Y-0.2076 Z1.0258
X3.3854 Y-0.2095 Z1.0255
X3.383 Y-0.214 Z1.0254
X3.3826 Y-0.215 Z1.0253
X3.3814 Y-0.2188 Z1.025
X3.3807 Y-0.2223 Z1.0251
X3.3804 Y-0.2239 Z1.025
X3.38 Y-0.2293 Z1.0251
X3.3801 Y-0.2307
X3.3811 Y-0.239 Z1.0252
X3.3812 Y-0.2398
X3.3816 Y-0.2412 Z1.0251
X3.3827 Y-0.2444
X3.3841 Y-0.2475 Z1.0252
X3.3853 Y-0.2498 Z1.0255
X3.3859 Y-0.2508
X3.3889 Y-0.255 Z1.0258
X3.3907 Y-0.2572
X3.3929 Y-0.2592 Z1.0261
X3.3963 Y-0.2618 Z1.0263
X3.4007 Y-0.2647 Z1.0264
X3.4046 Y-0.2665 Z1.0265
X3.406 Y-0.2671 Z1.0266
X3.4084 Y-0.2678 Z1.0267
X3.4109 Y-0.2685 Z1.0269
X3.4121 Y-0.2687
X3.4164 Y-0.2693 Z1.0271
X3.4215 Y-0.2697
X3.4292 Y-0.2691 Z1.027
X3.4304 Y-0.2689
X3.4354 Y-0.2679 Z1.0268
X3.4367 Y-0.2676
X3.4384 Y-0.267 Z1.0267
X3.4428 Y-0.2649 Z1.0264
X3.4451 Y-0.2636
X3.4503 Y-0.2598 Z1.0263
X3.4511 Y-0.2591
X3.4532 Y-0.2572 Z1.0259
G0 Z1.24
X3.4097 Y-0.19
Z1.235
G1 Z1.0253 F80.
X3.4087 Y-0.1887 Z1.0263 F10.
X3.4075 Y-0.1872 Z1.0271
X3.4063 Y-0.1859 Z1.0277
X3.4049 Y-0.1848 Z1.0281
X3.4037 Y-0.1839 Z1.0282
X3.3989 Y-0.181 Z1.0276
X3.3982 Y-0.1806 Z1.0275
X3.3949 Y-0.1778 Z1.0267
X3.3934 Y-0.1763 Z1.0265
X3.3925 Y-0.1753 Z1.0263
X3.3898 Y-0.1715 Z1.0257
X3.3891 Y-0.1701
X3.3886 Y-0.169 Z1.0255
X3.3872 Y-0.1649 Z1.0251
X3.3871 Y-0.1643 Z1.0252
X3.3866 Y-0.1614 Z1.0251
X3.3863 Y-0.1578
Y-0.1567 Z1.0252
X3.387 Y-0.151
X3.3876 Y-0.1481
X3.3884 Y-0.1455
X3.3886 Y-0.1449 Z1.0253
X3.3894 Y-0.1432 Z1.0254
X3.3911 Y-0.1406 Z1.0255
X3.3923 Y-0.1388 Z1.0257
X3.395 Y-0.1355
X3.3973 Y-0.1335 Z1.0261
X3.3981 Y-0.1328 Z1.0262
X3.4008 Y-0.1308
X3.4034 Y-0.1292 Z1.0263
X3.4038 Y-0.129
X3.4067 Y-0.1276 Z1.0265
X3.4088 Y-0.1268 Z1.0267
X3.4099 Y-0.1264
X3.4148 Y-0.1255 Z1.027
X3.4159 Y-0.1253
X3.4216 Y-0.1248 Z1.0271
X3.4226 Y-0.1249
X3.4289 Y-0.1255 Z1.027
X3.4297 Y-0.1257 Z1.0269
X3.4339 Y-0.1266 Z1.0268
X3.4348 Y-0.1269
X3.4366 Y-0.1276 Z1.0265
X3.4403 Y-0.1295 Z1.0264
X3.4426 Y-0.131 Z1.0262
X3.4462 Y-0.1338
X3.447 Y-0.1344 Z1.026
X3.4484 Y-0.1357 Z1.0258
X3.4513 Y-0.1393 Z1.0257
X3.4525 Y-0.141 Z1.0255
X3.4542 Y-0.1438 Z1.0254
X3.4546 Y-0.1447
X3.4552 Y-0.146 Z1.0252
X3.456 Y-0.1486 Z1.0251
X3.4567 Y-0.1518 Z1.0252
X3.4574 Y-0.1582 Z1.0251
X3.4573 Y-0.159
X3.457 Y-0.1618 Z1.025
X3.4564 Y-0.1653 Z1.0251
X3.4553 Y-0.1685 Z1.0254
X3.4544 Y-0.1707 Z1.0257
X3.4537 Y-0.172
X3.4508 Y-0.1758 Z1.0263
X3.4489 Y-0.1778 Z1.0266
X3.4457 Y-0.1806 Z1.0274
X3.4447 Y-0.1812 Z1.0275
X3.4402 Y-0.1839 Z1.0281
X3.4388 Y-0.1849 Z1.0279
X3.4376 Y-0.186 Z1.0275
X3.4369 Y-0.1866 Z1.0272
X3.4352 Y-0.1888 Z1.0261
X3.4343 Y-0.1901 Z1.0252
G0 Z1.24
X3.5035 Y-0.275
Z1.235
G1 Z1.035 F80.
X3.5144 Y-0.264 Z1.024 F10.
X3.5254 Y-0.275 Z1.035
X3.5144 Y-0.264 Z1.024
X3.5035 Y-0.253 Z1.035
X3.5144 Y-0.264 Z1.024
X3.5254 Y-0.253 Z1.035
G0 Z1.24
X3.5474 Y-0.2373
Z1.235
G1 Z1.035 F80.
X3.5581 Y-0.2265 Z1.0242 F10.
X3.5602 Y-0.2274 Z1.0251
X3.5623 Y-0.228 Z1.0257
X3.5633 Y-0.2281 Z1.0259
X3.5643 Y-0.2283 Z1.026
X3.5653 Y-0.2284 Z1.0261
X3.5664
X3.6165
X3.6184 Z1.0257
X3.6194 Z1.0254
X3.6206 Z1.0249
X3.6219 Z1.0241
X3.6235 Z1.0232
X3.6253 Z1.0219
X3.6287 Z1.0241
X3.6313 Z1.0254
X3.6333 Z1.026
X3.635 Z1.0261
X3.6474
X3.6563 Y-0.2373 Z1.035
X3.6474 Y-0.2284 Z1.0261
X3.6563 Y-0.2196 Z1.035
X3.6474 Y-0.2284 Z1.0261
X3.635
X3.6333 Z1.026
X3.6313 Z1.0254
X3.6287 Z1.0241
X3.6253 Z1.0219
Y-0.2301 Z1.0229
Y-0.2315 Z1.0237
Y-0.2338 Z1.0247
Y-0.2357 Z1.0252
Y-0.2373 Z1.0253
Y-0.2653
X3.6157 Y-0.275 Z1.035
X3.6253 Y-0.2653 Z1.0253
X3.635 Y-0.275 Z1.035
X3.6253 Y-0.2653 Z1.0253
Y-0.2373
Y-0.2357 Z1.0252
Y-0.2338 Z1.0247
Y-0.2315 Z1.0237
Y-0.2301 Z1.0229
Y-0.2284 Z1.0219
Y-0.2254 Z1.0237
Y-0.2231 Z1.0247
Y-0.2212 Z1.0252
Y-0.2196 Z1.0253
Y-0.1474
X3.6252 Y-0.1462 Z1.0252
X3.625 Y-0.1451 Z1.025
X3.6248 Y-0.1439 Z1.0248
X3.6244 Y-0.1427 Z1.0245
X3.6241 Y-0.1415 Z1.0241
X3.6236 Y-0.1404 Z1.0236
X3.6231 Y-0.1392 Z1.0231
X3.6218 Y-0.1368 Z1.0218
X3.6246 Y-0.1279 Z1.0246
X3.6192 Y-0.1176 Z1.035
X3.6246 Y-0.1279 Z1.0246
X3.635 Y-0.1176 Z1.035
X3.6246 Y-0.1279 Z1.0246
X3.6218 Y-0.1368 Z1.0218
X3.6191 Y-0.1376 Z1.0235
X3.6167 Y-0.1386 Z1.025
X3.6156 Y-0.1392 Z1.0256
X3.6145 Y-0.1397 Z1.0261
X3.6135 Y-0.1404 Z1.0265
X3.6126 Y-0.1411 Z1.0269
X3.6118 Y-0.1418 Z1.0272
X3.6109 Y-0.1426 Z1.0274
X3.6102 Y-0.1434 Z1.0275
X3.56 Y-0.2151 Z1.0272
X3.5595 Y-0.216
X3.559 Y-0.2168 Z1.0271
X3.5586 Y-0.2177 Z1.027
X3.5582 Y-0.2186 Z1.0267
X3.5575 Y-0.2206 Z1.0261
X3.5571 Y-0.2227 Z1.0252
X3.5575 Y-0.2246 Z1.0248
X3.5581 Y-0.2265 Z1.0242
X3.5575 Y-0.2246 Z1.0248
X3.5571 Y-0.2227 Z1.0252
X3.5474 Y-0.2196 Z1.035
G0 Z1.24
X3.6253 Y-0.2284
Z1.235
G1 Z1.0219 F80.
G0 Z1.24
X3.7401 Y-0.1901
Z1.235
G1 Z1.0252 F80.
X3.741 Y-0.1911 Z1.0259 F10.
X3.7419 Y-0.192 Z1.0266
X3.7429 Y-0.193 Z1.0272
X3.7442 Y-0.1942 Z1.0277
X3.745 Y-0.1948 Z1.0278
X3.7458 Y-0.1953 Z1.0279
X3.7466 Y-0.1958
X3.7488 Y-0.1969 Z1.0278
X3.753 Y-0.1992 Z1.0272
X3.7553 Y-0.2008 Z1.027
X3.7562 Y-0.2014 Z1.0269
X3.757 Y-0.202 Z1.0267
X3.7611 Y-0.2062 Z1.0261
X3.7615 Y-0.2067
X3.7643 Y-0.2104 Z1.0256
X3.7658 Y-0.213
X3.7662 Y-0.214
X3.7667 Y-0.2149 Z1.0255
X3.7683 Y-0.2197 Z1.0251
X3.7687 Y-0.2213 Z1.0252
X3.7692 Y-0.2246 Z1.0251
X3.7696 Y-0.2292
X3.7697 Y-0.2298
X3.7689 Y-0.2375 Z1.0252
X3.7681 Y-0.2415
X3.7671 Y-0.2447 Z1.0253
X3.7666 Y-0.2458 Z1.0254
X3.7662 Y-0.2468
X3.7638 Y-0.2509 Z1.0256
X3.7628 Y-0.2524 Z1.0257
X3.759 Y-0.2572 Z1.0259
X3.757 Y-0.2591 Z1.0263
X3.7522 Y-0.2627
X3.7509 Y-0.2636 Z1.0264
X3.7486 Y-0.2649
X3.7451 Y-0.2666 Z1.0266
X3.7443 Y-0.267 Z1.0267
X3.7425 Y-0.2676 Z1.0268
X3.737 Y-0.2688 Z1.0269
X3.7362 Y-0.2689 Z1.027
X3.7287 Y-0.2697 Z1.0271
X3.7277
X3.723 Y-0.2694
X3.7184 Y-0.2688 Z1.0269
X3.718 Y-0.2687
X3.7142 Y-0.2678 Z1.0267
X3.7126 Y-0.2673 Z1.0266
X3.7104 Y-0.2665 Z1.0265
X3.7078 Y-0.2654
X3.7068 Y-0.2649 Z1.0264
X3.7033 Y-0.2627 Z1.0263
X3.6988 Y-0.2592 Z1.0261
X3.6975 Y-0.2581 Z1.026
X3.6965 Y-0.2572 Z1.0258
X3.6941 Y-0.2541
X3.6916 Y-0.2506 Z1.0255
X3.6906 Y-0.2489 Z1.0254
X3.6899 Y-0.2475 Z1.0252
X3.6885 Y-0.2444 Z1.0251
X3.6874 Y-0.2412
X3.6869 Y-0.239 Z1.0252
X3.6867 Y-0.2376 Z1.0251
X3.6858 Y-0.2293
Y-0.2285
X3.6862 Y-0.2239 Z1.025
X3.6867 Y-0.2209 Z1.0251
X3.6872 Y-0.2188 Z1.025
X3.6888 Y-0.214 Z1.0254
X3.6895 Y-0.2128
X3.6913 Y-0.2095 Z1.0255
X3.6936 Y-0.2065 Z1.0259
X3.6944 Y-0.2056 Z1.026
X3.698 Y-0.2019 Z1.0266
X3.6988 Y-0.2013 Z1.0269
X3.6997 Y-0.2006 Z1.027
X3.7024 Y-0.199 Z1.0273
X3.7062 Y-0.197 Z1.0279
X3.7091 Y-0.1956 Z1.0282
X3.7104 Y-0.1948 Z1.0281
X3.7121 Y-0.1934 Z1.0276
X3.7131 Y-0.1925 Z1.0272
X3.7143 Y-0.1914 Z1.0263
X3.7155 Y-0.19 Z1.0253
X3.7145 Y-0.1887 Z1.0263
X3.7133 Y-0.1872 Z1.0271
X3.7121 Y-0.1859 Z1.0277
X3.7108 Y-0.1848 Z1.0281
X3.7095 Y-0.1839 Z1.0282
X3.7047 Y-0.181 Z1.0276
X3.704 Y-0.1806 Z1.0275
X3.7007 Y-0.1778 Z1.0267
X3.6993 Y-0.1763 Z1.0265
X3.6984 Y-0.1753 Z1.0263
X3.6956 Y-0.1715 Z1.0257
X3.6949 Y-0.1701
X3.6944 Y-0.169 Z1.0255
X3.693 Y-0.1649 Z1.0251
X3.6929 Y-0.1643 Z1.0252
X3.6924 Y-0.1614 Z1.0251
X3.6921 Y-0.1578
X3.6922 Y-0.1567 Z1.0252
X3.6928 Y-0.151
X3.6934 Y-0.1481
X3.6942 Y-0.1455
X3.6945 Y-0.1449 Z1.0253
X3.6953 Y-0.1432 Z1.0254
X3.6969 Y-0.1406 Z1.0255
X3.6982 Y-0.1388 Z1.0257
X3.7009 Y-0.1355
X3.7031 Y-0.1335 Z1.0261
X3.7039 Y-0.1328 Z1.0262
X3.7066 Y-0.1308
X3.7092 Y-0.1292 Z1.0263
X3.7096 Y-0.129
X3.7126 Y-0.1276 Z1.0265
X3.7146 Y-0.1268 Z1.0267
X3.7158 Y-0.1264
X3.7206 Y-0.1255 Z1.027
X3.7217 Y-0.1253
X3.7274 Y-0.1248 Z1.0271
X3.7284 Y-0.1249
X3.7347 Y-0.1255 Z1.027
X3.7355 Y-0.1257 Z1.0269
X3.7397 Y-0.1266 Z1.0268
X3.7406 Y-0.1269
X3.7424 Y-0.1276 Z1.0265
X3.7462 Y-0.1295 Z1.0264
X3.7484 Y-0.131 Z1.0262
X3.7521 Y-0.1338
X3.7529 Y-0.1344 Z1.026
X3.7543 Y-0.1357 Z1.0258
X3.7571 Y-0.1393 Z1.0257
X3.7583 Y-0.141 Z1.0255
X3.76 Y-0.1438 Z1.0254
X3.7604 Y-0.1447
X3.761 Y-0.146 Z1.0252
X3.7618 Y-0.1486 Z1.0251
X3.7625 Y-0.1518 Z1.0252
X3.7632 Y-0.1582 Z1.0251
X3.7631 Y-0.159
X3.7629 Y-0.1618 Z1.025
X3.7622 Y-0.1653 Z1.0251
X3.7612 Y-0.1685 Z1.0254
X3.7602 Y-0.1707 Z1.0257
X3.7595 Y-0.172
X3.7567 Y-0.1758 Z1.0263
X3.7547 Y-0.1778 Z1.0266
X3.7515 Y-0.1806 Z1.0274
X3.7505 Y-0.1812 Z1.0275
X3.746 Y-0.1839 Z1.0281
X3.7447 Y-0.1849 Z1.0279
X3.7434 Y-0.186 Z1.0275
X3.7428 Y-0.1866 Z1.0272
X3.7411 Y-0.1888 Z1.0261
X3.7401 Y-0.1901 Z1.0252
X3.7346 Z1.0264
X3.7337 Z1.0265
X3.7271 Z1.0271
X3.7265 Z1.027
X3.7207 Z1.0264
X3.7188 Y-0.19 Z1.0261
X3.7155 Z1.0253
G0 Z1.24
X3.5912 Y-0.4702
Z1.235
G1 Z1.035 F80.
X3.5989 Y-0.4766 Z1.0279 F10.
X3.6026 Y-0.4794 Z1.0249
X3.6061 Y-0.4745 Z1.0294
X3.6108 Y-0.4685 Z1.035
X3.6061 Y-0.4745 Z1.0294
X3.6026 Y-0.4794 Z1.0249
X3.6033 Y-0.482 Z1.0248
X3.6054 Y-0.4872
X3.6082 Y-0.4927
X3.6093 Y-0.4943
X3.612 Y-0.4975
X3.6129 Y-0.4985
X3.6162 Y-0.5016
X3.6187 Y-0.5035 Z1.0249
X3.621 Y-0.505
X3.6232 Y-0.5063 Z1.025
X3.6263 Y-0.508
X3.6287 Y-0.5089 Z1.0252
X3.6338 Y-0.5107 Z1.0253
X3.6359 Y-0.5113 Z1.0254
X3.6416 Y-0.5127
X3.6426 Y-0.5129 Z1.0255
X3.6498 Y-0.5138 Z1.0256
X3.6568 Y-0.5141 Z1.0257
X3.6652 Y-0.5137 Z1.0256
X3.6692 Y-0.5132 Z1.0257
X3.6719 Y-0.5127 Z1.0255
X3.6784 Y-0.511 Z1.0256
X3.6808 Y-0.5103 Z1.0257
X3.6847 Y-0.5087 Z1.0256
X3.6861 Y-0.508
X3.6897 Y-0.506
X3.6911 Y-0.5051 Z1.0257
X3.6941 Y-0.5028 Z1.0255
X3.6952 Y-0.5019
X3.6979 Y-0.499
X3.6992 Y-0.4975 Z1.0256
X3.7012 Y-0.4947 Z1.0254
X3.702 Y-0.4934
X3.7035 Y-0.4903 Z1.0253
X3.7042 Y-0.4888
X3.7052 Y-0.4858 Z1.0252
X3.7056 Y-0.4838
X3.7061 Y-0.4811 Z1.0251
X3.7063 Y-0.479
Y-0.478
X3.7064 Y-0.4762 Z1.0249
X3.7061 Y-0.4736
X3.706 Y-0.4724
X3.7054 Y-0.469 Z1.0248
X3.705 Y-0.4675 Z1.0247
X3.7034 Y-0.4638 Z1.0246
X3.7012 Y-0.4599 Z1.0245
X3.7 Y-0.4584 Z1.0246
X3.698 Y-0.4562 Z1.0245
X3.6964 Y-0.4546
X3.6943 Y-0.4529 Z1.0244
X3.6921 Y-0.4513 Z1.0245
X3.6902 Y-0.45
X3.6855 Y-0.4476 Z1.0244
X3.6824 Y-0.4464 Z1.0246
X3.6695 Y-0.4423 Z1.0245
X3.6525 Y-0.4381 Z1.0246
X3.6443 Y-0.4361 Z1.0247
X3.6375 Y-0.4342
X3.6356 Y-0.4336 Z1.0248
X3.6306 Y-0.4317 Z1.0247
X3.6268 Y-0.4301
X3.6242 Y-0.4289 Z1.0245
X3.6203 Y-0.4267 Z1.0246
X3.6185 Y-0.4256 Z1.0248
X3.6168 Y-0.4243
X3.6138 Y-0.4213 Z1.0247
X3.613 Y-0.4203 Z1.0248
X3.6114 Y-0.4181 Z1.0247
X3.61 Y-0.4156 Z1.0248
X3.6092 Y-0.4139
X3.6084 Y-0.4115 Z1.0247
X3.6077 Y-0.4084 Z1.0249
X3.6073 Y-0.4041
Y-0.4027 Z1.0251
X3.6076 Y-0.3996 Z1.025
X3.6083 Y-0.3958 Z1.0251
X3.6099 Y-0.3912 Z1.0252
X3.6111 Y-0.3887 Z1.0254
X3.612 Y-0.3872 Z1.0253
X3.6149 Y-0.3834 Z1.0254
X3.6185 Y-0.3798 Z1.0255
X3.62 Y-0.3787 Z1.0257
X3.6215 Y-0.3777
X3.6273 Y-0.3747 Z1.0256
X3.628 Y-0.3744 Z1.0257
X3.6333 Y-0.3725 Z1.0258
X3.6368 Y-0.3715 Z1.026
X3.6395 Y-0.3709 Z1.0258
X3.6449 Y-0.3702 Z1.0259
X3.6526 Y-0.3698 Z1.0258
X3.6597 Y-0.3701
X3.6612 Y-0.3702 Z1.0259
X3.6666 Y-0.371 Z1.0258
X3.67 Y-0.3717 Z1.0259
X3.6733 Y-0.3727 Z1.0258
X3.6779 Y-0.3743 Z1.0256
X3.6791 Y-0.3748
X3.6846 Y-0.3777 Z1.0254
X3.6855 Y-0.3783
X3.6871 Y-0.3793
X3.6888 Y-0.3807 Z1.0251
X3.6924 Y-0.3844 Z1.025
X3.6926 Y-0.3848
X3.6955 Y-0.3886 Z1.0248
X3.6971 Y-0.3913 Z1.0249
X3.698 Y-0.393
X3.6998 Y-0.3978 Z1.0247
X3.6999 Y-0.3983
X3.6987 Y-0.4 Z1.0264
X3.6918 Y-0.4091 Z1.035
X3.6987 Y-0.4 Z1.0264
X3.6999 Y-0.3983 Z1.0247
X3.705 Y-0.4021 Z1.0289
X3.7117 Y-0.4076 Z1.035
G0 Z1.24
X3.5494 Y-0.4113
Z1.235
G1 Z1.035 F80.
X3.5548 Y-0.4012 Z1.0264 F10.
X3.5558 Y-0.3991 Z1.0246
X3.558 Y-0.4002 Z1.0261
X3.5698 Y-0.4065 Z1.035
X3.558 Y-0.4002 Z1.0261
X3.5558 Y-0.3991 Z1.0246
X3.5547 Y-0.3969 Z1.0245
X3.5528 Y-0.3934 Z1.0247
X3.5515 Y-0.3915 Z1.0248
X3.5514 Y-0.3913
X3.5478 Y-0.3868 Z1.0249
X3.5466 Y-0.3856 Z1.0251
X3.5415 Y-0.3806 Z1.0252
X3.5392 Y-0.3788 Z1.0256
X3.5338 Y-0.3757
X3.532 Y-0.3747 Z1.0257
X3.5309 Y-0.3742
X3.5259 Y-0.3722 Z1.0258
X3.5231 Y-0.3714 Z1.0259
X3.5173 Y-0.3704 Z1.026
X3.5159 Y-0.3702 Z1.0261
X3.5079 Y-0.3696
X3.4987 Y-0.3701
X3.4901 Y-0.3716
X3.4885 Y-0.372 Z1.0262
X3.4818 Y-0.3745 Z1.026
X3.4807 Y-0.375
X3.4739 Y-0.3783 Z1.0258
X3.4717 Y-0.3796 Z1.0259
X3.4669 Y-0.3833 Z1.0256
X3.4641 Y-0.3857 Z1.0254
X3.461 Y-0.3888 Z1.0252
X3.4591 Y-0.391
X3.4584 Y-0.3918
X3.4562 Y-0.3952 Z1.025
X3.4541 Y-0.3987
X3.4519 Y-0.4027 Z1.0247
X3.4503 Y-0.4065
X3.4485 Y-0.4118 Z1.0245
X3.4475 Y-0.4151
X3.446 Y-0.4211 Z1.0242
X3.4456 Y-0.4232 Z1.0243
X3.4446 Y-0.4308
X3.4441 Y-0.4402
X3.4445 Y-0.4501
X3.4456 Y-0.4597 Z1.0245
X3.4479 Y-0.4695 Z1.0246
X3.4509 Y-0.4788 Z1.0248
X3.4548 Y-0.4868 Z1.025
X3.4594 Y-0.4939
X3.4605 Y-0.4952 Z1.0251
X3.4609 Y-0.4956
X3.4648 Y-0.4995
X3.4661 Y-0.5007 Z1.0252
X3.4712 Y-0.5048 Z1.0251
X3.4738 Y-0.5063 Z1.0255
X3.4795 Y-0.5091
X3.481 Y-0.5098 Z1.0256
X3.4838 Y-0.5109
X3.488 Y-0.5123 Z1.0257
X3.4885 Y-0.5124 Z1.0258
X3.4925 Y-0.5132
X3.4969 Y-0.5139 Z1.026
X3.5049 Y-0.5145 Z1.0261
X3.5064
X3.5144 Y-0.5139 Z1.026
X3.5156 Y-0.5138
X3.5221 Y-0.5126 Z1.0257
X3.5233 Y-0.5123
X3.5264 Y-0.5114 Z1.0256
X3.5286 Y-0.5105
X3.5305 Y-0.5096 Z1.0255
X3.5337 Y-0.508 Z1.0254
X3.5406 Y-0.5037 Z1.0253
X3.5416 Y-0.503 Z1.0252
X3.5426 Y-0.5022 Z1.0251
X3.5486 Y-0.4958 Z1.0249
X3.5519 Y-0.4918 Z1.0248
X3.5549 Y-0.4874 Z1.0246
X3.5571 Y-0.4829 Z1.0244
X3.559 Y-0.4783
X3.5517 Y-0.4656 Z1.035
X3.559 Y-0.4783 Z1.0244
X3.5725 Y-0.4709 Z1.035
G0 Z1.64
(ENGRAVE1 5)
G0 X3.4532 Y-0.2572
Z1.64
Z1.235
G1 Z1.0259 F80.
X3.4561 Y-0.2535 Z1.0258 F10.
X3.458 Y-0.2509 Z1.0256
X3.4599 Y-0.2478 Z1.0254
X3.4608 Y-0.2458
X3.4612 Y-0.2449 Z1.0253
X3.4622 Y-0.2415 Z1.0252
X3.4628 Y-0.2389
X3.4638 Y-0.2312
X3.4639 Y-0.2298 Z1.0251
X3.4634 Y-0.2246
X3.4631 Y-0.2227 Z1.0252
X3.4625 Y-0.2197 Z1.0251
X3.461 Y-0.2153 Z1.0254
X3.4604 Y-0.214 Z1.0256
X3.4585 Y-0.2104
X3.4565 Y-0.2078 Z1.026
X3.4557 Y-0.2067 Z1.0261
X3.4516 Y-0.2024 Z1.0266
X3.4503 Y-0.2014 Z1.0269
X3.4471 Y-0.1992 Z1.0272
X3.4439 Y-0.1974 Z1.0277
X3.4414 Y-0.1962 Z1.0279
X3.4399 Y-0.1953
X3.4391 Y-0.1948 Z1.0278
X3.4384 Y-0.1942 Z1.0277
X3.4376 Y-0.1935 Z1.0274
X3.4361 Y-0.192 Z1.0266
X3.4352 Y-0.1911 Z1.0259
X3.4343 Y-0.1901 Z1.0252
X3.4288 Z1.0264
X3.4279 Z1.0265
X3.4213 Z1.0271
X3.4206 Z1.027
X3.4148 Z1.0264
X3.4129 Y-0.19 Z1.0261
X3.4097 Z1.0253
X3.4085 Y-0.1914 Z1.0263
X3.4073 Y-0.1925 Z1.0272
X3.4057 Y-0.1939 Z1.0278
X3.4045 Y-0.1948 Z1.0281
X3.4033 Y-0.1956 Z1.0282
X3.4022 Y-0.1961 Z1.0281
X3.3994 Y-0.1974 Z1.0278
X3.3966 Y-0.199 Z1.0273
X3.393 Y-0.2013 Z1.0269
X3.3921 Y-0.2019 Z1.0266
X3.3885 Y-0.2056 Z1.026
X3.3869 Y-0.2076 Z1.0258
X3.3854 Y-0.2095 Z1.0255
X3.383 Y-0.214 Z1.0254
X3.3826 Y-0.215 Z1.0253
X3.3814 Y-0.2188 Z1.025
X3.3807 Y-0.2223 Z1.0251
X3.3804 Y-0.2239 Z1.025
X3.38 Y-0.2293 Z1.0251
X3.3801 Y-0.2307
X3.3811 Y-0.239 Z1.0252
X3.3812 Y-0.2398
X3.3816 Y-0.2412 Z1.0251
X3.3827 Y-0.2444
X3.3841 Y-0.2475 Z1.0252
X3.3853 Y-0.2498 Z1.0255
X3.3859 Y-0.2508
X3.3889 Y-0.255 Z1.0258
X3.3907 Y-0.2572
X3.3929 Y-0.2592 Z1.0261
X3.3963 Y-0.2618 Z1.0263
X3.4007 Y-0.2647 Z1.0264
X3.4046 Y-0.2665 Z1.0265
X3.406 Y-0.2671 Z1.0266
X3.4084 Y-0.2678 Z1.0267
X3.4109 Y-0.2685 Z1.0269
X3.4121 Y-0.2687
X3.4164 Y-0.2693 Z1.0271
X3.4215 Y-0.2697
X3.4292 Y-0.2691 Z1.027
X3.4304 Y-0.2689
X3.4354 Y-0.2679 Z1.0268
X3.4367 Y-0.2676
X3.4384 Y-0.267 Z1.0267
X3.4428 Y-0.2649 Z1.0264
X3.4451 Y-0.2636
X3.4503 Y-0.2598 Z1.0263
X3.4511 Y-0.2591
X3.4532 Y-0.2572 Z1.0259
G0 Z1.24
X3.4097 Y-0.19
Z1.235
G1 Z1.0253 F80.
X3.4087 Y-0.1887 Z1.0263 F10.
X3.4075 Y-0.1872 Z1.0271
X3.4063 Y-0.1859 Z1.0277
X3.4049 Y-0.1848 Z1.0281
X3.4037 Y-0.1839 Z1.0282
X3.3989 Y-0.181 Z1.0276
X3.3982 Y-0.1806 Z1.0275
X3.3949 Y-0.1778 Z1.0267
X3.3934 Y-0.1763 Z1.0265
X3.3925 Y-0.1753 Z1.0263
X3.3898 Y-0.1715 Z1.0257
X3.3891 Y-0.1701
X3.3886 Y-0.169 Z1.0255
X3.3872 Y-0.1649 Z1.0251
X3.3871 Y-0.1643 Z1.0252
X3.3866 Y-0.1614 Z1.0251
X3.3863 Y-0.1578
Y-0.1567 Z1.0252
X3.387 Y-0.151
X3.3876 Y-0.1481
X3.3884 Y-0.1455
X3.3886 Y-0.1449 Z1.0253
X3.3894 Y-0.1432 Z1.0254
X3.3911 Y-0.1406 Z1.0255
X3.3923 Y-0.1388 Z1.0257
X3.395 Y-0.1355
X3.3973 Y-0.1335 Z1.0261
X3.3981 Y-0.1328 Z1.0262
X3.4008 Y-0.1308
X3.4034 Y-0.1292 Z1.0263
X3.4038 Y-0.129
X3.4067 Y-0.1276 Z1.0265
X3.4088 Y-0.1268 Z1.0267
X3.4099 Y-0.1264
X3.4148 Y-0.1255 Z1.027
X3.4159 Y-0.1253
X3.4216 Y-0.1248 Z1.0271
X3.4226 Y-0.1249
X3.4289 Y-0.1255 Z1.027
X3.4297 Y-0.1257 Z1.0269
X3.4339 Y-0.1266 Z1.0268
X3.4348 Y-0.1269
X3.4366 Y-0.1276 Z1.0265
X3.4403 Y-0.1295 Z1.0264
X3.4426 Y-0.131 Z1.0262
X3.4462 Y-0.1338
X3.447 Y-0.1344 Z1.026
X3.4484 Y-0.1357 Z1.0258
X3.4513 Y-0.1393 Z1.0257
X3.4525 Y-0.141 Z1.0255
X3.4542 Y-0.1438 Z1.0254
X3.4546 Y-0.1447
X3.4552 Y-0.146 Z1.0252
X3.456 Y-0.1486 Z1.0251
X3.4567 Y-0.1518 Z1.0252
X3.4574 Y-0.1582 Z1.0251
X3.4573 Y-0.159
X3.457 Y-0.1618 Z1.025
X3.4564 Y-0.1653 Z1.0251
X3.4553 Y-0.1685 Z1.0254
X3.4544 Y-0.1707 Z1.0257
X3.4537 Y-0.172
X3.4508 Y-0.1758 Z1.0263
X3.4489 Y-0.1778 Z1.0266
X3.4457 Y-0.1806 Z1.0274
X3.4447 Y-0.1812 Z1.0275
X3.4402 Y-0.1839 Z1.0281
X3.4388 Y-0.1849 Z1.0279
X3.4376 Y-0.186 Z1.0275
X3.4369 Y-0.1866 Z1.0272
X3.4352 Y-0.1888 Z1.0261
X3.4343 Y-0.1901 Z1.0252
G0 Z1.24
X3.5035 Y-0.275
Z1.235
G1 Z1.035 F80.
X3.5144 Y-0.264 Z1.024 F10.
X3.5254 Y-0.275 Z1.035
X3.5144 Y-0.264 Z1.024
X3.5035 Y-0.253 Z1.035
X3.5144 Y-0.264 Z1.024
X3.5254 Y-0.253 Z1.035
G0 Z1.24
X3.5474 Y-0.2373
Z1.235
G1 Z1.035 F80.
X3.5581 Y-0.2265 Z1.0242 F10.
X3.5602 Y-0.2274 Z1.0251
X3.5623 Y-0.228 Z1.0257
X3.5633 Y-0.2281 Z1.0259
X3.5643 Y-0.2283 Z1.026
X3.5653 Y-0.2284 Z1.0261
X3.5664
X3.6165
X3.6184 Z1.0257
X3.6194 Z1.0254
X3.6206 Z1.0249
X3.6219 Z1.0241
X3.6235 Z1.0232
X3.6253 Z1.0219
X3.6287 Z1.0241
X3.6313 Z1.0254
X3.6333 Z1.026
X3.635 Z1.0261
X3.6474
X3.6563 Y-0.2373 Z1.035
X3.6474 Y-0.2284 Z1.0261
X3.6563 Y-0.2196 Z1.035
X3.6474 Y-0.2284 Z1.0261
X3.635
X3.6333 Z1.026
X3.6313 Z1.0254
X3.6287 Z1.0241
X3.6253 Z1.0219
Y-0.2301 Z1.0229
Y-0.2315 Z1.0237
Y-0.2338 Z1.0247
Y-0.2357 Z1.0252
Y-0.2373 Z1.0253
Y-0.2653
X3.6157 Y-0.275 Z1.035
X3.6253 Y-0.2653 Z1.0253
X3.635 Y-0.275 Z1.035
X3.6253 Y-0.2653 Z1.0253
Y-0.2373
Y-0.2357 Z1.0252
Y-0.2338 Z1.0247
Y-0.2315 Z1.0237
Y-0.2301 Z1.0229
Y-0.2284 Z1.0219
Y-0.2254 Z1.0237
Y-0.2231 Z1.0247
Y-0.2212 Z1.0252
Y-0.2196 Z1.0253
Y-0.1474
X3.6252 Y-0.1462 Z1.0252
X3.625 Y-0.1451 Z1.025
X3.6248 Y-0.1439 Z1.0248
X3.6244 Y-0.1427 Z1.0245
X3.6241 Y-0.1415 Z1.0241
X3.6236 Y-0.1404 Z1.0236
X3.6231 Y-0.1392 Z1.0231
X3.6218 Y-0.1368 Z1.0218
X3.6246 Y-0.1279 Z1.0246
X3.6192 Y-0.1176 Z1.035
X3.6246 Y-0.1279 Z1.0246
X3.635 Y-0.1176 Z1.035
X3.6246 Y-0.1279 Z1.0246
X3.6218 Y-0.1368 Z1.0218
X3.6191 Y-0.1376 Z1.0235
X3.6167 Y-0.1386 Z1.025
X3.6156 Y-0.1392 Z1.0256
X3.6145 Y-0.1397 Z1.0261
X3.6135 Y-0.1404 Z1.0265
X3.6126 Y-0.1411 Z1.0269
X3.6118 Y-0.1418 Z1.0272
X3.6109 Y-0.1426 Z1.0274
X3.6102 Y-0.1434 Z1.0275
X3.56 Y-0.2151 Z1.0272
X3.5595 Y-0.216
X3.559 Y-0.2168 Z1.0271
X3.5586 Y-0.2177 Z1.027
X3.5582 Y-0.2186 Z1.0267
X3.5575 Y-0.2206 Z1.0261
X3.5571 Y-0.2227 Z1.0252
X3.5575 Y-0.2246 Z1.0248
X3.5581 Y-0.2265 Z1.0242
X3.5575 Y-0.2246 Z1.0248
X3.5571 Y-0.2227 Z1.0252
X3.5474 Y-0.2196 Z1.035
G0 Z1.24
X3.6253 Y-0.2284
Z1.235
G1 Z1.0219 F80.
G0 Z1.24
X3.7401 Y-0.1901
Z1.235
G1 Z1.0252 F80.
X3.741 Y-0.1911 Z1.0259 F10.
X3.7419 Y-0.192 Z1.0266
X3.7429 Y-0.193 Z1.0272
X3.7442 Y-0.1942 Z1.0277
X3.745 Y-0.1948 Z1.0278
X3.7458 Y-0.1953 Z1.0279
X3.7466 Y-0.1958
X3.7488 Y-0.1969 Z1.0278
X3.753 Y-0.1992 Z1.0272
X3.7553 Y-0.2008 Z1.027
X3.7562 Y-0.2014 Z1.0269
X3.757 Y-0.202 Z1.0267
X3.7611 Y-0.2062 Z1.0261
X3.7615 Y-0.2067
X3.7643 Y-0.2104 Z1.0256
X3.7658 Y-0.213
X3.7662 Y-0.214
X3.7667 Y-0.2149 Z1.0255
X3.7683 Y-0.2197 Z1.0251
X3.7687 Y-0.2213 Z1.0252
X3.7692 Y-0.2246 Z1.0251
X3.7696 Y-0.2292
X3.7697 Y-0.2298
X3.7689 Y-0.2375 Z1.0252
X3.7681 Y-0.2415
X3.7671 Y-0.2447 Z1.0253
X3.7666 Y-0.2458 Z1.0254
X3.7662 Y-0.2468
X3.7638 Y-0.2509 Z1.0256
X3.7628 Y-0.2524 Z1.0257
X3.759 Y-0.2572 Z1.0259
X3.757 Y-0.2591 Z1.0263
X3.7522 Y-0.2627
X3.7509 Y-0.2636 Z1.0264
X3.7486 Y-0.2649
X3.7451 Y-0.2666 Z1.0266
X3.7443 Y-0.267 Z1.0267
X3.7425 Y-0.2676 Z1.0268
X3.737 Y-0.2688 Z1.0269
X3.7362 Y-0.2689 Z1.027
X3.7287 Y-0.2697 Z1.0271
X3.7277
X3.723 Y-0.2694
X3.7184 Y-0.2688 Z1.0269
X3.718 Y-0.2687
X3.7142 Y-0.2678 Z1.0267
X3.7126 Y-0.2673 Z1.0266
X3.7104 Y-0.2665 Z1.0265
X3.7078 Y-0.2654
X3.7068 Y-0.2649 Z1.0264
X3.7033 Y-0.2627 Z1.0263
X3.6988 Y-0.2592 Z1.0261
X3.6975 Y-0.2581 Z1.026
X3.6965 Y-0.2572 Z1.0258
X3.6941 Y-0.2541
X3.6916 Y-0.2506 Z1.0255
X3.6906 Y-0.2489 Z1.0254
X3.6899 Y-0.2475 Z1.0252
X3.6885 Y-0.2444 Z1.0251
X3.6874 Y-0.2412
X3.6869 Y-0.239 Z1.0252
X3.6867 Y-0.2376 Z1.0251
X3.6858 Y-0.2293
Y-0.2285
X3.6862 Y-0.2239 Z1.025
X3.6867 Y-0.2209 Z1.0251
X3.6872 Y-0.2188 Z1.025
X3.6888 Y-0.214 Z1.0254
X3.6895 Y-0.2128
X3.6913 Y-0.2095 Z1.0255
X3.6936 Y-0.2065 Z1.0259
X3.6944 Y-0.2056 Z1.026
X3.698 Y-0.2019 Z1.0266
X3.6988 Y-0.2013 Z1.0269
X3.6997 Y-0.2006 Z1.027
X3.7024 Y-0.199 Z1.0273
X3.7062 Y-0.197 Z1.0279
X3.7091 Y-0.1956 Z1.0282
X3.7104 Y-0.1948 Z1.0281
X3.7121 Y-0.1934 Z1.0276
X3.7131 Y-0.1925 Z1.0272
X3.7143 Y-0.1914 Z1.0263
X3.7155 Y-0.19 Z1.0253
X3.7145 Y-0.1887 Z1.0263
X3.7133 Y-0.1872 Z1.0271
X3.7121 Y-0.1859 Z1.0277
X3.7108 Y-0.1848 Z1.0281
X3.7095 Y-0.1839 Z1.0282
X3.7047 Y-0.181 Z1.0276
X3.704 Y-0.1806 Z1.0275
X3.7007 Y-0.1778 Z1.0267
X3.6993 Y-0.1763 Z1.0265
X3.6984 Y-0.1753 Z1.0263
X3.6956 Y-0.1715 Z1.0257
X3.6949 Y-0.1701
X3.6944 Y-0.169 Z1.0255
X3.693 Y-0.1649 Z1.0251
X3.6929 Y-0.1643 Z1.0252
X3.6924 Y-0.1614 Z1.0251
X3.6921 Y-0.1578
X3.6922 Y-0.1567 Z1.0252
X3.6928 Y-0.151
X3.6934 Y-0.1481
X3.6942 Y-0.1455
X3.6945 Y-0.1449 Z1.0253
X3.6953 Y-0.1432 Z1.0254
X3.6969 Y-0.1406 Z1.0255
X3.6982 Y-0.1388 Z1.0257
X3.7009 Y-0.1355
X3.7031 Y-0.1335 Z1.0261
X3.7039 Y-0.1328 Z1.0262
X3.7066 Y-0.1308
X3.7092 Y-0.1292 Z1.0263
X3.7096 Y-0.129
X3.7126 Y-0.1276 Z1.0265
X3.7146 Y-0.1268 Z1.0267
X3.7158 Y-0.1264
X3.7206 Y-0.1255 Z1.027
X3.7217 Y-0.1253
X3.7274 Y-0.1248 Z1.0271
X3.7284 Y-0.1249
X3.7347 Y-0.1255 Z1.027
X3.7355 Y-0.1257 Z1.0269
X3.7397 Y-0.1266 Z1.0268
X3.7406 Y-0.1269
X3.7424 Y-0.1276 Z1.0265
X3.7462 Y-0.1295 Z1.0264
X3.7484 Y-0.131 Z1.0262
X3.7521 Y-0.1338
X3.7529 Y-0.1344 Z1.026
X3.7543 Y-0.1357 Z1.0258
X3.7571 Y-0.1393 Z1.0257
X3.7583 Y-0.141 Z1.0255
X3.76 Y-0.1438 Z1.0254
X3.7604 Y-0.1447
X3.761 Y-0.146 Z1.0252
X3.7618 Y-0.1486 Z1.0251
X3.7625 Y-0.1518 Z1.0252
X3.7632 Y-0.1582 Z1.0251
X3.7631 Y-0.159
X3.7629 Y-0.1618 Z1.025
X3.7622 Y-0.1653 Z1.0251
X3.7612 Y-0.1685 Z1.0254
X3.7602 Y-0.1707 Z1.0257
X3.7595 Y-0.172
X3.7567 Y-0.1758 Z1.0263
X3.7547 Y-0.1778 Z1.0266
X3.7515 Y-0.1806 Z1.0274
X3.7505 Y-0.1812 Z1.0275
X3.746 Y-0.1839 Z1.0281
X3.7447 Y-0.1849 Z1.0279
X3.7434 Y-0.186 Z1.0275
X3.7428 Y-0.1866 Z1.0272
X3.7411 Y-0.1888 Z1.0261
X3.7401 Y-0.1901 Z1.0252
X3.7346 Z1.0264
X3.7337 Z1.0265
X3.7271 Z1.0271
X3.7265 Z1.027
X3.7207 Z1.0264
X3.7188 Y-0.19 Z1.0261
X3.7155 Z1.0253
G0 Z1.24
X3.5912 Y-0.4702
Z1.235
G1 Z1.035 F80.
X3.5989 Y-0.4766 Z1.0279 F10.
X3.6026 Y-0.4794 Z1.0249
X3.6061 Y-0.4745 Z1.0294
X3.6108 Y-0.4685 Z1.035
X3.6061 Y-0.4745 Z1.0294
X3.6026 Y-0.4794 Z1.0249
X3.6033 Y-0.482 Z1.0248
X3.6054 Y-0.4872
X3.6082 Y-0.4927
X3.6093 Y-0.4943
X3.612 Y-0.4975
X3.6129 Y-0.4985
X3.6162 Y-0.5016
X3.6187 Y-0.5035 Z1.0249
X3.621 Y-0.505
X3.6232 Y-0.5063 Z1.025
X3.6263 Y-0.508
X3.6287 Y-0.5089 Z1.0252
X3.6338 Y-0.5107 Z1.0253
X3.6359 Y-0.5113 Z1.0254
X3.6416 Y-0.5127
X3.6426 Y-0.5129 Z1.0255
X3.6498 Y-0.5138 Z1.0256
X3.6568 Y-0.5141 Z1.0257
X3.6652 Y-0.5137 Z1.0256
X3.6692 Y-0.5132 Z1.0257
X3.6719 Y-0.5127 Z1.0255
X3.6784 Y-0.511 Z1.0256
X3.6808 Y-0.5103 Z1.0257
X3.6847 Y-0.5087 Z1.0256
X3.6861 Y-0.508
X3.6897 Y-0.506
X3.6911 Y-0.5051 Z1.0257
X3.6941 Y-0.5028 Z1.0255
X3.6952 Y-0.5019
X3.6979 Y-0.499
X3.6992 Y-0.4975 Z1.0256
X3.7012 Y-0.4947 Z1.0254
X3.702 Y-0.4934
X3.7035 Y-0.4903 Z1.0253
X3.7042 Y-0.4888
X3.7052 Y-0.4858 Z1.0252
X3.7056 Y-0.4838
X3.7061 Y-0.4811 Z1.0251
X3.7063 Y-0.479
Y-0.478
X3.7064 Y-0.4762 Z1.0249
X3.7061 Y-0.4736
X3.706 Y-0.4724
X3.7054 Y-0.469 Z1.0248
X3.705 Y-0.4675 Z1.0247
X3.7034 Y-0.4638 Z1.0246
X3.7012 Y-0.4599 Z1.0245
X3.7 Y-0.4584 Z1.0246
X3.698 Y-0.4562 Z1.0245
X3.6964 Y-0.4546
X3.6943 Y-0.4529 Z1.0244
X3.6921 Y-0.4513 Z1.0245
X3.6902 Y-0.45
X3.6855 Y-0.4476 Z1.0244
X3.6824 Y-0.4464 Z1.0246
X3.6695 Y-0.4423 Z1.0245
X3.6525 Y-0.4381 Z1.0246
X3.6443 Y-0.4361 Z1.0247
X3.6375 Y-0.4342
X3.6356 Y-0.4336 Z1.0248
X3.6306 Y-0.4317 Z1.0247
X3.6268 Y-0.4301
X3.6242 Y-0.4289 Z1.0245
X3.6203 Y-0.4267 Z1.0246
X3.6185 Y-0.4256 Z1.0248
X3.6168 Y-0.4243
X3.6138 Y-0.4213 Z1.0247
X3.613 Y-0.4203 Z1.0248
X3.6114 Y-0.4181 Z1.0247
X3.61 Y-0.4156 Z1.0248
X3.6092 Y-0.4139
X3.6084 Y-0.4115 Z1.0247
X3.6077 Y-0.4084 Z1.0249
X3.6073 Y-0.4041
Y-0.4027 Z1.0251
X3.6076 Y-0.3996 Z1.025
X3.6083 Y-0.3958 Z1.0251
X3.6099 Y-0.3912 Z1.0252
X3.6111 Y-0.3887 Z1.0254
X3.612 Y-0.3872 Z1.0253
X3.6149 Y-0.3834 Z1.0254
X3.6185 Y-0.3798 Z1.0255
X3.62 Y-0.3787 Z1.0257
X3.6215 Y-0.3777
X3.6273 Y-0.3747 Z1.0256
X3.628 Y-0.3744 Z1.0257
X3.6333 Y-0.3725 Z1.0258
X3.6368 Y-0.3715 Z1.026
X3.6395 Y-0.3709 Z1.0258
X3.6449 Y-0.3702 Z1.0259
X3.6526 Y-0.3698 Z1.0258
X3.6597 Y-0.3701
X3.6612 Y-0.3702 Z1.0259
X3.6666 Y-0.371 Z1.0258
X3.67 Y-0.3717 Z1.0259
X3.6733 Y-0.3727 Z1.0258
X3.6779 Y-0.3743 Z1.0256
X3.6791 Y-0.3748
X3.6846 Y-0.3777 Z1.0254
X3.6855 Y-0.3783
X3.6871 Y-0.3793
X3.6888 Y-0.3807 Z1.0251
X3.6924 Y-0.3844 Z1.025
X3.6926 Y-0.3848
X3.6955 Y-0.3886 Z1.0248
X3.6971 Y-0.3913 Z1.0249
X3.698 Y-0.393
X3.6998 Y-0.3978 Z1.0247
X3.6999 Y-0.3983
X3.6987 Y-0.4 Z1.0264
X3.6918 Y-0.4091 Z1.035
X3.6987 Y-0.4 Z1.0264
X3.6999 Y-0.3983 Z1.0247
X3.705 Y-0.4021 Z1.0289
X3.7117 Y-0.4076 Z1.035
G0 Z1.24
X3.5494 Y-0.4113
Z1.235
G1 Z1.035 F80.
X3.5548 Y-0.4012 Z1.0264 F10.
X3.5558 Y-0.3991 Z1.0246
X3.558 Y-0.4002 Z1.0261
X3.5698 Y-0.4065 Z1.035
X3.558 Y-0.4002 Z1.0261
X3.5558 Y-0.3991 Z1.0246
X3.5547 Y-0.3969 Z1.0245
X3.5528 Y-0.3934 Z1.0247
X3.5515 Y-0.3915 Z1.0248
X3.5514 Y-0.3913
X3.5478 Y-0.3868 Z1.0249
X3.5466 Y-0.3856 Z1.0251
X3.5415 Y-0.3806 Z1.0252
X3.5392 Y-0.3788 Z1.0256
X3.5338 Y-0.3757
X3.532 Y-0.3747 Z1.0257
X3.5309 Y-0.3742
X3.5259 Y-0.3722 Z1.0258
X3.5231 Y-0.3714 Z1.0259
X3.5173 Y-0.3704 Z1.026
X3.5159 Y-0.3702 Z1.0261
X3.5079 Y-0.3696
X3.4987 Y-0.3701
X3.4901 Y-0.3716
X3.4885 Y-0.372 Z1.0262
X3.4818 Y-0.3745 Z1.026
X3.4807 Y-0.375
X3.4739 Y-0.3783 Z1.0258
X3.4717 Y-0.3796 Z1.0259
X3.4669 Y-0.3833 Z1.0256
X3.4641 Y-0.3857 Z1.0254
X3.461 Y-0.3888 Z1.0252
X3.4591 Y-0.391
X3.4584 Y-0.3918
X3.4562 Y-0.3952 Z1.025
X3.4541 Y-0.3987
X3.4519 Y-0.4027 Z1.0247
X3.4503 Y-0.4065
X3.4485 Y-0.4118 Z1.0245
X3.4475 Y-0.4151
X3.446 Y-0.4211 Z1.0242
X3.4456 Y-0.4232 Z1.0243
X3.4446 Y-0.4308
X3.4441 Y-0.4402
X3.4445 Y-0.4501
X3.4456 Y-0.4597 Z1.0245
X3.4479 Y-0.4695 Z1.0246
X3.4509 Y-0.4788 Z1.0248
X3.4548 Y-0.4868 Z1.025
X3.4594 Y-0.4939
X3.4605 Y-0.4952 Z1.0251
X3.4609 Y-0.4956
X3.4648 Y-0.4995
X3.4661 Y-0.5007 Z1.0252
X3.4712 Y-0.5048 Z1.0251
X3.4738 Y-0.5063 Z1.0255
X3.4795 Y-0.5091
X3.481 Y-0.5098 Z1.0256
X3.4838 Y-0.5109
X3.488 Y-0.5123 Z1.0257
X3.4885 Y-0.5124 Z1.0258
X3.4925 Y-0.5132
X3.4969 Y-0.5139 Z1.026
X3.5049 Y-0.5145 Z1.0261
X3.5064
X3.5144 Y-0.5139 Z1.026
X3.5156 Y-0.5138
X3.5221 Y-0.5126 Z1.0257
X3.5233 Y-0.5123
X3.5264 Y-0.5114 Z1.0256
X3.5286 Y-0.5105
X3.5305 Y-0.5096 Z1.0255
X3.5337 Y-0.508 Z1.0254
X3.5406 Y-0.5037 Z1.0253
X3.5416 Y-0.503 Z1.0252
X3.5426 Y-0.5022 Z1.0251
X3.5486 Y-0.4958 Z1.0249
X3.5519 Y-0.4918 Z1.0248
X3.5549 Y-0.4874 Z1.0246
X3.5571 Y-0.4829 Z1.0244
X3.559 Y-0.4783
X3.5517 Y-0.4656 Z1.035
X3.559 Y-0.4783 Z1.0244
X3.5725 Y-0.4709 Z1.035
G0 Z1.64
M5
M9
G53 G0 Z0.
M30
%
