%
(SS ANGLE BLOCK, 4X0.75X1)
(T11 D=0.125 CR=0. TAPER=45DEG - ZMIN=1.0218 - CHAMFER MILL)
(T35 D=0.375 CR=0. - ZMIN=0.1689 - FLAT END MILL)
(T51 D=0.201 CR=0. TAPER=118DEG - ZMIN=0.3689 - DRILL)
G90 G94 G17 G91.1
G20
G53 G0 Z0.
(FACE1)
T35 M6
T51
S7500 M3
G17 G90 G94
G54
G64 P0.0004 Q0.0004
M8
G0 X4.2438 Y-0.7464
G43 Z1.64 H35
G0 Z1.24
G1 Z1.0725 F80.
G18 G3 X4.2063 Z1.035 I-0.0375 K0. F60.
G1 X4.1
X-0.1
G3 X-0.1375 Z1.0725 I0. K0.0375
G0 Z1.24
X4.2438 Y-0.5578
G1 Z1.0725 F80.
G3 X4.2063 Z1.035 I-0.0375 K0. F60.
G1 X4.1
X-0.1
G3 X-0.1375 Z1.0725 I0. K0.0375
G0 Z1.24
X4.2438 Y-0.3692
G1 Z1.0725 F80.
G3 X4.2063 Z1.035 I-0.0375 K0. F60.
G1 X4.1
X-0.1
G3 X-0.1375 Z1.0725 I0. K0.0375
G0 Z1.24
X4.2438 Y-0.1806
G1 Z1.0725 F80.
G3 X4.2063 Z1.035 I-0.0375 K0. F60.
G1 X4.1
X-0.1
G3 X-0.1375 Z1.0725 I0. K0.0375
G0 Z1.64
G17
(2D ADAPTIVE1)
G64 P0.004 Q0.004
G0 X0.2056 Y-1.0429
Z1.64
Z1.24
Z0.2439
G1 Z0.2064 F60.
X0.2054 Y-1.0427 Z0.2018
X0.2047 Y-1.0423 Z0.1974
X0.2035 Y-1.0416 Z0.1931
X0.202 Y-1.0407 Z0.1889
X0.1999 Y-1.0395 Z0.1851
X0.1976 Y-1.038 Z0.1815
X0.1948 Y-1.0364 Z0.1783
X0.1918 Y-1.0345 Z0.1755
X0.1884 Y-1.0325 Z0.1732
X0.1849 Y-1.0304 Z0.1713
X0.1812 Y-1.0282 Z0.1699
X0.1774 Y-1.0259 Z0.1691
X0.1735 Y-1.0236 Z0.1689
G3 X-0.0137 Y-0.937 I-0.4931 J-0.8206
G1 X-0.0192 Y-0.9354
X-0.0417 Y-0.9262
X-0.0529 Y-0.9204
X-0.0642 Y-0.9139
X-0.0686 Y-0.911
X-0.0731 Y-0.9077
X-0.0989 Y-0.8853
X-0.1093 Y-0.8741
X-0.1204 Y-0.8617
X-0.1289 Y-0.8516
X-0.1317 Y-0.8476
X-0.1429 Y-0.8288
X-0.1477 Y-0.818
X-0.1542 Y-0.8027
X-0.1569 Y-0.7956
X-0.16 Y-0.7844
X-0.1625 Y-0.7731
X-0.1638 Y-0.7619
X-0.1654 Y-0.7465
X-0.1659 Y-0.7395
X-0.166 Y-0.7058
Y-0.4815
X-0.1657 Y-0.4703
X-0.1645 Y-0.4479
X-0.1625 Y-0.4367
X-0.1604 Y-0.4255
X-0.1574 Y-0.4143
X-0.1494 Y-0.3918
X-0.1472 Y-0.3855
X-0.1411 Y-0.3653
X-0.1346 Y-0.3391
X-0.1279 Y-0.3039
X-0.1217 Y-0.2599
X-0.1174 Y-0.2158
X-0.1145 Y-0.1715
X-0.1124 Y-0.1272
X-0.103 Y-0.0838
X-0.0818 Y-0.0448
X-0.0526 Y-0.0114
X-0.0179 Y0.0162
X0.0205 Y0.0384
X0.0613 Y0.0559
X0.1036 Y0.0693
X0.1468 Y0.0795
X0.1905 Y0.0871
X0.2345 Y0.0928
X0.2787 Y0.0969
X0.323 Y0.0999
X0.3673 Y0.102
X0.4117 Y0.1036
X0.456 Y0.1047
X0.5004 Y0.1055
X0.5447 Y0.1061
X0.5891 Y0.1065
X0.6335 Y0.1068
X0.6779 Y0.107
X0.7222 Y0.1071
X0.811 Y0.1073
X0.9441 Y0.1074
X1.2991 Y0.1075
X1.521
X3.1791
X3.1841 Y0.1076
X3.1891 Y0.1079
X3.1941 Y0.1084
X3.8617 Y0.1861
G3 X3.8729 Y0.1897 I-0.0056 J0.0371
G2 X3.8848 Y0.195 I0.0674 J-0.1343
G1 X3.8877 Y0.196
X3.8906 Y0.1968
X3.8947 Y0.1974 F300.
X3.8988 Y0.1977
X3.9827 Y0.1974
X3.9847 Y0.1973
G2 X3.9967 Y0.1946 I-0.0021 J-0.0374 F60.
X4.0086 Y0.1892 I-0.0564 J-0.1393
G1 X4.0111 Y0.188
X4.0137 Y0.187
X4.0192 Y0.1854
X4.0417 Y0.1763
X4.0529 Y0.1704
X4.0642 Y0.164
X4.0687 Y0.161
X4.0732 Y0.1577
X4.0998 Y0.1353
X4.1092 Y0.1262
X4.1112 Y0.1241
X4.1204 Y0.1138
X4.1211 Y0.1129
X4.1299 Y0.1016
X4.1317 Y0.0989
X4.1434 Y0.0792
X4.1483 Y0.068
X4.1542 Y0.054
X4.1573 Y0.0456
X4.1603 Y0.0344
X4.1627 Y0.0231
X4.164 Y0.0119
X4.1654 Y-0.0025
X4.1659 Y-0.0105
X4.166 Y-0.0554
Y-0.7058
X4.1659 Y-0.7395
X4.1654 Y-0.7467
X4.1638 Y-0.7619
X4.1625 Y-0.7731
X4.16 Y-0.7844
X4.1569 Y-0.7956
X4.1542 Y-0.8028
X4.1477 Y-0.818
X4.1429 Y-0.8288
X4.1317 Y-0.8476
X4.1289 Y-0.8516
X4.1204 Y-0.8617
X4.1093 Y-0.8741
X4.1029 Y-0.8853
X4.1021 Y-0.9033
X4.0992 Y-0.975 F300.
G2 X4.0305 Y-1.0624 I-0.0982 J0.0065
G1 X3.9967 Y-1.0668
X0.0258 Y-1.0654
X-0.0304 Y-1.0623
X-0.0897 Y-1.0423
X-0.1366 Y-1.0199
X-0.1853 Y-0.9812
X-0.2243 Y-0.9414
X-0.2602 Y-0.8853
X-0.2819 Y-0.8292
X-0.2932 Y-0.7844
X-0.2958 Y-0.5825
G2 X-0.2667 Y-0.5068 I0.0983 J0.0056
G1 X-0.1703 Y-0.4144
X-0.1542 Y-0.399 F60.
X-0.1494 Y-0.3918
X-0.1436 Y-0.3806
X-0.1333 Y-0.3618
X-0.1326 Y-0.3606
X-0.1317 Y-0.3593
X-0.1127 Y-0.3357
X-0.1081 Y-0.3296
X-0.1028 Y-0.3217
X-0.0971 Y-0.3121
X-0.0913 Y-0.301
X-0.0848 Y-0.2872
X-0.0783 Y-0.2711
X-0.0637 Y-0.2292
X-0.0454 Y-0.1887
X-0.021 Y-0.1517
X0.0087 Y-0.1187
X0.0427 Y-0.0902
X0.0799 Y-0.0661
X0.1195 Y-0.046
X0.1608 Y-0.0297
X0.2032 Y-0.0166
X0.2463 Y-0.0062
X0.2899 Y0.0019
X0.3339 Y0.0082
X0.378 Y0.013
X0.4222 Y0.0166
X0.4665 Y0.0194
X0.5108 Y0.0215
X0.5552 Y0.023
X0.5995 Y0.0242
X0.6439 Y0.0251
X0.6883 Y0.0257
X0.7326 Y0.0262
X0.777 Y0.0265
X0.8214 Y0.0268
X0.8657 Y0.027
X0.9545 Y0.0272
X1.0876 Y0.0274
X1.3095 Y0.0275
X1.7088
X2.492
X2.497 Y0.0276
X2.502 Y0.0279
X2.507 Y0.0284
X3.1941 Y0.1084
G3 X3.2195 Y0.1244 I-0.0056 J0.0371
X3.1867 Y0.1829 I-0.031 J0.021 F300.
G1 X0.4645 Y0.1487
X0.307 Y0.1348
X0.2058 Y0.1183
X0.1092 Y0.0904
X0.0146 Y0.0466
X-0.0417 Y0.0093
X-0.0989 Y-0.0442
X-0.1253 Y-0.0778
X-0.216 Y-0.2685
G3 X-0.138 Y-0.353 I0.0566 J-0.026
X-0.1204 Y-0.3431 I-0.0214 J0.0585 F60.
G1 X-0.1127 Y-0.3357
X-0.1092 Y-0.3315
X-0.1029 Y-0.3245
X-0.0979 Y-0.3197
X-0.0867 Y-0.3092
X-0.0788 Y-0.3021
X-0.0754 Y-0.2995
X-0.0744 Y-0.2989
X-0.0695 Y-0.2954
X-0.053 Y-0.2822
X-0.0198 Y-0.2528
X0.0137 Y-0.2237
X0.0489 Y-0.1967
X0.086 Y-0.1724
X0.125 Y-0.1511
X0.1653 Y-0.1327
X0.2069 Y-0.1171
X0.2493 Y-0.1041
X0.2924 Y-0.0934
X0.3359 Y-0.0847
X0.3797 Y-0.0776
X0.4237 Y-0.0721
X0.4679 Y-0.0676
X0.5121 Y-0.0641
X0.5564 Y-0.0614
X0.6007 Y-0.0593
X0.6451 Y-0.0577
X0.6894 Y-0.0564
X0.7338 Y-0.0555
X0.7781 Y-0.0548
X0.8225 Y-0.0542
X0.8669 Y-0.0538
X0.9113 Y-0.0535
X0.9556 Y-0.0532
X1. Y-0.053
X1.0887 Y-0.0528
X1.2219 Y-0.0526
X1.4437 Y-0.0525
X1.8049
X1.8099 Y-0.0524
X1.8149 Y-0.0521
X1.8199 Y-0.0516
X2.507 Y0.0284
G3 X2.5324 Y0.0444 I-0.0056 J0.0371
X2.5006 Y0.1029 I-0.031 J0.021 F300.
G1 X0.5208 Y0.066
X0.3745 Y0.0516
X0.262 Y0.0322
X0.1608 Y0.0051
X0.0692 Y-0.0329
X-0.1429 Y-0.195
G3 X-0.1038 Y-0.3073 I0.0372 J-0.05
X-0.0744 Y-0.2989 I-0.0019 J0.0623 F60.
G1 X-0.0642 Y-0.2924
X-0.0529 Y-0.2856
X-0.0429 Y-0.2797
X-0.0417 Y-0.2791
X-0.0304 Y-0.2743
X-0.0192 Y-0.2701
X-0.0134 Y-0.2685
X0.0033 Y-0.2645
X0.0146 Y-0.262
X0.0228 Y-0.2603
X0.0594 Y-0.2505
X0.1016 Y-0.2368
X0.1437 Y-0.2228
X0.186 Y-0.2095
X0.2287 Y-0.1972
X0.2717 Y-0.1863
X0.315 Y-0.1768
X0.3586 Y-0.1687
X0.4025 Y-0.1618
X0.4465 Y-0.1561
X0.4906 Y-0.1513
X0.5348 Y-0.1475
X0.5791 Y-0.1443
X0.6234 Y-0.1418
X0.6677 Y-0.1398
X0.712 Y-0.1382
X0.7564 Y-0.1369
X0.8008 Y-0.1359
X0.8451 Y-0.1352
X0.8895 Y-0.1346
X0.9339 Y-0.1341
X0.9782 Y-0.1337
X1.0226 Y-0.1334
X1.067 Y-0.1332
X1.1136 Y-0.133
X1.1185 Y-0.1329
X1.1234 Y-0.1326
X1.1282 Y-0.1322
X1.8199 Y-0.0516
G3 X1.8453 Y-0.0356 I-0.0056 J0.0371
X1.8144 Y0.0229 I-0.031 J0.021 F300.
G1 X0.4983 Y-0.0207
X0.3937 Y-0.0329
X-0.0079 Y-0.14
G3 X-0.0157 Y-0.2572 I0.017 J-0.0599
X0.0146 Y-0.262 I0.0247 J0.0572 F60.
G1 X0.0371 Y-0.2593
X0.054 Y-0.2572
X1.1282 Y-0.1322
G3 X1.1537 Y-0.1161 I-0.0056 J0.0371
G1 X1.1562 Y-0.1124 Z0.1691
X1.1587 Y-0.1087 Z0.1699
X1.1611 Y-0.1051 Z0.1713
X1.1634 Y-0.1017 Z0.1732
X1.1656 Y-0.0985 Z0.1755
X1.1676 Y-0.0955 Z0.1783
X1.1694 Y-0.0929 Z0.1815
X1.171 Y-0.0906 Z0.1851
X1.1723 Y-0.0886 Z0.1889
X1.1733 Y-0.0871 Z0.1931
X1.1741 Y-0.086 Z0.1974
X1.1745 Y-0.0853 Z0.2018
X1.1747 Y-0.0851 Z0.2064
G0 Z1.64
(2D CONTOUR1)
G64 P0.0004 Q0.0004
G0 X-0.2696 Y-0.4973
Z1.64
Z1.24
G1 Z0.2064 F80.
X-0.2694 Z0.2018 F60.
X-0.2686 Y-0.4974 Z0.1974
X-0.2672 Z0.1931
X-0.2654 Y-0.4975 Z0.1889
X-0.263 Y-0.4976 Z0.1851
X-0.2602 Y-0.4977 Z0.1815
X-0.257 Y-0.4978 Z0.1783
X-0.2535 Y-0.4979 Z0.1755
X-0.2496 Y-0.498 Z0.1732
X-0.2455 Y-0.4982 Z0.1713
X-0.2411 Y-0.4983 Z0.1699
X-0.2367 Y-0.4985 Z0.1691
X-0.2322 Y-0.4987 Z0.1689
X-0.1947 Y-0.5
G3 X-0.1559 Y-0.4638 I0.0013 J0.0375
G2 X-0.1085 Y-0.3458 I0.1874 J-0.0067
G1 X-0.0968 Y-0.3326
G2 X0.0215 Y-0.2711 I0.14 J-0.1247
G1 X3.9351 Y0.1846
G2 X4.0814 Y0.1384 I0.0217 J-0.1862
G1 X4.0932 Y0.1279
G2 X4.156 Y-0.0121 I-0.1247 J-0.14
G1 Y-0.7365
G2 X4.1011 Y-0.8691 I-0.1875 J0.
G1 X4.0893 Y-0.8809
G2 X3.9567 Y-0.9358 I-0.1326 J0.1326
G1 X0.0433
G2 X-0.0893 Y-0.8809 I0. J0.1875
G1 X-0.1011 Y-0.8691
G2 X-0.156 Y-0.7365 I0.1326 J0.1326
G1 Y-0.4705
G2 X-0.1085 Y-0.3458 I0.1875 J0.
G1 X-0.0968 Y-0.3326
G2 X0.0215 Y-0.2711 I0.14 J-0.1247
G1 X3.9351 Y0.1846
G2 X4.0814 Y0.1384 I0.0217 J-0.1862
G1 X4.0932 Y0.1279
G2 X4.156 Y-0.0121 I-0.1247 J-0.14
G1 Y-0.7365
G2 X4.1011 Y-0.8691 I-0.1875 J0.
G1 X4.0893 Y-0.8809
G2 X3.9567 Y-0.9358 I-0.1326 J0.1326
G1 X0.0433
G2 X-0.0893 Y-0.8809 I0. J0.1875
G1 X-0.1011 Y-0.8691
G2 X-0.156 Y-0.7365 I0.1326 J0.1326
G1 Y-0.4705
Y-0.4683
Y-0.4661
X-0.1559 Y-0.4638
G3 X-0.192 Y-0.425 I-0.0375 J0.0013
G1 X-0.2295 Y-0.4237
X-0.234 Y-0.4235 Z0.1691
X-0.2385 Y-0.4234 Z0.1699
X-0.2428 Y-0.4232 Z0.1713
X-0.2469 Y-0.4231 Z0.1732
X-0.2508 Y-0.4229 Z0.1755
X-0.2544 Y-0.4228 Z0.1783
X-0.2576 Y-0.4227 Z0.1815
X-0.2603 Y-0.4226 Z0.1851
X-0.2627 Y-0.4225 Z0.1889
X-0.2645 Z0.1931
X-0.2659 Y-0.4224 Z0.1974
X-0.2667 Z0.2018
X-0.267 Z0.2064
G0 Z1.64
M5
G53 G0 Z0.
(DRILL1)
M9
M1
T51 M6
T11
S5000 M3
G17 G90 G94
G54
M8
G0 X0.8211 Y-0.5582
G43 Z1.64 H51
G0 Z1.24
G98 G81 X0.8211 Y-0.5582 Z0.3689 R1.235 F25.
X3.239 Y-0.4179
G80
G0 Z1.64
M5
G53 G0 Z0.
(ENGRAVE1)
M9
M1
T11 M6
T35
S7500 M3
G17 G90 G94
G54
G64 P0.0004 Q0.0004
M8
G0 X3.4518 Y-0.1314
G43 Z1.64 H11
G0 Z1.235
G1 Z1.035 F80.
X3.4589 Y-0.1211 Z1.0252 F10.
Z1.0253
X3.4625 Y-0.1235 Z1.028
X3.471 Y-0.1298 Z1.035
X3.4625 Y-0.1235 Z1.028
X3.4589 Y-0.1211 Z1.0253
Z1.0252
X3.4578 Y-0.1184 Z1.0253
X3.4564 Y-0.1159 Z1.0254
X3.4547 Y-0.1133 Z1.0256
X3.4513 Y-0.1089 Z1.0259
X3.4506 Y-0.1081 Z1.0258
X3.4458 Y-0.1046 Z1.0261
X3.4424 Y-0.1025 Z1.0262
X3.44 Y-0.1013 Z1.0264
X3.4388 Y-0.1009 Z1.0266
X3.4379 Y-0.1006
X3.4335 Y-0.0996 Z1.0268
X3.4327 Y-0.0994 Z1.0269
X3.4264 Y-0.0988 Z1.027
X3.4252 Z1.0272
X3.4201 Y-0.0993
X3.4162 Y-0.0999 Z1.0271
X3.4148 Y-0.1002
X3.4117 Y-0.1012 Z1.0268
X3.4093 Y-0.1021
X3.4077 Y-0.1028 Z1.0266
X3.4041 Y-0.1049
X3.4006 Y-0.1078 Z1.0264
X3.3985 Y-0.1097
X3.3939 Y-0.1144 Z1.026
X3.3937 Y-0.1147 Z1.0261
X3.3898 Y-0.1213 Z1.0264
X3.3867 Y-0.1276 Z1.0263
X3.3839 Y-0.1354 Z1.0258
X3.3832 Y-0.1378
X3.3819 Y-0.1427 Z1.0256
X3.381 Y-0.1474 Z1.0257
X3.3809 Y-0.1485
X3.38 Y-0.1577 Z1.0255
X3.3797 Y-0.1675
Y-0.1694 Z1.0254
X3.3799 Y-0.1714 Z1.0251
X3.3804 Y-0.1733 Z1.0246
X3.381 Y-0.1753 Z1.0239
X3.3819 Y-0.1771 Z1.0231
X3.3829 Y-0.1789 Z1.0222
X3.3851 Y-0.1781 Z1.0239
X3.3871 Y-0.1773 Z1.0253
X3.3889 Y-0.1764 Z1.0264
X3.3905 Y-0.1753 Z1.0273
X3.3915 Y-0.1746 Z1.0278
X3.3923 Y-0.1739 Z1.0281
X3.393 Y-0.1732 Z1.0283
X3.3937 Y-0.1725 Z1.0284
X3.396 Y-0.1695 Z1.0285
X3.3971 Y-0.1682 Z1.0284
X3.4015 Y-0.1639 Z1.0279
X3.4055 Y-0.1611 Z1.0276
X3.4076 Y-0.1598
X3.4085 Y-0.1594
X3.4093 Y-0.1589 Z1.0274
X3.4141 Y-0.1572 Z1.027
X3.4151 Y-0.1569
X3.4184 Y-0.1561 Z1.0267
X3.4225 Y-0.1555 Z1.0266
X3.4229
X3.4271 Z1.0263
X3.4307 Y-0.1559
X3.4351 Y-0.1567 Z1.026
X3.4379 Y-0.1574
X3.4394 Y-0.1579 Z1.0259
X3.4416 Y-0.1589 Z1.0257
X3.4444 Y-0.1605 Z1.0256
X3.4455 Y-0.1612
X3.4467 Y-0.162
X3.4515 Y-0.166 Z1.0255
X3.4524 Y-0.1668
X3.4532 Y-0.1675 Z1.0254
X3.4574 Y-0.1736 Z1.0253
X3.4581 Y-0.1745 Z1.0252
X3.4599 Y-0.178 Z1.025
X3.4613 Y-0.1809 Z1.0251
X3.4618 Y-0.1824
X3.4624 Y-0.1849 Z1.025
X3.4632 Y-0.1888 Z1.0251
X3.4633 Y-0.1899
X3.464 Y-0.1978
X3.4637 Y-0.2037 Z1.0252
X3.4634 Y-0.2068 Z1.0253
X3.4629 Y-0.2096
X3.4615 Y-0.2154 Z1.0256
X3.4597 Y-0.2198 Z1.0257
X3.4593 Y-0.2208
X3.4576 Y-0.2239
X3.4572 Y-0.2246
X3.4534 Y-0.2302 Z1.0259
X3.4523 Y-0.2314 Z1.0261
X3.4497 Y-0.2339
X3.4468 Y-0.2363 Z1.0263
X3.4462 Y-0.2368
X3.4408 Y-0.2399 Z1.0266
X3.4397 Y-0.2404 Z1.0268
X3.4358 Y-0.2419 Z1.0267
X3.4329 Y-0.2426 Z1.0269
X3.4319 Y-0.2428
X3.4255 Y-0.2435 Z1.0271
X3.425 Y-0.2436
X3.4195 Y-0.2431 Z1.0272
X3.4148 Y-0.2424 Z1.027
X3.4145 Y-0.2423
X3.4104 Y-0.2411 Z1.0267
X3.4092 Y-0.2407
X3.4065 Y-0.2395 Z1.0265
X3.4045 Y-0.2385 Z1.0266
X3.4032 Y-0.2377 Z1.0265
X3.3994 Y-0.2349 Z1.0264
X3.3953 Y-0.2311 Z1.0263
X3.3926 Y-0.2282 Z1.0259
X3.3914 Y-0.2263 Z1.026
X3.3887 Y-0.2214 Z1.0261
X3.3862 Y-0.2163 Z1.0257
X3.3841 Y-0.2104 Z1.0254
X3.3826 Y-0.2044 Z1.0249
X3.3818 Y-0.1987 Z1.0246
X3.3817 Y-0.1971 Z1.0244
X3.3816 Y-0.1902 Z1.0238
X3.3824 Y-0.182 Z1.0228
X3.3826 Y-0.1804 Z1.0225
X3.3829 Y-0.1789 Z1.0222
G0 Z1.24
X3.5041 Y-0.2267
Z1.235
G1 Z1.035 F80.
X3.5151 Y-0.2377 Z1.024 F10.
X3.5261 Y-0.2267 Z1.035
X3.5151 Y-0.2377 Z1.024
X3.5262 Y-0.2486 Z1.035
X3.5151 Y-0.2377 Z1.024
X3.5042 Y-0.2487 Z1.035
G0 Z1.24
X3.6353 Y-0.1309
Z1.235
G1 Z1.035 F80.
X3.6423 Y-0.1206 Z1.0252 F10.
X3.6424 Y-0.1207 Z1.0253
X3.6459 Y-0.1231 Z1.028
X3.6545 Y-0.1294 Z1.035
X3.6459 Y-0.1231 Z1.028
X3.6424 Y-0.1207 Z1.0253
X3.6423 Y-0.1206 Z1.0252
X3.6416 Y-0.1185 Z1.0253
X3.6399 Y-0.1155 Z1.0254
X3.6389 Y-0.1138 Z1.0255
X3.6355 Y-0.1093 Z1.0258
X3.6341 Y-0.1076
X3.6293 Y-0.1041 Z1.0261
X3.6282 Y-0.1034 Z1.0262
X3.6259 Y-0.1021
X3.6232 Y-0.1008 Z1.0265
X3.6223 Y-0.1005 Z1.0266
X3.6203 Y-0.0999
X3.6162 Y-0.099 Z1.0269
X3.6149 Y-0.0988
X3.6095 Y-0.0983 Z1.0271
X3.6079 Y-0.0984 Z1.0272
X3.6026 Y-0.099
X3.5983 Y-0.0998 Z1.0271
X3.5968 Y-0.1002 Z1.027
X3.5952 Y-0.1007 Z1.0268
X3.5912 Y-0.1024 Z1.0266
X3.5873 Y-0.1047
X3.5866 Y-0.1052 Z1.0265
X3.584 Y-0.1073 Z1.0264
X3.5813 Y-0.1099 Z1.0263
X3.5773 Y-0.114 Z1.026
X3.5771 Y-0.1143 Z1.0261
X3.5733 Y-0.1209 Z1.0264
X3.5702 Y-0.1271 Z1.0263
X3.5673 Y-0.135 Z1.0258
X3.5667 Y-0.1373
X3.5654 Y-0.1423 Z1.0256
X3.5645 Y-0.147 Z1.0257
X3.5644 Y-0.148
X3.5634 Y-0.1572 Z1.0255
X3.5631 Y-0.1671
X3.5632 Y-0.169 Z1.0254
X3.5634 Y-0.171 Z1.0251
X3.5639 Y-0.1729 Z1.0246
X3.5645 Y-0.1749 Z1.0239
X3.5653 Y-0.1767 Z1.0231
X3.5663 Y-0.1785 Z1.0222
X3.566 Y-0.18 Z1.0225
X3.5652 Y-0.1882 Z1.0236
Y-0.1966 Z1.0244
X3.5659 Y-0.2031 Z1.0249
X3.5672 Y-0.2087 Z1.0253
X3.5692 Y-0.2146 Z1.0257
X3.5715 Y-0.2198 Z1.026
X3.5744 Y-0.2251
X3.576 Y-0.2277 Z1.0259
X3.5777 Y-0.2296 Z1.0262
X3.5822 Y-0.2339 Z1.0264
X3.5863 Y-0.237 Z1.0265
X3.5867 Y-0.2373
X3.59 Y-0.2391
X3.5918 Y-0.2399 Z1.0267
X3.5939 Y-0.2407
X3.5966 Y-0.2415 Z1.027
X3.5979 Y-0.2418
X3.6021 Y-0.2425 Z1.0272
X3.6072 Y-0.2431 Z1.0271
X3.6084 Y-0.2432
X3.6139 Y-0.2426 Z1.0269
X3.6151 Y-0.2424
X3.6192 Y-0.2414 Z1.0267
X3.622 Y-0.2405 Z1.0268
X3.6232 Y-0.24
X3.6241 Y-0.2396 Z1.0266
X3.629 Y-0.2368 Z1.0263
X3.6332 Y-0.2335 Z1.0261
X3.6349 Y-0.2319
X3.6358 Y-0.231
X3.6365 Y-0.2302 Z1.026
X3.6399 Y-0.2254 Z1.0257
X3.6407 Y-0.2242
X3.6427 Y-0.2206 Z1.0256
X3.6445 Y-0.2161 Z1.0257
X3.6449 Y-0.215 Z1.0256
X3.6464 Y-0.2092 Z1.0253
X3.6467 Y-0.2076
X3.6472 Y-0.2033 Z1.0252
X3.6475 Y-0.1991
Y-0.1977 Z1.0251
X3.647 Y-0.1907 Z1.0252
X3.6468 Y-0.1894 Z1.0251
X3.6459 Y-0.1845 Z1.025
X3.6455 Y-0.1827 Z1.0251
X3.6449 Y-0.1809
X3.6434 Y-0.1776 Z1.025
X3.6417 Y-0.1744 Z1.0252
X3.6369 Y-0.1674 Z1.0254
X3.6358 Y-0.1663 Z1.0255
X3.6308 Y-0.1621 Z1.0256
X3.6302 Y-0.1616
X3.629 Y-0.1607
X3.6251 Y-0.1584 Z1.0257
X3.6237 Y-0.1578 Z1.0258
X3.6221 Y-0.1571 Z1.0259
X3.6186 Y-0.1563 Z1.026
X3.6155 Y-0.1557 Z1.0263
X3.6106 Y-0.155
X3.6079 Z1.0266
X3.6063
X3.6019 Y-0.1557 Z1.0267
X3.5998 Y-0.1561 Z1.0269
X3.5986 Y-0.1565 Z1.027
X3.5932 Y-0.1583 Z1.0273
X3.5919 Y-0.1589 Z1.0276
X3.589 Y-0.1607
X3.586 Y-0.1627 Z1.0279
X3.5852 Y-0.1633
X3.5814 Y-0.1669 Z1.0282
X3.5801 Y-0.1684 Z1.0285
X3.5779 Y-0.1713
X3.5772 Y-0.172 Z1.0284
X3.5765 Y-0.1728 Z1.0283
X3.5757 Y-0.1735 Z1.0281
X3.574 Y-0.1749 Z1.0273
X3.5724 Y-0.1759 Z1.0264
X3.5706 Y-0.1769 Z1.0253
X3.5686 Y-0.1777 Z1.0239
X3.5663 Y-0.1785 Z1.0222
G0 Z1.24
X3.6704 Y-0.1929
Z1.235
G1 Z1.035 F80.
X3.6801 Y-0.1959 Z1.0252 F10.
X3.6805 Y-0.1939 Z1.0261
X3.6811 Y-0.1919 Z1.0267
X3.6815 Y-0.191 Z1.027
X3.6819 Y-0.1901 Z1.0271
X3.6824 Y-0.1893 Z1.0272
X3.6829 Y-0.1884
X3.733 Y-0.1166 Z1.0275
X3.7337 Y-0.1157 Z1.0274
X3.7346 Y-0.115 Z1.0272
X3.7354 Y-0.1142 Z1.0269
X3.7363 Y-0.1135 Z1.0265
X3.7373 Y-0.1129 Z1.0261
X3.7384 Y-0.1123 Z1.0256
X3.7394 Y-0.1117 Z1.025
X3.7419 Y-0.1108 Z1.0235
X3.7446 Y-0.11 Z1.0218
X3.7474 Y-0.101 Z1.0246
X3.742 Y-0.0907 Z1.035
X3.7474 Y-0.101 Z1.0246
X3.7577 Y-0.0907 Z1.035
X3.7474 Y-0.101 Z1.0246
X3.7446 Y-0.11 Z1.0218
X3.7458 Y-0.1123 Z1.0231
X3.7463 Y-0.1135 Z1.0236
X3.7468 Y-0.1147 Z1.0241
X3.7472 Y-0.1158 Z1.0245
X3.7476 Y-0.117 Z1.0248
X3.7478 Y-0.1182 Z1.025
X3.748 Y-0.1193 Z1.0252
X3.7481 Y-0.1205 Z1.0253
X3.7483 Y-0.1927
Y-0.1943 Z1.0252
Y-0.1962 Z1.0247
Y-0.1985 Z1.0237
Y-0.2016 Z1.0219
X3.7517 Z1.0241
X3.7543 Y-0.2015 Z1.0254
X3.7562 Z1.026
X3.758 Z1.0261
X3.7704
X3.7792 Y-0.1927 Z1.035
X3.7704 Y-0.2015 Z1.0261
X3.7793 Y-0.2103 Z1.035
X3.7704 Y-0.2015 Z1.0261
X3.758
X3.7562 Z1.026
X3.7543 Z1.0254
X3.7517 Y-0.2016 Z1.0241
X3.7483 Z1.0219
Y-0.2046 Z1.0237
Y-0.2069 Z1.0247
Y-0.2088 Z1.0252
X3.7484 Y-0.2104 Z1.0253
Y-0.2385
X3.7388 Y-0.2481 Z1.035
X3.7484 Y-0.2385 Z1.0253
X3.7581 Y-0.2481 Z1.035
X3.7484 Y-0.2385 Z1.0253
Y-0.2104
X3.7483 Y-0.2088 Z1.0252
Y-0.2069 Z1.0247
Y-0.2046 Z1.0237
Y-0.2016 Z1.0219
X3.7449 Z1.0241
X3.7424 Z1.0254
X3.7404 Z1.026
X3.7387 Z1.0261
X3.6883
X3.6873 Z1.026
X3.6863 Y-0.2014 Z1.0259
X3.6852 Y-0.2012 Z1.0257
X3.6832 Y-0.2006 Z1.0251
X3.6811 Y-0.1998 Z1.0242
X3.6805 Y-0.1979 Z1.0248
X3.6801 Y-0.1959 Z1.0252
X3.6805 Y-0.1979 Z1.0248
X3.6811 Y-0.1998 Z1.0242
X3.6704 Y-0.2106 Z1.035
G0 Z1.24
X3.5863 Y-0.4437
Z1.235
G1 Z1.035 F80.
X3.5941 Y-0.4501 Z1.0279 F10.
X3.5978 Y-0.4528 Z1.0249
X3.6012 Y-0.448 Z1.0294
X3.6059 Y-0.442 Z1.035
X3.6012 Y-0.448 Z1.0294
X3.5978 Y-0.4528 Z1.0249
X3.5986 Y-0.4559 Z1.0248
X3.6009 Y-0.4616
X3.6035 Y-0.4664
X3.6048 Y-0.4681
X3.6081 Y-0.4719
X3.6089 Y-0.4727
X3.6114 Y-0.4751
X3.6141 Y-0.4771 Z1.0249
X3.6162 Y-0.4785
X3.6193 Y-0.4802 Z1.025
X3.6215 Y-0.4814
X3.6252 Y-0.4828 Z1.0252
X3.629 Y-0.4841 Z1.0253
X3.6318 Y-0.4849 Z1.0254
X3.6378 Y-0.4863 Z1.0255
X3.639 Y-0.4865 Z1.0256
X3.6459 Y-0.4872
X3.6534 Y-0.4874
X3.6604 Y-0.487
X3.6644 Y-0.4866 Z1.0257
X3.6671 Y-0.4861 Z1.0255
X3.6736 Y-0.4843 Z1.0256
X3.6774 Y-0.483 Z1.0257
X3.6799 Y-0.482 Z1.0256
X3.6821 Y-0.4809
X3.6858 Y-0.4787
X3.6871 Y-0.4778
X3.6893 Y-0.4761 Z1.0255
X3.6911 Y-0.4744 Z1.0256
X3.694 Y-0.4712
X3.6952 Y-0.4697 Z1.0255
X3.6964 Y-0.468 Z1.0254
X3.6977 Y-0.4656
X3.6992 Y-0.4624 Z1.0253
X3.6994 Y-0.462 Z1.0254
X3.7004 Y-0.4591 Z1.0252
X3.701 Y-0.4559
X3.7012 Y-0.4544 Z1.0251
X3.7015 Y-0.4513
Y-0.4495 Z1.0249
X3.7011 Y-0.4456
X3.701 Y-0.445 Z1.0248
X3.7001 Y-0.4406 Z1.0247
X3.6982 Y-0.4364 Z1.0246
X3.6961 Y-0.4329 Z1.0245
X3.6945 Y-0.4309 Z1.0246
X3.6931 Y-0.4295 Z1.0245
X3.6906 Y-0.4271
X3.6894 Y-0.4261 Z1.0244
X3.6865 Y-0.424 Z1.0245
X3.6852 Y-0.4233
X3.6805 Y-0.4209 Z1.0244
X3.676 Y-0.4192 Z1.0246
X3.6646 Y-0.4156 Z1.0245
X3.6616 Y-0.4148
X3.6474 Y-0.4114 Z1.0246
X3.6387 Y-0.4093 Z1.0247
X3.6325 Y-0.4076
X3.6296 Y-0.4066 Z1.0248
X3.6257 Y-0.4051 Z1.0247
X3.6209 Y-0.4031 Z1.0246
X3.6192 Y-0.4023 Z1.0245
X3.6154 Y-0.4002 Z1.0246
X3.6124 Y-0.3982 Z1.0248
X3.6118 Y-0.3978
X3.6107 Y-0.3967
X3.608 Y-0.3937
X3.607 Y-0.3924 Z1.0247
X3.6064 Y-0.3915
X3.6046 Y-0.3884 Z1.0248
X3.6039 Y-0.3865
X3.6034 Y-0.3849 Z1.0247
X3.6026 Y-0.3812 Z1.0249
X3.6022 Y-0.3772 Z1.025
X3.6023 Y-0.3752 Z1.0251
X3.6026 Y-0.3731 Z1.025
X3.6033 Y-0.3688 Z1.0251
X3.6049 Y-0.3647 Z1.0252
X3.606 Y-0.3622 Z1.0254
X3.6069 Y-0.3607 Z1.0253
X3.61 Y-0.3567 Z1.0254
X3.6105 Y-0.3561 Z1.0255
X3.6134 Y-0.3533
X3.6149 Y-0.3522 Z1.0257
X3.6164 Y-0.3511
X3.6175 Y-0.3505 Z1.0256
X3.6229 Y-0.3478 Z1.0257
X3.6241 Y-0.3473 Z1.0258
X3.6282 Y-0.3459
X3.6317 Y-0.3448 Z1.026
X3.6344 Y-0.3443 Z1.0258
X3.6408 Y-0.3435 Z1.0259
X3.6487 Y-0.3432 Z1.0258
X3.6567 Y-0.3436 Z1.0259
X3.6615 Y-0.3443 Z1.0258
X3.6649 Y-0.345 Z1.0259
X3.6682 Y-0.346 Z1.0258
X3.674 Y-0.3481 Z1.0256
X3.6746 Y-0.3484 Z1.0255
X3.6804 Y-0.3516 Z1.0254
X3.682 Y-0.3526
X3.6837 Y-0.354 Z1.0251
X3.6879 Y-0.3584 Z1.025
X3.6885 Y-0.3593 Z1.0249
X3.6904 Y-0.3618 Z1.0248
X3.6924 Y-0.3652 Z1.0249
X3.6931 Y-0.3668
X3.6949 Y-0.3715 Z1.0247
X3.6927 Y-0.3747 Z1.0277
X3.6868 Y-0.3824 Z1.035
X3.6927 Y-0.3747 Z1.0277
X3.6949 Y-0.3715 Z1.0247
X3.7 Y-0.3753 Z1.0289
X3.7067 Y-0.3809 Z1.035
G0 Z1.24
X3.4396 Y-0.4441
Z1.235
G1 Z1.035 F80.
X3.4473 Y-0.4504 Z1.0279 F10.
X3.451 Y-0.4532 Z1.0249
X3.4545 Y-0.4483 Z1.0294
X3.4591 Y-0.4423 Z1.035
X3.4545 Y-0.4483 Z1.0294
X3.451 Y-0.4532 Z1.0249
X3.4519 Y-0.4563 Z1.0248
X3.4542 Y-0.4619
X3.4567 Y-0.4667
X3.458 Y-0.4684
X3.4614 Y-0.4723
X3.4622 Y-0.4731
X3.4647 Y-0.4754
X3.4674 Y-0.4774 Z1.0249
X3.4695 Y-0.4788
X3.4725 Y-0.4806 Z1.025
X3.4748 Y-0.4817
X3.4784 Y-0.4832 Z1.0252
X3.4822 Y-0.4844 Z1.0253
X3.4851 Y-0.4852 Z1.0254
X3.4911 Y-0.4866 Z1.0255
X3.4923 Y-0.4868 Z1.0256
X3.4991 Y-0.4875
X3.5067 Y-0.4878
X3.5137 Y-0.4873
X3.5177 Y-0.4869 Z1.0257
X3.5204 Y-0.4864 Z1.0255
X3.5269 Y-0.4846 Z1.0256
X3.5307 Y-0.4834 Z1.0257
X3.5331 Y-0.4824 Z1.0256
X3.5354 Y-0.4812
X3.539 Y-0.4791
X3.5404 Y-0.4781
X3.5426 Y-0.4765 Z1.0255
X3.5444 Y-0.4747 Z1.0256
X3.5473 Y-0.4716
X3.5485 Y-0.47 Z1.0255
X3.5497 Y-0.4683 Z1.0254
X3.551 Y-0.466
X3.5525 Y-0.4627 Z1.0253
X3.5526 Y-0.4624
X3.5536 Y-0.4594 Z1.0252
X3.5543 Y-0.4562
X3.5545 Y-0.4547 Z1.0251
X3.5547 Y-0.4516
X3.5548 Y-0.4498 Z1.0249
X3.5544 Y-0.446
X3.5543 Y-0.4453 Z1.0248
X3.5533 Y-0.441 Z1.0247
X3.5515 Y-0.4368 Z1.0246
X3.5494 Y-0.4332 Z1.0245
X3.5478 Y-0.4313 Z1.0246
X3.5464 Y-0.4298 Z1.0245
X3.5438 Y-0.4274
X3.5427 Y-0.4265 Z1.0244
X3.5398 Y-0.4244 Z1.0245
X3.5385 Y-0.4236
X3.5338 Y-0.4213 Z1.0244
X3.5292 Y-0.4195 Z1.0246
X3.5178 Y-0.4159 Z1.0245
X3.5148 Y-0.4151
X3.5007 Y-0.4117 Z1.0246
X3.492 Y-0.4096 Z1.0247
X3.4858 Y-0.4079
X3.4828 Y-0.407 Z1.0248
X3.4789 Y-0.4055 Z1.0247
X3.4741 Y-0.4035 Z1.0246
X3.4725 Y-0.4027 Z1.0245
X3.4686 Y-0.4005 Z1.0246
X3.4657 Y-0.3986 Z1.0248
X3.465 Y-0.3981
X3.4639 Y-0.397
X3.4613 Y-0.3941
X3.4603 Y-0.3927 Z1.0247
X3.4596 Y-0.3919
X3.4579 Y-0.3887 Z1.0248
X3.4572 Y-0.3869
X3.4567 Y-0.3853 Z1.0247
X3.4559 Y-0.3816 Z1.0249
X3.4555 Y-0.3776 Z1.025
X3.4556 Y-0.3755 Z1.0251
X3.4558 Y-0.3734 Z1.025
X3.4566 Y-0.3691 Z1.0251
X3.4581 Y-0.365 Z1.0252
X3.4593 Y-0.3625 Z1.0254
X3.4602 Y-0.361 Z1.0253
X3.4632 Y-0.357 Z1.0254
X3.4638 Y-0.3565 Z1.0255
X3.4667 Y-0.3536
X3.4682 Y-0.3525 Z1.0257
X3.4697 Y-0.3515
X3.4708 Y-0.3508 Z1.0256
X3.4761 Y-0.3481 Z1.0257
X3.4774 Y-0.3477 Z1.0258
X3.4814 Y-0.3462
X3.485 Y-0.3452 Z1.026
X3.4877 Y-0.3446 Z1.0258
X3.4941 Y-0.3438 Z1.0259
X3.502 Y-0.3435 Z1.0258
X3.51 Y-0.344 Z1.0259
X3.5148 Y-0.3446 Z1.0258
X3.5182 Y-0.3453 Z1.0259
X3.5215 Y-0.3463 Z1.0258
X3.5273 Y-0.3485 Z1.0256
X3.5279 Y-0.3487 Z1.0255
X3.5337 Y-0.3519 Z1.0254
X3.5353 Y-0.353
X3.537 Y-0.3544 Z1.0251
X3.5411 Y-0.3587 Z1.025
X3.5418 Y-0.3596 Z1.0249
X3.5437 Y-0.3622 Z1.0248
X3.5457 Y-0.3656 Z1.0249
X3.5464 Y-0.3671
X3.5481 Y-0.3719 Z1.0247
X3.547 Y-0.3736 Z1.0264
X3.5401 Y-0.3828 Z1.035
X3.547 Y-0.3736 Z1.0264
X3.5481 Y-0.3719 Z1.0247
X3.5533 Y-0.3757 Z1.0289
X3.56 Y-0.3812 Z1.035
G0 Z1.64
(ENGRAVE1 2)
G0 X3.4518 Y-0.1314
Z1.64
Z1.235
G1 Z1.035 F80.
X3.4589 Y-0.1211 Z1.0252 F20.
Z1.0253
X3.4625 Y-0.1235 Z1.028
X3.471 Y-0.1298 Z1.035
X3.4625 Y-0.1235 Z1.028
X3.4589 Y-0.1211 Z1.0253
Z1.0252
X3.4578 Y-0.1184 Z1.0253
X3.4564 Y-0.1159 Z1.0254
X3.4547 Y-0.1133 Z1.0256
X3.4513 Y-0.1089 Z1.0259
X3.4506 Y-0.1081 Z1.0258
X3.4458 Y-0.1046 Z1.0261
X3.4424 Y-0.1025 Z1.0262
X3.44 Y-0.1013 Z1.0264
X3.4388 Y-0.1009 Z1.0266
X3.4379 Y-0.1006
X3.4335 Y-0.0996 Z1.0268
X3.4327 Y-0.0994 Z1.0269
X3.4264 Y-0.0988 Z1.027
X3.4252 Z1.0272
X3.4201 Y-0.0993
X3.4162 Y-0.0999 Z1.0271
X3.4148 Y-0.1002
X3.4117 Y-0.1012 Z1.0268
X3.4093 Y-0.1021
X3.4077 Y-0.1028 Z1.0266
X3.4041 Y-0.1049
X3.4006 Y-0.1078 Z1.0264
X3.3985 Y-0.1097
X3.3939 Y-0.1144 Z1.026
X3.3937 Y-0.1147 Z1.0261
X3.3898 Y-0.1213 Z1.0264
X3.3867 Y-0.1276 Z1.0263
X3.3839 Y-0.1354 Z1.0258
X3.3832 Y-0.1378
X3.3819 Y-0.1427 Z1.0256
X3.381 Y-0.1474 Z1.0257
X3.3809 Y-0.1485
X3.38 Y-0.1577 Z1.0255
X3.3797 Y-0.1675
Y-0.1694 Z1.0254
X3.3799 Y-0.1714 Z1.0251
X3.3804 Y-0.1733 Z1.0246
X3.381 Y-0.1753 Z1.0239
X3.3819 Y-0.1771 Z1.0231
X3.3829 Y-0.1789 Z1.0222
X3.3851 Y-0.1781 Z1.0239
X3.3871 Y-0.1773 Z1.0253
X3.3889 Y-0.1764 Z1.0264
X3.3905 Y-0.1753 Z1.0273
X3.3915 Y-0.1746 Z1.0278
X3.3923 Y-0.1739 Z1.0281
X3.393 Y-0.1732 Z1.0283
X3.3937 Y-0.1725 Z1.0284
X3.396 Y-0.1695 Z1.0285
X3.3971 Y-0.1682 Z1.0284
X3.4015 Y-0.1639 Z1.0279
X3.4055 Y-0.1611 Z1.0276
X3.4076 Y-0.1598
X3.4085 Y-0.1594
X3.4093 Y-0.1589 Z1.0274
X3.4141 Y-0.1572 Z1.027
X3.4151 Y-0.1569
X3.4184 Y-0.1561 Z1.0267
X3.4225 Y-0.1555 Z1.0266
X3.4229
X3.4271 Z1.0263
X3.4307 Y-0.1559
X3.4351 Y-0.1567 Z1.026
X3.4379 Y-0.1574
X3.4394 Y-0.1579 Z1.0259
X3.4416 Y-0.1589 Z1.0257
X3.4444 Y-0.1605 Z1.0256
X3.4455 Y-0.1612
X3.4467 Y-0.162
X3.4515 Y-0.166 Z1.0255
X3.4524 Y-0.1668
X3.4532 Y-0.1675 Z1.0254
X3.4574 Y-0.1736 Z1.0253
X3.4581 Y-0.1745 Z1.0252
X3.4599 Y-0.178 Z1.025
X3.4613 Y-0.1809 Z1.0251
X3.4618 Y-0.1824
X3.4624 Y-0.1849 Z1.025
X3.4632 Y-0.1888 Z1.0251
X3.4633 Y-0.1899
X3.464 Y-0.1978
X3.4637 Y-0.2037 Z1.0252
X3.4634 Y-0.2068 Z1.0253
X3.4629 Y-0.2096
X3.4615 Y-0.2154 Z1.0256
X3.4597 Y-0.2198 Z1.0257
X3.4593 Y-0.2208
X3.4576 Y-0.2239
X3.4572 Y-0.2246
X3.4534 Y-0.2302 Z1.0259
X3.4523 Y-0.2314 Z1.0261
X3.4497 Y-0.2339
X3.4468 Y-0.2363 Z1.0263
X3.4462 Y-0.2368
X3.4408 Y-0.2399 Z1.0266
X3.4397 Y-0.2404 Z1.0268
X3.4358 Y-0.2419 Z1.0267
X3.4329 Y-0.2426 Z1.0269
X3.4319 Y-0.2428
X3.4255 Y-0.2435 Z1.0271
X3.425 Y-0.2436
X3.4195 Y-0.2431 Z1.0272
X3.4148 Y-0.2424 Z1.027
X3.4145 Y-0.2423
X3.4104 Y-0.2411 Z1.0267
X3.4092 Y-0.2407
X3.4065 Y-0.2395 Z1.0265
X3.4045 Y-0.2385 Z1.0266
X3.4032 Y-0.2377 Z1.0265
X3.3994 Y-0.2349 Z1.0264
X3.3953 Y-0.2311 Z1.0263
X3.3926 Y-0.2282 Z1.0259
X3.3914 Y-0.2263 Z1.026
X3.3887 Y-0.2214 Z1.0261
X3.3862 Y-0.2163 Z1.0257
X3.3841 Y-0.2104 Z1.0254
X3.3826 Y-0.2044 Z1.0249
X3.3818 Y-0.1987 Z1.0246
X3.3817 Y-0.1971 Z1.0244
X3.3816 Y-0.1902 Z1.0238
X3.3824 Y-0.182 Z1.0228
X3.3826 Y-0.1804 Z1.0225
X3.3829 Y-0.1789 Z1.0222
G0 Z1.24
X3.5041 Y-0.2267
Z1.235
G1 Z1.035 F80.
X3.5151 Y-0.2377 Z1.024 F20.
X3.5261 Y-0.2267 Z1.035
X3.5151 Y-0.2377 Z1.024
X3.5262 Y-0.2486 Z1.035
X3.5151 Y-0.2377 Z1.024
X3.5042 Y-0.2487 Z1.035
G0 Z1.24
X3.6353 Y-0.1309
Z1.235
G1 Z1.035 F80.
X3.6423 Y-0.1206 Z1.0252 F20.
X3.6424 Y-0.1207 Z1.0253
X3.6459 Y-0.1231 Z1.028
X3.6545 Y-0.1294 Z1.035
X3.6459 Y-0.1231 Z1.028
X3.6424 Y-0.1207 Z1.0253
X3.6423 Y-0.1206 Z1.0252
X3.6416 Y-0.1185 Z1.0253
X3.6399 Y-0.1155 Z1.0254
X3.6389 Y-0.1138 Z1.0255
X3.6355 Y-0.1093 Z1.0258
X3.6341 Y-0.1076
X3.6293 Y-0.1041 Z1.0261
X3.6282 Y-0.1034 Z1.0262
X3.6259 Y-0.1021
X3.6232 Y-0.1008 Z1.0265
X3.6223 Y-0.1005 Z1.0266
X3.6203 Y-0.0999
X3.6162 Y-0.099 Z1.0269
X3.6149 Y-0.0988
X3.6095 Y-0.0983 Z1.0271
X3.6079 Y-0.0984 Z1.0272
X3.6026 Y-0.099
X3.5983 Y-0.0998 Z1.0271
X3.5968 Y-0.1002 Z1.027
X3.5952 Y-0.1007 Z1.0268
X3.5912 Y-0.1024 Z1.0266
X3.5873 Y-0.1047
X3.5866 Y-0.1052 Z1.0265
X3.584 Y-0.1073 Z1.0264
X3.5813 Y-0.1099 Z1.0263
X3.5773 Y-0.114 Z1.026
X3.5771 Y-0.1143 Z1.0261
X3.5733 Y-0.1209 Z1.0264
X3.5702 Y-0.1271 Z1.0263
X3.5673 Y-0.135 Z1.0258
X3.5667 Y-0.1373
X3.5654 Y-0.1423 Z1.0256
X3.5645 Y-0.147 Z1.0257
X3.5644 Y-0.148
X3.5634 Y-0.1572 Z1.0255
X3.5631 Y-0.1671
X3.5632 Y-0.169 Z1.0254
X3.5634 Y-0.171 Z1.0251
X3.5639 Y-0.1729 Z1.0246
X3.5645 Y-0.1749 Z1.0239
X3.5653 Y-0.1767 Z1.0231
X3.5663 Y-0.1785 Z1.0222
X3.566 Y-0.18 Z1.0225
X3.5652 Y-0.1882 Z1.0236
Y-0.1966 Z1.0244
X3.5659 Y-0.2031 Z1.0249
X3.5672 Y-0.2087 Z1.0253
X3.5692 Y-0.2146 Z1.0257
X3.5715 Y-0.2198 Z1.026
X3.5744 Y-0.2251
X3.576 Y-0.2277 Z1.0259
X3.5777 Y-0.2296 Z1.0262
X3.5822 Y-0.2339 Z1.0264
X3.5863 Y-0.237 Z1.0265
X3.5867 Y-0.2373
X3.59 Y-0.2391
X3.5918 Y-0.2399 Z1.0267
X3.5939 Y-0.2407
X3.5966 Y-0.2415 Z1.027
X3.5979 Y-0.2418
X3.6021 Y-0.2425 Z1.0272
X3.6072 Y-0.2431 Z1.0271
X3.6084 Y-0.2432
X3.6139 Y-0.2426 Z1.0269
X3.6151 Y-0.2424
X3.6192 Y-0.2414 Z1.0267
X3.622 Y-0.2405 Z1.0268
X3.6232 Y-0.24
X3.6241 Y-0.2396 Z1.0266
X3.629 Y-0.2368 Z1.0263
X3.6332 Y-0.2335 Z1.0261
X3.6349 Y-0.2319
X3.6358 Y-0.231
X3.6365 Y-0.2302 Z1.026
X3.6399 Y-0.2254 Z1.0257
X3.6407 Y-0.2242
X3.6427 Y-0.2206 Z1.0256
X3.6445 Y-0.2161 Z1.0257
X3.6449 Y-0.215 Z1.0256
X3.6464 Y-0.2092 Z1.0253
X3.6467 Y-0.2076
X3.6472 Y-0.2033 Z1.0252
X3.6475 Y-0.1991
Y-0.1977 Z1.0251
X3.647 Y-0.1907 Z1.0252
X3.6468 Y-0.1894 Z1.0251
X3.6459 Y-0.1845 Z1.025
X3.6455 Y-0.1827 Z1.0251
X3.6449 Y-0.1809
X3.6434 Y-0.1776 Z1.025
X3.6417 Y-0.1744 Z1.0252
X3.6369 Y-0.1674 Z1.0254
X3.6358 Y-0.1663 Z1.0255
X3.6308 Y-0.1621 Z1.0256
X3.6302 Y-0.1616
X3.629 Y-0.1607
X3.6251 Y-0.1584 Z1.0257
X3.6237 Y-0.1578 Z1.0258
X3.6221 Y-0.1571 Z1.0259
X3.6186 Y-0.1563 Z1.026
X3.6155 Y-0.1557 Z1.0263
X3.6106 Y-0.155
X3.6079 Z1.0266
X3.6063
X3.6019 Y-0.1557 Z1.0267
X3.5998 Y-0.1561 Z1.0269
X3.5986 Y-0.1565 Z1.027
X3.5932 Y-0.1583 Z1.0273
X3.5919 Y-0.1589 Z1.0276
X3.589 Y-0.1607
X3.586 Y-0.1627 Z1.0279
X3.5852 Y-0.1633
X3.5814 Y-0.1669 Z1.0282
X3.5801 Y-0.1684 Z1.0285
X3.5779 Y-0.1713
X3.5772 Y-0.172 Z1.0284
X3.5765 Y-0.1728 Z1.0283
X3.5757 Y-0.1735 Z1.0281
X3.574 Y-0.1749 Z1.0273
X3.5724 Y-0.1759 Z1.0264
X3.5706 Y-0.1769 Z1.0253
X3.5686 Y-0.1777 Z1.0239
X3.5663 Y-0.1785 Z1.0222
G0 Z1.24
X3.6704 Y-0.1929
Z1.235
G1 Z1.035 F80.
X3.6801 Y-0.1959 Z1.0252 F20.
X3.6805 Y-0.1939 Z1.0261
X3.6811 Y-0.1919 Z1.0267
X3.6815 Y-0.191 Z1.027
X3.6819 Y-0.1901 Z1.0271
X3.6824 Y-0.1893 Z1.0272
X3.6829 Y-0.1884
X3.733 Y-0.1166 Z1.0275
X3.7337 Y-0.1157 Z1.0274
X3.7346 Y-0.115 Z1.0272
X3.7354 Y-0.1142 Z1.0269
X3.7363 Y-0.1135 Z1.0265
X3.7373 Y-0.1129 Z1.0261
X3.7384 Y-0.1123 Z1.0256
X3.7394 Y-0.1117 Z1.025
X3.7419 Y-0.1108 Z1.0235
X3.7446 Y-0.11 Z1.0218
X3.7474 Y-0.101 Z1.0246
X3.742 Y-0.0907 Z1.035
X3.7474 Y-0.101 Z1.0246
X3.7577 Y-0.0907 Z1.035
X3.7474 Y-0.101 Z1.0246
X3.7446 Y-0.11 Z1.0218
X3.7458 Y-0.1123 Z1.0231
X3.7463 Y-0.1135 Z1.0236
X3.7468 Y-0.1147 Z1.0241
X3.7472 Y-0.1158 Z1.0245
X3.7476 Y-0.117 Z1.0248
X3.7478 Y-0.1182 Z1.025
X3.748 Y-0.1193 Z1.0252
X3.7481 Y-0.1205 Z1.0253
X3.7483 Y-0.1927
Y-0.1943 Z1.0252
Y-0.1962 Z1.0247
Y-0.1985 Z1.0237
Y-0.2016 Z1.0219
X3.7517 Z1.0241
X3.7543 Y-0.2015 Z1.0254
X3.7562 Z1.026
X3.758 Z1.0261
X3.7704
X3.7792 Y-0.1927 Z1.035
X3.7704 Y-0.2015 Z1.0261
X3.7793 Y-0.2103 Z1.035
X3.7704 Y-0.2015 Z1.0261
X3.758
X3.7562 Z1.026
X3.7543 Z1.0254
X3.7517 Y-0.2016 Z1.0241
X3.7483 Z1.0219
Y-0.2046 Z1.0237
Y-0.2069 Z1.0247
Y-0.2088 Z1.0252
X3.7484 Y-0.2104 Z1.0253
Y-0.2385
X3.7388 Y-0.2481 Z1.035
X3.7484 Y-0.2385 Z1.0253
X3.7581 Y-0.2481 Z1.035
X3.7484 Y-0.2385 Z1.0253
Y-0.2104
X3.7483 Y-0.2088 Z1.0252
Y-0.2069 Z1.0247
Y-0.2046 Z1.0237
Y-0.2016 Z1.0219
X3.7449 Z1.0241
X3.7424 Z1.0254
X3.7404 Z1.026
X3.7387 Z1.0261
X3.6883
X3.6873 Z1.026
X3.6863 Y-0.2014 Z1.0259
X3.6852 Y-0.2012 Z1.0257
X3.6832 Y-0.2006 Z1.0251
X3.6811 Y-0.1998 Z1.0242
X3.6805 Y-0.1979 Z1.0248
X3.6801 Y-0.1959 Z1.0252
X3.6805 Y-0.1979 Z1.0248
X3.6811 Y-0.1998 Z1.0242
X3.6704 Y-0.2106 Z1.035
G0 Z1.24
X3.5863 Y-0.4437
Z1.235
G1 Z1.035 F80.
X3.5941 Y-0.4501 Z1.0279 F20.
X3.5978 Y-0.4528 Z1.0249
X3.6012 Y-0.448 Z1.0294
X3.6059 Y-0.442 Z1.035
X3.6012 Y-0.448 Z1.0294
X3.5978 Y-0.4528 Z1.0249
X3.5986 Y-0.4559 Z1.0248
X3.6009 Y-0.4616
X3.6035 Y-0.4664
X3.6048 Y-0.4681
X3.6081 Y-0.4719
X3.6089 Y-0.4727
X3.6114 Y-0.4751
X3.6141 Y-0.4771 Z1.0249
X3.6162 Y-0.4785
X3.6193 Y-0.4802 Z1.025
X3.6215 Y-0.4814
X3.6252 Y-0.4828 Z1.0252
X3.629 Y-0.4841 Z1.0253
X3.6318 Y-0.4849 Z1.0254
X3.6378 Y-0.4863 Z1.0255
X3.639 Y-0.4865 Z1.0256
X3.6459 Y-0.4872
X3.6534 Y-0.4874
X3.6604 Y-0.487
X3.6644 Y-0.4866 Z1.0257
X3.6671 Y-0.4861 Z1.0255
X3.6736 Y-0.4843 Z1.0256
X3.6774 Y-0.483 Z1.0257
X3.6799 Y-0.482 Z1.0256
X3.6821 Y-0.4809
X3.6858 Y-0.4787
X3.6871 Y-0.4778
X3.6893 Y-0.4761 Z1.0255
X3.6911 Y-0.4744 Z1.0256
X3.694 Y-0.4712
X3.6952 Y-0.4697 Z1.0255
X3.6964 Y-0.468 Z1.0254
X3.6977 Y-0.4656
X3.6992 Y-0.4624 Z1.0253
X3.6994 Y-0.462 Z1.0254
X3.7004 Y-0.4591 Z1.0252
X3.701 Y-0.4559
X3.7012 Y-0.4544 Z1.0251
X3.7015 Y-0.4513
Y-0.4495 Z1.0249
X3.7011 Y-0.4456
X3.701 Y-0.445 Z1.0248
X3.7001 Y-0.4406 Z1.0247
X3.6982 Y-0.4364 Z1.0246
X3.6961 Y-0.4329 Z1.0245
X3.6945 Y-0.4309 Z1.0246
X3.6931 Y-0.4295 Z1.0245
X3.6906 Y-0.4271
X3.6894 Y-0.4261 Z1.0244
X3.6865 Y-0.424 Z1.0245
X3.6852 Y-0.4233
X3.6805 Y-0.4209 Z1.0244
X3.676 Y-0.4192 Z1.0246
X3.6646 Y-0.4156 Z1.0245
X3.6616 Y-0.4148
X3.6474 Y-0.4114 Z1.0246
X3.6387 Y-0.4093 Z1.0247
X3.6325 Y-0.4076
X3.6296 Y-0.4066 Z1.0248
X3.6257 Y-0.4051 Z1.0247
X3.6209 Y-0.4031 Z1.0246
X3.6192 Y-0.4023 Z1.0245
X3.6154 Y-0.4002 Z1.0246
X3.6124 Y-0.3982 Z1.0248
X3.6118 Y-0.3978
X3.6107 Y-0.3967
X3.608 Y-0.3937
X3.607 Y-0.3924 Z1.0247
X3.6064 Y-0.3915
X3.6046 Y-0.3884 Z1.0248
X3.6039 Y-0.3865
X3.6034 Y-0.3849 Z1.0247
X3.6026 Y-0.3812 Z1.0249
X3.6022 Y-0.3772 Z1.025
X3.6023 Y-0.3752 Z1.0251
X3.6026 Y-0.3731 Z1.025
X3.6033 Y-0.3688 Z1.0251
X3.6049 Y-0.3647 Z1.0252
X3.606 Y-0.3622 Z1.0254
X3.6069 Y-0.3607 Z1.0253
X3.61 Y-0.3567 Z1.0254
X3.6105 Y-0.3561 Z1.0255
X3.6134 Y-0.3533
X3.6149 Y-0.3522 Z1.0257
X3.6164 Y-0.3511
X3.6175 Y-0.3505 Z1.0256
X3.6229 Y-0.3478 Z1.0257
X3.6241 Y-0.3473 Z1.0258
X3.6282 Y-0.3459
X3.6317 Y-0.3448 Z1.026
X3.6344 Y-0.3443 Z1.0258
X3.6408 Y-0.3435 Z1.0259
X3.6487 Y-0.3432 Z1.0258
X3.6567 Y-0.3436 Z1.0259
X3.6615 Y-0.3443 Z1.0258
X3.6649 Y-0.345 Z1.0259
X3.6682 Y-0.346 Z1.0258
X3.674 Y-0.3481 Z1.0256
X3.6746 Y-0.3484 Z1.0255
X3.6804 Y-0.3516 Z1.0254
X3.682 Y-0.3526
X3.6837 Y-0.354 Z1.0251
X3.6879 Y-0.3584 Z1.025
X3.6885 Y-0.3593 Z1.0249
X3.6904 Y-0.3618 Z1.0248
X3.6924 Y-0.3652 Z1.0249
X3.6931 Y-0.3668
X3.6949 Y-0.3715 Z1.0247
X3.6927 Y-0.3747 Z1.0277
X3.6868 Y-0.3824 Z1.035
X3.6927 Y-0.3747 Z1.0277
X3.6949 Y-0.3715 Z1.0247
X3.7 Y-0.3753 Z1.0289
X3.7067 Y-0.3809 Z1.035
G0 Z1.24
X3.4396 Y-0.4441
Z1.235
G1 Z1.035 F80.
X3.4473 Y-0.4504 Z1.0279 F20.
X3.451 Y-0.4532 Z1.0249
X3.4545 Y-0.4483 Z1.0294
X3.4591 Y-0.4423 Z1.035
X3.4545 Y-0.4483 Z1.0294
X3.451 Y-0.4532 Z1.0249
X3.4519 Y-0.4563 Z1.0248
X3.4542 Y-0.4619
X3.4567 Y-0.4667
X3.458 Y-0.4684
X3.4614 Y-0.4723
X3.4622 Y-0.4731
X3.4647 Y-0.4754
X3.4674 Y-0.4774 Z1.0249
X3.4695 Y-0.4788
X3.4725 Y-0.4806 Z1.025
X3.4748 Y-0.4817
X3.4784 Y-0.4832 Z1.0252
X3.4822 Y-0.4844 Z1.0253
X3.4851 Y-0.4852 Z1.0254
X3.4911 Y-0.4866 Z1.0255
X3.4923 Y-0.4868 Z1.0256
X3.4991 Y-0.4875
X3.5067 Y-0.4878
X3.5137 Y-0.4873
X3.5177 Y-0.4869 Z1.0257
X3.5204 Y-0.4864 Z1.0255
X3.5269 Y-0.4846 Z1.0256
X3.5307 Y-0.4834 Z1.0257
X3.5331 Y-0.4824 Z1.0256
X3.5354 Y-0.4812
X3.539 Y-0.4791
X3.5404 Y-0.4781
X3.5426 Y-0.4765 Z1.0255
X3.5444 Y-0.4747 Z1.0256
X3.5473 Y-0.4716
X3.5485 Y-0.47 Z1.0255
X3.5497 Y-0.4683 Z1.0254
X3.551 Y-0.466
X3.5525 Y-0.4627 Z1.0253
X3.5526 Y-0.4624
X3.5536 Y-0.4594 Z1.0252
X3.5543 Y-0.4562
X3.5545 Y-0.4547 Z1.0251
X3.5547 Y-0.4516
X3.5548 Y-0.4498 Z1.0249
X3.5544 Y-0.446
X3.5543 Y-0.4453 Z1.0248
X3.5533 Y-0.441 Z1.0247
X3.5515 Y-0.4368 Z1.0246
X3.5494 Y-0.4332 Z1.0245
X3.5478 Y-0.4313 Z1.0246
X3.5464 Y-0.4298 Z1.0245
X3.5438 Y-0.4274
X3.5427 Y-0.4265 Z1.0244
X3.5398 Y-0.4244 Z1.0245
X3.5385 Y-0.4236
X3.5338 Y-0.4213 Z1.0244
X3.5292 Y-0.4195 Z1.0246
X3.5178 Y-0.4159 Z1.0245
X3.5148 Y-0.4151
X3.5007 Y-0.4117 Z1.0246
X3.492 Y-0.4096 Z1.0247
X3.4858 Y-0.4079
X3.4828 Y-0.407 Z1.0248
X3.4789 Y-0.4055 Z1.0247
X3.4741 Y-0.4035 Z1.0246
X3.4725 Y-0.4027 Z1.0245
X3.4686 Y-0.4005 Z1.0246
X3.4657 Y-0.3986 Z1.0248
X3.465 Y-0.3981
X3.4639 Y-0.397
X3.4613 Y-0.3941
X3.4603 Y-0.3927 Z1.0247
X3.4596 Y-0.3919
X3.4579 Y-0.3887 Z1.0248
X3.4572 Y-0.3869
X3.4567 Y-0.3853 Z1.0247
X3.4559 Y-0.3816 Z1.0249
X3.4555 Y-0.3776 Z1.025
X3.4556 Y-0.3755 Z1.0251
X3.4558 Y-0.3734 Z1.025
X3.4566 Y-0.3691 Z1.0251
X3.4581 Y-0.365 Z1.0252
X3.4593 Y-0.3625 Z1.0254
X3.4602 Y-0.361 Z1.0253
X3.4632 Y-0.357 Z1.0254
X3.4638 Y-0.3565 Z1.0255
X3.4667 Y-0.3536
X3.4682 Y-0.3525 Z1.0257
X3.4697 Y-0.3515
X3.4708 Y-0.3508 Z1.0256
X3.4761 Y-0.3481 Z1.0257
X3.4774 Y-0.3477 Z1.0258
X3.4814 Y-0.3462
X3.485 Y-0.3452 Z1.026
X3.4877 Y-0.3446 Z1.0258
X3.4941 Y-0.3438 Z1.0259
X3.502 Y-0.3435 Z1.0258
X3.51 Y-0.344 Z1.0259
X3.5148 Y-0.3446 Z1.0258
X3.5182 Y-0.3453 Z1.0259
X3.5215 Y-0.3463 Z1.0258
X3.5273 Y-0.3485 Z1.0256
X3.5279 Y-0.3487 Z1.0255
X3.5337 Y-0.3519 Z1.0254
X3.5353 Y-0.353
X3.537 Y-0.3544 Z1.0251
X3.5411 Y-0.3587 Z1.025
X3.5418 Y-0.3596 Z1.0249
X3.5437 Y-0.3622 Z1.0248
X3.5457 Y-0.3656 Z1.0249
X3.5464 Y-0.3671
X3.5481 Y-0.3719 Z1.0247
X3.547 Y-0.3736 Z1.0264
X3.5401 Y-0.3828 Z1.035
X3.547 Y-0.3736 Z1.0264
X3.5481 Y-0.3719 Z1.0247
X3.5533 Y-0.3757 Z1.0289
X3.56 Y-0.3812 Z1.035
G0 Z1.64
M5
M9
G53 G0 Z0.
M30
%
