%
(SS BRIDGE OP3)
(T13 D=0.375 CR=0. TAPER=45DEG - ZMIN=-0.365 - CHAMFER MILL)
(T33 D=0.25 CR=0. - ZMIN=-0.7754 - FLAT END MILL)
(T53 D=0.264 CR=0. TAPER=118DEG - ZMIN=-1.0068 - DRILL)
(T101 D=0.1 CR=0. TAPER=135DEG - ZMIN=-0.3357 - DRILL)
G90 G94 G17 G91.1
G20
G53 G0 Z0.
(DRILL1)
T53 M6
T101
S5000 M3
G17 G90 G94
G54
M8
G0 X1.2205 Y-0.2953
G43 Z0.6593 H53
G0 Z0.2593
G98 G81 X1.2205 Y-0.2953 Z-1.0068 R-0.115 F30.
G80
G0 Z0.6593
(DRILL2)
G0 X0.2756 Y-0.2953
Z0.6593
Z0.2593
G81 X0.2756 Y-0.2953 Z-0.025 R0.2 F30.
G80
G0 Z0.6593
M5
G53 G0 Z0.
(DRILL3)
M9
M1
T101 M6
T33
S5000 M3
G17 G90 G94
G54
M8
G0 X0.2756 Y-0.2953
G43 Z0.6593 H101
G0 Z0.2593
G81 X0.2756 Y-0.2953 Z-0.3357 R0.2 F15.
G80
G0 Z0.6593
M5
G53 G0 Z0.
(2D CONTOUR4)
M9
M1
T33 M6
T13
S7500 M3
G17 G90 G94
G54
G64 P0.0004 Q0.0004
M8
G0 X1.2455 Y-0.8306
G43 Z0.6593 H33
G0 Z0.2593
G1 Z-0.4081 F80.
G19 G3 Y-0.8056 Z-0.4331 J0.025 K0. F50.
G1 Y-0.7806
G17 G3 X1.2205 Y-0.7556 I-0.025 J0.
G2 Y0.165 I0. J0.4603
Y-0.7556 I0. J-0.4603
X1.1898 Y-0.7345 I0. J0.0329
G3 X1.1607 Y-0.7113 I-0.0343 J-0.0132
G2 X1.2803 Y0.1207 I0.0598 J0.416
X1.1607 Y-0.7113 I-0.0598 J-0.416
X1.2803 Y0.1207 I0.0598 J0.416
X1.1607 Y-0.7113 I-0.0598 J-0.416
G3 X1.1324 Y-0.7325 I-0.0036 J-0.0247
G1 X1.1288 Y-0.7572
X1.1283 Y-0.7611 Z-0.4328
X1.1277 Y-0.7649 Z-0.4318
X1.1272 Y-0.7684 Z-0.4303
X1.1267 Y-0.7718 Z-0.4283
X1.1263 Y-0.7747 Z-0.4257
X1.1259 Y-0.7772 Z-0.4228
X1.1256 Y-0.7793 Z-0.4194
X1.1254 Y-0.7807 Z-0.4158
X1.1253 Y-0.7817 Z-0.412
Y-0.782 Z-0.4081
G0 Z0.6593
(2D CONTOUR5)
G0 X1.1955 Y0.0122
Z0.6593
Z0.2593
G1 Z0.0986 F80.
Z-0.29
G19 G2 Y-0.0128 Z-0.315 J-0.025 K0. F50.
G1 Y-0.0378
G17 G3 X1.2205 Y-0.0628 I0.025 J0.
G2 Y-0.5278 I0. J-0.2325
Y-0.0628 I0. J0.2325
Y-0.5278 I0. J-0.2325
Y-0.0628 I0. J0.2325
G3 X1.2455 Y-0.0378 I0. J0.025
G1 Y-0.0128
G19 G3 Y0.0122 Z-0.29 J0. K0.025
G0 Z0.6593
G17
(2D CONTOUR6)
G0 X1.2018 Y0.2007
Z0.6593
Z0.2593
G1 Z0.0986 F80.
Z-0.7504
Y0.2004 Z-0.7543 F50.
X1.2017 Y0.1995 Z-0.7581
Y0.198 Z-0.7617
X1.2016 Y0.1959 Z-0.7651
X1.2015 Y0.1934 Z-0.7681
X1.2014 Y0.1904 Z-0.7706
X1.2013 Y0.187 Z-0.7726
X1.2012 Y0.1834 Z-0.7742
X1.2011 Y0.1796 Z-0.7751
X1.201 Y0.1757 Z-0.7754
X1.2002 Y0.1507
G3 X1.2244 Y0.1249 I0.025 J-0.0008
G1 X1.2428 Y0.1244
X1.2508 Y0.1238
X1.2694 Y0.1221
X1.2772 Y0.1211
X1.2957 Y0.1181
X1.3033 Y0.1166
X1.3216 Y0.1125
X1.3291 Y0.1106
X1.347 Y0.1054
X1.3547 Y0.1029
X1.372 Y0.0967
X1.3795 Y0.0937
X1.397 Y0.0861
X1.4044 Y0.0826
X1.4219 Y0.0735
X1.4257 Y0.0715
G2 Y-0.6621 I-0.2052 J-0.3668
G1 X1.4219 Y-0.6641
X1.4044 Y-0.6731
X1.397 Y-0.6766
X1.3795 Y-0.6843
X1.372 Y-0.6872
X1.3547 Y-0.6935
X1.3471 Y-0.696
X1.3292 Y-0.7012
X1.3216 Y-0.7031
X1.3033 Y-0.7072
X1.2957 Y-0.7086
X1.2772 Y-0.7116
X1.2694 Y-0.7126
X1.2508 Y-0.7144
X1.2428 Y-0.7149
X1.2244 Y-0.7155
G3 X1.2002 Y-0.7413 I0.0008 J-0.025
G1 X1.201 Y-0.7663
X1.2011 Y-0.7702 Z-0.7751
X1.2012 Y-0.774 Z-0.7742
X1.2013 Y-0.7776 Z-0.7726
X1.2015 Y-0.7809 Z-0.7706
Y-0.7839 Z-0.7681
X1.2016 Y-0.7865 Z-0.7651
X1.2017 Y-0.7885 Z-0.7617
Y-0.79 Z-0.7581
X1.2018 Y-0.7909 Z-0.7543
Y-0.7912 Z-0.7504
G0 Z0.2593
Y0.2007
G1 Z0.0986 F80.
Z-0.7504
Y0.2004 Z-0.7543 F50.
X1.2017 Y0.1995 Z-0.7581
Y0.198 Z-0.7617
X1.2016 Y0.1959 Z-0.7651
X1.2015 Y0.1934 Z-0.7681
X1.2014 Y0.1904 Z-0.7706
X1.2013 Y0.187 Z-0.7726
X1.2012 Y0.1834 Z-0.7742
X1.2011 Y0.1796 Z-0.7751
X1.201 Y0.1757 Z-0.7754
X1.2002 Y0.1507
G3 X1.2244 Y0.1249 I0.025 J-0.0008
G1 X1.2428 Y0.1244
X1.2508 Y0.1238
X1.2694 Y0.1221
X1.2772 Y0.1211
X1.2957 Y0.1181
X1.3033 Y0.1166
X1.3216 Y0.1125
X1.3291 Y0.1106
X1.347 Y0.1054
X1.3547 Y0.1029
X1.372 Y0.0967
X1.3795 Y0.0937
X1.397 Y0.0861
X1.4044 Y0.0826
X1.4219 Y0.0735
X1.4257 Y0.0715
G2 Y-0.6621 I-0.2052 J-0.3668
G1 X1.4219 Y-0.6641
X1.4044 Y-0.6731
X1.397 Y-0.6766
X1.3795 Y-0.6843
X1.372 Y-0.6872
X1.3547 Y-0.6935
X1.3471 Y-0.696
X1.3292 Y-0.7012
X1.3216 Y-0.7031
X1.3033 Y-0.7072
X1.2957 Y-0.7086
X1.2772 Y-0.7116
X1.2694 Y-0.7126
X1.2508 Y-0.7144
X1.2428 Y-0.7149
X1.2244 Y-0.7155
G3 X1.2002 Y-0.7413 I0.0008 J-0.025
G1 X1.201 Y-0.7663
X1.2011 Y-0.7702 Z-0.7751
X1.2012 Y-0.774 Z-0.7742
X1.2013 Y-0.7776 Z-0.7726
X1.2015 Y-0.7809 Z-0.7706
Y-0.7839 Z-0.7681
X1.2016 Y-0.7865 Z-0.7651
X1.2017 Y-0.7885 Z-0.7617
Y-0.79 Z-0.7581
X1.2018 Y-0.7909 Z-0.7543
Y-0.7912 Z-0.7504
G0 Z0.6593
M5
G53 G0 Z0.
(2D CHAMFER5)
M9
M1
T13 M6
T53
S7500 M3
G17 G90 G94
G54
M8
G0 X-0.0565 Y-0.5906
G43 Z0.6593 H13
G0 Z0.2593
G1 Z0.1393 F80.
Z-0.05
Y0. F50.
G0 Z0.2593
X0.6077
G1 Z0.1393 F80.
Z-0.05
Y-0.5906 F50.
G0 Z0.6593
X1.2205 Y0.0565
Z0.2593
G1 Z0.1393 F80.
Z-0.365
G2 Y-0.6471 I0. J-0.3518 F50.
Y0.0565 I0. J0.3518
G0 Z0.6593
M5
M9
G53 G0 Z0.
M30
%
