%
(SS BRIDGE OP1)
(T13 D=0.375 CR=0. TAPER=45DEG - ZMIN=0.63 - CHAMFER MILL)
(T33 D=0.25 CR=0. - ZMIN=0.1494 - FLAT END MILL)
G90 G94 G17 G91.1
G20
G53 G0 Z0.
(FACE1)
T33 M6
T13
S7500 M3
G17 G90 G94
G54
G64 P0.0004 Q0.0004
M8
G0 X3.3125 Y-1.5672
G43 Z1.35 H33
G0 Z0.95
G1 Z0.765 F80.
G18 G3 X3.2875 Z0.74 I-0.025 K0. F50.
G1 X3.25
X-0.1
G17 G2 Y-1.3864 I0. J0.0904
G1 X3.25
G3 Y-1.2056 I0. J0.0904
G1 X-0.1
G2 Y-1.0248 I0. J0.0904
G1 X3.25
G3 Y-0.844 I0. J0.0904
G1 X-0.1
G2 Y-0.6632 I0. J0.0904
G1 X3.25
G3 Y-0.4824 I0. J0.0904
G1 X-0.1
G2 Y-0.3016 I0. J0.0904
G1 X3.25
G3 Y-0.1207 I0. J0.0904
G1 X-0.1
G18 G3 X-0.125 Z0.765 I0. K0.025
G0 Z1.35
G17
(ADAPTIVE1)
G64 P0.004 Q0.004
G0 X3.1753 Y0.2872
Z1.35
Z0.1996
G1 Z0.1746 F50.
X3.1752 Y0.2869 Z0.1707
X3.175 Y0.286 Z0.1669
X3.1746 Y0.2845 Z0.1633
X3.1741 Y0.2825 Z0.1599
X3.1735 Y0.2801 Z0.157
X3.1727 Y0.2772 Z0.1544
X3.1719 Y0.2739 Z0.1524
X3.171 Y0.2704 Z0.1509
X3.17 Y0.2667 Z0.15
X3.1691 Y0.2629 Z0.1496
G3 X3.1495 Y0.1268 I0.6183 J-0.1584
G1 Y0.1209
X3.1711 Y0.0918
X3.1873 Y0.0595
X3.1991 Y0.0253
X3.2074 Y-0.0099
G2 X3.2209 Y-0.1539 I-0.9392 J-0.161
X3.2239 Y-0.4433 I-8.525 J-0.2312
G1 X3.2241 Y-0.6242
X3.2243 Y-0.9972
Y-1.0006
X3.2245 Y-1.0039
X3.2248 Y-1.0072
X3.2252 Y-1.0104
X3.2256 Y-1.0268
X3.2257 Y-1.035
Y-1.5518
G2 X3.2174 Y-1.6175 I-0.1805 J-0.0104
X3.1854 Y-1.6667 I-0.1404 J0.0562
X3.0953 Y-1.705 I-0.0948 J0.0977
G1 X3.0871 Y-1.7054
X3.0132
X3.0049 Y-1.7047
G3 X2.7518 Y-1.6994 I-0.2164 J-4.2778
G1 X2.6794 Y-1.6991
X2.5347 Y-1.699
X1.015 Y-1.6993
X0.1894 Y-1.6995
X0.1828 Y-1.6997
X0.1762 Y-1.7003
X0.1697 Y-1.7014
X0.1615 Y-1.7031
X0.1451 Y-1.7047
X0.1368 Y-1.7054
X0.0629
G2 X0.0135 Y-1.6974 I-0.0001 J0.1561
X-0.0754 Y-1.5764 I0.0463 J0.1272
G1 X-0.0757 Y-1.5682
Y-1.5354
Y-1.035
X-0.0756 Y-1.0268
X-0.0765 Y-0.9906
G3 X-0.0743 Y-0.5926 I-17.2138 J0.2919
G1 X-0.0745 Y-0.0861
X-0.068 Y-0.0505
X-0.05 Y-0.0191
X-0.0245 Y0.0066
X0.0057 Y0.0265
X0.0388 Y0.0413
X0.0733 Y0.0519
G2 X0.2167 Y0.0698 I0.1623 J-0.7176
X0.3336 Y0.0731 I0.1421 J-2.9772
G1 X0.3388 Y0.0737
X0.344 Y0.0745
G2 X0.3916 Y0.0784 I0.0391 J-0.1847
G1 X0.7943
X0.8025 Y0.0782
X0.8189 Y0.0777
X0.8203 Y0.0775
G3 X1.0072 Y0.0745 I0.159 J4.1408
G1 X1.0795 Y0.0742
X1.1881
X1.9117 Y0.0743
X2.3034
X2.3091 Y0.0745
X2.3149 Y0.0751
X2.3205 Y0.076
G2 X2.3557 Y0.0784 I0.0293 J-0.169
G1 X2.7584
X2.7666 Y0.0783
X2.7831 Y0.0778
X2.7855 Y0.0776
G3 X3.0026 Y0.0748 I0.1937 J6.4311
G1 X3.0377 Y0.0661
X3.0691 Y0.048
X3.0954 Y0.0232
X3.1166 Y-0.0062
X3.1329 Y-0.0385
X3.1451 Y-0.0725
X3.154 Y-0.1076
G2 X3.1698 Y-0.2513 I-0.8856 J-0.1698
X3.1738 Y-0.5769 I-7.5543 J-0.2561
G1 X3.1742 Y-0.7216
Y-0.8763
G3 X3.1973 Y-0.9365 I0.0903 J0.
G1 X3.2 Y-0.9403
X3.2266 Y-0.956
X3.309 Y-1.0046 F300.
G2 X3.3616 Y-1.0924 I-0.0459 J-0.0871
G1 X3.3542 Y-1.601
X3.3443 Y-1.6502
X3.3172 Y-1.7091
X3.309 Y-1.7209
G2 X3.3008 Y-1.7322 I-0.0835 J0.0521
G1 X3.2597 Y-1.7745
X3.2101 Y-1.8074
X3.196 Y-1.8143
G2 X3.0589 Y-1.7569 I-0.0436 J0.0883
G1 X3.0563 Y-1.7487
G3 X3.0333 Y-1.7162 I-0.0597 J-0.0178
X3.0132 Y-1.7064 I-0.0368 J-0.0503 F50.
G1 X3.0049 Y-1.7047
G2 X2.9462 Y-1.6882 I0.0049 J0.13
G3 X2.8814 Y-1.6664 I-0.1056 J-0.2071
X2.7516 Y-1.6525 I-0.1453 J-0.7431
X2.4622 Y-1.6493 I-0.2277 J-7.5187
G1 X2.3175 Y-1.6491
X0.9788 Y-1.6493
X0.288 Y-1.6494
G3 X0.2344 Y-1.6668 I0. J-0.0917
G1 X0.2151 Y-1.6807
G3 X0.2067 Y-1.7085 I0.0153 J-0.0198
X0.219 Y-1.7227 I0.0237 J0.008 F300.
G1 X0.3423 Y-1.7767
X0.4902 Y-1.7804
X2.9145 Y-1.8033
G3 X2.9673 Y-1.7103 I-0.0014 J0.0623
X2.9462 Y-1.6882 I-0.0542 J-0.0307 F50.
G1 X2.9433 Y-1.6865
X2.9392 Y-1.6838
X2.9145 Y-1.666
X2.901 Y-1.6558
G3 X2.8335 Y-1.6253 I-0.1172 J-0.1691
X2.7239 Y-1.6067 I-0.1486 J-0.5447
X2.507 Y-1.5999 I-0.1972 J-2.8218
X2.2537 Y-1.5991 I-0.1953 J-22.1829
G1 X1.7833 Y-1.5992
X0.915 Y-1.5993
X0.3722 Y-1.5994
X0.3536 Y-1.5996
G3 X0.2994 Y-1.618 I0.0008 J-0.0917
G1 X0.2344 Y-1.6668
G3 X0.2261 Y-1.6945 I0.0153 J-0.0198
X0.2499 Y-1.7115 I0.0237 J0.008 F300.
G1 X2.8854 Y-1.7003
G3 X2.9088 Y-1.6837 I-0.0001 J0.025
X2.901 Y-1.6558 I-0.0235 J0.0085 F50.
G1 X2.8406 Y-1.6105
G3 X2.7669 Y-1.5768 I-0.1278 J-0.1824
X2.6528 Y-1.5574 I-0.1555 J-0.5673
X2.3997 Y-1.5499 I-0.221 J-3.2043
G1 X2.3635 Y-1.5494
X2.2911 Y-1.5493
X2.1826 Y-1.5492
X1.8931
X0.88 Y-1.5493
X0.4459 Y-1.5494
X0.4224 Y-1.5495
G3 X0.3716 Y-1.5652 I0.0004 J-0.0917
X0.2994 Y-1.618 I0.7201 J-1.0603
X0.2916 Y-1.6459 I0.0157 J-0.0195
X0.3152 Y-1.6624 I0.0235 J0.0085 F300.
G1 X2.825 Y-1.6549
G3 X2.8484 Y-1.6384 I-0.0001 J0.025
X2.8406 Y-1.6105 I-0.0235 J0.0085 F50.
X2.7584 Y-1.5523 I-0.5892 J-0.7454
X2.6618 Y-1.5189 I-0.1458 J-0.2653
X2.5229 Y-1.5039 I-0.1632 J-0.8565
X2.1973 Y-1.4995 I-0.2603 J-7.3076
G1 X2.0888 Y-1.4992
X1.7631
X0.7862 Y-1.4994
X0.5019
G3 X0.453 Y-1.5136 I0.0001 J-0.0917
G1 X0.3752 Y-1.5628
X0.3716 Y-1.5652
G3 X0.3624 Y-1.5927 I0.0147 J-0.0202
X0.3864 Y-1.6104 I0.0239 J0.0072 F300.
G1 X2.7444 Y-1.5981
G3 X2.7684 Y-1.5796 I-0.0001 J0.025
G1 X2.7691 Y-1.5764 F50.
X2.7693 Y-1.5731
G3 X2.7584 Y-1.5524 I-0.025 J0.
G1 X2.6795 Y-1.5026
G3 X2.6062 Y-1.474 I-0.1301 J-0.2253
X2.4809 Y-1.4559 I-0.1607 J-0.6729
X2.1916 Y-1.4498 I-0.2426 J-4.57
G1 X2.1192 Y-1.4493
X2.0107 Y-1.4492
X1.7212
X0.7081 Y-1.4494
X0.587
X0.5723 Y-1.4506
X0.558 Y-1.4541
X0.5445 Y-1.4599
G3 X0.4531 Y-1.5137 I0.3566 J-0.7102
G1 X0.4501 Y-1.5161
X0.4475 Y-1.5189
X0.4453 Y-1.5221
X0.4437 Y-1.5256
X0.4426 Y-1.5293
X0.4421 Y-1.5331
X0.4423 Y-1.537
X0.443 Y-1.5408
G3 X0.4672 Y-1.5593 I0.0241 J0.0065 F300.
G1 X2.6656 Y-1.5482
G3 X2.6896 Y-1.5298 I-0.0001 J0.025
X2.6795 Y-1.5026 I-0.0241 J0.0065 F50.
G1 X2.6665 Y-1.4944
X2.6399 Y-1.478
X2.6351 Y-1.4754
X2.5776 Y-1.4452
G3 X2.4763 Y-1.4152 I-0.1478 J-0.3122
X2.3322 Y-1.4027 I-0.1623 J-1.0409
X1.9342 Y-1.3992 I-0.3114 J-12.6215
G1 X1.6448
X0.6824 Y-1.3994
X0.6677 Y-1.4006
X0.6534 Y-1.4041
X0.6398 Y-1.4099
X0.5445 Y-1.4599
G3 X0.5323 Y-1.4862 I0.0124 J-0.0217
X0.557 Y-1.5066 I0.0246 J0.0046 F300.
G1 X2.5654 Y-1.492
G3 X2.5898 Y-1.4715 I-0.0002 J0.025
X2.5776 Y-1.4452 I-0.0246 J0.0046 F50.
G1 X2.5036 Y-1.4064
G3 X2.4626 Y-1.3877 I-0.3759 J-0.7698
X2.3548 Y-1.3614 I-0.1552 J-0.4017
X2.1743 Y-1.3511 I-0.181 J-1.5879
X1.8487 Y-1.3492 I-0.2586 J-16.6012
G1 X1.5954
X0.7962 Y-1.3494
X0.784 Y-1.3502
X0.7719 Y-1.3526
X0.7603 Y-1.3567
X0.6792 Y-1.3912
G3 X0.6398 Y-1.4098 I0.2752 J-0.6343
G1 X0.6366 Y-1.412
X0.6338 Y-1.4146
X0.6314 Y-1.4177
X0.6295 Y-1.421
X0.6282 Y-1.4247
X0.6274 Y-1.4285
X0.6272 Y-1.4323
X0.6276 Y-1.4362
G3 X0.6525 Y-1.4566 I0.0246 J0.0046 F300.
G1 X2.4523 Y-1.4354
G3 X2.4768 Y-1.4129 I-0.0003 J0.025
X2.4626 Y-1.3877 I-0.0249 J0.0026 F50.
G1 X2.3393 Y-1.3352
G3 X2.2442 Y-1.312 I-0.1569 J-0.4354
X2.0637 Y-1.3011 I-0.1785 J-1.4604
X1.7381 Y-1.2992 I-0.2558 J-16.3296
G1 X1.4486
X0.9314 Y-1.2993
X0.9216 Y-1.2999
X0.9119 Y-1.3014
X0.9024 Y-1.304
X0.8436 Y-1.3237
X0.8189 Y-1.3321
X0.8107 Y-1.3352
X0.7603 Y-1.3567
G3 X0.7452 Y-1.3814 I0.0098 J-0.023
X0.7703 Y-1.4047 I0.0249 J0.0017 F300.
G1 X2.3431 Y-1.3946
G3 X2.368 Y-1.3696 I-0.0002 J0.025
X2.3632 Y-1.3549 I-0.025 J0.
G1 X2.363 Y-1.3546
G3 X2.3393 Y-1.3352 I-0.0501 J-0.0371 F50.
G1 X2.3311 Y-1.3321
X2.3064 Y-1.3237
X2.1749 Y-1.2798
X2.1667 Y-1.2773
X2.142 Y-1.2712
G3 X1.9805 Y-1.2527 I-0.1788 J-0.8479
X1.6911 Y-1.2495 I-0.2318 J-7.735
G1 X1.5825 Y-1.2492
X1.1484 Y-1.2493
X1.1081
X1.1007 Y-1.2496
X1.0934 Y-1.2505
X1.0862 Y-1.252
X0.9833 Y-1.2773
X0.9751 Y-1.2798
X0.9024 Y-1.304
G3 X0.8861 Y-1.328 I0.0087 J-0.0234
X0.9093 Y-1.3524 I0.025 J0.0006 F300.
G1 X2.1256 Y-1.3628
G3 X2.167 Y-1.2885 I0.0037 J0.0466
X2.1469 Y-1.2729 I-0.0377 J-0.0276 F50.
G1 X2.142 Y-1.2712
X2.0106 Y-1.2388
X2.0023 Y-1.2369
X1.9695 Y-1.2315
X1.838 Y-1.2101
X1.8215 Y-1.2085
X1.7854 Y-1.2069
G3 X1.5685 Y-1.2 I-0.1894 J-2.5362
X1.4363 Y-1.1996 I-0.0747 J-3.0934
G1 X1.4325 Y-1.2004
X1.4289 Y-1.2017
X1.4255 Y-1.2035
X1.4224 Y-1.2059
X1.4198 Y-1.2087
X1.4176 Y-1.2119
X1.4159 Y-1.2154
X1.4148 Y-1.2191
X1.4139 Y-1.2229 Z0.15
X1.4131 Y-1.2266 Z0.1509
X1.4123 Y-1.2301 Z0.1524
X1.4116 Y-1.2334 Z0.1544
X1.411 Y-1.2363 Z0.157
X1.4104 Y-1.2388 Z0.1599
X1.41 Y-1.2408 Z0.1633
X1.4096 Y-1.2423 Z0.1669
X1.4094 Y-1.2432 Z0.1707
Y-1.2435 Z0.1746
G0 Z0.1996
X1.8704 Y-1.2348
G1 Z0.1746 F50.
X1.8702 Y-1.2346 Z0.1707
X1.8694 Y-1.2341 Z0.1669
X1.8682 Y-1.2332 Z0.1633
X1.8666 Y-1.232 Z0.1599
X1.8645 Y-1.2305 Z0.157
X1.8621 Y-1.2287 Z0.1544
X1.8594 Y-1.2267 Z0.1524
X1.8565 Y-1.2246 Z0.1509
X1.8534 Y-1.2223 Z0.15
X1.8502 Y-1.22 Z0.1496
G3 X1.8215 Y-1.2085 I-0.0368 J-0.0503
G1 X1.8079 Y-1.2073
X1.6736 Y-1.1964
X1.6654 Y-1.1961
X1.649 Y-1.1956
X1.6407 Y-1.1954
X1.5093
X1.501 Y-1.1956
X1.4846 Y-1.1961
X1.4764 Y-1.1964
X1.3421 Y-1.2073
X1.3202 Y-1.2093
X1.312 Y-1.2101
X1.1723 Y-1.2328
X1.1477 Y-1.2369
X1.1394 Y-1.2388
X1.0862 Y-1.252
X1.0737 Y-1.2601
X1.0683 Y-1.2752
X1.0399 Y-1.3549 F300.
G2 X0.9915 Y-1.4102 I-0.0929 J0.0324
G1 X0.2437 Y-1.8127
X0.1988 Y-1.8266
X0.1451 Y-1.8355
X0.03 Y-1.8331
X-0.0281 Y-1.821
X-0.085 Y-1.7934
X-0.1378 Y-1.7487
X-0.1754 Y-1.6938
X-0.1967 Y-1.642
X-0.2057 Y-1.5764
X-0.2022 Y-1.519
X-0.1565 Y-1.1662
X-0.0865 Y-1.0552
X-0.0789 Y-1.0432 F50.
X-0.0756 Y-1.0268
G2 X-0.0605 Y-0.9569 I0.1446 J0.0053
G3 X-0.0387 Y-0.8839 I-0.2316 J0.1088
X-0.0269 Y-0.7465 I-0.8925 J0.1461
X-0.0245 Y-0.3485 I-14.0611 J0.2822
G1 X-0.0244 Y-0.1676
X-0.0179 Y-0.132
X-0.0026 Y-0.0992
X0.0196 Y-0.0707
X0.047 Y-0.047
X0.0778 Y-0.0281
X0.111 Y-0.0135
G2 X0.2247 Y0.0121 I0.1635 J-0.4603
G3 X0.2797 Y0.0396 I-0.0101 J0.0889
G1 X0.2891 Y0.0478
X0.293 Y0.051
X0.3007 Y0.056
X0.3038 Y0.0585
X0.3064 Y0.0615
G2 X0.3209 Y0.0794 I0.26 J-0.1963
X0.4394 Y0.1651 I0.2454 J-0.2142 F300.
G1 X0.4421 Y0.1661
X0.445 Y0.1668
X0.4479 Y0.1671
X0.6557 Y0.1769
X0.6586
X0.6615 Y0.1765
X0.6644 Y0.1758
G2 X0.7963 Y0.0959 I-0.0981 J-0.3106
G1 X0.8066 Y0.0851 F50.
G3 X0.8203 Y0.0775 I0.0184 J0.0169
G2 X0.8697 Y0.063 I-0.0127 J-0.1351
G3 X0.9288 Y0.0424 I0.0968 J0.1819
X1.053 Y0.028 I0.1423 J0.6849
X1.3424 Y0.0245 I0.2273 J6.8067
G1 X1.4872 Y0.0242
X2.1962 Y0.0243
G3 X2.2567 Y0.0472 I0. J0.0917
G1 X2.2646 Y0.0642
X2.2609 Y0.0758
X2.2594 Y0.0806 F300.
X2.1383 Y0.1463
X2.101 Y0.1541
X0.9011 Y0.1772
G3 X0.8765 Y0.1709 I0.0028 J-0.0622
G1 X0.8764
G3 X0.849 Y0.0856 I0.0275 J-0.0559
X0.8696 Y0.063 I0.0549 J0.0294 F50.
G2 X0.9031 Y0.0383 I-0.0792 J-0.1428
G3 X0.9479 Y0.011 I0.0863 J0.091
X1.0409 Y-0.0126 I0.1387 J0.3509
X1.1852 Y-0.0232 I0.158 J1.1687
X1.547 Y-0.0258 I0.2805 J14.0257
G1 X1.945 Y-0.0257
X2.1259
X2.1478 Y-0.0252
X2.1596 Y-0.0243
G3 X2.2286 Y0.0153 I-0.0066 J0.0914
G2 X2.2567 Y0.0472 I0.1179 J-0.0756
G1 X2.259 Y0.0497
X2.2608 Y0.0526
X2.2622 Y0.0558
X2.263 Y0.0591
X2.2632 Y0.0625
X2.2629 Y0.0659
X2.262 Y0.0692
X2.2606 Y0.0724
X2.2587 Y0.0752
G3 X2.2423 Y0.083 I-0.0162 J-0.013 F300.
G1 X0.9187 Y0.0724
G3 X0.9043 Y0.0664 I0.0002 J-0.0208
X0.9031 Y0.0383 I0.0146 J-0.0147 F50.
G2 X0.9223 Y0.0138 I-0.1067 J-0.1039
G3 X0.9627 Y-0.0213 I0.0869 J0.0591
X1.0462 Y-0.0522 I0.1409 J0.2519
X1.1799 Y-0.0698 I0.1652 J0.7384
X1.4693 Y-0.0753 I0.2408 J5.1203
G1 X1.5417 Y-0.0757
X1.6864
X2.0482
X2.0844 Y-0.0755
G3 X2.151 Y-0.0688 I0.0003 J0.329
X2.2161 Y-0.0101 I-0.0217 J0.0895
X2.2072 Y0.0175 I-0.0239 J0.0075
X2.1928 Y0.0224 I-0.0149 J-0.0201 F300.
G1 X0.945 Y0.0505
G3 X0.9261 Y0.0425 I-0.0006 J-0.025
X0.9223 Y0.0138 I0.0183 J-0.0171 F50.
G2 X0.934 Y-0.0104 I-0.1206 J-0.0733
G3 X0.9716 Y-0.0538 I0.088 J0.0382
X1.0579 Y-0.0935 I0.1507 J0.2139
X1.1792 Y-0.1155 I0.1712 J0.5983
X1.4322 Y-0.1247 I0.231 J2.8964
X1.6855 Y-0.1257 I0.1994 J17.5702
G1 X1.9388
G3 X2.0774 Y-0.124 I0.0346 J2.8787
X2.1493 Y-0.1104 I-0.0166 J0.2835
X2.21 Y-0.0343 I-0.0309 J0.0869
G1 Y-0.0304
X2.2094 Y-0.0266
X2.2083 Y-0.0229
X2.2065 Y-0.0195
X2.2043 Y-0.0163
X2.2016 Y-0.0136
X2.1985 Y-0.0112
X2.1951 Y-0.0094
X2.1921 Y-0.0083 F300.
X2.1889 Y-0.0076
X2.1857 Y-0.0073
X0.9585 Y0.0218
G3 X0.9433 Y0.0171 I-0.0006 J-0.025
X0.934 Y-0.0104 I0.0146 J-0.0203 F50.
G1 X0.9365 Y-0.0178
X0.9386 Y-0.026
X0.9397 Y-0.0325
G3 X0.9737 Y-0.0847 I0.0892 J0.0209
X1.0449 Y-0.1272 I0.1485 J0.168
X1.1365 Y-0.1536 I0.1725 J0.4269
X1.3164 Y-0.1712 I0.2037 J1.158
X1.642 Y-0.1754 I0.268 J8.1512
X2.0038 Y-0.1753 I0.1754 J29.2964
X2.1029 Y-0.1663 I0. J0.5528
X2.17 Y-0.1406 I-0.0356 J0.1932
X2.2078 Y-0.0664 I-0.0556 J0.075
G1 Y-0.0533
X2.21 Y-0.0343
G3 X2.1951 Y-0.0094 I-0.0249 J0.002
X2.1851 Y-0.0073 I-0.0101 J-0.0229 F300.
G1 X0.9646 Y-0.0042
G3 X0.9532 Y-0.0069 I-0.0001 J-0.025
X0.9397 Y-0.0325 I0.0113 J-0.0223 F50.
G1 X0.94 Y-0.0342
X0.9422 Y-0.0533
Y-0.0563
G3 X0.9632 Y-0.1057 I0.0794 J0.0047
X1.0384 Y-0.1627 I0.1588 J0.1313
X1.1451 Y-0.1987 I0.191 J0.3899
X1.3246 Y-0.2195 I0.2114 J1.0369
X1.6139 Y-0.2251 I0.2556 J5.7779
X1.9757 I0.1821 J23.9373
X2.0867 Y-0.2148 I-0.0055 J0.6607
X2.1652 Y-0.1862 I-0.0462 J0.2487
X2.2077 Y-0.1086 I-0.05 J0.0779
G1 Y-0.0664
G3 X2.1902 Y-0.0433 I-0.025 J-0.0008
G1 X2.1866 Y-0.0425 F300.
X2.183 Y-0.0422
X0.9674 Y-0.0321
X0.9635 Y-0.0324
X0.9598 Y-0.0333
G3 X0.9422 Y-0.0563 I0.0075 J-0.0239 F50.
G1 X0.9423 Y-0.0879
G3 X0.9662 Y-0.1444 I0.092 J0.0057
X1.0344 Y-0.2001 I0.1652 J0.1326
X1.1318 Y-0.2389 I0.1991 J0.3583
X1.3055 Y-0.266 I0.2213 J0.8474
X1.5948 Y-0.2746 I0.266 J4.0872
X1.9566 Y-0.2747 I0.1843 J15.5215
X2.0762 Y-0.2627 I-0.0134 J0.7353
X2.1655 Y-0.2297 I-0.0516 J0.2767
X2.2077 Y-0.1523 I-0.0504 J0.0778
G1 Y-0.1086
G3 X2.1901 Y-0.0856 I-0.025 J-0.0009
G1 X2.1867 Y-0.0848 F300.
X2.1832 Y-0.0845
X0.9677 Y-0.0638
X0.9638 Y-0.064
X0.9599 Y-0.0649
G3 X0.9423 Y-0.0879 I0.0074 J-0.0239 F50.
G1 Y-0.1228
G3 X0.9651 Y-0.1805 I0.0978 J0.0053
X1.047 Y-0.2478 I0.1838 J0.1403
X1.1553 Y-0.2892 I0.2131 J0.3952
X1.333 Y-0.3157 I0.2305 J0.9372
X1.6222 Y-0.3245 I0.2723 J4.1757
X1.9479 Y-0.3239 I0.1452 J9.7214
X2.0719 Y-0.3098 I-0.0262 J0.7825
X2.1642 Y-0.2752 I-0.0603 J0.3011
X2.1962 Y-0.2413 I-0.0526 J0.0817
G1 X2.2022 Y-0.2277
X2.2061 Y-0.2134
X2.2075 Y-0.1986
X2.2077 Y-0.1901
Y-0.1737
Y-0.1523
G3 X2.1901 Y-0.1293 I-0.025 J-0.0009
G1 X2.1868 Y-0.1285 F300.
X2.1833 Y-0.1282
X0.9679 Y-0.0987
X0.9652
X0.9625 Y-0.0991
X0.9599 Y-0.0998
G3 X0.9423 Y-0.1228 I0.0074 J-0.0239 F50.
G1 Y-0.1597
G3 X0.9692 Y-0.2252 I0.1071 J0.0058
X1.0454 Y-0.2889 I0.1884 J0.148
X1.1521 Y-0.3329 I0.2238 J0.3916
X1.3278 Y-0.3629 I0.2403 J0.8785
X1.5808 Y-0.3736 I0.2632 J3.2109
X1.9064 Y-0.3741 I0.1776 J9.4501
X2.0438 Y-0.362 I-0.0239 J1.0525
X2.1464 Y-0.3304 I-0.0643 J0.3912
X2.1951 Y-0.2815 I-0.0412 J0.0899
G1 X2.1996 Y-0.2679
G3 X2.2074 Y-0.1986 I-0.2505 J0.0632
G1 X2.2071 Y-0.1947
X2.2061 Y-0.191
X2.2046 Y-0.1875
X2.2026 Y-0.1842
X2.2001 Y-0.1813
X2.1972 Y-0.1788
X2.1939 Y-0.1767
X2.1903 Y-0.1752
X2.1869 Y-0.1744 F300.
X2.1833 Y-0.174
X0.9681 Y-0.1356
X0.9653 Y-0.1357
X0.9626 Y-0.136
X0.9599 Y-0.1367
G3 X0.9423 Y-0.1597 I0.0074 J-0.0239 F50.
G1 Y-0.1819
Y-0.1901
X0.9425 Y-0.2007
G3 X0.9704 Y-0.2675 I0.1132 J0.0081
X1.0499 Y-0.3342 I0.1982 J0.1554
X1.1623 Y-0.3807 I0.2357 J0.4107
X1.3391 Y-0.4116 I0.2473 J0.8956
X1.6282 Y-0.4237 I0.2881 J3.4127
X1.9176 Y-0.4226 I0.1243 J5.5509
X2.0527 Y-0.4072 I-0.0392 J0.9454
X2.1164 Y-0.3891 I-0.0903 J0.4372
X2.1593 Y-0.3543 I-0.0341 J0.0859
X2.1997 Y-0.268 I-0.2147 J0.1531
G1 X2.2002 Y-0.2641
X2.2001 Y-0.2603
X2.1995 Y-0.2564
X2.1982 Y-0.2528
X2.1965 Y-0.2494
X2.1942 Y-0.2463
X2.1914 Y-0.2435
X2.1883 Y-0.2413
G3 X2.1765 Y-0.2376 I-0.0131 J-0.0213 F300.
G1 X0.9688 Y-0.1762
X0.9657
X0.9627 Y-0.1767
X0.9597 Y-0.1774
G3 X0.9425 Y-0.2007 I0.0078 J-0.0238 F50.
X0.9484 Y-0.2602 I0.2815 J-0.0022
X0.9939 Y-0.3342 I0.1477 J0.0399
X1.0881 Y-0.3975 I0.2212 J0.2271
X1.2328 Y-0.4435 I0.2545 J0.5499
X1.4484 Y-0.4675 I0.2705 J1.449
X1.8824 Y-0.4728 I0.2897 J5.9503
X2.029 Y-0.4589 I-0.0366 J1.161
G1 X2.0431 Y-0.4548
X2.0564 Y-0.4487
X2.0686 Y-0.4404
X2.0944 Y-0.4197
X2.1174 Y-0.4011
X2.1242 Y-0.3951
X2.1472 Y-0.3705
X2.1503 Y-0.3672
X2.1538 Y-0.3623
X2.1593 Y-0.3543
G3 X2.1573 Y-0.3254 I-0.0213 J0.0131
X2.1398 Y-0.3163 I-0.0193 J-0.0159 F300.
G1 X0.9749 Y-0.2307
G3 X0.9607 Y-0.2339 I-0.0018 J-0.0249
X0.9485 Y-0.2602 I0.0124 J-0.0217 F50.
X1.0078 Y-0.3762 I0.2596 J0.0594
G1 X1.0162 Y-0.3849
G3 X1.1223 Y-0.4546 I0.2182 J0.2164
X1.2388 Y-0.4908 I0.2333 J0.5457
X1.4541 Y-0.5164 I0.2753 J1.3938
X1.8881 Y-0.5215 I0.2753 J4.9503
G1 X1.9242 Y-0.5191
G3 X1.9692 Y-0.506 I-0.0034 J0.0964
G1 X2.0352 Y-0.4654
X2.0423 Y-0.4608
X2.0534 Y-0.4526
X2.0686 Y-0.4404
G3 X2.0755 Y-0.4123 I-0.0163 J0.019
X2.0536 Y-0.3965 I-0.0233 J-0.0092 F300.
G1 X1.0363 Y-0.3435
G3 X1.0133 Y-0.356 I-0.0013 J-0.025
X1.0162 Y-0.3849 I0.0217 J-0.0124 F50.
G1 X1.0258 Y-0.3951
G3 X1.1146 Y-0.4656 I0.9345 J1.0866
G1 X1.1723 Y-0.5008
G3 X1.2788 Y-0.5405 I0.1856 J0.3354
X1.4578 Y-0.5647 I0.2307 J1.0302
X1.8037 Y-0.5727 I0.268 J4.1277
G1 X1.8124 Y-0.571
X1.821 Y-0.5688
G3 X1.8745 Y-0.5511 I-0.4069 J1.3235
G1 X1.953 Y-0.515
X1.9612 Y-0.5107
X1.9626 Y-0.51
X1.9692 Y-0.506
G3 X1.98 Y-0.4791 I-0.0135 J0.021
X1.9559 Y-0.46 I-0.0243 J-0.0059 F300.
G1 X1.1863 Y-0.455
G3 X1.162 Y-0.4738 I-0.0002 J-0.025
X1.1723 Y-0.5008 I0.0242 J-0.0063 F50.
X1.197 Y-0.515 I0.1481 J0.2285
G1 X1.2756 Y-0.551
G3 X1.3942 Y-0.5873 I0.3928 J1.0696
G1 X1.4517 Y-0.5978
X1.4682 Y-0.6008
X1.4764 Y-0.6023
X1.4846 Y-0.6028
X1.5586 Y-0.6073
X1.5668 Y-0.6075
X1.5832
X1.5914 Y-0.6073
X1.6654 Y-0.6028
X1.6736 Y-0.6023
G3 X1.7887 Y-0.5792 I-0.2118 J1.357
G1 X1.821 Y-0.5688
X1.8333 Y-0.5592
X1.8395 Y-0.5452
X2.1174 Y0.0831 F300.
X2.1503 Y0.1249
X2.1942 Y0.1627
X2.2407 Y0.1885
X2.2982 Y0.2041
X2.3557 Y0.2088
X2.6516 Y0.1586
X2.7577 Y0.0901
X2.7724 Y0.0806 F50.
X2.7855 Y0.0776
G2 X2.8406 Y0.0617 I-0.0088 J-0.1335
G3 X2.8889 Y0.0444 I0.0862 J0.1646
G1 X2.9242 Y0.0367
X2.9592 Y0.0276
X2.9917 Y0.0116
X3.0204 Y-0.0105
X3.0447 Y-0.0373
X3.0645 Y-0.0676
X3.0801 Y-0.1002
X3.0922 Y-0.1343
G2 X3.1161 Y-0.2768 I-0.6549 J-0.183
X3.1233 Y-0.5299 I-3.4078 J-0.2244
X3.1242 Y-0.8187 I-32.3077 J-0.2413
G1 X3.1253 Y-0.8381
G3 X3.1639 Y-0.906 I0.0916 J0.0071
G1 X3.1693 Y-0.9099
G3 X3.1983 Y-0.9087 I0.0137 J0.0209
X3.2071 Y-0.8955 I-0.0153 J0.0198 F300.
G1 X3.2536 Y-0.5756
X3.2472 Y-0.2885
X3.2304 Y-0.149
X3.2098 Y-0.0752
X3.1767 Y-0.0014
X3.1348 Y0.056
X3.0989 Y0.0926
X3.0542 Y0.1245
X2.8899 Y0.1735
G3 X2.8206 Y0.0848 I-0.0136 J-0.0608
X2.8371 Y0.0642 I0.0557 J0.0279 F50.
G1 X2.8406 Y0.0617
G2 X2.8713 Y0.0386 I-0.0693 J-0.1244
G1 X2.8756 Y0.0345
X2.8809 Y0.03
X2.9097 Y0.0082
X2.9385 Y-0.0138
X2.9647 Y-0.0387
X2.9876 Y-0.0667
X3.007 Y-0.0973
X3.0229 Y-0.1298
X3.0356 Y-0.1636
G2 X3.0631 Y-0.3055 I-0.6388 J-0.1973
X3.0729 Y-0.5585 I-2.7415 J-0.2336
X3.0743 Y-0.7749 I-20.5989 J-0.2414
G3 X3.0839 Y-0.8384 I0.2289 J0.002
X3.1364 Y-0.8922 I0.0904 J0.0358
G2 X3.1639 Y-0.9059 I-0.0488 J-0.1318
G1 X3.167 Y-0.9077
X3.1704 Y-0.909
X3.1739 Y-0.9098
X3.1775 Y-0.9101
X3.1929 Y-0.9042
X3.1942 Y-0.9037 F300.
X3.2024 Y-0.8873
X3.1957 Y-0.3213
X3.181 Y-0.2065
X3.1596 Y-0.1244
X3.12 Y-0.0319
X3.095 Y-0.0014
X2.9642 Y0.1217
G3 X2.8573 Y0.0659 I-0.0461 J-0.0419
X2.8713 Y0.0386 I0.0607 J0.0139 F50.
G2 X2.8988 Y-0.0014 I-0.0955 J-0.0952
G1 X2.9124 Y-0.0296
X2.9298 Y-0.0614
G2 X3.0018 Y-0.265 I-0.5342 J-0.3035
X3.0204 Y-0.4811 I-1.4633 J-0.2348
X3.0243 Y-0.7343 I-9.7419 J-0.2749
G3 X3.035 Y-0.8131 I0.3604 J0.0091
X3.0553 Y-0.8533 I0.1054 J0.028
X3.1118 Y-0.8862 I0.0737 J0.0617
G1 X3.1182 Y-0.8873
X3.1282 Y-0.8899
X3.1364 Y-0.8922
G3 X3.1633 Y-0.8812 I0.0057 J0.0243
X3.1666 Y-0.8627 I-0.0211 J0.0134 F300.
G1 X3.129 Y-0.2326
X3.1167 Y-0.1819
X3.0131 Y0.0478
G3 X2.9393 Y0.0806 I-0.0562 J-0.0269
G1 X2.9392
G3 X2.8952 Y0.029 I0.0178 J-0.0597
X2.8988 Y-0.0014 I0.0618 J-0.0081 F50.
G2 X2.9107 Y-0.0588 I-0.128 J-0.0564
G3 X2.9234 Y-0.1416 I0.4742 J0.0308
G2 X2.9682 Y-0.4635 I-1.5097 J-0.374
X2.9736 Y-0.6805 I-6.0899 J-0.2588
G3 X2.9829 Y-0.7789 I0.5779 J0.0054
X3.0094 Y-0.8468 I0.1952 J0.0372
X3.0836 Y-0.8842 I0.0747 J0.0558
G1 X3.0871
X3.0953 Y-0.8846
X3.1118 Y-0.8862
G3 X3.1363 Y-0.8707 I0.0014 J0.025
X3.1373 Y-0.8545 I-0.0231 J0.0095 F300.
G1 X3.0345 Y-0.0506
G3 X2.9192 Y-0.0294 I-0.0615 J-0.0102
X2.9107 Y-0.0588 I0.0538 J-0.0314 F50.
G1 X2.9108 Y-0.0916
Y-0.2639
X2.9126 Y-0.3
G3 X2.919 Y-0.4808 I6.2071 J0.1279
X2.9254 Y-0.6978 I11.0094 J0.2179
X2.9434 Y-0.7975 I0.4568 J0.031
X2.9712 Y-0.8522 I0.1721 J0.0532
X3.041 Y-0.8842 I0.0701 J0.0608
G1 X3.0836
G3 X3.1073 Y-0.8674 I0. J0.025
X3.108 Y-0.8535 I-0.0236 J0.0082 F300.
G1 X2.9653 Y-0.2413
G3 X2.9195 Y-0.2342 I-0.0243 J-0.0057
G1 X2.9193 Y-0.2345
G3 X2.9108 Y-0.2639 I0.0537 J-0.0316 F50.
G1 Y-0.6248
G2 X2.9047 Y-0.6848 I-0.194 J-0.0107
G3 X2.9205 Y-0.8356 I0.2132 J-0.054
X2.9851 Y-0.8827 I0.0814 J0.0438
G1 X3.0015 Y-0.8842
X3.041
G3 X3.064 Y-0.8666 I-0.0009 J0.025
X3.0609 Y-0.8453 I-0.0239 J0.0074 F300.
G1 X2.949 Y-0.6788
G3 X2.9281 Y-0.6677 I-0.0208 J-0.0139
X2.9046 Y-0.6847 I0.0002 J-0.025 F50.
G2 X2.8892 Y-0.7182 I-0.1151 J0.0328
G3 X2.8752 Y-0.7798 I0.0933 J-0.0536
X2.9 Y-0.8546 I0.1171 J-0.0027
X2.9665 Y-0.8842 I0.0672 J0.0614
G1 X2.9703 Y-0.8838
X2.974 Y-0.8828
X2.9776 Y-0.8812
X2.9808 Y-0.8791
X2.9837 Y-0.8765
X2.9861 Y-0.8735
X2.9881 Y-0.8702
X2.9895 Y-0.8666
G3 X2.9884 Y-0.849 I-0.0239 J0.0074 F300.
G1 X2.932 Y-0.7229
G3 X2.9168 Y-0.7093 I-0.0228 J-0.0102
X2.8892 Y-0.7182 I-0.0076 J-0.0238 F50.
G2 X2.872 Y-0.7397 I-0.1065 J0.0675
G3 X2.8536 Y-0.7831 I0.0561 J-0.0495
X2.8788 Y-0.863 I0.0889 J-0.0158
X2.9339 Y-0.8842 I0.0557 J0.0625
G1 X2.9378 Y-0.8838
X2.9415 Y-0.8828
X2.945 Y-0.8812
X2.9483 Y-0.8791
X2.9511 Y-0.8765
X2.9536 Y-0.8735
X2.9555 Y-0.8702
X2.957 Y-0.8666
G3 X2.9559 Y-0.849 I-0.0239 J0.0074 F300.
G1 X2.9111 Y-0.7485
G3 X2.9009 Y-0.7371 I-0.0228 J-0.0102
X2.872 Y-0.7397 I-0.0126 J-0.0216 F50.
G2 X2.8555 Y-0.7538 I-0.1245 J0.1281
G3 X2.8401 Y-0.7718 I0.0243 J-0.0365
X2.8546 Y-0.8638 I0.0686 J-0.0363
X2.9063 Y-0.8842 I0.0521 J0.0562
X2.9293 Y-0.8666 I-0.0009 J0.025
X2.9283 Y-0.8491 I-0.0239 J0.0074 F300.
G1 X2.8911 Y-0.7651
G3 X2.8844 Y-0.7561 I-0.0229 J-0.0101
X2.8555 Y-0.7538 I-0.0161 J-0.0191 F50.
G1 X2.8392 Y-0.7643
X2.8381 Y-0.7648
G3 X2.8211 Y-0.7813 I0.0183 J-0.0359
X2.8124 Y-0.824 I0.0566 J-0.0338
X2.8817 Y-0.8842 I0.0693 J0.0098
X2.9047 Y-0.8666 I-0.0009 J0.025
X2.9035 Y-0.8488 I-0.0239 J0.0074 F300.
G1 X2.871 Y-0.7773
X2.8697 Y-0.7749
X2.8682 Y-0.7727
X2.8665 Y-0.7706
G3 X2.8381 Y-0.7648 I-0.0182 J-0.0171 F50.
G1 X2.8324 Y-0.7676
X2.8241 Y-0.7711
X2.823 Y-0.7716
G3 X2.7987 Y-0.7965 I0.0145 J-0.0385
X2.7993 Y-0.845 I0.0558 J-0.0234
X2.8592 Y-0.8842 I0.0599 J0.026
X2.8822 Y-0.8666 I-0.0009 J0.025
X2.8812 Y-0.8492 I-0.0239 J0.0074 F300.
G1 X2.8533 Y-0.7854
X2.852 Y-0.7829
X2.8505 Y-0.7806
G3 X2.823 Y-0.7716 I-0.0201 J-0.0148 F50.
X2.8015 Y-0.7805 I0.0181 J-0.0738
X2.7927 Y-0.8053 I0.0191 J-0.0207
G1 Y-0.8463
X2.793 Y-0.8523
G3 X2.8307 Y-0.8842 I0.0378 J0.0064
X2.8577 Y-0.871 I-0.0013 J0.0366
X2.8649 Y-0.8382 I-0.0282 J0.0234 F300.
X2.8059 Y-0.8194 I-0.0355 J-0.0094
X2.7927 Y-0.8463 I0.0235 J-0.0282 F50.
G1 Y-0.8545
G3 X2.8241 Y-0.884 I0.0266 J-0.0031
G1 X3.0015 Y-0.8842
G3 X3.0245 Y-0.8666 I-0.0009 J0.025
G1 X3.0257 Y-0.8628 Z0.15
X3.0268 Y-0.8592 Z0.1509
X3.0279 Y-0.8557 Z0.1524
X3.0289 Y-0.8525 Z0.1544
X3.0297 Y-0.8497 Z0.157
X3.0305 Y-0.8472 Z0.1599
X3.0311 Y-0.8453 Z0.1633
X3.0315 Y-0.8439 Z0.1669
X3.0318 Y-0.843 Z0.1707
X3.0319 Y-0.8427 Z0.1746
G0 Z0.95
X-0.1035 Y-0.9918
Z0.1996
G1 Z0.1746 F50.
X-0.1033 Y-0.9917 Z0.1707
X-0.1025 Y-0.9912 Z0.1669
X-0.1012 Y-0.9904 Z0.1633
X-0.0994 Y-0.9894 Z0.1599
X-0.0973 Y-0.9881 Z0.157
X-0.0947 Y-0.9865 Z0.1544
X-0.0918 Y-0.9848 Z0.1524
X-0.0887 Y-0.9829 Z0.1509
X-0.0855 Y-0.981 Z0.15
X-0.0821 Y-0.979 Z0.1496
G3 X-0.0604 Y-0.9569 I-0.0321 J0.0534
G2 X-0.0357 Y-0.9237 I0.1219 J-0.0645
G3 X-0.0044 Y-0.8635 I-0.1255 J0.1037
X0.015 Y-0.7712 I-0.4348 J0.1396
X0.0241 Y-0.5906 I-1.7208 J0.1776
X0.0255 Y-0.265 I-18.7996 J0.2402
G1 X0.0267 Y-0.2288
X0.0346 Y-0.1935
X0.0501 Y-0.1608
X0.0718 Y-0.1319
X0.0984 Y-0.1073
X0.1285 Y-0.0873
X0.1609 Y-0.0712
X0.1944 Y-0.0574
G3 X0.2492 Y-0.0062 I-0.031 J0.0881
G1 X0.2503 Y-0.0036
G3 X0.2431 Y0.0245 I-0.0233 J0.0089
X0.2272 Y0.0304 I-0.0161 J-0.0191 F300.
G1 X0.1122 Y0.0345
G3 X0.0464 Y0.0148 I-0.0063 J-0.0982
G1 X-0.0193 Y-0.0404
X-0.0534 Y-0.0834
X-0.0809 Y-0.135
X-0.0974 Y-0.1867
X-0.1058 Y-0.2557
X-0.1415 Y-0.8791
G3 X-0.0622 Y-0.939 I0.0623 J0.0001
X-0.0357 Y-0.9237 I-0.0169 J0.06 F50.
G2 X-0.0111 Y-0.9041 I0.0904 J-0.0886
G3 X0.0331 Y-0.8415 I-0.0895 J0.11
X0.0598 Y-0.7434 I-0.3538 J0.1492
X0.0721 Y-0.5993 I-1.0985 J0.1658
X0.0754 Y-0.3099 I-8.9044 J0.2479
G1 X0.08 Y-0.2739
X0.0911 Y-0.2395
X0.1087 Y-0.2079
X0.1316 Y-0.1799
X0.1582 Y-0.1553
X0.1865 Y-0.1328
X0.2052 Y-0.118
G3 X0.2396 Y-0.0506 I-0.0561 J0.0711
G1 X0.2405 Y-0.0424
G3 X0.2257 Y-0.0175 I-0.0249 J0.002
X0.2108 Y-0.0159 I-0.0101 J-0.0229 F300.
G1 X0.0958 Y-0.0501
G3 X0.0629 Y-0.067 I0.0279 J-0.0944
G1 X0.0136 Y-0.1176
X-0.0275 Y-0.1864
X-0.0486 Y-0.2557
X-0.1072 Y-0.8463
G3 X-0.04 Y-0.914 I0.0621 J-0.0056
X-0.0111 Y-0.9041 I-0.0052 J0.0621 F50.
G2 X0.0119 Y-0.8929 I0.08 J-0.1351
G3 X0.0603 Y-0.8463 I-0.0489 J0.0992
X0.0946 Y-0.7661 I-0.2328 J0.147
X0.1161 Y-0.6422 I-0.6301 J0.1727
X0.1246 Y-0.3892 I-3.1031 J0.2312
G1 X0.1268 Y-0.353
X0.1338 Y-0.3175
X0.1466 Y-0.2837
X0.1643 Y-0.2522
X0.1856 Y-0.2229
X0.2086 Y-0.195
X0.2188 Y-0.1824
G3 X0.2392 Y-0.1247 I-0.0713 J0.0576
G1 Y-0.0752
X0.2393 Y-0.0588
X0.2396 Y-0.0506
G3 X0.2229 Y-0.0269 I-0.025 J0.0001
X0.1956 Y-0.0342 I-0.0083 J-0.0236 F300.
G1 X0.0629 Y-0.1691
X0.0206 Y-0.2475
X0.0084 Y-0.2885
X-0.071 Y-0.8217
G3 X-0.0185 Y-0.8963 I0.061 J-0.0128
X0.0119 Y-0.8928 I0.0084 J0.0617 F50.
G2 X0.0337 Y-0.8869 I0.0665 J-0.2024
G3 X0.0804 Y-0.8584 I-0.0195 J0.0843
X0.1281 Y-0.7803 I-0.1629 J0.153
X0.1544 Y-0.6863 I-0.4315 J0.1717
X0.1712 Y-0.5064 I-1.205 J0.2031
G1 X0.1738 Y-0.434
X0.1774 Y-0.398
X0.1851 Y-0.3627
X0.1973 Y-0.3286
X0.2129 Y-0.296
X0.2275 Y-0.2698
X0.234 Y-0.2556
X0.2379 Y-0.2405
X0.2392 Y-0.225
Y-0.1247
G3 X0.2216 Y-0.1017 I-0.025 J-0.0009
X0.1944 Y-0.1104 I-0.0074 J-0.0239 F300.
G1 X0.0666 Y-0.3049
X0.0218 Y-0.5199
X-0.0365 Y-0.8135
G3 X0.0033 Y-0.8838 I0.0612 J-0.0118
X0.0337 Y-0.887 I0.0214 J0.0585 F50.
G1 X0.0382 Y-0.8862
X0.0547 Y-0.8846
X0.0592 Y-0.8844
G3 X0.1138 Y-0.8567 I-0.0104 J0.0884
X0.1658 Y-0.7825 I-0.1485 J0.1593
X0.2015 Y-0.6683 I-0.4233 J0.1952
X0.2183 Y-0.5247 I-1.0293 J0.1932
G1 X0.2208 Y-0.4886
G2 X0.2378 Y-0.3931 I0.4148 J-0.0247
G1 X0.2388 Y-0.3847
X0.2392 Y-0.3762
Y-0.225
G3 X0.2216 Y-0.202 I-0.025 J-0.0009
X0.1899 Y-0.2199 I-0.0074 J-0.0239 F300.
G1 X0.0344 Y-0.8534
G3 X0.0353 Y-0.868 I0.0243 J-0.006
X0.0592 Y-0.8844 I0.0235 J0.0086 F50.
G1 X0.0629 Y-0.8842
X0.0875
G3 X0.144 Y-0.8609 I-0.0045 J0.0912
X0.2065 Y-0.7804 I-0.1394 J0.1728
X0.241 Y-0.6851 I-0.3376 J0.1761
G1 X0.2416 Y-0.6738
X0.2409 Y-0.6626
X0.2394 Y-0.6494
X0.2393 Y-0.6412
X0.2392 Y-0.6166
Y-0.3762
G3 X0.2216 Y-0.3532 I-0.025 J-0.0009
X0.19 Y-0.3708 I-0.0074 J-0.0239 F300.
G1 X0.0642 Y-0.8529
G3 X0.0645 Y-0.8666 I0.0242 J-0.0063
X0.0875 Y-0.8842 I0.0239 J0.0074 F50.
G1 X0.1229
G3 X0.1807 Y-0.8615 I-0.0049 J0.0975
X0.255 Y-0.7635 I-0.1388 J0.1825
X0.2505 Y-0.6989 I-0.0896 J0.0263
X0.2249 Y-0.6852 I-0.0224 J-0.0112
X0.2077 Y-0.6957 I0.0032 J-0.0248 F300.
G1 X0.1033 Y-0.8449
G3 X0.0999 Y-0.8666 I0.0205 J-0.0143
X0.1229 Y-0.8842 I0.0239 J0.0074 F50.
G1 X0.1615
G3 X0.2206 Y-0.8611 I-0.0062 J0.1029
X0.2695 Y-0.8063 I-0.0824 J0.123
X0.2607 Y-0.718 I-0.0847 J0.0362
G1 X0.2582 Y-0.7151
X0.2552 Y-0.7126
X0.2519 Y-0.7106
X0.2483 Y-0.7091
X0.2445 Y-0.7082
X0.2407 Y-0.708
X0.2368 Y-0.7083
X0.2331 Y-0.7091
G3 X0.2194 Y-0.7198 I0.0076 J-0.0238 F300.
G1 X0.1411 Y-0.846
G3 X0.1385 Y-0.8666 I0.0212 J-0.0132
X0.1615 Y-0.8842 I0.0239 J0.0074 F50.
G1 X0.1989
G3 X0.2909 Y-0.8212 I-0.005 J0.1061
X0.2758 Y-0.7372 I-0.075 J0.0299
X0.2473 Y-0.7319 I-0.0179 J-0.0174
X0.236 Y-0.7425 I0.0106 J-0.0227 F300.
G1 X0.1779 Y-0.8471
G3 X0.1759 Y-0.8666 I0.0219 J-0.0121
X0.1989 Y-0.8842 I0.0239 J0.0074 F50.
G1 X0.2379
G3 X0.3158 Y-0.8091 I-0.0025 J0.0805
X0.2887 Y-0.7492 I-0.0761 J0.0016
G1 X0.2855 Y-0.7471
X0.282 Y-0.7455
X0.2783 Y-0.7445
X0.2744 Y-0.744
X0.2706 Y-0.7442
X0.2668 Y-0.7449
X0.2631 Y-0.7462
X0.2597 Y-0.7481
G3 X0.2501 Y-0.7601 I0.0137 J-0.0209 F300.
G1 X0.2155 Y-0.8503
G3 X0.2149 Y-0.8666 I0.0233 J-0.009
X0.2379 Y-0.8842 I0.0239 J0.0074 F50.
G1 X0.2708
G3 X0.3257 Y-0.8486 I-0.002 J0.0632
G1 X0.331 Y-0.8349
G3 X0.3012 Y-0.7581 I-0.0678 J0.0179
X0.2723 Y-0.7604 I-0.0128 J-0.0215
X0.2639 Y-0.7744 I0.0161 J-0.0191 F300.
G1 X0.2472 Y-0.8541
G3 X0.2478 Y-0.8666 I0.0245 J-0.0051
X0.2708 Y-0.8842 I0.0239 J0.0074 F50.
G1 X0.2975
G3 X0.3447 Y-0.8516 I-0.0021 J0.0534
X0.3147 Y-0.7662 I-0.0577 J0.0277
G1 X0.3111 Y-0.765
X0.3073 Y-0.7642
X0.3035 Y-0.7641
X0.2996 Y-0.7646
X0.2959 Y-0.7656
X0.2924 Y-0.7672
X0.2892 Y-0.7694
X0.2863 Y-0.772
G3 X0.2797 Y-0.7868 I0.0182 J-0.0171 F300.
G1 X0.2735 Y-0.857
X0.2734 Y-0.8602
X0.2737 Y-0.8634
X0.2745 Y-0.8666
G3 X0.2975 Y-0.8842 I0.0239 J0.0074 F50.
G1 X0.3201
G3 X0.3528 Y-0.8635 I-0.0001 J0.0365
G1 X0.3562 Y-0.8545
X0.3573 Y-0.845
G3 X0.344 Y-0.8182 I-0.0362 J-0.0013
X0.3101 Y-0.8118 I-0.0228 J-0.0281 F300.
X0.2931 Y-0.8711 I0.0114 J-0.0353
X0.3201 Y-0.8842 I0.0283 J0.024 F50.
X0.3424 Y-0.8819 I0.006 J0.0519
X0.3573 Y-0.8545 I-0.0119 J0.0243
G1 Y-0.8053
X0.3572 Y-0.8008
Y-0.7997
Y-0.7983
X0.3571 Y-0.7966
X0.3564 Y-0.7948
X0.3552 Y-0.7933
X0.3536 Y-0.7921
X0.3518 Y-0.7914
X0.3499 Y-0.7913
G3 X0.3508 Y-0.805 I0.0005 J-0.0068
X0.3572 Y-0.7983 I-0.0005 J0.0068
X0.3423 Y-0.7769 I-0.0248 J-0.0014
G1 X0.3341 Y-0.7739
X0.3327 Y-0.7735
G3 X0.3054 Y-0.7831 I-0.0069 J-0.024
G1 X0.3031 Y-0.7863 Z0.15
X0.301 Y-0.7894 Z0.1509
X0.2989 Y-0.7924 Z0.1524
X0.2969 Y-0.7951 Z0.1544
X0.2952 Y-0.7976 Z0.157
X0.2938 Y-0.7996 Z0.1599
X0.2926 Y-0.8013 Z0.1633
X0.2917 Y-0.8025 Z0.1669
X0.2912 Y-0.8033 Z0.1707
X0.291 Y-0.8035 Z0.1746
G0 Z1.35
(2D CONTOUR1)
G64 P0.0004 Q0.0004
G0 X2.8577 Y-0.8564
Z1.35
Z0.95
G1 Z0.1744 F80.
G18 G3 X2.8327 Z0.1494 I-0.025 K0. F50.
G1 X2.8077
G17 G3 X2.7827 Y-0.8814 I0. J-0.025
X2.7955 Y-0.8942 I0.0128 J0.
G1 X3.0907
G2 X3.2157 Y-1.0192 I0. J-0.125
G1 Y-1.5704
G2 X3.0907 Y-1.6954 I-0.125 J0.
G1 X3.012
G2 X2.933 Y-1.6672 I0. J0.125
G3 X0.217 I-1.358 J-1.6646
G2 X0.138 Y-1.6954 I-0.079 J0.0969
G1 X0.0593
G2 X-0.0657 Y-1.5704 I0. J0.125
G1 Y-1.0192
G2 X0.0593 Y-0.8942 I0.125 J0.
G1 X0.3545
G3 X0.3673 Y-0.8814 I0. J0.0128
X0.3423 Y-0.8564 I-0.025 J0.
G1 X0.3173
G18 G3 X0.2923 Z0.1744 I0. K0.025
G0 Z0.95
X2.8577
G1 Z0.1744 F80.
G3 X2.8327 Z0.1494 I-0.025 K0. F50.
G1 X2.8077
G17 G3 X2.7827 Y-0.8814 I0. J-0.025
X2.7955 Y-0.8942 I0.0128 J0.
G1 X3.0907
G2 X3.2157 Y-1.0192 I0. J-0.125
G1 Y-1.5704
G2 X3.0907 Y-1.6954 I-0.125 J0.
G1 X3.012
G2 X2.933 Y-1.6672 I0. J0.125
G3 X0.217 I-1.358 J-1.6646
G2 X0.138 Y-1.6954 I-0.079 J0.0969
G1 X0.0593
G2 X-0.0657 Y-1.5704 I0. J0.125
G1 Y-1.0192
G2 X0.0593 Y-0.8942 I0.125 J0.
G1 X0.3545
G3 X0.3673 Y-0.8814 I0. J0.0128
X0.3423 Y-0.8564 I-0.025 J0.
G1 X0.3173
G18 G3 X0.2923 Z0.1744 I0. K0.025
G0 Z1.35
G17
(2D CONTOUR3)
G0 X1.0073 Y-0.0296
Z1.35
Z0.95
G1 Z0.7894 F80.
Z0.1744
G18 G3 X0.9823 Z0.1494 I-0.025 K0. F50.
G1 X0.9573
G17 G3 X0.9323 Y-0.0546 I0. J-0.025
G1 Y-0.2043
X0.9326 Y-0.2177
X0.9334 Y-0.2297
X0.9347 Y-0.2413
X0.9366 Y-0.2535
X0.9393 Y-0.2662
X0.9425 Y-0.279
X0.9464 Y-0.2917
X0.9515 Y-0.3054
G3 X1.0206 Y-0.4049 I0.2495 J0.0997
X2.1294 I0.5544 J0.6123
X2.1985 Y-0.3054 I-0.1803 J0.1992
G1 X2.2036 Y-0.2917
X2.2075 Y-0.279
X2.2107 Y-0.2662
X2.2134 Y-0.2535
X2.2153 Y-0.2413
X2.2166 Y-0.2297
X2.2174 Y-0.2177
X2.2177 Y-0.2043
Y-0.0546
G3 X2.1927 Y-0.0296 I-0.025 J0.
G1 X2.1677
G18 G3 X2.1427 Z0.1744 I0. K0.025
G0 Z0.95
X1.0073
G1 Z0.7894 F80.
Z0.1744
G3 X0.9823 Z0.1494 I-0.025 K0. F50.
G1 X0.9573
G17 G3 X0.9323 Y-0.0546 I0. J-0.025
G1 Y-0.2043
X0.9326 Y-0.2177
X0.9334 Y-0.2297
X0.9347 Y-0.2413
X0.9366 Y-0.2535
X0.9393 Y-0.2662
X0.9425 Y-0.279
X0.9464 Y-0.2917
X0.9515 Y-0.3054
G3 X1.0206 Y-0.4049 I0.2495 J0.0997
X2.1294 I0.5544 J0.6123
X2.1985 Y-0.3054 I-0.1803 J0.1992
G1 X2.2036 Y-0.2917
X2.2075 Y-0.279
X2.2107 Y-0.2662
X2.2134 Y-0.2535
X2.2153 Y-0.2413
X2.2166 Y-0.2297
X2.2174 Y-0.2177
X2.2177 Y-0.2043
Y-0.0546
G3 X2.1927 Y-0.0296 I-0.025 J0.
G1 X2.1677
G18 G3 X2.1427 Z0.1744 I0. K0.025
G0 Z1.35
G17
M5
G53 G0 Z0.
(2D CHAMFER1)
M9
M1
T13 M6
T33
S7500 M3
G17 G90 G94
G54
M8
G0 X0.8838 Y-0.0057
G43 Z1.35 H13
G0 Z0.95
G1 Z0.63 F80.
Y-0.2049 F50.
X0.8841 Y-0.2199
X0.8851 Y-0.234
X0.8866 Y-0.2478
X0.8889 Y-0.2623
X0.892 Y-0.2771
X0.8958 Y-0.2922
X0.9005 Y-0.3071
X0.9061 Y-0.3227
G3 X0.9881 Y-0.4409 I0.2948 J0.117
X2.1619 I0.5869 J0.6483
X2.2439 Y-0.3227 I-0.2129 J0.2351
G1 X2.2495 Y-0.3071
X2.2542 Y-0.2922
X2.258 Y-0.2771
X2.2611 Y-0.2623
X2.2634 Y-0.2478
X2.2649 Y-0.234
X2.2659 Y-0.2199
X2.2662 Y-0.2049
Y-0.0057
G0 Z0.95
X2.9636 Y-1.6297
G1 Z0.63 F80.
G3 X0.1864 I-1.3886 J-1.7022 F50.
G0 Z1.35
(2D CHAMFER2)
G0 X2.7142 Y-0.8814
Z1.35
Z0.95
G1 Z0.83 F80.
Z0.69
G3 X2.7955 Y-0.9627 I0.0813 J0. F50.
G1 X3.0907
G2 X3.1472 Y-1.0192 I0. J-0.0565
G1 Y-1.5704
G2 X3.0907 Y-1.6269 I-0.0565 J0.
G1 X3.012
G0 Z0.95
X0.138
G1 Z0.83 F80.
Z0.69
X0.0593 F50.
G2 X0.0028 Y-1.5704 I0. J0.0565
G1 Y-1.0192
G2 X0.0593 Y-0.9627 I0.0565 J0.
G1 X0.3545
G3 X0.4358 Y-0.8814 I0. J0.0813
G0 Z1.35
M5
M9
G53 G0 Z0.
M30
%
