%
(SS BRIDGE OP2)
(T13 D=0.375 CR=0. TAPER=45DEG - ZMIN=0.4806 - CHAMFER MILL)
(T33 D=0.25 CR=0. - ZMIN=0.5906 - FLAT END MILL)
G90 G94 G17 G91.1
G20
G53 G0 Z0.
(FACE1 2)
T33 M6
T13
S7500 M3
G17 G90 G94
G54
G64 P0.0004 Q0.0004
M8
G0 X3.2532 Y-1.5126
G43 Z1.34 H33
G0 Z0.94
G1 Z0.6156 F80.
G18 G3 X3.2282 Z0.5906 I-0.025 K0. F50.
G1 X3.1907
X-0.1593
G17 G2 Y-1.3318 I0. J0.0904
G1 X3.1907
G3 Y-1.151 I0. J0.0904
G1 X-0.1593
G2 Y-0.9702 I0. J0.0904
G1 X3.1907
G3 Y-0.7893 I0. J0.0904
G1 X-0.1593
G2 Y-0.6085 I0. J0.0904
G1 X3.1907
G3 Y-0.4277 I0. J0.0904
G1 X-0.1593
G2 Y-0.2469 I0. J0.0904
G1 X3.1907
G3 Y-0.0661 I0. J0.0904
G1 X-0.1593
G18 G3 X-0.1843 Z0.6156 I0. K0.025
G0 Z1.34
G17
M5
G53 G0 Z0.
(2D CHAMFER1 2)
M9
M1
T13 M6
T33
S7500 M3
G17 G90 G94
G54
M8
G0 X2.207 Y-1.5646
G43 Z1.34 H13
G0 Z0.94
G1 Z0.4806 F80.
Y-1.3655 F50.
X2.2066 Y-1.3505
X2.2057 Y-1.3364
X2.2041 Y-1.3225
X2.2018 Y-1.3081
X2.1987 Y-1.2932
X2.1949 Y-1.2782
X2.1903 Y-1.2632
X2.1846 Y-1.2476
G3 X2.1027 Y-1.1295 I-0.2948 J-0.117
X0.9288 I-0.5869 J-0.6483
X0.8469 Y-1.2476 I0.2129 J-0.2351
G1 X0.8412 Y-1.2632
X0.8366 Y-1.2782
X0.8327 Y-1.2932
X0.8297 Y-1.3081
X0.8274 Y-1.3225
X0.8258 Y-1.3364
X0.8249 Y-1.3505
X0.8245 Y-1.3655
Y-1.5646
G0 Z0.94
X0.1271 Y0.0593
G1 Z0.4806 F80.
G3 X2.9044 I1.3886 J1.7022 F50.
G0 Z1.34
(2D CHAMFER2 2)
G0 X0.3766 Y-0.689
Z1.34
Z0.94
G1 Z0.82 F80.
Z0.5406
G3 X0.2953 Y-0.6077 I-0.0813 J0. F50.
G1 X0.
G2 X-0.0565 Y-0.5512 I0. J0.0565
G1 Y0.
G2 X0. Y0.0565 I0.0565 J0.
G1 X0.0787
G0 Z0.94
X2.9528
G1 Z0.82 F80.
Z0.5406
X3.0315 F50.
G2 X3.088 Y0. I0. J-0.0565
G1 Y-0.5512
G2 X3.0315 Y-0.6077 I-0.0565 J0.
G1 X2.7362
G3 X2.6549 Y-0.689 I0. J-0.0813
G0 Z1.34
M5
M9
G53 G0 Z0.
M30
%
