%
(LIFTING BAR HOLES)
(MACHINE)
(  VENDOR CALLUM)
(  MODEL MILL R1)
(  DESCRIPTION 14X8X14 MILL)
(T35 D=0.375 CR=0. - ZMIN=-0.05 - FLAT END MILL)
(T103 D=0.3 CR=0. TAPER=135DEG - ZMIN=-0.1021 - DRILL)
G90 G94 G17 G91.1
G20
G53 G0 Z-0.6
(DRILL1)
T103 M6
T35
S3000 M3
G17 G90 G94
G54
M8
G0 X0.4724 Y-0.4331
G43 Z1.1 H103
G0 Z0.7
G98 G81 X0.4724 Y-0.4331 Z-0.1021 R0.7 F20.
X1.2598
X2.0472
X2.8346
X3.622
X5.7874 Y-1.5354
X7.9528 Y-0.4331
X8.7402
X9.5276
X10.315
X11.1024
G80
G0 Z1.1
M5
G53 G0 Z-0.6
(2D CONTOUR1)
M9
M1
T35 M6
T103
S5000 M3
G17 G90 G94
G54
G64 P0.0004 Q0.0004
M8
G0 X5.7968 Y-1.5354
G43 Z1.1 H35
G0 Z0.7
G1 Z-0.05 F30.
G3 X5.7781 I-0.0094 J0. F20.
X5.7968 I0.0094 J0.
X5.7781 I-0.0094 J0.
X5.7968 I0.0094 J0.
G0 Z0.7
X7.9621 Y-0.4331
G1 Z-0.05 F30.
G3 X7.9434 I-0.0094 J0. F20.
X7.9621 I0.0094 J0.
X7.9434 I-0.0094 J0.
X7.9621 I0.0094 J0.
G0 Z0.7
X8.7402 Y-0.4237
G1 Z-0.05 F30.
G3 Y-0.4424 I0. J-0.0094 F20.
Y-0.4237 I0. J0.0094
Y-0.4424 I0. J-0.0094
Y-0.4237 I0. J0.0094
G0 Z0.7
X9.5369 Y-0.4331
G1 Z-0.05 F30.
G3 X9.5182 I-0.0094 J0. F20.
X9.5369 I0.0094 J0.
X9.5182 I-0.0094 J0.
X9.5369 I0.0094 J0.
G0 Z0.7
X10.3243
G1 Z-0.05 F30.
G3 X10.3056 I-0.0093 J0. F20.
X10.3243 I0.0093 J0.
X10.3056 I-0.0093 J0.
X10.3243 I0.0093 J0.
G0 Z0.7
X11.1117
G1 Z-0.05 F30.
G3 X11.093 I-0.0093 J0. F20.
X11.1117 I0.0093 J0.
X11.093 I-0.0093 J0.
X11.1117 I0.0093 J0.
G0 Z0.7
X3.622 Y-0.4237
G1 Z-0.05 F30.
G3 Y-0.4424 I0. J-0.0094 F20.
Y-0.4237 I0. J0.0094
Y-0.4424 I0. J-0.0094
Y-0.4237 I0. J0.0094
G0 Z0.7
X2.844 Y-0.4331
G1 Z-0.05 F30.
G3 X2.8253 I-0.0094 J0. F20.
X2.844 I0.0094 J0.
X2.8253 I-0.0094 J0.
X2.844 I0.0094 J0.
G0 Z0.7
X2.0472 Y-0.4237
G1 Z-0.05 F30.
G3 Y-0.4424 I0. J-0.0094 F20.
Y-0.4237 I0. J0.0094
Y-0.4424 I0. J-0.0094
Y-0.4237 I0. J0.0094
G0 Z0.7
X1.2692 Y-0.4331
G1 Z-0.05 F30.
G3 X1.2505 I-0.0094 J0. F20.
X1.2692 I0.0094 J0.
X1.2505 I-0.0094 J0.
X1.2692 I0.0094 J0.
G0 Z0.7
X0.4724 Y-0.4237
G1 Z-0.05 F30.
G3 Y-0.4424 I0. J-0.0094 F20.
Y-0.4237 I0. J0.0094
Y-0.4424 I0. J-0.0094
Y-0.4237 I0. J0.0094
G0 Z1.1
M5
M9
G53 G0 Z-0.6
M30
%
