%
(OP1 - 4,125 STOCK G55)
(MACHINE)
(  VENDOR CALLUM)
(  MODEL MILL R1)
(  DESCRIPTION 14X8X14 MILL)
(T13 D=0.375 CR=0. TAPER=45DEG - ZMIN=0.489 - CHAMFER MILL)
(T35 D=0.375 CR=0. - ZMIN=0.484 - FLAT END MILL)
(T54 D=0.3125 CR=0. TAPER=118DEG - ZMIN=0.6167 - DRILL)
(T103 D=0.3 CR=0. TAPER=135DEG - ZMIN=-0.0602 - DRILL)
G90 G94 G17 G91.1
G20
G53 G0 Z-0.6
(DRILL1)
T54 M6
T103
S5000 M3
G17 G90 G94
G55
M8
G0 X1.0733 Y-0.8287
G43 Z2.1 H54
G0 Z1.7
Z1.698
Z1.578
G1 Z0.998 F40.
G0 Z1.698
Z1.078
G1 Z0.798 F40.
G0 Z1.698
Z0.878
G1 Z0.6167 F40.
G4 P0.05
G0 Z1.7
Y-0.3563
Z1.698
Z1.578
G1 Z0.998 F40.
G0 Z1.698
Z1.078
G1 Z0.798 F40.
G0 Z1.698
Z0.878
G1 Z0.6167 F40.
G4 P0.05
G0 Z1.7
X2.6481
Z1.698
Z1.578
G1 Z0.998 F40.
G0 Z1.698
Z1.078
G1 Z0.798 F40.
G0 Z1.698
Z0.878
G1 Z0.6167 F40.
G4 P0.05
G0 Z1.7
Y-0.8287
Z1.698
Z1.578
G1 Z0.998 F40.
G0 Z1.698
Z1.078
G1 Z0.798 F40.
G0 Z1.698
Z0.878
G1 Z0.6167 F40.
G4 P0.05
G0 Z1.7
Z2.1
M5
G53 G0 Z-0.6
(DRILL2)
M9
M1
T103 M6
T35
S3000 M3
G17 G90 G94
G55
M8
G0 X1.858 Y-1.065
G43 Z2.1 H103
G0 Z1.7
G98 G81 X1.858 Y-1.065 Z0.806 R1.698 F20.
G80
G0 Z2.1
(DRILL2 2)
G0 X3.3371 Y-0.3563
Z2.1
Z1.7
Z1.698
Z1.578
G1 Z0.898 F20.
G0 Z1.698
Z0.978
G1 Z0.598 F20.
G0 Z1.698
Z0.678
G1 Z0.298 F20.
G0 Z1.698
Z0.378
G1 Z-0.002 F20.
G0 Z1.698
Z0.078
G1 Z-0.0602 F20.
G4 P0.05
G0 Z1.7
X0.3843
Z1.698
Z1.578
G1 Z0.898 F20.
G0 Z1.698
Z0.978
G1 Z0.598 F20.
G0 Z1.698
Z0.678
G1 Z0.298 F20.
G0 Z1.698
Z0.378
G1 Z-0.002 F20.
G0 Z1.698
Z0.078
G1 Z-0.0602 F20.
G4 P0.05
G0 Z1.7
Z2.1
M5
G53 G0 Z-0.6
(FACE1)
M9
M1
T35 M6
T13
S5000 M3
G17 G90 G94
G55
G64 P0.0004 Q0.0004
M8
G0 X4.0438 Y-1.3836
G43 Z2.1 H35
G0 Z1.7
G1 Z1.5355 F80.
G18 G3 X4.0063 Z1.498 I-0.0375 K0. F50.
G1 X3.9
X-0.1
G17 G2 Y-1.0831 I0. J0.1503
G1 X3.9
G3 Y-0.7825 I0. J0.1503
G1 X-0.1
G2 Y-0.482 I0. J0.1503
G1 X3.9
G3 Y-0.1814 I0. J0.1503
G1 X-0.1
G18 G3 X-0.1375 Z1.5355 I0. K0.0375
G0 Z2.1
G17
(ADAPTIVE2)
G64 P0.004 Q0.004
G0 X0.5294 Y-1.758
Z2.1
Z0.699
G1 Z0.6615 F160.
X0.5291 Y-1.7579 Z0.657
X0.5284 Y-1.7576 Z0.6525
X0.5271 Y-1.7571 Z0.6482
X0.5254 Y-1.7564 Z0.6441
X0.5232 Y-1.7555 Z0.6402
X0.5206 Y-1.7545 Z0.6366
X0.5177 Y-1.7533 Z0.6334
X0.5144 Y-1.7519 Z0.6307
X0.5108 Y-1.7505 Z0.6283
X0.507 Y-1.7489 Z0.6265
X0.5029 Y-1.7473 Z0.6251
X0.4988 Y-1.7456 Z0.6243
X0.4946 Y-1.7439 Z0.624
G3 X0.2963 Y-1.6874 I-0.3598 J-0.8872
G1 X0.2757 Y-1.6846
X0.2723 Y-1.6837
G3 X0.1632 Y-1.6712 I-0.1177 J-0.5467
G1 X0.1189 Y-1.6694
X0.0745 Y-1.6687
X0.0302 Y-1.6666
X-0.0123 Y-1.6538
X-0.0508 Y-1.6318
X-0.0839 Y-1.6023
X-0.1109 Y-1.567
X-0.1315 Y-1.5277
X-0.1462 Y-1.4858
X-0.1559 Y-1.4425
X-0.1618 Y-1.3986
G2 X-0.1677 Y-1.2212 I2.0112 J0.1563
G1 X-0.168 Y-1.1769
X-0.1681 Y-1.1325
X-0.1682 Y-0.9994
Y-0.0675
X-0.1642 Y-0.0233
X-0.1497 Y0.0186
X-0.1263 Y0.0563
X-0.0957 Y0.0884
X-0.0596 Y0.1142
X-0.0198 Y0.1338
X0.0224 Y0.1477
X0.0658 Y0.1566
X0.1099 Y0.162
G2 X0.2872 Y0.1675 I0.1585 J-2.2468
G1 X0.3316 Y0.1678
X0.4204 Y0.1681
X0.8169 Y0.1686
X0.8301 Y0.1693
X0.8431 Y0.1713
X0.8559 Y0.1746
X0.8692 Y0.1788
G2 X0.8963 Y0.1931 Z0.6282 I0.9777 J-1.8131
X0.9214 Y0.206 Z0.632 I0.9507 J-1.8274 F300.
X1.031 Y0.2571 I0.9256 J-1.8403
X1.0457 Y0.2602 I0.0149 J-0.0344
G1 X2.6311 Y0.2673
G2 X2.6458 Y0.2644 I0.0002 J-0.0375
X2.7559 Y0.2142 I-0.7989 J-1.8987
X2.7812 Y0.2016 Z0.6282 I-0.909 J-1.8485
X2.8083 Y0.1875 Z0.624 I-0.9342 J-1.8359 F160.
G1 X2.8084
X2.8162 Y0.1864
X2.8387 Y0.1827
X2.8405 Y0.1822
G3 X2.9254 Y0.1723 I0.1037 J0.5198
X3.1394 Y0.1687 I0.1712 J3.7902
G1 X3.2725 Y0.1683
X3.7606 Y0.1679
X3.8037 Y0.1573
X3.8432 Y0.137
X3.8775 Y0.1089
X3.9057 Y0.0747
X3.9277 Y0.0361
X3.9436 Y-0.0053
X3.9542 Y-0.0484
X3.9608 Y-0.0923
G2 X3.9677 Y-0.2696 I-1.7681 J-0.1572
G1 X3.968 Y-0.3139
X3.9681 Y-0.3583
X3.9682 Y-0.4914
Y-0.802
Y-1.4233
X3.9666 Y-1.4676
X3.9542 Y-1.5102
X3.9324 Y-1.5489
X3.9032 Y-1.5822
X3.8681 Y-1.6094
X3.829 Y-1.6303
X3.7872 Y-1.6453
X3.7439 Y-1.6553
X3.7 Y-1.6613
G2 X3.5221 Y-1.6679 I-0.1625 J1.985
G1 X3.5097 Y-1.6687
X3.4974 Y-1.6706
X3.4853 Y-1.6736
X3.4795 Y-1.6754
X3.4682 Y-1.6785
X3.4605 Y-1.6806
G3 X3.4378 Y-1.7003 I0.0111 J-0.0358
G1 X3.4358 Y-1.7043 Z0.6243
X3.4339 Y-1.7083 Z0.6251
X3.432 Y-1.7122 Z0.6265
X3.4303 Y-1.716 Z0.6283
X3.4286 Y-1.7195 Z0.6307
X3.427 Y-1.7227 Z0.6334
X3.4257 Y-1.7256 Z0.6366
X3.4245 Y-1.7281 Z0.6402
X3.4234 Y-1.7302 Z0.6441
X3.4226 Y-1.7319 Z0.6482
X3.4221 Y-1.7331 Z0.6525
X3.4217 Y-1.7338 Z0.657
X3.4216 Y-1.7341 Z0.6615
G0 Z1.7
X2.7875 Y0.2247
Z0.699
G1 Z0.6615 F160.
X2.7877 Y0.2245 Z0.657
X2.7883 Y0.2239 Z0.6525
X2.7893 Y0.223 Z0.6482
X2.7906 Y0.2216 Z0.6441
X2.7922 Y0.22 Z0.6402
X2.7942 Y0.218 Z0.6366
X2.7964 Y0.2157 Z0.6334
X2.799 Y0.2132 Z0.6307
X2.8017 Y0.2104 Z0.6283
X2.8046 Y0.2075 Z0.6265
X2.8076 Y0.2044 Z0.6251
X2.8108 Y0.2013 Z0.6243
X2.814 Y0.1981 Z0.624
G3 X2.8405 Y0.1822 I0.0442 J0.0439
G2 X2.8736 Y0.172 I-0.2117 J-0.7464
G3 X2.9832 Y0.1549 I0.1229 J0.4274
X3.1477 Y0.1501 I0.1461 J2.1893
G1 X3.1921 Y0.1498
X3.2364 Y0.1497
X3.3695 Y0.1495
X3.6802 Y0.1492
X3.7243 Y0.1451
X3.7669 Y0.1326
X3.8063 Y0.1122
X3.8412 Y0.0848
X3.871 Y0.0519
X3.8951 Y0.0146
X3.9136 Y-0.0257
X3.927 Y-0.068
X3.9362 Y-0.1114
G2 X3.9482 Y-0.2883 I-1.1934 J-0.1699
X3.9494 Y-0.5102 I-12.518 J-0.1775
G1 Y-0.9095
Y-1.3533
X3.9492 Y-1.3976
X3.9415 Y-1.4414
X3.9257 Y-1.4828
X3.9023 Y-1.5205
X3.8725 Y-1.5534
X3.8377 Y-1.5809
X3.7991 Y-1.6028
X3.7579 Y-1.6192
X3.715 Y-1.6309
X3.6714 Y-1.6387
X3.6273 Y-1.6435
X3.583 Y-1.6464
X3.5692 Y-1.6478
X3.5556 Y-1.6508
X3.5424 Y-1.6553
G2 X3.4853 Y-1.6736 I-0.258 J0.7085
G1 X3.4812 Y-1.6752 Z0.6246
X3.4774 Y-1.6774 Z0.6252
X3.4739 Y-1.6799 Z0.6258
X3.4706 Y-1.6829 Z0.6264
X3.4678 Y-1.6862 Z0.627
X3.4653 Y-1.6898 Z0.6276
X3.4633 Y-1.6937 Z0.6282
G3 X3.4619 Y-1.7212 Z0.632 I0.0342 J-0.0154 F300.
X3.4907 Y-1.746 I0.0355 J0.0121
G1 X3.6706 Y-1.7691
X3.7605 Y-1.7535
X3.8167 Y-1.7361
X3.8867 Y-1.7031
X3.9354 Y-1.6699
X3.9854 Y-1.6228
X4.0253 Y-1.569
X4.0496 Y-1.5241
X4.0649 Y-1.4792
X4.0792 Y-1.3334
X4.0768 Y-0.2452
X4.0624 Y-0.0769
X4.0341 Y0.0241
X3.9966 Y0.0982
X3.9604 Y0.1475
X3.9067 Y0.1986
X3.8488 Y0.2372
X3.7943 Y0.2604
X3.7268 Y0.2769
X2.8949 Y0.2924
G3 X2.836 Y0.2144 I0.0013 J-0.0623
X2.8489 Y0.1896 Z0.6282 I0.0603 J0.0157
X2.8736 Y0.172 Z0.624 I0.0474 J0.0405 F160.
G1 X2.9062 Y0.1606
X2.9174 Y0.1565
G3 X3.0247 Y0.1376 I0.1285 J0.4147
X3.2218 Y0.1314 I0.1694 J2.2434
G1 X3.2662 Y0.131
X3.355 Y0.1308
X3.6212 Y0.1305
X3.6655 Y0.1285
X3.7091 Y0.1199
X3.7505 Y0.1039
X3.7885 Y0.0811
X3.8221 Y0.0521
X3.8508 Y0.0183
X3.8743 Y-0.0194
X3.8925 Y-0.0599
X3.906 Y-0.1021
X3.9154 Y-0.1455
G2 X3.929 Y-0.3223 I-1.1406 J-0.1766
X3.9307 Y-0.5885 I-12.8837 J-0.2118
G1 Y-0.9879
Y-1.2985
X3.9306 Y-1.3429
X3.9255 Y-1.3869
X3.9132 Y-1.4296
X3.8937 Y-1.4694
X3.8677 Y-1.5054
X3.8362 Y-1.5366
X3.8003 Y-1.5628
X3.7611 Y-1.5836
X3.7197 Y-1.5995
X3.6768 Y-1.6109
X3.6332 Y-1.6189
G3 X3.588 Y-1.6333 I0.0175 J-0.1328
G2 X3.5424 Y-1.6553 I-0.1985 J0.353
G1 X3.5385 Y-1.6573 Z0.6246
X3.5349 Y-1.6598 Z0.6252
X3.5316 Y-1.6626 Z0.6258
X3.5286 Y-1.6659 Z0.6264
X3.5261 Y-1.6694 Z0.627
X3.5239 Y-1.6732 Z0.6276
X3.5222 Y-1.6773 Z0.6282
G3 X3.5234 Y-1.7048 Z0.632 I0.0354 J-0.0123 F300.
X3.5582 Y-1.7271 I0.0343 J0.0152
G1 X3.6931 Y-1.7403
X3.7853 Y-1.7148
X3.8617 Y-1.6776
X3.9183 Y-1.6363
X3.9741 Y-1.58
X4.0122 Y-1.5241
X4.0416 Y-1.4548
X4.0528 Y-1.4112
X4.0616 Y-1.3446
X4.0578 Y-0.2788
X4.0476 Y-0.1554
X4.0273 Y-0.0544
X3.9966 Y0.0265
X3.9717 Y0.069
X3.9093 Y0.1475
X3.828 Y0.2093
X3.7605 Y0.2393
X3.6931 Y0.2563
X3.5132 Y0.263
X2.9399 Y0.2766
G3 X2.8802 Y0.1994 I0.0008 J-0.0623
X2.8929 Y0.1744 Z0.6282 I0.0605 J0.0149
X2.9126 Y0.1587 Z0.6247 I0.0478 J0.0399 F160.
G1 X2.9174 Y0.1565 Z0.624
X2.9287 Y0.1524
X2.9401 Y0.1475
X2.9419 Y0.1465
G3 X3.0228 Y0.1249 I0.1074 J0.239
X3.1439 Y0.1147 I0.1415 J0.9589
X3.4989 Y0.112 I0.2678 J11.9971
G1 X3.5433 Y0.1119
X3.5876 Y0.1116
X3.6319 Y0.109
X3.6755 Y0.1004
X3.7171 Y0.085
X3.7557 Y0.0631
X3.7903 Y0.0353
X3.8202 Y0.0026
X3.8452 Y-0.0341
X3.8652 Y-0.0737
X3.8805 Y-0.1154
X3.8916 Y-0.1583
X3.8993 Y-0.202
G2 X3.9105 Y-0.3791 I-1.4432 J-0.1795
X3.9119 Y-0.6453 I-15.0662 J-0.2144
G1 Y-1.0447
Y-1.2665
X3.9111 Y-1.3109
X3.9054 Y-1.3549
X3.8932 Y-1.3976
X3.8743 Y-1.4377
X3.8492 Y-1.4743
X3.8187 Y-1.5065
X3.7837 Y-1.5338
X3.7454 Y-1.5562
X3.7047 Y-1.5738
X3.6833 Y-1.581
X3.6704 Y-1.5861
X3.6581 Y-1.5925
X3.6466 Y-1.6003
X3.6435 Y-1.6026
G2 X3.588 Y-1.6333 I-0.4767 J0.7964
G1 X3.5843 Y-1.6357 Z0.6246
X3.581 Y-1.6386 Z0.6252
X3.578 Y-1.6418 Z0.6258
X3.5754 Y-1.6453 Z0.6264
X3.5732 Y-1.6491 Z0.627
X3.5715 Y-1.6531 Z0.6276
X3.5703 Y-1.6573 Z0.6282
G3 X3.5744 Y-1.6846 Z0.632 I0.0365 J-0.0085 F300.
X3.6144 Y-1.7025 I0.0325 J0.0188
G1 X3.7605 Y-1.6853
G3 X3.7829 Y-1.6812 I-0.0068 J0.0982
G1 X3.8505 Y-1.6451
X3.9067 Y-1.6018
X3.9629 Y-1.5405
X4.004 Y-1.468
X4.0282 Y-1.4007
X4.0409 Y-1.3222
X4.0392 Y-0.3573
X4.0296 Y-0.1891
X4.0078 Y-0.086
X3.9791 Y-0.0096
X3.948 Y0.0465
X3.9052 Y0.1026
X3.8411 Y0.1618
X3.783 Y0.1974
X3.7156 Y0.2242
X3.6594 Y0.2362
X2.9736 Y0.2631
G3 X2.9106 Y0.1938 I-0.0011 J-0.0623
X2.9199 Y0.1674 Z0.6282 I0.0619 J0.007
X2.9419 Y0.1465 Z0.624 I0.0526 J0.0334 F160.
G1 X2.9624 Y0.136
X2.9658 Y0.1339
G3 X3.0485 Y0.1088 I0.1106 J0.2154
X3.195 Y0.0958 I0.1592 J0.9646
X3.5056 Y0.0933 I0.2411 J10.5559
G1 X3.5499 Y0.0929
X3.5942 Y0.0904
X3.6379 Y0.0827
X3.6801 Y0.0688
X3.7196 Y0.0486
X3.7555 Y0.0225
X3.7871 Y-0.0086
X3.814 Y-0.0439
X3.8361 Y-0.0824
X3.8535 Y-0.1232
X3.8665 Y-0.1656
X3.8759 Y-0.209
G2 X3.8909 Y-0.3857 I-1.1711 J-0.188
X3.8932 Y-0.7406 I-14.4739 J-0.2708
G1 Y-1.14
Y-1.2288
X3.8921 Y-1.2731
X3.8872 Y-1.3172
X3.8763 Y-1.3602
X3.859 Y-1.4011
X3.8357 Y-1.4388
X3.8068 Y-1.4726
X3.7735 Y-1.5018
X3.7386 Y-1.5255
X3.734 Y-1.5287
X3.7295 Y-1.5322
X3.7252 Y-1.5358
G2 X3.6466 Y-1.6003 I-0.961 J1.0909
G1 X3.6434 Y-1.6033 Z0.6246
X3.6405 Y-1.6065 Z0.6252
X3.638 Y-1.6102 Z0.6258
X3.636 Y-1.614 Z0.6264
X3.6344 Y-1.6181 Z0.627
X3.6333 Y-1.6223 Z0.6276
X3.6327 Y-1.6267 Z0.6282
G3 X3.6409 Y-1.653 Z0.632 I0.0374 J-0.0028 F300.
X3.6818 Y-1.6651 I0.0292 J0.0235
G1 X3.8167 Y-1.6239
G3 X3.8392 Y-1.6139 I-0.0285 J0.0942
G1 X3.9067 Y-1.5556
X3.9418 Y-1.5129
X3.9814 Y-1.4456
X4.0064 Y-1.3782
X4.0191 Y-1.3109
X4.0229 Y-1.1314
X4.0203 Y-0.4022
X4.0152 Y-0.29
X4.0035 Y-0.1778
X3.9706 Y-0.0657
X3.9326 Y0.0129
X3.8818 Y0.0802
X3.828 Y0.1307
X3.7605 Y0.1736
X3.7043 Y0.199
X3.6256 Y0.2157
X3.0073 Y0.248
G3 X2.9399 Y0.2036 I-0.0076 J-0.0618
G1 X2.9377 Y0.1924
X2.9375 Y0.1877
Y0.1831
G3 X2.9451 Y0.1561 Z0.6282 I0.0622 J0.0031
X2.9624 Y0.1363 Z0.6246 I0.0546 J0.03 F160.
G1 X2.9658 Y0.1339 Z0.624
X2.9736 Y0.1292
X2.9883 Y0.12
G3 X3.0685 Y0.0931 I0.1139 J0.2066
X3.1856 Y0.0794 I0.1481 J0.7606
X3.4074 Y0.0748 I0.1893 J3.8037
G1 X3.4961 Y0.0744
X3.5405 Y0.0733
X3.5846 Y0.0684
X3.6278 Y0.0582
X3.6691 Y0.0419
X3.7075 Y0.0197
X3.7422 Y-0.0079
X3.7726 Y-0.0403
X3.7983 Y-0.0764
X3.8193 Y-0.1155
X3.8358 Y-0.1567
X3.8483 Y-0.1993
X3.8574 Y-0.2427
G2 X3.872 Y-0.4195 I-1.2268 J-0.1903
X3.8744 Y-0.8441 I-18.1968 J-0.3179
G1 X3.8757 Y-0.8531
X3.8773 Y-0.862
X3.8796 Y-0.8734
G2 X3.8891 Y-0.9744 I-1.1224 J-0.156
G1 X3.8889 Y-1.1314
X3.8886 Y-1.1427
X3.8882 Y-1.1539
X3.8878 Y-1.1651
X3.8822 Y-1.2212
X3.8809 Y-1.2324
X3.8773 Y-1.2548
X3.8768 Y-1.2567
X3.8683 Y-1.3003
X3.8553 Y-1.3427
X3.8365 Y-1.3829
G3 X3.8158 Y-1.415 I0.3938 J-0.276
G1 X3.814 Y-1.4191 Z0.6246
X3.8128 Y-1.4232 Z0.6252
X3.812 Y-1.4275 Z0.6258
X3.8117 Y-1.4319 Z0.6264
X3.812 Y-1.4363 Z0.627
X3.8127 Y-1.4406 Z0.6276
X3.814 Y-1.4448 Z0.6282
G3 X3.8322 Y-1.4655 Z0.632 I0.0353 J0.0128 F300.
X3.8842 Y-1.4455 I0.017 J0.0334
G1 X3.9479 Y-1.2805
G3 X3.9231 Y-1.2309 I-0.035 J0.0135
X3.8957 Y-1.2337 Z0.6282 I-0.0103 J-0.0361
X3.8768 Y-1.2567 Z0.624 I0.0172 J-0.0333 F160.
G2 X3.8464 Y-1.3559 I-0.9782 J0.2459
X3.7916 Y-1.4569 I-1.0434 J0.5005
X3.7253 Y-1.5359 I-1.5793 J1.2576
G1 X3.7223 Y-1.5391 Z0.6246
X3.7197 Y-1.5426 Z0.6252
X3.7175 Y-1.5464 Z0.6258
X3.7158 Y-1.5504 Z0.6264
X3.7146 Y-1.5546 Z0.627
X3.7138 Y-1.5589 Z0.6276
X3.7135 Y-1.5632 Z0.6282
G3 X3.7238 Y-1.5888 Z0.632 I0.0375 J0.0002 F300.
X3.7718 Y-1.5943 I0.0272 J0.0258
G1 X3.8842 Y-1.5322
G3 X3.9236 Y-1.4904 I-0.0488 J0.0855
G1 X3.9642 Y-1.411
X3.9878 Y-1.3446
X4.0058 Y-1.2773
X4.018 Y-1.1651
X4.0176 Y-0.9071
X3.9966 Y-0.3105
X3.9813 Y-0.2003
X3.9533 Y-0.1025
X3.9277 Y-0.0432
X3.8954 Y0.0129
X3.8579 Y0.0591
X3.8116 Y0.1026
X3.7493 Y0.1464
X3.6916 Y0.173
X3.6369 Y0.1904
X3.5694 Y0.198
X3.0298 Y0.2335
G3 X2.961 Y0.1697 I-0.0066 J-0.062
X2.9681 Y0.1426 Z0.6282 I0.0623 J0.0019
X2.9883 Y0.12 Z0.624 I0.0552 J0.0289 F160.
G1 X3.0142 Y0.1037
G3 X3.0956 Y0.0758 I0.1187 J0.2132
X3.2473 Y0.0594 I0.1713 J0.8798
X3.4691 Y0.0558 I0.2005 J5.4554
G1 X3.5135 Y0.0541
X3.5576 Y0.0491
X3.6008 Y0.0389
X3.6422 Y0.023
X3.6809 Y0.0012
X3.716 Y-0.0259
X3.7469 Y-0.0577
X3.7733 Y-0.0934
X3.7952 Y-0.132
X3.8127 Y-0.1727
X3.8261 Y-0.2151
X3.8359 Y-0.2583
G2 X3.8526 Y-0.4349 I-1.1398 J-0.1968
X3.8555 Y-0.7699 I-10.2241 J-0.2565
G1 X3.8564 Y-0.7842
X3.8588 Y-0.7982
X3.8627 Y-0.812
X3.8729 Y-0.8423
X3.8749 Y-0.851
X3.8773 Y-0.862
G3 X3.8953 Y-0.8857 Z0.6282 I0.0364 J0.0091
X3.9227 Y-0.8893 Z0.632 I0.0183 J0.0327 F300.
X3.9511 Y-0.851 I-0.009 J0.0364
G1 X3.9826 Y-0.4359
X3.9715 Y-0.2788
X3.9437 Y-0.1554
X3.9067 Y-0.0637
X3.8572 Y0.0129
X3.8027 Y0.0704
X3.7605 Y0.1037
X3.6892 Y0.1443
X3.6136 Y0.1699
X3.5469 Y0.1812
X3.0523 Y0.2175
G3 X2.9869 Y0.1534 I-0.0032 J-0.0622
X2.994 Y0.1263 Z0.6282 I0.0623 J0.0019
X3.0142 Y0.1037 Z0.624 I0.0552 J0.0289 F160.
G1 X3.0186 Y0.1009
X3.0298 Y0.0934
X3.0312 Y0.0923
G3 X3.0947 Y0.0646 I0.0999 J0.1426
X3.2111 Y0.0454 I0.155 J0.5764
X3.4141 Y0.0377 I0.1891 J2.3069
G1 X3.4585 Y0.0367
X3.5028 Y0.0339
X3.5466 Y0.0271
X3.5893 Y0.0151
X3.63 Y-0.0027
X3.6678 Y-0.026
X3.7019 Y-0.0543
X3.7319 Y-0.087
X3.7574 Y-0.1234
X3.7784 Y-0.1624
X3.7951 Y-0.2035
X3.808 Y-0.246
X3.8175 Y-0.2893
G2 X3.8337 Y-0.4659 I-1.1926 J-0.1986
X3.8367 Y-0.7211 I-7.7864 J-0.219
G1 X3.8381 Y-0.7362
X3.8411 Y-0.751
X3.8458 Y-0.7654
X3.8505 Y-0.7773
X3.8528 Y-0.7837
X3.8627 Y-0.812
G3 X3.8835 Y-0.8333 Z0.6282 I0.035 J0.0134
X3.9111 Y-0.8336 Z0.632 I0.0142 J0.0347 F300.
X3.9344 Y-0.8061 I-0.0134 J0.035
G1 X3.9601 Y-0.3686
X3.9358 Y-0.2227
X3.9067 Y-0.1299
X3.8677 Y-0.0544
X3.8158 Y0.0129
X3.7577 Y0.069
X3.6931 Y0.1108
X3.6256 Y0.139
X3.5807 Y0.1508
X3.0748 Y0.2013
G3 X3.0104 Y0.1451 I-0.0024 J-0.0623
X3.014 Y0.1173 Z0.6282 I0.062 J-0.0061
X3.0312 Y0.0923 Z0.624 I0.0584 J0.0217 F160.
G1 X3.0478 Y0.0786
G3 X3.1175 Y0.0474 I0.11 J0.152
X3.2358 Y0.0273 I0.1598 J0.5827
X3.3946 Y0.0195 I0.174 J1.9161
G1 X3.4389 Y0.0179
X3.4832 Y0.0145
X3.5269 Y0.0069
X3.5694 Y-0.0057
X3.6099 Y-0.0239
X3.6475 Y-0.0475
X3.6814 Y-0.0761
X3.7113 Y-0.1089
X3.7368 Y-0.1452
X3.7579 Y-0.1842
X3.7749 Y-0.2252
X3.7879 Y-0.2676
X3.7976 Y-0.3109
G2 X3.8146 Y-0.4875 I-1.1783 J-0.2026
X3.8181 Y-0.6839 I-7.2562 J-0.2276
G3 X3.8351 Y-0.7418 I0.1352 J0.0083
G1 X3.8376 Y-0.7454 Z0.6246
X3.8405 Y-0.7486 Z0.6252
X3.8438 Y-0.7516 Z0.6258
X3.8474 Y-0.7541 Z0.6264
X3.8513 Y-0.7561 Z0.627
X3.8553 Y-0.7577 Z0.6276
X3.8596 Y-0.7589 Z0.6282
G3 X3.8867 Y-0.7541 Z0.632 I0.0075 J0.0367 F300.
X3.9042 Y-0.7276 I-0.0196 J0.032
G1 X3.9456 Y-0.5256
X3.9371 Y-0.3686
X3.9222 Y-0.2676
X3.8918 Y-0.1666
X3.8617 Y-0.1033
X3.8167 Y-0.0351
X3.7718 Y0.018
X3.7068 Y0.069
X3.6369 Y0.1076
X3.5582 Y0.1337
X3.0973 Y0.1871
G3 X3.0271 Y0.1314 I-0.0082 J-0.0618
X3.0307 Y0.1036 Z0.6282 I0.062 J-0.0061
X3.0478 Y0.0786 Z0.624 I0.0584 J0.0217 F160.
G1 X3.0523 Y0.0749
X3.0589 Y0.069
X3.0603 Y0.0676
G3 X3.1191 Y0.0361 I0.099 J0.1141
X3.2462 Y0.0106 I0.1681 J0.5081
X3.396 Y0.001 I0.1856 J1.7218
G1 X3.4403 Y-0.0021
X3.4843 Y-0.008
X3.5274 Y-0.0185
X3.5689 Y-0.0343
X3.6079 Y-0.0554
X3.6437 Y-0.0816
X3.6757 Y-0.1124
X3.7035 Y-0.147
X3.7269 Y-0.1846
X3.7461 Y-0.2247
X3.7612 Y-0.2664
X3.7728 Y-0.3092
G2 X3.7944 Y-0.4852 I-0.9782 J-0.2094
X3.7987 Y-0.6363 I-4.1605 J-0.1924
G3 X3.8122 Y-0.7019 I0.1682 J0.0004
G1 X3.8196 Y-0.715
X3.8204 Y-0.7163
X3.8271 Y-0.7276
X3.8351 Y-0.7418
G3 X3.8596 Y-0.7589 Z0.6282 I0.0319 J0.0197
X3.8867 Y-0.7541 Z0.632 I0.0075 J0.0367 F300.
X3.9042 Y-0.7276 I-0.0196 J0.032
G1 X3.9179 Y-0.3854
X3.9067 Y-0.3119
X3.8762 Y-0.2003
X3.8403 Y-0.1218
X3.8046 Y-0.0657
X3.7572 Y-0.0096
X3.6818 Y0.0516
X3.6144 Y0.0864
X3.5469 Y0.1114
X3.1198 Y0.1708
G3 X3.0447 Y0.1221 I-0.0139 J-0.0607
X3.0456 Y0.0941 Z0.6282 I0.0611 J-0.012
X3.0603 Y0.0676 Z0.624 I0.0602 J0.0159 F160.
G1 X3.0748 Y0.0531
G3 X3.1398 Y0.0183 I0.1086 J0.1252
X3.2525 Y-0.0058 I0.1638 J0.4892
X3.3983 Y-0.018 I0.2416 J2.007
G1 X3.4424 Y-0.0232
X3.4859 Y-0.0319
X3.5281 Y-0.0455
X3.5683 Y-0.0643
X3.6057 Y-0.0883
X3.6396 Y-0.1169
X3.6695 Y-0.1497
X3.6951 Y-0.1859
X3.7165 Y-0.2248
X3.7338 Y-0.2657
X3.7473 Y-0.3079
X3.7576 Y-0.3511
G2 X3.7763 Y-0.5274 I-1.1107 J-0.2076
G1 X3.7789 Y-0.5968
G3 X3.7853 Y-0.6504 I0.2636 J0.0044
G1 X3.7918 Y-0.6682
X3.8006 Y-0.6849
X3.8196 Y-0.715
G3 X3.8448 Y-0.731 Z0.6282 I0.031 J0.021
X3.8717 Y-0.7251 Z0.632 I0.0059 J0.037 F300.
X3.8882 Y-0.6939 I-0.021 J0.0311
G1 X3.9029 Y-0.4359
X3.8766 Y-0.29
X3.8505 Y-0.2056
X3.8145 Y-0.133
X3.769 Y-0.0657
X3.7043 Y-0.0012
X3.6594 Y0.0315
X3.6031 Y0.0645
X3.5245 Y0.092
X3.131 Y0.1569
G3 X3.086 Y0.1476 I-0.0106 J-0.0614
G1 X3.0859 Y0.1475
G3 X3.0593 Y0.1079 I0.0344 J-0.0519
X3.06 Y0.0802 Z0.6282 I0.0611 J-0.0124
G1 X3.0601 Y0.08
X3.0748 Y0.0531 Z0.624 F160.
X3.086 Y0.0418
X3.0896 Y0.0382
G3 X3.1536 Y0.0026 I0.1106 J0.1234
X3.2623 Y-0.0225 I0.1663 J0.4713
G1 X3.2885 Y-0.0262
X3.3326 Y-0.0311
X3.3768 Y-0.0353
X3.4208 Y-0.041
X3.4642 Y-0.0503
X3.5063 Y-0.0642
X3.5465 Y-0.0831
X3.5839 Y-0.107
X3.6178 Y-0.1356
X3.6479 Y-0.1682
X3.6737 Y-0.2043
X3.6954 Y-0.243
X3.713 Y-0.2837
X3.7268 Y-0.3259
X3.7374 Y-0.369
G2 X3.7572 Y-0.5452 I-1.1123 J-0.2143
G3 X3.7648 Y-0.6179 I0.4915 J0.0146
G1 X3.7697 Y-0.6328
X3.7762 Y-0.647
X3.7845 Y-0.6603
X3.7922 Y-0.6715
X3.8006 Y-0.6849
G3 X3.8258 Y-0.7008 Z0.6282 I0.031 J0.0211
X3.8527 Y-0.6948 Z0.632 I0.0059 J0.037 F300.
X3.869 Y-0.6603 I-0.021 J0.031
G1 X3.875 Y-0.4022
X3.8505 Y-0.2889
X3.828 Y-0.2214
X3.7943 Y-0.152
X3.7398 Y-0.0769
X3.7043 Y-0.0391
X3.6533 Y0.0017
X3.5779 Y0.0469
X3.5357 Y0.0643
X3.1422 Y0.1424
G3 X3.0743 Y0.0929 I-0.0069 J-0.0619
X3.0751 Y0.0649 Z0.6282 I0.0611 J-0.0124
X3.0896 Y0.0382 Z0.624 I0.0603 J0.0156 F160.
G1 X3.0925 Y0.0353
X3.104 Y0.0232
G3 X3.1675 Y-0.0134 I0.1119 J0.1209
X3.2807 Y-0.0408 I0.1775 J0.4858
G1 X3.3245 Y-0.0475
X3.3685 Y-0.0532
X3.4123 Y-0.0607
X3.4552 Y-0.0718
X3.4968 Y-0.0873
X3.5361 Y-0.1079
X3.5725 Y-0.1333
X3.6054 Y-0.163
X3.6344 Y-0.1966
X3.6592 Y-0.2334
X3.6799 Y-0.2727
X3.6967 Y-0.3137
X3.7099 Y-0.3561
X3.7199 Y-0.3993
G2 X3.7381 Y-0.5502 I-1.3132 J-0.235
G3 X3.7484 Y-0.6045 I0.3016 J0.0292
G1 X3.7551 Y-0.62
X3.7637 Y-0.6345
X3.7741 Y-0.6478
X3.783 Y-0.6547 Z0.6256
G3 X3.8015 Y-0.6594 Z0.6282 I0.0182 J0.0328
X3.8271 Y-0.6491 Z0.632 I-0.0004 J0.0375 F300.
X3.8384 Y-0.6266 I-0.0259 J0.0271
G1 X3.8602 Y-0.4471
X3.8418 Y-0.3482
X3.81 Y-0.2474
X3.7825 Y-0.1891
X3.7326 Y-0.1105
X3.6678 Y-0.0432
X3.608 Y0.0017
X3.5245 Y0.0414
X3.4738 Y0.0577
X3.1647 Y0.1252
G3 X3.0898 Y0.0781 I-0.0141 J-0.0607
X3.09 Y0.0501 Z0.6282 I0.0608 J-0.0135
X3.104 Y0.0232 Z0.624 I0.0606 J0.0145 F160.
G1 X3.1138 Y0.0129
X3.1179 Y0.0084
G3 X3.1805 Y-0.0293 I0.1116 J0.1149
X3.277 Y-0.0558 I0.1771 J0.4554
G1 X3.3206 Y-0.0641
X3.3644 Y-0.0715
X3.4077 Y-0.0812
X3.45 Y-0.0945
X3.4907 Y-0.1123
X3.5289 Y-0.1348
X3.564 Y-0.162
X3.5955 Y-0.1932
X3.623 Y-0.228
X3.6465 Y-0.2657
X3.6659 Y-0.3056
X3.6816 Y-0.3471
X3.6938 Y-0.3898
X3.7031 Y-0.4332
X3.7099 Y-0.477
G3 X3.7243 Y-0.57 I0.8328 J0.0813
X3.7588 Y-0.631 I0.1292 J0.0329
G1 X3.7605 Y-0.6327
X3.7652 Y-0.6378
X3.7741 Y-0.6478
X3.783 Y-0.6547 Z0.6256
G3 X3.8015 Y-0.6594 Z0.6282 I0.0182 J0.0328
X3.8271 Y-0.6491 Z0.632 I-0.0004 J0.0375 F300.
X3.8381 Y-0.6154 I-0.0259 J0.0271
G1 X3.8223 Y-0.3686
X3.7994 Y-0.29
X3.7605 Y-0.2066
X3.7231 Y-0.1442
X3.6747 Y-0.0881
X3.6031 Y-0.0278
X3.5357 Y0.0103
X3.1872 Y0.1069
G3 X3.1052 Y0.0636 I-0.0216 J-0.0584
X3.1046 Y0.0356 Z0.6282 I0.0604 J-0.0152
X3.1179 Y0.0084 Z0.624 I0.061 J0.0128 F160.
G1 X3.1198 Y0.0063
X3.1231 Y0.0017
X3.1244 Y-0.0003
G3 X3.1718 Y-0.036 I0.0932 J0.0743
X3.2706 Y-0.0696 I0.1834 J0.3773
G1 X3.3138 Y-0.08
X3.3572 Y-0.0894
X3.4 Y-0.101
X3.4417 Y-0.1163
X3.4815 Y-0.1358
X3.5187 Y-0.16
X3.5527 Y-0.1885
X3.5831 Y-0.2208
X3.6095 Y-0.2565
X3.632 Y-0.2948
X3.6505 Y-0.3351
X3.6653 Y-0.3769
X3.6769 Y-0.4197
X3.6859 Y-0.4632
G3 X3.7045 Y-0.5547 I0.8 J0.1153
X3.7373 Y-0.6095 I0.1279 J0.0393
G1 X3.7588 Y-0.631
G3 X3.7869 Y-0.641 Z0.6282 I0.0256 J0.0274
X3.8118 Y-0.6292 Z0.632 I-0.0025 J0.0374 F300.
X3.8219 Y-0.6042 I-0.0274 J0.0256
G1 X3.793 Y-0.3461
X3.767 Y-0.2763
X3.7212 Y-0.1891
X3.6794 Y-0.133
X3.6256 Y-0.0808
X3.5469 Y-0.0241
X3.1984 Y0.0914
G3 X3.1195 Y0.0562 I-0.0211 J-0.0586
X3.1151 Y0.0285 Z0.6282 I0.0577 J-0.0234
X3.1244 Y-0.0003 Z0.624 I0.0622 J0.0043 F160.
G1 X3.1332 Y-0.0133
G3 X3.1852 Y-0.053 I0.1025 J0.0802
X3.2652 Y-0.0834 I0.185 J0.3666
G1 X3.3078 Y-0.0958
X3.3507 Y-0.1072
X3.3929 Y-0.121
X3.4338 Y-0.1382
X3.4726 Y-0.1595
X3.5088 Y-0.1853
X3.5416 Y-0.2151
X3.5708 Y-0.2485
X3.5961 Y-0.285
X3.6175 Y-0.3239
X3.6351 Y-0.3646
X3.6492 Y-0.4067
X3.6606 Y-0.4496
G3 X3.6828 Y-0.537 I0.8664 J0.1736
X3.7186 Y-0.591 I0.1251 J0.0439
G1 X3.7207 Y-0.5929
X3.7268 Y-0.5989
X3.7374 Y-0.6095
G3 X3.7654 Y-0.6195 Z0.6282 I0.0256 J0.0274
X3.7903 Y-0.6077 Z0.632 I-0.0025 J0.0374 F300.
X3.8004 Y-0.5817 I-0.0274 J0.0256
G1 X3.7584 Y-0.3237
X3.7235 Y-0.245
X3.6588 Y-0.1495
X3.5963 Y-0.0881
X3.5245 Y-0.0388
X3.2097 Y0.0774
G3 X3.1283 Y0.0432 I-0.0237 J-0.0576
X3.1239 Y0.0156 Z0.6282 I0.0577 J-0.0234
X3.131 Y-0.0094 Z0.6246 I0.0622 J0.0042 F160.
G1 X3.1332 Y-0.0133 Z0.624
X3.1383 Y-0.0208
X3.1414 Y-0.0258
G3 X3.192 Y-0.0672 I0.1037 J0.075
X3.2596 Y-0.0966 I0.1886 J0.3411
G1 X3.3015 Y-0.1112
X3.3437 Y-0.1248
X3.3852 Y-0.1406
X3.4252 Y-0.1597
X3.4631 Y-0.1828
X3.4982 Y-0.21
X3.5299 Y-0.241
X3.558 Y-0.2754
X3.5822 Y-0.3126
X3.6027 Y-0.3519
X3.6196 Y-0.393
X3.6336 Y-0.4351
G3 X3.6605 Y-0.5213 I0.9423 J0.2464
X3.6961 Y-0.571 I0.123 J0.0505
G1 X3.7043 Y-0.5781
X3.7186 Y-0.591
G3 X3.7471 Y-0.5996 Z0.6282 I0.0242 J0.0287
X3.7714 Y-0.5866 Z0.632 I-0.0043 J0.0372 F300.
X3.7801 Y-0.5593 I-0.0286 J0.0242
G1 X3.7268 Y-0.3104
X3.6818 Y-0.226
X3.6457 Y-0.1778
X3.5919 Y-0.1205
X3.5313 Y-0.0881
X3.2209 Y0.0623
G3 X3.1384 Y0.0308 I-0.0256 J-0.0568
X3.1331 Y0.0033 Z0.6282 I0.0569 J-0.0253
X3.1414 Y-0.0258 Z0.624 I0.0623 J0.0021 F160.
G1 X3.151 Y-0.0409
G3 X3.2014 Y-0.0834 I0.1104 J0.0801
X3.2626 Y-0.1129 I0.2084 J0.3538
G1 X3.3038 Y-0.1294
X3.3451 Y-0.1456
X3.3854 Y-0.1641
X3.4242 Y-0.1857
X3.4604 Y-0.2113
X3.4937 Y-0.2406
X3.5236 Y-0.2734
X3.5498 Y-0.3092
X3.5724 Y-0.3474
X3.5916 Y-0.3875
X3.6079 Y-0.4287
G3 X3.6381 Y-0.5088 I0.7809 J0.2494
X3.6829 Y-0.5618 I0.12 J0.056
G1 X3.6931 Y-0.5687
X3.6955 Y-0.5705
X3.6961 Y-0.571
G3 X3.7248 Y-0.5789 Z0.6282 I0.0235 J0.0292
X3.7488 Y-0.5653 Z0.632 I-0.0052 J0.0371 F300.
X3.7568 Y-0.5368 I-0.0292 J0.0236
G1 X3.6899 Y-0.29
X3.6319 Y-0.2003
X3.5683 Y-0.133
X3.5245 Y-0.0961
X3.2322 Y0.0463
G3 X3.1479 Y0.0157 I-0.0273 J-0.056
X3.1426 Y-0.0118 Z0.6282 I0.0569 J-0.0253
X3.151 Y-0.0409 Z0.624 I0.0623 J0.0021 F160.
G1 X3.1594 Y-0.0544
X3.1603 Y-0.0559
G3 X3.2103 Y-0.1 I0.1162 J0.0815
X3.265 Y-0.1294 I0.2271 J0.3562
G1 X3.3052 Y-0.1481
X3.3455 Y-0.1669
X3.3846 Y-0.1878
X3.4218 Y-0.212
X3.4564 Y-0.2397
X3.488 Y-0.2709
X3.5161 Y-0.3052
X3.5408 Y-0.3421
X3.5622 Y-0.381
X3.5808 Y-0.4212
G3 X3.6151 Y-0.498 I0.7589 J0.2927
X3.6614 Y-0.5481 I0.1177 J0.0624
G1 X3.6791 Y-0.5593
X3.6818 Y-0.561
X3.6829 Y-0.5617
G3 X3.7123 Y-0.5664 Z0.6282 I0.0201 J0.0317
X3.7346 Y-0.5502 Z0.632 I-0.0093 J0.0363 F300.
X3.738 Y-0.5167 I-0.0316 J0.0201
G1 X3.655 Y-0.2788
X3.5919 Y-0.1942
X3.5319 Y-0.133
X3.502 Y-0.1085
X3.2434 Y0.0296
G3 X3.1584 Y0.0008 I-0.0286 J-0.0554
X3.1525 Y-0.0266 Z0.6282 I0.0564 J-0.0265
X3.1603 Y-0.0559 Z0.624 I0.0623 J0.0008 F160.
G1 X3.1698 Y-0.0718
G3 X3.2197 Y-0.1179 I0.1267 J0.0874
X3.2706 Y-0.1484 I0.2707 J0.394
G1 X3.3098 Y-0.1692
X3.3487 Y-0.1906
X3.3862 Y-0.2143
X3.4216 Y-0.241
X3.4543 Y-0.271
X3.4839 Y-0.304
X3.5103 Y-0.3397
X3.5336 Y-0.3775
X3.5543 Y-0.4167
G3 X3.5923 Y-0.4899 I0.7066 J0.3198
X3.6364 Y-0.5324 I0.1113 J0.0715
G1 X3.6614 Y-0.5481
G3 X3.691 Y-0.5516 Z0.6282 I0.0188 J0.0324
X3.7127 Y-0.5345 Z0.632 I-0.0108 J0.0359 F300.
X3.7156 Y-0.503 I-0.0324 J0.0189
G1 X3.6194 Y-0.2676
X3.5661 Y-0.2003
X3.502 Y-0.1392
X3.2547 Y0.0127
G3 X3.168 Y-0.0151 I-0.0303 J-0.0544
X3.162 Y-0.0425 Z0.6282 I0.0564 J-0.0265
X3.1698 Y-0.0718 Z0.624 I0.0623 J0.0008 F160.
G1 X3.176 Y-0.0821
X3.1784 Y-0.0869
G3 X3.2213 Y-0.1312 I0.1227 J0.0758
X3.2665 Y-0.1624 I0.274 J0.3488
G1 X3.3043 Y-0.1857
X3.3419 Y-0.2092
X3.3781 Y-0.2348
X3.4123 Y-0.2631
X3.4438 Y-0.2944
X3.4725 Y-0.3282
X3.4982 Y-0.3644
X3.5215 Y-0.4022
G3 X3.5654 Y-0.4774 I0.9049 J0.4781
G1 X3.5775 Y-0.492
X3.5914 Y-0.5047
X3.607 Y-0.5153
X3.6256 Y-0.5261
X3.6364 Y-0.5324
G3 X3.6661 Y-0.5349 Z0.6282 I0.0178 J0.033
X3.6872 Y-0.5172 Z0.632 I-0.0119 J0.0356 F300.
X3.6868 Y-0.4808 I-0.033 J0.0178
G1 X3.6136 Y-0.3013
X3.5352 Y-0.2017
X3.4979 Y-0.1666
X3.2659 Y-0.0062
X3.2429 Y0.0017
X3.2322 Y0.0021
G3 X3.1985 Y-0.0095 I0.0026 J-0.0623
G1 X3.1984 Y-0.0096
G3 X3.1801 Y-0.0302 I0.0363 J-0.0506
X3.1725 Y-0.0571 Z0.6282 I0.0546 J-0.03
X3.1784 Y-0.0869 Z0.624 I0.0622 J-0.003 F160.
G1 X3.1791 Y-0.0881
X3.1842 Y-0.0993
G3 X3.2187 Y-0.1413 I0.1113 J0.0562
X3.2714 Y-0.1828 I0.3264 J0.3606
G1 X3.3077 Y-0.2082
X3.3436 Y-0.2343
X3.3781 Y-0.2622
X3.4105 Y-0.2925
X3.4404 Y-0.3253
X3.4677 Y-0.3603
X3.4926 Y-0.397
G3 X3.5407 Y-0.4698 I0.7246 J0.4263
X3.5949 Y-0.51 I0.1033 J0.0826
X3.6246 Y-0.5081 Z0.6282 I0.0126 J0.0353
X3.6428 Y-0.4874 Z0.632 I-0.0171 J0.0334 F300.
X3.6412 Y-0.4583 I-0.0353 J0.0126
G1 X3.585 Y-0.3013
X3.5327 Y-0.2339
X3.2838 Y-0.032
G3 X3.1925 Y-0.0432 I-0.0406 J-0.0473
X3.1818 Y-0.0691 Z0.6282 I0.0508 J-0.0361
X3.1816 Y-0.0881 Z0.6256 I0.0615 J-0.0102 F160.
G1 X3.1842 Y-0.0993 Z0.624
X3.1885 Y-0.1105
X3.1891 Y-0.1124
G3 X3.2214 Y-0.1565 I0.118 J0.0526
X3.2823 Y-0.2099 I0.4275 J0.4263
G1 X3.3171 Y-0.2374
X3.3511 Y-0.2659
X3.3836 Y-0.2961
X3.4139 Y-0.3285
G2 X3.4967 Y-0.4399 I-0.9362 J-0.782
G3 X3.5399 Y-0.4851 I0.1747 J0.1241
G1 X3.5543 Y-0.4934
X3.5694 Y-0.5001
X3.5777 Y-0.5032
X3.5949 Y-0.51
G3 X3.6246 Y-0.5081 Z0.6282 I0.0126 J0.0353
X3.6428 Y-0.4874 Z0.632 I-0.0171 J0.0334 F300.
X3.6369 Y-0.4514 I-0.0353 J0.0126
G1 X3.297 Y-0.0544
G3 X3.1985 Y-0.0565 I-0.0485 J-0.0391
X3.1873 Y-0.0821 Z0.6282 I0.0501 J-0.0371
X3.1891 Y-0.1124 Z0.624 I0.0612 J-0.0114 F160.
G1 X3.1925 Y-0.1218
X3.1946 Y-0.1279
G3 X3.2313 Y-0.1805 I0.1444 J0.0618
G1 X3.2375 Y-0.1875
G3 X3.3236 Y-0.267 I1.1712 J1.1819
G2 X3.4424 Y-0.3986 I-0.5823 J-0.6449
G3 X3.4895 Y-0.457 I0.528 J0.3776
X3.5416 Y-0.4904 I0.0954 J0.0913
G1 X3.5694 Y-0.5001
G3 X3.5991 Y-0.498 Z0.6282 I0.0124 J0.0354
X3.6172 Y-0.4772 Z0.632 I-0.0173 J0.0333 F300.
X3.6086 Y-0.4385 I-0.0354 J0.0124
G1 X3.2566 Y-0.0783
G3 X3.2076 Y-0.0743 I-0.0268 J-0.0262
X3.1931 Y-0.097 Z0.6283 I0.0222 J-0.0302
G1 X3.1929 Y-0.0976 Z0.6282
G3 X3.1946 Y-0.1279 Z0.624 I0.0612 J-0.0118 F160.
G1 X3.2015 Y-0.1476
G3 X3.2379 Y-0.2033 I0.1681 J0.0701
G1 X3.2448 Y-0.2117
X3.2542 Y-0.222
X3.2714 Y-0.2402
X3.334 Y-0.3031
G2 X3.4348 Y-0.4207 I-1.0709 J-1.0199
G3 X3.4831 Y-0.4666 I0.1823 J0.1434
G1 X3.4978 Y-0.4745
X3.5132 Y-0.4808
X3.5404 Y-0.49
X3.5416 Y-0.4904
G3 X3.5712 Y-0.4871 Z0.6282 I0.011 J0.0359
X3.5884 Y-0.4656 Z0.632 I-0.0186 J0.0325 F300.
X3.5792 Y-0.4282 I-0.0359 J0.011
G1 X3.264 Y-0.1101
G3 X3.2262 Y-0.1007 I-0.0266 J-0.0264
X3.2047 Y-0.118 Z0.6282 I0.0111 J-0.0358
X3.2015 Y-0.1476 Z0.624 I0.0326 J-0.0185 F160.
G1 X3.2097 Y-0.1711
G3 X3.2544 Y-0.2403 I0.2207 J0.0937
G1 X3.266 Y-0.2547
X3.2953 Y-0.288
G2 X3.4099 Y-0.4194 I-2.2392 J-2.069
G3 X3.4499 Y-0.4567 I0.2172 J0.1921
G1 X3.4645 Y-0.4654
X3.4802 Y-0.4721
X3.4966 Y-0.4768
G3 X3.5256 Y-0.4699 Z0.6282 I0.0066 J0.0369
X3.54 Y-0.4465 Z0.632 I-0.0224 J0.0301 F300.
X3.5307 Y-0.4145 I-0.0369 J0.0066
G1 X3.2731 Y-0.1346
G3 X3.2344 Y-0.1242 I-0.0276 J-0.0254
X3.2129 Y-0.1415 Z0.6282 I0.0111 J-0.0358
X3.2097 Y-0.1711 Z0.624 I0.0326 J-0.0185 F160.
G1 X3.212 Y-0.1778
X3.2153 Y-0.1891
X3.2157 Y-0.1909
G3 X3.2426 Y-0.2431 I0.1635 J0.0512
X3.3121 Y-0.3323 I0.7549 J0.5162
X3.3921 Y-0.4249 I1.4251 J1.151
X3.4276 Y-0.455 I0.1798 J0.1764
G1 X3.444 Y-0.4636
X3.4614 Y-0.4698
X3.4795 Y-0.4732
X3.4907 Y-0.4756
X3.4966 Y-0.4768
G3 X3.5256 Y-0.4699 Z0.6282 I0.0066 J0.0369
X3.54 Y-0.4465 Z0.632 I-0.0224 J0.0301 F300.
X3.5299 Y-0.4136 I-0.0369 J0.0066
G1 X3.2794 Y-0.158
G3 X3.2459 Y-0.1474 I-0.0268 J-0.0262
X3.2225 Y-0.1619 Z0.6282 I0.0067 J-0.0369
X3.2157 Y-0.1909 Z0.624 I0.0301 J-0.0223 F160.
G1 X3.2177 Y-0.2003
X3.2188 Y-0.2065
G3 X3.2503 Y-0.274 I0.1874 J0.0463
X3.3742 Y-0.4292 I0.8184 J0.5265
X3.439 Y-0.4675 I0.1085 J0.1095
G1 X3.457 Y-0.4706
G3 X3.4852 Y-0.4609 Z0.6282 I0.0029 J0.0374
X3.4973 Y-0.4362 Z0.632 I-0.0253 J0.0277 F300.
X3.488 Y-0.4085 I-0.0374 J0.0029
G1 X3.2841 Y-0.1767
G3 X3.2509 Y-0.1643 I-0.0282 J-0.0248
X3.2269 Y-0.1778 Z0.6282 I0.0051 J-0.0372
X3.2188 Y-0.2065 Z0.624 I0.0291 J-0.0237 F160.
G1 X3.2197 Y-0.2115
X3.2213 Y-0.2246
G3 X3.248 Y-0.2914 I0.1834 J0.0346
X3.3593 Y-0.4347 I0.5389 J0.3037
X3.3974 Y-0.4587 I0.1055 J0.1251
G1 X3.4149 Y-0.4646
X3.4331 Y-0.4679
G3 X3.4613 Y-0.4583 Z0.6282 I0.0029 J0.0374
X3.4734 Y-0.4335 Z0.632 I-0.0253 J0.0277 F300.
X3.4646 Y-0.4063 I-0.0374 J0.0029
G1 X3.2872 Y-0.197
G3 X3.2553 Y-0.1839 I-0.0286 J-0.0242
X3.2307 Y-0.1963 Z0.6282 I0.0033 J-0.0374
X3.2213 Y-0.2246 Z0.624 I0.028 J-0.025 F160.
G1 X3.2224 Y-0.2339
X3.2241 Y-0.2486
G3 X3.2531 Y-0.3228 I0.2048 J0.0372
X3.3433 Y-0.4377 I0.3816 J0.2066
X3.4128 Y-0.4659 I0.0834 J0.1062
G1 X3.4172 Z0.6246
X3.4215 Y-0.4654 Z0.6252
X3.4258 Y-0.4644 Z0.6258
X3.4299 Y-0.4629 Z0.6264
X3.4338 Y-0.4609 Z0.627
X3.4375 Y-0.4585 Z0.6276
X3.4408 Y-0.4557 Z0.6282
G3 X3.4525 Y-0.4307 Z0.632 I-0.0257 J0.0273 F300.
X3.4438 Y-0.4043 I-0.0374 J0.0023
G1 X3.2902 Y-0.2215
G3 X3.2586 Y-0.2083 I-0.0287 J-0.0241
X3.2338 Y-0.2204 Z0.6282 I0.0029 J-0.0374
X3.2241 Y-0.2486 Z0.624 I0.0277 J-0.0253 F160.
G1 X3.2263 Y-0.2676
X3.2268 Y-0.2734
G3 X3.2561 Y-0.3507 I0.2008 J0.0318
X3.3199 Y-0.433 I0.2824 J0.1531
X3.3968 Y-0.4647 I0.0859 J0.099
X3.4245 Y-0.4538 Z0.6282 I0.0012 J0.0375
X3.4354 Y-0.4285 Z0.632 I-0.0265 J0.0265 F300.
X3.4264 Y-0.4029 I-0.0375 J0.0012
G1 X3.2927 Y-0.2467
G3 X3.262 Y-0.2337 I-0.0285 J-0.0244
X3.237 Y-0.2454 Z0.6282 I0.0023 J-0.0374
X3.2268 Y-0.2734 Z0.624 I0.0272 J-0.0258 F160.
G1 X3.2273 Y-0.2788
X3.2291 Y-0.299
G3 X3.2628 Y-0.3833 I0.1948 J0.0291
X3.3289 Y-0.4503 I0.1583 J0.0899
G1 X3.3467 Y-0.4574
X3.3653 Y-0.4621
X3.3843 Y-0.4641
G3 X3.4116 Y-0.4521 Z0.6282 I-0.0002 J0.0375
X3.4216 Y-0.4264 Z0.632 I-0.0275 J0.0255 F300.
X3.4119 Y-0.4014 I-0.0375 J-0.0002
G1 X3.2943 Y-0.2718
G3 X3.2645 Y-0.2595 I-0.0278 J-0.0252
X3.2395 Y-0.271 Z0.6282 I0.002 J-0.0374
X3.2291 Y-0.299 Z0.624 I0.0271 J-0.0259 F160.
G1 X3.2293 Y-0.3013
X3.2294 Y-0.3159
G3 X3.2541 Y-0.3889 I0.1519 J0.0106
X3.3384 Y-0.4594 I0.1264 J0.0654
G1 X3.3557 Y-0.4627
X3.3733 Y-0.4639
G3 X3.4002 Y-0.4511 Z0.6282 I-0.0013 J0.0375
X3.4095 Y-0.4252 Z0.632 I-0.0282 J0.0247 F300.
X3.399 Y-0.4005 I-0.0375 J-0.0013
G1 X3.2939 Y-0.2911
G3 X3.2681 Y-0.2796 I-0.027 J-0.026
X3.2421 Y-0.2889 Z0.6282 I-0.0012 J-0.0375
X3.2294 Y-0.3159 Z0.624 I0.0248 J-0.0281 F160.
G1 X3.2295 Y-0.3349
X3.2301 Y-0.3426
G3 X3.2988 Y-0.4481 I0.1383 J0.015
G1 X3.3166 Y-0.456
X3.3354 Y-0.4614
X3.3547 Y-0.4639
G3 X3.3822 Y-0.4525 Z0.6282 I0.0007 J0.0375
X3.3928 Y-0.4271 Z0.632 I-0.0269 J0.0261 F300.
X3.3815 Y-0.3995 I-0.0375 J0.0007
G1 X3.2937 Y-0.3141
G3 X3.2659 Y-0.3036 I-0.0261 J-0.0269
X3.2408 Y-0.3148 Z0.6282 I0.0016 J-0.0375
X3.2301 Y-0.3426 Z0.624 I0.0268 J-0.0262 F160.
G1 X3.232 Y-0.3663
G3 X3.2867 Y-0.4491 I0.1097 J0.013
G1 X3.2906 Y-0.4511 Z0.6246
X3.2947 Y-0.4526 Z0.6252
X3.2989 Y-0.4536 Z0.6258
X3.3032 Y-0.4542 Z0.6264
X3.3076 Z0.627
X3.3119 Y-0.4537 Z0.6276
X3.3162 Y-0.4527 Z0.6282
G3 X3.3378 Y-0.4355 Z0.632 I-0.011 J0.0359 F300.
X3.3362 Y-0.3956 I-0.0325 J0.0187
G1 X3.3004 Y-0.3434
G3 X3.2677 Y-0.3272 I-0.0309 J-0.0212
X3.2426 Y-0.3384 Z0.6282 I0.0017 J-0.0375
X3.232 Y-0.3663 Z0.624 I0.0269 J-0.0262 F160.
X3.3086 Y-0.4583 I0.1041 J0.0088
X3.3558 Y-0.4638 I0.049 J0.2141
G2 X3.457 Y-0.4707 I0.0055 J-0.6647
G1 X3.4795 Y-0.4732
X3.502 Y-0.4679 Z0.6272
X3.5077 Y-0.463 Z0.6282
X3.5292 Y-0.4448 Z0.632 F300.
X3.5661 Y-0.4134
G2 X3.6144 Y-0.3926 I0.0617 J-0.0767
G1 X3.6309 Y-0.391
G2 X3.7043 Y-0.4126 I0.0111 J-0.0978
G1 X3.8055 Y-0.4937
X3.8842 Y-0.5755
X3.9404 Y-0.6637
X3.9748 Y-0.7388
X4.0032 Y-0.8285
X4.0153 Y-0.9194
X4.019 Y-0.9968
X4.017 Y-1.1875
X4.004 Y-1.2885
X3.9707 Y-1.3963
X3.9404 Y-1.4581
X3.8951 Y-1.5353
X3.8167 Y-1.6265
X3.7397 Y-1.6924
X3.6917 Y-1.726
X3.4345 Y-1.8711
X3.3896 Y-1.8885
X3.2996 Y-1.9031
X0.4218 Y-1.9022
X0.3881 Y-1.8969
G2 X0.3768 Y-1.8938 I0.0204 J0.0963
X0.3103 Y-1.7933 I0.0317 J0.0932
G1 X0.3159 Y-1.7488
G3 X0.3129 Y-1.7233 I-0.0621 J0.0055
X0.2982 Y-1.6994 Z0.6282 I-0.059 J-0.02
X0.2723 Y-1.6837 Z0.624 I-0.0443 J-0.0438 F160.
G1 X0.2532 Y-1.6785
X0.2419 Y-1.6754
X0.224 Y-1.6699
G3 X0.1477 Y-1.6567 I-0.1136 J-0.4267
G1 X0.1035 Y-1.6527
X0.0599 Y-1.6449
X0.0184 Y-1.629
X-0.0194 Y-1.6058
X-0.0524 Y-1.5761
X-0.0801 Y-1.5415
X-0.1021 Y-1.5029
X-0.1187 Y-1.4618
X-0.1306 Y-1.419
G2 X-0.1457 Y-1.2955 I0.7425 J0.1537
G1 X-0.1476 Y-1.2863
X-0.1499 Y-1.2771
G2 X-0.1608 Y-1.2212 I0.2445 J0.0765
G1 X-0.1663 Y-1.1651
X-0.1668 Y-1.1539
X-0.1672 Y-1.1427
X-0.1675 Y-1.1314
Y-0.9744
G2 X-0.1578 Y-0.8715 I0.9895 J-0.0416
G3 X-0.1501 Y-0.7149 I-1.2958 J0.1419
G1 X-0.1497 Y-0.6706
X-0.1495 Y-0.6262
Y-0.5374
X-0.1494 Y-0.1381
X-0.1482 Y-0.0937
X-0.1389 Y-0.0504
X-0.1214 Y-0.0096
X-0.0966 Y0.0273
X-0.0657 Y0.0591
X-0.0301 Y0.0855
X0.0092 Y0.1062
X0.0508 Y0.1216
X0.0938 Y0.1325
X0.1376 Y0.1396
G2 X0.3148 Y0.1484 I0.1684 J-1.5999
G1 X0.4647 Y0.1493
X0.6147 Y0.1498
X0.7646
X0.779 Y0.1509
X0.7933 Y0.1535
X0.8071 Y0.1577
X0.8152 Y0.1606
X0.849 Y0.1724
X0.8559 Y0.1746
G3 X0.8777 Y0.1949 Z0.6282 I-0.0125 J0.0353
X0.8787 Y0.2225 Z0.632 I-0.0343 J0.015 F300.
X0.849 Y0.247 I-0.0354 J-0.0125
G1 X0.2194 Y0.2781
X0.107 Y0.2666
X0.0171 Y0.2475
X-0.0657 Y0.2148
X-0.1403 Y0.1645
X-0.193 Y0.1138
X-0.2251 Y0.069
X-0.2493 Y0.0241
X-0.2705 Y-0.0432
X-0.2759 Y-0.0769
X-0.2804 Y-0.851
G3 X-0.1948 Y-0.9145 I0.062 J-0.0059
X-0.1719 Y-0.8984 Z0.6282 I-0.0236 J0.0577
X-0.1578 Y-0.8715 Z0.624 I-0.0464 J0.0415 F160.
G2 X-0.1508 Y-0.8397 I0.5451 J-0.1038
G3 X-0.1365 Y-0.753 I-0.3623 J0.1041
X-0.1311 Y-0.558 I-2.3181 J0.1622
G1 X-0.1308 Y-0.5136
X-0.1307 Y-0.4249
Y-0.203
X-0.1304 Y-0.1587
X-0.1255 Y-0.1146
X-0.1134 Y-0.0719
X-0.0942 Y-0.0319
X-0.0684 Y0.0042
X-0.037 Y0.0356
X-0.0012 Y0.0619
X0.0379 Y0.0828
X0.0793 Y0.0988
X0.1221 Y0.1104
X0.1658 Y0.1183
G2 X0.3428 Y0.1292 I0.1761 J-1.4138
X0.7225 Y0.1311 I0.3302 J-28.6141
G1 X0.7417 Y0.1334
X0.7603 Y0.1382
X0.778 Y0.1458
G3 X0.796 Y0.1695 Z0.6282 I-0.0184 J0.0327
X0.7923 Y0.1968 Z0.632 I-0.0364 J0.0089 F300.
X0.759 Y0.216 I-0.0327 J-0.0184
G1 X0.2981 Y0.2593
X0.1857 Y0.2528
X0.0845 Y0.2356
X-0.0109 Y0.2036
X-0.0616 Y0.1774
X-0.1208 Y0.1339
X-0.174 Y0.0795
X-0.213 Y0.022
X-0.2415 Y-0.0462
X-0.2542 Y-0.0993
X-0.2609 Y-0.1554
X-0.2713 Y-0.8173
G3 X-0.1927 Y-0.8779 I0.0623 J-0.0004
X-0.168 Y-0.8647 Z0.6282 I-0.0163 J0.0601
X-0.1515 Y-0.8419 Z0.6243 I-0.041 J0.0469 F160.
G1 X-0.1507 Y-0.8397 Z0.624
X-0.1431 Y-0.8173
X-0.1392 Y-0.8061
X-0.1353 Y-0.7949
G3 X-0.1176 Y-0.6848 I-0.4424 J0.1276
X-0.1123 Y-0.4776 I-2.63 J0.1703
G1 X-0.1119 Y-0.3445
Y-0.2114
X-0.1089 Y-0.1671
X-0.1001 Y-0.1236
X-0.0845 Y-0.0821
X-0.0624 Y-0.0436
X-0.0345 Y-0.0091
X-0.0016 Y0.0207
X0.0352 Y0.0455
X0.0749 Y0.0653
X0.1166 Y0.0805
X0.1596 Y0.0915
X0.2033 Y0.0992
G2 X0.3803 Y0.1103 I0.1803 J-1.4525
X0.6821 Y0.1124 I0.3248 J-25.5028
G3 X0.752 Y0.1315 I-0.0024 J0.146
G1 X0.759 Y0.136
X0.778 Y0.1458
G3 X0.796 Y0.1695 Z0.6282 I-0.0184 J0.0327
X0.7923 Y0.1968 Z0.632 I-0.0364 J0.0089 F300.
X0.759 Y0.216 I-0.0327 J-0.0184
G1 X0.2419 Y0.2355
X0.1295 Y0.2185
X0.0508 Y0.1948
X-0.0166 Y0.1655
X-0.0841 Y0.1209
X-0.1403 Y0.0664
X-0.1794 Y0.014
X-0.2103 Y-0.0432
X-0.233 Y-0.1218
X-0.2393 Y-0.1666
X-0.2556 Y-0.7724
G3 X-0.1777 Y-0.8326 I0.0623 J0.0002
X-0.1529 Y-0.8196 Z0.6282 I-0.0157 J0.0603
X-0.1403 Y-0.8049 Z0.6255 I-0.0405 J0.0474 F160.
G1 X-0.1353 Y-0.7949 Z0.624
X-0.1314 Y-0.7837
X-0.129 Y-0.7773
X-0.1214 Y-0.7578
G3 X-0.1 Y-0.6418 I-0.3983 J0.1334
X-0.094 Y-0.4884 I-1.7057 J0.1442
X-0.0932 Y-0.2665 I-20.8977 J0.1822
G1 X-0.0919 Y-0.2222
X-0.0864 Y-0.1781
X-0.0747 Y-0.1353
X-0.0568 Y-0.0947
X-0.0328 Y-0.0574
X-0.0034 Y-0.0241
X0.0305 Y0.0045
X0.068 Y0.0282
X0.1081 Y0.0472
X0.15 Y0.0618
X0.193 Y0.0726
X0.2367 Y0.0801
G2 X0.4138 Y0.0914 I0.1849 J-1.503
X0.6425 Y0.0936 I0.2748 J-17.4302
G3 X0.6898 Y0.0994 I-0.0075 J0.2559
G1 X0.7079 Y0.1058
X0.7249 Y0.1148
X0.7478 Y0.1292
X0.7519 Y0.1317
G3 X0.7684 Y0.1565 Z0.6282 I-0.0204 J0.0314
X0.7629 Y0.1835 Z0.632 I-0.0369 J0.0066 F300.
X0.7366 Y0.2003 I-0.0315 J-0.0204
G1 X0.3206 Y0.2185
X0.19 Y0.2036
X0.1183 Y0.1864
X0.0433 Y0.1607
X-0.0166 Y0.1288
X-0.0688 Y0.0914
X-0.1248 Y0.0353
X-0.1713 Y-0.032
X-0.1989 Y-0.0993
X-0.2179 Y-0.1778
X-0.2406 Y-0.7276
G3 X-0.1655 Y-0.794 I0.0621 J-0.0055
X-0.1403 Y-0.7823 Z0.6282 I-0.0131 J0.0609
G1 X-0.1402 Y-0.782
X-0.1214 Y-0.7578 Z0.624 F160.
X-0.1183 Y-0.75
X-0.1178 Y-0.7489
X-0.112 Y-0.7388
G3 X-0.0878 Y-0.6519 I-0.2332 J0.1119
X-0.0772 Y-0.5299 I-0.923 J0.1415
X-0.0746 Y-0.3081 I-6.2127 J0.183
G1 X-0.0735 Y-0.2637
X-0.0692 Y-0.2196
X-0.0595 Y-0.1763
X-0.0438 Y-0.1348
X-0.0221 Y-0.0961
X0.0051 Y-0.061
X0.0371 Y-0.0302
X0.0729 Y-0.0041
X0.1118 Y0.0173
X0.1528 Y0.0342
X0.1953 Y0.0471
X0.2387 Y0.0564
G2 X0.4153 Y0.0718 I0.1928 J-1.193
X0.6102 Y0.0748 I0.2891 J-12.5956
G3 X0.6718 Y0.0843 I-0.0023 J0.2191
G1 X0.6858 Y0.0906
X0.6989 Y0.0983
X0.7028 Y0.1009
X0.7249 Y0.1148
G3 X0.7409 Y0.1399 Z0.6282 I-0.021 J0.031
X0.7349 Y0.1669 Z0.632 I-0.037 J0.0059 F300.
X0.7028 Y0.1833 I-0.0311 J-0.021
G1 X0.2757 Y0.1936
X0.1857 Y0.1795
X0.0833 Y0.1475
X0.0171 Y0.1127
X-0.0166 Y0.0909
X-0.0953 Y0.0215
X-0.1431 Y-0.0432
X-0.1745 Y-0.1105
X-0.196 Y-0.1891
X-0.2274 Y-0.7051
G3 X-0.1605 Y-0.7683 I0.0623 J-0.001
X-0.1337 Y-0.76 Z0.6282 I-0.0046 J0.0621
X-0.1178 Y-0.7467 Z0.6253 I-0.0313 J0.0538 F160.
G1 X-0.112 Y-0.7388 Z0.624
X-0.1056 Y-0.7276
X-0.099 Y-0.7163
X-0.0984 Y-0.7154
G3 X-0.0724 Y-0.6332 I-0.2119 J0.1122
X-0.0592 Y-0.5033 I-0.8476 J0.1516
G1 X-0.0575 Y-0.4589
X-0.0567 Y-0.4146
X-0.0557 Y-0.3258
X-0.054 Y-0.2815
X-0.0484 Y-0.2375
X-0.0376 Y-0.1944
X-0.0209 Y-0.1533
X0.0016 Y-0.115
X0.0293 Y-0.0804
X0.0616 Y-0.05
X0.0977 Y-0.0241
X0.1366 Y-0.0028
X0.1776 Y0.0142
X0.22 Y0.0272
X0.2634 Y0.0367
G2 X0.44 Y0.0527 I0.197 J-1.1892
G1 X0.4843 Y0.054
X0.5646 Y0.0554
G3 X0.6389 Y0.0633 I0.001 J0.3437
G1 X0.6552 Y0.0695
X0.6707 Y0.0777
X0.6849 Y0.0879
G3 X0.6975 Y0.1148 Z0.6282 I-0.0248 J0.0281
X0.6916 Y0.1362 Z0.6312 I-0.0375 J0.0011 F300.
G1 Y0.1363
X0.6899 Y0.1386 Z0.6316
X0.6882 Y0.1408 Z0.632
G3 X0.6803 Y0.1475 I-0.0281 J-0.0248
G1 X0.6579 Y0.1536
X0.3881 Y0.1816
X0.2307 Y0.1643
X0.1295 Y0.1353
X0.0359 Y0.0914
X-0.0289 Y0.043
X-0.0909 Y-0.0208
X-0.1431 Y-0.1072
X-0.1631 Y-0.1614
X-0.1749 Y-0.2115
X-0.2116 Y-0.6715
G3 X-0.1481 Y-0.7427 I0.0617 J-0.0089
X-0.121 Y-0.7356 Z0.6282 I-0.0019 J0.0623
X-0.0984 Y-0.7154 Z0.624 I-0.0289 J0.0552 F160.
G1 X-0.0841 Y-0.6926
G3 X-0.0562 Y-0.6112 I-0.208 J0.1167
X-0.0423 Y-0.4976 I-0.7367 J0.1476
G1 X-0.04 Y-0.4566
X-0.0386 Y-0.4123
X-0.0378 Y-0.3679
X-0.0362 Y-0.3236
X-0.0319 Y-0.2794
X-0.0231 Y-0.2359
X-0.0087 Y-0.1939
X0.0114 Y-0.1543
X0.0368 Y-0.118
X0.067 Y-0.0855
X0.1013 Y-0.0573
X0.1389 Y-0.0337
X0.1788 Y-0.0145
X0.2206 Y0.0006
X0.2635 Y0.012
G2 X0.4395 Y0.0327 I0.2046 J-0.9842
G3 X0.5656 Y0.0374 I-0.2293 J7.7307
X0.6231 Y0.0472 I-0.0151 J0.2639
G1 X0.6391 Y0.054
X0.654 Y0.0629
X0.6677 Y0.0736
X0.6691 Y0.0749
X0.6849 Y0.0879
G3 X0.6975 Y0.1148 Z0.6282 I-0.0248 J0.0281
X0.6916 Y0.1362 Z0.6312 I-0.0375 J0.0011 F300.
G1 Y0.1363
X0.6899 Y0.1386 Z0.6316
X0.6882 Y0.1408 Z0.632
G3 X0.6803 Y0.1475 I-0.0281 J-0.0248
G1 X0.6579 Y0.1534
X0.3431 Y0.1575
X0.2419 Y0.1398
X0.152 Y0.1134
X0.0766 Y0.0802
X0.0171 Y0.0423
X-0.0395 Y-0.0096
X-0.0994 Y-0.0881
X-0.1331 Y-0.1554
X-0.1509 Y-0.2101
X-0.1614 Y-0.2676
X-0.1973 Y-0.649
G3 X-0.1338 Y-0.7199 I0.0617 J-0.0085
X-0.1068 Y-0.7128 Z0.6282 I-0.0018 J0.0623
X-0.0954 Y-0.7051 Z0.6263 I-0.0289 J0.0552 F160.
G1 X-0.0841 Y-0.6926 Z0.624
X-0.0708 Y-0.6715
X-0.0695 Y-0.6696
G3 X-0.0406 Y-0.5929 I-0.1849 J0.1134
X-0.024 Y-0.4662 I-0.7168 J0.1587
G1 X-0.0213 Y-0.4219
X-0.0195 Y-0.3776
X-0.0168 Y-0.3333
X-0.0107 Y-0.2893
X0. Y-0.2463
X0.0162 Y-0.205
X0.0379 Y-0.1662
X0.0647 Y-0.1309
X0.096 Y-0.0995
X0.1312 Y-0.0724
X0.1693 Y-0.0497
X0.2097 Y-0.0312
X0.2516 Y-0.0168
X0.2946 Y-0.0058
G2 X0.4708 Y0.014 I0.2068 J-1.046
G3 X0.5763 Y0.0222 I-0.018 J0.9073
X0.6537 Y0.06 I-0.0196 J0.1384
G1 X0.6625 Y0.069
X0.6677 Y0.0736
G3 X0.6791 Y0.1011 Z0.6282 I-0.0261 J0.0269
X0.6686 Y0.1266 Z0.632 I-0.0375 J-0.0006 F300.
X0.6466 Y0.1377 I-0.027 J-0.0261
G1 X0.3206 Y0.1329
X0.2307 Y0.1121
X0.1408 Y0.0806
X0.0767 Y0.0465
X0.0283 Y0.0124
X-0.0316 Y-0.0432
X-0.0735 Y-0.0993
X-0.1127 Y-0.1778
X-0.1374 Y-0.2564
X-0.1816 Y-0.6266
G3 X-0.1203 Y-0.6948 I0.062 J-0.0059
X-0.093 Y-0.6888 Z0.6282 I0.0008 J0.0623
X-0.0695 Y-0.6696 Z0.624 I-0.0266 J0.0564 F160.
G1 X-0.0631 Y-0.6603
X-0.0616 Y-0.6582
X-0.0583 Y-0.6544
G3 X-0.0295 Y-0.5927 I-0.1321 J0.0993
X-0.0098 Y-0.4865 I-0.5197 J0.1512
G1 X-0.0068 Y-0.4585
X-0.0035 Y-0.4143
X-0.0002 Y-0.37
X0.0053 Y-0.326
X0.0148 Y-0.2827
X0.0295 Y-0.2408
X0.0495 Y-0.2012
X0.0746 Y-0.1646
X0.1043 Y-0.1317
X0.1381 Y-0.1029
X0.1751 Y-0.0784
X0.2147 Y-0.0583
X0.256 Y-0.0422
X0.2986 Y-0.0298
X0.342 Y-0.0205
X0.3859 Y-0.0138
X0.43 Y-0.0091
X0.5049 Y-0.0034
G3 X0.5905 Y0.0119 I-0.0212 J0.3664
G1 X0.6067 Y0.0199
X0.6218 Y0.0299
X0.6354 Y0.0418
X0.6536 Y0.0601
G3 X0.6636 Y0.0882 Z0.6282 I-0.0274 J0.0256
X0.6518 Y0.1131 Z0.632 I-0.0374 J-0.0025 F300.
X0.6241 Y0.1231 I-0.0256 J-0.0274
G1 X0.3319 Y0.1116
X0.207 Y0.0782
X0.1408 Y0.0506
X0.0845 Y0.0171
X0.0171 Y-0.0348
X-0.0357 Y-0.0952
X-0.0847 Y-0.1778
X-0.1066 Y-0.2371
X-0.1659 Y-0.6042
G3 X-0.1115 Y-0.674 I0.0618 J-0.0079
X-0.0837 Y-0.671 Z0.6282 I0.0074 J0.0619
X-0.0583 Y-0.6544 Z0.624 I-0.0204 J0.0589 F160.
G1 X-0.0537 Y-0.649
X-0.0451 Y-0.6393
G3 X-0.0125 Y-0.5719 I-0.1373 J0.1078
X0.0063 Y-0.4807 I-0.4862 J0.1478
G1 X0.012 Y-0.4367
X0.0166 Y-0.3926
X0.0229 Y-0.3487
X0.033 Y-0.3055
X0.0478 Y-0.2636
X0.0678 Y-0.224
X0.0928 Y-0.1873
X0.1224 Y-0.1543
X0.1559 Y-0.1252
X0.1927 Y-0.1004
X0.232 Y-0.0799
X0.2732 Y-0.0634
X0.3157 Y-0.0506
X0.359 Y-0.0409
X0.4028 Y-0.0338
X0.4469 Y-0.0284
G3 X0.5473 Y-0.0146 I-0.0617 J0.8185
X0.6184 Y0.0241 I-0.0277 J0.1357
G1 X0.6289 Y0.0353
X0.6354 Y0.0418
G3 X0.6452 Y0.07 Z0.6282 I-0.0276 J0.0254
X0.6332 Y0.0948 Z0.632 I-0.0374 J-0.0027 F300.
X0.6017 Y0.1042 I-0.0254 J-0.0276
G1 X0.2981 Y0.08
X0.1964 Y0.0465
X0.1102 Y0.0017
X0.0621 Y-0.0345
X-0.0033 Y-0.0993
X-0.049 Y-0.1666
X-0.0804 Y-0.2339
X-0.1515 Y-0.5856
G3 X-0.0986 Y-0.658 I0.0614 J-0.0108
X-0.0707 Y-0.6555 Z0.6282 I0.0085 J0.0617
X-0.0451 Y-0.6393 Z0.624 I-0.0194 J0.0592 F160.
G1 X-0.0391 Y-0.6327
X-0.033 Y-0.6266
G3 X0.0016 Y-0.5616 I-0.1208 J0.1062
X0.0229 Y-0.4722 I-0.4732 J0.1598
G1 X0.03 Y-0.4284
X0.037 Y-0.3845
X0.0465 Y-0.3412
X0.0602 Y-0.299
X0.0788 Y-0.2587
X0.1023 Y-0.221
X0.1303 Y-0.1867
X0.1625 Y-0.1562
X0.1982 Y-0.1298
X0.2366 Y-0.1076
X0.2771 Y-0.0895
X0.3191 Y-0.0751
X0.3621 Y-0.064
G2 X0.4995 Y-0.0414 I0.4409 J-2.2506
G3 X0.5603 Y-0.0245 I-0.0516 J0.3032
G1 X0.5754 Y-0.016
X0.5893 Y-0.0056
X0.6018 Y0.0064
X0.6076 Y0.0129
X0.6183 Y0.0241
G3 X0.6276 Y0.0524 Z0.6282 I-0.028 J0.0249
X0.6152 Y0.0771 Z0.632 I-0.0373 J-0.0034 F300.
X0.5904 Y0.0865 I-0.0249 J-0.028
G1 X0.2722 Y0.0465
X0.1905 Y0.0129
X0.107 Y-0.0356
X0.0335 Y-0.0993
X-0.0166 Y-0.1653
X-0.0542 Y-0.2339
X-0.1369 Y-0.5705
G3 X-0.0876 Y-0.6422 I0.0614 J-0.0105
X-0.0596 Y-0.6413 Z0.6282 I0.012 J0.0611
X-0.0391 Y-0.6316 Z0.6251 I-0.0159 J0.0602 F160.
G1 X-0.033 Y-0.6266 Z0.624
X-0.0177 Y-0.6112
G3 X0.0181 Y-0.5456 I-0.1268 J0.1116
X0.0354 Y-0.4852 I-0.3956 J0.1457
G1 X0.0449 Y-0.4418
X0.0538 Y-0.3983
X0.065 Y-0.3554
X0.0801 Y-0.3137
X0.0997 Y-0.2739
X0.1241 Y-0.2368
X0.1529 Y-0.2031
X0.1857 Y-0.1732
X0.2217 Y-0.1473
X0.2604 Y-0.1255
X0.301 Y-0.1076
X0.343 Y-0.0934
X0.386 Y-0.0823
X0.4294 Y-0.0733
G3 X0.5219 Y-0.0531 I-0.1184 J0.764
X0.5977 Y0.0005 I-0.037 J0.1326
G1 X0.5998 Y0.0044 Z0.6246
X0.6014 Y0.0085 Z0.6252
X0.6026 Y0.0127 Z0.6258
X0.6032 Y0.0171 Z0.6264
X0.6034 Y0.0214 Z0.627
X0.603 Y0.0258 Z0.6276
X0.6021 Y0.0301 Z0.6282
G3 X0.5858 Y0.0523 Z0.632 I-0.0363 J-0.0095 F300.
X0.5611 Y0.0577 I-0.0199 J-0.0318
G1 X0.3094 Y0.0316
X0.2194 Y-0.0004
X0.1381 Y-0.0478
X0.0862 Y-0.0881
X0.0283 Y-0.1479
X-0.0142 Y-0.2115
X-0.0466 Y-0.2788
X-0.1199 Y-0.5481
G3 X-0.0722 Y-0.6268 I0.0598 J-0.0176
X-0.0442 Y-0.6259 Z0.6282 I0.012 J0.0611
X-0.0177 Y-0.6112 Z0.624 I-0.0159 J0.0602 F160.
G1 X-0.0054 Y-0.5989
X-0.002 Y-0.5956
G3 X0.0352 Y-0.5292 I-0.1316 J0.1174
X0.0558 Y-0.4642 I-0.5078 J0.1969
G1 X0.0671 Y-0.4213
X0.0795 Y-0.3787
X0.0952 Y-0.3372
X0.1151 Y-0.2975
X0.1394 Y-0.2604
X0.168 Y-0.2265
X0.2005 Y-0.1963
X0.2362 Y-0.17
X0.2746 Y-0.1477
X0.315 Y-0.1293
X0.3568 Y-0.1144
X0.3995 Y-0.1022
X0.4674 Y-0.0858
G3 X0.5448 Y-0.0577 I-0.067 J0.3053
G1 X0.5594 Y-0.0468
X0.5726 Y-0.0341
X0.5838 Y-0.0198
X0.5976 Y0.0006
G3 X0.6021 Y0.0301 Z0.6282 I-0.0318 J0.0199
X0.5858 Y0.0523 Z0.632 I-0.0363 J-0.0095 F300.
X0.5567 Y0.0569 I-0.0199 J-0.0318
G1 X0.2635 Y-0.0096
X0.2068 Y-0.0365
X0.1295 Y-0.0866
X0.0733 Y-0.1367
X0.024 Y-0.2003
X0.0024 Y-0.2339
X-0.1016 Y-0.5256
G3 X-0.0567 Y-0.6108 I0.0575 J-0.0241
X-0.0287 Y-0.6101 Z0.6282 I0.0125 J0.061
X-0.002 Y-0.5956 Z0.624 I-0.0155 J0.0604 F160.
G1 X0.0007 Y-0.5929
X0.0116 Y-0.583
G3 X0.0486 Y-0.5243 I-0.1187 J0.1158
X0.0716 Y-0.4639 I-0.4765 J0.2158
G1 X0.0854 Y-0.4217
X0.1006 Y-0.38
X0.1191 Y-0.3396
X0.1414 Y-0.3013
X0.168 Y-0.2658
X0.1986 Y-0.2336
X0.2326 Y-0.2051
X0.2695 Y-0.1805
X0.3087 Y-0.1596
X0.3495 Y-0.1423
X0.3915 Y-0.1278
G3 X0.494 Y-0.0964 I-0.5068 J1.8363
X0.55 Y-0.0648 I-0.0604 J0.1727
G1 X0.5621 Y-0.052
X0.5725 Y-0.0377
X0.5831 Y-0.0208
X0.5838 Y-0.0198
G3 X0.5883 Y0.0097 Z0.6282 I-0.0318 J0.0199
X0.5719 Y0.0319 Z0.632 I-0.0363 J-0.0096 F300.
X0.5454 Y0.037 I-0.0199 J-0.0318
G1 X0.2503 Y-0.0432
X0.1828 Y-0.0815
X0.1295 Y-0.122
X0.0702 Y-0.182
X0.0297 Y-0.2339
X-0.0872 Y-0.5144
G3 X-0.0436 Y-0.5959 I0.0586 J-0.021
X-0.0156 Y-0.5964 Z0.6282 I0.015 J0.0605
X0.0116 Y-0.583 Z0.624 I-0.013 J0.0609 F160.
G1 X0.0171 Y-0.5781
X0.0259 Y-0.5705
X0.0272 Y-0.5695
G3 X0.053 Y-0.5367 I-0.0727 J0.0835
X0.082 Y-0.4768 I-0.3718 J0.2171
G1 X0.0988 Y-0.4358
X0.116 Y-0.3948
X0.1359 Y-0.3552
X0.1595 Y-0.3176
X0.1869 Y-0.2827
X0.2179 Y-0.251
X0.2523 Y-0.2229
X0.2893 Y-0.1985
X0.3285 Y-0.1777
X0.3692 Y-0.16
X0.4109 Y-0.1447
G3 X0.5007 Y-0.1109 I-0.2245 J0.7323
X0.5597 Y-0.0585 I-0.0567 J0.1233
G1 X0.562 Y-0.0544
X0.5725 Y-0.0377
G3 X0.576 Y-0.0081 Z0.6282 I-0.0324 J0.0188
X0.5589 Y0.0136 Z0.632 I-0.0359 J-0.0108 F300.
X0.5342 Y0.0182 I-0.0189 J-0.0324
G1 X0.2307 Y-0.0818
X0.152 Y-0.1363
X0.0845 Y-0.2023
X0.0445 Y-0.2564
X-0.0643 Y-0.492
G3 X-0.0291 Y-0.5764 I0.0567 J-0.0259
X-0.0013 Y-0.5799 Z0.6282 I0.0214 J0.0585
X0.0272 Y-0.5695 Z0.624 I-0.0064 J0.062 F160.
G1 X0.0283 Y-0.5687
X0.0371 Y-0.5627
G3 X0.0763 Y-0.5144 I-0.0911 J0.1139
G1 X0.0815 Y-0.506
X0.0878 Y-0.4945
X0.0964 Y-0.4781
X0.116 Y-0.4383
X0.1359 Y-0.3987
X0.1582 Y-0.3604
X0.1839 Y-0.3241
X0.213 Y-0.2907
X0.2455 Y-0.2604
X0.2809 Y-0.2336
X0.3186 Y-0.2103
X0.3581 Y-0.1901
X0.3988 Y-0.1724
G3 X0.4913 Y-0.1328 I-0.3176 J0.8712
X0.5455 Y-0.0821 I-0.0645 J0.1232
G1 X0.5596 Y-0.0584
G3 X0.5625 Y-0.0288 Z0.6282 I-0.0328 J0.0181
X0.545 Y-0.0075 Z0.632 I-0.0357 J-0.0115 F300.
X0.5117 Y-0.0059 I-0.0182 J-0.0328
G1 X0.2499 Y-0.0993
X0.1632 Y-0.1589
X0.0887 Y-0.2339
X-0.0504 Y-0.4792
G3 X-0.0193 Y-0.568 I0.0541 J-0.0309
X0.0083 Y-0.5722 Z0.6282 I0.0231 J0.0579
X0.0371 Y-0.5627 Z0.624 I-0.0046 J0.0621 F160.
G1 X0.0396 Y-0.561
X0.05 Y-0.5544
G3 X0.0924 Y-0.5075 I-0.0915 J0.1254
X0.1519 Y-0.4089 I-1.0883 J0.7235
G1 X0.1762 Y-0.3717
X0.2034 Y-0.3366
X0.2336 Y-0.3042
X0.2668 Y-0.2747
X0.3026 Y-0.2485
X0.3405 Y-0.2254
G2 X0.4562 Y-0.1698 I0.8471 J-1.6122
G3 X0.5075 Y-0.1378 I-0.1221 J0.253
G1 X0.52 Y-0.1249
X0.5307 Y-0.1104
X0.5394 Y-0.0946
G3 X0.539 Y-0.0648 Z0.6282 I-0.0346 J0.0144
X0.5192 Y-0.0455 Z0.632 I-0.0342 J-0.0153 F300.
X0.4981 Y-0.0432 I-0.0145 J-0.0346
G1 X0.2757 Y-0.1128
X0.2091 Y-0.1554
X0.152 Y-0.2022
X0.1183 Y-0.2452
X-0.0355 Y-0.4695
G3 X-0.0066 Y-0.5577 I0.054 J-0.0311
X0.0209 Y-0.5629 Z0.6282 I0.025 J0.0571
X0.0395 Y-0.5593 Z0.6256 I-0.0025 J0.0623 F160.
G1 X0.05 Y-0.5544 Z0.624
X0.0678 Y-0.5431
G3 X0.116 Y-0.4926 I-0.1156 J0.1583
G1 X0.1241 Y-0.482
X0.1495 Y-0.4456
X0.1745 Y-0.4089
X0.2012 Y-0.3735
X0.2304 Y-0.3401
X0.2624 Y-0.3093
X0.2969 Y-0.2814
X0.3336 Y-0.2565
G2 X0.4507 Y-0.1931 I0.9014 J-1.5264
G3 X0.5026 Y-0.1571 I-0.1381 J0.2544
G1 X0.5149 Y-0.1429
X0.5252 Y-0.1272
X0.5331 Y-0.1102
X0.5372 Y-0.0993
X0.5394 Y-0.0946
G3 X0.539 Y-0.0648 Z0.6282 I-0.0346 J0.0144
X0.5192 Y-0.0455 Z0.632 I-0.0342 J-0.0153 F300.
G1 X0.5155 Y-0.0442
X0.5117 Y-0.0433
X0.4892 Y-0.046
X0.2082 Y-0.1844
X0.1674 Y-0.2227
X-0.0093 Y-0.4471
G3 X0.0112 Y-0.5462 I0.0459 J-0.0422
X0.0387 Y-0.5515 Z0.6282 I0.0253 J0.0569
X0.0678 Y-0.5431 Z0.624 I-0.0021 J0.0623 F160.
G1 X0.0845 Y-0.5326
X0.0864 Y-0.5315
G3 X0.1399 Y-0.4804 I-0.1255 J0.185
G1 X0.1599 Y-0.4567
X0.1873 Y-0.4218
X0.2157 Y-0.3876
X0.246 Y-0.3553
X0.2787 Y-0.3252
X0.3136 Y-0.2978
X0.3502 Y-0.2728
X0.3882 Y-0.2498
G3 X0.4691 Y-0.2015 I-0.445 J0.8373
X0.5257 Y-0.1316 I-0.0783 J0.1213
G1 X0.529 Y-0.1218
X0.5331 Y-0.1102
G3 X0.5306 Y-0.0805 Z0.6282 I-0.0355 J0.012
X0.5096 Y-0.0627 Z0.632 I-0.0331 J-0.0177 F300.
X0.4789 Y-0.0657 I-0.0121 J-0.0355
G1 X0.2082 Y-0.215
X0.1632 Y-0.2613
X0.0098 Y-0.4359
G3 X0.0297 Y-0.5328 I0.0471 J-0.0408
X0.057 Y-0.539 Z0.6282 I0.0271 J0.0561
X0.0864 Y-0.5315 Z0.624 I-0.0002 J0.0623 F160.
G1 X0.0965 Y-0.5256
X0.1097 Y-0.518
G3 X0.1623 Y-0.473 I-0.1411 J0.2177
G1 X0.193 Y-0.4409
X0.2229 Y-0.4081
G2 X0.3579 Y-0.2936 I0.5322 J-0.4905
G3 X0.4505 Y-0.2348 I-2.5561 J4.1234
X0.5015 Y-0.1878 I-0.1118 J0.1724
G1 X0.5099 Y-0.173
X0.5165 Y-0.1573
X0.5255 Y-0.1315
G3 X0.5224 Y-0.1019 Z0.6282 I-0.0358 J0.0111
X0.5009 Y-0.0846 Z0.632 I-0.0326 J-0.0185 F300.
X0.4668 Y-0.0907 I-0.0112 J-0.0358
G1 X0.0428 Y-0.4134
G3 X0.053 Y-0.5189 I0.0378 J-0.0495
X0.0803 Y-0.5253 Z0.6282 I0.0275 J0.0559
X0.1097 Y-0.518 Z0.624 I0.0002 J0.0623 F160.
G1 X0.116 Y-0.5144
X0.1183 Y-0.5133
X0.124 Y-0.511
G3 X0.1847 Y-0.4675 I-0.0997 J0.2029
G1 X0.2075 Y-0.4471
X0.2395 Y-0.4164
G2 X0.3778 Y-0.3054 I0.6792 J-0.7047
G3 X0.4647 Y-0.2445 I-0.518 J0.8314
X0.5031 Y-0.195 I-0.0896 J0.1092
G1 X0.5093 Y-0.1782
X0.5165 Y-0.1573
G3 X0.5143 Y-0.1276 Z0.6282 I-0.0354 J0.0123
X0.4935 Y-0.1096 Z0.632 I-0.0332 J-0.0174 F300.
X0.4565 Y-0.1167 I-0.0124 J-0.0354
G1 X0.0746 Y-0.4485
G3 X0.0699 Y-0.5003 I0.0246 J-0.0283
X0.0933 Y-0.5139 Z0.6283 I0.0293 J0.0234
G1 X0.0939 Y-0.514 Z0.6282
G3 X0.124 Y-0.511 Z0.624 I0.0092 J0.0616 F160.
G1 X0.1438 Y-0.5032
X0.1462 Y-0.5023
G3 X0.2135 Y-0.4588 I-0.1073 J0.2399
G1 X0.2482 Y-0.4312
G2 X0.4165 Y-0.3028 I1.0904 J-1.2558
G3 X0.4702 Y-0.2589 I-0.2794 J0.3967
X0.5048 Y-0.195 I-0.0943 J0.0924
X0.4981 Y-0.166 Z0.6282 I-0.0369 J0.0067
X0.4746 Y-0.1514 Z0.632 I-0.0301 J-0.0223 F300.
X0.4439 Y-0.1595 I-0.0067 J-0.0369
G1 X0.1105 Y-0.4379
G3 X0.0989 Y-0.4784 I0.024 J-0.0288
X0.1166 Y-0.4996 Z0.6282 I0.0356 J0.0118
X0.1462 Y-0.5023 Z0.624 I0.0179 J0.0329 F160.
G1 X0.152 Y-0.5001
X0.1722 Y-0.4931
G3 X0.2362 Y-0.4572 I-0.1074 J0.2664
G1 X0.2563 Y-0.4432
G2 X0.4306 Y-0.3147 I10.3684 J-13.8848
G3 X0.4758 Y-0.2715 I-0.2049 J0.2591
X0.5018 Y-0.2115 I-0.1123 J0.0843
G1 X0.5037 Y-0.2003
X0.5048 Y-0.195
G3 X0.4981 Y-0.166 Z0.6282 I-0.0369 J0.0067
X0.4746 Y-0.1514 Z0.632 I-0.0301 J-0.0223 F300.
X0.4432 Y-0.1601 I-0.0067 J-0.0369
G1 X0.1363 Y-0.4291
G3 X0.1253 Y-0.4684 I0.0247 J-0.0282
X0.1426 Y-0.4899 Z0.6282 I0.0358 J0.0112
X0.1722 Y-0.4931 Z0.624 I0.0185 J0.0326 F160.
G1 X0.1857 Y-0.4884
X0.2082 Y-0.4808
G3 X0.2889 Y-0.4369 I-0.1461 J0.3653
X0.439 Y-0.3291 I-0.8845 J1.3899
X0.4811 Y-0.2828 I-0.1678 J0.1946
G1 X0.4896 Y-0.2661
X0.4958 Y-0.2485
X0.4995 Y-0.2301
X0.5018 Y-0.2115
G3 X0.4924 Y-0.1832 Z0.6282 I-0.0374 J0.0033
X0.4677 Y-0.1709 Z0.632 I-0.028 J-0.025 F300.
X0.4395 Y-0.1801 I-0.0033 J-0.0374
G1 X0.1725 Y-0.4168
G3 X0.1615 Y-0.4557 I0.0249 J-0.0281
X0.1786 Y-0.4773 Z0.6282 I0.0359 J0.0108
X0.2082 Y-0.4808 Z0.624 I0.0188 J0.0325 F160.
G1 X0.2194 Y-0.478
X0.2284 Y-0.476
G3 X0.3144 Y-0.4367 I-0.0851 J0.2995
X0.4505 Y-0.3389 I-0.3724 J0.662
X0.4878 Y-0.2873 I-0.1186 J0.1251
G1 X0.4936 Y-0.2698
X0.497 Y-0.2516
G3 X0.4873 Y-0.2234 Z0.6282 I-0.0374 J0.0029
X0.4625 Y-0.2113 Z0.632 I-0.0277 J-0.0253 F300.
X0.4361 Y-0.2194 I-0.0029 J-0.0374
G1 X0.1984 Y-0.4099
G3 X0.1849 Y-0.4457 I0.0234 J-0.0293
X0.1994 Y-0.4692 Z0.6282 I0.0369 J0.0066
X0.2284 Y-0.476 Z0.624 I0.0224 J0.0301 F160.
G1 X0.2419 Y-0.4732
X0.2496 Y-0.4723
G3 X0.3314 Y-0.4415 I-0.0441 J0.2404
X0.4594 Y-0.3492 I-0.2294 J0.4534
X0.4924 Y-0.287 I-0.1028 J0.0943
G1 X0.4948 Y-0.2712
G3 X0.4846 Y-0.2432 Z0.6282 I-0.0374 J0.0022
X0.4596 Y-0.2315 Z0.632 I-0.0272 J-0.0258 F300.
X0.4342 Y-0.2395 I-0.0023 J-0.0374
G1 X0.2234 Y-0.4055
G3 X0.2093 Y-0.438 I0.0232 J-0.0295
X0.2214 Y-0.4627 Z0.6282 I0.0374 J0.003
X0.2496 Y-0.4723 Z0.624 I0.0252 J0.0278 F160.
G1 X0.2757 Y-0.4694
X0.2791 Y-0.469
G3 X0.3636 Y-0.4379 I-0.0414 J0.2427
X0.4617 Y-0.3648 I-0.1663 J0.3257
X0.4931 Y-0.2907 I-0.1008 J0.0864
G1 X0.493 Y-0.2864 Z0.6246
X0.4925 Y-0.282 Z0.6252
X0.4915 Y-0.2778 Z0.6258
X0.4899 Y-0.2737 Z0.6264
X0.4879 Y-0.2698 Z0.627
X0.4855 Y-0.2661 Z0.6276
X0.4827 Y-0.2628 Z0.6282
G3 X0.4576 Y-0.2513 Z0.632 I-0.0271 J-0.0259 F300.
X0.4322 Y-0.2594 I-0.002 J-0.0374
G1 X0.2528 Y-0.4023
G3 X0.2388 Y-0.4345 I0.0234 J-0.0293
X0.2509 Y-0.4593 Z0.6282 I0.0374 J0.0029
X0.2791 Y-0.469 Z0.624 I0.0253 J0.0277 F160.
G1 X0.2981 Y-0.4668
X0.3094 Y-0.4658
G3 X0.3925 Y-0.4349 I-0.0317 J0.2132
X0.4687 Y-0.3731 I-0.1181 J0.2234
G1 X0.4785 Y-0.3566
X0.4859 Y-0.339
X0.4905 Y-0.3203
X0.4921 Y-0.3013
G3 X0.4816 Y-0.2734 Z0.6282 I-0.0375 J0.0019
X0.4565 Y-0.2619 Z0.632 I-0.027 J-0.026 F300.
X0.4299 Y-0.2712 I-0.0019 J-0.0375
G1 X0.2834 Y-0.4001
G3 X0.2707 Y-0.4295 I0.0248 J-0.0282
X0.2817 Y-0.4548 Z0.6282 I0.0375 J0.0012
X0.3094 Y-0.4658 Z0.624 I0.0265 J0.0265 F160.
G1 X0.3319 Y-0.4642
X0.3337
G3 X0.412 Y-0.4361 I-0.0194 J0.1774
X0.4735 Y-0.3804 I-0.0797 J0.1497
X0.492 Y-0.3135 I-0.1157 J0.068
G1 X0.4916 Y-0.3092 Z0.6246
X0.4907 Y-0.3049 Z0.6252
X0.4893 Y-0.3007 Z0.6258
X0.4875 Y-0.2968 Z0.6264
X0.4852 Y-0.2931 Z0.627
X0.4824 Y-0.2897 Z0.6276
X0.4793 Y-0.2866 Z0.6282
G3 X0.4534 Y-0.2772 Z0.632 I-0.0248 J-0.0281 F300.
X0.429 Y-0.2872 I0.0012 J-0.0375
G1 X0.3084 Y-0.3992
G3 X0.2965 Y-0.4265 I0.0255 J-0.0275
X0.3065 Y-0.4522 Z0.6282 I0.0375 J-0.0002
X0.3337 Y-0.4642 Z0.624 I0.0275 J0.0255 F160.
G1 X0.3431 Y-0.4639
X0.3521
G3 X0.4303 Y-0.4366 I-0.0082 J0.1493
X0.4917 Y-0.3362 I-0.0663 J0.1095
G1 Y-0.3319 Z0.6246
X0.4911 Y-0.3275 Z0.6252
X0.49 Y-0.3233 Z0.6258
X0.4885 Y-0.3192 Z0.6264
X0.4865 Y-0.3153 Z0.627
X0.484 Y-0.3117 Z0.6276
X0.4811 Y-0.3084 Z0.6282
G3 X0.456 Y-0.2972 Z0.632 I-0.0268 J-0.0262 F300.
X0.4291 Y-0.3069 I-0.0016 J-0.0375
G1 X0.3281 Y-0.3987
G3 X0.3159 Y-0.4252 I0.0252 J-0.0277
X0.3252 Y-0.4511 Z0.6282 I0.0375 J-0.0013
X0.3521 Y-0.4639 Z0.624 I0.0282 J0.0247 F160.
G1 X0.3656
X0.3768 Y-0.4633
X0.383 Y-0.4627
G3 X0.4526 Y-0.4297 I-0.0136 J0.1186
X0.4908 Y-0.3492 I-0.0869 J0.0905
X0.4802 Y-0.3214 Z0.6282 I-0.0375 J0.0017
X0.4551 Y-0.3101 Z0.632 I-0.0269 J-0.0262 F300.
X0.4259 Y-0.3219 I-0.0017 J-0.0375
G1 X0.3533 Y-0.3997
G3 X0.3432 Y-0.4277 I0.0274 J-0.0256
X0.355 Y-0.4526 Z0.6282 I0.0374 J0.0024
X0.383 Y-0.4627 Z0.624 I0.0257 J0.0273 F160.
X0.4249 Y-0.4542 I-0.0029 J0.1213
G1 X0.4263 Y-0.4536
X0.4274 Y-0.4532
X0.4412 Y-0.4454
G3 X0.4572 Y-0.4202 Z0.6282 I-0.0211 J0.031
X0.4512 Y-0.3933 Z0.632 I-0.037 J0.0059 F300.
X0.3974 Y-0.3846 I-0.0311 J-0.021
G1 X0.3934 Y-0.3876
G3 X0.3804 Y-0.4287 I0.0228 J-0.0298
X0.3978 Y-0.4501 Z0.6282 I0.0358 J0.0113
X0.4274 Y-0.4532 Z0.624 I0.0184 J0.0327 F160.
G1 X0.433 Y-0.4505
X0.4443 Y-0.4435
G3 X0.4893 Y-0.3686 I-0.0577 J0.0857
G1 X0.4919 Y-0.3349
G2 X0.4995 Y-0.2319 I0.6219 J0.0062
G1 Y-0.2301
G3 X0.4901 Y-0.2018 Z0.6282 I-0.0374 J0.0033
X0.4654 Y-0.1895 Z0.632 I-0.028 J-0.025 F300.
X0.4443 Y-0.1938 I-0.0033 J-0.0374
G1 X-0.0504 Y-0.4642
X-0.1403 Y-0.5501
X-0.1853 Y-0.6094
X-0.2302 Y-0.6834
X-0.2651 Y-0.7724
X-0.2868 Y-0.851
X-0.2977 Y-0.9744
X-0.2956 Y-1.1875
X-0.2666 Y-1.4007
X-0.2412 Y-1.5017
X-0.2145 Y-1.569
X-0.1807 Y-1.6251
X-0.1175 Y-1.6924
X-0.0616 Y-1.7325
X-0.0028 Y-1.7597
X0.197 Y-1.7908
G3 X0.2634 Y-1.7107 I0.0069 J0.0619
X0.2494 Y-1.6864 Z0.6282 I-0.0596 J-0.0182
X0.2307 Y-1.6727 Z0.625 I-0.0456 J-0.0424 F160.
G1 X0.224 Y-1.6699 Z0.624
G2 X0.1838 Y-1.6573 I0.3532 J1.1958
G1 X0.1747 Y-1.6541
X0.169 Y-1.6523
X0.163 Y-1.6505
X0.1201 Y-1.6391
X0.0777 Y-1.626
X0.0378 Y-1.6067
X0.0014 Y-1.5813
X-0.0305 Y-1.5505
X-0.0575 Y-1.5152
X-0.0792 Y-1.4766
X-0.0961 Y-1.4355
X-0.1079 Y-1.3947
X-0.1102 Y-1.3877
X-0.1128 Y-1.3808
X-0.1158 Y-1.3742
X-0.1248 Y-1.3558
X-0.129 Y-1.3451
X-0.133 Y-1.3334
X-0.1466 Y-1.2885
X-0.1499 Y-1.2771
G3 X-0.1696 Y-1.2548 Z0.6282 I-0.0356 J-0.0116
X-0.1971 Y-1.2531 Z0.632 I-0.0159 J-0.034 F300.
X-0.223 Y-1.2885 I0.0116 J-0.0357
G1 X-0.2334 Y-1.4231
X-0.2172 Y-1.4792
X-0.1826 Y-1.5599
X-0.129 Y-1.6349
X-0.0728 Y-1.6872
X0.1327 Y-1.7709
G3 X0.2195 Y-1.7014 I0.0258 J0.0567
X0.2077 Y-1.676 Z0.6282 I-0.061 J-0.0128
X0.1839 Y-1.6573 Z0.624 I-0.0492 J-0.0382 F160.
G1 X0.1745 Y-1.6535
X0.152 Y-1.6432
X0.1408 Y-1.6373
X0.1006 Y-1.6184
X0.0624 Y-1.5958
X0.0271 Y-1.5689
X-0.0043 Y-1.5375
G3 X-0.0179 Y-1.5201 I-0.2629 J-0.1916
X-0.0452 Y-1.5082 Z0.6282 I-0.0274 J-0.0256
X-0.0709 Y-1.5182 Z0.632 I-0.0001 J-0.0375 F300.
X-0.0677 Y-1.5758 I0.0256 J-0.0274
G1 X0.0996 Y-1.6998
G3 X0.1544 Y-1.6885 I0.0223 J0.0301
X0.1585 Y-1.6612 Z0.6282 I-0.0324 J0.0188
X0.1408 Y-1.6373 Z0.624 I-0.0365 J-0.0085 F160.
G2 X0.0779 Y-1.6027 I0.6669 J1.2886
X0.0084 Y-1.5465 I0.9554 J1.2504
X-0.0166 Y-1.5215 I0.0861 J0.1116
X-0.0777 Y-1.4457 I0.7428 J0.6605
X-0.1159 Y-1.3742 I2.5242 J1.3959
G1 X-0.1182 Y-1.3704
X-0.1209 Y-1.367
X-0.124 Y-1.3638
X-0.1274 Y-1.3611
X-0.1312 Y-1.3587
X-0.1352 Y-1.3569
X-0.1394 Y-1.3555
X-0.1437 Y-1.3543 Z0.6243
X-0.148 Y-1.3532 Z0.6251
X-0.1522 Y-1.3521 Z0.6265
X-0.1562 Y-1.351 Z0.6283
X-0.16 Y-1.35 Z0.6307
X-0.1634 Y-1.3491 Z0.6334
X-0.1665 Y-1.3483 Z0.6366
X-0.1692 Y-1.3476 Z0.6402
X-0.1715 Y-1.347 Z0.6441
X-0.1733 Y-1.3465 Z0.6482
X-0.1746 Y-1.3462 Z0.6525
X-0.1754 Y-1.3459 Z0.657
X-0.1756 Z0.6615
G0 Z2.1
(2D CONTOUR1)
G64 P0.0004 Q0.0004
G0 X-0.2711 Y-0.9612
Z2.1
Z1.7
G1 Z1.5394 F200.
Z0.6615
X-0.2709 Y-0.9613 Z0.657 F60.
X-0.2701 Z0.6525
X-0.2687 Y-0.9614 Z0.6482
X-0.2669 Y-0.9615 Z0.6441
X-0.2645 Y-0.9617 Z0.6402
X-0.2617 Y-0.9619 Z0.6366
X-0.2585 Y-0.9621 Z0.6334
X-0.255 Y-0.9624 Z0.6307
X-0.2511 Y-0.9627 Z0.6283
X-0.247 Y-0.9629 Z0.6265
X-0.2427 Y-0.9632 Z0.6251
X-0.2382 Y-0.9636 Z0.6243
X-0.2337 Y-0.9639 Z0.624
X-0.1963 Y-0.9665
G3 X-0.1563 Y-0.9318 I0.0026 J0.0374
G2 X0.3351 Y-0.4739 I0.4914 J-0.0348
G1 X0.3843
G3 X0.5019 Y-0.3563 I0. J0.1176
G1 Y-0.3071
G2 X0.9946 Y0.1855 I0.4926 J0.
G1 X2.7269
G2 X3.2195 Y-0.3071 I0. J-0.4926
G1 Y-0.3563
G3 X3.3371 Y-0.4739 I0.1176 J0.
G1 X3.3863
G2 X3.8789 Y-0.9665 I0. J-0.4926
G1 Y-1.1437
G2 X3.3371 Y-1.6855 I-0.5418 J0.
G1 X0.3843
G2 X-0.1575 Y-1.1437 I0. J0.5418
G1 Y-0.9665
G2 X0.3351 Y-0.4739 I0.4926 J0.
G1 X0.3843
G3 X0.5019 Y-0.3563 I0. J0.1176
G1 Y-0.3071
G2 X0.9946 Y0.1855 I0.4926 J0.
G1 X2.7269
G2 X3.2195 Y-0.3071 I0. J-0.4926
G1 Y-0.3563
G3 X3.3371 Y-0.4739 I0.1176 J0.
G1 X3.3863
G2 X3.8789 Y-0.9665 I0. J-0.4926
G1 Y-1.1437
G2 X3.3371 Y-1.6855 I-0.5418 J0.
G1 X0.3843
G2 X-0.1575 Y-1.1437 I0. J0.5418
G1 Y-0.9665
G2 X-0.1563 Y-0.9318 I0.4926 J0.
G3 X-0.191 Y-0.8917 I-0.0374 J0.0026
G1 X-0.2284 Y-0.8891
X-0.2329 Y-0.8887 Z0.6243
X-0.2374 Y-0.8884 Z0.6251
X-0.2417 Y-0.8881 Z0.6265
X-0.2458 Y-0.8878 Z0.6283
X-0.2497 Y-0.8876 Z0.6307
X-0.2532 Y-0.8873 Z0.6334
X-0.2564 Y-0.8871 Z0.6366
X-0.2592 Y-0.8869 Z0.6402
X-0.2616 Y-0.8867 Z0.6441
X-0.2634 Y-0.8866 Z0.6482
X-0.2648 Y-0.8865 Z0.6525
X-0.2656 Y-0.8864 Z0.657
X-0.2658 Z0.6615
G0 Z2.1
(2D CONTOUR1 3)
G0 X2.6894 Y0.308
Z2.1
Z1.7
G1 Z1.5394 F200.
Z0.5215
G19 G2 Y0.2705 Z0.484 J-0.0375 K0. F60.
G1 Y0.233
G17 G3 X2.7269 Y0.1955 I0.0375 J0.
G1 X3.3371
G2 X3.8889 Y-0.3563 I0. J-0.5518
G1 Y-0.9665
G3 X3.9264 Y-1.004 I0.0375 J0.
G1 X3.9639
G18 G2 X4.0014 Z0.5215 I0. K0.0375
G0 Z1.7
X-0.28
G1 Z1.5394 F200.
Z0.5215
G2 X-0.2425 Z0.484 I0.0375 K0. F60.
G1 X-0.205
G17 G3 X-0.1675 Y-0.9665 I0. J0.0375
G1 Y-0.3563
G2 X0.3843 Y0.1955 I0.5518 J0.
G1 X0.9946
G3 X1.0321 Y0.233 I0. J0.0375
G1 Y0.2705
G19 G3 Y0.308 Z0.5215 J0. K0.0375
G0 Z2.1
G17
(2D CONTOUR3)
G0 X1.8568 Y-1.0685
Z2.1
Z1.7
G1 Z1.5039 F80.
Z0.8716
X1.8571 Z0.8703 F20.
X1.8578 Z0.8691
X1.859 Z0.8684
X1.8603 Z0.8681
X1.8638
X1.8652 Y-1.0682
X1.8663 Y-1.0674
X1.8671 Y-1.0663
X1.8673 Y-1.065
G3 X1.8486 I-0.0094 J0.
X1.8673 I0.0094 J0.
X1.8486 I-0.0094 J0.
X1.8673 I0.0094 J0.
G1 X1.8671 Y-1.0636
X1.8663 Y-1.0625
X1.8652 Y-1.0617
X1.8638 Y-1.0615
X1.8603
X1.859 Z0.8684
X1.8578 Z0.8691
X1.8571 Z0.8703
X1.8568 Z0.8716
G0 Z2.1
M5
G53 G0 Z-0.6
(2D CHAMFER1)
M9
M1
T13 M6
T54
S7500 M3
G17 G90 G94
G55
M8
G0 X1.1131 Y-0.8287
G43 Z2.1 H13
G0 Z1.7
G1 Z1.58 F200.
Z1.358
G3 X1.0336 I-0.0397 J0. F100.
X1.1131 I0.0397 J0.
G0 Z1.7
Y-0.3563
G1 Z1.58 F200.
Z1.358
G3 X1.0336 I-0.0397 J0. F100.
X1.1131 I0.0397 J0.
G0 Z1.7
X-0.0854 Y-0.9368
G1 Z1.58 F200.
Z1.358
G2 X0.3351 Y-0.5449 I0.4206 J-0.0298 F100.
G1 X0.3843
G3 X0.5729 Y-0.3563 I0. J0.1886
G1 Y-0.3071
G2 X0.9946 Y0.1145 I0.4216 J0.
G1 X2.7269
G2 X3.1485 Y-0.3071 I0. J-0.4216
G1 Y-0.3563
G3 X3.3371 Y-0.5449 I0.1886 J0.
G1 X3.3863
G2 X3.8079 Y-0.9665 I0. J-0.4216
G1 Y-1.1437
G2 X3.3371 Y-1.6145 I-0.4708 J0.
G1 X0.3843
G2 X-0.0865 Y-1.1437 I0. J0.4708
G1 Y-0.9665
G2 X-0.0854 Y-0.9368 I0.4216 J0.
G0 Z1.7
X2.6489 Y-0.789
G1 Z1.58 F200.
Z1.358
G3 X2.6084 Y-0.8287 I-0.0008 J-0.0397 F100.
X2.6879 I0.0397 J0.
X2.6489 Y-0.789 I-0.0398 J0.
G0 Z1.7
Y-0.3166
G1 Z1.58 F200.
Z1.358
G3 X2.6084 Y-0.3563 I-0.0008 J-0.0397 F100.
X2.6879 I0.0397 J0.
X2.6489 Y-0.3166 I-0.0398 J0.
G0 Z2.1
(2D CHAMFER2)
G0 X1.9233 Y-1.065
Z2.1
Z1.7
G1 Z1.58 F200.
Z1.363
G3 X1.7926 I-0.0654 J0. F100.
X1.9233 I0.0654 J0.
G0 Z2.1
X3.049 Y0.1295
Z1.7
G1 Z1.58 F200.
Z0.489
X3.3371 F100.
G2 X3.8229 Y-0.3563 I0. J-0.4858
G1 Y-0.6444
G0 Z1.7
X3.3971 Y-0.3357
G1 Z1.58 F200.
Z0.489
G3 X3.277 Y-0.3769 I-0.0601 J-0.0206 F100.
X3.3971 Y-0.3357 I0.0601 J0.0206
G0 Z1.7
X0.4444
G1 Z1.58 F200.
Z0.489
G3 X0.3243 Y-0.3769 I-0.0601 J-0.0206 F100.
X0.4444 Y-0.3357 I0.0601 J0.0206
G0 Z1.7
X-0.1015 Y-0.6444
G1 Z1.58 F200.
Z0.489
Y-0.3563 F100.
G2 X0.3843 Y0.1295 I0.4858 J0.
G1 X0.6724
G0 Z2.1
M5
M9
G53 G0 Z-0.6
M30
%
