%
(OP2 - FLIPPED)
(MACHINE)
(  VENDOR CALLUM)
(  MODEL MILL R1)
(  DESCRIPTION 14X8X14 MILL)
(T13 D=0.375 CR=0. TAPER=45DEG - ZMIN=0.4699 - CHAMFER MILL)
(T35 D=0.375 CR=0. - ZMIN=0.6299 - FLAT END MILL)
G90 G94 G17 G91.1
G20
G53 G0 Z-0.6
(FACE1 2)
T35 M6
T13
S5000 M3
G17 G90 G94
G55
G64 P0.0004 Q0.0004
M8
G0 X4.2501 Y-1.3817
G43 Z2.098 H35
G0 Z1.698
G1 Z1.5336 F80.
G18 G3 X4.2126 Z1.4961 I-0.0375 K0. F50.
G1 X4.1064
X-0.2186
G17 G2 Y-1.0811 I0. J0.1503
G1 X4.1064
G3 Y-0.7806 I0. J0.1503
G1 X-0.2186
G2 Y-0.48 I0. J0.1503
G1 X4.1064
G3 Y-0.1795 I0. J0.1503
G1 X-0.2186
G18 G3 X-0.2561 Z1.5336 I0. K0.0375
G0 Z2.098
G17
(ADAPTIVE2 2)
G64 P0.004 Q0.004
G0 X3.3304 Y0.2588
Z2.098
Z0.7049
G1 Z0.6674 F160.
X3.3307 Y0.2587 Z0.6629
X3.3315 Y0.2584 Z0.6584
X3.3327 Y0.2579 Z0.6541
X3.3344 Y0.2573 Z0.65
X3.3366 Y0.2564 Z0.6461
X3.3392 Y0.2553 Z0.6426
X3.3422 Y0.2542 Z0.6394
X3.3455 Y0.2528 Z0.6366
X3.3491 Y0.2514 Z0.6342
X3.3529 Y0.2499 Z0.6324
X3.3569 Y0.2483 Z0.631
X3.3611 Y0.2466 Z0.6302
X3.3653 Y0.2449 Z0.6299
G3 X3.5639 Y0.1895 I0.3552 J0.889
G2 X3.597 Y0.1847 I-0.0784 J-0.6633
G3 X3.689 Y0.1739 I0.1084 J0.5245
X3.9062 Y0.1703 I0.1761 J4.0426
G1 X3.9505 Y0.17
X3.9944 Y0.1633
X4.0354 Y0.1464
X4.0718 Y0.121
X4.1024 Y0.0888
X4.1266 Y0.0517
X4.1447 Y0.0111
X4.1572 Y-0.0315
X4.1651 Y-0.0751
G2 X4.1738 Y-0.2523 I-1.4203 J-0.1585
G1 X4.1743 Y-0.2967
X4.1744 Y-0.341
Y-0.4298
X4.1743 Y-1.3616
Y-1.4504
X4.1656 Y-1.4939
X4.147 Y-1.5342
X4.1202 Y-1.5696
X4.087 Y-1.599
X4.0492 Y-1.6221
X4.0082 Y-1.6391
X3.9654 Y-1.6507
X3.9216 Y-1.658
G2 X3.773 Y-1.6657 I-0.1439 J1.3422
G1 X3.7608 Y-1.6665
X3.7488 Y-1.6684
X3.737 Y-1.6714
X3.7307 Y-1.6733
X3.7194 Y-1.6764
X3.7087 Y-1.6792
X3.7086
G2 X3.6804 Y-1.6918 I-0.3236 J0.6829
X3.5851 Y-1.725 I-0.2954 J0.6955 F300.
G1 X3.5804 Y-1.726
X3.5756 Y-1.7264
X3.2093 Y-1.7301
X3.2045 Y-1.7298
X3.1998 Y-1.7289
G2 X3.1037 Y-1.6977 I0.1853 J0.7326
X3.0754 Y-1.6856 I0.2813 J0.7013 F160.
G1 X3.0753
G2 X3.0268 Y-1.6782 I0.0944 J0.7792
G3 X2.8969 Y-1.6682 I-0.1443 J-1.0297
X2.6751 Y-1.6668 I-0.1758 J-10.0787
G1 X1.8763
X1.0332
G3 X0.9922 Y-1.6697 I-0.0083 J-0.1712
G2 X0.9202 Y-1.683 I-0.1971 J0.8699
G1 X0.9159 Y-1.6841
X0.9118 Y-1.6856
X0.9079 Y-1.6877
X0.9042 Y-1.6902
X0.9009 Y-1.6931
X0.898 Y-1.6964
X0.8954 Y-1.7
G3 X0.9273 Y-1.7573 I0.0318 J-0.0198 F300.
G1 X3.019 Y-1.7524
G3 X3.0512 Y-1.6958 I-0.0001 J0.0375
X3.0268 Y-1.6782 I-0.0323 J-0.019 F160.
G2 X2.9628 Y-1.6648 I0.1418 J0.8364
G3 X2.8567 Y-1.6518 I-0.1265 J-0.5927
X2.6388 Y-1.6483 I-0.1724 J-3.9332
G1 X2.55 Y-1.6481
X1.0929 Y-1.648
X1.0809 Y-1.6486
X1.0689 Y-1.6503
X1.0571 Y-1.6531
G2 X0.9922 Y-1.6698 I-0.2721 J0.921
G1 X0.988 Y-1.6711
X0.984 Y-1.673
X0.9802 Y-1.6753
X0.9767 Y-1.678
X0.9736 Y-1.6811
X0.9708 Y-1.6845
X0.9685 Y-1.6883
G3 X1.0016 Y-1.7436 I0.033 J-0.0178 F300.
G1 X2.9524 Y-1.7383
G3 X2.9859 Y-1.6841 I-0.0001 J0.0375
X2.9628 Y-1.6648 I-0.0336 J-0.0167 F160.
G2 X2.9082 Y-1.6498 I0.2653 J1.0765
G3 X2.8027 Y-1.6344 I-0.1241 J-0.4784
X2.5936 Y-1.6296 I-0.1708 J-2.9348
G1 X2.5492 Y-1.6294
X2.4161 Y-1.6293
X1.151
X1.1367 Y-1.6301
X1.1225 Y-1.6325
X1.1086 Y-1.6364
G2 X1.0571 Y-1.6531 I-0.3175 J0.8913
G1 X1.053 Y-1.6547
X1.0491 Y-1.6568
X1.0455 Y-1.6593
X1.0422 Y-1.6622
X1.0393 Y-1.6655
X1.0367 Y-1.6691
X1.0346 Y-1.673
G3 X1.0688 Y-1.7262 I0.0341 J-0.0157 F300.
G1 X2.8956 Y-1.7226
G3 X2.93 Y-1.6704 I-0.0001 J0.0375
X2.9082 Y-1.6498 I-0.0345 J-0.0147 F160.
G1 X2.8988 Y-1.6468
X2.8763 Y-1.6394
X2.8632 Y-1.6348
G3 X2.7462 Y-1.6161 I-0.1334 J-0.4587
X2.5813 Y-1.6111 I-0.1478 J-2.1266
G1 X2.537 Y-1.6107
X2.4926 Y-1.6106
X2.4039
X1.6051 Y-1.6105
X1.2058
G3 X1.1501 Y-1.6205 I-0.004 J-0.1381
G1 X1.1338 Y-1.6273
X1.1226 Y-1.6316
X1.1086 Y-1.6364
G3 X1.0873 Y-1.6575 I0.0135 J-0.035
X1.1221 Y-1.7089 I0.0348 J-0.0139 F300.
G1 X2.8497 Y-1.7073
G3 X2.8845 Y-1.656 I0. J0.0375
X2.8632 Y-1.6348 I-0.0349 J-0.0138 F160.
G1 X2.8538 Y-1.6316
X2.8426 Y-1.6273
X2.8279 Y-1.6212
G3 X2.7219 Y-1.5999 I-0.1277 J-0.3611
X2.5357 Y-1.5925 I-0.1648 J-1.7935
G1 X2.4913 Y-1.5921
X2.4469 Y-1.5919
X2.3582 Y-1.5918
X2.0032
X1.2711
X1.2493 Y-1.5919
G3 X1.1902 Y-1.6032 I-0.004 J-0.1391
G1 X1.1675 Y-1.6133
X1.1501 Y-1.6206
G3 X1.13 Y-1.6429 I0.0156 J-0.0341
X1.1656 Y-1.6922 I0.0356 J-0.0117 F300.
G1 X2.8124 Y-1.6928
G3 X2.848 Y-1.6436 I0. J0.0375
X2.8279 Y-1.6212 I-0.0356 J-0.0117 F160.
G1 X2.8088 Y-1.6133
X2.7914 Y-1.6056
G3 X2.692 Y-1.5831 I-0.1263 J-0.3283
X2.5289 Y-1.5742 I-0.1588 J-1.4041
X2.307 Y-1.5731 I-0.1821 J-14.0295
G1 X1.9964 Y-1.573
X1.3308
X1.2978 Y-1.5731
G3 X1.2388 Y-1.5806 I-0.0069 J-0.1815
G1 X1.223 Y-1.5873
X1.2013 Y-1.5982
X1.196 Y-1.6007
X1.1903 Y-1.6032
G3 X1.1708 Y-1.6261 I0.0164 J-0.0337
X1.2066 Y-1.6744 I0.0359 J-0.0109 F300.
G1 X2.775 Y-1.6768
G3 X2.8109 Y-1.6284 I0.0001 J0.0375
X2.7914 Y-1.6056 I-0.0359 J-0.0109 F160.
G1 X2.7803 Y-1.6007
X2.7751 Y-1.5982
X2.7604 Y-1.5909
G3 X2.662 Y-1.5662 I-0.1254 J-0.2917
X2.5115 Y-1.556 I-0.1563 J-1.1913
X2.2453 Y-1.5543 I-0.2147 J-12.7891
G1 X1.8903
X1.3578
G3 X1.2886 Y-1.558 I-0.0143 J-0.3813
G1 X1.2712 Y-1.5632
X1.2546 Y-1.5707
X1.235 Y-1.5812
X1.223 Y-1.5873
G3 X1.2046 Y-1.6111 I0.018 J-0.0329
X1.2409 Y-1.6578 I0.0364 J-0.0092 F300.
G1 X2.7424 Y-1.6613
G3 X2.7788 Y-1.6146 I0.0001 J0.0375
X2.7604 Y-1.5909 I-0.0364 J-0.0092 F160.
G1 X2.7526 Y-1.587
X2.7414 Y-1.5812
X2.7302 Y-1.5752
G3 X2.6385 Y-1.5498 I-0.1229 J-0.2659
X2.5123 Y-1.5386 I-0.15 J-0.9704
X2.2017 Y-1.5356 I-0.2467 J-9.3385
G1 X1.8911 Y-1.5355
X1.403
G3 X1.3359 Y-1.5374 I-0.0128 J-0.741
G1 X1.3171 Y-1.5406
X1.2989 Y-1.5466
X1.2818 Y-1.5551
X1.2687 Y-1.5629
X1.2615 Y-1.567
X1.2546 Y-1.5707
G3 X1.2369 Y-1.595 I0.0189 J-0.0324
X1.2734 Y-1.6406 I0.0366 J-0.0081 F300.
G1 X2.7111 Y-1.6451
G3 X2.7479 Y-1.5995 I0.0001 J0.0375
X2.7302 Y-1.5752 I-0.0366 J-0.0081 F160.
G1 X2.7149 Y-1.567
X2.7077 Y-1.5629
X2.7043 Y-1.5608
G3 X2.6194 Y-1.5342 I-0.1186 J-0.2288
X2.4854 Y-1.5205 I-0.1579 J-0.8854
X2.2635 Y-1.5171 I-0.1873 J-4.9561
G1 X2.1748 Y-1.5168
X1.9529
X1.4648
G3 X1.3647 Y-1.5192 I-0.0255 J-1.0392
G1 X1.3455 Y-1.5228
X1.3271 Y-1.5291
X1.3098 Y-1.5381
X1.2994 Y-1.5446
X1.2912 Y-1.5495
X1.2818 Y-1.5551
G3 X1.2652 Y-1.5801 I0.0203 J-0.0316
X1.3019 Y-1.6241 I0.0369 J-0.0066 F300.
G1 X2.6839 Y-1.6299
G3 X2.7209 Y-1.5858 I0.0002 J0.0375
X2.7043 Y-1.5608 I-0.0369 J-0.0066 F160.
G1 X2.6852 Y-1.5495
X2.677 Y-1.5446
G3 X2.596 Y-1.5176 I-0.1179 J-0.2188
X2.4777 Y-1.5034 I-0.1528 J-0.7735
X2.257 Y-1.4985 I-0.1895 J-3.5683
G1 X2.2126 Y-1.4982
X2.1239 Y-1.4981
X1.8577 Y-1.498
X1.5027
G3 X1.391 Y-1.501 I-0.0279 J-1.0534
X1.3315 Y-1.5236 I0.0166 J-0.1335
G1 X1.3175 Y-1.5333
X1.3098 Y-1.5381
G3 X1.2936 Y-1.5634 I0.0209 J-0.0311
X1.3305 Y-1.6067 I0.037 J-0.0058 F300.
G1 X2.6559 Y-1.6132
G3 X2.6931 Y-1.5699 I0.0002 J0.0375
X2.677 Y-1.5446 I-0.037 J-0.0058 F160.
G1 X2.6589 Y-1.5333
X2.6548 Y-1.5305
G3 X2.5785 Y-1.5021 I-0.1137 J-0.1886
X2.4502 Y-1.4852 I-0.1611 J-0.7278
X2.2313 Y-1.4798 I-0.1901 J-3.2885
G1 X2.187 Y-1.4795
X2.0982 Y-1.4793
X1.9207
X1.5214
G3 X1.417 Y-1.4828 I-0.0227 J-0.8846
X1.3578 Y-1.5053 I0.0168 J-0.1332
G1 X1.3315 Y-1.5236
G3 X1.3167 Y-1.5497 I0.0225 J-0.03
X1.3538 Y-1.5911 I0.0373 J-0.0039 F300.
G1 X2.6322 Y-1.5981
G3 X2.6697 Y-1.5566 I0.0002 J0.0375
X2.6548 Y-1.5305 I-0.0373 J-0.0039 F160.
G1 X2.6313 Y-1.5141
G3 X2.5557 Y-1.4851 I-0.1171 J-0.1919
X2.4347 Y-1.4677 I-0.1603 J-0.6851
X2.2221 Y-1.4612 I-0.1904 J-2.7583
G1 X2.1778 Y-1.4608
X2.1334 Y-1.4607
X2.0446 Y-1.4606
X1.8228 Y-1.4605
X1.5565
G3 X1.4447 Y-1.4641 I-0.0247 J-0.9715
X1.3759 Y-1.4916 I0.0144 J-0.136
G1 X1.3657 Y-1.4997
X1.3578 Y-1.5053
G3 X1.343 Y-1.5314 I0.0225 J-0.03
X1.38 Y-1.5728 I0.0373 J-0.0039 F300.
G1 X2.6085 Y-1.5817
G3 X2.6461 Y-1.5403 I0.0003 J0.0375
X2.6313 Y-1.5141 I-0.0373 J-0.0039 F160.
G1 X2.6177 Y-1.5048
X2.6107 Y-1.4997
X2.6094 Y-1.4987
G3 X2.5357 Y-1.4686 I-0.1136 J-0.1733
X2.4239 Y-1.4507 I-0.1562 J-0.6156
X2.1772 Y-1.4425 I-0.2122 J-2.6823
G1 X2.1328 Y-1.4421
X2.0884 Y-1.4419
X1.9997 Y-1.4418
X1.7334
G3 X1.5053 Y-1.4428 I-0.078 J-8.2969
X1.4409 Y-1.4514 I0.0101 J-0.3216
G1 X1.4256 Y-1.4574
X1.411 Y-1.4651
X1.3975 Y-1.4746
X1.3924 Y-1.4788
X1.3759 Y-1.4917
G3 X1.3626 Y-1.5186 I0.0242 J-0.0287
X1.3999 Y-1.5578 I0.0375 J-0.0017 F300.
G1 X2.585 Y-1.5649
G3 X2.6227 Y-1.5256 I0.0002 J0.0375
X2.6094 Y-1.4987 I-0.0375 J-0.0017 F160.
G1 X2.5905 Y-1.4839
G3 X2.5192 Y-1.4528 I-0.1152 J-0.1667
X2.3945 Y-1.432 I-0.1675 J-0.6217
X2.1882 Y-1.424 I-0.1926 J-2.3012
X1.9663 Y-1.4231 I-0.1869 J-18.2111
G1 X1.7001 Y-1.423
G3 X1.5242 Y-1.4245 I-0.0532 J-4.1281
X1.4619 Y-1.4336 I0.0134 J-0.3096
G1 X1.4467 Y-1.4397
X1.4323 Y-1.4476
X1.419 Y-1.4571
X1.4036 Y-1.4697
X1.3975 Y-1.4746
G3 X1.3846 Y-1.5018 I0.0245 J-0.0284
X1.4218 Y-1.5405 I0.0375 J-0.0012 F300.
G1 X2.5661 Y-1.5501
G3 X2.6038 Y-1.5108 I0.0003 J0.0375
X2.5905 Y-1.4839 I-0.0375 J-0.0017 F160.
G1 X2.5821 Y-1.4772
X2.5714 Y-1.4686
G3 X2.5015 Y-1.4364 I-0.115 J-0.1579
X2.3594 Y-1.4128 I-0.1794 J-0.6391
X2.1483 Y-1.4052 I-0.194 J-2.4601
X1.9264 Y-1.4043 I-0.186 J-18.9941
G1 X1.7045
G3 X1.5315 Y-1.407 I-0.0446 J-2.6369
X1.4798 Y-1.4166 I0.0246 J-0.2776
G1 X1.4632 Y-1.4237
X1.4478 Y-1.4329
X1.4338 Y-1.4442
X1.4261 Y-1.4513
X1.419 Y-1.4571
G3 X1.4063 Y-1.4844 I0.0248 J-0.0281
X1.4434 Y-1.5228 I0.0375 J-0.0009 F300.
G1 X2.5463 Y-1.5343
G3 X2.5842 Y-1.4958 I0.0004 J0.0375
X2.5714 Y-1.4686 I-0.0375 J-0.001 F160.
G1 X2.5511 Y-1.452
G3 X2.4819 Y-1.4194 I-0.1166 J-0.1579
X2.3445 Y-1.3952 I-0.1795 J-0.6164
X2.1382 Y-1.3867 I-0.1944 J-2.2033
X1.6097 Y-1.386 I-0.3143 J-37.7291
X1.5136 Y-1.3946 I0.0015 J-0.5587
X1.4527 Y-1.4266 I0.0295 J-0.13
G1 X1.4338 Y-1.4442
G3 X1.4227 Y-1.4722 I0.0264 J-0.0266
X1.4598 Y-1.5083 I0.0375 J0.0013 F300.
G1 X2.526 Y-1.5176
G3 X2.5638 Y-1.4793 I0.0003 J0.0375
X2.5511 Y-1.452 I-0.0375 J-0.0009 F160.
G1 X2.5503 Y-1.4513
X2.5375 Y-1.4395
G3 X2.4717 Y-1.405 I-0.1123 J-0.1345
X2.3545 Y-1.3803 I-0.1698 J-0.5151
X2.1296 Y-1.3682 I-0.2124 J-1.8517
X1.6144 Y-1.3675 I-0.2947 J-27.4834
X1.5343 Y-1.3762 I0.0221 J-0.5801
X1.4711 Y-1.4094 I0.0284 J-0.131
G1 X1.4586 Y-1.4212
X1.4527 Y-1.4266
G3 X1.4417 Y-1.4546 I0.0265 J-0.0265
X1.4787 Y-1.4907 I0.0375 J0.0014 F300.
G1 X2.5106 Y-1.5035
G3 X2.5485 Y-1.4674 I0.0005 J0.0375
X2.5375 Y-1.4395 I-0.0375 J0.0014 F160.
G1 X2.5198 Y-1.423
G3 X2.4542 Y-1.3881 I-0.1147 J-0.1363
X2.3166 Y-1.3601 I-0.1845 J-0.556
X2.12 Y-1.3496 I-0.1959 J-1.8227
X1.6443 Y-1.3487 I-0.2813 J-22.753
X1.5462 Y-1.3596 I0.0096 J-0.5353
X1.4835 Y-1.3967 I0.034 J-0.129
G1 X1.4816 Y-1.3987
X1.4711 Y-1.4094
G3 X1.4612 Y-1.4377 I0.0275 J-0.0255
X1.498 Y-1.4723 I0.0374 J0.0029 F300.
G1 X2.4928 Y-1.4871
G3 X2.5308 Y-1.451 I0.0006 J0.0375
X2.5198 Y-1.423 I-0.0375 J0.0014 F160.
G1 X2.5053 Y-1.4094
X2.5036 Y-1.4076
G3 X2.4391 Y-1.3718 I-0.1127 J-0.127
X2.3083 Y-1.3433 I-0.1823 J-0.5214
X2.1242 Y-1.3315 I-0.1946 J-1.5971
X1.6555 Y-1.3304 I-0.2734 J-16.2226
X1.5611 Y-1.3422 I0.0179 J-0.5235
X1.4997 Y-1.3794 I0.0358 J-0.1286
G1 X1.4922 Y-1.3875
X1.4835 Y-1.3967
G3 X1.4744 Y-1.4254 I0.0282 J-0.0247
X1.5112 Y-1.459 I0.0373 J0.0039 F300.
G1 X2.4756 Y-1.4706
G3 X2.5134 Y-1.436 I0.0005 J0.0375
X2.5036 Y-1.4076 I-0.0374 J0.0029 F160.
G1 X2.4947 Y-1.3987
X2.489 Y-1.3926
G3 X2.4256 Y-1.3558 I-0.1125 J-0.1209
X2.3026 Y-1.3268 I-0.18 J-0.4876
X2.1308 Y-1.3136 I-0.1956 J-1.4193
X1.6707 Y-1.312 I-0.2727 J-12.1067
X1.5772 Y-1.3244 I0.0229 J-0.5294
X1.5159 Y-1.3618 I0.0364 J-0.1284
G1 X1.4997 Y-1.3794
G3 X1.4908 Y-1.4081 I0.0283 J-0.0246
X1.5275 Y-1.4415 I0.0373 J0.0041 F300.
G1 X2.4603 Y-1.4548
G3 X2.4981 Y-1.4213 I0.0005 J0.0375
X2.489 Y-1.3926 I-0.0373 J0.0039 F160.
G1 X2.4828 Y-1.386
X2.4746 Y-1.3772
G3 X2.4119 Y-1.3396 I-0.114 J-0.119
X2.2933 Y-1.3099 I-0.1798 J-0.4676
X2.0917 Y-1.2945 I-0.2136 J-1.4679
X1.7047 Y-1.2929 I-0.2376 J-10.7105
X1.5937 Y-1.3062 I0.0117 J-0.5682
G1 X1.5915 Y-1.3072
G3 X1.5269 Y-1.3495 I0.0357 J-0.1249
X1.5197 Y-1.3787 I0.0298 J-0.0228
X1.5554 Y-1.4098 I0.037 J0.0064 F300.
G1 X2.445 Y-1.4392
G3 X2.4835 Y-1.4059 I0.0012 J0.0375
X2.4746 Y-1.3772 I-0.0373 J0.0041 F160.
G1 X2.4591 Y-1.3605
G3 X2.3965 Y-1.3225 I-0.1157 J-0.1201
X2.2798 Y-1.2924 I-0.1809 J-0.4609
X2.0809 Y-1.2761 I-0.2169 J-1.4218
X1.7072 Y-1.2749 I-0.2128 J-7.9166
X1.6118 Y-1.2877 I0.0281 J-0.5715
X1.5687 Y-1.3068 I0.0388 J-0.1452
G1 X1.5536 Y-1.3189
X1.5403 Y-1.333
X1.5326 Y-1.3426
X1.5269 Y-1.3495
G3 X1.5197 Y-1.3787 I0.0298 J-0.0228
X1.5561 Y-1.4098 I0.037 J0.0064 F300.
G1 X2.4301 Y-1.4224
G3 X2.4679 Y-1.3892 I0.0005 J0.0375
X2.4591 Y-1.3605 I-0.0372 J0.0043 F160.
G1 X2.4531 Y-1.3538
X2.4475 Y-1.3471
G3 X2.3869 Y-1.3076 I-0.1117 J-0.105
X2.2792 Y-1.2771 I-0.176 J-0.4168
X2.1046 Y-1.2591 I-0.2133 J-1.21
X1.7285 Y-1.2563 I-0.2335 J-6.1371
X1.622 Y-1.2709 I0.0217 J-0.5512
X1.5673 Y-1.3015 I0.0388 J-0.1336
G1 X1.5547 Y-1.3152
X1.5403 Y-1.333
G3 X1.5335 Y-1.3623 I0.03 J-0.0225
X1.5697 Y-1.393 I0.0369 J0.0068 F300.
G1 X2.4171 Y-1.4074
G3 X2.4547 Y-1.3763 I0.0006 J0.0375
X2.4475 Y-1.3471 I-0.037 J0.0064 F160.
G1 X2.4438 Y-1.3426
X2.4348 Y-1.3314
G3 X2.3747 Y-1.2913 I-0.1133 J-0.1048
X2.252 Y-1.2572 I-0.1879 J-0.4376
X2.0641 Y-1.2396 I-0.2164 J-1.2992
X1.7399 Y-1.238 I-0.1865 J-5.0194
X1.6353 Y-1.2533 I0.0274 J-0.5533
X1.5643 Y-1.3025 I0.0373 J-0.1296
G1 X1.5603 Y-1.3082
X1.5589 Y-1.31
X1.5547 Y-1.3152
G3 X1.5478 Y-1.3444 I0.03 J-0.0225
X1.5839 Y-1.3752 I0.0369 J0.0068 F300.
G1 X2.404 Y-1.3914
G3 X2.4416 Y-1.3607 I0.0007 J0.0375
X2.4348 Y-1.3314 I-0.0369 J0.0068 F160.
G1 X2.4219 Y-1.3155
G3 X2.3625 Y-1.2749 I-0.1148 J-0.1043
X2.2427 Y-1.2402 I-0.1887 J-0.4275
X2.064 Y-1.2217 I-0.2164 J-1.2205
X1.7718 Y-1.2189 I-0.1877 J-4.3177
X1.6534 Y-1.2341 I0.0182 J-0.6098
X1.5771 Y-1.2849 I0.0342 J-0.1341
G1 X1.5644 Y-1.3025
G3 X1.559 Y-1.3321 I0.0311 J-0.021
X1.5948 Y-1.361 I0.0365 J0.0086 F300.
G1 X2.3913 Y-1.3755
G3 X2.4288 Y-1.3447 I0.0007 J0.0375
X2.4219 Y-1.3155 I-0.0369 J0.0068 F160.
G1 X2.4167 Y-1.309
X2.4154 Y-1.3072
X2.4116 Y-1.302
G3 X2.3535 Y-1.2598 I-0.1116 J-0.0926
X2.2415 Y-1.2248 I-0.1847 J-0.394
X2.0849 Y-1.2053 I-0.2113 J-1.0593
X1.7672 Y-1.2015 I-0.1975 J-3.2217
X1.6617 Y-1.2177 I0.0312 J-0.5552
X1.588 Y-1.2697 I0.0367 J-0.1304
G1 X1.5835 Y-1.2763
X1.5772 Y-1.285
G3 X1.5717 Y-1.3145 I0.0311 J-0.021
X1.6074 Y-1.3435 I0.0365 J0.0086 F300.
G1 X2.3797 Y-1.3605
G3 X2.417 Y-1.3316 I0.0008 J0.0375
X2.4116 Y-1.302 I-0.0365 J0.0086 F160.
G1 X2.3996 Y-1.2856
G3 X2.3419 Y-1.2432 I-0.1142 J-0.0952
X2.2309 Y-1.2076 I-0.1872 J-0.392
X2.0357 Y-1.1849 I-0.2334 J-1.1606
X1.774 Y-1.1837 I-0.1424 J-2.5228
X1.6726 Y-1.2004 I0.0361 J-0.5362
X1.6123 Y-1.2371 I0.0397 J-0.1331
G1 X1.6 Y-1.2524
X1.588 Y-1.2698
G3 X1.5833 Y-1.2994 I0.0316 J-0.0203
X1.6188 Y-1.3275 I0.0363 J0.0094 F300.
G1 X2.3677 Y-1.3441
G3 X2.4051 Y-1.3152 I0.0008 J0.0375
X2.3996 Y-1.2856 I-0.0365 J0.0086 F160.
G1 X2.3929 Y-1.2763
X2.3889 Y-1.2706
G3 X2.332 Y-1.2274 I-0.1133 J-0.0901
X2.2252 Y-1.1914 I-0.186 J-0.3751
X2.0453 Y-1.1679 I-0.2302 J-1.062
X1.7883 Y-1.1656 I-0.1478 J-2.1478
X1.6795 Y-1.1844 I0.0318 J-0.5083
X1.6174 Y-1.227 I0.0438 J-0.1301
G1 X1.6076 Y-1.241
G3 X1.6047 Y-1.271 I0.0327 J-0.0184
X1.6387 Y-1.2969 I0.0357 J0.0115 F300.
G1 X2.3557 Y-1.3283
G3 X2.3937 Y-1.3003 I0.0016 J0.0375
X2.3889 Y-1.2706 I-0.0363 J0.0094 F160.
G1 X2.3777 Y-1.2543
G3 X2.321 Y-1.2107 I-0.1152 J-0.0912
X2.1991 Y-1.1707 I-0.1979 J-0.3975
X1.9989 Y-1.1476 I-0.2368 J-1.1739
X1.7814 Y-1.1493 I-0.0973 J-1.5509
X1.6793 Y-1.171 I0.036 J-0.4189
X1.6179 Y-1.2241 I0.0534 J-0.1238
G1 X1.6076 Y-1.241
G3 X1.6047 Y-1.271 I0.0327 J-0.0184
X1.6395 Y-1.2969 I0.0357 J0.0115 F300.
G1 X2.3453 Y-1.3121
G3 X2.3824 Y-1.284 I0.0008 J0.0375
X2.3777 Y-1.2543 I-0.0363 J0.0094 F160.
G1 X2.3704 Y-1.2438
X2.3685 Y-1.2406
G3 X2.3186 Y-1.1986 I-0.1062 J-0.0753
X2.2126 Y-1.1588 I-0.1885 J-0.3414
X2.0202 Y-1.1314 I-0.2402 J-0.9955
X1.7865 Y-1.132 I-0.1127 J-1.3924
X1.6881 Y-1.1544 I0.0406 J-0.4069
X1.6275 Y-1.208 I0.0546 J-0.1229
G1 X1.6209 Y-1.2192
X1.6179 Y-1.2241
G3 X1.615 Y-1.2541 I0.0327 J-0.0183
X1.6498 Y-1.2799 I0.0357 J0.0116 F300.
G1 X2.3349 Y-1.2965
G3 X2.3715 Y-1.2705 I0.0009 J0.0375
X2.3685 Y-1.2406 I-0.0357 J0.0115 F160.
G1 X2.3592 Y-1.2253
G3 X2.3097 Y-1.1827 I-0.1084 J-0.0757
X2.1918 Y-1.1389 I-0.1986 J-0.3543
X2.0278 Y-1.1145 I-0.2249 J-0.9468
X1.7916 Y-1.115 I-0.1154 J-1.2631
X1.6999 Y-1.1365 I0.046 J-0.4027
X1.6375 Y-1.191 I0.052 J-0.1225
G1 X1.6275 Y-1.208
G3 X1.6249 Y-1.238 I0.0329 J-0.0179
X1.6595 Y-1.2635 I0.0355 J0.012 F300.
G1 X2.3254 Y-1.2811
G3 X2.3621 Y-1.2553 I0.001 J0.0375
X2.3592 Y-1.2253 I-0.0357 J0.0116 F160.
G1 X2.3555 Y-1.2192
X2.3502 Y-1.2103
G3 X2.3013 Y-1.167 I-0.109 J-0.0739
X2.186 Y-1.1226 I-0.199 J-0.3448
X2.0027 Y-1.0955 I-0.2338 J-0.9482
X1.7838 Y-1.1 I-0.0881 J-1.0421
X1.7083 Y-1.1199 I0.0567 J-0.3669
X1.6452 Y-1.1772 I0.0525 J-0.1212
G1 X1.6407 Y-1.1856
X1.6375 Y-1.191
G3 X1.635 Y-1.221 I0.033 J-0.0178
X1.6694 Y-1.2464 I0.0355 J0.0121 F300.
G1 X2.3161 Y-1.2657
G3 X2.3528 Y-1.2402 I0.0011 J0.0375
X2.3502 Y-1.2103 I-0.0355 J0.012 F160.
G1 X2.3406 Y-1.1939
G3 X2.2918 Y-1.1504 I-0.1107 J-0.0751
X2.177 Y-1.1054 I-0.2009 J-0.3432
X1.9755 Y-1.0768 I-0.2364 J-0.9404
X1.7759 Y-1.0857 I-0.0612 J-0.8627
X1.7147 Y-1.1042 I0.0676 J-0.3344
X1.6521 Y-1.1641 I0.0543 J-0.1196
G1 X1.6469 Y-1.1743
X1.6453 Y-1.1773
G3 X1.6436 Y-1.2073 I0.0335 J-0.0169
X1.6777 Y-1.2316 I0.0351 J0.0131 F300.
G1 X2.3065 Y-1.2492
G3 X2.3431 Y-1.2239 I0.0011 J0.0375
X2.3451 Y-1.2118 I-0.0355 J0.0121 F160.
X2.3406 Y-1.1939 I-0.0375 J0.
G1 X2.3357 Y-1.1856
X2.3323 Y-1.1794
G3 X2.2844 Y-1.135 I-0.1089 J-0.0695
X2.1734 Y-1.0896 I-0.1993 J-0.3286
X1.9894 Y-1.0606 I-0.2286 J-0.8532
X1.7823 Y-1.0691 I-0.0697 J-0.8273
X1.7218 Y-1.0881 I0.0716 J-0.3349
X1.6599 Y-1.1484 I0.0557 J-0.1191
G1 X1.6521 Y-1.1641
G3 X1.6514 Y-1.1941 I0.034 J-0.0158
X1.6851 Y-1.2173 I0.0347 J0.0142 F300.
G1 X2.2978 Y-1.2337
G3 X2.3339 Y-1.2094 I0.001 J0.0375
X2.3323 Y-1.1794 I-0.0351 J0.0131 F160.
G1 X2.3295 Y-1.1743
X2.3246 Y-1.1646
G3 X2.2824 Y-1.1228 I-0.1034 J-0.0622
X2.1696 Y-1.0738 I-0.2012 J-0.3089
X1.9997 Y-1.0446 I-0.2208 J-0.7764
X1.7966 Y-1.0511 I-0.0761 J-0.8038
X1.7287 Y-1.0719 I0.0631 J-0.3272
X1.668 Y-1.1319 I0.0572 J-0.1185
G1 X1.6599 Y-1.1484
G3 X1.6595 Y-1.1784 I0.0342 J-0.0155
X1.693 Y-1.2013 I0.0346 J0.0146 F300.
G1 X2.2895 Y-1.2178
G3 X2.3252 Y-1.1946 I0.001 J0.0375
X2.328 Y-1.1804 I-0.0347 J0.0142 F160.
X2.3246 Y-1.1646 I-0.0375 J0.
G1 X2.3175 Y-1.1506
G3 X2.2713 Y-1.1046 I-0.1084 J-0.0628
X2.168 Y-1.0586 I-0.1965 J-0.3026
X1.9474 Y-1.0254 I-0.2316 J-0.7876
X1.7772 Y-1.0406 I-0.0305 J-0.6167
X1.7208 Y-1.0639 I0.0651 J-0.2376
X1.6748 Y-1.1182 I0.0683 J-0.1045
G1 X1.668 Y-1.1319
G3 X1.6677 Y-1.162 I0.0342 J-0.0154
X1.701 Y-1.1848 I0.0345 J0.0147 F300.
G1 X2.2822 Y-1.2035
G3 X2.3179 Y-1.1806 I0.0012 J0.0375
X2.3175 Y-1.1506 I-0.0346 J0.0146 F160.
G1 X2.3096 Y-1.1345
G3 X2.2635 Y-1.0883 I-0.1102 J-0.0639
X2.1489 Y-1.0384 I-0.2052 J-0.3145
X1.9354 Y-1.0087 I-0.2147 J-0.7619
X1.7745 Y-1.027 I-0.0187 J-0.5526
X1.7275 Y-1.0482 I0.0632 J-0.2029
X1.68 Y-1.1061 I0.074 J-0.1091
G1 X1.6748 Y-1.1182
G3 X1.6759 Y-1.1483 I0.0349 J-0.0137
X1.7085 Y-1.1695 I0.0338 J0.0163 F300.
G1 X2.2742 Y-1.1874
G3 X2.3099 Y-1.1646 I0.0012 J0.0375
X2.3096 Y-1.1345 I-0.0345 J0.0147 F160.
G1 X2.3016 Y-1.1182
G3 X2.2656 Y-1.0788 I-0.0969 J-0.0523
X2.1659 Y-1.0291 I-0.1946 J-0.2654
X1.9586 Y-0.9932 I-0.2241 J-0.6774
X1.7829 Y-1.0102 I-0.0345 J-0.5596
X1.7319 Y-1.0337 I0.0639 J-0.2061
X1.6865 Y-1.0905 I0.0772 J-0.1082
G1 X1.6801 Y-1.1061
G3 X1.6816 Y-1.1361 I0.0351 J-0.0133
X1.7143 Y-1.1568 I0.0335 J0.0168 F300.
G1 X2.2658 Y-1.1695
G3 X2.3005 Y-1.1483 I0.0009 J0.0375
X2.3016 Y-1.1182 I-0.0338 J0.0163 F160.
G1 X2.2963 Y-1.106
G3 X2.257 Y-1.0617 I-0.1013 J-0.0502
X2.1571 Y-1.0118 I-0.1952 J-0.2661
X1.9424 Y-0.9767 I-0.2175 J-0.6573
X1.7837 Y-0.9959 I-0.0194 J-0.5053
X1.7239 Y-1.0295 I0.0529 J-0.1645
G1 X1.7115 Y-1.0432
X1.7011 Y-1.0585
X1.6929 Y-1.075
X1.6865 Y-1.0905
G3 X1.6882 Y-1.1205 I0.0351 J-0.0131
X1.7206 Y-1.1411 I0.0335 J0.0169 F300.
G1 X2.2601 Y-1.1567
G3 X2.2948 Y-1.136 I0.0011 J0.0375
X2.2963 Y-1.106 I-0.0335 J0.0168 F160.
G1 X2.2899 Y-1.0907
G3 X2.2509 Y-1.0461 I-0.1032 J-0.051
X2.1419 Y-0.9925 I-0.2014 J-0.2719
X1.9345 Y-0.9609 I-0.2026 J-0.6334
X1.787 Y-0.981 I-0.0109 J-0.4711
X1.7294 Y-1.0144 I0.0536 J-0.1588
G1 X1.7173 Y-1.0281
X1.7072 Y-1.0431
X1.6992 Y-1.0594
X1.6929 Y-1.075
G3 X1.6947 Y-1.105 I0.0352 J-0.013
X1.727 Y-1.1255 I0.0334 J0.017 F300.
G1 X2.2537 Y-1.1413
G3 X2.2883 Y-1.1207 I0.0011 J0.0375
X2.2899 Y-1.0907 I-0.0335 J0.0169 F160.
G1 X2.2837 Y-1.0756
G3 X2.2403 Y-1.0271 I-0.1088 J-0.0536
X2.1388 Y-0.977 I-0.1969 J-0.2714
X1.8377 Y-0.9534 I-0.199 J-0.6054
X1.7659 Y-0.9768 I0.0608 J-0.3088
X1.7027 Y-1.0508 I0.0614 J-0.1164
G1 X1.7017 Y-1.0551
X1.7012 Y-1.0595
Y-1.0639
X1.7018 Y-1.0683
X1.7028 Y-1.0726
X1.7044 Y-1.0767
X1.7064 Y-1.0807
G3 X1.7367 Y-1.099 I0.0323 J0.0191 F300.
G1 X2.2466 Y-1.126
G3 X2.2819 Y-1.1056 I0.002 J0.0374
X2.2837 Y-1.0756 I-0.0334 J0.017 F160.
G1 X2.2775 Y-1.0603
G3 X2.2344 Y-1.0114 I-0.1092 J-0.0527
X2.1242 Y-0.958 I-0.2017 J-0.276
X1.8456 Y-0.9374 I-0.1829 J-0.5794
X1.7691 Y-0.9624 I0.0555 J-0.2992
X1.7154 Y-1.0175 I0.0647 J-0.1167
G1 X1.7079 Y-1.0355
X1.7027 Y-1.0508
G3 X1.7064 Y-1.0807 I0.0359 J-0.0107
X1.7378 Y-1.099 I0.0323 J0.0191 F300.
G1 X2.2414 Y-1.1106
G3 X2.2756 Y-1.0903 I0.0009 J0.0375
X2.2775 Y-1.0603 I-0.0333 J0.0172 F160.
G1 X2.2737 Y-1.0509
X2.2726 Y-1.0475
G3 X2.2358 Y-1.0012 I-0.0991 J-0.0408
X2.136 Y-0.9476 I-0.1937 J-0.2413
X1.8483 Y-0.9224 I-0.1928 J-0.5454
X1.7726 Y-0.948 I0.0545 J-0.2858
X1.713 Y-1.0202 I0.0651 J-0.1145
G1 X1.7079 Y-1.0355
G3 X1.7115 Y-1.0653 I0.0359 J-0.0107
X1.7429 Y-1.0837 I0.0323 J0.0191 F300.
G1 X2.2357 Y-1.0957
G3 X2.2689 Y-1.0774 I0.0009 J0.0375
X2.2726 Y-1.0475 I-0.0323 J0.0191 F160.
G1 X2.2675 Y-1.0326
G3 X2.231 Y-0.986 I-0.1011 J-0.0417
X2.1237 Y-0.9293 I-0.198 J-0.2445
X1.8478 Y-0.9081 I-0.1789 J-0.5226
X1.7791 Y-0.9319 I0.0612 J-0.288
X1.7196 Y-1.0009 I0.0637 J-0.1151
G1 X1.7177 Y-1.0061
X1.713 Y-1.0202
G3 X1.7167 Y-1.05 I0.0359 J-0.0107
X1.748 Y-1.0683 I0.0322 J0.0191 F300.
G1 X2.2306 Y-1.0808
G3 X2.2639 Y-1.0624 I0.001 J0.0375
X2.2675 Y-1.0326 I-0.0323 J0.0191 F160.
G1 X2.2627 Y-1.0183
G3 X2.2221 Y-0.9675 I-0.1063 J-0.0433
X2.1222 Y-0.9146 I-0.1931 J-0.2437
X1.8552 Y-0.8924 I-0.176 J-0.5026
X1.7861 Y-0.9156 I0.0582 J-0.2883
X1.7265 Y-0.9826 I0.0625 J-0.1157
G1 X1.726 Y-0.9836
X1.7196 Y-1.0009
G3 X1.7177 Y-1.0127 I0.0356 J-0.0118
X1.7224 Y-1.0308 I0.0375 J0.
X1.7539 Y-1.0502 I0.0328 J0.0181 F300.
G1 X2.2255 Y-1.0665
G3 X2.259 Y-1.0481 I0.0013 J0.0375
X2.2627 Y-1.0183 I-0.0322 J0.0191 F160.
G1 X2.2587 Y-1.0061
X2.2565 Y-1.0003
G3 X2.2149 Y-0.9502 I-0.111 J-0.0498
X2.1043 Y-0.8945 I-0.1986 J-0.2569
X1.8496 Y-0.8795 I-0.1564 J-0.4833
X1.7945 Y-0.8988 I0.0724 J-0.2951
X1.7327 Y-0.9668 I0.0599 J-0.1166
G1 X1.7265 Y-0.9826
G3 X1.7286 Y-1.0125 I0.0353 J-0.0126
X1.7604 Y-1.0326 I0.0332 J0.0174 F300.
G1 X2.2196 Y-1.0496
G3 X2.2538 Y-1.0302 I0.0014 J0.0375
X2.2565 Y-1.0003 I-0.0328 J0.0181 F160.
G1 X2.2503 Y-0.9836
G3 X2.2037 Y-0.93 I-0.117 J-0.0547
X2.0989 Y-0.8787 I-0.193 J-0.2615
X1.8529 Y-0.8648 I-0.1497 J-0.467
X1.7993 Y-0.8839 I0.0701 J-0.2822
X1.7486 Y-0.9313 I0.0615 J-0.1165
G1 X1.7441 Y-0.9387
X1.7409 Y-0.9462
X1.7327 Y-0.9668
G3 X1.7348 Y-0.9968 I0.0353 J-0.0126
X1.7667 Y-1.0169 I0.0332 J0.0174 F300.
G1 X2.2134 Y-1.033
G3 X2.2476 Y-1.0136 I0.0013 J0.0375
X2.2503 Y-0.9836 I-0.0329 J0.0181 F160.
G1 X2.2434 Y-0.9662
G3 X2.2013 Y-0.9165 I-0.1118 J-0.052
X2.0827 Y-0.8599 I-0.1978 J-0.2618
X1.8555 Y-0.8505 I-0.1322 J-0.4485
X1.794 Y-0.8764 I0.0433 J-0.1889
G1 X1.7813 Y-0.8872
X1.7699 Y-0.8993
X1.7602 Y-0.9128
X1.7509 Y-0.9275
X1.7487 Y-0.9313
G3 X1.7456 Y-0.9612 I0.0326 J-0.0185
X1.7787 Y-0.9872 I0.0357 J0.0114 F300.
G1 X2.2056 Y-1.0162
G3 X2.2413 Y-0.9962 I0.0025 J0.0374
X2.2434 Y-0.9662 I-0.0332 J0.0174 F160.
G1 X2.2366 Y-0.9488
G3 X2.194 Y-0.8994 I-0.1115 J-0.0531
X2.0763 Y-0.8441 I-0.1942 J-0.2601
X1.8594 Y-0.836 I-0.1246 J-0.4318
X1.7892 Y-0.876 I0.0316 J-0.1372
G1 X1.7729 Y-0.8939
X1.7686 Y-0.8995
X1.7602 Y-0.9128
G3 X1.7568 Y-0.9427 I0.0324 J-0.0188
X1.7899 Y-0.969 I0.0358 J0.011 F300.
G1 X2.1985 Y-0.9988
G3 X2.2344 Y-0.9788 I0.0027 J0.0374
X2.2366 Y-0.9488 I-0.0332 J0.0174 F160.
G1 X2.2355 Y-0.9462
X2.2323 Y-0.9387
X2.2243 Y-0.9257
X2.2184 Y-0.9163
G3 X2.1544 Y-0.8621 I-0.1396 J-0.1
X2.0211 Y-0.8181 I-0.183 J-0.3304
X1.8811 Y-0.8183 I-0.0696 J-0.4104
G1 X1.8623 Y-0.8235
X1.8445 Y-0.8314
X1.828 Y-0.8419
X1.8083 Y-0.8567
X1.804 Y-0.8602
X1.7971 Y-0.8676
X1.7893 Y-0.8761
G3 X1.7805 Y-0.9048 I0.0285 J-0.0244
X1.8142 Y-0.9378 I0.0373 J0.0043 F300.
G1 X2.1824 Y-0.9725
G3 X2.2218 Y-0.9462 I0.0035 J0.0373
X2.2184 Y-0.9163 I-0.0358 J0.011 F160.
G1 X2.2078 Y-0.8995
X2.2035 Y-0.8939
X2.1905 Y-0.8798
G3 X2.1021 Y-0.8257 I-0.1603 J-0.1628
X1.9197 Y-0.7998 I-0.1479 J-0.3869
G1 X1.911 Y-0.8015
X1.9023 Y-0.8036
G3 X1.8798 Y-0.8235 I0.0115 J-0.0357
X1.9043 Y-0.8756 I0.034 J-0.0158 F300.
G1 X2.1526 Y-0.9405
G3 X2.1993 Y-0.9085 I0.0095 J0.0363
X2.1905 Y-0.8798 I-0.0373 J0.0043 F160.
G1 X2.1793 Y-0.8676
X2.1724 Y-0.8602
X2.1681 Y-0.8567
X2.1428 Y-0.8378
X2.1414 Y-0.8367
X2.1402 Y-0.8358
G3 X2.1203 Y-0.8238 I-0.0881 J-0.1233
X2.0903 Y-0.8235 I-0.0154 J-0.0342
X2.0857 Y-0.8902 I0.0146 J-0.0345 F300.
G1 X2.0975 Y-0.8973
G3 X2.1541 Y-0.8625 I0.0192 J0.0322
X2.1402 Y-0.8358 I-0.0374 J-0.0026 F160.
G1 X2.1343 Y-0.8314
X2.1258 Y-0.8266
X2.1118 Y-0.8196
G3 X2.0235 Y-0.7918 I-0.1396 J-0.2891
G1 X2.019 Y-0.7919
X2.0146 Y-0.7924
X2.0103 Y-0.7935
X2.0062 Y-0.7951
X2.0023 Y-0.7972
X1.9986 Y-0.7997
X1.9953 Y-0.8026
G3 X2.01 Y-0.8653 I0.026 J-0.027 F300.
G1 X2.0827 Y-0.8884
G3 X2.1304 Y-0.8433 I0.0113 J0.0357
X2.1118 Y-0.8196 I-0.0363 J-0.0094 F160.
G1 X2.0894 Y-0.8085
X2.0781 Y-0.8048
X2.0444 Y-0.7952
X2.0388 Y-0.7938
X2.0332 Y-0.793
X1.9994 Y-0.7899
X1.9882 Y-0.789
X1.9769 Y-0.7899
X1.9432 Y-0.793
X1.9376 Y-0.7938
X1.932 Y-0.7952
X1.8983 Y-0.8048
X1.887 Y-0.8085
X1.8505 Y-0.8266
X1.842 Y-0.8314
X1.828 Y-0.8419
X1.8279 Y-0.8423
G2 X1.8289 Y-0.8728 I-0.9686 J-0.0479
G1 X1.8291 Y-0.8902 F300.
G2 X1.6321 Y-1.4761 I-0.9698 J0.
X1.6203 Y-1.4862 I-0.0299 J0.0227
G1 X0.9603 Y-1.8516
G2 X0.9454 Y-1.8562 I-0.0182 J0.0328
X0.3298 Y-1.7028 I-0.0862 J0.966
X0.3043 Y-1.6856 I0.5294 J0.8126 F160.
G1 X0.3042 Y-1.6855
X0.2907 Y-1.6839
X0.2794 Y-1.6822
X0.276 Y-1.6813
G3 X0.1818 Y-1.67 I-0.1117 J-0.5326
X-0.0348 Y-1.6664 I-0.1755 J-4.0134
G1 X-0.0792 Y-1.6661
X-0.1223 Y-1.6554
X-0.1617 Y-1.6352
X-0.1961 Y-1.6071
X-0.2243 Y-1.5729
X-0.2463 Y-1.5343
X-0.2622 Y-1.4929
X-0.2728 Y-1.4498
X-0.2794 Y-1.4059
G2 X-0.2862 Y-1.2286 I1.7665 J0.1568
G1 X-0.2866 Y-1.1843
Y-1.1399
X-0.2867 Y-1.0068
X-0.2865 Y-0.1193
Y-0.0749
X-0.2851 Y-0.0306
X-0.2729 Y0.0121
X-0.2513 Y0.0508
X-0.2221 Y0.0843
X-0.1871 Y0.1116
X-0.148 Y0.1325
X-0.1063 Y0.1476
X-0.063 Y0.1576
X-0.0191 Y0.1636
G2 X0.1582 Y0.17 I0.1585 J-1.9492
G3 X0.3197 Y0.1711 I-0.1039 J27.1298
G1 X0.3309 Y0.1725
X0.3419 Y0.175
G2 X0.3918 Y0.187 I0.183 J-0.651
G1 X0.398 Y0.1876
G3 X0.4231 Y0.2041 I-0.0063 J0.037
G1 X0.4256 Y0.2079 Z0.6302
X0.428 Y0.2116 Z0.631
X0.4304 Y0.2152 Z0.6324
X0.4327 Y0.2187 Z0.6342
X0.4348 Y0.2219 Z0.6366
X0.4367 Y0.2249 Z0.6394
X0.4385 Y0.2276 Z0.6426
X0.44 Y0.2299 Z0.6461
X0.4413 Y0.2319 Z0.65
X0.4423 Y0.2335 Z0.6541
X0.443 Y0.2346 Z0.6584
X0.4435 Y0.2353 Z0.6629
X0.4436 Y0.2355 Z0.6674
G0 Z1.698
X0.3291 Y-1.7237
Z0.7049
G1 Z0.6674 F160.
X0.3289 Y-1.7235 Z0.6629
X0.3283 Y-1.7229 Z0.6584
X0.3274 Y-1.7219 Z0.6541
X0.326 Y-1.7206 Z0.65
X0.3244 Y-1.719 Z0.6461
X0.3224 Y-1.717 Z0.6426
X0.3202 Y-1.7147 Z0.6394
X0.3176 Y-1.7122 Z0.6366
X0.3149 Y-1.7094 Z0.6342
X0.312 Y-1.7065 Z0.6324
X0.3089 Y-1.7035 Z0.631
X0.3058 Y-1.7003 Z0.6302
X0.3026 Y-1.6971 Z0.6299
G3 X0.276 Y-1.6813 I-0.0441 J-0.044
G1 X0.2569 Y-1.6764
X0.2457 Y-1.6733
X0.2282 Y-1.668
G3 X0.1057 Y-1.6515 I-0.1342 J-0.5333
G1 X0.0629 Y-1.6493
X0.0185 Y-1.6483
X-0.0258 Y-1.6471
X-0.0692 Y-1.6377
X-0.11 Y-1.6202
X-0.1468 Y-1.5954
X-0.1786 Y-1.5645
X-0.2048 Y-1.5287
X-0.2255 Y-1.4894
X-0.2409 Y-1.4478
X-0.2516 Y-1.4048
X-0.2586 Y-1.3609
G2 X-0.2672 Y-1.1837 I1.5913 J0.1657
X-0.2679 Y-0.9175 I21.6419 J0.1945
G1 X-0.2678 Y-0.1188
X-0.2638 Y-0.0746
X-0.2514 Y-0.032
X-0.2311 Y0.0075
X-0.204 Y0.0425
X-0.1711 Y0.0724
X-0.1339 Y0.0966
X-0.0937 Y0.1153
X-0.0515 Y0.1289
X-0.0081 Y0.1381
G2 X0.1688 Y0.1505 I0.1713 J-1.1827
G1 X0.2132 Y0.1512
X0.2405 Y0.1514
X0.254 Y0.1522
X0.2673 Y0.1544
X0.2804 Y0.158
X0.2886 Y0.1607
X0.3419 Y0.175
G3 X0.3647 Y0.1945 I-0.011 J0.0359
X0.3356 Y0.248 I-0.0338 J0.0163 F300.
G1 X0.0209 Y0.2737
X-0.0788 Y0.2545
X-0.1627 Y0.228
X-0.2265 Y0.1911
X-0.2714 Y0.1575
X-0.3211 Y0.1046
X-0.365 Y0.0344
X-0.3866 Y-0.03
X-0.3959 Y-0.0861
Y-1.2753
X-0.3874 Y-1.3763
X-0.3766 Y-1.4436
X-0.3435 Y-1.5446
X-0.3029 Y-1.615
X-0.2671 Y-1.6591
X-0.2152 Y-1.7067
X-0.159 Y-1.7408
X-0.0916 Y-1.7665
X0.2007 Y-1.7888
G3 X0.2538 Y-1.6847 I0.0073 J0.0619
X0.2345 Y-1.6705 I-0.0458 J-0.0422 F160.
G1 X0.2282 Y-1.668
X0.1895 Y-1.6562
X0.1833 Y-1.654
G3 X0.0772 Y-1.6352 I-0.1261 J-0.4034
G1 X0.033 Y-1.6316
X-0.0109 Y-1.625
X-0.0532 Y-1.6116
X-0.0926 Y-1.5912
X-0.128 Y-1.5644
X-0.1586 Y-1.5323
X-0.1841 Y-1.496
X-0.2043 Y-1.4565
X-0.2196 Y-1.4148
X-0.2306 Y-1.3718
X-0.2381 Y-1.3281
G2 X-0.2481 Y-1.151 I1.4892 J0.173
X-0.2491 Y-0.9291 I13.9534 J0.1786
G1 Y-0.5297
X-0.249 Y-0.1748
X-0.2468 Y-0.1304
X-0.2378 Y-0.087
X-0.2215 Y-0.0457
X-0.1983 Y-0.0079
X-0.1692 Y0.0256
X-0.1351 Y0.054
X-0.0973 Y0.0773
X-0.0568 Y0.0953
X-0.0144 Y0.1086
X0.0289 Y0.1179
G2 X0.1949 Y0.1312 I0.1731 J-1.1212
G1 X0.2114 Y0.1332
X0.2274 Y0.1372
X0.2429 Y0.1432
G2 X0.2804 Y0.158 I0.106 J-0.2151
G3 X0.302 Y0.1788 I-0.013 J0.0352
X0.2682 Y0.2306 I-0.0347 J0.0143 F300.
G1 X0.0096 Y0.2478
X-0.0803 Y0.224
X-0.1547 Y0.1943
X-0.2287 Y0.1457
X-0.2829 Y0.0934
X-0.317 Y0.0485
X-0.3416 Y0.0027
X-0.3663 Y-0.0637
X-0.3779 Y-0.1422
X-0.3803 Y-0.2656
X-0.3763 Y-1.208
X-0.3682 Y-1.3426
X-0.3501 Y-1.4339
X-0.313 Y-1.5333
X-0.2873 Y-1.5894
G3 X-0.2714 Y-1.6118 I0.0875 J0.045
G1 X-0.1703 Y-1.6954
X-0.1028 Y-1.7312
X-0.0129 Y-1.7478
X0.1558 Y-1.7738
G3 X0.2079 Y-1.6721 I0.004 J0.0622
X0.1833 Y-1.654 I-0.0482 J-0.0395 F160.
G1 X0.1782 Y-1.6521
X0.1558 Y-1.6432
X0.1547 Y-1.6427
G3 X0.1049 Y-1.627 I-0.0855 J-0.1852
G1 X0.0615 Y-1.6182
X0.018 Y-1.6091
X-0.0239 Y-1.5946
X-0.0631 Y-1.5738
X-0.0987 Y-1.5473
X-0.1299 Y-1.5158
X-0.1562 Y-1.4801
X-0.1777 Y-1.4412
X-0.1944 Y-1.4001
X-0.2068 Y-1.3575
X-0.2156 Y-1.314
G2 X-0.2287 Y-1.1371 I1.2606 J0.1822
X-0.2304 Y-0.8709 I12.3673 J0.2129
G1 X-0.2303 Y-0.5159
Y-0.2497
X-0.23 Y-0.2053
X-0.2267 Y-0.1611
X-0.2174 Y-0.1177
X-0.2013 Y-0.0763
X-0.1787 Y-0.0381
X-0.1503 Y-0.004
X-0.1171 Y0.0254
X-0.08 Y0.0498
X-0.0401 Y0.0692
X0.0017 Y0.0841
X0.0447 Y0.0948
X0.0885 Y0.1022
X0.1326 Y0.1071
X0.1509 Y0.1088
X0.1657 Y0.111
X0.1801 Y0.1149
X0.194 Y0.1205
X0.2429 Y0.1432
G3 X0.2619 Y0.1665 I-0.017 J0.0334
X0.2232 Y0.2141 I-0.0361 J0.0102 F300.
G1 X-0.0129 Y0.2154
X-0.0916 Y0.1876
X-0.1703 Y0.1458
X-0.2497 Y0.0796
X-0.2939 Y0.0234
X-0.3285 Y-0.0454
X-0.348 Y-0.1101
X-0.3585 Y-0.1647
X-0.3586 Y-1.1631
X-0.3456 Y-1.3314
X-0.3276 Y-1.4099
X-0.2992 Y-1.4885
X-0.2602 Y-1.5587
X-0.204 Y-1.625
X-0.1393 Y-1.6792
X-0.1028 Y-1.6996
X0.1108 Y-1.7577
G3 X0.1768 Y-1.6639 I0.013 J0.0609
X0.1547 Y-1.6427 I-0.053 J-0.0328 F160.
G1 X0.1333 Y-1.6314
X0.1286 Y-1.6289
G3 X0.093 Y-1.6142 I-0.1288 J-0.2624
G1 X0.0509 Y-1.6001
X0.0095 Y-1.5842
X-0.0297 Y-1.5634
X-0.0658 Y-1.5376
X-0.098 Y-1.507
X-0.1257 Y-1.4724
X-0.1488 Y-1.4345
X-0.1672 Y-1.3941
X-0.1813 Y-1.3521
X-0.1917 Y-1.3089
G2 X-0.2089 Y-1.1325 I1.0549 J0.192
X-0.2116 Y-0.8219 I10.3901 J0.2462
G1 Y-0.4669
Y-0.2894
X-0.2113 Y-0.245
X-0.2085 Y-0.2007
X-0.2004 Y-0.1571
X-0.1861 Y-0.1151
X-0.1655 Y-0.0758
X-0.139 Y-0.0402
X-0.1076 Y-0.0088
X-0.0721 Y0.0178
X-0.0334 Y0.0396
X0.0075 Y0.0566
X0.05 Y0.0694
X0.0934 Y0.0788
G3 X0.1549 Y0.1007 I-0.0168 J0.1446
G1 X0.1558 Y0.1014
X0.1614 Y0.1046
X0.1895 Y0.1184
X0.194 Y0.1205
G3 X0.213 Y0.1437 I-0.0171 J0.0334
X0.1782 Y0.1913 I-0.0361 J0.0101 F300.
G1 X0.0321 Y0.1985
X-0.0241 Y0.1827
X-0.1053 Y0.149
X-0.175 Y0.1046
X-0.2377 Y0.0445
X-0.2791 Y-0.0149
X-0.3102 Y-0.0749
X-0.3278 Y-0.131
X-0.3379 Y-0.1871
X-0.3413 Y-0.4676
X-0.3386 Y-1.1295
X-0.3266 Y-1.2908
X-0.307 Y-1.3875
X-0.2714 Y-1.4798
X-0.2265 Y-1.5549
X-0.1774 Y-1.6119
X-0.1028 Y-1.6717
X0.0771 Y-1.7417
G3 X0.1505 Y-1.6502 I0.0202 J0.0589
X0.1286 Y-1.6289 I-0.0532 J-0.0325 F160.
G2 X0.0753 Y-1.6001 I1.1545 J2.201
G1 X0.0366 Y-1.5785
X-0.0016 Y-1.5557
X-0.0371 Y-1.5292
X-0.0693 Y-1.4987
X-0.0976 Y-1.4645
X-0.1215 Y-1.4271
X-0.141 Y-1.3872
X-0.1564 Y-1.3456
G2 X-0.1792 Y-1.2431 I0.6923 J0.2077
G1 X-0.1809 Y-1.2371
G2 X-0.1902 Y-1.1856 I0.2398 J0.0696
X-0.1975 Y-1.0958 I0.9707 J0.1243
G1 Y-0.5349
X-0.1973 Y-0.5124
X-0.1971 Y-0.5012
X-0.197 Y-0.4994
G3 X-0.1925 Y-0.2775 I-7.1743 J0.2554
G1 X-0.1897 Y-0.2333
X-0.182 Y-0.1896
X-0.1686 Y-0.1473
X-0.149 Y-0.1074
X-0.1237 Y-0.071
X-0.0934 Y-0.0386
X-0.0589 Y-0.0107
X-0.0211 Y0.0125
X0.0192 Y0.0311
X0.061 Y0.046
G3 X0.1034 Y0.0657 I-0.0378 J0.1367
G1 X0.1268 Y0.0822
X0.1445 Y0.0939
X0.1548 Y0.1008
G3 X0.1702 Y0.1266 I-0.0218 J0.0305
X0.1333 Y0.1688 I-0.0372 J0.0047 F300.
G1 X-0.0241 Y0.1537
X-0.1028 Y0.1155
X-0.1703 Y0.0673
X-0.2208 Y0.0148
X-0.2606 Y-0.0413
X-0.2939 Y-0.1121
X-0.3142 Y-0.1871
X-0.3212 Y-0.49
G3 X-0.2077 Y-0.528 I0.0623 J-0.0025
X-0.197 Y-0.4994 I-0.0512 J0.0355 F160.
G2 X-0.1865 Y-0.389 I1.8014 J-0.1152
G1 X-0.1816 Y-0.3531
X-0.1769 Y-0.309
X-0.1727 Y-0.2648
X-0.165 Y-0.2211
X-0.152 Y-0.1787
X-0.1333 Y-0.1384
X-0.1091 Y-0.1013
X-0.0798 Y-0.0679
X-0.0463 Y-0.0388
X-0.0094 Y-0.0142
X0.0148 Y-0.0011
X0.025 Y0.005
X0.0345 Y0.012
X0.0433 Y0.0199
X0.0498 Y0.0261
X0.063 Y0.0373
X0.0658 Y0.0393
X0.1016 Y0.0645
X0.1034 Y0.0657
G3 X0.1181 Y0.0919 I-0.0226 J0.0299
X0.0771 Y0.133 I-0.0373 J0.0038 F300.
G1 X-0.0578 Y0.1074
X-0.1005 Y0.0822
X-0.1478 Y0.0457
X-0.204 Y-0.0115
X-0.245 Y-0.0749
X-0.2773 Y-0.1422
X-0.29 Y-0.2208
X-0.3087 Y-0.3666
G3 X-0.1998 Y-0.4165 I0.0616 J-0.0093
X-0.1897 Y-0.4003 I-0.0473 J0.0406 F160.
G1 X-0.1862 Y-0.389
X-0.1842 Y-0.3778
X-0.1815 Y-0.3663
X-0.1703 Y-0.3243
X-0.1609 Y-0.2809
X-0.1493 Y-0.2381
X-0.1339 Y-0.1965
X-0.1137 Y-0.157
X-0.0885 Y-0.1204
G2 X-0.0446 Y-0.0733 I0.5609 J-0.4789
G1 X-0.0388 Y-0.0658
G3 X-0.0333 Y-0.0362 I-0.031 J0.021
G1 X-0.0342 Y-0.0331 F300.
X-0.0353 Y-0.03
X-0.0354
G3 X-0.0916 Y-0.0142 I-0.0345 J-0.0147
G1 X-0.189 Y-0.0749
G3 X-0.2176 Y-0.1086 I0.0357 J-0.0593
G1 X-0.2895 Y-0.2881
G3 X-0.1861 Y-0.3505 I0.0596 J-0.018
X-0.1703 Y-0.3243 I-0.0437 J0.0444 F160.
G1 X-0.1605 Y-0.2881
G2 X-0.1433 Y-0.2432 I0.2602 J-0.0744
G1 X-0.1173 Y-0.1871
G2 X-0.0772 Y-0.1198 I0.3145 J-0.1416
G1 X-0.0536 Y-0.0861
X-0.0354 Y-0.0611
X-0.0284 Y-0.0525
G2 X0.0434 Y0.0199 I1.9407 J-1.8522
G1 X0.0462 Y0.0233
X0.0486 Y0.027
X0.0506 Y0.031
X0.0521 Y0.0351
X0.0531 Y0.0394
X0.0535 Y0.0438
Y0.0482
G3 X-0.0016 Y0.0787 I-0.0374 J-0.0025 F300.
G1 X-0.1253 Y0.0194
G3 X-0.159 Y-0.0094 I0.0455 J-0.0873
G1 X-0.2152 Y-0.091
X-0.2716 Y-0.2095
X-0.3132 Y-0.3554
X-0.3272 Y-0.5012
X-0.3263 Y-1.1407
X-0.3118 Y-1.2529
X-0.2802 Y-1.3875
X-0.249 Y-1.4632
X-0.2484 Y-1.4646
X-0.2478 Y-1.466
X-0.2086 Y-1.5333
X-0.1703 Y-1.5793
X0.0032 Y-1.7016
G3 X0.0959 Y-1.6232 I0.0373 J0.0499
G1 X0.0753 Y-1.6001 F160.
X0.0658 Y-1.5941
G2 X-0.0096 Y-1.5334 I0.7709 J1.0334
G1 X-0.033 Y-1.5109
G2 X-0.0969 Y-1.4325 I1.8387 J1.5634
X-0.1456 Y-1.3426 I1.0433 J0.6231
G1 X-0.1555 Y-1.3202
G2 X-0.1809 Y-1.2371 I1.4007 J0.4733
G1 X-0.1934 Y-1.2192
X-0.2019 Y-1.2159
X-0.2602 Y-1.193 F300.
G2 X-0.3271 Y-1.0958 I0.0314 J0.0933
G1 X-0.3265 Y-0.4788
X-0.3113 Y-0.3442
X-0.2714 Y-0.2094
X-0.212 Y-0.0861
X-0.1327 Y0.0261
X-0.0241 Y0.1349
X0.0883 Y0.2123
X0.4368 Y0.3823
X0.493 Y0.3986
X0.5605 Y0.4052
X3.4384 Y0.4041
X3.4609 Y0.4006
G2 X3.5501 Y0.3065 I-0.0092 J-0.098
G1 X3.5524 Y0.2392
G3 X3.5706 Y0.2002 I0.0621 J0.0052
X3.597 Y0.1847 I0.0439 J0.0442 F160.
G1 X3.6183 Y0.1792
X3.6295 Y0.1763
X3.652 Y0.1703
G3 X3.7868 Y0.1544 I0.1444 J0.646
G1 X3.8312 Y0.1527
X3.8755 Y0.1519
X3.9198 Y0.1495
X3.9629 Y0.1388
X4.0032 Y0.1201
X4.0393 Y0.0943
X4.0703 Y0.0626
X4.0958 Y0.0263
X4.1157 Y-0.0133
X4.1304 Y-0.0552
X4.1406 Y-0.0984
X4.1471 Y-0.1423
G2 X4.1551 Y-0.341 I-1.8778 J-0.1747
G1 X4.1557 Y-0.3504
X4.1568 Y-0.3598
X4.1585 Y-0.3691
X4.1605 Y-0.3778
X4.1646 Y-0.4003
G2 X4.1735 Y-0.5012 I-3.7727 J-0.3844
G1 X4.1738 Y-0.5237
X4.1739 Y-0.5349
Y-1.0958
G2 X4.1648 Y-1.2002 I-1.0561 J0.0391
G3 X4.1562 Y-1.3673 I1.4359 J-0.158
G1 X4.1537 Y-1.4116
X4.1431 Y-1.4547
X4.1245 Y-1.495
X4.0987 Y-1.5311
X4.067 Y-1.5622
X4.0307 Y-1.5877
X3.991 Y-1.6075
X3.9492 Y-1.6223
X3.906 Y-1.6325
X3.8621 Y-1.6391
X3.8404 Y-1.641
X3.8282 Y-1.6427
X3.8162 Y-1.6456
X3.8046 Y-1.6496
X3.7981 Y-1.6521
X3.7869 Y-1.6562
X3.737 Y-1.6714
G3 X3.7148 Y-1.6917 I0.0121 J-0.0355
X3.7419 Y-1.7437 I0.0343 J-0.0152 F300.
G1 X3.8768 Y-1.7646
G3 X3.9218 Y-1.7631 I0.0193 J0.0965
G1 X4.023 Y-1.7349
X4.0904 Y-1.7013
X4.1691 Y-1.6447
X4.2382 Y-1.5558
X4.2703 Y-1.4823
X4.2796 Y-1.4436
X4.2879 Y-1.2192
G3 X4.1777 Y-1.1724 I-0.0619 J0.0074
X4.1648 Y-1.2002 I0.0483 J-0.0394 F160.
G1 X4.1619 Y-1.2192
X4.1592 Y-1.2304
X4.155 Y-1.245
G3 X4.1433 Y-1.3166 I0.4517 J-0.1112
G1 X4.139 Y-1.3608
X4.13 Y-1.4042
X4.1141 Y-1.4456
X4.0915 Y-1.4838
X4.0628 Y-1.5177
X4.0293 Y-1.5467
X3.9918 Y-1.5705
X3.9516 Y-1.5892
X3.9094 Y-1.6031
G3 X3.87 Y-1.617 I0.0307 J-0.1505
G1 X3.8431 Y-1.6314
X3.8206 Y-1.6432
X3.8046 Y-1.6496
G3 X3.7841 Y-1.6716 I0.015 J-0.0344
X3.8206 Y-1.7214 I0.0354 J-0.0124 F300.
G1 X3.9443 Y-1.7253
G3 X3.9892 Y-1.7145 I0.0003 J0.0984
G1 X4.0679 Y-1.6765
X4.1129 Y-1.6448
X4.172 Y-1.5894
X4.2264 Y-1.5109
X4.2387 Y-1.4772
X4.2756 Y-1.2753
G3 X4.1713 Y-1.2191 I-0.0613 J0.0111
X4.155 Y-1.245 I0.043 J-0.0451 F160.
G1 X4.1528 Y-1.2529
X4.1373 Y-1.3039
X4.1265 Y-1.3469
X4.1124 Y-1.389
X4.0931 Y-1.429
X4.0682 Y-1.4657
X4.0381 Y-1.4984
X4.0038 Y-1.5264
X3.9748 Y-1.5444
X3.97 Y-1.5475
X3.9653 Y-1.5508
X3.9608 Y-1.5544
G3 X3.9481 Y-1.5816 I0.0248 J-0.0281
G1 X3.9524 Y-1.6007 F300.
G3 X4.0798 Y-1.6343 I0.0727 J0.0172
G1 X4.156 Y-1.5446
X4.2511 Y-1.3538
G3 X4.1542 Y-1.2783 I-0.0548 J0.0296
X4.1466 Y-1.2865 I0.0421 J-0.046 F160.
G1 X4.1373 Y-1.3039
G2 X4.1164 Y-1.3538 I-0.2578 J0.0789
G1 X4.0865 Y-1.4099
G2 X4.0649 Y-1.4436 I-0.2242 J0.1198
X4.0095 Y-1.511 I-4.2123 J3.4102
G1 X3.9859 Y-1.5333
G2 X3.9106 Y-1.5942 I-0.9171 J1.057
X3.87 Y-1.617 I-0.3036 J0.4949
G1 X3.8663 Y-1.6194
X3.8629 Y-1.6223
X3.8599 Y-1.6255
X3.8573 Y-1.6291
X3.8551 Y-1.6329
X3.8534 Y-1.637
X3.8522 Y-1.6412
G3 X3.8993 Y-1.6854 I0.0366 J-0.0082 F300.
G1 X4.0342 Y-1.6515
G3 X4.0796 Y-1.6231 I-0.0275 J0.0945
G1 X4.1354 Y-1.5616
X4.1804 Y-1.5044
X4.2284 Y-1.4212
X4.258 Y-1.3538
X4.2905 Y-1.2417
X4.3028 Y-1.1295
X4.3031 Y-0.4788
X4.2746 Y-0.1083
X4.2555 Y-0.017
X4.2297 Y0.0485
X4.1999 Y0.1046
X4.1565 Y0.1607
X4.1017 Y0.2103
X4.0455 Y0.2446
X3.978 Y0.27
X3.6745 Y0.292
G3 X3.6258 Y0.1861 I-0.0043 J-0.0622
X3.652 Y0.1703 I0.0444 J0.0437 F160.
G1 X3.6878 Y0.1607
X3.697 Y0.1577
X3.7004 Y0.1564
G3 X3.7875 Y0.1402 I0.1146 J0.3735
G1 X3.8317 Y0.1361
X3.876 Y0.1326
X3.9192 Y0.1227
X3.9602 Y0.1058
X3.9978 Y0.0822
X4.031 Y0.0527
X4.0591 Y0.0184
X4.0821 Y-0.0196
X4.1 Y-0.0602
X4.1131 Y-0.1026
X4.1223 Y-0.146
G2 X4.1342 Y-0.2736 I-1.0261 J-0.16
G1 X4.1358 Y-0.2827
X4.1379 Y-0.2916
X4.158 Y-0.3666
X4.1585 Y-0.3691
G3 X4.1773 Y-0.3926 I0.0362 J0.0097
X4.2316 Y-0.3666 I0.0175 J0.0332 F300.
G1 X4.2594 Y-0.1871
X4.24 Y-0.0749
X4.2028 Y0.0304
X4.1513 Y0.1111
X4.1054 Y0.1592
X4.0567 Y0.1987
X4.0005 Y0.2312
X3.9443 Y0.2497
X3.7307 Y0.2762
G3 X3.6756 Y0.1744 I-0.0073 J-0.0619
X3.7004 Y0.1564 I0.0478 J0.04 F160.
G1 X3.7199 Y0.1495
X3.7307 Y0.1446
G3 X3.7887 Y0.1282 I0.0998 J0.2428
G1 X3.8324 Y0.1201
X3.8757 Y0.1105
X3.9173 Y0.0951
X3.9561 Y0.0736
X3.9911 Y0.0463
X4.0217 Y0.0141
X4.0474 Y-0.022
X4.0681 Y-0.0613
X4.0841 Y-0.1026
G2 X4.1076 Y-0.2115 I-0.6182 J-0.1906
G1 X4.1116 Y-0.2241
X4.1166 Y-0.2363
G2 X4.138 Y-0.2916 I-0.3048 J-0.1499
G1 X4.1395 Y-0.2957
X4.1415 Y-0.2996
X4.1439 Y-0.3033
X4.1468 Y-0.3066
X4.15 Y-0.3096
X4.1536 Y-0.3122
X4.1574 Y-0.3144
G3 X4.2105 Y-0.2881 I0.0163 J0.0338 F300.
G1 X4.2258 Y-0.131
X4.2113 Y-0.0749
X4.1804 Y0.0058
X4.14 Y0.0709
X4.0904 Y0.1314
X4.027 Y0.1818
X3.978 Y0.2078
X3.7757 Y0.2601
G3 X3.7076 Y0.1647 I-0.0167 J-0.06
X3.7226 Y0.1495 I0.0513 J0.0354 F160.
G1 X3.7307 Y0.1446
X3.7644 Y0.1289
G3 X3.8392 Y0.1024 I0.2959 J0.7172
G1 X3.8806 Y0.0862
X3.9196 Y0.0652
X3.9555 Y0.0391
X3.9875 Y0.0083
X4.0149 Y-0.0266
X4.0376 Y-0.0647
X4.0558 Y-0.1052
X4.0621 Y-0.124
X4.0659 Y-0.1339
X4.0704 Y-0.1434
X4.0757 Y-0.1525
G2 X4.1166 Y-0.2363 I-0.9141 J-0.4975
G3 X4.1398 Y-0.2553 I0.0334 J0.017
X4.1875 Y-0.2208 I0.0102 J0.0361 F300.
G1 X4.1691 Y-0.04
X4.1425 Y0.0148
X4.0957 Y0.0822
X4.039 Y0.1382
X3.9892 Y0.1756
X3.8094 Y0.2444
G3 X3.7414 Y0.149 I-0.0167 J-0.06
X3.7532 Y0.1362 I0.0513 J0.0353 F160.
G1 X3.7644 Y0.1289
G2 X3.8217 Y0.1008 I-0.2738 J-0.6314
G1 X3.8598 Y0.078
X3.8972 Y0.0542
X3.932 Y0.0267
X3.9634 Y-0.0047
G3 X3.989 Y-0.036 I0.2493 J0.1778
G1 X3.9924 Y-0.0388
X3.9961 Y-0.0412
X4.0001 Y-0.0431
X4.0043 Y-0.0446
X4.0086 Y-0.0455
X4.013 Y-0.046
X4.0174 Y-0.0459
G3 X4.0383 Y0.0206 I-0.0028 J0.0374 F300.
G1 X3.8672 Y0.1603
G3 X3.8063 Y0.1266 I-0.0237 J-0.029
X3.8216 Y0.1007 I0.0372 J0.0047 F160.
G2 X3.9133 Y0.0373 I-1.4245 J-2.1555
G1 X3.9266 Y0.0261
G2 X4.0048 Y-0.0524 I-1.5127 J-1.5861
X4.0757 Y-0.1525 I-1.2665 J-0.973
G1 X4.0784 Y-0.1559
X4.0815 Y-0.1591
X4.085 Y-0.1618
X4.0887 Y-0.1642
X4.0927 Y-0.166
X4.0969 Y-0.1674
X4.1012 Y-0.1683
X4.1057 Y-0.169 Z0.6302
X4.1101 Y-0.1696 Z0.631
X4.1144 Y-0.1702 Z0.6324
X4.1185 Y-0.1708 Z0.6342
X4.1223 Y-0.1714 Z0.6366
X4.1259 Y-0.1719 Z0.6394
X4.129 Y-0.1724 Z0.6426
X4.1318 Y-0.1728 Z0.6461
X4.1341 Y-0.1731 Z0.65
X4.1359 Y-0.1734 Z0.6541
X4.1373 Y-0.1735 Z0.6584
X4.1381 Y-0.1737 Z0.6629
X4.1384 Z0.6674
G0 Z2.098
(2D CONTOUR1 2)
G64 P0.0004 Q0.0004
G0 X3.6202 Y-1.7961
Z2.098
Z1.698
G1 Z1.5374 F200.
Z0.6674
G19 G3 Y-1.7586 Z0.6299 J0.0375 K0. F60.
G1 Y-1.7211
G17 G3 X3.5827 Y-1.6836 I-0.0375 J0.
G1 X3.1972
G2 X2.2616 Y-0.9829 I0. J0.9749
G3 X1.7148 I-0.2734 J-0.0801
G2 X0.7792 Y-1.6836 I-0.9355 J0.2742
G1 X0.3937
G2 X-0.1875 Y-1.1024 I0. J0.5812
G1 Y-0.5118
G2 X0.5118 Y0.1875 I0.6993 J0.
G1 X3.4646
G2 X4.1639 Y-0.5118 I0. J-0.6993
G1 Y-1.1024
G2 X3.5827 Y-1.6836 I-0.5812 J0.
G1 X3.1972
G2 X2.2616 Y-0.9829 I0. J0.9749
G3 X1.7148 I-0.2734 J-0.0801
G2 X0.7792 Y-1.6836 I-0.9355 J0.2742
G1 X0.3937
G2 X-0.1875 Y-1.1024 I0. J0.5812
G1 Y-0.5118
G2 X0.5118 Y0.1875 I0.6993 J0.
G1 X3.4646
G2 X4.1639 Y-0.5118 I0. J-0.6993
G1 Y-1.1024
G2 X3.5827 Y-1.6836 I-0.5812 J0.
G3 X3.5452 Y-1.7211 I0. J-0.0375
G1 Y-1.7586
G19 G2 Y-1.7961 Z0.6674 J0. K0.0375
G0 Z2.098
G17
M5
G53 G0 Z-0.6
(2D CHAMFER2 2)
M9
M1
T13 M6
T35
S7500 M3
G17 G90 G94
G55
M8
G0 X3.5827 Y-1.6026
G43 Z2.098 H13
G0 Z1.698
G1 Z1.578 F200.
Z1.3861
X3.1972 F100.
G2 X2.3394 Y-0.9601 I0. J0.8939
G3 X1.637 I-0.3512 J-0.1029
G2 X0.7792 Y-1.6026 I-0.8578 J0.2514
G1 X0.3937
G2 X-0.1065 Y-1.1024 I0. J0.5002
G1 Y-0.5118
G2 X0.5118 Y0.1065 I0.6183 J0.
G1 X3.4646
G2 X4.0829 Y-0.5118 I0. J-0.6183
G1 Y-1.1024
G2 X3.5827 Y-1.6026 I-0.5002 J0.
G0 Z1.698
X3.5531 Y-0.5118
G1 Z1.578 F200.
Z1.3861
G3 X3.3761 I-0.0885 J0. F100.
X3.5531 I0.0885 J0.
G0 Z1.698
X0.6003
G1 Z1.578 F200.
Z1.3861
G3 X0.4233 I-0.0885 J0. F100.
X0.6003 I0.0885 J0.
G0 Z2.098
X2.0785 Y-1.063
Z1.698
G1 Z1.578 F200.
Z0.5199
G3 X1.8978 I-0.0904 J0. F100.
X2.0785 I0.0904 J0.
G0 Z2.098
(2D CHAMFER3)
G0 X2.7535 Y-1.6326
Z2.098
Z1.698
G1 Z1.578 F200.
Z0.4699
X1.2228 F100.
G0 Z2.098
M5
M9
G53 G0 Z-0.6
M30
%
