%
(OP1)
(MACHINE)
(  VENDOR CALLUM)
(  MODEL MILL R1)
(  DESCRIPTION 14X8X14 MILL)
(T13 D=0.375 CR=0. TAPER=45DEG - ZMIN=0.38 - CHAMFER MILL)
(T25 D=0.375 CR=0.02 - ZMIN=-0.03 - BULLNOSE END MILL)
(T103 D=0.3 CR=0. TAPER=135DEG - ZMIN=-0.1121 - DRILL)
G90 G94 G17 G91.1
G20
G53 G0 Z-0.6
(DRILL1)
T103 M6
T25
S1500 M3
G17 G90 G94
G55
M8
G0 X1.56 Y-1.56
G43 Z1.1 H103
G0 Z0.7
G98 G81 X1.56 Y-1.56 Z-0.1121 R0.7 F7.
G80
G0 Z1.1
M5
G53 G0 Z-0.6
(2D ADAPTIVE1)
M9
M1
T25 M6
T13
S5000 M3
G17 G90 G94
G55
G64 P0.004 Q0.004
M8
G0 X3.6937 Y-3.3294
G43 Z1.1 H25
G0 Z0.7
Z0.3362
G1 Z0.2987 F50.
Z0.22
G3 X3.4896 Y-3.3 I-0.2376 J-0.9274
G1 X3.484
X3.44 Y-3.309
X3.3955 Y-3.3159
X3.3509 Y-3.3211
X3.3061 Y-3.3251
X3.2612 Y-3.3281
X3.2163 Y-3.3304
X3.1714 Y-3.3321
X3.1265 Y-3.3334
X3.0815 Y-3.3344
X3.0365 Y-3.3352
X2.9916 Y-3.3357
X2.9466 Y-3.3362
X2.9017 Y-3.3365
X2.8567 Y-3.3367
X2.8117 Y-3.3369
X2.7218 Y-3.3372
X2.5869 Y-3.3374
X2.3621 Y-3.3375
X1.5078
X0.1589
X0.1369 Y-3.3326
X0.0977 Y-3.3107
X0.067 Y-3.2778
X0.0429 Y-3.2399
X0.0241 Y-3.199
X0.0095 Y-3.1565
X-0.0017 Y-3.1129
X-0.0103 Y-3.0688
X-0.0169 Y-3.0243
X-0.0191 Y-3.0132
X-0.0233 Y-3.0026
X-0.0293 Y-2.993
X-0.0324 Y-2.9887
X-0.0375 Y-2.9812
X-0.046 Y-2.9662
X-0.076 Y-2.91
X-0.0817 Y-2.8987
X-0.0825 Y-2.8971
X-0.0869 Y-2.8875
X-0.0947 Y-2.865
X-0.0984 Y-2.8537
X-0.1162 Y-2.7949
X-0.1182 Y-2.7862
X-0.1229 Y-2.7637
X-0.1242 Y-2.7525
X-0.1265 Y-2.73
X-0.1299 Y-2.6962
X-0.1317 Y-2.6737
X-0.1324 Y-2.6625
X-0.1325 Y-2.6175
Y-0.4688
X-0.1321 Y-0.4575
X-0.1309 Y-0.435
X-0.1299 Y-0.4238
X-0.1243 Y-0.3675
X-0.1207 Y-0.345
X-0.1185 Y-0.3338
X-0.112 Y-0.3113
X-0.1086 Y-0.3
X-0.1018 Y-0.2775
X-0.0983 Y-0.2663
X-0.0912 Y-0.2438
X-0.0908 Y-0.2427
X-0.087 Y-0.2322
X-0.0745 Y-0.189
X-0.0653 Y-0.145
X-0.0561 Y-0.1244
X-0.0296 Y-0.0881
X0.005 Y-0.0594
X0.0411 Y-0.0386
X0.0451 Y-0.0362
X0.0489 Y-0.0335
X0.0525 Y-0.0306
G3 X0.0527 Y-0.0031 I-0.0124 J0.0138
X0.0248 Y-0.0064 I-0.0126 J-0.0136 F300.
G1 X-0.123 Y-0.2246
G3 X-0.1169 Y-0.2511 I0.0154 J-0.0104
X-0.0908 Y-0.2427 I0.0093 J0.0161 F50.
G1 X-0.0865 Y-0.2325
X-0.0814 Y-0.2213
X-0.076 Y-0.21
X-0.046 Y-0.1538
X-0.0398 Y-0.1425
X-0.0328 Y-0.1313
X-0.0262 Y-0.1222
X-0.0246 Y-0.12
X-0.0158 Y-0.1088
X0.0188 Y-0.0667
X0.03 Y-0.0532
X0.0306 Y-0.0525
X0.0413 Y-0.0413
X0.0525 Y-0.0306
X0.0667 Y-0.0188
X0.1088 Y0.0158
X0.12 Y0.0246
X0.1222 Y0.0262
X0.1313 Y0.0328
X0.1425 Y0.0398
X0.1538 Y0.046
X0.21 Y0.076
X0.2213 Y0.0814
X0.2325 Y0.0865
X0.2438 Y0.0912
X0.2663 Y0.0983
X0.2775 Y0.1018
X0.3 Y0.1086
X0.3113 Y0.112
X0.3338 Y0.1185
X0.345 Y0.1207
X0.3675 Y0.1243
X0.4238 Y0.1299
X0.435 Y0.1309
X0.4575 Y0.1321
X0.4688 Y0.1325
X2.64
X2.6625 Y0.1324
X2.6737 Y0.1317
X2.6962 Y0.1299
X2.73 Y0.1265
X2.7525 Y0.1242
X2.7637 Y0.1229
X2.7862 Y0.1182
X2.7949 Y0.1162
X2.8537 Y0.0984
X2.865 Y0.0947
X2.8677 Y0.0937
X2.9109 Y0.0812
X2.9545 Y0.0702
X2.9987 Y0.062
X3.0433 Y0.056
X3.088 Y0.0514
X3.1329 Y0.048
X3.1549 Y0.0438
X3.1755 Y0.0347
X3.2119 Y0.0082
X3.2405 Y-0.0264
X3.263 Y-0.0653
X3.2805 Y-0.1068
X3.294 Y-0.1496
X3.3044 Y-0.1934
X3.3124 Y-0.2376
X3.3184 Y-0.2822
X3.3231 Y-0.3269
X3.3266 Y-0.3717
X3.3292 Y-0.4166
X3.3312 Y-0.4616
X3.3328 Y-0.5065
X3.3339 Y-0.5514
X3.3348 Y-0.5964
X3.3355 Y-0.6414
X3.336 Y-0.6863
X3.3363 Y-0.7313
X3.3366 Y-0.7762
X3.3368 Y-0.8212
X3.3371 Y-0.9111
X3.3373 Y-1.0011
X3.3374 Y-1.1809
X3.3375 Y-1.5856
Y-2.9795
X3.3348 Y-3.0018
X3.3293 Y-3.0236
X3.3079 Y-3.0631
X3.2751 Y-3.0939
X3.2368 Y-3.1174
X3.1954 Y-3.1351
X3.1525 Y-3.1484
X3.1087 Y-3.1584
X3.0643 Y-3.1658
X3.0197 Y-3.1714
X2.9749 Y-3.1755
X2.9589 Y-3.1766
X2.9495 Y-3.1779
X2.9404 Y-3.1805
X2.9317 Y-3.1844
X2.9212 Y-3.19
X2.9189 Y-3.1912
X2.8875 Y-3.2071
X2.865 Y-3.2147
X2.8537 Y-3.2184
X2.7949 Y-3.2362
X2.7862 Y-3.2386
X2.775 Y-3.2409
X2.7637 Y-3.243
X2.7525 Y-3.2442
X2.73 Y-3.2465
X2.6962 Y-3.2499
X2.6737 Y-3.2517
X2.6625 Y-3.2524
X2.6175 Y-3.2525
X0.4688
X0.4575 Y-3.2521
X0.435 Y-3.2509
X0.4238 Y-3.2499
X0.3675 Y-3.2443
X0.345 Y-3.2407
X0.3338 Y-3.2385
X0.3113 Y-3.232
X0.3 Y-3.2286
X0.2775 Y-3.2218
X0.2663 Y-3.2183
X0.2438 Y-3.2112
X0.2325 Y-3.2069
X0.21 Y-3.196
X0.1538 Y-3.1659
X0.1425 Y-3.1596
X0.12 Y-3.1447
X0.1078 Y-3.135
X0.0804 Y-3.1125
X0.0525 Y-3.0894
X0.0413 Y-3.0789
X0.0188 Y-3.0533
X-0.0065 Y-3.0225
X-0.015 Y-3.0121
X-0.0293 Y-2.993
G3 X-0.0559 Y-2.979 I-0.0292 J-0.0235
G1 X-0.0604 Y-2.9787 Z0.2203
X-0.0649 Y-2.9784 Z0.2211
X-0.0692 Y-2.9781 Z0.2224
X-0.0733 Y-2.9778 Z0.2243
X-0.0772 Y-2.9776 Z0.2266
X-0.0807 Y-2.9773 Z0.2294
X-0.0839 Y-2.9771 Z0.2326
X-0.0867 Y-2.9769 Z0.2362
X-0.089 Y-2.9767 Z0.2401
X-0.0909 Y-2.9766 Z0.2442
X-0.0922 Y-2.9765 Z0.2485
X-0.093 Z0.253
X-0.0933 Y-2.9764 Z0.2575
G0 Z0.7
X2.8183 Y0.1403
Z0.295
G1 Z0.2575 F50.
X2.8185 Y0.1401 Z0.253
X2.819 Y0.1395 Z0.2485
X2.8199 Y0.1384 Z0.2442
X2.8211 Y0.137 Z0.2401
X2.8226 Y0.1352 Z0.2362
X2.8244 Y0.1331 Z0.2326
X2.8265 Y0.1306 Z0.2294
X2.8288 Y0.1279 Z0.2266
X2.8313 Y0.125 Z0.2243
X2.834 Y0.1218 Z0.2224
X2.8368 Y0.1185 Z0.2211
X2.8396 Y0.1151 Z0.2203
X2.8425 Y0.1116 Z0.22
G3 X2.8677 Y0.0937 I0.0476 J0.0402
G1 X2.8875 Y0.0869
X2.8971 Y0.0825
X2.8987 Y0.0817
X2.91 Y0.076
X2.9662 Y0.046
X2.9812 Y0.0375
X2.9887 Y0.0324
X3.0121 Y0.015
X3.0259 Y0.0037
X3.0533 Y-0.0188
X3.0789 Y-0.0413
X3.0894 Y-0.0525
X3.1125 Y-0.0804
X3.1357 Y-0.1088
X3.1447 Y-0.12
X3.1596 Y-0.1425
X3.1659 Y-0.1538
X3.196 Y-0.21
X3.2069 Y-0.2325
X3.2112 Y-0.2438
X3.2183 Y-0.2663
X3.2218 Y-0.2775
X3.2286 Y-0.3
X3.232 Y-0.3113
X3.2385 Y-0.3338
X3.2407 Y-0.345
X3.2443 Y-0.3675
X3.2499 Y-0.4238
X3.2509 Y-0.435
X3.2521 Y-0.4575
X3.2525 Y-0.4688
Y-2.64
X3.2524 Y-2.6625
X3.2517 Y-2.6737
X3.2499 Y-2.6962
X3.2465 Y-2.73
X3.2442 Y-2.7525
X3.243 Y-2.7637
X3.2409 Y-2.775
X3.2386 Y-2.7862
X3.2362 Y-2.7949
X3.2184 Y-2.8537
X3.2147 Y-2.865
X3.2071 Y-2.8875
X3.1912 Y-2.9189
X3.19 Y-2.9212
X3.178 Y-2.9437
X3.1719 Y-2.955
X3.1575 Y-2.9811
X3.1527 Y-2.9887
X3.1448 Y-3.
X3.135 Y-3.0121
X3.1081 Y-3.045
X3.1012 Y-3.0531
X3.0792 Y-3.0787
X3.0787 Y-3.0792
X3.0531 Y-3.1012
X3.045 Y-3.1081
X3.0112 Y-3.1357
X3. Y-3.1448
X2.9887 Y-3.1527
X2.9811 Y-3.1575
X2.955 Y-3.1719
X2.9317 Y-3.1844
G3 X2.9139 Y-3.2087 I0.0188 J-0.0324
G1 X2.9129 Y-3.2131 Z0.2203
X2.912 Y-3.2174 Z0.2211
X2.911 Y-3.2216 Z0.2224
X2.9101 Y-3.2257 Z0.2243
X2.9093 Y-3.2294 Z0.2266
X2.9085 Y-3.2329 Z0.2294
X2.9078 Y-3.236 Z0.2326
X2.9072 Y-3.2388 Z0.2362
X2.9067 Y-3.2411 Z0.2401
X2.9062 Y-3.2429 Z0.2442
X2.906 Y-3.2442 Z0.2485
X2.9058 Y-3.245 Z0.253
X2.9057 Y-3.2453 Z0.2575
G0 Z1.1
(2D CONTOUR1)
G64 P0.0004 Q0.0004
G0 X1.5834 Y-1.56
Z1.1
Z0.7
G1 Z0.5394 F20.
Z-0.03
G3 X1.5366 I-0.0234 J0. F50.
X1.5834 I0.0234 J0.
X1.5366 I-0.0234 J0.
X1.5834 I0.0234 J0.
G0 Z1.1
(2D CONTOUR1 2)
G0 X-0.24 Y-1.5975
Z1.1
Z0.7
G1 Z0.5394 F20.
Z0.2675
G18 G2 X-0.2025 Z0.23 I0.0375 K0. F40.
G1 X-0.165
G17 G3 X-0.1275 Y-1.56 I0. J0.0375
G1 Y-0.46
G2 X0.46 Y0.1275 I0.5875 J0.
G1 X2.66
G2 X3.2475 Y-0.46 I0. J-0.5875
G1 Y-2.66
G2 X2.66 Y-3.2475 I-0.5875 J0.
G1 X0.46
G2 X-0.1275 Y-2.66 I0. J0.5875
G1 Y-0.46
G2 X0.46 Y0.1275 I0.5875 J0.
G1 X2.66
G2 X3.2475 Y-0.46 I0. J-0.5875
G1 Y-2.66
G2 X2.66 Y-3.2475 I-0.5875 J0.
G1 X0.46
G2 X-0.1275 Y-2.66 I0. J0.5875
G1 Y-1.56
G3 X-0.165 Y-1.5225 I-0.0375 J0.
G1 X-0.2025
G18 G3 X-0.24 Z0.2675 I0. K0.0375
G0 Z1.1
G17
M5
G53 G0 Z-0.6
(2D CHAMFER1)
M9
M1
T13 M6
T103
S3000 M3
G17 G90 G94
G55
M8
G0 X1.6744 Y-1.56
G43 Z1.1 H13
G0 Z0.7
G1 Z0.38 F80.
G3 X1.4456 I-0.1144 J0. F20.
X1.6744 I0.1144 J0.
G0 Z0.7
X3.1565
G1 Z0.38 F80.
Y-2.66 F20.
G2 X2.66 Y-3.1565 I-0.4965 J0.
G1 X0.46
G2 X-0.0365 Y-2.66 I0. J0.4965
G1 Y-0.46
G2 X0.46 Y0.0365 I0.4965 J0.
G1 X2.66
G2 X3.1565 Y-0.46 I0. J-0.4965
G1 Y-1.56
G0 Z1.1
M5
M9
G53 G0 Z-0.6
M30
%
