%
(OP2)
(MACHINE)
(  VENDOR CALLUM)
(  MODEL MILL R1)
(  DESCRIPTION 14X8X14 MILL)
(T13 D=0.375 CR=0. TAPER=45DEG - ZMIN=0.15 - CHAMFER MILL)
(T25 D=0.375 CR=0.02 - ZMIN=0.25 - BULLNOSE END MILL)
G90 G94 G17 G91.1
G20
G53 G0 Z-0.6
(2D ADAPTIVE1 2)
T25 M6
T13
S5000 M3
G17 G90 G94
G55
G64 P0.004 Q0.004
M8
G0 X-0.0294 Y-3.6937
G43 Z1.1 H25
G0 Z0.7
Z0.3662
G1 Z0.3287 F50.
Z0.25
G3 X0. Y-3.4896 I-0.9274 J0.2376
G1 Y-3.484
X-0.009 Y-3.44
X-0.0159 Y-3.3955
X-0.0211 Y-3.3509
X-0.0251 Y-3.3061
X-0.0281 Y-3.2612
X-0.0304 Y-3.2163
X-0.0321 Y-3.1714
X-0.0334 Y-3.1265
X-0.0344 Y-3.0815
X-0.0352 Y-3.0365
X-0.0357 Y-2.9916
X-0.0362 Y-2.9466
X-0.0365 Y-2.9017
X-0.0367 Y-2.8567
X-0.0369 Y-2.8117
X-0.0372 Y-2.7218
X-0.0374 Y-2.5869
X-0.0375 Y-2.3621
Y-1.5078
Y-0.1589
X-0.0326 Y-0.1369
X-0.0107 Y-0.0977
X0.0222 Y-0.067
X0.0601 Y-0.0429
X0.101 Y-0.0241
X0.1435 Y-0.0095
X0.1871 Y0.0017
X0.2312 Y0.0103
X0.2757 Y0.0169
X0.3204 Y0.0219
X0.3652 Y0.0257
X0.41 Y0.0285
X0.4549 Y0.0307
X0.4999 Y0.0324
X0.5448 Y0.0336
X0.5898 Y0.0346
X0.6347 Y0.0353
X0.6797 Y0.0358
X0.7247 Y0.0362
X0.7696 Y0.0365
X0.8146 Y0.0368
X0.8596 Y0.037
X0.9495 Y0.0372
X1.0844 Y0.0374
X1.3092 Y0.0375
X2.5232
X3.1302
X3.1525 Y0.0348
X3.1733 Y0.0262
X3.2102 Y0.0005
X3.2392 Y-0.0338
X3.262 Y-0.0726
X3.2797 Y-0.1139
X3.2934 Y-0.1567
X3.304 Y-0.2005
X3.312 Y-0.2447
X3.3182 Y-0.2892
X3.3229 Y-0.334
X3.3264 Y-0.3788
X3.3291 Y-0.4237
X3.3312 Y-0.4686
X3.3327 Y-0.5135
X3.3339 Y-0.5585
X3.3348 Y-0.6034
X3.3354 Y-0.6484
X3.3359 Y-0.6933
X3.3363 Y-0.7383
X3.3366 Y-0.7833
X3.3368 Y-0.8282
X3.337 Y-0.8732
X3.3372 Y-0.9631
X3.3374 Y-1.098
X3.3375 Y-1.2779
Y-2.0872
Y-3.1214
X3.3351 Y-3.1437
X3.3292 Y-3.1655
X3.3064 Y-3.2042
X3.2731 Y-3.2344
X3.235 Y-3.2583
X3.194 Y-3.2768
X3.1514 Y-3.2912
X3.1078 Y-3.3022
X3.0637 Y-3.3107
X3.0192 Y-3.3172
X2.9745 Y-3.3221
X2.9297 Y-3.3258
X2.8848 Y-3.3287
X2.8399 Y-3.3308
X2.7949 Y-3.3324
X2.75 Y-3.3337
X2.705 Y-3.3346
X2.6601 Y-3.3353
X2.6151 Y-3.3359
X2.5702 Y-3.3363
X2.5252 Y-3.3366
X2.4802 Y-3.3368
X2.4353 Y-3.337
X2.3453 Y-3.3372
X2.2104 Y-3.3374
X1.9856 Y-3.3375
X1.3112
X0.322
X0.2996 Y-3.3348
X0.2777 Y-3.3298
X0.2379 Y-3.3089
X0.2069 Y-3.2763
X0.1832 Y-3.2381
X0.1654 Y-3.1968
X0.1519 Y-3.1539
X0.1419 Y-3.1101
X0.1344 Y-3.0658
X0.1288 Y-3.0212
X0.1246 Y-2.9764
X0.1215 Y-2.9315
X0.1192 Y-2.8866
X0.1175 Y-2.8417
X0.1162 Y-2.7967
X0.1153 Y-2.7518
X0.1145 Y-2.7068
X0.114 Y-2.6619
X0.1136 Y-2.6169
X0.1133 Y-2.5719
X0.1131 Y-2.527
X0.113 Y-2.482
X0.1128 Y-2.4371
X0.1127 Y-2.3471
X0.1126 Y-2.1673
X0.1125 Y-1.7176
Y-0.4586
Y-0.3237
X0.1275 Y-0.2813
X0.1544 Y-0.2453
X0.1885 Y-0.216
X0.2269 Y-0.1927
X0.268 Y-0.1744
X0.3106 Y-0.1601
X0.3542 Y-0.1491
X0.3984 Y-0.1405
X0.4428 Y-0.1339
X0.4875 Y-0.1289
X0.514 Y-0.1266
X0.523 Y-0.1252
X0.5317 Y-0.1226
X0.54 Y-0.1189
X0.5475 Y-0.1149
X0.5602 Y-0.1088
X0.57 Y-0.1041
X0.5813 Y-0.0989
X0.5925 Y-0.0951
X0.6038 Y-0.0916
X0.6375 Y-0.0813
X0.6488 Y-0.0781
X0.6713 Y-0.0719
X0.6825 Y-0.0698
X0.705 Y-0.0667
X0.7347 Y-0.0638
X0.7613 Y-0.0612
X0.7725 Y-0.0603
X0.795 Y-0.0601
X0.8063 Y-0.06
X2.6962
X2.7075 Y-0.0605
X2.7187 Y-0.0612
X2.73 Y-0.0623
X2.7637 Y-0.0656
X2.7862 Y-0.0681
X2.7975 Y-0.0696
X2.8087 Y-0.0722
X2.8529 Y-0.0804
X2.8972 Y-0.0884
X2.9418 Y-0.0944
X2.9863 Y-0.1006
X3.0267 Y-0.1204
X3.0607 Y-0.1498
X3.0884 Y-0.1852
X3.1105 Y-0.2244
X3.1279 Y-0.2659
X3.1287 Y-0.2685
X3.1315 Y-0.2757
X3.1351 Y-0.2825
X3.1395 Y-0.2888
X3.1462 Y-0.2981
X3.1547 Y-0.3113
X3.1575 Y-0.3159
X3.18 Y-0.3579
X3.1911 Y-0.3788
X3.2025 Y-0.4057
X3.205 Y-0.4125
X3.2137 Y-0.4412
X3.2221 Y-0.4688
X3.2251 Y-0.48
X3.2304 Y-0.5025
X3.2319 Y-0.5138
X3.2344 Y-0.5363
X3.2377 Y-0.57
X3.2388 Y-0.5813
X3.2395 Y-0.5925
X3.24 Y-0.6038
Y-2.4937
X3.2398 Y-2.5162
X3.2396 Y-2.5275
X3.2388 Y-2.5387
X3.2344 Y-2.5837
X3.2333 Y-2.595
X3.2302 Y-2.6175
X3.2281 Y-2.6287
X3.225 Y-2.64
X3.2153 Y-2.6839
X3.2084 Y-2.7283
X3.2032 Y-2.773
X3.1993 Y-2.8178
X3.1964 Y-2.8626
X3.1942 Y-2.9076
X3.1926 Y-2.9525
X3.1851 Y-2.9968
X3.1634 Y-3.0362
X3.1325 Y-3.0689
X3.0961 Y-3.0952
X3.0562 Y-3.116
X3.0143 Y-3.1324
X2.9712 Y-3.1451
X2.9273 Y-3.1549
X2.883 Y-3.1625
X2.8384 Y-3.1684
X2.7937 Y-3.1729
X2.7489 Y-3.1763
X2.704 Y-3.179
X2.6591 Y-3.181
X2.6141 Y-3.1825
X2.5692 Y-3.1837
X2.5242 Y-3.1846
X2.4793 Y-3.1853
X2.4343 Y-3.1858
X2.3893 Y-3.1862
X2.3444 Y-3.1865
X2.2994 Y-3.1868
X2.2544 Y-3.1869
X2.1645 Y-3.1872
X2.0296 Y-3.1874
X1.8048 Y-3.1875
X1.6249
X0.5008
X0.4784 Y-3.1868
X0.4346 Y-3.1764
X0.397 Y-3.1517
X0.3666 Y-3.1186
X0.3425 Y-3.0807
X0.3237 Y-3.0398
X0.3092 Y-2.9973
X0.298 Y-2.9537
X0.2895 Y-2.9096
X0.2829 Y-2.8651
X0.278 Y-2.8204
X0.2742 Y-2.7756
X0.2713 Y-2.7307
X0.2697 Y-2.6972
X0.2692 Y-2.6917
X0.2683 Y-2.6862
X0.2669 Y-2.6809
X0.2613 Y-2.6625
X0.2581 Y-2.6512
X0.2519 Y-2.6287
X0.2498 Y-2.6175
X0.2467 Y-2.595
X0.2438 Y-2.5653
X0.2413 Y-2.5387
X0.2403 Y-2.5275
X0.2401 Y-2.505
X0.24 Y-2.4937
Y-0.6038
X0.2406 Y-0.5925
X0.2423 Y-0.57
X0.2456 Y-0.5363
X0.2481 Y-0.5138
X0.2496 Y-0.5025
X0.255 Y-0.4795
X0.2579 Y-0.4688
X0.2682 Y-0.435
X0.275 Y-0.4125
X0.2775 Y-0.4057
X0.2889 Y-0.3788
X0.3129 Y-0.3338
X0.3225 Y-0.3159
X0.3251 Y-0.3113
X0.3329 Y-0.3
X0.3409 Y-0.2888
X0.345 Y-0.2831
X0.368 Y-0.255
X0.39 Y-0.2285
X0.3966 Y-0.2213
X0.4013 Y-0.217
X0.4125 Y-0.207
X0.4219 Y-0.1988
X0.4494 Y-0.1763
X0.4575 Y-0.1697
X0.4688 Y-0.1607
X0.4778 Y-0.1538
X0.48 Y-0.1523
X0.4913 Y-0.1455
X0.5168 Y-0.1313
X0.54 Y-0.1189
X0.5401 Y-0.1188
G2 X0.5609 Y-0.0961 I1.156 J-1.0363
X0.7376 Y0.0662 I1.1352 J-1.059 F300.
X0.76 Y0.0742 I0.0232 J-0.0295
G1 X2.5809 Y0.1116
G2 X2.6036 Y0.1046 I0.0008 J-0.0375
X2.7869 Y-0.0503 I-0.9075 J-1.2597
X2.8086 Y-0.0721 I-1.0908 J-1.1048 F50.
G1 X2.8087 Y-0.0722
X2.8205 Y-0.075
X2.8312 Y-0.0779
X2.8762 Y-0.0916
X2.8875 Y-0.095
X2.8943 Y-0.0975
X2.9212 Y-0.1089
X2.9662 Y-0.1329
X2.9841 Y-0.1425
X2.9887 Y-0.1453
X3.0019 Y-0.1538
X3.0112 Y-0.1605
X3.0169 Y-0.165
X3.0581 Y-0.1988
X3.0675 Y-0.2067
X3.0787 Y-0.2167
X3.0833 Y-0.2213
X3.0933 Y-0.2325
X3.1027 Y-0.2438
X3.135 Y-0.2831
X3.1395 Y-0.2888
G2 X3.1627 Y-0.3092 I-1.0475 J-1.2152
X3.3346 Y-0.4892 I-1.0707 J-1.1948 F300.
X3.343 Y-0.5115 I-0.029 J-0.0237
G1 X3.4119 Y-2.4029
G2 X3.4051 Y-2.4258 I-0.0375 J-0.0014
X3.2467 Y-2.6179 I-1.3131 J0.9218
X3.2251 Y-2.6398 I-1.1547 J1.1139 F50.
G1 X3.225 Y-2.64
X3.2219 Y-2.6512
X3.2187 Y-2.6625
X3.2084 Y-2.6962
X3.2049 Y-2.7075
X3.2011 Y-2.7187
X3.1959 Y-2.73
X3.1906 Y-2.7412
X3.1851 Y-2.7525
X3.1687 Y-2.7832
X3.1545 Y-2.8087
X3.1477 Y-2.82
X3.1462 Y-2.8222
X3.1393 Y-2.8312
X3.1303 Y-2.8425
X3.1212 Y-2.8537
X3.1012 Y-2.8781
X3.09 Y-2.8909
X3.083 Y-2.8987
X3.0787 Y-2.9034
X3.0715 Y-2.91
X3.0443 Y-2.9325
X3.0169 Y-2.955
X3.0112 Y-2.9591
X3. Y-2.9671
X2.9887 Y-2.9749
X2.9841 Y-2.9775
X2.9421 Y-3.
X2.9212 Y-3.0111
X2.8943 Y-3.0225
X2.8875 Y-3.025
X2.8537 Y-3.0353
X2.8312 Y-3.0421
X2.82 Y-3.0451
X2.7975 Y-3.0504
X2.7862 Y-3.0519
X2.7637 Y-3.0544
X2.73 Y-3.0577
X2.7075 Y-3.0594
X2.6962 Y-3.06
X0.8063
X0.7838 Y-3.0598
X0.7725 Y-3.0597
X0.7613 Y-3.0587
X0.7347 Y-3.0562
X0.7163 Y-3.0544
X0.6714 Y-3.0521
X0.6266 Y-3.0482
X0.5846 Y-3.032
X0.5561 Y-3.0106
X0.5533 Y-3.0086
X0.5504 Y-3.0068
X0.5474 Y-3.0051
G3 X0.5174 Y-3.0038 I-0.0165 J-0.0337
X0.5204 Y-3.0747 I0.0135 J-0.035 F300.
G1 X0.7006 Y-3.1276
G3 X0.7419 Y-3.0701 I0.0105 J0.036
X0.7163 Y-3.0544 I-0.0307 J-0.0215 F50.
G1 X0.705 Y-3.0533
X0.6825 Y-3.0502
X0.6713 Y-3.0481
X0.6488 Y-3.0419
X0.6375 Y-3.0387
X0.615 Y-3.0318
X0.6038 Y-3.0283
X0.5813 Y-3.021
X0.57 Y-3.0159
X0.5588 Y-3.0106
X0.5475 Y-3.0051
X0.5168 Y-2.9887
X0.4913 Y-2.9747
X0.48 Y-2.9672
X0.4575 Y-2.9502
X0.4494 Y-2.9437
X0.422 Y-2.9212
X0.4085 Y-2.91
X0.3971 Y-2.8987
X0.39 Y-2.8915
X0.3773 Y-2.8762
X0.3563 Y-2.8506
X0.3498 Y-2.8425
X0.3328 Y-2.82
X0.3253 Y-2.8087
X0.3113 Y-2.7832
X0.2949 Y-2.7525
X0.2888 Y-2.7398
X0.2841 Y-2.73
X0.279 Y-2.7187
X0.2717 Y-2.6962
X0.2682 Y-2.685
X0.2669 Y-2.6809
G3 X0.2466 Y-2.6587 I-0.0355 J-0.0121
G1 X0.2425 Y-2.6569 Z0.2503
X0.2384 Y-2.6551 Z0.2511
X0.2344 Y-2.6533 Z0.2524
X0.2307 Y-2.6516 Z0.2543
X0.2271 Y-2.6501 Z0.2566
X0.2239 Y-2.6486 Z0.2594
X0.2209 Y-2.6473 Z0.2626
X0.2184 Y-2.6462 Z0.2662
X0.2162 Y-2.6453 Z0.2701
X0.2145 Y-2.6445 Z0.2742
X0.2133 Y-2.644 Z0.2785
X0.2126 Y-2.6436 Z0.283
X0.2123 Y-2.6435 Z0.2875
G0 Z1.1
(2D CONTOUR1 4)
G64 P0.0004 Q0.0004
G0 X1.7775 Y-3.1675
Z1.1
Z0.7
G1 Z0.5394 F20.
Z0.2875
G19 G3 Y-3.13 Z0.25 J0.0375 K0. F40.
G1 Y-3.0925
G17 G3 X1.74 Y-3.055 I-0.0375 J0.
G1 X0.7825
G2 X0.245 Y-2.5175 I0. J0.5375
G1 Y-0.6025
G2 X0.7825 Y-0.065 I0.5375 J0.
G1 X2.6975
G2 X3.235 Y-0.6025 I0. J-0.5375
G1 Y-2.5175
G2 X2.6975 Y-3.055 I-0.5375 J0.
G1 X0.7825
G2 X0.245 Y-2.5175 I0. J0.5375
G1 Y-0.6025
G2 X0.7825 Y-0.065 I0.5375 J0.
G1 X2.6975
G2 X3.235 Y-0.6025 I0. J-0.5375
G1 Y-2.5175
G2 X2.6975 Y-3.055 I-0.5375 J0.
G1 X1.74
G3 X1.7025 Y-3.0925 I0. J-0.0375
G1 Y-3.13
G19 G2 Y-3.1675 Z0.2875 J0. K0.0375
G0 Z1.1
G17
M5
G53 G0 Z-0.6
(2D CHAMFER1 2)
M9
M1
T13 M6
T25
S3000 M3
G17 G90 G94
G55
M8
G0 X1.8544 Y-1.56
G43 Z1.1 H13
G0 Z0.7
G1 Z0.38 F80.
G3 X1.6256 I-0.1144 J0. F20.
X1.8544 I0.1144 J0.
G0 Z0.7
X3.144
G1 Z0.38 F80.
Y-2.5175 F20.
G2 X2.6975 Y-2.964 I-0.4465 J0.
G1 X0.7825
G2 X0.336 Y-2.5175 I0. J0.4465
G1 Y-0.6025
G2 X0.7825 Y-0.156 I0.4465 J0.
G1 X2.6975
G2 X3.144 Y-0.6025 I0. J-0.4465
G1 Y-1.56
G0 Z1.1
(2D CHAMFER1 3)
G0 X1.74 Y0.0165
Z1.1
Z0.7
G1 Z0.15 F80.
X2.84 F20.
G2 X3.3165 Y-0.46 I0. J-0.4765
G1 Y-2.66
G2 X2.84 Y-3.1365 I-0.4765 J0.
G1 X0.64
G2 X0.1635 Y-2.66 I0. J0.4765
G1 Y-0.46
G2 X0.64 Y0.0165 I0.4765 J0.
G1 X1.74
G0 Z1.1
M5
M9
G53 G0 Z-0.6
M30
%
