%
(OP1 - 10,625X1,125)
(MACHINE)
(  VENDOR CALLUM)
(  MODEL MILL R1)
(  DESCRIPTION 14X8X14 MILL)
(T12 D=0.2362 CR=0. TAPER=45DEG - ZMIN=0.29 - CHAMFER MILL)
(T32 D=0.1875 CR=0. - ZMIN=0.78 - FLAT END MILL)
(T33 D=0.25 CR=0. - ZMIN=0.14 - FLAT END MILL)
(T51 D=0.201 CR=0. TAPER=118DEG - ZMIN=0.0796 - DRILL)
G90 G94 G17 G91.1
G20
G53 G0 Z-0.6
(2D CONTOUR1)
T33 M6
T51
S5000 M3
G17 G90 G94
G54
G64 P0.0004 Q0.0004
M8
G0 X2.5716 Y0.3287
G43 Z1.75 H33
G0 Z1.1662
G1 Z0.14 F200.
Y-0.6287 F20.
G0 Z1.35
X5.2716 Y0.3287
Z1.1662
G1 Z0.14 F200.
Y-0.6287 F20.
G0 Z1.35
X7.9716 Y0.3287
Z1.1662
G1 Z0.14 F200.
Y-0.6287 F20.
G0 Z1.75
(2D CONTOUR1 2)
S7500 M3
G0 X0.4434 Y-0.6643
Z1.75
Z1.1662
G1 Z0.165 F200.
X0.4433 Y-0.6641 Z0.1611 F50.
X0.443 Y-0.6632 Z0.1573
X0.4425 Y-0.6618 Z0.1537
X0.4418 Y-0.6598 Z0.1503
X0.441 Y-0.6574 Z0.1473
X0.44 Y-0.6546 Z0.1448
X0.4389 Y-0.6515 Z0.1427
X0.4377 Y-0.648 Z0.1412
X0.4364 Y-0.6444 Z0.1403
X0.4352 Y-0.6407 Z0.14
X0.4269 Y-0.6171
G3 X0.3951 Y-0.6017 I-0.0236 J-0.0082
G2 X0.1499 Y0.1017 I-0.1226 J0.3517
X0.4176 Y0.0931 I0.1226 J-0.3517
G3 X0.5223 Y0.0719 I0.1047 J0.2475
G1 X2.3085
G2 X2.5516 Y-0.1713 I0. J-0.2431
G1 Y-0.3287
G2 X2.3085 Y-0.5719 I-0.2431 J0.
G1 X0.5223
G3 X0.4176 Y-0.5931 I0. J-0.2687
G2 X0.1274 Y0.0931 I-0.1451 J0.3431
X0.4176 I0.1451 J-0.3431
G3 X0.5223 Y0.0719 I0.1047 J0.2475
G1 X2.3085
G2 X2.5516 Y-0.1713 I0. J-0.2431
G1 Y-0.3287
G2 X2.3085 Y-0.5719 I-0.2431 J0.
G1 X0.5223
G3 X0.4176 Y-0.5931 I0. J-0.2687
G2 X0.3951 Y-0.6017 I-0.1451 J0.3431
G3 X0.3797 Y-0.6336 I0.0082 J-0.0236
G1 X0.3879 Y-0.6572
X0.3892 Y-0.6609 Z0.1403
X0.3905 Y-0.6645 Z0.1412
X0.3917 Y-0.6679 Z0.1427
X0.3928 Y-0.6711 Z0.1448
X0.3938 Y-0.6739 Z0.1473
X0.3946 Y-0.6763 Z0.1503
X0.3953 Y-0.6782 Z0.1537
X0.3958 Y-0.6796 Z0.1573
X0.3961 Y-0.6805 Z0.1611
X0.3962 Y-0.6808 Z0.165
G0 Z1.35
X3.1434 Y-0.6643
Z1.1662
G1 Z0.165 F200.
X3.1433 Y-0.6641 Z0.1611 F50.
X3.143 Y-0.6632 Z0.1573
X3.1425 Y-0.6618 Z0.1537
X3.1418 Y-0.6598 Z0.1503
X3.141 Y-0.6574 Z0.1473
X3.14 Y-0.6546 Z0.1448
X3.1389 Y-0.6515 Z0.1427
X3.1377 Y-0.648 Z0.1412
X3.1364 Y-0.6444 Z0.1403
X3.1352 Y-0.6407 Z0.14
X3.1269 Y-0.6171
G3 X3.0951 Y-0.6017 I-0.0236 J-0.0082
G2 X2.8499 Y0.1017 I-0.1226 J0.3517
X3.1176 Y0.0931 I0.1226 J-0.3517
G3 X3.2223 Y0.0719 I0.1047 J0.2475
G1 X5.0085
G2 X5.2516 Y-0.1713 I0. J-0.2431
G1 Y-0.3287
G2 X5.0085 Y-0.5719 I-0.2431 J0.
G1 X3.2223
G3 X3.1176 Y-0.5931 I0. J-0.2687
G2 X2.8274 Y0.0931 I-0.1451 J0.3431
X3.1176 I0.1451 J-0.3431
G3 X3.2223 Y0.0719 I0.1047 J0.2475
G1 X5.0085
G2 X5.2516 Y-0.1713 I0. J-0.2431
G1 Y-0.3287
G2 X5.0085 Y-0.5719 I-0.2431 J0.
G1 X3.2223
G3 X3.1176 Y-0.5931 I0. J-0.2687
G2 X3.0951 Y-0.6017 I-0.1451 J0.3431
G3 X3.0797 Y-0.6336 I0.0082 J-0.0236
G1 X3.0879 Y-0.6572
X3.0892 Y-0.6609 Z0.1403
X3.0905 Y-0.6645 Z0.1412
X3.0917 Y-0.6679 Z0.1427
X3.0928 Y-0.6711 Z0.1448
X3.0938 Y-0.6739 Z0.1473
X3.0946 Y-0.6763 Z0.1503
X3.0953 Y-0.6782 Z0.1537
X3.0958 Y-0.6796 Z0.1573
X3.0961 Y-0.6805 Z0.1611
X3.0962 Y-0.6808 Z0.165
G0 Z1.35
X5.8434 Y-0.6643
Z1.1662
G1 Z0.165 F200.
X5.8433 Y-0.6641 Z0.1611 F50.
X5.843 Y-0.6632 Z0.1573
X5.8425 Y-0.6618 Z0.1537
X5.8418 Y-0.6598 Z0.1503
X5.841 Y-0.6574 Z0.1473
X5.84 Y-0.6546 Z0.1448
X5.8389 Y-0.6515 Z0.1427
X5.8377 Y-0.648 Z0.1412
X5.8364 Y-0.6444 Z0.1403
X5.8351 Y-0.6407 Z0.14
X5.8269 Y-0.6171
G3 X5.7951 Y-0.6017 I-0.0236 J-0.0082
G2 X5.5499 Y0.1017 I-0.1226 J0.3517
X5.8176 Y0.0931 I0.1226 J-0.3517
G3 X5.9223 Y0.0719 I0.1047 J0.2475
G1 X7.7085
G2 X7.9516 Y-0.1713 I0. J-0.2431
G1 Y-0.3287
G2 X7.7085 Y-0.5719 I-0.2431 J0.
G1 X5.9223
G3 X5.8176 Y-0.5931 I0. J-0.2687
G2 X5.5274 Y0.0931 I-0.1451 J0.3431
X5.8176 I0.1451 J-0.3431
G3 X5.9223 Y0.0719 I0.1047 J0.2475
G1 X7.7085
G2 X7.9516 Y-0.1713 I0. J-0.2431
G1 Y-0.3287
G2 X7.7085 Y-0.5719 I-0.2431 J0.
G1 X5.9223
G3 X5.8176 Y-0.5931 I0. J-0.2687
G2 X5.7951 Y-0.6017 I-0.1451 J0.3431
G3 X5.7797 Y-0.6336 I0.0082 J-0.0236
G1 X5.7879 Y-0.6572
X5.7892 Y-0.6609 Z0.1403
X5.7905 Y-0.6645 Z0.1412
X5.7917 Y-0.6679 Z0.1427
X5.7928 Y-0.6711 Z0.1448
X5.7937 Y-0.6739 Z0.1473
X5.7946 Y-0.6763 Z0.1503
X5.7953 Y-0.6782 Z0.1537
X5.7958 Y-0.6796 Z0.1573
X5.7961 Y-0.6805 Z0.1611
X5.7962 Y-0.6808 Z0.165
G0 Z1.35
X8.5434 Y-0.6643
Z1.1662
G1 Z0.165 F200.
X8.5433 Y-0.6641 Z0.1611 F50.
X8.543 Y-0.6632 Z0.1573
X8.5425 Y-0.6618 Z0.1537
X8.5418 Y-0.6598 Z0.1503
X8.541 Y-0.6574 Z0.1473
X8.54 Y-0.6546 Z0.1448
X8.5389 Y-0.6515 Z0.1427
X8.5377 Y-0.648 Z0.1412
X8.5364 Y-0.6444 Z0.1403
X8.5351 Y-0.6407 Z0.14
X8.5269 Y-0.6171
G3 X8.4951 Y-0.6017 I-0.0236 J-0.0082
G2 X8.2499 Y0.1017 I-0.1226 J0.3517
X8.5176 Y0.0931 I0.1226 J-0.3517
G3 X8.6223 Y0.0719 I0.1047 J0.2475
G1 X10.4085
G2 X10.6516 Y-0.1713 I0. J-0.2431
G1 Y-0.3287
G2 X10.4085 Y-0.5719 I-0.2431 J0.
G1 X8.6223
G3 X8.5176 Y-0.5931 I0. J-0.2687
G2 X8.2274 Y0.0931 I-0.1451 J0.3431
X8.5176 I0.1451 J-0.3431
G3 X8.6223 Y0.0719 I0.1047 J0.2475
G1 X10.4085
G2 X10.6516 Y-0.1713 I0. J-0.2431
G1 Y-0.3287
G2 X10.4085 Y-0.5719 I-0.2431 J0.
G1 X8.6223
G3 X8.5176 Y-0.5931 I0. J-0.2687
G2 X8.4951 Y-0.6017 I-0.1451 J0.3431
G3 X8.4797 Y-0.6336 I0.0082 J-0.0236
G1 X8.4879 Y-0.6572
X8.4892 Y-0.6609 Z0.1403
X8.4905 Y-0.6645 Z0.1412
X8.4917 Y-0.6679 Z0.1427
X8.4928 Y-0.6711 Z0.1448
X8.4937 Y-0.6739 Z0.1473
X8.4946 Y-0.6763 Z0.1503
X8.4953 Y-0.6782 Z0.1537
X8.4958 Y-0.6796 Z0.1573
X8.4961 Y-0.6805 Z0.1611
X8.4962 Y-0.6808 Z0.165
G0 Z1.75
M5
G53 G0 Z-0.6
(DRILL1)
M9
M1
T51 M6
T32
S5000 M3
G17 G90 G94
G54
M8
G0 X0.2725 Y-0.25
G43 Z1.85 H51
G0 Z1.45
Z1.3162
Z1.1962
G1 Z1.0162 F25.
G0 Z1.3162
Z1.0962
G1 Z0.9162 F25.
G0 Z1.3162
Z0.9962
G1 Z0.8162 F25.
G0 Z1.3162
Z0.8962
G1 Z0.7162 F25.
G0 Z1.3162
Z0.7962
G1 Z0.6162 F25.
G0 Z1.3162
Z0.6962
G1 Z0.5162 F25.
G0 Z1.3162
Z0.5962
G1 Z0.4162 F25.
G0 Z1.3162
Z0.4962
G1 Z0.3162 F25.
G0 Z1.3162
Z0.3962
G1 Z0.2162 F25.
G0 Z1.3162
Z0.2962
G1 Z0.1162 F25.
G0 Z1.3162
Z0.1962
G1 Z0.0796 F25.
G4 P0.05
G0 Z1.45
X2.9725
Z1.3162
Z1.1962
G1 Z1.0162 F25.
G0 Z1.3162
Z1.0962
G1 Z0.9162 F25.
G0 Z1.3162
Z0.9962
G1 Z0.8162 F25.
G0 Z1.3162
Z0.8962
G1 Z0.7162 F25.
G0 Z1.3162
Z0.7962
G1 Z0.6162 F25.
G0 Z1.3162
Z0.6962
G1 Z0.5162 F25.
G0 Z1.3162
Z0.5962
G1 Z0.4162 F25.
G0 Z1.3162
Z0.4962
G1 Z0.3162 F25.
G0 Z1.3162
Z0.3962
G1 Z0.2162 F25.
G0 Z1.3162
Z0.2962
G1 Z0.1162 F25.
G0 Z1.3162
Z0.1962
G1 Z0.0796 F25.
G4 P0.05
G0 Z1.45
X5.6725
Z1.3162
Z1.1962
G1 Z1.0162 F25.
G0 Z1.3162
Z1.0962
G1 Z0.9162 F25.
G0 Z1.3162
Z0.9962
G1 Z0.8162 F25.
G0 Z1.3162
Z0.8962
G1 Z0.7162 F25.
G0 Z1.3162
Z0.7962
G1 Z0.6162 F25.
G0 Z1.3162
Z0.6962
G1 Z0.5162 F25.
G0 Z1.3162
Z0.5962
G1 Z0.4162 F25.
G0 Z1.3162
Z0.4962
G1 Z0.3162 F25.
G0 Z1.3162
Z0.3962
G1 Z0.2162 F25.
G0 Z1.3162
Z0.2962
G1 Z0.1162 F25.
G0 Z1.3162
Z0.1962
G1 Z0.0796 F25.
G4 P0.05
G0 Z1.45
X8.3725
Z1.3162
Z1.1962
G1 Z1.0162 F25.
G0 Z1.3162
Z1.0962
G1 Z0.9162 F25.
G0 Z1.3162
Z0.9962
G1 Z0.8162 F25.
G0 Z1.3162
Z0.8962
G1 Z0.7162 F25.
G0 Z1.3162
Z0.7962
G1 Z0.6162 F25.
G0 Z1.3162
Z0.6962
G1 Z0.5162 F25.
G0 Z1.3162
Z0.5962
G1 Z0.4162 F25.
G0 Z1.3162
Z0.4962
G1 Z0.3162 F25.
G0 Z1.3162
Z0.3962
G1 Z0.2162 F25.
G0 Z1.3162
Z0.2962
G1 Z0.1162 F25.
G0 Z1.3162
Z0.1962
G1 Z0.0796 F25.
G4 P0.05
G0 Z1.45
Z1.85
M5
G53 G0 Z-0.6
(2D CONTOUR2)
M9
M1
T32 M6
T12
S5000 M3
G17 G90 G94
G54
G64 P0.0004 Q0.0004
M8
G0 X5.6912 Y-0.2519
G43 Z1.85 H32
G0 Z1.3162
G1 Z0.7819 F80.
X5.6915 Z0.7809 F10.
X5.6922 Z0.7803
X5.6931 Z0.78
X5.695
X5.6959 Y-0.2516
X5.6966 Y-0.2509
X5.6968 Y-0.25
G3 X5.6481 I-0.0244 J0.
X5.6968 I0.0244 J0.
X5.6481 I-0.0244 J0.
X5.6968 I0.0244 J0.
G1 X5.6966 Y-0.2491
X5.6959 Y-0.2484
X5.695 Y-0.2481
X5.6931
X5.6922 Z0.7803
X5.6915 Z0.7809
X5.6912 Z0.7819
G0 Z1.45
X8.3912 Y-0.2519
Z1.3162
G1 Z0.7819 F80.
X8.3915 Z0.7809 F10.
X8.3922 Z0.7803
X8.3931 Z0.78
X8.395
X8.3959 Y-0.2516
X8.3966 Y-0.2509
X8.3968 Y-0.25
G3 X8.3481 I-0.0244 J0.
X8.3968 I0.0244 J0.
X8.3481 I-0.0244 J0.
X8.3968 I0.0244 J0.
G1 X8.3966 Y-0.2491
X8.3959 Y-0.2484
X8.395 Y-0.2481
X8.3931
X8.3922 Z0.7803
X8.3915 Z0.7809
X8.3912 Z0.7819
G0 Z1.45
X2.9881 Y-0.2394
Z1.3162
G1 Z0.7819 F80.
X2.9882 Y-0.2392 Z0.7809 F10.
X2.9888 Y-0.2388 Z0.7803
X2.9895 Y-0.2382 Z0.78
X2.9909 Y-0.237
X2.9915 Y-0.2362
X2.9916 Y-0.2352
X2.9912 Y-0.2343
G3 X2.9538 Y-0.2657 I-0.0187 J-0.0157
X2.9912 Y-0.2343 I0.0187 J0.0157
X2.9538 Y-0.2657 I-0.0187 J-0.0157
X2.9912 Y-0.2343 I0.0187 J0.0157
G1 X2.9904 Y-0.2338
X2.9894 Y-0.2337
X2.9885 Y-0.2341
X2.9871 Y-0.2353
X2.9864 Y-0.2359 Z0.7803
X2.9858 Y-0.2364 Z0.7809
X2.9856 Y-0.2365 Z0.7819
G0 Z1.45
X0.2881 Y-0.2394
Z1.3162
G1 Z0.7819 F80.
X0.2882 Y-0.2392 Z0.7809 F10.
X0.2888 Y-0.2388 Z0.7803
X0.2895 Y-0.2382 Z0.78
X0.2909 Y-0.237
X0.2915 Y-0.2362
X0.2916 Y-0.2352
X0.2912 Y-0.2343
G3 X0.2538 Y-0.2657 I-0.0187 J-0.0157
X0.2912 Y-0.2343 I0.0187 J0.0157
X0.2538 Y-0.2657 I-0.0187 J-0.0157
X0.2912 Y-0.2343 I0.0187 J0.0157
G1 X0.2904 Y-0.2338
X0.2894 Y-0.2337
X0.2885 Y-0.2341
X0.2871 Y-0.2353
X0.2864 Y-0.2359 Z0.7803
X0.2858 Y-0.2364 Z0.7809
X0.2856 Y-0.2365 Z0.7819
G0 Z1.85
M5
G53 G0 Z-0.6
(2D CHAMFER1)
M9
M1
T12 M6
T33
S7500 M3
G17 G90 G94
G54
M8
G0 X5.6564 Y0.0006
G43 Z1.85 H12
G0 Z1.45
G1 Z1.33 F200.
Z1.0422
X5.6579 Y-0.023 F40.
G2 X5.687 Y-0.477 I0.0145 J-0.227
X5.6579 Y-0.023 I-0.0145 J0.227
G1 X5.6564 Y0.0006
G0 Z1.45
X5.6955 Y-0.2416
G1 Z1.33 F200.
Z1.0422
X5.7177 Y-0.2335 F40.
G3 X5.6273 Y-0.2665 I-0.0452 J-0.0165
X5.7177 Y-0.2335 I0.0452 J0.0165
G1 X5.6955 Y-0.2416
G0 Z1.45
X8.3725 Y-0.5011
G1 Z1.33 F200.
Z1.0422
Y-0.4775 F40.
G2 Y-0.0225 I0. J0.2275
Y-0.4775 I0. J-0.2275
G1 Y-0.5011
G0 Z1.45
X8.3955 Y-0.2416
G1 Z1.33 F200.
Z1.0422
X8.4177 Y-0.2335 F40.
G3 X8.3273 Y-0.2665 I-0.0452 J-0.0165
X8.4177 Y-0.2335 I0.0452 J0.0165
G1 X8.3955 Y-0.2416
G0 Z1.45
X2.9886 Y0.0006
G1 Z1.33 F200.
Z1.0422
X2.987 Y-0.023 F40.
G2 X2.958 Y-0.477 I-0.0145 J-0.227
X2.987 Y-0.023 I0.0145 J0.227
G1 X2.9886 Y0.0006
G0 Z1.45
X2.997 Y-0.25
G1 Z1.33 F200.
Z1.0422
X3.0206 F40.
G3 X2.9244 I-0.0481 J0.
X3.0206 I0.0481 J0.
G1 X2.997
G0 Z1.45
X0.2725 Y0.0011
G1 Z1.33 F200.
Z1.0422
Y-0.0225 F40.
G2 Y-0.4775 I0. J-0.2275
Y-0.0225 I0. J0.2275
G1 Y0.0011
G0 Z1.45
X0.2955 Y-0.2416
G1 Z1.33 F200.
Z1.0422
X0.3177 Y-0.2335 F40.
G3 X0.2273 Y-0.2665 I-0.0452 J-0.0165
X0.3177 Y-0.2335 I0.0452 J0.0165
G1 X0.2955 Y-0.2416
G0 Z1.85
(2D CHAMFER2)
G0 X5.9146 Y0.0506
Z1.85
Z1.45
G1 Z0.29 F200.
X5.914 Y0.027 F40.
X5.9223 Y0.0269
X7.7085
G2 X7.9066 Y-0.1713 I0. J-0.1981
G1 Y-0.3287
G2 X7.7085 Y-0.5269 I-0.1981 J0.
G1 X5.9223
X5.9195
X5.9168
X5.914 Y-0.527
X5.9146 Y-0.5506
G0 Z1.45
X8.6146 Y0.0506
G1 Z0.29 F200.
X8.614 Y0.027 F40.
X8.6223 Y0.0269
X10.4085
G2 X10.6066 Y-0.1713 I0. J-0.1981
G1 Y-0.3287
G2 X10.4085 Y-0.5269 I-0.1981 J0.
G1 X8.6223
X8.6195
X8.6168
X8.614 Y-0.527
X8.6146 Y-0.5506
G0 Z1.45
X3.2146 Y0.0506
G1 Z0.29 F200.
X3.214 Y0.027 F40.
X3.2223 Y0.0269
X5.0085
G2 X5.2066 Y-0.1713 I0. J-0.1981
G1 Y-0.3287
G2 X5.0085 Y-0.5269 I-0.1981 J0.
G1 X3.2223
Y-0.5505
G0 Z1.45
X0.5146 Y0.0506
G1 Z0.29 F200.
X0.514 Y0.027 F40.
X0.5223 Y0.0269
X2.3085
G2 X2.5066 Y-0.1713 I0. J-0.1981
G1 Y-0.3287
G2 X2.3085 Y-0.5269 I-0.1981 J0.
G1 X0.5223
X0.5195
X0.5168
X0.514 Y-0.527
X0.5146 Y-0.5506
G0 Z1.85
M5
M9
G53 G0 Z-0.6
M30
%
