%
(BB JIG OP1)
(T13 D=0.375 CR=0. TAPER=45DEG - ZMIN=1.1038 - CHAMFER MILL)
(T36 D=0.375 CR=0. - ZMIN=0.3176 - FLAT END MILL)
(T53 D=0.264 CR=0. TAPER=118DEG - ZMIN=0.0615 - DRILL)
G90 G94 G17 G91.1
G20
G53 G0 Z0.
(FACE1)
T36 M6
T53
S7500 M3
G17 G90 G94
G54
G64 P0.0004 Q0.0004
M8
G0 X2.3436 Y-2.0032
G43 Z2.1 H36
G0 Z1.7
G1 Z1.4775 F80.
G18 G3 X2.3061 Z1.44 I-0.0375 K0. F60.
G1 X2.2
X-0.1
G17 G2 Y-1.8209 I0. J0.0912
G1 X2.2
G3 Y-1.6386 I0. J0.0912
G1 X-0.1
G2 Y-1.4563 I0. J0.0912
G1 X2.2
G3 Y-1.274 I0. J0.0912
G1 X-0.1
G2 Y-1.0917 I0. J0.0912
G1 X2.2
G3 Y-0.9094 I0. J0.0912
G1 X-0.1
G2 Y-0.727 I0. J0.0912
G1 X2.2
G3 Y-0.5447 I0. J0.0912
G1 X-0.1
G2 Y-0.3624 I0. J0.0912
G1 X2.2
G3 Y-0.1801 I0. J0.0912
G1 X-0.1
G18 G3 X-0.1375 Z1.4775 I0. K0.0375
G0 Z2.1
G17
M5
G53 G0 Z0.
(DRILL1)
M9
M1
T53 M6
T36
S5000 M3
G17 G90 G94
G54
M8
G0 X1.05 Y-1.
G43 Z2.1 H53
G0 Z1.7
G1 Z1. F30.
G0 Z1.7
Z1.08
G1 Z0.5 F30.
G0 Z1.7
Z0.58
G1 Z0.0615 F30.
G4 P0.05
G0 Z1.7
Z2.1
M5
G53 G0 Z0.
(2D ADAPTIVE1)
M9
M1
T36 M6
T13
S7500 M3
G17 G90 G94
G54
G64 P0.004 Q0.004
M8
G0 X1.2026 Y-0.8962
G43 Z2.1 H36
G0 Z1.6
G3 X0.9203 Y-0.8687 Z1.5717 I-0.1526 J-0.1038 F40.
X0.9442 Y-1.1505 Z1.5434 I0.1293 J-0.131
X1.2164 Y-1.0763 Z1.5151 I0.1052 J0.1505
X1.0945 Y-0.8227 Z1.4868 I-0.1666 J0.076
X0.8677 Y-0.988 Z1.4585 I-0.0446 J-0.1771
X1.0707 Y-1.1806 Z1.4302 I0.1817 J-0.0118
X1.2231 Y-0.9468 Z1.4019 I-0.0212 J0.1804
X0.9663 Y-0.8395 Z1.3736 I-0.1731 J-0.0533
X0.9073 Y-1.1107 Z1.3453 I0.0835 J-0.1602
X1.184 Y-1.1197 Z1.317 I0.1421 J0.1107
X1.1429 Y-0.8467 Z1.2887 I-0.1342 J0.1194
X0.8825 Y-0.9362 Z1.2604 I-0.0929 J-0.1532
X1.0172 Y-1.1754 Z1.2321 I0.167 J-0.0635
X1.2276 Y-1.0002 Z1.2038 I0.0322 J0.1752
X0.8713 I-0.1782 J0.
X1.2275 Y-1.0055 I0.1782 J0.
G1 X1.2276 Y-1.0002
G2 X1.2336 Y-0.933 I0.6418 J-0.0235 F50.
G3 X1.1913 Y-0.8363 I-0.1393 J-0.0033
X1.0451 Y-0.7756 I-0.1422 J-0.136
X0.8302 Y-1.0575 I0.0011 J-0.2237
X1.2604 Y-1.0837 I0.2194 J0.0568
X1.2893 Y-0.9585 I-0.2845 J0.1317
X1.1429 Y-0.7443 I-0.2332 J-0.0023
X0.898 Y-0.7662 I-0.1018 J-0.2421
X1.0382 Y-1.2799 I0.1502 J-0.235
X1.2762 Y-1.165 I0.0124 J0.2783
X1.3417 Y-0.9171 I-0.2574 J0.2006
X1.0842 Y-0.6717 I-0.2949 J-0.0517
X0.7795 Y-0.8001 I-0.0444 J-0.3203
X1.2333 Y-1.2826 I0.2695 J-0.2012
X1.3956 Y-0.8893 I-0.205 J0.3148
X1.0504 Y-0.61 I-0.3522 J-0.0823
X0.936 Y-0.6238 I-0.0147 J-0.3583
X0.6887 Y-1.1655 I0.1082 J-0.3768
X1.2708 Y-1.3302 I0.3609 J0.1644
X1.4431 Y-0.833 I-0.2367 J0.3605
G1 X1.4354 Y-0.8132
X1.427 Y-0.7937
G3 X1.0037 Y-0.5496 I-0.3859 J-0.1801
X0.6017 Y-0.8999 I0.036 J-0.447
X1.1107 Y-1.4558 I0.447 J-0.1017
X1.4493 Y-1.2383 I-0.0654 J0.4742
X1.0959 Y-0.4877 I-0.4065 J0.2671
X0.6082 Y-0.72 I-0.0589 J-0.5045
X1.0968 Y-1.5224 I0.44 J-0.282
X1.4739 Y-1.3165 I-0.0486 J0.5374
X1.5947 Y-0.9763 I-0.433 J0.3452
X1.5797 Y-0.8448 I-0.5132 J0.0084
X1.4541 Y-0.6237 I-0.5405 J-0.1609
X1.3932 Y-0.5678 I-0.4523 J-0.4321
G1 X1.353 Y-0.5378
G3 X1.2745 Y-0.4951 I-0.5739 J-0.9606
X1.2071 Y-0.4703 I-1.17 J-3.0754
X1.1286 Y-0.4535 I-0.2194 J-0.8322
X0.9576 Y-0.4556 I-0.078 J-0.5904
X0.8816 Y-0.4739 I0.1653 J-0.8551
X0.8143 Y-0.5001 I0.8234 J-2.2135
G1 X0.7807 Y-0.5186
X0.7525 Y-0.5342
X0.747 Y-0.5378
X0.7069 Y-0.5679
G3 X0.6256 Y-0.6464 I0.3816 J-0.476
X0.5714 Y-0.7248 I0.5909 J-0.4662
X0.5012 Y-0.9382 I0.4963 J-0.2815
G1 X0.4974 Y-0.9944
Y-1.0056
X0.5014 Y-1.0617
X0.5024 Y-1.073
X0.5087 Y-1.1066
G3 X0.6123 Y-1.3359 I0.5358 J0.1041
G1 X0.6257 Y-1.3536
G3 X0.7068 Y-1.4322 I0.4649 J0.3985
G1 X0.747 Y-1.4622
G3 X0.8255 Y-1.5049 I0.5739 J0.9606
X0.8929 Y-1.5297 I1.1702 J3.0761
X0.9714 Y-1.5465 I0.2194 J0.8322
X1.1424 Y-1.5444 I0.078 J0.5903
X1.2184 Y-1.5261 I-0.1653 J0.8551
X1.2857 Y-1.4999 I-0.8238 J2.2144
G1 X1.3193 Y-1.4814
X1.3475 Y-1.4658
X1.353 Y-1.4622
X1.3931 Y-1.4321
G3 X1.4744 Y-1.3536 I-0.3816 J0.476
X1.5286 Y-1.2752 I-0.5908 J0.4661
X1.5988 Y-1.0618 I-0.4963 J0.2815
G1 X1.6026 Y-1.0056
Y-0.9944
X1.5986 Y-0.9383
X1.5976 Y-0.927
G3 X1.5796 Y-0.8448 I-0.6757 J-0.1045
G1 X1.5779 Y-0.8408
X1.5757 Y-0.8369
X1.573 Y-0.8334
X1.57 Y-0.8302
X1.5666 Y-0.8273
X1.5629 Y-0.8249
X1.5589 Y-0.823
X1.5548 Y-0.8212 Z1.2041
X1.5507 Y-0.8194 Z1.2049
X1.5467 Y-0.8177 Z1.2062
X1.5429 Y-0.8161 Z1.2081
X1.5393 Y-0.8146 Z1.2104
X1.5361 Y-0.8132 Z1.2132
X1.5331 Y-0.8119 Z1.2164
X1.5306 Y-0.8108 Z1.22
X1.5284 Y-0.8099 Z1.2239
X1.5267 Y-0.8092 Z1.228
X1.5255 Y-0.8086 Z1.2323
X1.5247 Y-0.8083 Z1.2368
X1.5245 Y-0.8082 Z1.2413
G0 Z2.1
(2D CONTOUR1)
G64 P0.0004 Q0.0004
G0 X1.501 Y-1.0375
Z2.1
Z1.7
G1 Z1.5394 F80.
Z1.2413
G18 G2 X1.5385 Z1.2038 I0.0375 K0. F60.
G1 X1.576
G17 G3 X1.6135 Y-1. I0. J0.0375
X0.4865 I-0.5635 J0.
X1.6135 I0.5635 J0.
X0.4865 I-0.5635 J0.
X1.6135 I0.5635 J0.
X1.576 Y-0.9625 I-0.0375 J0.
G1 X1.5385
G18 G3 X1.501 Z1.2413 I0. K0.0375
G0 Z2.1
G17
(2D ADAPTIVE2)
G64 P0.004 Q0.004
G0 X-0.0294 Y-2.395
Z2.1
Z1.7
Z0.4339
G1 Z0.3964 F60.
Z0.3176
G3 X0. Y-2.1908 I-0.9274 J0.2376
G1 Y-2.1853
X-0.0325 Y-2.1551
X-0.0594 Y-2.1198
X-0.0807 Y-2.0808
X-0.0971 Y-2.0396
X-0.1093 Y-1.997
X-0.1181 Y-1.9535
X-0.1244 Y-1.9095
X-0.1287 Y-1.8654
X-0.1317 Y-1.8211
X-0.1337 Y-1.7768
X-0.135 Y-1.7324
X-0.1358 Y-1.6881
X-0.1364 Y-1.6437
X-0.1368 Y-1.5993
X-0.137 Y-1.5549
X-0.1372 Y-1.5106
X-0.1374 Y-1.4218
X-0.1375 Y-1.2887
Y-0.6231
Y-0.2238
Y-0.0906
X-0.1268 Y-0.0476
X-0.1059 Y-0.0084
X-0.0772 Y0.0254
X-0.0429 Y0.0536
X-0.0047 Y0.0761
X0.0361 Y0.0936
X0.0785 Y0.1068
X0.1218 Y0.1163
X0.1656 Y0.1231
X0.2098 Y0.1279
X0.254 Y0.1311
X0.2983 Y0.1333
X0.3427 Y0.1347
X0.387 Y0.1357
X0.4314 Y0.1363
X0.4758 Y0.1367
X0.5202 Y0.137
X0.5645 Y0.1372
X0.6089 Y0.1373
X0.6976 Y0.1374
X0.8751 Y0.1375
X1.6295
X1.9845
X2.0287 Y0.1338
X2.0703 Y0.1183
X2.1072 Y0.0936
X2.1385 Y0.0623
X2.1642 Y0.026
X2.1844 Y-0.0134
X2.1999 Y-0.055
X2.2114 Y-0.0979
X2.2196 Y-0.1415
X2.2254 Y-0.1855
X2.2294 Y-0.2297
X2.2322 Y-0.274
X2.234 Y-0.3183
X2.2352 Y-0.3627
X2.236 Y-0.407
X2.2365 Y-0.4514
X2.2369 Y-0.4958
X2.2371 Y-0.5401
X2.2372 Y-0.5845
X2.2374 Y-0.6733
X2.2375 Y-0.8508
Y-1.3832
Y-1.9157
X2.2252 Y-1.9583
X2.203 Y-1.9968
X2.1734 Y-2.0298
X2.1384 Y-2.0571
X2.0998 Y-2.0789
X2.0587 Y-2.0958
X2.0162 Y-2.1083
X1.9727 Y-2.1175
X1.9288 Y-2.1239
X1.8847 Y-2.1284
X1.8404 Y-2.1315
X1.7961 Y-2.1335
X1.7518 Y-2.1349
X1.7074 Y-2.1358
X1.663 Y-2.1364
X1.6186 Y-2.1368
X1.5743 Y-2.137
X1.5299 Y-2.1372
X1.4412 Y-2.1374
X1.308 Y-2.1375
X0.8643
X0.1987
X0.1545 Y-2.1334
X0.1123 Y-2.1196
X0.0738 Y-2.0976
X0.0399 Y-2.069
X0.011 Y-2.0353
X-0.0128 Y-1.9979
X-0.0319 Y-1.9578
X-0.0468 Y-1.916
X-0.0582 Y-1.8731
X-0.0667 Y-1.8296
X-0.0729 Y-1.7856
X-0.0774 Y-1.7415
X-0.0805 Y-1.6972
X-0.0827 Y-1.6529
X-0.0842 Y-1.6086
X-0.0853 Y-1.5642
X-0.086 Y-1.5198
X-0.0865 Y-1.4755
X-0.0868 Y-1.4311
X-0.087 Y-1.3867
X-0.0872 Y-1.3424
X-0.0874 Y-1.2536
X-0.0875 Y-1.1205
Y-0.943
Y-0.233
X-0.0861 Y-0.1887
X-0.0765 Y-0.1454
X-0.0589 Y-0.1046
X-0.0343 Y-0.0677
X-0.0039 Y-0.0353
X0.0309 Y-0.0078
X0.069 Y0.0149
X0.1094 Y0.0332
X0.1514 Y0.0476
X0.1944 Y0.0586
X0.238 Y0.0668
X0.2819 Y0.0729
X0.3261 Y0.0773
X0.3704 Y0.0804
X0.4147 Y0.0826
X0.459 Y0.0841
X0.5034 Y0.0852
X0.5477 Y0.0859
X0.5921 Y0.0864
X0.6365 Y0.0868
X0.6809 Y0.087
X0.7252 Y0.0872
X0.814 Y0.0873
X0.9471 Y0.0875
X1.0358
X1.8789
X1.9232 Y0.084
X1.9659 Y0.0721
X2.0057 Y0.0525
X2.0415 Y0.0262
X2.0725 Y-0.0055
X2.0987 Y-0.0413
X2.1202 Y-0.0801
X2.1374 Y-0.121
X2.1508 Y-0.1633
X2.1611 Y-0.2065
X2.1687 Y-0.2502
X2.1742 Y-0.2943
X2.1782 Y-0.3384
X2.1811 Y-0.3827
X2.1831 Y-0.4271
X2.1845 Y-0.4714
X2.1854 Y-0.5158
X2.1861 Y-0.5601
X2.1865 Y-0.6045
X2.1868 Y-0.6489
X2.1871 Y-0.6933
X2.1872 Y-0.7376
X2.1874 Y-0.8264
Y-0.9151
X2.1875 Y-1.2257
Y-1.8026
X2.1796 Y-1.8462
X2.1634 Y-1.8876
X2.1401 Y-1.9253
X2.1108 Y-1.9586
X2.0767 Y-1.9871
X2.0392 Y-2.0108
X1.9992 Y-2.0299
X1.9575 Y-2.0451
X1.9146 Y-2.0567
X1.8711 Y-2.0654
X1.8272 Y-2.0718
X1.7831 Y-2.0765
X1.7389 Y-2.0799
X1.6946 Y-2.0822
X1.6502 Y-2.0839
X1.6059 Y-2.085
X1.5615 Y-2.0858
X1.5171 Y-2.0864
X1.4727 Y-2.0867
X1.4284 Y-2.087
X1.384 Y-2.0871
X1.2953 Y-2.0873
X1.2065 Y-2.0874
X0.9403 Y-2.0875
X0.319
X0.2747 Y-2.087
X0.2308 Y-2.0803
X0.1887 Y-2.0663
X0.1496 Y-2.0454
X0.1144 Y-2.0184
X0.0835 Y-1.9865
X0.0573 Y-1.9507
X0.0355 Y-1.9121
X0.0179 Y-1.8714
X0.0039 Y-1.8292
X-0.007 Y-1.7862
X-0.0153 Y-1.7426
X-0.0215 Y-1.6987
X-0.0261 Y-1.6546
X-0.0294 Y-1.6103
X-0.0318 Y-1.566
X-0.0335 Y-1.5217
X-0.0347 Y-1.4773
X-0.0355 Y-1.4329
X-0.0361 Y-1.3886
X-0.0366 Y-1.3442
X-0.0369 Y-1.2998
X-0.0371 Y-1.2555
X-0.0372 Y-1.2111
X-0.0373 Y-1.1667
X-0.0374 Y-1.0336
X-0.0375 Y-0.723
Y-0.3236
X-0.0361 Y-0.2793
X-0.0287 Y-0.2355
X-0.0143 Y-0.1935
X0.0067 Y-0.1545
X0.0336 Y-0.1191
X0.0653 Y-0.0881
X0.1008 Y-0.0615
X0.1392 Y-0.0393
X0.1797 Y-0.0211
X0.2216 Y-0.0066
X0.2645 Y0.0048
X0.308 Y0.0135
X0.3519 Y0.02
X0.396 Y0.0249
X0.4402 Y0.0285
X0.4845 Y0.0311
X0.5289 Y0.033
X0.5732 Y0.0343
X0.6176 Y0.0353
X0.6619 Y0.036
X0.7063 Y0.0364
X0.7507 Y0.0368
X0.7951 Y0.037
X0.8394 Y0.0371
X0.9282 Y0.0373
X1.0613 Y0.0374
X1.4606 Y0.0375
X1.7713
X1.8156 Y0.0365
X1.8595 Y0.0298
X1.9017 Y0.0162
X1.9412 Y-0.0041
X1.977 Y-0.0303
X2.0085 Y-0.0615
X2.0357 Y-0.0966
X2.0584 Y-0.1347
X2.077 Y-0.175
X2.0919 Y-0.2168
X2.1036 Y-0.2596
X2.1125 Y-0.3031
X2.1193 Y-0.3469
X2.1244 Y-0.391
X2.1281 Y-0.4352
X2.1309 Y-0.4795
X2.1328 Y-0.5239
X2.1342 Y-0.5682
X2.1352 Y-0.6126
X2.1359 Y-0.6569
X2.1364 Y-0.7013
X2.1367 Y-0.7457
X2.137 Y-0.7901
X2.1371 Y-0.8344
X2.1373 Y-0.9232
X2.1374 Y-1.0563
X2.1375 Y-1.4113
Y-1.6775
X2.1361 Y-1.7219
X2.1286 Y-1.7656
X2.1141 Y-1.8075
X2.0929 Y-1.8465
X2.066 Y-1.8818
X2.0342 Y-1.9127
X1.9985 Y-1.9392
X1.9601 Y-1.9613
X1.9195 Y-1.9793
X1.8776 Y-1.9937
X1.8346 Y-2.005
X1.7911 Y-2.0137
X1.7472 Y-2.0202
X1.7031 Y-2.0251
X1.6589 Y-2.0286
X1.6146 Y-2.0312
X1.5703 Y-2.0331
X1.5259 Y-2.0344
X1.4815 Y-2.0353
X1.4372 Y-2.036
X1.3928 Y-2.0364
X1.3484 Y-2.0368
X1.3041 Y-2.037
X1.2597 Y-2.0371
X1.1709 Y-2.0373
X1.0822 Y-2.0374
X0.816 Y-2.0375
X0.4166
X0.3722 Y-2.0374
X0.328 Y-2.0337
X0.2847 Y-2.0241
X0.2433 Y-2.008
X0.205 Y-1.9857
X0.1703 Y-1.958
X0.1398 Y-1.9258
X0.1136 Y-1.89
X0.0916 Y-1.8515
X0.0735 Y-1.811
X0.0589 Y-1.769
X0.0474 Y-1.7262
X0.0385 Y-1.6827
X0.0316 Y-1.6389
X0.0265 Y-1.5948
X0.0226 Y-1.5506
X0.0198 Y-1.5063
X0.0177 Y-1.462
X0.0162 Y-1.4176
X0.0152 Y-1.3733
X0.0144 Y-1.3289
X0.0138 Y-1.2846
X0.0134 Y-1.2402
X0.0132 Y-1.1958
X0.013 Y-1.1514
X0.0128 Y-1.1071
X0.0127 Y-1.0183
X0.0126 Y-0.9296
X0.0125 Y-0.6633
Y-0.4415
X0.0126 Y-0.3971
X0.0146 Y-0.3528
X0.0216 Y-0.309
X0.0349 Y-0.2666
X0.0543 Y-0.2267
X0.0795 Y-0.1902
X0.1095 Y-0.1575
X0.1435 Y-0.129
X0.1806 Y-0.1047
X0.2201 Y-0.0844
X0.2613 Y-0.0679
X0.3036 Y-0.0546
X0.3468 Y-0.0441
X0.3904 Y-0.036
X0.4343 Y-0.0298
X0.4784 Y-0.0252
X0.5227 Y-0.0217
X0.567 Y-0.0191
X0.6113 Y-0.0173
X0.6197 Y-0.017
X0.6348 Y-0.0157
X0.6496 Y-0.0126
X0.664 Y-0.0078
X0.6852 Y0.0007
X0.6964 Y0.0051
X0.7189 Y0.0135
X0.7301 Y0.017
X0.7504 Y0.0217
X0.7525 Y0.022
X0.775 Y0.0237
X0.7862 Y0.0243
X1.3138
X1.325 Y0.0237
X1.3475 Y0.022
X1.3496 Y0.0217
X1.3699 Y0.017
X1.3733 Y0.0159
X1.3918 Y0.0112
X1.4093 Y0.0074
X1.4321 Y0.0034
X1.4631 Y-0.0008
X1.5073 Y-0.0051
X1.5516 Y-0.0078
X1.5959 Y-0.0094
X1.6403 Y-0.0105
X1.6846 Y-0.0112
X1.729 Y-0.0124
X1.7731 Y-0.0173
X1.8161 Y-0.0281
X1.8571 Y-0.0451
X1.8951 Y-0.068
X1.9294 Y-0.0961
X1.9597 Y-0.1286
X1.9857 Y-0.1645
X2.0076 Y-0.2031
X2.0256 Y-0.2437
X2.0403 Y-0.2856
X2.0518 Y-0.3284
X2.0608 Y-0.3719
X2.0678 Y-0.4157
X2.073 Y-0.4597
X2.0769 Y-0.5039
X2.0799 Y-0.5482
X2.082 Y-0.5925
X2.0835 Y-0.6369
X2.0847 Y-0.6812
X2.0855 Y-0.7256
X2.0861 Y-0.77
X2.0865 Y-0.8144
X2.0868 Y-0.8587
X2.087 Y-0.9031
X2.0871 Y-0.9475
X2.0873 Y-1.0362
X2.0874 Y-1.1693
X2.0875 Y-1.4799
Y-1.5687
X2.0873 Y-1.6131
X2.0845 Y-1.6573
X2.0761 Y-1.7009
X2.0615 Y-1.7428
X2.0406 Y-1.782
X2.0143 Y-1.8177
X1.9833 Y-1.8495
X1.9485 Y-1.877
X1.9108 Y-1.9004
X1.8709 Y-1.9197
X1.8294 Y-1.9355
X1.7868 Y-1.9481
X1.7436 Y-1.9579
X1.6999 Y-1.9656
X1.6559 Y-1.9714
X1.6117 Y-1.9757
X1.5675 Y-1.979
X1.5232 Y-1.9813
X1.4791 Y-1.9831
X1.4644 Y-1.9845
X1.4499 Y-1.9876
X1.4359 Y-1.9923
X1.4148 Y-2.0007
X1.4036 Y-2.0051
X1.3811 Y-2.0135
X1.3699 Y-2.017
X1.3496 Y-2.0217
X1.3475 Y-2.022
X1.325 Y-2.0237
X1.3138 Y-2.0243
X0.7862
X0.775 Y-2.0237
X0.7525 Y-2.022
X0.7504 Y-2.0217
X0.7301 Y-2.017
X0.7267 Y-2.0159
X0.7082 Y-2.0112
X0.6907 Y-2.0074
X0.6679 Y-2.0034
X0.6369 Y-1.9992
X0.5927 Y-1.9949
X0.5484 Y-1.9922
X0.5041 Y-1.9906
X0.4597 Y-1.9894
X0.4155 Y-1.9868
X0.3716 Y-1.9797
X0.3292 Y-1.9669
X0.2889 Y-1.9481
X0.2518 Y-1.9239
X0.2184 Y-1.8947
X0.1889 Y-1.8615
X0.1636 Y-1.8251
X0.1422 Y-1.7862
X0.1245 Y-1.7455
X0.1102 Y-1.7035
X0.0988 Y-1.6606
X0.0899 Y-1.6171
X0.0829 Y-1.5733
X0.0777 Y-1.5292
X0.0737 Y-1.4851
X0.0707 Y-1.4408
X0.0705 Y-1.4367
X0.069 Y-1.4224
X0.0659 Y-1.4084
X0.0613 Y-1.3949
X0.0426 Y-1.348
X0.0384 Y-1.3368
X0.0316 Y-1.3144
X0.0294 Y-1.3031
X0.0277 Y-1.2919
X0.0263 Y-1.2807
X0.0259 Y-1.2582
X0.0257 Y-1.247
Y-0.753
X0.0259 Y-0.7418
X0.0263 Y-0.7193
X0.0277 Y-0.7081
X0.0294 Y-0.6969
X0.0316 Y-0.6856
X0.0341 Y-0.6773
X0.0393 Y-0.6568
X0.0431 Y-0.6388
X0.0471 Y-0.6151
X0.0513 Y-0.5828
X0.0554 Y-0.5387
X0.058 Y-0.4944
X0.0601 Y-0.45
X0.0644 Y-0.4059
X0.0735 Y-0.3624
X0.0883 Y-0.3206
X0.1088 Y-0.2812
X0.1345 Y-0.2451
X0.1647 Y-0.2126
X0.1988 Y-0.1841
X0.2358 Y-0.1597
X0.2751 Y-0.1392
X0.3162 Y-0.1222
X0.3583 Y-0.1085
X0.4013 Y-0.0976
X0.4449 Y-0.089
X0.4888 Y-0.0823
X0.4894 Y-0.0822
X0.5064 Y-0.0791
X0.5229 Y-0.0737
X0.5384 Y-0.0662
X0.5617 Y-0.053
X0.5748 Y-0.0457
X0.5842 Y-0.0407
X0.5954 Y-0.0353
X0.6291 Y-0.0218
X0.664 Y-0.0078
G3 X0.6779 Y0.0028 I-0.0151 J0.0343
G2 X0.6864 Y0.013 I0.3501 J-0.2854
X0.7966 Y0.1054 I0.3416 J-0.2955 F300.
X0.8146 Y0.1107 I0.0192 J-0.0322
G1 X1.2146 Y0.1241
G2 X1.2329 Y0.1201 I0.0013 J-0.0375
X1.3494 Y0.0349 I-0.2048 J-0.4026
X1.3582 Y0.0257 I-0.3213 J-0.3175 F60.
G3 X1.3733 Y0.0159 I0.0274 J0.0256
G1 X1.3811 Y0.0135
X1.4036 Y0.0051
X1.4185 Y-0.0008
X1.4709 Y-0.0218
X1.4877 Y-0.0275
X1.5009 Y-0.0315
X1.5163 Y-0.0356
X1.5359 Y-0.0399
X1.5603 Y-0.0443
X1.5965 Y-0.0495
X1.6406 Y-0.0541
X1.6847 Y-0.0591
X1.7282 Y-0.0679
X1.7703 Y-0.0819
X1.8101 Y-0.1014
X1.847 Y-0.1261
X1.8802 Y-0.1555
X1.9096 Y-0.1888
X1.9349 Y-0.2252
X1.9563 Y-0.2641
X1.974 Y-0.3048
X1.9884 Y-0.3468
X2. Y-0.3896
X2.0091 Y-0.433
X2.0162 Y-0.4768
X2.0216 Y-0.5209
X2.0249 Y-0.5565
X2.0267 Y-0.5688
X2.0296 Y-0.5809
X2.0337 Y-0.5927
X2.0574 Y-0.652
X2.0616 Y-0.6632
X2.0684 Y-0.6856
X2.0706 Y-0.6969
X2.0723 Y-0.7081
X2.0737 Y-0.7193
X2.0741 Y-0.7418
X2.0743 Y-0.753
Y-1.247
X2.0741 Y-1.2582
X2.0737 Y-1.2807
X2.0723 Y-1.2919
X2.0706 Y-1.3031
X2.0684 Y-1.3144
X2.0659 Y-1.3227
X2.0607 Y-1.3432
X2.0569 Y-1.3613
X2.0529 Y-1.3849
X2.0487 Y-1.4172
X2.0446 Y-1.4613
X2.042 Y-1.5056
X2.0399 Y-1.55
X2.0356 Y-1.5941
X2.0265 Y-1.6376
X2.0118 Y-1.6794
X1.9914 Y-1.7188
X1.9657 Y-1.755
X1.9354 Y-1.7874
X1.9013 Y-1.8159
X1.8643 Y-1.8403
X1.8249 Y-1.8608
X1.7839 Y-1.8778
X1.7417 Y-1.8915
X1.6987 Y-1.9025
X1.6552 Y-1.9111
X1.6113 Y-1.9177
X1.6105 Y-1.9178
X1.5935 Y-1.921
X1.5771 Y-1.9263
X1.5615 Y-1.9338
X1.5383 Y-1.947
X1.5252 Y-1.9543
X1.5158 Y-1.9593
X1.5046 Y-1.9647
X1.4709 Y-1.9782
X1.4359 Y-1.9923
G3 X1.422 Y-2.0029 I0.0151 J-0.0343
G2 X1.4134 Y-2.013 I-0.35 J0.2853
X1.3033 Y-2.1054 I-0.3415 J0.2954 F300.
X1.2853 Y-2.1107 I-0.0192 J0.0322
G1 X0.8854 Y-2.1241
G2 X0.8671 Y-2.1201 I-0.0013 J0.0375
X0.7506 Y-2.0349 I0.2048 J0.4025
X0.7418 Y-2.0257 I0.3213 J0.3173 F60.
G3 X0.7267 Y-2.0159 I-0.0274 J-0.0256
G1 X0.7189 Y-2.0135
X0.6964 Y-2.0051
X0.6815 Y-1.9992
X0.6291 Y-1.9782
X0.6123 Y-1.9725
X0.5991 Y-1.9685
X0.5836 Y-1.9644
X0.5628 Y-1.9598
X0.5192 Y-1.9519
X0.4753 Y-1.9451
X0.432 Y-1.9357
X0.3899 Y-1.9216
X0.3499 Y-1.9024
X0.3127 Y-1.8781
X0.279 Y-1.8493
X0.249 Y-1.8166
X0.223 Y-1.7807
X0.2007 Y-1.7423
X0.1821 Y-1.702
X0.1668 Y-1.6603
X0.1544 Y-1.6177
X0.1445 Y-1.5745
X0.1416 Y-1.5622
X0.1373 Y-1.5503
X0.1317 Y-1.539
X0.1063 Y-1.494
X0.0936 Y-1.4716
X0.0903 Y-1.4643
X0.079 Y-1.4391
X0.0613 Y-1.3949
G3 X0.0507 Y-1.3809 I-0.0343 J-0.0151
G2 X0.0406 Y-1.3724 I0.29 J0.3558
X-0.0535 Y-1.2603 I0.3002 J0.3473 F300.
X-0.0588 Y-1.2425 I0.0322 J0.0192
G1 X-0.0741 Y-0.8387
G2 X-0.0702 Y-0.8206 I0.0375 J0.0014
X0.0153 Y-0.7014 I0.411 J-0.2045
X0.0245 Y-0.6924 I0.3254 J-0.3238 F60.
G3 X0.0341 Y-0.6773 I-0.0258 J0.0272
G1 X0.0384 Y-0.6632
X0.0426 Y-0.652
X0.0695 Y-0.5846
X0.0781 Y-0.5598
X0.0828 Y-0.544
X0.094 Y-0.5011
X0.1039 Y-0.4578
X0.1166 Y-0.4153
X0.1336 Y-0.3744
X0.1555 Y-0.3358
X0.1821 Y-0.3002
X0.2127 Y-0.2681
X0.2469 Y-0.2398
X0.2839 Y-0.2153
X0.3231 Y-0.1945
X0.3639 Y-0.1771
X0.3751 Y-0.1726
X0.3857 Y-0.1669
X0.3957 Y-0.1601
X0.428 Y-0.1355
X0.4382 Y-0.1278
X0.4607 Y-0.1114
X0.4719 Y-0.1042
X0.4955 Y-0.0906
X0.5384 Y-0.0662
G3 X0.5556 Y-0.0415 I-0.0196 J0.032
X0.5056 Y0.0008 I-0.0368 J0.0073 F300.
G1 X0.2137 Y-0.1056
X0.1352 Y-0.1626
X0.0699 Y-0.2304
X0.0176 Y-0.3151
X-0.0466 Y-0.5397
G3 X-0.0445 Y-0.5846 I0.0591 J-0.0197
G1 X-0.0444
G3 X0.0507 Y-0.6087 I0.057 J0.0252
X0.0678 Y-0.5882 I-0.0381 J0.0493 F60.
G1 X0.0695 Y-0.5846
X0.079 Y-0.5609
X0.0903 Y-0.5357
X0.0936 Y-0.5284
X0.1127 Y-0.4946
X0.1464 Y-0.4352
X0.1511 Y-0.4274
X0.1688 Y-0.3999
X0.2362 Y-0.3114
X0.2421 Y-0.3039
X0.2474 Y-0.2981
X0.2699 Y-0.2746
X0.3372 Y-0.2072
X0.3419 Y-0.2029
X0.3597 Y-0.1881
X0.369 Y-0.1804
X0.3957 Y-0.1601
G3 X0.4082 Y-0.1406 I-0.0237 J0.029
G1 X0.4102 Y-0.1335
G2 X0.5208 Y0.0783 I0.548 J-0.1516 F300.
X0.5449 Y0.0915 I0.0288 J-0.024
G1 X1.2624 Y0.184
G2 X1.289 Y0.1773 I0.0048 J-0.0372
X1.45 Y0.0001 I-0.3309 J-0.4624
G1 X1.4535 Y-0.0059 F60.
G3 X1.4709 Y-0.0218 I0.0327 J0.0184
G1 X1.5046 Y-0.0353
X1.5158 Y-0.0407
X1.5252 Y-0.0457
X1.5383 Y-0.053
X1.5451 Y-0.0569
X1.555 Y-0.0618
X1.564 Y-0.066
X1.5755 Y-0.0707
X1.5968 Y-0.0785
X1.6391 Y-0.0922
X1.681 Y-0.1066
X1.7216 Y-0.1245
X1.7601 Y-0.1466
X1.7957 Y-0.1731
X1.8279 Y-0.2036
X1.8565 Y-0.2375
X1.8814 Y-0.2743
X1.9026 Y-0.3133
X1.9203 Y-0.3539
X1.9349 Y-0.3958
X1.9353 Y-0.3971
X1.9388 Y-0.4077
X1.9434 Y-0.4178
X1.9489 Y-0.4274
X1.9536 Y-0.4352
X1.9937 Y-0.506
X2.0064 Y-0.5284
X2.0097 Y-0.5357
X2.021 Y-0.5609
X2.0337 Y-0.5927
G3 X2.0558 Y-0.613 I0.0343 J0.0151
X2.1053 Y-0.5734 I0.0122 J0.0355 F300.
G1 X2.0416 Y-0.3039
X1.9954 Y-0.2141
X1.9501 Y-0.1462
X1.8857 Y-0.0794
X1.8189 Y-0.0297
X1.5972 Y0.0554
G3 X1.5238 Y-0.035 I-0.0195 J-0.0592
X1.5451 Y-0.0569 I0.0539 J0.0312 F60.
G1 X1.6045 Y-0.0906
X1.6281 Y-0.1042
X1.6393 Y-0.1114
X1.6618 Y-0.1278
X1.673 Y-0.1363
X1.731 Y-0.1804
X1.7446 Y-0.1916
X1.7581 Y-0.2029
X1.7628 Y-0.2072
X1.8301 Y-0.2746
X1.8526 Y-0.2981
X1.8579 Y-0.3039
X1.8638 Y-0.3114
X1.9312 Y-0.3999
X1.9489 Y-0.4274
G3 X1.962 Y-0.4391 I0.0308 J0.0214
G2 X1.9736 Y-0.4455 I-0.2548 J-0.475
X2.1388 Y-0.5912 I-0.2664 J-0.4686 F300.
X2.146 Y-0.6088 I-0.03 J-0.0225
G1 X2.2098 Y-1.096
G2 X2.2074 Y-1.1149 I-0.0372 J-0.0049
X2.0848 Y-1.2987 I-0.5002 J0.2008
X2.0757 Y-1.3075 I-0.3776 J0.3847 F60.
G3 X2.0659 Y-1.3227 I0.0256 J-0.0274
G1 X2.0616 Y-1.3368
X2.0574 Y-1.348
X2.0305 Y-1.4154
X2.0219 Y-1.4403
X2.0172 Y-1.4561
X2.006 Y-1.499
X1.9961 Y-1.5423
X1.9834 Y-1.5848
X1.9664 Y-1.6257
X1.9445 Y-1.6643
X1.9179 Y-1.6999
X1.8873 Y-1.732
X1.8531 Y-1.7603
X1.8161 Y-1.7848
X1.7769 Y-1.8056
X1.7361 Y-1.823
X1.7248 Y-1.8275
X1.7142 Y-1.8332
X1.7041 Y-1.84
X1.672 Y-1.8645
X1.6618 Y-1.8722
X1.6393 Y-1.8886
X1.6281 Y-1.8958
X1.6045 Y-1.9094
X1.5615 Y-1.9338
G3 X1.5443 Y-1.9585 I0.0196 J-0.032
X1.5944 Y-2.0009 I0.0368 J-0.0073 F300.
G1 X1.8638 Y-1.9079
X1.945 Y-1.8533
X2.0097 Y-1.7932
X2.0499 Y-1.741
X2.0674 Y-1.7073
X2.1466 Y-1.4603
G3 X2.1445 Y-1.4154 I-0.0591 J0.0197
G1 X2.1444
G3 X2.0493 Y-1.3913 I-0.057 J-0.0252
X2.0305 Y-1.4154 I0.0381 J-0.0493 F60.
G1 X2.021 Y-1.4391
X2.0097 Y-1.4643
X2.0064 Y-1.4716
X1.9873 Y-1.5054
X1.9536 Y-1.5648
X1.9489 Y-1.5726
X1.9312 Y-1.6001
X1.8638 Y-1.6886
X1.8579 Y-1.6961
X1.8526 Y-1.7019
X1.8301 Y-1.7254
X1.7628 Y-1.7928
X1.7581 Y-1.7971
X1.7403 Y-1.8119
X1.731 Y-1.8196
X1.7041 Y-1.84
G3 X1.6916 Y-1.8595 I0.0237 J-0.029
G1 X1.6897 Y-1.8666
G2 X1.579 Y-2.0784 I-0.5479 J0.1516 F300.
X1.555 Y-2.0916 I-0.0288 J0.024
G1 X0.8375 Y-2.184
G2 X0.8109 Y-2.1773 I-0.0048 J0.0372
X0.65 Y-2.0001 I0.3309 J0.4623
G1 X0.6465 Y-1.9941 F60.
G3 X0.6291 Y-1.9782 I-0.0327 J-0.0184
G1 X0.5954 Y-1.9647
X0.5842 Y-1.9593
X0.5748 Y-1.9543
X0.5617 Y-1.947
X0.5549 Y-1.9431
X0.5206 Y-1.9259
X0.4802 Y-1.9075
X0.4403 Y-1.888
X0.4021 Y-1.8654
X0.3664 Y-1.8391
X0.3337 Y-1.8091
X0.3044 Y-1.7758
X0.2786 Y-1.7397
X0.2733 Y-1.7313
X0.2673 Y-1.7234
X0.2608 Y-1.7159
G3 X0.2327 Y-1.7053 I-0.0262 J-0.0268
X0.1983 Y-1.7522 I0.0019 J-0.0375 F300.
G1 X0.222 Y-1.8533
G3 X0.2474 Y-1.9003 I0.0871 J0.0167
G1 X0.31 Y-1.9543
X0.4944 Y-2.0519
G3 X0.5762 Y-1.965 I0.0279 J0.0557
X0.5617 Y-1.948 I-0.054 J-0.0312 F60.
G1 X0.5549 Y-1.9431
X0.4955 Y-1.9094
X0.4719 Y-1.8958
X0.4607 Y-1.8886
X0.4382 Y-1.8722
X0.427 Y-1.8637
X0.369 Y-1.8196
X0.3554 Y-1.8084
X0.3419 Y-1.7971
X0.3372 Y-1.7928
X0.2699 Y-1.7254
X0.2474 Y-1.7019
X0.2421 Y-1.6961
X0.2362 Y-1.6886
X0.1688 Y-1.6001
X0.1511 Y-1.5726
X0.1464 Y-1.5648
X0.1317 Y-1.539
G3 X0.1071 Y-1.5218 I-0.032 J-0.0196
G1 X0.1026 Y-1.5209 Z0.3179
X0.0983 Y-1.5201 Z0.3187
X0.094 Y-1.5192 Z0.3201
X0.09 Y-1.5184 Z0.3219
X0.0862 Y-1.5177 Z0.3243
X0.0827 Y-1.517 Z0.3271
X0.0795 Y-1.5163 Z0.3303
X0.0768 Y-1.5158 Z0.3338
X0.0745 Y-1.5153 Z0.3377
X0.0727 Y-1.515 Z0.3418
X0.0714 Y-1.5147 Z0.3462
X0.0706 Y-1.5146 Z0.3506
X0.0703 Y-1.5145 Z0.3551
G0 Z2.1
(2D CONTOUR2)
G64 P0.0004 Q0.0004
G0 X-0.0768 Y-1.0375
Z2.1
Z1.7
G1 Z1.5394 F80.
Z0.3751
G18 G2 X-0.0393 Z0.3376 I0.0375 K0. F60.
G1 X-0.0018
G17 G3 X0.0357 Y-1. I0. J0.0375
G1 Y-0.7321
G2 X0.0449 Y-0.6743 I0.1875 J0.
X0.7243 Y0.0051 I1.0051 J-0.3257
X0.7821 Y0.0143 I0.0578 J-0.1784
G1 X1.3179
G2 X1.3757 Y0.0051 I0. J-0.1875
X2.0551 Y-0.6743 I-0.3257 J-1.0051
X2.0643 Y-0.7321 I-0.1784 J-0.0578
G1 Y-1.2679
G2 X2.0551 Y-1.3257 I-0.1875 J0.
X1.3757 Y-2.0051 I-1.0051 J0.3257
X1.3179 Y-2.0143 I-0.0578 J0.1784
G1 X0.7821
G2 X0.7243 Y-2.0051 I0. J0.1875
X0.0449 Y-1.3257 I0.3257 J1.0051
X0.0357 Y-1.2679 I0.1784 J0.0578
G1 Y-0.7321
G2 X0.0449 Y-0.6743 I0.1875 J0.
X0.7243 Y0.0051 I1.0051 J-0.3257
X0.7821 Y0.0143 I0.0578 J-0.1784
G1 X1.3179
G2 X1.3757 Y0.0051 I0. J-0.1875
X2.0551 Y-0.6743 I-0.3257 J-1.0051
X2.0643 Y-0.7321 I-0.1784 J-0.0578
G1 Y-1.2679
G2 X2.0551 Y-1.3257 I-0.1875 J0.
X1.3757 Y-2.0051 I-1.0051 J0.3257
X1.3179 Y-2.0143 I-0.0578 J0.1784
G1 X0.7821
G2 X0.7243 Y-2.0051 I0. J0.1875
X0.0449 Y-1.3257 I0.3257 J1.0051
X0.0357 Y-1.2679 I0.1784 J0.0578
G1 Y-1.
G3 X-0.0018 Y-0.9625 I-0.0375 J0.
G1 X-0.0393
G18 G3 X-0.0768 Z0.3751 I0. K0.0375
G0 Z2.1
G17
M5
G53 G0 Z0.
(2D CHAMFER1)
M9
M1
T13 M6
T36
S7500 M3
G17 G90 G94
G54
M8
G0 X1.7045 Y-1.
G43 Z2.1 H13
G0 Z1.7
G1 Z1.58 F80.
Z1.34
G3 X0.3955 I-0.6545 J0. F50.
X1.7045 I0.6545 J0.
G0 Z1.7
X1.9733
G1 Z1.58 F80.
Z1.34
Y-1.2679 F50.
G2 X1.9686 Y-1.2977 I-0.0965 J0.
X1.3477 Y-1.9186 I-0.9186 J0.2977
X1.3179 Y-1.9233 I-0.0297 J0.0918
G1 X0.7821
G2 X0.7523 Y-1.9186 I0. J0.0965
X0.1314 Y-1.2977 I0.2977 J0.9186
X0.1267 Y-1.2679 I0.0918 J0.0297
G1 Y-0.7321
G2 X0.1314 Y-0.7023 I0.0965 J0.
X0.7523 Y-0.0814 I0.9186 J-0.2977
X0.7821 Y-0.0767 I0.0297 J-0.0918
G1 X1.3179
G2 X1.3477 Y-0.0814 I0. J-0.0965
X1.9686 Y-0.7023 I-0.2977 J-0.9186
X1.9733 Y-0.7321 I-0.0918 J-0.0297
G1 Y-1.
G0 Z2.1
X1.0755
Z1.7
G1 Z1.58 F80.
Z1.1038
G3 X1.0245 I-0.0255 J0. F50.
X1.0755 I0.0255 J0.
G0 Z2.1
M5
M9
G53 G0 Z0.
M30
%
