%
(BB JIG OP2)
(T13 D=0.375 CR=0. TAPER=45DEG - ZMIN=0.9824 - CHAMFER MILL)
(T36 D=0.375 CR=0. - ZMIN=1.1024 - FLAT END MILL)
G90 G94 G17 G91.1
G20
G53 G0 Z0.
(2D ADAPTIVE3)
T36 M6
T13
S7500 M3
G17 G90 G94
G54
G64 P0.004 Q0.004
M8
G0 X-0.2526 Y-2.2218
G43 Z2.04 H36
G0 Z1.64
Z1.2186
G1 Z1.1811 F60.
Z1.1024
G3 X-0.2232 Y-2.0176 I-0.9274 J0.2376
G1 Y-2.0136
X-0.2487 Y-1.9773
X-0.2689 Y-1.9378
X-0.2848 Y-1.8963
X-0.2969 Y-1.8536
X-0.306 Y-1.8102
X-0.3128 Y-1.7664
X-0.3178 Y-1.7223
X-0.3214 Y-1.678
X-0.324 Y-1.6337
X-0.3259 Y-1.5894
X-0.3273 Y-1.5451
X-0.3283 Y-1.5007
X-0.329 Y-1.4563
X-0.3295 Y-1.412
X-0.3298 Y-1.3676
X-0.3301 Y-1.3232
X-0.3303 Y-1.2788
X-0.3305 Y-1.1901
X-0.3306 Y-1.057
X-0.3307 Y-0.7907
Y-0.0364
Y0.0524
X-0.3193 Y0.0952
X-0.2969 Y0.1335
X-0.2667 Y0.1661
X-0.2314 Y0.1929
X-0.1925 Y0.2144
X-0.1515 Y0.2312
X-0.109 Y0.2442
X-0.0658 Y0.254
X-0.022 Y0.2613
X0.022 Y0.2667
X0.0662 Y0.2706
X0.1105 Y0.2735
X0.1548 Y0.2755
X0.1992 Y0.277
X0.2436 Y0.2781
X0.2879 Y0.2788
X0.3323 Y0.2794
X0.3767 Y0.2798
X0.421 Y0.28
X0.4654 Y0.2802
X0.5098 Y0.2804
X0.5985 Y0.2806
X0.7316 Y0.2807
X1.0866
X1.486
X1.7522
X1.7954 Y0.2705
X1.8341 Y0.2487
X1.8671 Y0.2191
X1.8944 Y0.1841
X1.9163 Y0.1455
X1.9335 Y0.1046
X1.9468 Y0.0623
X1.9568 Y0.0191
X1.9643 Y-0.0247
X1.9698 Y-0.0687
X1.9739 Y-0.1129
X1.9768 Y-0.1572
X1.9789 Y-0.2015
X1.9804 Y-0.2458
X1.9815 Y-0.2902
X1.9823 Y-0.3346
X1.9829 Y-0.3789
X1.9833 Y-0.4233
X1.9836 Y-0.4677
X1.9838 Y-0.512
X1.9839 Y-0.5564
X1.9841 Y-0.6452
X1.9842 Y-0.7783
X1.9843 Y-1.1333
Y-1.3551
Y-1.7101
X1.9716 Y-1.7527
X1.9483 Y-1.7904
X1.9176 Y-1.8224
X1.8818 Y-1.8487
X1.8427 Y-1.8697
X1.8015 Y-1.8861
X1.759 Y-1.8988
X1.7156 Y-1.9083
X1.6718 Y-1.9154
X1.6278 Y-1.9206
X1.5836 Y-1.9245
X1.5393 Y-1.9272
X1.495 Y-1.9292
X1.4506 Y-1.9307
X1.4062 Y-1.9317
X1.3619 Y-1.9324
X1.3175 Y-1.933
X1.2731 Y-1.9333
X1.2288 Y-1.9336
X1.1844 Y-1.9338
X1.0956 Y-1.934
X0.9625 Y-1.9342
X0.6963 Y-1.9343
X0.43
X0.0307
X-0.0135 Y-1.9305
X-0.0552 Y-1.9154
X-0.0926 Y-1.8915
X-0.1249 Y-1.861
X-0.152 Y-1.8259
X-0.1742 Y-1.7875
X-0.1921 Y-1.7469
X-0.2062 Y-1.7048
X-0.2172 Y-1.6618
X-0.2257 Y-1.6182
X-0.2321 Y-1.5743
X-0.2369 Y-1.5302
X-0.2406 Y-1.486
X-0.2432 Y-1.4417
X-0.2452 Y-1.3974
X-0.2467 Y-1.353
X-0.2478 Y-1.3087
X-0.2486 Y-1.2643
X-0.2492 Y-1.2199
X-0.2496 Y-1.1756
X-0.2499 Y-1.1312
X-0.2501 Y-1.0868
X-0.2503 Y-1.0425
X-0.2505 Y-0.9537
X-0.2506 Y-0.8206
X-0.2507 Y-0.5543
Y-0.4656
Y-0.1106
X-0.2471 Y-0.0664
X-0.2343 Y-0.0239
X-0.2134 Y0.0152
X-0.1858 Y0.05
X-0.1532 Y0.0801
X-0.1167 Y0.1053
X-0.0775 Y0.1262
X-0.0365 Y0.1431
X0.0058 Y0.1565
X0.0489 Y0.1671
X0.0925 Y0.1753
X0.1364 Y0.1817
X0.1805 Y0.1865
X0.2247 Y0.1901
X0.269 Y0.1929
X0.3133 Y0.1949
X0.3577 Y0.1964
X0.402 Y0.1976
X0.4464 Y0.1984
X0.4908 Y0.199
X0.5351 Y0.1995
X0.5795 Y0.1998
X0.6239 Y0.2001
X0.6683 Y0.2002
X0.757 Y0.2005
X0.8901 Y0.2006
X1.1564 Y0.2007
X1.2451
X1.6001
X1.6442 Y0.1956
X1.6862 Y0.1814
X1.7247 Y0.1593
X1.7587 Y0.1308
X1.788 Y0.0975
X1.8126 Y0.0605
X1.8327 Y0.021
X1.849 Y-0.0203
X1.862 Y-0.0627
X1.8722 Y-0.1059
X1.88 Y-0.1496
X1.8861 Y-0.1935
X1.8907 Y-0.2377
X1.8942 Y-0.2819
X1.8968 Y-0.3262
X1.8987 Y-0.3705
X1.9002 Y-0.4149
X1.9013 Y-0.4592
X1.9021 Y-0.5036
X1.9026 Y-0.548
X1.9031 Y-0.5924
X1.9034 Y-0.6367
X1.9036 Y-0.6811
X1.9038 Y-0.7255
X1.904 Y-0.8142
X1.9042 Y-0.9473
X1.9043 Y-1.2136
Y-1.3023
Y-1.5242
X1.9042 Y-1.5686
X1.8952 Y-1.612
X1.8775 Y-1.6527
X1.8526 Y-1.6894
X1.8219 Y-1.7214
X1.7869 Y-1.7487
X1.7487 Y-1.7714
X1.7084 Y-1.7899
X1.6666 Y-1.8048
X1.6238 Y-1.8165
X1.5804 Y-1.8257
X1.5366 Y-1.8327
X1.4925 Y-1.8382
X1.4484 Y-1.8423
X1.4041 Y-1.8453
X1.3598 Y-1.8477
X1.3154 Y-1.8494
X1.2711 Y-1.8507
X1.2267 Y-1.8516
X1.1824 Y-1.8523
X1.138 Y-1.8528
X1.0936 Y-1.8532
X1.0492 Y-1.8535
X1.0049 Y-1.8537
X0.9605 Y-1.8539
X0.8718 Y-1.8541
X0.7386 Y-1.8542
X0.428 Y-1.8543
X0.2949
X0.1618
X0.1175 Y-1.8512
X0.0746 Y-1.8398
X0.0346 Y-1.8208
X-0.0016 Y-1.795
X-0.0333 Y-1.764
X-0.0604 Y-1.7289
X-0.0832 Y-1.6908
X-0.102 Y-1.6506
X-0.1172 Y-1.6089
X-0.1294 Y-1.5662
X-0.139 Y-1.5229
X-0.1465 Y-1.4792
X-0.1524 Y-1.4352
X-0.1568 Y-1.391
X-0.1603 Y-1.3468
X-0.1629 Y-1.3025
X-0.1648 Y-1.2582
X-0.1663 Y-1.2138
X-0.1674 Y-1.1695
X-0.1683 Y-1.1251
X-0.1689 Y-1.0807
X-0.1694 Y-1.0364
X-0.1697 Y-0.992
X-0.17 Y-0.9476
X-0.1702 Y-0.9032
X-0.1704 Y-0.8145
X-0.1706 Y-0.6814
X-0.1707 Y-0.4595
Y-0.2377
X-0.1687 Y-0.1933
X-0.1598 Y-0.1499
X-0.1435 Y-0.1086
X-0.1204 Y-0.0707
X-0.0917 Y-0.0368
X-0.0586 Y-0.0073
X-0.022 Y0.0178
X0.017 Y0.0389
X0.0579 Y0.0562
X0.1 Y0.0703
X0.1429 Y0.0816
X0.1863 Y0.0905
X0.2301 Y0.0976
X0.2742 Y0.1031
X0.3183 Y0.1073
X0.3626 Y0.1105
X0.4069 Y0.113
X0.4512 Y0.1149
X0.4956 Y0.1164
X0.5399 Y0.1175
X0.5843 Y0.1183
X0.6287 Y0.1189
X0.673 Y0.1194
X0.7174 Y0.1197
X0.7618 Y0.12
X0.8062 Y0.1202
X0.8949 Y0.1204
X1.028 Y0.1206
X1.2499 Y0.1207
X1.4718
X1.516 Y0.1179
X1.5593 Y0.108
X1.6002 Y0.0907
X1.6376 Y0.0669
X1.6709 Y0.0375
X1.6998 Y0.0039
X1.7244 Y-0.0331
X1.7449 Y-0.0724
X1.7618 Y-0.1134
X1.7755 Y-0.1556
X1.7864 Y-0.1986
X1.7951 Y-0.2421
X1.8019 Y-0.286
X1.8072 Y-0.33
X1.8113 Y-0.3742
X1.8145 Y-0.4185
X1.8169 Y-0.4628
X1.8187 Y-0.5071
X1.8201 Y-0.5515
X1.8211 Y-0.5958
X1.8219 Y-0.6402
X1.8225 Y-0.6846
X1.823 Y-0.729
X1.8233 Y-0.7733
X1.8235 Y-0.8177
X1.8237 Y-0.8621
X1.824 Y-0.9508
X1.8241 Y-1.0839
X1.8242 Y-1.3058
X1.8243 Y-1.4389
X1.8189 Y-1.483
X1.8061 Y-1.5255
X1.7862 Y-1.5651
X1.7601 Y-1.601
X1.729 Y-1.6326
X1.694 Y-1.6598
X1.656 Y-1.6828
X1.6159 Y-1.7019
X1.5744 Y-1.7175
X1.5318 Y-1.7301
X1.4886 Y-1.7401
X1.4449 Y-1.748
X1.401 Y-1.7542
X1.3569 Y-1.7589
X1.3127 Y-1.7626
X1.2684 Y-1.7655
X1.2241 Y-1.7676
X1.1797 Y-1.7693
X1.1354 Y-1.7705
X1.091 Y-1.7715
X1.0466 Y-1.7722
X1.0023 Y-1.7727
X0.9579 Y-1.7731
X0.9135 Y-1.7734
X0.8691 Y-1.7736
X0.8248 Y-1.7738
X0.736 Y-1.774
X0.6029 Y-1.7742
X0.3367 Y-1.7743
X0.2923
X0.2479 Y-1.7733
X0.2041 Y-1.7666
X0.1619 Y-1.7529
X0.1225 Y-1.7325
X0.0868 Y-1.7061
X0.0552 Y-1.675
X0.0279 Y-1.64
X0.0047 Y-1.6022
X-0.0147 Y-1.5623
X-0.0306 Y-1.5208
X-0.0435 Y-1.4784
X-0.0539 Y-1.4353
X-0.0622 Y-1.3917
X-0.0687 Y-1.3478
X-0.0738 Y-1.3037
X-0.0778 Y-1.2595
X-0.0808 Y-1.2152
X-0.0832 Y-1.1709
X-0.085 Y-1.1266
X-0.0864 Y-1.0822
X-0.0874 Y-1.0379
X-0.0882 Y-0.9935
X-0.0889 Y-0.9491
X-0.0893 Y-0.9048
X-0.0897 Y-0.8604
X-0.0899 Y-0.816
X-0.0901 Y-0.7716
X-0.0904 Y-0.6829
X-0.0906 Y-0.5498
X-0.0907 Y-0.3723
X-0.0904 Y-0.3279
X-0.0866 Y-0.2837
X-0.0764 Y-0.2405
X-0.0595 Y-0.1995
X-0.0364 Y-0.1616
X-0.008 Y-0.1275
X0.0248 Y-0.0976
X0.0608 Y-0.0717
X0.0995 Y-0.0499
X0.1399 Y-0.0316
X0.1817 Y-0.0166
X0.2243 Y-0.0044
X0.2676 Y0.0054
X0.3113 Y0.0132
X0.3552 Y0.0194
X0.3993 Y0.0243
X0.4435 Y0.0281
X0.4878 Y0.031
X0.5321 Y0.0333
X0.5765 Y0.0351
X0.6208 Y0.0364
X0.6652 Y0.0375
X0.7095 Y0.0382
X0.7539 Y0.0389
X0.7983 Y0.0393
X0.8426 Y0.0397
X0.887 Y0.0399
X0.9314 Y0.0401
X1.0201 Y0.0404
X1.1533 Y0.0406
X1.3308 Y0.0407
X1.3751 Y0.0404
X1.4193 Y0.0366
X1.4625 Y0.0265
X1.5036 Y0.0097
X1.5415 Y-0.0134
X1.5757 Y-0.0417
X1.6057 Y-0.0744
X1.6315 Y-0.1105
X1.6534 Y-0.1491
X1.6717 Y-0.1895
X1.6868 Y-0.2312
X1.699 Y-0.2739
X1.7088 Y-0.3172
X1.7167 Y-0.3608
X1.7229 Y-0.4048
X1.7278 Y-0.4489
X1.7316 Y-0.4931
X1.7345 Y-0.5374
X1.7368 Y-0.5817
X1.7386 Y-0.626
X1.74 Y-0.6704
X1.741 Y-0.7147
X1.7418 Y-0.7591
X1.7424 Y-0.8035
X1.7428 Y-0.8478
X1.7432 Y-0.8922
X1.7435 Y-0.9366
X1.7437 Y-0.9809
X1.7439 Y-1.0697
X1.7441 Y-1.2028
X1.7442 Y-1.2916
X1.7436 Y-1.3359
X1.7385 Y-1.38
X1.7268 Y-1.4228
X1.7085 Y-1.4632
X1.6841 Y-1.5003
X1.6545 Y-1.5334
X1.621 Y-1.5624
X1.5842 Y-1.5873
X1.5451 Y-1.6083
X1.5043 Y-1.6257
X1.4623 Y-1.64
X1.4195 Y-1.6516
X1.3761 Y-1.661
X1.3324 Y-1.6684
X1.2884 Y-1.6742
X1.2442 Y-1.6788
X1.2 Y-1.6824
X1.1557 Y-1.6852
X1.1114 Y-1.6873
X1.0671 Y-1.689
X1.0227 Y-1.6902
X0.9783 Y-1.6912
X0.934 Y-1.692
X0.8896 Y-1.6925
X0.8452 Y-1.6929
X0.8009 Y-1.6933
X0.7565 Y-1.6935
X0.7121 Y-1.6937
X0.6234 Y-1.694
X0.4903 Y-1.6941
X0.4015 Y-1.6942
X0.3571 Y-1.6934
X0.3131 Y-1.6883
X0.2701 Y-1.677
X0.2295 Y-1.6593
X0.192 Y-1.6356
X0.1582 Y-1.6068
X0.1286 Y-1.5738
X0.1029 Y-1.5375
X0.0812 Y-1.4989
X0.063 Y-1.4584
X0.048 Y-1.4166
X0.0357 Y-1.374
X0.0258 Y-1.3307
X0.0178 Y-1.2871
X0.0115 Y-1.2432
X0.0065 Y-1.1991
X0.0026 Y-1.1549
X-0.0004 Y-1.1106
X-0.0028 Y-1.0663
X-0.0046 Y-1.022
X-0.0061 Y-0.9776
X-0.0072 Y-0.9333
X-0.008 Y-0.8889
X-0.0087 Y-0.8445
X-0.0092 Y-0.8001
X-0.0095 Y-0.7558
X-0.0098 Y-0.7114
X-0.01 Y-0.667
X-0.0102 Y-0.6227
X-0.0104 Y-0.5339
X-0.0105 Y-0.4895
Y-0.4452
X-0.0086 Y-0.4008
X-0.0018 Y-0.357
X0.0112 Y-0.3145
X0.0304 Y-0.2746
X0.0553 Y-0.2378
X0.085 Y-0.2049
X0.1186 Y-0.1759
X0.1553 Y-0.1509
X0.1942 Y-0.1297
X0.2349 Y-0.1119
X0.2768 Y-0.0972
X0.3195 Y-0.0853
X0.3628 Y-0.0755
X0.4065 Y-0.0678
X0.4504 Y-0.0615
X0.4945 Y-0.0566
X0.5387 Y-0.0527
X0.583 Y-0.0497
X0.6273 Y-0.0473
X0.6716 Y-0.0455
X0.716 Y-0.044
X0.7603 Y-0.0429
X0.8047 Y-0.0421
X0.8491 Y-0.0414
X0.8934 Y-0.0409
X0.9378 Y-0.0405
X0.9822 Y-0.0402
X1.0266 Y-0.04
X1.0709 Y-0.0398
X1.1597 Y-0.0396
X1.2041 Y-0.0395
X1.2484
X1.2928 Y-0.0407
X1.3368 Y-0.0462
X1.3797 Y-0.0577
X1.4203 Y-0.0756
X1.4578 Y-0.0993
X1.4916 Y-0.128
X1.5215 Y-0.1609
X1.5473 Y-0.1969
X1.5694 Y-0.2354
X1.5878 Y-0.2758
X1.6032 Y-0.3174
X1.6157 Y-0.36
X1.6259 Y-0.4032
X1.6341 Y-0.4468
X1.6407 Y-0.4907
X1.6459 Y-0.5347
X1.65 Y-0.5789
X1.6532 Y-0.6232
X1.6557 Y-0.6675
X1.6577 Y-0.7118
X1.6592 Y-0.7561
X1.6604 Y-0.8005
X1.6613 Y-0.8449
X1.662 Y-0.8892
X1.6625 Y-0.9336
X1.6629 Y-0.978
X1.6633 Y-1.0223
X1.6635 Y-1.0667
X1.6637 Y-1.1111
X1.6638 Y-1.1555
X1.6639 Y-1.1998
X1.6627 Y-1.2442
X1.6571 Y-1.2882
X1.6454 Y-1.331
X1.6274 Y-1.3716
X1.6035 Y-1.409
X1.5746 Y-1.4427
X1.5417 Y-1.4724
X1.5055 Y-1.4981
X1.4669 Y-1.52
X1.4266 Y-1.5384
X1.3849 Y-1.5537
X1.3423 Y-1.5661
X1.2991 Y-1.5763
X1.2555 Y-1.5844
X1.2116 Y-1.5909
X1.1675 Y-1.5961
X1.1233 Y-1.6001
X1.0791 Y-1.6033
X1.0348 Y-1.6058
X0.9904 Y-1.6078
X0.9461 Y-1.6093
X0.9017 Y-1.6104
X0.8574 Y-1.6113
X0.813 Y-1.612
X0.7686 Y-1.6125
X0.7243 Y-1.613
X0.6799 Y-1.6133
X0.6355 Y-1.6135
X0.5911 Y-1.6137
X0.5468 Y-1.6138
X0.5024 Y-1.6139
X0.458 Y-1.6132
X0.4138 Y-1.609
X0.3706 Y-1.5992
X0.3292 Y-1.5832
X0.2906 Y-1.5613
X0.2555 Y-1.5341
X0.2243 Y-1.5026
X0.197 Y-1.4676
X0.1736 Y-1.4299
X0.1537 Y-1.3902
X0.1372 Y-1.3491
X0.1235 Y-1.3069
X0.1124 Y-1.2639
X0.1033 Y-1.2205
X0.0961 Y-1.1767
X0.0903 Y-1.1327
X0.0857 Y-1.0886
X0.082 Y-1.0443
X0.0792 Y-1.0001
X0.077 Y-0.9557
X0.0752 Y-0.9114
X0.0739 Y-0.867
X0.0728 Y-0.8227
X0.072 Y-0.7783
X0.0714 Y-0.734
X0.0709 Y-0.6896
X0.0705 Y-0.6452
X0.0702 Y-0.6008
X0.07 Y-0.5565
X0.0709 Y-0.5121
X0.0752 Y-0.4679
X0.085 Y-0.4247
X0.1009 Y-0.3832
X0.1226 Y-0.3445
X0.1495 Y-0.3093
X0.1808 Y-0.2778
X0.2156 Y-0.2502
X0.2531 Y-0.2265
X0.2926 Y-0.2063
X0.3336 Y-0.1895
X0.3758 Y-0.1755
X0.4186 Y-0.1641
X0.462 Y-0.1548
X0.5058 Y-0.1473
X0.5497 Y-0.1413
X0.5939 Y-0.1366
X0.6381 Y-0.1328
X0.6823 Y-0.1298
X0.7266 Y-0.1275
X0.771 Y-0.1256
X0.8153 Y-0.1242
X0.8597 Y-0.1231
X0.9041 Y-0.1222
X0.9484 Y-0.1215
X0.9928 Y-0.121
X1.0372 Y-0.1206
X1.0815 Y-0.1203
X1.1259 Y-0.1201
X1.1703 Y-0.1202
X1.2146 Y-0.1225
X1.2584 Y-0.1296
X1.3008 Y-0.1425
X1.3409 Y-0.1616
X1.3779 Y-0.1862
X1.4112 Y-0.2155
X1.4406 Y-0.2487
X1.4661 Y-0.285
X1.4879 Y-0.3236
X1.5063 Y-0.364
X1.5216 Y-0.4057
X1.5342 Y-0.4482
X1.5445 Y-0.4914
X1.5528 Y-0.535
X1.5594 Y-0.5788
X1.5648 Y-0.6229
X1.569 Y-0.6671
X1.5724 Y-0.7113
X1.575 Y-0.7556
X1.5771 Y-0.7999
X1.5787 Y-0.8443
X1.5799 Y-0.8886
X1.5809 Y-0.933
X1.5817 Y-0.9774
X1.5823 Y-1.0217
X1.5827 Y-1.0661
X1.5829 Y-1.1105
X1.5814 Y-1.1548
X1.5757 Y-1.1988
X1.5641 Y-1.2417
X1.5464 Y-1.2824
X1.5231 Y-1.3201
X1.4947 Y-1.3542
X1.4623 Y-1.3845
X1.4266 Y-1.4109
X1.3884 Y-1.4335
X1.3484 Y-1.4526
X1.3069 Y-1.4685
X1.2646 Y-1.4817
X1.2215 Y-1.4924
X1.178 Y-1.5011
X1.1342 Y-1.5081
X1.0902 Y-1.5137
X1.046 Y-1.5182
X1.0018 Y-1.5217
X0.9575 Y-1.5245
X0.9132 Y-1.5267
X0.8688 Y-1.5284
X0.8245 Y-1.5297
X0.7801 Y-1.5308
X0.7358 Y-1.5316
X0.6914 Y-1.5322
X0.647 Y-1.5327
X0.6027 Y-1.533
X0.5583 Y-1.5326
X0.514 Y-1.5294
X0.4704 Y-1.5213
X0.4283 Y-1.5071
X0.3887 Y-1.4871
X0.3523 Y-1.4618
X0.3196 Y-1.4318
X0.2907 Y-1.3982
X0.2657 Y-1.3615
X0.2443 Y-1.3226
X0.2263 Y-1.2821
X0.2113 Y-1.2403
X0.1989 Y-1.1977
X0.1888 Y-1.1545
X0.1806 Y-1.1109
X0.174 Y-1.067
X0.1702 Y-1.0349
X0.1693 Y-1.0288
X0.1681 Y-1.0227
X0.1667 Y-1.0167
X0.1549 Y-0.9727
X0.1523 Y-0.9615
X0.1475 Y-0.939
X0.1464 Y-0.9278
X0.1443 Y-0.9054
X0.1394 Y-0.8492
X0.1387 Y-0.838
Y-0.8155
X0.1394 Y-0.8043
X0.1403 Y-0.7931
X0.1419 Y-0.7487
X0.1444 Y-0.7044
X0.1461 Y-0.6601
X0.1478 Y-0.6158
X0.1515 Y-0.5715
X0.1597 Y-0.5279
X0.1734 Y-0.4857
X0.1929 Y-0.4459
X0.2176 Y-0.4091
X0.247 Y-0.3758
X0.2802 Y-0.3463
X0.3164 Y-0.3207
X0.355 Y-0.2987
X0.3953 Y-0.2801
X0.4117 Y-0.274
X0.4217 Y-0.2697
X0.4314 Y-0.2647
X0.4406 Y-0.2588
X0.4732 Y-0.2361
X0.4809 Y-0.2317
X0.5069 Y-0.2182
X0.5405 Y-0.2025
X0.563 Y-0.192
X0.5744 Y-0.1868
X0.5967 Y-0.1783
X0.6038 Y-0.1756
X0.6079 Y-0.1744
X0.664 Y-0.1594
X0.6865 Y-0.1535
X0.6977 Y-0.1506
X0.7089 Y-0.1488
X0.7201 Y-0.1472
X0.7314 Y-0.1457
X0.7875 Y-0.1408
X0.7987 Y-0.1399
X0.8212 Y-0.1385
X0.8324
X0.8548 Y-0.1399
X0.8661 Y-0.1408
X0.9222 Y-0.1457
X0.9334 Y-0.1472
X0.9446 Y-0.1488
X0.9559 Y-0.1506
X0.9783 Y-0.1564
X0.9895 Y-0.1594
X1.0081 Y-0.1644
X1.0515 Y-0.1737
X1.095 Y-0.1822
X1.1387 Y-0.1902
X1.1816 Y-0.2014
X1.223 Y-0.2174
X1.262 Y-0.2385
X1.298 Y-0.2644
X1.3305 Y-0.2947
X1.3593 Y-0.3284
X1.3844 Y-0.365
X1.406 Y-0.4038
X1.4242 Y-0.4442
X1.4395 Y-0.4859
X1.4522 Y-0.5284
X1.4561 Y-0.5447
X1.4583 Y-0.5528
X1.461 Y-0.5607
X1.4641 Y-0.5685
X1.4722 Y-0.587
X1.4735 Y-0.591
X1.4804 Y-0.6135
X1.4836 Y-0.6247
X1.4987 Y-0.6808
X1.5012 Y-0.692
X1.506 Y-0.7145
X1.5071 Y-0.7257
X1.5093 Y-0.7482
X1.5142 Y-0.8043
X1.5148 Y-0.8155
Y-0.838
X1.5142 Y-0.8492
X1.5132 Y-0.8605
X1.5116 Y-0.9048
X1.5089 Y-0.9491
X1.5071 Y-0.9934
X1.5055 Y-1.0378
X1.5018 Y-1.082
X1.4937 Y-1.1256
X1.4799 Y-1.1678
X1.4604 Y-1.2077
X1.4356 Y-1.2445
X1.4062 Y-1.2777
X1.373 Y-1.3071
X1.3368 Y-1.3328
X1.2983 Y-1.3547
X1.258 Y-1.3733
X1.2425 Y-1.3791
X1.2324 Y-1.3834
X1.2227 Y-1.3885
X1.2135 Y-1.3943
X1.1804 Y-1.4174
X1.1726 Y-1.4218
X1.1467 Y-1.4353
X1.113 Y-1.4511
X1.0906 Y-1.4615
X1.0791 Y-1.4667
X1.0569 Y-1.4753
X1.0497 Y-1.478
X1.0457 Y-1.4791
X0.9895 Y-1.4942
X0.9671 Y-1.5
X0.9559 Y-1.5029
X0.9446 Y-1.5047
X0.9334 Y-1.5063
X0.9222 Y-1.5078
X0.8661 Y-1.5127
X0.8548 Y-1.5136
X0.8324 Y-1.515
X0.8212
X0.7987 Y-1.5136
X0.7875 Y-1.5127
X0.7314 Y-1.5078
X0.7201 Y-1.5063
X0.7089 Y-1.5047
X0.6977 Y-1.5029
X0.6752 Y-1.4971
X0.664 Y-1.4942
X0.6079 Y-1.4791
X0.6038 Y-1.478
X0.5967 Y-1.4753
X0.5545 Y-1.4615
X0.5137 Y-1.444
X0.4751 Y-1.422
X0.4394 Y-1.3957
X0.4384 Y-1.3948
X0.4339 Y-1.3908
X0.4292 Y-1.3869
X0.4243 Y-1.3833
G3 X0.3946 Y-1.3785 I-0.0204 J-0.0315
X0.3664 Y-1.4148 I0.0092 J-0.0363 F300.
X0.3862 Y-1.4479 I0.0375 J0.
G1 X0.5644 Y-1.5429
G3 X0.6173 Y-1.4971 I0.0176 J0.0331
X0.5967 Y-1.4753 I-0.0353 J-0.0127 F60.
G1 X0.5742 Y-1.4666
X0.563 Y-1.4615
X0.5181 Y-1.4406
X0.5069 Y-1.4353
X0.4809 Y-1.4218
X0.4732 Y-1.4174
X0.4395 Y-1.394
X0.4151 Y-1.3769
X0.4058 Y-1.3702
X0.3834 Y-1.3534
X0.3722 Y-1.3431
X0.3608 Y-1.332
X0.3159 Y-1.2871
X0.3048 Y-1.2755
X0.2957 Y-1.2646
X0.2936 Y-1.262
X0.2871 Y-1.2534
X0.2478 Y-1.1973
X0.2405 Y-1.186
X0.2262 Y-1.1631
X0.2208 Y-1.1524
X0.1894 Y-1.085
X0.1813 Y-1.0665
X0.18 Y-1.0625
X0.1731 Y-1.0401
X0.1699 Y-1.0289
X0.1667 Y-1.0167
X0.1657 Y-1.0139
X0.1645 Y-1.0113
G2 X0.1544 Y-0.9884 I0.2921 J0.1425
G1 X0.1532 Y-0.9853 F300.
X0.1518 Y-0.9808
X0.151 Y-0.9761
X0.1345 Y-0.8341
X0.1343 Y-0.8294
X0.1346 Y-0.8247
X0.1348 Y-0.8235
G2 X0.1397 Y-0.7969 I0.3218 J-0.0453 F60.
G1 X0.1403 Y-0.7931
X0.1443 Y-0.7482
X0.1464 Y-0.7257
X0.1475 Y-0.7145
X0.1523 Y-0.692
X0.1549 Y-0.6808
X0.1701 Y-0.624
X0.1731 Y-0.6135
X0.18 Y-0.591
X0.1813 Y-0.587
X0.1894 Y-0.5685
X0.2208 Y-0.5012
X0.2262 Y-0.4904
X0.2405 Y-0.4675
X0.2478 Y-0.4563
X0.2871 Y-0.4001
X0.2936 Y-0.3915
X0.2957 Y-0.3889
X0.3048 Y-0.378
X0.316 Y-0.3663
X0.3609 Y-0.3214
X0.3723 Y-0.3103
X0.3834 Y-0.3001
X0.4058 Y-0.2834
X0.4151 Y-0.2766
X0.4406 Y-0.2588
G3 X0.4539 Y-0.2398 I-0.0225 J0.03
G1 X0.4561 Y-0.2328
G2 X0.5572 Y-0.0897 I0.2874 J-0.0958 F300.
X0.5741 Y-0.0823 I0.0231 J-0.0296
G1 X0.8239 Y-0.0406
G2 X0.8422 Y-0.0421 I0.0062 J-0.037
X0.9847 Y-0.1452 I-0.0987 J-0.2865
G1 X0.9887 Y-0.1505 F60.
G3 X1.0081 Y-0.1644 I0.0303 J0.022
G1 X1.0457 Y-0.1744
X1.0497 Y-0.1756
X1.0569 Y-0.1783
X1.0793 Y-0.1869
X1.0906 Y-0.192
X1.1355 Y-0.2129
X1.1467 Y-0.2182
X1.1726 Y-0.2317
X1.1804 Y-0.2361
X1.214 Y-0.2595
X1.2384 Y-0.2766
X1.2477 Y-0.2834
X1.2702 Y-0.3001
X1.2814 Y-0.3104
X1.2928 Y-0.3215
X1.3377 Y-0.3664
X1.3487 Y-0.378
X1.3579 Y-0.3889
X1.36 Y-0.3915
X1.3664 Y-0.4001
X1.4057 Y-0.4563
X1.4131 Y-0.4675
X1.4273 Y-0.4904
X1.4327 Y-0.5012
X1.4641 Y-0.5685
X1.4656 Y-0.5711
X1.4672 Y-0.5736
G2 X1.4811 Y-0.5944 I-0.2586 J-0.1879
X1.4959 Y-0.6213 I-0.2726 J-0.1671 F300.
X1.4992 Y-0.6315 I-0.0337 J-0.0164
G1 X1.5257 Y-0.7889
G2 X1.526 Y-0.7996 I-0.037 J-0.0062
X1.5207 Y-0.8305 I-0.3174 J0.0381
X1.5145 Y-0.8541 I-0.3122 J0.069 F60.
G1 X1.5137 Y-0.8573
X1.5132 Y-0.8605
X1.5093 Y-0.9054
X1.5071 Y-0.9278
X1.506 Y-0.939
X1.5012 Y-0.9615
X1.4987 Y-0.9727
X1.4834 Y-1.0296
X1.4804 Y-1.0401
X1.4735 Y-1.0625
X1.4722 Y-1.0665
X1.4641 Y-1.085
X1.4327 Y-1.1524
X1.4273 Y-1.1631
X1.4131 Y-1.186
X1.4057 Y-1.1973
X1.3664 Y-1.2534
X1.36 Y-1.262
X1.3579 Y-1.2646
X1.3487 Y-1.2755
X1.3375 Y-1.2873
X1.2926 Y-1.3322
X1.2813 Y-1.3432
X1.2702 Y-1.3534
X1.2477 Y-1.3702
X1.2384 Y-1.3769
X1.2135 Y-1.3943
G3 X1.1988 Y-1.4205 I0.0225 J-0.03
G1 X1.1983 Y-1.425 Z1.1026
X1.1979 Y-1.4295 Z1.1035
X1.1974 Y-1.4338 Z1.1048
X1.197 Y-1.4379 Z1.1067
X1.1966 Y-1.4417 Z1.109
X1.1963 Y-1.4453 Z1.1118
X1.1959 Y-1.4485 Z1.115
X1.1957 Y-1.4512 Z1.1186
X1.1954 Y-1.4536 Z1.1224
X1.1952 Y-1.4554 Z1.1266
X1.1951 Y-1.4568 Z1.1309
X1.195 Y-1.4576 Z1.1353
Y-1.4578 Z1.1399
G0 Z2.04
(ADAPTIVE1)
G0 X0.2883 Y-1.5371
Z2.04
Z1.64
Z1.3742
G1 Z1.3367 F60.
X0.2884 Y-1.5369 Z1.3322
X0.2886 Y-1.5361 Z1.3277
X0.2889 Y-1.5348 Z1.3234
X0.2894 Y-1.533 Z1.3193
X0.29 Y-1.5307 Z1.3154
X0.2907 Y-1.528 Z1.3118
X0.2915 Y-1.5249 Z1.3086
X0.2924 Y-1.5214 Z1.3059
X0.2933 Y-1.5177 Z1.3035
X0.2943 Y-1.5137 Z1.3016
X0.2954 Y-1.5095 Z1.3003
X0.2965 Y-1.5052 Z1.2995
X0.2976 Y-1.5008 Z1.2992
G3 X0.327 Y-1.2967 I-0.9274 J0.2376
G1 Y-1.2907
X0.3254 Y-1.2841
X0.3232 Y-1.2763
X0.3202 Y-1.2669
X0.3068 Y-1.2302
X0.29 Y-1.1892
X0.2724 Y-1.1484
X0.2553 Y-1.1075
X0.2398 Y-1.0659
X0.2263 Y-1.0236
X0.2155 Y-0.9806
X0.2073 Y-0.937
X0.2018 Y-0.893
X0.1991 Y-0.8487
X0.1994 Y-0.8043
X0.2032 Y-0.7601
X0.2094 Y-0.7162
X0.2193 Y-0.6729
X0.2319 Y-0.6304
X0.2466 Y-0.5885
X0.2649 Y-0.548
X0.286 Y-0.509
X0.3102 Y-0.4719
X0.3367 Y-0.4362
X0.3655 Y-0.4025
X0.3964 Y-0.3706
X0.43 Y-0.3416
X0.4657 Y-0.3153
X0.503 Y-0.2913
X0.5416 Y-0.2694
X0.5817 Y-0.2503
X0.623 Y-0.2342
X0.6655 Y-0.2215
X0.7087 Y-0.2114
X0.7526 Y-0.2049
X0.7968 Y-0.2011
X0.8412 Y-0.2002
X0.8855 Y-0.2028
X0.9295 Y-0.2087
X0.9728 Y-0.2181
X1.0155 Y-0.2303
X1.0576 Y-0.2444
X1.0983 Y-0.2619
X1.1376 Y-0.2826
X1.1751 Y-0.3064
X1.2109 Y-0.3325
X1.2454 Y-0.3605
X1.2777 Y-0.3909
X1.3073 Y-0.424
X1.3341 Y-0.4593
X1.3588 Y-0.4962
X1.3809 Y-0.5347
X1.4003 Y-0.5746
X1.417 Y-0.6157
X1.4303 Y-0.658
X1.4407 Y-0.7011
X1.4482 Y-0.7449
X1.4523 Y-0.7891
X1.4538 Y-0.8334
X1.4514 Y-0.8777
X1.4461 Y-0.9218
X1.4376 Y-0.9653
X1.426 Y-1.0082
X1.4121 Y-1.0503
X1.3951 Y-1.0913
X1.3752 Y-1.1309
X1.352 Y-1.1688
X1.3263 Y-1.2049
X1.2984 Y-1.2395
X1.2682 Y-1.2719
X1.2356 Y-1.302
X1.2005 Y-1.3292
X1.1637 Y-1.354
X1.1257 Y-1.377
X1.0861 Y-1.3969
X1.0453 Y-1.4143
X1.0031 Y-1.4281
X0.9601 Y-1.439
X0.9164 Y-1.4467
X0.8722 Y-1.4514
X0.8279 Y-1.4537
X0.7836 Y-1.4521
X0.7394 Y-1.4477
X0.6959 Y-1.4393
X0.653 Y-1.4279
X0.6107 Y-1.4144
X0.5695 Y-1.398
X0.5295 Y-1.3787
X0.4918 Y-1.3554
X0.458 Y-1.3266
X0.4278 Y-1.2941
X0.4009 Y-1.2588
X0.3765 Y-1.2217
X0.3542 Y-1.1834
X0.3339 Y-1.1439
X0.3155 Y-1.1035
X0.2995 Y-1.0622
X0.2859 Y-1.0199
X0.275 Y-0.9769
X0.2669 Y-0.9333
X0.2617 Y-0.8892
X0.2597 Y-0.8449
X0.2609 Y-0.8005
X0.2654 Y-0.7564
X0.273 Y-0.7127
X0.2839 Y-0.6696
X0.2981 Y-0.6276
X0.3156 Y-0.5869
X0.3362 Y-0.5475
X0.3597 Y-0.5099
X0.3861 Y-0.4742
X0.4153 Y-0.4408
X0.4471 Y-0.4099
X0.4811 Y-0.3814
X0.5172 Y-0.3556
X0.5552 Y-0.3327
X0.5949 Y-0.3129
X0.6361 Y-0.2963
X0.6784 Y-0.2829
X0.7216 Y-0.2729
X0.7655 Y-0.2662
X0.8098 Y-0.2632
X0.8541 Y-0.2638
X0.8983 Y-0.2678
X0.9421 Y-0.2751
X0.9852 Y-0.2858
X1.0272 Y-0.2999
X1.068 Y-0.3174
X1.1074 Y-0.3379
X1.1451 Y-0.3613
X1.1807 Y-0.3877
X1.2141 Y-0.4169
X1.2451 Y-0.4487
X1.2735 Y-0.4828
X1.2992 Y-0.519
X1.322 Y-0.5571
X1.3417 Y-0.5968
X1.3582 Y-0.638
X1.3715 Y-0.6803
X1.3814 Y-0.7236
X1.3877 Y-0.7675
X1.3906 Y-0.8118
X1.3899 Y-0.8562
X1.3857 Y-0.9003
X1.3783 Y-0.9441
X1.3675 Y-0.9871
X1.3533 Y-1.0291
X1.3357 Y-1.0699
X1.3151 Y-1.1092
X1.2914 Y-1.1467
X1.2647 Y-1.1822
X1.2353 Y-1.2154
X1.2033 Y-1.2462
X1.1691 Y-1.2745
X1.1329 Y-1.3001
X1.0948 Y-1.3228
X1.055 Y-1.3424
X1.0137 Y-1.3587
X0.9713 Y-1.3717
X0.928 Y-1.3815
X0.8841 Y-1.3878
X0.8398 Y-1.3906
X0.7955 Y-1.3896
X0.7513 Y-1.3853
X0.7076 Y-1.3777
X0.6646 Y-1.3667
X0.6229 Y-1.3516
X0.5832 Y-1.3318
X0.546 Y-1.3075
X0.5117 Y-1.2794
X0.4802 Y-1.2482
X0.4515 Y-1.2143
X0.4255 Y-1.1783
X0.4022 Y-1.1406
X0.3817 Y-1.1012
X0.364 Y-1.0605
X0.3492 Y-1.0187
X0.3375 Y-0.9759
X0.3289 Y-0.9324
X0.3237 Y-0.8883
X0.3219 Y-0.844
X0.3236 Y-0.7996
X0.3289 Y-0.7556
X0.338 Y-0.7121
X0.3507 Y-0.6696
X0.3669 Y-0.6283
X0.3867 Y-0.5886
X0.4098 Y-0.5507
X0.4361 Y-0.515
X0.4655 Y-0.4817
X0.4977 Y-0.4512
X0.5324 Y-0.4236
X0.5694 Y-0.3991
X0.6085 Y-0.378
X0.6492 Y-0.3604
X0.6913 Y-0.3465
X0.7345 Y-0.3364
X0.7785 Y-0.3302
X0.8228 Y-0.3279
X0.8671 Y-0.3296
X0.9111 Y-0.3352
X0.9545 Y-0.3447
X0.9969 Y-0.3579
X1.0379 Y-0.3747
X1.0773 Y-0.3952
X1.1146 Y-0.4192
X1.1497 Y-0.4464
X1.1822 Y-0.4766
X1.2119 Y-0.5096
X1.2386 Y-0.545
X1.262 Y-0.5827
X1.2821 Y-0.6223
X1.2985 Y-0.6635
X1.3111 Y-0.706
X1.3198 Y-0.7496
X1.3247 Y-0.7937
X1.3256 Y-0.838
X1.3227 Y-0.8823
X1.3159 Y-0.9261
X1.3052 Y-0.9692
X1.2907 Y-1.0111
X1.2724 Y-1.0516
X1.2506 Y-1.0902
X1.2254 Y-1.1268
X1.1972 Y-1.161
X1.166 Y-1.1926
X1.1322 Y-1.2213
X1.096 Y-1.2469
X1.0576 Y-1.2692
X1.0173 Y-1.2879
X0.9756 Y-1.303
X0.9327 Y-1.3143
X0.889 Y-1.3218
X0.8447 Y-1.3253
X0.8004 Y-1.325
X0.7562 Y-1.3203
X0.7129 Y-1.3108
X0.6709 Y-1.2964
X0.6309 Y-1.2773
X0.5932 Y-1.2538
X0.5582 Y-1.2266
X0.5261 Y-1.196
X0.497 Y-1.1625
X0.471 Y-1.1265
X0.4483 Y-1.0884
X0.4289 Y-1.0484
X0.413 Y-1.007
X0.4007 Y-0.9644
X0.3921 Y-0.9209
X0.3874 Y-0.8767
X0.3868 Y-0.8324
X0.3903 Y-0.7881
X0.3979 Y-0.7444
X0.4096 Y-0.7016
X0.4254 Y-0.6601
X0.4452 Y-0.6204
X0.4689 Y-0.5829
X0.4961 Y-0.5479
X0.5268 Y-0.5158
X0.5604 Y-0.4869
X0.5968 Y-0.4615
X0.6357 Y-0.44
X0.6765 Y-0.4226
X0.7189 Y-0.4095
X0.7624 Y-0.4007
X0.8065 Y-0.3964
X0.8509 Y-0.3966
X0.895 Y-0.4014
X0.9384 Y-0.4107
X0.9806 Y-0.4244
X1.0212 Y-0.4424
X1.0597 Y-0.4644
X1.0957 Y-0.4903
X1.129 Y-0.5197
X1.159 Y-0.5524
X1.1854 Y-0.588
X1.2081 Y-0.6262
X1.2267 Y-0.6665
X1.2411 Y-0.7084
X1.2511 Y-0.7517
X1.2566 Y-0.7957
X1.2575 Y-0.8401
X1.2538 Y-0.8843
X1.2456 Y-0.9279
X1.233 Y-0.9704
X1.2161 Y-1.0114
X1.195 Y-1.0505
X1.17 Y-1.0872
X1.1414 Y-1.1211
X1.1094 Y-1.1518
X1.0745 Y-1.1792
X1.0369 Y-1.2029
X0.9971 Y-1.2225
X0.9555 Y-1.2379
X0.9125 Y-1.2488
X0.8686 Y-1.2551
X0.8242 Y-1.2561
X0.7801 Y-1.2516
X0.7368 Y-1.2417
X0.6952 Y-1.2264
X0.6556 Y-1.2062
X0.6188 Y-1.1815
X0.585 Y-1.1527
X0.5547 Y-1.1204
X0.5279 Y-1.085
X0.505 Y-1.0469
X0.4862 Y-1.0068
X0.4717 Y-0.9648
X0.4617 Y-0.9216
X0.4564 Y-0.8775
X0.4559 Y-0.8332
X0.4602 Y-0.789
X0.4694 Y-0.7456
X0.4835 Y-0.7035
X0.5024 Y-0.6634
X0.5258 Y-0.6257
X0.5534 Y-0.591
X0.585 Y-0.5598
X0.6201 Y-0.5326
X0.6582 Y-0.5099
X0.6988 Y-0.4919
X0.7412 Y-0.479
X0.7849 Y-0.4713
X0.8292 Y-0.4691
X0.8735 Y-0.4723
X0.917 Y-0.481
X0.9591 Y-0.4949
X0.9992 Y-0.5139
X1.0367 Y-0.5377
X1.0708 Y-0.566
X1.1013 Y-0.5983
X1.1275 Y-0.6341
X1.1491 Y-0.6729
X1.1657 Y-0.714
X1.177 Y-0.757
X1.1829 Y-0.8009
X1.1834 Y-0.8453
X1.1784 Y-0.8894
X1.1678 Y-0.9325
X1.1521 Y-0.974
X1.1313 Y-1.0132
X1.1058 Y-1.0495
X1.076 Y-1.0824
X1.0424 Y-1.1113
X1.0054 Y-1.1358
X0.9655 Y-1.1553
X0.9233 Y-1.1691
X0.8796 Y-1.1767
X0.8353 Y-1.1779
X0.7912 Y-1.1725
X0.7484 Y-1.1608
X0.7077 Y-1.1431
X0.6699 Y-1.1199
X0.6357 Y-1.0916
X0.6056 Y-1.059
X0.5801 Y-1.0227
X0.5597 Y-0.9833
X0.5447 Y-0.9415
X0.5355 Y-0.8981
X0.5324 Y-0.8539
X0.5353 Y-0.8096
X0.5445 Y-0.7662
X0.5599 Y-0.7246
X0.5811 Y-0.6856
X0.6091 Y-0.6512
X0.6418 Y-0.6211
X0.6785 Y-0.5962
X0.7186 Y-0.5772
X0.7611 Y-0.5646
X0.8051 Y-0.5588
X0.8495 Y-0.5601
X0.8931 Y-0.5685
X0.9347 Y-0.5838
X0.9733 Y-0.6057
X1.0078 Y-0.6336
X1.0372 Y-0.6668
X1.0606 Y-0.7045
X1.0776 Y-0.7455
X1.0874 Y-0.7888
X1.0898 Y-0.8331
X1.0849 Y-0.8772
X1.0726 Y-0.9198
X1.0532 Y-0.9598
X1.0271 Y-0.9956
X0.9949 Y-1.0261
X0.9573 Y-1.0497
X0.9158 Y-1.0653
X0.8719 Y-1.0723
X0.8276 Y-1.0701
X0.7846 Y-1.0592
X0.7447 Y-1.0398
X0.7094 Y-1.0129
X0.6804 Y-0.9794
X0.6589 Y-0.9405
X0.6465 Y-0.8979
X0.6442 Y-0.8536
X0.6526 Y-0.81
X0.6715 Y-0.7699
X0.7003 Y-0.7362
X0.7097 Y-0.7302
X0.7194 Y-0.7248
X0.7295 Y-0.7202
X0.7399 Y-0.7163
X0.7505 Y-0.7132
X0.7613 Y-0.7108
X0.7723 Y-0.7093
X0.7834 Y-0.7085
X0.7945
X0.8 Y-0.7089
G3 X0.828 Y-0.698 I0.0015 J0.0375
G1 X0.8312 Y-0.6948 Z1.2995
X0.8343 Y-0.6916 Z1.3003
X0.8374 Y-0.6886 Z1.3016
X0.8403 Y-0.6856 Z1.3035
X0.8431 Y-0.6829 Z1.3059
X0.8456 Y-0.6804 Z1.3086
X0.8478 Y-0.6781 Z1.3118
X0.8498 Y-0.6761 Z1.3154
X0.8515 Y-0.6745 Z1.3193
X0.8528 Y-0.6732 Z1.3234
X0.8537 Y-0.6722 Z1.3277
X0.8543 Y-0.6716 Z1.3322
X0.8545 Y-0.6714 Z1.3367
G0 Z2.04
(2D CONTOUR3)
G64 P0.0004 Q0.0004
G0 X0.7893 Y-0.0356
Z2.04
Z1.64
G1 Z1.4794 F80.
Z1.1399
G19 G2 Y-0.0731 Z1.1024 J-0.0375 K0. F60.
G1 Y-0.1106
G17 G3 X0.8268 Y-0.1481 I0.0375 J0.
G2 Y-1.5054 I0. J-0.6786
Y-0.1481 I0. J0.6786
Y-1.5054 I0. J-0.6786
Y-0.1481 I0. J0.6786
G3 X0.8643 Y-0.1106 I0. J0.0375
G1 Y-0.0731
G19 G3 Y-0.0356 Z1.1399 J0. K0.0375
G0 Z2.04
G17
M5
G53 G0 Z0.
(2D CHAMFER2)
M9
M1
T13 M6
T36
S7500 M3
G17 G90 G94
G54
M8
G0 X0.8523 Y-0.8268
G43 Z2.04 H13
G0 Z1.64
G1 Z1.52 F80.
Z1.1792
G3 X0.8012 I-0.0255 J0. F50.
X0.8523 I0.0255 J0.
G0 Z1.64
X1.4144
G1 Z1.52 F80.
Z1.1792
G2 X0.2391 I-0.5876 J0. F50.
X1.4144 I0.5876 J0.
G0 Z2.04
X1.75
Z1.64
G1 Z1.52 F80.
Z0.9824
Y-1.0947 F50.
G2 X1.7453 Y-1.1244 I-0.0965 J0.
X1.1244 Y-1.7453 I-0.9186 J0.2977
X1.0947 Y-1.75 I-0.0297 J0.0918
G1 X0.5589
G2 X0.5291 Y-1.7453 I0. J0.0965
X-0.0918 Y-1.1244 I0.2977 J0.9186
X-0.0965 Y-1.0947 I0.0918 J0.0297
G1 Y-0.5589
G2 X-0.0918 Y-0.5291 I0.0965 J0.
X0.5291 Y0.0918 I0.9186 J-0.2977
X0.5589 Y0.0965 I0.0297 J-0.0918
G1 X1.0947
G2 X1.1244 Y0.0918 I0. J-0.0965
X1.7453 Y-0.5291 I-0.2977 J-0.9186
X1.75 Y-0.5589 I-0.0918 J-0.0297
G1 Y-0.8268
G0 Z2.04
M5
M9
G53 G0 Z0.
M30
%
