%
(HT JIG MODIFICATION 43,5MM)
(T35 D=0.375 CR=0. - ZMIN=0.9449 - FLAT END MILL)
G90 G94 G17 G91.1
G20
G53 G0 Z0.
(2D CONTOUR4)
T35 M6
S7500 M3
G17 G90 G94
G54
G64 P0.0004 Q0.0004
M8
G0 X0.375 Y-1.8313
G43 Z1.7811 H35
G0 Z1.3811
G1 Z1.3593 F80.
G19 G3 Y-1.4563 Z0.9843 J0.375 K0. F40.
G1 Y-1.4188
G17 G3 X0. Y-1.0438 I-0.375 J0.
G2 Y1.0438 I0. J1.0438
Y-1.0438 I0. J-1.0438
Y1.0438 I0. J1.0438
Y-1.0438 I0. J-1.0438
G3 X-0.375 Y-1.4188 I0. J-0.375
G1 Y-1.4563
G19 G2 Y-1.8313 Z1.3593 J0. K0.375
G0 Z1.7811
G17
(2D CONTOUR5)
G0 X-0.0241 Y-0.0375
Z1.7811
Z1.3811
G1 Z1.2205 F10.
Z0.9824
G18 G2 X0.0134 Z0.9449 I0.0375 K0.
G1 X0.0309
G17 G3 X0.0684 Y0. I0. J0.0375
X-0.0684 I-0.0684 J0.
X0.0684 I0.0684 J0.
X-0.0684 I-0.0684 J0.
X0.0684 I0.0684 J0.
X0.0309 Y0.0375 I-0.0375 J0.
G1 X0.0134
G18 G3 X-0.0241 Z0.9824 I0. K0.0375
G0 Z1.7811
G17
M5
M9
G53 G0 Z0.
M30
%
