%
(ST JIG, 12,6X2,75)
(T13 D=0.375 CR=0. TAPER=45DEG - ZMIN=-0.0309 - CHAMFER MILL)
(T33 D=0.25 CR=0. - ZMIN=-0.04 - FLAT END MILL)
(T35 D=0.375 CR=0. - ZMIN=0.4921 - FLAT END MILL)
(T54 D=0.3125 CR=0. TAPER=118DEG - ZMIN=-0.1439 - DRILL)
G90 G94 G17 G91.1
G20
G53 G0 Z0.
(FACE1)
T35 M6
T54
S7500 M3
G17 G90 G94
G54
G64 P0.0004 Q0.0004
M8
G0 X12.8422 Y-2.6645
G43 Z1.1321 H35
G0 Z0.7321
G1 Z0.5296 F80.
G18 G3 X12.8047 Z0.4921 I-0.0375 K0. F60.
G1 X12.6984
X-0.1
G17 G2 Y-2.3885 I0. J0.138
G1 X12.6984
G3 Y-2.1126 I0. J0.138
G1 X-0.1
G2 Y-1.8367 I0. J0.138
G1 X12.6984
G3 Y-1.5608 I0. J0.138
G1 X-0.1
G2 Y-1.2848 I0. J0.138
G1 X12.6984
G3 Y-1.0089 I0. J0.138
G1 X-0.1
G2 Y-0.733 I0. J0.138
G1 X12.6984
G3 Y-0.4571 I0. J0.138
G1 X-0.1
G2 Y-0.1811 I0. J0.138
G1 X12.6984
G18 G2 X12.7359 Z0.5296 I0. K0.0375
G0 Z1.1321
G17
M5
G53 G0 Z0.
(DRILL1)
M9
M1
T54 M6
T33
S5000 M3
G17 G90 G94
G54
M8
G0 X6.7493 Y-2.2014
G43 Z1.1321 H54
G0 Z0.7321
G98 G81 X6.7493 Y-2.2014 Z-0.1439 R0.6921 F40.
X7.6592 Y-2.0941
X8.4168 Y-1.8795
X9.1744 Y-1.6648
X11.4471 Y-1.735
X12.2047 Y-1.9497
Y-0.8062
X11.4471 Y-1.0209
X9.1744 Y-1.0911
X8.4168 Y-0.8764
X7.6592 Y-0.6618
X6.7493 Y-0.5545
X6.1627 Y-0.6227
X5.5761 Y-0.6909
X4.9895 Y-0.7591
X6.1627 Y-2.1332
X5.5761 Y-2.065
X4.9895 Y-1.9968
X4.4029 Y-1.9286
Y-0.8273
X3.4252 Y-0.9409
Y-1.815
X0.8661 Y-1.811
Y-0.9449
G80
G0 Z1.1321
(DRILL2)
G0 X9.8819 Y-2.4055
Z1.1321
Z0.7321
G81 X9.8819 Y-2.4055 Z0.2408 R0.6921 F40.
Y-0.3504
G80
G0 Z1.1321
M5
G53 G0 Z0.
(2D CONTOUR1)
M9
M1
T33 M6
T13
S7500 M3
G17 G90 G94
G54
G64 P0.0004 Q0.0004
M8
G0 X7.6578 Y-0.6818
G43 Z1.1321 H33
G0 Z0.7321
G1 Z-0.02 F20.
G18 G2 X7.6778 Z-0.04 I0.02 K0.
G1 X7.7028
G17 G3 X7.7228 Y-0.6618 I0. J0.02
X7.5958 I-0.0635 J0.
X7.7228 I0.0635 J0.
X7.5958 I-0.0635 J0.
X7.7228 I0.0635 J0.
X7.7028 Y-0.6418 I-0.02 J0.
G1 X7.6778
G18 G3 X7.6578 Z-0.02 I0. K0.02
G0 Z0.7321
X8.4153 Y-0.8964
G1 Z-0.02 F20.
G2 X8.4353 Z-0.04 I0.02 K0.
G1 X8.4603
G17 G3 X8.4803 Y-0.8764 I0. J0.02
X8.3533 I-0.0635 J0.
X8.4803 I0.0635 J0.
X8.3533 I-0.0635 J0.
X8.4803 I0.0635 J0.
X8.4603 Y-0.8564 I-0.02 J0.
G1 X8.4353
G18 G3 X8.4153 Z-0.02 I0. K0.02
G0 Z0.7321
X9.1729 Y-1.1111
G1 Z-0.02 F20.
G2 X9.1929 Z-0.04 I0.02 K0.
G1 X9.2179
G17 G3 X9.2379 Y-1.0911 I0. J0.02
X9.1109 I-0.0635 J0.
X9.2379 I0.0635 J0.
X9.1109 I-0.0635 J0.
X9.2379 I0.0635 J0.
X9.2179 Y-1.0711 I-0.02 J0.
G1 X9.1929
G18 G3 X9.1729 Z-0.02 I0. K0.02
G0 Z0.7321
Y-1.6848
G1 Z-0.02 F20.
G2 X9.1929 Z-0.04 I0.02 K0.
G1 X9.2179
G17 G3 X9.2379 Y-1.6648 I0. J0.02
X9.1109 I-0.0635 J0.
X9.2379 I0.0635 J0.
X9.1109 I-0.0635 J0.
X9.2379 I0.0635 J0.
X9.2179 Y-1.6448 I-0.02 J0.
G1 X9.1929
G18 G3 X9.1729 Z-0.02 I0. K0.02
G0 Z0.7321
X8.4153 Y-1.8995
G1 Z-0.02 F20.
G2 X8.4353 Z-0.04 I0.02 K0.
G1 X8.4603
G17 G3 X8.4803 Y-1.8795 I0. J0.02
X8.3533 I-0.0635 J0.
X8.4803 I0.0635 J0.
X8.3533 I-0.0635 J0.
X8.4803 I0.0635 J0.
X8.4603 Y-1.8595 I-0.02 J0.
G1 X8.4353
G18 G3 X8.4153 Z-0.02 I0. K0.02
G0 Z0.7321
X7.664 Y-2.1136
G1 Z-0.02 F20.
X7.6643 Y-2.1135 Z-0.0235
X7.6652 Y-2.1132 Z-0.0268
X7.6666 Y-2.1128 Z-0.03
X7.6685 Y-2.1121 Z-0.0329
X7.6708 Y-2.1114 Z-0.0353
X7.6735 Y-2.1105 Z-0.0373
X7.6765 Y-2.1095 Z-0.0388
X7.6797 Y-2.1085 Z-0.0397
X7.683 Y-2.1074 Z-0.04
X7.7068 Y-2.0997
G17 G3 X7.7196 Y-2.0745 I-0.0062 J0.019
X7.5989 Y-2.1137 I-0.0604 J-0.0196
X7.7196 Y-2.0745 I0.0604 J0.0196
X7.5989 Y-2.1137 I-0.0604 J-0.0196
X7.7196 Y-2.0745 I0.0604 J0.0196
X7.6944 Y-2.0616 I-0.019 J-0.0062
G1 X7.6707 Y-2.0694
X7.6674 Y-2.0704 Z-0.0397
X7.6642 Y-2.0715 Z-0.0388
X7.6612 Y-2.0725 Z-0.0373
X7.6584 Y-2.0733 Z-0.0353
X7.6561 Y-2.0741 Z-0.0329
X7.6542 Y-2.0747 Z-0.03
X7.6528 Y-2.0752 Z-0.0268
X7.6519 Y-2.0755 Z-0.0235
X7.6516 Y-2.0756 Z-0.02
G0 Z0.7321
X6.7478 Y-2.2214
G1 Z-0.02 F20.
G18 G2 X6.7678 Z-0.04 I0.02 K0.
G1 X6.7928
G17 G3 X6.8128 Y-2.2014 I0. J0.02
X6.6858 I-0.0635 J0.
X6.8128 I0.0635 J0.
X6.6858 I-0.0635 J0.
X6.8128 I0.0635 J0.
X6.7928 Y-2.1814 I-0.02 J0.
G1 X6.7678
G18 G3 X6.7478 Z-0.02 I0. K0.02
G0 Z0.7321
X6.1674 Y-2.1527
G1 Z-0.02 F20.
X6.1677 Y-2.1526 Z-0.0235
X6.1686 Y-2.1523 Z-0.0268
X6.17 Y-2.1519 Z-0.03
X6.1719 Y-2.1512 Z-0.0329
X6.1742 Y-2.1505 Z-0.0353
X6.1769 Y-2.1496 Z-0.0373
X6.1799 Y-2.1486 Z-0.0388
X6.1831 Y-2.1476 Z-0.0397
X6.1865 Y-2.1465 Z-0.04
X6.2102 Y-2.1388
G17 G3 X6.2231 Y-2.1136 I-0.0062 J0.019
X6.1023 Y-2.1528 I-0.0604 J-0.0196
X6.2231 Y-2.1136 I0.0604 J0.0196
X6.1023 Y-2.1528 I-0.0604 J-0.0196
X6.2231 Y-2.1136 I0.0604 J0.0196
X6.1979 Y-2.1007 I-0.019 J-0.0062
G1 X6.1741 Y-2.1085
X6.1708 Y-2.1095 Z-0.0397
X6.1676 Y-2.1106 Z-0.0388
X6.1646 Y-2.1116 Z-0.0373
X6.1619 Y-2.1124 Z-0.0353
X6.1595 Y-2.1132 Z-0.0329
X6.1576 Y-2.1138 Z-0.03
X6.1562 Y-2.1143 Z-0.0268
X6.1554 Y-2.1146 Z-0.0235
X6.1551 Y-2.1147 Z-0.02
G0 Z0.7321
X5.5808 Y-2.0845
G1 Z-0.02 F20.
X5.5811 Y-2.0844 Z-0.0235
X5.582 Y-2.0841 Z-0.0268
X5.5834 Y-2.0837 Z-0.03
X5.5853 Y-2.0831 Z-0.0329
X5.5876 Y-2.0823 Z-0.0353
X5.5903 Y-2.0814 Z-0.0373
X5.5933 Y-2.0804 Z-0.0388
X5.5965 Y-2.0794 Z-0.0397
X5.5998 Y-2.0783 Z-0.04
X5.6236 Y-2.0706
G3 X5.6365 Y-2.0454 I-0.0062 J0.019
X5.5157 Y-2.0846 I-0.0604 J-0.0196
X5.6365 Y-2.0454 I0.0604 J0.0196
X5.5157 Y-2.0846 I-0.0604 J-0.0196
X5.6365 Y-2.0454 I0.0604 J0.0196
X5.6113 Y-2.0325 I-0.019 J-0.0062
G1 X5.5875 Y-2.0403
X5.5842 Y-2.0413 Z-0.0397
X5.581 Y-2.0424 Z-0.0388
X5.578 Y-2.0434 Z-0.0373
X5.5753 Y-2.0442 Z-0.0353
X5.5729 Y-2.045 Z-0.0329
X5.571 Y-2.0456 Z-0.03
X5.5696 Y-2.0461 Z-0.0268
X5.5687 Y-2.0464 Z-0.0235
X5.5685 Y-2.0465 Z-0.02
G0 Z0.7321
X4.9879 Y-2.0168
G1 Z-0.02 F20.
G18 G2 X5.0079 Z-0.04 I0.02 K0.
G1 X5.0329
G17 G3 X5.0529 Y-1.9968 I0. J0.02
X4.9259 I-0.0635 J0.
X5.0529 I0.0635 J0.
X4.9259 I-0.0635 J0.
X5.0529 I0.0635 J0.
X5.0329 Y-1.9768 I-0.02 J0.
G1 X5.0079
G18 G3 X4.9879 Z-0.02 I0. K0.02
G0 Z0.7321
X4.4014 Y-1.9486
G1 Z-0.02 F20.
G2 X4.4214 Z-0.04 I0.02 K0.
G1 X4.4464
G17 G3 X4.4664 Y-1.9286 I0. J0.02
X4.3394 I-0.0635 J0.
X4.4664 I0.0635 J0.
X4.3394 I-0.0635 J0.
X4.4664 I0.0635 J0.
X4.4464 Y-1.9086 I-0.02 J0.
G1 X4.4214
G18 G3 X4.4014 Z-0.02 I0. K0.02
G0 Z0.7321
X3.4237 Y-1.835
G1 Z-0.02 F20.
G2 X3.4437 Z-0.04 I0.02 K0.
G1 X3.4687
G17 G3 X3.4887 Y-1.815 I0. J0.02
X3.3617 I-0.0635 J0.
X3.4887 I0.0635 J0.
X3.3617 I-0.0635 J0.
X3.4887 I0.0635 J0.
X3.4687 Y-1.795 I-0.02 J0.
G1 X3.4437
G18 G3 X3.4237 Z-0.02 I0. K0.02
G0 Z0.7321
Y-0.9609
G1 Z-0.02 F20.
G2 X3.4437 Z-0.04 I0.02 K0.
G1 X3.4687
G17 G3 X3.4887 Y-0.9409 I0. J0.02
X3.3617 I-0.0635 J0.
X3.4887 I0.0635 J0.
X3.3617 I-0.0635 J0.
X3.4887 I0.0635 J0.
X3.4687 Y-0.9209 I-0.02 J0.
G1 X3.4437
G18 G3 X3.4237 Z-0.02 I0. K0.02
G0 Z0.7321
X4.4014 Y-0.8473
G1 Z-0.02 F20.
G2 X4.4214 Z-0.04 I0.02 K0.
G1 X4.4464
G17 G3 X4.4664 Y-0.8273 I0. J0.02
X4.3394 I-0.0635 J0.
X4.4664 I0.0635 J0.
X4.3394 I-0.0635 J0.
X4.4664 I0.0635 J0.
X4.4464 Y-0.8073 I-0.02 J0.
G1 X4.4214
G18 G3 X4.4014 Z-0.02 I0. K0.02
G0 Z0.7321
X4.9879 Y-0.7791
G1 Z-0.02 F20.
G2 X5.0079 Z-0.04 I0.02 K0.
G1 X5.0329
G17 G3 X5.0529 Y-0.7591 I0. J0.02
X4.9259 I-0.0635 J0.
X5.0529 I0.0635 J0.
X4.9259 I-0.0635 J0.
X5.0529 I0.0635 J0.
X5.0329 Y-0.7391 I-0.02 J0.
G1 X5.0079
G18 G3 X4.9879 Z-0.02 I0. K0.02
G0 Z0.7321
X5.5746 Y-0.7109
G1 Z-0.02 F20.
G2 X5.5946 Z-0.04 I0.02 K0.
G1 X5.6196
G17 G3 X5.6396 Y-0.6909 I0. J0.02
X5.5126 I-0.0635 J0.
X5.6396 I0.0635 J0.
X5.5126 I-0.0635 J0.
X5.6396 I0.0635 J0.
X5.6196 Y-0.6709 I-0.02 J0.
G1 X5.5946
G18 G3 X5.5746 Z-0.02 I0. K0.02
G0 Z0.7321
X6.1674 Y-0.6422
G1 Z-0.02 F20.
X6.1677 Y-0.6421 Z-0.0235
X6.1686 Y-0.6418 Z-0.0268
X6.17 Y-0.6414 Z-0.03
X6.1719 Y-0.6407 Z-0.0329
X6.1742 Y-0.64 Z-0.0353
X6.1769 Y-0.6391 Z-0.0373
X6.1799 Y-0.6381 Z-0.0388
X6.1831 Y-0.6371 Z-0.0397
X6.1865 Y-0.636 Z-0.04
X6.2102 Y-0.6283
G17 G3 X6.2231 Y-0.6031 I-0.0062 J0.019
X6.1023 Y-0.6423 I-0.0604 J-0.0196
X6.2231 Y-0.6031 I0.0604 J0.0196
X6.1023 Y-0.6423 I-0.0604 J-0.0196
X6.2231 Y-0.6031 I0.0604 J0.0196
X6.1979 Y-0.5902 I-0.019 J-0.0062
G1 X6.1741 Y-0.598
X6.1708 Y-0.599 Z-0.0397
X6.1676 Y-0.6001 Z-0.0388
X6.1646 Y-0.601 Z-0.0373
X6.1619 Y-0.6019 Z-0.0353
X6.1595 Y-0.6027 Z-0.0329
X6.1576 Y-0.6033 Z-0.03
X6.1562 Y-0.6038 Z-0.0268
X6.1554 Y-0.604 Z-0.0235
X6.1551 Y-0.6041 Z-0.02
G0 Z0.7321
X6.7478 Y-0.5745
G1 Z-0.02 F20.
G18 G2 X6.7678 Z-0.04 I0.02 K0.
G1 X6.7928
G17 G3 X6.8128 Y-0.5545 I0. J0.02
X6.6858 I-0.0635 J0.
X6.8128 I0.0635 J0.
X6.6858 I-0.0635 J0.
X6.8128 I0.0635 J0.
X6.7928 Y-0.5345 I-0.02 J0.
G1 X6.7678
G18 G3 X6.7478 Z-0.02 I0. K0.02
G0 Z0.7321
X11.4519 Y-1.0403
G1 Z-0.02 F20.
X11.4522 Z-0.0235
X11.453 Y-1.04 Z-0.0268
X11.4544 Y-1.0395 Z-0.03
X11.4563 Y-1.0389 Z-0.0329
X11.4587 Y-1.0381 Z-0.0353
X11.4614 Y-1.0373 Z-0.0373
X11.4644 Y-1.0363 Z-0.0388
X11.4676 Y-1.0352 Z-0.0397
X11.4709 Y-1.0342 Z-0.04
X11.4947 Y-1.0264
G17 G3 X11.5075 Y-1.0012 I-0.0062 J0.019
X11.3867 Y-1.0405 I-0.0604 J-0.0196
X11.5075 Y-1.0012 I0.0604 J0.0196
X11.3867 Y-1.0405 I-0.0604 J-0.0196
X11.5075 Y-1.0012 I0.0604 J0.0196
X11.4823 Y-0.9884 I-0.019 J-0.0062
G1 X11.4585 Y-0.9961
X11.4552 Y-0.9972 Z-0.0397
X11.452 Y-0.9982 Z-0.0388
X11.449 Y-0.9992 Z-0.0373
X11.4463 Y-1.0001 Z-0.0353
X11.444 Y-1.0009 Z-0.0329
X11.4421 Y-1.0015 Z-0.03
X11.4407 Y-1.0019 Z-0.0268
X11.4398 Y-1.0022 Z-0.0235
X11.4395 Y-1.0023 Z-0.02
G0 Z0.7321
X11.4519 Y-1.7545
G1 Z-0.02 F20.
X11.4522 Y-1.7544 Z-0.0235
X11.453 Y-1.7542 Z-0.0268
X11.4544 Y-1.7537 Z-0.03
X11.4563 Y-1.7531 Z-0.0329
X11.4587 Y-1.7523 Z-0.0353
X11.4614 Y-1.7514 Z-0.0373
X11.4644 Y-1.7505 Z-0.0388
X11.4676 Y-1.7494 Z-0.0397
X11.4709 Y-1.7483 Z-0.04
X11.4947 Y-1.7406
G3 X11.5075 Y-1.7154 I-0.0062 J0.019
X11.3867 Y-1.7547 I-0.0604 J-0.0196
X11.5075 Y-1.7154 I0.0604 J0.0196
X11.3867 Y-1.7547 I-0.0604 J-0.0196
X11.5075 Y-1.7154 I0.0604 J0.0196
X11.4823 Y-1.7026 I-0.019 J-0.0062
G1 X11.4585 Y-1.7103
X11.4552 Y-1.7114 Z-0.0397
X11.452 Y-1.7124 Z-0.0388
X11.449 Y-1.7134 Z-0.0373
X11.4463 Y-1.7143 Z-0.0353
X11.444 Y-1.715 Z-0.0329
X11.4421 Y-1.7157 Z-0.03
X11.4407 Y-1.7161 Z-0.0268
X11.4398 Y-1.7164 Z-0.0235
X11.4395 Y-1.7165 Z-0.02
G0 Z0.7321
X12.2032 Y-1.9697
G1 Z-0.02 F20.
G18 G2 X12.2232 Z-0.04 I0.02 K0.
G1 X12.2482
G17 G3 X12.2682 Y-1.9497 I0. J0.02
X12.1412 I-0.0635 J0.
X12.2682 I0.0635 J0.
X12.1412 I-0.0635 J0.
X12.2682 I0.0635 J0.
X12.2482 Y-1.9297 I-0.02 J0.
G1 X12.2232
G18 G3 X12.2032 Z-0.02 I0. K0.02
G0 Z0.7321
Y-0.8262
G1 Z-0.02 F20.
G2 X12.2232 Z-0.04 I0.02 K0.
G1 X12.2482
G17 G3 X12.2682 Y-0.8062 I0. J0.02
X12.1412 I-0.0635 J0.
X12.2682 I0.0635 J0.
X12.1412 I-0.0635 J0.
X12.2682 I0.0635 J0.
X12.2482 Y-0.7862 I-0.02 J0.
G1 X12.2232
G18 G3 X12.2032 Z-0.02 I0. K0.02
G0 Z1.1321
G17
(2D CONTOUR2)
G0 X9.9064 Y-0.3707
Z1.1321
Z0.7321
G1 Z0.5715 F80.
Z0.3596
X9.9067 Z0.3557 F20.
X9.9076 Y-0.3705 Z0.3519
X9.9091 Y-0.3702 Z0.3483
X9.9111 Y-0.3697 Z0.345
X9.9136 Y-0.3692 Z0.342
X9.9165 Y-0.3686 Z0.3394
X9.9198 Y-0.3679 Z0.3374
X9.9233 Y-0.3672 Z0.3359
X9.927 Y-0.3664 Z0.335
X9.9309 Y-0.3655 Z0.3346
X9.9553 Y-0.3603
G3 X9.9746 Y-0.3307 I-0.0052 J0.0245
X9.8819 Y-0.2556 I-0.0927 J-0.0197
Y-0.4451 I0. J-0.0948
Y-0.2556 I0. J0.0948
Y-0.4451 I0. J-0.0948
X9.9746 Y-0.3307 I0. J0.0948
X9.9449 Y-0.3114 I-0.0245 J-0.0052
G1 X9.9205 Y-0.3166
X9.9166 Y-0.3174 Z0.335
X9.9129 Y-0.3182 Z0.3359
X9.9094 Y-0.319 Z0.3374
X9.9061 Y-0.3197 Z0.3394
X9.9032 Y-0.3203 Z0.342
X9.9007 Y-0.3208 Z0.345
X9.8987 Y-0.3213 Z0.3483
X9.8972 Y-0.3216 Z0.3519
X9.8963 Y-0.3218 Z0.3557
X9.896 Z0.3596
G0 Z0.7321
X9.9016 Y-2.4305
G1 Z0.5715 F80.
Z0.3596
G18 G2 X9.9266 Z0.3346 I0.025 K0. F20.
G1 X9.9516
G17 G3 X9.9766 Y-2.4055 I0. J0.025
X9.8819 Y-2.3108 I-0.0947 J0.
Y-2.5003 I0. J-0.0948
Y-2.3108 I0. J0.0948
Y-2.5003 I0. J-0.0948
X9.9766 Y-2.4055 I0. J0.0948
X9.9516 Y-2.3805 I-0.025 J0.
G1 X9.9266
G18 G3 X9.9016 Z0.3596 I0. K0.025
G0 Z1.1321
G17
(2D ADAPTIVE1)
G64 P0.004 Q0.004
G0 X3.5448 Y-1.7918
Z1.1321
Z0.7321
Z0.6321
G3 X3.3872 Y-1.699 Z0.614 I-0.1197 J-0.0231 F40.
X3.3151 Y-1.8666 Z0.5959 I0.0378 J-0.1156
X3.4899 Y-1.9171 Z0.5778 I0.1097 J0.0519
X3.518 Y-1.7378 Z0.5597 I-0.065 J0.102
X3.3371 Y-1.7323 Z0.5416 I-0.0929 J-0.0771
X3.3543 Y-1.9121 Z0.5236 I0.0878 J-0.0823
X3.53 Y-1.8726 Z0.5055 I0.0705 J0.0972
X3.469 Y-1.7037 Z0.4874 I-0.105 J0.0576
X3.3095 Y-1.7851 Z0.4693 I-0.0439 J-0.1111
X3.4099 Y-1.9328 Z0.4512 I0.1154 J-0.0296
X3.5436 Y-1.815 Z0.4331 I0.0149 J0.1178
X3.306 I-0.1188 J0.
X3.5436 I0.1188 J0.
G1 Y-1.8104 F50.
X3.5445 Y-1.806
X3.5579 Y-1.7724
X3.5621 Y-1.7669
X3.5662 Y-1.7602
X3.5697 Y-1.7521
X3.5725 Y-1.7427
X3.5743 Y-1.7321
X3.5748 Y-1.7203
X3.5738 Y-1.7075
X3.571 Y-1.6938
X3.5662 Y-1.6796
X3.5592 Y-1.6651
X3.5498 Y-1.6507
X3.5381 Y-1.6366
X3.5239 Y-1.6234
X3.5074 Y-1.6113
X3.4885 Y-1.6009
X3.4676 Y-1.5925
X3.4449 Y-1.5865
X3.4208 Y-1.5832
X3.3956 Y-1.5829
X3.3699 Y-1.5858
X3.344 Y-1.592
X3.3186 Y-1.6014
X3.2941 Y-1.6142
X3.2711 Y-1.6301
X3.2499 Y-1.649
X3.2309 Y-1.6706
X3.2146 Y-1.6945
X3.2013 Y-1.7205
X3.1913 Y-1.748
X3.1846 Y-1.7767
X3.1815 Y-1.8062
X3.1821 Y-1.8358
X3.1863 Y-1.8653
X3.1941 Y-1.8941
X3.2055 Y-1.9217
X3.2201 Y-1.9478
X3.2379 Y-1.9719
X3.2585 Y-1.9937
X3.2817 Y-2.0127
X3.307 Y-2.0288
X3.3341 Y-2.0417
X3.3627 Y-2.0511
X3.3921 Y-2.057
X3.4221 Y-2.0592
X3.4521 Y-2.0577
X3.4817 Y-2.0525
X3.5105 Y-2.0437
X3.538 Y-2.0314
X3.5637 Y-2.0159
X3.5873 Y-1.9973
X3.6085 Y-1.9759
X3.6271 Y-1.9518
X3.6456 Y-1.9207
X3.6634 Y-1.8893
X3.6794 Y-1.8568
X3.6922 Y-1.8229
X3.7012 Y-1.7879
X3.7056 Y-1.7537
X3.7058 Y-1.72
X3.7019 Y-1.6868
X3.6939 Y-1.6543
X3.6819 Y-1.6227
X3.6658 Y-1.5924
X3.6459 Y-1.5638
X3.6221 Y-1.5375
X3.5948 Y-1.5138
X3.5647 Y-1.4936
X3.5325 Y-1.4772
X3.4986 Y-1.4646
X3.4634 Y-1.456
X3.4276 Y-1.4512
X3.3914 Y-1.4504
X3.3553 Y-1.4534
X3.3198 Y-1.4604
X3.2852 Y-1.471
X3.2519 Y-1.4852
X3.2202 Y-1.5025
X3.1904 Y-1.523
X3.1628 Y-1.5464
X3.1377 Y-1.5725
X3.1153 Y-1.6009
X3.0957 Y-1.6314
X3.0792 Y-1.6636
X3.0661 Y-1.6973
X3.0562 Y-1.7321
X3.0497 Y-1.7677
X3.0466 Y-1.8037
X3.0471 Y-1.8399
X3.0511 Y-1.8759
X3.0586 Y-1.9113
X3.0693 Y-1.9458
X3.0833 Y-1.9792
X3.1004 Y-2.011
X3.1206 Y-2.0411
X3.1435 Y-2.0691
X3.1689 Y-2.0948
X3.1968 Y-2.118
X3.2267 Y-2.1383
X3.2584 Y-2.1557
X3.2916 Y-2.1701
X3.326 Y-2.1812
X3.3614 Y-2.1889
X3.3973 Y-2.1932
X3.4335 Y-2.1942
X3.4696 Y-2.1917
X3.5053 Y-2.1857
X3.5402 Y-2.1763
X3.5741 Y-2.1636
X3.6067 Y-2.1479
X3.6376 Y-2.1291
X3.6665 Y-2.1073
X3.6932 Y-2.083
X3.7178 Y-2.0564
X3.7405 Y-2.0282
X3.7613 Y-1.9986
X3.7802 Y-1.9677
X3.797 Y-1.9357
X3.8116 Y-1.9026
X3.8235 Y-1.8684
X3.8328 Y-1.8335
X3.8393 Y-1.7979
X3.8428 Y-1.7619
X3.8431 Y-1.7257
X3.8404 Y-1.6896
X3.8347 Y-1.6539
X3.8258 Y-1.6188
X3.8138 Y-1.5846
X3.7991 Y-1.5516
X3.7815 Y-1.52
X3.7612 Y-1.49
X3.7385 Y-1.4619
X3.7135 Y-1.4357
X3.6863 Y-1.4119
X3.6572 Y-1.3903
X3.6265 Y-1.3712
X3.5943 Y-1.3547
X3.5609 Y-1.3409
X3.5265 Y-1.3296
X3.4913 Y-1.3212
X3.4555 Y-1.3157
X3.4195 Y-1.3128
X3.3833 Y-1.3127
X3.3472 Y-1.3155
X3.3115 Y-1.3209
X3.2762 Y-1.329
X3.2416 Y-1.3398
X3.208 Y-1.3531
X3.1754 Y-1.3687
X3.144 Y-1.3867
X3.1141 Y-1.4071
X3.0857 Y-1.4296
X3.059 Y-1.4539
X3.0341 Y-1.4802
X3.0112 Y-1.5082
X2.9904 Y-1.5378
X2.9716 Y-1.5687
X2.9552 Y-1.601
X2.9412 Y-1.6343
X2.9294 Y-1.6686
X2.9201 Y-1.7035
X2.9134 Y-1.7391
X2.9092 Y-1.775
X2.9074 Y-1.8112
X2.9083 Y-1.8473
X2.9118 Y-1.8833
X2.9177 Y-1.919
X2.926 Y-1.9542
X2.9369 Y-1.9888
X2.9502 Y-2.0224
X2.9658 Y-2.0551
X2.9836 Y-2.0866
X3.0036 Y-2.1167
X3.0257 Y-2.1454
X3.0496 Y-2.1725
X3.0754 Y-2.1978
X3.103 Y-2.2212
X3.1322 Y-2.2427
X3.1627 Y-2.2622
X3.1945 Y-2.2794
X3.2275 Y-2.2943
X3.2614 Y-2.3069
X3.2961 Y-2.3172
X3.3314 Y-2.3249
X3.3672 Y-2.3301
X3.4033 Y-2.333
X3.4395 Y-2.3333
X3.4756 Y-2.3309
X3.5114 Y-2.3261
X3.5469 Y-2.3189
X3.5817 Y-2.3091
X3.6158 Y-2.297
X3.6489 Y-2.2825
X3.681 Y-2.2658
X3.7118 Y-2.2468
X3.7412 Y-2.2257
X3.7692 Y-2.2027
X3.7957 Y-2.1781
X3.8207 Y-2.152
X3.8442 Y-2.1244
X3.866 Y-2.0956
X3.8863 Y-2.0656
X3.905 Y-2.0346
X3.9218 Y-2.0026
X3.9367 Y-1.9696
X3.9498 Y-1.9359
X3.9609 Y-1.9014
X3.9698 Y-1.8664
X3.9765 Y-1.8308
X3.9771 Y-1.8261
X3.9772 Y-1.825
X3.9773 Y-1.8239
Y-1.8228
X3.977 Y-1.7926
X3.9769 Y-1.7844
X3.9751 Y-1.7597
X3.9741 Y-1.7515
X3.9662 Y-1.7023
X3.9649 Y-1.6963
X3.9603 Y-1.6776
X3.9582 Y-1.6694
X3.9424 Y-1.6202
X3.9403 Y-1.6136
X3.9284 Y-1.5873
X3.9238 Y-1.5779
X3.9156 Y-1.5613
X3.9121 Y-1.5545
X3.8992 Y-1.5296
X3.8937 Y-1.5216
X3.8581 Y-1.4708
X3.8478 Y-1.456
X3.8423 Y-1.4477
X3.8416 Y-1.4466
X3.8379 Y-1.4395
X3.834 Y-1.4313
X3.8307 Y-1.4231
X3.8281 Y-1.4149
X3.8254 Y-1.4062
X3.8127 Y-1.3783
X3.795 Y-1.3494
X3.7725 Y-1.3211
X3.7469 Y-1.2955
X3.719 Y-1.2725
X3.6892 Y-1.2519
X3.6579 Y-1.2339
X3.6252 Y-1.2183
X3.5916 Y-1.2049
X3.5572 Y-1.1939
X3.5221 Y-1.1851
X3.4865 Y-1.1786
X3.4505 Y-1.1743
X3.4144 Y-1.1722
X3.3782 Y-1.1723
X3.3421 Y-1.1746
X3.3062 Y-1.179
X3.2706 Y-1.1855
X3.2355 Y-1.1941
X3.2009 Y-1.2047
X3.167 Y-1.2173
X3.1338 Y-1.2319
X3.1016 Y-1.2482
X3.0703 Y-1.2664
X3.0401 Y-1.2864
X3.0255 Y-1.2974
X3.0198 Y-1.3033
X3.0164 Y-1.3107
X3.0155 Y-1.3188
X3.0173 Y-1.3268
X3.0197 Y-1.3328
X3.0223 Y-1.341
X3.0243 Y-1.3492
X3.0257 Y-1.3574
X3.0271 Y-1.3738
Y-1.3821
X3.0257 Y-1.3985
X3.0243 Y-1.4067
X3.0223 Y-1.4149
X3.0197 Y-1.4232
X3.0164 Y-1.4313
X3.0125 Y-1.4395
X3.0081 Y-1.4477
X2.9911 Y-1.4724
X2.9539 Y-1.5249
X2.9508 Y-1.5298
X2.9256 Y-1.5791
X2.9216 Y-1.5873
X2.9112 Y-1.612
X2.9082 Y-1.6202
X2.8913 Y-1.6694
X2.8895 Y-1.6776
X2.8861 Y-1.6941
X2.8845 Y-1.7023
X2.8798 Y-1.7269
X2.8758 Y-1.7515
X2.8749 Y-1.7597
X2.8727 Y-1.809
X2.8726 Y-1.8172
X2.873 Y-1.8418
X2.8738 Y-1.8501
X2.8778 Y-1.8911
X2.8787 Y-1.8993
X2.8835 Y-1.924
X2.8853 Y-1.9322
X2.8975 Y-1.9814
X2.9003 Y-1.9896
X2.9134 Y-2.0225
X2.9234 Y-2.0471
X2.9273 Y-2.0553
X2.9315 Y-2.0635
X2.9357 Y-2.0717
X2.9548 Y-2.1046
X2.9644 Y-2.121
X2.9697 Y-2.1292
X3.0115 Y-2.182
X3.0157 Y-2.1867
X3.0361 Y-2.2069
X3.0406 Y-2.2113
X3.069 Y-2.2382
X3.0762 Y-2.2442
X3.0937 Y-2.2568
X3.1019 Y-2.2627
X3.1222 Y-2.277
X3.1265 Y-2.2799
X3.1512 Y-2.2948
X3.1594 Y-2.2993
X3.1841 Y-2.3119
X3.2087 Y-2.3242
X3.2138 Y-2.3263
X3.2663 Y-2.3442
X3.2745 Y-2.3466
X3.2909 Y-2.3511
X3.2992 Y-2.3531
X3.3485 Y-2.3625
X3.3567 Y-2.3639
X3.3813 Y-2.3676
X3.3896 Y-2.368
X3.406 Y-2.3687
X3.4142 Y-2.3688
X3.4409 Y-2.3673
X3.4964 Y-2.3632
X3.5046 Y-2.3619
X3.5211 Y-2.359
X3.5293 Y-2.3574
X3.5786 Y-2.3462
X3.5868 Y-2.3438
X3.6125 Y-2.3345
X3.6361 Y-2.3252
X3.6444 Y-2.3219
X3.669 Y-2.3116
X3.6722 Y-2.3098
X3.7266 Y-2.2783
X3.7348 Y-2.2732
X3.7417 Y-2.2688
X3.7841 Y-2.2347
X3.8088 Y-2.2132
X3.8106 Y-2.2113
X3.8416 Y-2.1776
X3.8581 Y-2.1592
X3.8625 Y-2.1538
X3.8992 Y-2.0994
X3.9009 Y-2.0964
X3.9143 Y-2.0717
X3.9156 Y-2.0692
X3.932 Y-2.0344
X3.9415 Y-2.0143
X3.9442 Y-2.0061
X3.959 Y-1.9568
X3.9655 Y-1.9322
X3.9673 Y-1.924
X3.9743 Y-1.8747
X3.9752 Y-1.8665
X3.9767 Y-1.8501
X3.9775 Y-1.8418
X3.9773 Y-1.8228
G3 X3.9661 Y-1.803 I-0.025 J-0.0011
G1 X3.96 Y-1.7989
G2 X3.8809 Y-1.7222 I0.1925 J0.278 F300.
G1 X3.8789 Y-1.7192
X3.8775 Y-1.716
X3.8166 Y-1.5507
X3.8156 Y-1.5473
X3.8151 Y-1.5438
G2 X3.823 Y-1.4451 I0.3374 J0.0229
X3.8277 Y-1.427 I0.3296 J-0.0758 F50.
G3 X3.8281 Y-1.4149 I-0.024 J0.0069
G1 X3.8261 Y-1.4067
X3.8252 Y-1.4026
X3.8247 Y-1.3985
X3.8233 Y-1.3821
Y-1.3738
X3.8247 Y-1.3574
X3.8252 Y-1.3533
X3.8261 Y-1.3492
X3.8281 Y-1.341
X3.8307 Y-1.3328
X3.8325 Y-1.3269
X3.8347 Y-1.3147
X3.8356 Y-1.2998
X3.8344 Y-1.2829
X3.8308 Y-1.2641
X3.8239 Y-1.2428
X3.8133 Y-1.22
X3.7977 Y-1.1952
X3.7759 Y-1.1683
X3.7498 Y-1.1433
X3.7211 Y-1.1213
X3.6904 Y-1.1021
X3.6582 Y-1.0855
X3.6249 Y-1.0713
X3.5908 Y-1.0594
X3.5559 Y-1.0496
X3.5206 Y-1.0419
X3.4849 Y-1.0362
X3.4489 Y-1.0324
X3.4128 Y-1.0304
X3.3766 Y-1.0303
X3.3404 Y-1.0321
X3.3044 Y-1.0356
X3.2686 Y-1.0409
X3.2331 Y-1.0479
X3.198 Y-1.0565
X3.1633 Y-1.0669
X3.1292 Y-1.0789
X3.0957 Y-1.0925
X3.0628 Y-1.1076
X3.0307 Y-1.1243
X2.9995 Y-1.1427
X2.9849 Y-1.1533
X2.9613 Y-1.1728
X2.9489 Y-1.1859
X2.9446 Y-1.1922
X2.9424 Y-1.1996
Y-1.2072
X2.9448 Y-1.2145
X2.9508 Y-1.2261
X2.9539 Y-1.231
X2.9911 Y-1.2835
X3.0024 Y-1.3
G3 X3.0213 Y-1.31 I0.0201 J0.0149
G1 X3.0301 Y-1.3104
X3.8057 Y-1.3476 F300.
X3.8066 F50.
G3 X3.8307 Y-1.3328 I0.0012 J0.025
G1 X3.834 Y-1.3246
X3.8379 Y-1.3164
X3.8416 Y-1.3093
X3.8423 Y-1.3082
X3.8478 Y-1.3
X3.8592 Y-1.2835
X3.8707 Y-1.2671
X3.8778 Y-1.2559
X3.8833 Y-1.2441
X3.8875 Y-1.2311
X3.8907 Y-1.215
X3.8919 Y-1.197
X3.8908 Y-1.1772
X3.8867 Y-1.1542
X3.8793 Y-1.1304
X3.8673 Y-1.1037
X3.8498 Y-1.075
X3.8273 Y-1.0467
X3.8017 Y-1.0212
X3.7735 Y-0.9984
X3.7436 Y-0.9782
X3.7122 Y-0.9602
X3.6796 Y-0.9445
X3.646 Y-0.931
X3.6117 Y-0.9194
X3.5769 Y-0.9097
X3.5416 Y-0.9018
X3.5059 Y-0.8956
X3.47 Y-0.8912
X3.4339 Y-0.8884
X3.3978 Y-0.8872
X3.3616 Y-0.8876
X3.3255 Y-0.8895
X3.2894 Y-0.8929
X3.2536 Y-0.8978
X3.218 Y-0.9042
X3.1827 Y-0.9121
X3.1477 Y-0.9214
X3.1131 Y-0.9321
X3.079 Y-0.9441
X3.0454 Y-0.9575
X3.0124 Y-0.9723
X2.9801 Y-0.9886
X2.9489 Y-1.0069
X2.9189 Y-1.0272
X2.8965 Y-1.0456
X2.8918 Y-1.0505
X2.8887 Y-1.0565
X2.8873 Y-1.0631
X2.8878 Y-1.0699
X2.8895 Y-1.0783
X2.8913 Y-1.0865
X2.9082 Y-1.1357
X2.9112 Y-1.144
X2.9216 Y-1.1686
X2.9256 Y-1.1768
X2.9448 Y-1.2145
G3 X2.9653 Y-1.2273 I0.0218 J0.0122
G1 X2.971 Y-1.2276
X3.8429 Y-1.2766 F300.
X3.8493 Y-1.277 F50.
G3 X3.8707 Y-1.2671 I0.0014 J0.025
G1 X3.8937 Y-1.2343
X3.8992 Y-1.2264
X3.9121 Y-1.2014
X3.9163 Y-1.1932
X3.9244 Y-1.1768
X3.9284 Y-1.1686
X3.9403 Y-1.1423
X3.9424 Y-1.1357
X3.9451 Y-1.1275
X3.9489 Y-1.1134
X3.9513 Y-1.0953
X3.9516 Y-1.075
X3.9492 Y-1.0527
X3.9432 Y-1.0275
X3.9331 Y-1.0002
X3.9179 Y-0.971
X3.8974 Y-0.9412
X3.8736 Y-0.914
X3.8473 Y-0.8891
X3.8189 Y-0.8667
X3.7889 Y-0.8465
X3.7575 Y-0.8285
X3.7251 Y-0.8125
X3.6918 Y-0.7983
X3.6578 Y-0.7858
X3.6232 Y-0.7751
X3.5882 Y-0.7661
X3.5528 Y-0.7586
X3.5171 Y-0.7527
X3.4812 Y-0.7482
X3.4452 Y-0.7451
X3.409 Y-0.7435
X3.3728 Y-0.7432
X3.3367 Y-0.7443
X3.3006 Y-0.7468
X3.2646 Y-0.7505
X3.2288 Y-0.7556
X3.1931 Y-0.7618
X3.1577 Y-0.7694
X3.1227 Y-0.7782
X3.0879 Y-0.7883
X3.0535 Y-0.7995
X3.0195 Y-0.812
X2.9861 Y-0.8257
X2.9532 Y-0.8408
X2.921 Y-0.8573
X2.8897 Y-0.8755
X2.8857 Y-0.8781
X2.8803 Y-0.883
X2.8765 Y-0.8893
X2.8747 Y-0.8965
X2.8738 Y-0.9058
X2.873 Y-0.9141
X2.8726 Y-0.9387
X2.8727 Y-0.9469
X2.8749 Y-0.9962
X2.8758 Y-1.0044
X2.8798 Y-1.029
X2.8845 Y-1.0536
X2.8878 Y-1.0699
G3 X2.9096 Y-1.089 I0.0243 J0.0058
G1 X2.9107 F300.
X3.9202 Y-1.144
X3.9213 Y-1.1441
G3 X3.9451 Y-1.1275 I0.0003 J0.025 F50.
G1 X3.9582 Y-1.0865
X3.9603 Y-1.0783
X3.9649 Y-1.0596
X3.9662 Y-1.0536
X3.9741 Y-1.0044
X3.9751 Y-0.9962
X3.9769 Y-0.9715
X3.977 Y-0.9633
X3.9773 Y-0.9387
X3.9762 Y-0.9136
X3.9729 Y-0.8931
X3.9658 Y-0.8691
X3.9548 Y-0.8439
X3.9381 Y-0.8155
X3.916 Y-0.7869
X3.8908 Y-0.7609
X3.8632 Y-0.7375
X3.8337 Y-0.7165
X3.8028 Y-0.6976
X3.7708 Y-0.6808
X3.7379 Y-0.6658
X3.7042 Y-0.6525
X3.67 Y-0.6408
X3.6352 Y-0.6307
X3.6001 Y-0.6221
X3.5646 Y-0.6149
X3.5289 Y-0.609
X3.493 Y-0.6045
X3.457 Y-0.6012
X3.4209 Y-0.5992
X3.3847 Y-0.5984
X3.3485 Y-0.5989
X3.3124 Y-0.6006
X3.2763 Y-0.6034
X3.2404 Y-0.6074
X3.2045 Y-0.6125
X3.1689 Y-0.6187
X3.1335 Y-0.626
X3.0983 Y-0.6344
X3.0634 Y-0.644
X3.0288 Y-0.6546
X2.9946 Y-0.6664
X2.9607 Y-0.6792
X2.9405 Y-0.6877
X2.9354 Y-0.6906
X2.9311 Y-0.6946
X2.9279 Y-0.6995
X2.9273 Y-0.7006
X2.9234 Y-0.7088
X2.9068 Y-0.7498
X2.9003 Y-0.7663
X2.8975 Y-0.7745
X2.8853 Y-0.8237
X2.8835 Y-0.832
X2.8787 Y-0.8566
X2.8778 Y-0.8648
X2.8747 Y-0.8965
G3 X2.89 Y-0.9211 I0.0249 J-0.0016
G1 X2.8928 Y-0.9221 F300.
X2.8957 Y-0.9228
X2.8987 Y-0.923
X3.9513 Y-0.9626
X3.9541 Y-0.9625
X3.9568 Y-0.9622
X3.9594 Y-0.9615
G3 X3.9773 Y-0.9387 I-0.0071 J0.024 F50.
G1 X3.9774 Y-0.9223
X3.9775 Y-0.9141
X3.976 Y-0.8976
X3.9752 Y-0.8894
X3.9743 Y-0.8812
X3.9673 Y-0.832
X3.9655 Y-0.8237
X3.959 Y-0.7991
X3.9442 Y-0.7498
X3.9415 Y-0.7416
X3.9261 Y-0.7088
X3.9156 Y-0.6867
X3.9143 Y-0.6842
X3.9009 Y-0.6595
X3.8992 Y-0.6565
X3.8909 Y-0.6443
X3.8692 Y-0.6153
X3.846 Y-0.5905
X3.8182 Y-0.5673
X3.7881 Y-0.5472
X3.7564 Y-0.5298
X3.7234 Y-0.5148
X3.6896 Y-0.5019
X3.6552 Y-0.4909
X3.6202 Y-0.4815
X3.5849 Y-0.4736
X3.5493 Y-0.4671
X3.5135 Y-0.4619
X3.4775 Y-0.458
X3.4415 Y-0.4553
X3.4053 Y-0.4538
X3.3691 Y-0.4534
X3.333 Y-0.4541
X3.2968 Y-0.4559
X3.2608 Y-0.4588
X3.2248 Y-0.4626
X3.1889 Y-0.4675
X3.1532 Y-0.4734
X3.1263 Y-0.4786
X3.1229 Y-0.4796
X3.1197 Y-0.4809
X3.1167 Y-0.4828
X3.0989 Y-0.4953
X3.0855 Y-0.5051
X3.0762 Y-0.5117
X3.069 Y-0.5177
X3.0406 Y-0.5446
X3.0361 Y-0.549
X3.0157 Y-0.5692
X3.0115 Y-0.5739
X2.9697 Y-0.6267
X2.9644 Y-0.6349
X2.95 Y-0.6595
X2.9357 Y-0.6842
X2.9315 Y-0.6924
X2.9279 Y-0.6995
G3 X2.9332 Y-0.728 I0.0227 J-0.0105
X2.952 Y-0.7349 I0.0173 J0.018 F300.
G1 X3.8712 Y-0.6825
G3 X3.8892 Y-0.6732 I-0.0014 J0.025
X3.8909 Y-0.6443 I-0.0195 J0.0157 F50.
G1 X3.8625 Y-0.6021
X3.8581 Y-0.5967
X3.8409 Y-0.5774
X3.8106 Y-0.5446
X3.8088 Y-0.5427
X3.7841 Y-0.5212
X3.7417 Y-0.4871
X3.7348 Y-0.4827
X3.7266 Y-0.4776
X3.6722 Y-0.4461
X3.669 Y-0.4443
X3.6444 Y-0.4341
X3.6361 Y-0.4307
X3.6125 Y-0.4214
X3.5868 Y-0.4121
X3.5786 Y-0.4097
X3.5293 Y-0.3985
X3.5205 Y-0.3968
X3.5046 Y-0.394
X3.4964 Y-0.3927
X3.4409 Y-0.3886
X3.4142 Y-0.3871
X3.406 Y-0.3872
X3.3896 Y-0.3879
X3.3813 Y-0.3883
X3.3567 Y-0.392
X3.3485 Y-0.3934
X3.2992 Y-0.4028
X3.2904 Y-0.405
X3.2745 Y-0.4093
X3.2663 Y-0.4117
X3.2138 Y-0.4296
X3.2087 Y-0.4317
X3.1801 Y-0.4461
X3.1594 Y-0.4566
X3.1512 Y-0.4611
X3.1265 Y-0.476
X3.1222 Y-0.4789
X3.1167 Y-0.4828
G3 X3.1081 Y-0.5104 I0.0151 J-0.0199
G1 X3.1093 Y-0.5142 Z0.4334
X3.1105 Y-0.5178 Z0.4343
X3.1116 Y-0.5212 Z0.4358
X3.1126 Y-0.5244 Z0.4378
X3.1136 Y-0.5272 Z0.4404
X3.1144 Y-0.5297 Z0.4434
X3.115 Y-0.5316 Z0.4467
X3.1155 Y-0.533 Z0.4503
X3.1158 Y-0.5339 Z0.4542
Y-0.5342 Z0.4581
G0 Z1.1321
(2D CONTOUR3)
G64 P0.0004 Q0.0004
G0 X3.7874 Y-1.2704
Z1.1321
Z0.7321
G1 Z0.5715 F80.
Z0.4581
X3.7876 Y-1.2706 Z0.4542 F50.
X3.7883 Y-1.2712 Z0.4503
X3.7895 Y-1.2721 Z0.4467
X3.791 Y-1.2734 Z0.4434
X3.793 Y-1.2751 Z0.4404
X3.7953 Y-1.277 Z0.4378
X3.7979 Y-1.2791 Z0.4358
X3.8007 Y-1.2814 Z0.4343
X3.8037 Y-1.2838 Z0.4334
X3.8067 Y-1.2863 Z0.4331
X3.826 Y-1.3021
G3 X3.8612 Y-1.2987 I0.0159 J0.0193
X3.4243 Y-0.377 I-0.436 J0.3577
G1 X3.3921
X3.3601 Y-0.3807
G3 X2.9892 Y-1.2987 I0.0651 J-0.5602
G2 Y-1.4572 I-0.0966 J-0.0793
G3 X3.3601 Y-2.3752 I0.436 J-0.3577
G1 X3.3921 Y-2.3789
X3.4243
G3 X3.8612 Y-1.4572 I0.0009 J0.564
G2 Y-1.2987 I0.0966 J0.0793
G3 X3.4243 Y-0.377 I-0.436 J0.3577
G1 X3.3921
X3.3601 Y-0.3807
G3 X2.9892 Y-1.2987 I0.0651 J-0.5602
G2 Y-1.4572 I-0.0966 J-0.0793
G3 X3.3601 Y-2.3752 I0.436 J-0.3577
G1 X3.3921 Y-2.3789
X3.4243
G3 X3.8612 Y-1.4572 I0.0009 J0.564
G2 Y-1.2987 I0.0966 J0.0793
G3 X3.8577 Y-1.2635 I-0.0193 J0.0159
G1 X3.8384 Y-1.2476
X3.8354 Y-1.2451 Z0.4334
X3.8324 Y-1.2427 Z0.4343
X3.8296 Y-1.2404 Z0.4358
X3.827 Y-1.2383 Z0.4378
X3.8247 Y-1.2364 Z0.4404
X3.8228 Y-1.2348 Z0.4434
X3.8212 Y-1.2335 Z0.4467
X3.82 Y-1.2325 Z0.4503
X3.8193 Y-1.232 Z0.4542
X3.8191 Y-1.2318 Z0.4581
G0 Z1.1321
(2D ADAPTIVE2)
G64 P0.004 Q0.004
G0 X0.9606 Y-1.0319
Z1.1321
Z0.6321
G3 X0.9192 Y-0.828 Z0.6109 I-0.0944 J0.087 F40.
X0.739 Y-0.9308 Z0.5897 I-0.0529 J-0.1166
X0.8926 Y-1.0694 Z0.5685 I0.1269 J-0.0137
X0.9759 Y-0.8806 Z0.5472 I-0.0266 J0.1245
X0.7712 Y-0.8607 Z0.526 I-0.1096 J-0.0641
X0.8162 Y-1.0608 Z0.5048 I0.0949 J-0.0838
X0.9916 Y-0.9557 Z0.4836 I0.0497 J0.116
X0.8373 Y-0.8224 Z0.4623 I-0.1253 J0.0108
X0.7593 Y-1.0101 Z0.4411 I0.0289 J-0.1221
X0.9614 Y-1.0254 Z0.4199 I0.1066 J0.0654
X0.9128 Y-0.8292 Z0.3987 I-0.0952 J0.0805
X0.7422 Y-0.9365 Z0.3774 I-0.0465 J-0.1153
X0.897 Y-1.0645 Z0.3562 I0.1237 J-0.008
X0.9699 Y-0.878 Z0.335 I-0.031 J0.1196
X0.7705 Y-0.8672 Z0.3138 I-0.1036 J-0.0667
X0.8226 Y-1.0594 Z0.2925 I0.0955 J-0.0773
X0.9883 Y-0.9501 Z0.2713 I0.0433 J0.1146
X0.8331 Y-0.8273 Z0.2501 I-0.122 J0.0053
X0.7653 Y-1.0126 Z0.2289 I0.0331 J-0.1172
X0.9619 Y-1.0189 Z0.2076 I0.1006 J0.0679
X0.9065 Y-0.8308 Z0.1864 I-0.0957 J0.074
X0.7457 Y-0.9419 Z0.1652 I-0.0402 J-0.1137
X0.9011 Y-1.0595 Z0.144 I0.1202 J-0.0026
X0.9639 Y-0.8757 Z0.1227 I-0.0351 J0.1146
X0.7702 Y-0.8736 Z0.1015 I-0.0976 J-0.069
X0.8287 Y-1.0576 Z0.0803 I0.0958 J-0.0709
X0.9847 Y-0.9448 Z0.0591 I0.0372 J0.1128
X0.7471 I-0.1188 J0.
X0.9847 I0.1188 J0.
G1 X0.9853 Y-0.9086 F50.
G3 X0.9723 Y-0.8532 I-0.0707 J0.0126
X0.8702 Y-0.7976 I-0.1043 J-0.0699
X0.7306 Y-1.0062 I-0.0064 J-0.1467
X1.0047 Y-0.9986 I0.1355 J0.0609
X1.0214 Y-0.902 I-0.1891 J0.0824
X0.8951 Y-0.769 I-0.153 J-0.0188
X0.6959 Y-0.8819 I-0.034 J-0.1721
X1.0144 Y-1.0493 I0.1699 J-0.0634
X1.0368 Y-1.0115 I-0.1524 J0.1156
X1.0251 Y-0.8171 I-0.1786 J0.0868
X0.7735 Y-0.7507 I-0.1648 J-0.1147
X0.7408 Y-1.1214 I0.0903 J-0.1948
X1.0306 Y-1.086 I0.1256 J0.176
X1.0665 Y-0.8171 I-0.1752 J0.1602
X0.7694 Y-0.7128 I-0.2068 J-0.1138
X0.6978 Y-0.7564 I0.082 J-0.2154
X0.988 Y-1.1669 I0.1677 J-0.1893
X1.0938 Y-0.7891 I-0.1315 J0.2406
X0.7306 Y-0.6887 I-0.235 J-0.1428
X0.5811 Y-1.0081 I0.1307 J-0.256
X1.0318 Y-1.1855 I0.285 J0.0628
X1.0825 Y-0.711 I-0.1728 J0.2584
X0.6361 Y-0.7078 I-0.2248 J-0.2247
X0.5503 Y-1.0467 I0.2254 J-0.2374
X1.0398 Y-1.228 I0.3159 J0.1016
X0.9513 Y-0.5895 I-0.1794 J0.3005
X0.5131 Y-0.8273 I-0.0925 J-0.3521
X0.993 Y-1.2953 I0.3525 J-0.1186
X0.906 Y-0.5389 I-0.1323 J0.368
X0.8089 I-0.0486 J-0.3851
X0.4774 Y-1.0885 I0.0519 J-0.406
X1.0445 Y-1.3195 I0.3888 J0.1429
X1.2901 Y-0.8698 I-0.1831 J0.3919
X0.8265 Y-0.4949 I-0.43 J-0.0577
X0.4096 Y-0.9276 I0.0322 J-0.4481
X0.7977 Y-1.3971 I0.4552 J-0.0188
X1.2773 Y-1.1573 I0.0684 J0.4626
X0.9191 Y-0.4546 I-0.416 J0.2306
X0.4905 Y-0.6164 I-0.0626 J-0.4829
X0.8628 Y-1.4454 I0.3742 J-0.33
X1.3147 Y-1.1798 I0.0036 J0.5111
X1.3804 Y-0.9123 I-0.4482 J0.2518
X0.8235 Y-0.408 I-0.5207 J-0.0153
X0.3244 Y-0.8943 I0.0346 J-0.5348
X0.4277 Y-1.2682 I0.5366 J-0.0529
X1.1438 Y-1.4148 I0.4396 J0.3247
X1.1425 Y-0.4386 I-0.2823 J0.4877
X0.4084 Y-0.5767 I-0.2863 J-0.4985
X0.7162 Y-1.5147 I0.4556 J-0.37
X1.3228 Y-1.3235 I0.1517 J0.5768
X1.4176 Y-0.6808 I-0.4602 J0.3962
G1 X1.392 Y-0.6314
G3 X1.3363 Y-0.5527 I-1.0125 J-0.6578
X1.2732 Y-0.4871 I-1.3078 J-1.1934
X1.1967 Y-0.4295 I-1.0325 J-1.2931
G1 X1.1454 Y-0.4009
X1.1376 Y-0.3968
X1.1125 Y-0.385
X1.1043 Y-0.3817
X1.055 Y-0.3629
X1.0467 Y-0.3605
X1.0303 Y-0.3557
X1.0221 Y-0.3536
X0.9728 Y-0.3426
G3 X0.8495 Y-0.3333 I-0.1121 J-0.6655
X0.7673 Y-0.3409 I0.0475 J-0.9673
X0.6768 Y-0.3629 I0.1814 J-0.9428
X0.5946 Y-0.3966 I0.2924 J-0.8312
G1 X0.5356 Y-0.4296
G3 X0.4548 Y-0.491 I0.6887 J-0.9915
G1 X0.4032 Y-0.5446
X0.3974 Y-0.5507
G3 X0.3398 Y-0.6322 I1.2165 J-0.9208
G1 X0.3131 Y-0.6842
X0.3092 Y-0.6924
X0.3018 Y-0.7088
X0.2988 Y-0.7158
X0.2814 Y-0.7663
X0.2788 Y-0.7745
X0.2719 Y-0.7991
X0.2702 Y-0.8073
X0.261 Y-0.8566
X0.2576 Y-0.8812
G3 X0.2545 Y-0.9715 I0.967 J-0.0783
G1 X0.2606 Y-1.029
X0.2634 Y-1.0536
X0.2653 Y-1.0618
X0.2843 Y-1.1357
X0.287 Y-1.144
G3 X0.3233 Y-1.2283 I1.5815 J0.6312
G1 X0.3718 Y-1.3082
X0.3727 Y-1.3099
X0.3762 Y-1.3164
X0.3801 Y-1.3246
G3 X0.4559 Y-1.4233 I0.3002 J0.1522
X0.6994 Y-1.5568 I0.3886 J0.4202
X1.3165 Y-1.3962 I0.1687 J0.6178
X1.3442 Y-1.3492 I-0.072 J0.074
G2 X1.3605 Y-1.3082 I0.1423 J-0.0328
G1 X1.4084 Y-1.2291
G3 X1.4481 Y-1.1358 I-1.1383 J0.5402
G1 X1.467 Y-1.0618
X1.4688 Y-1.0536
X1.4716 Y-1.029
X1.4778 Y-0.9715
G3 X1.4748 Y-0.8812 I-1.3239 J0.0012
G1 X1.4713 Y-0.8566
X1.4621 Y-0.8073
X1.4604 Y-0.7991
X1.4559 Y-0.7827
X1.4537 Y-0.7745
X1.434 Y-0.717
G3 X1.4175 Y-0.6808 I-0.2508 J-0.0922
X1.3913 Y-0.6685 I-0.0218 J-0.0122
G1 X1.3882 Y-0.6692 F300.
X1.3852 Y-0.6704
X1.3824 Y-0.6719
X0.3902 Y-1.2946
X0.3875 Y-1.2966
G3 X0.3801 Y-1.3246 I0.016 J-0.0192 F50.
G2 X0.3898 Y-1.3619 I-0.1053 J-0.0475
G3 X0.4158 Y-1.4248 I0.1387 J0.0205
X0.4977 Y-1.5086 I0.2742 J0.1861
X0.6995 Y-1.6033 I0.3385 J0.4588
X1.3126 Y-1.461 I0.17 J0.6593
X1.3418 Y-1.3854 I-0.0642 J0.0682
G1 X1.3411 Y-1.3816
X1.3397 Y-1.378
X1.3379 Y-1.3746
X1.3355 Y-1.3716
X1.3327 Y-1.3689
X1.3295 Y-1.3667
X1.326 Y-1.3651
X1.3223 Y-1.364
X1.32 Y-1.3636 F300.
X1.3177 Y-1.3634
X0.4155 Y-1.3357
G3 X0.4053 Y-1.3375 I-0.0008 J-0.025
X0.3898 Y-1.3619 I0.0094 J-0.0232 F50.
G1 X0.3908 Y-1.3738
Y-1.3821
X0.3897 Y-1.3948
G3 X0.4074 Y-1.4598 I0.1168 J-0.0031
X0.4818 Y-1.5454 I0.2438 J0.1368
X0.6399 Y-1.6318 I0.3223 J0.402
X1.0088 Y-1.657 I0.2301 J0.6554
X1.3011 Y-1.5284 I-0.1341 J0.7013
X1.3372 Y-1.4905 I-0.1206 J0.1511
X1.3469 Y-1.4162 I-0.0793 J0.0481
X1.3239 Y-1.3992 I-0.0237 J-0.008
G1 X1.3234
X0.4152 Y-1.3728 F300.
X0.4122 Y-1.3729
X0.4092 Y-1.3734
G3 X0.3897 Y-1.3948 I0.0053 J-0.0244 F50.
G2 X0.3845 Y-1.4194 I-0.0939 J0.0069
G3 X0.3909 Y-1.4813 I0.0922 J-0.0218
X0.4409 Y-1.5579 I0.2059 J0.08
X0.5596 Y-1.6447 I0.3039 J0.2907
X0.8066 Y-1.7139 I0.297 J0.5849
X1.2771 Y-1.6004 I0.0646 J0.7642
X1.3467 Y-1.5401 I-0.1541 J0.2482
X1.3562 Y-1.4395 I-0.0725 J0.0576
G1 X1.3541 Y-1.4365
X1.3516 Y-1.4338
X1.3488 Y-1.4315
X1.3457 Y-1.4296
X1.3423 Y-1.4283
X1.3387 Y-1.4274
X1.3351 Y-1.427
X1.3297 Y-1.4269
X0.4088 Y-1.4027 F300.
X0.4082
G3 X0.3845 Y-1.4194 I-0.0001 J-0.025 F50.
G2 X0.3756 Y-1.4406 I-0.1154 J0.0363
G3 X0.3714 Y-1.4939 I0.0721 J-0.0324
X0.417 Y-1.5836 I0.1942 J0.0421
X0.5194 Y-1.6707 I0.2916 J0.2393
X0.7168 Y-1.7468 I0.3163 J0.5261
X1.0748 Y-1.7367 I0.1577 J0.7591
X1.2883 Y-1.6469 I-0.1843 J0.737
X1.3631 Y-1.5813 I-0.1701 J0.2694
X1.386 Y-1.5334 I-0.0902 J0.0726
X1.374 Y-1.4701 I-0.0914 J0.0156
G1 X1.3605 Y-1.4477
X1.3561 Y-1.4395
G3 X1.3344 Y-1.427 I-0.0217 J-0.0125
G1 X1.3297
X0.402 Y-1.4281 F300.
X0.3972 F50.
G3 X0.3756 Y-1.4406 I0. J-0.025
G1 X0.3727 Y-1.446
X0.3718 Y-1.4477
X0.3618 Y-1.4642
G3 X0.3549 Y-1.5238 I0.0762 J-0.039
X0.3907 Y-1.6063 I0.1908 J0.0337
X0.4991 Y-1.7074 I0.3011 J0.2141
X0.6603 Y-1.7795 I0.3181 J0.4947
X0.9818 Y-1.802 I0.2137 J0.7464
X1.2789 Y-1.7057 I-0.1038 J0.8268
X1.3671 Y-1.6382 I-0.2074 J0.362
X1.4045 Y-1.5815 I-0.1274 J0.125
X1.3955 Y-1.5055 I-0.0897 J0.0279
G1 X1.374 Y-1.4701
G3 X1.3532 Y-1.4588 I-0.0209 J-0.0137
G1 X1.347 Y-1.4587
X0.3889 Y-1.4529 F300.
X0.3829 F50.
G3 X0.3618 Y-1.4642 I-0.0002 J-0.025
G1 X0.3454 Y-1.4913
G3 X0.3364 Y-1.551 I0.0793 J-0.0425
X0.3765 Y-1.6466 I0.2032 J0.0291
X0.4906 Y-1.7521 I0.3143 J0.2254
X0.6936 Y-1.8353 I0.3377 J0.5347
X1.0526 Y-1.8373 I0.1841 J0.8174
X1.2826 Y-1.7559 I-0.1568 J0.8092
X1.3831 Y-1.6815 I-0.217 J0.3981
X1.4237 Y-1.6239 I-0.1411 J0.1427
X1.4216 Y-1.5558 I-0.0896 J0.0314
X1.3955 Y-1.5055 I-0.2353 J-0.0905
G1 X1.3934 Y-1.5028
X1.3909 Y-1.5003
X1.3881 Y-1.4982
X1.3851 Y-1.4965
X1.3818 Y-1.4953
X1.3784 Y-1.4945
X1.3749 Y-1.4942
X1.3684 Y-1.4941
X0.3725 Y-1.4801 F300.
X0.3667 Y-1.48 F50.
G3 X0.3454 Y-1.4913 I-0.0004 J-0.025
G1 X0.327 Y-1.5216
G3 X0.3176 Y-1.582 I0.0834 J-0.044
X0.3577 Y-1.6817 I0.2107 J0.027
X0.452 Y-1.7768 I0.3104 J0.2134
X0.6083 Y-1.8578 I0.3454 J0.4751
X0.892 Y-1.9019 I0.263 J0.7576
X1.2742 Y-1.8123 I-0.0134 J0.9168
X1.3925 Y-1.7318 I-0.2336 J0.4708
X1.4339 Y-1.6827 I-0.1869 J0.1992
X1.44 Y-1.5994 I-0.0787 J0.0477
G1 X1.4246 Y-1.5627
X1.4216 Y-1.5558
G3 X1.3997 Y-1.5415 I-0.0226 J-0.0107
G1 X1.3963 Y-1.5414
X0.3541 Y-1.5105 F300.
X0.3487 Y-1.5103 F50.
G3 X0.327 Y-1.5216 I-0.0007 J-0.025
X0.3056 Y-1.568 I0.2556 J-0.1462
X0.3023 Y-1.6325 I0.1028 J-0.0376
X0.3471 Y-1.7293 I0.2295 J0.0474
X0.4534 Y-1.8297 I0.3333 J0.2464
X0.6228 Y-1.9106 I0.3538 J0.5229
X0.9805 Y-1.9432 I0.2558 J0.8285
X1.2906 Y-1.8556 I-0.0926 J0.9205
X1.4125 Y-1.7722 I-0.2419 J0.4844
X1.4517 Y-1.7241 I-0.1427 J0.1563
X1.4583 Y-1.6602 I-0.0838 J0.0409
G1 X1.4479 Y-1.6202
X1.4453 Y-1.612
X1.44 Y-1.5994
G3 X1.4181 Y-1.5849 I-0.0227 J-0.0105
G1 X1.4149 Y-1.5848
X0.3307 Y-1.5536 F300.
X0.3289 Y-1.5535 F50.
G3 X0.3055 Y-1.568 I-0.0007 J-0.025
G1 X0.2894 Y-1.6062
G3 X0.2874 Y-1.6787 I0.1083 J-0.0392
X0.3297 Y-1.7676 I0.2323 J0.0561
X0.4364 Y-1.8699 I0.3415 J0.249
X0.6083 Y-1.9539 I0.3649 J0.5288
X0.9657 Y-1.9918 I0.2712 J0.8534
X1.3111 Y-1.897 I-0.0751 J0.9506
X1.4309 Y-1.8141 I-0.2531 J0.4938
X1.4597 Y-1.7797 I-0.1264 J0.1349
X1.4713 Y-1.7236 I-0.0803 J0.0458
G1 X1.4688 Y-1.7023
X1.467 Y-1.6941
X1.4583 Y-1.6602
G3 X1.4354 Y-1.6423 I-0.024 J-0.0071
G1 X0.3145 Y-1.5918 F300.
X0.3132 F50.
G3 X0.2894 Y-1.6062 I-0.0011 J-0.025
G1 X0.287 Y-1.612
X0.2843 Y-1.6202
X0.2726 Y-1.6657
G3 X0.2805 Y-1.7437 I0.1316 J-0.026
X0.3412 Y-1.8413 I0.2648 J0.0971
X0.4541 Y-1.9331 I0.3562 J0.3227
X0.6792 Y-2.0209 I0.3716 J0.62
X1.1099 Y-2.017 I0.2066 J0.9701
X1.3442 Y-1.9316 I-0.1822 J0.8634
X1.4413 Y-1.8632 I-0.2555 J0.4662
X1.4688 Y-1.8284 I-0.0822 J0.0932
G1 X1.4737 Y-1.8156
X1.4768 Y-1.8023
X1.4778 Y-1.7886
Y-1.7844
X1.4716 Y-1.7269
X1.4713 Y-1.7236
G3 X1.4512 Y-1.7027 I-0.0247 J-0.0037
G1 X1.4477 Y-1.7023 F300.
X0.2977 Y-1.6479
X0.2969 Y-1.6478
X0.2962
X0.2954 Y-1.6479
G3 X0.2726 Y-1.6657 I0.0012 J-0.025 F50.
G1 X0.2653 Y-1.6941
X0.2634 Y-1.7023
X0.2606 Y-1.7269
G3 X0.2805 Y-1.8145 I0.1582 J-0.0102
X0.349 Y-1.9057 I0.2841 J0.1421
X0.482 Y-1.9994 I0.3751 J0.3911
X0.7197 Y-2.0762 I0.3568 J0.6987
X1.3207 Y-1.996 I0.1673 J1.0388
X1.4366 Y-1.9247 I-0.2733 J0.5744
X1.4745 Y-1.8662 I-0.0591 J0.0798
G1 X1.476 Y-1.8521
G3 X1.4778 Y-1.7886 I-1.2937 J0.0681
X1.4602 Y-1.7656 I-0.025 J-0.0009
G1 X1.4572 Y-1.7649 F300.
X1.4541 Y-1.7645
X0.2866 Y-1.7056
X0.2837 Y-1.7057
X0.2808 Y-1.706
G3 X0.2606 Y-1.7269 I0.0046 J-0.0246 F50.
G1 X0.2545 Y-1.7844
G3 X0.2857 Y-1.885 I0.177 J-0.0002
X0.373 Y-1.9806 I0.3065 J0.1923
X0.5339 Y-2.0728 I0.3848 J0.4849
X0.8155 Y-2.1342 I0.331 J0.8417
X1.3108 Y-2.0517 I0.0728 J1.0902
X1.4178 Y-1.9938 I-0.2904 J0.6652
X1.4544 Y-1.9583 I-0.0604 J0.0989
G1 X1.4615 Y-1.9436
X1.4659 Y-1.9279
G3 X1.4762 Y-1.8521 I-0.4045 J0.0933
G1 X1.4759 Y-1.8482
X1.475 Y-1.8445
X1.4735 Y-1.8409
X1.4715 Y-1.8376
X1.4691 Y-1.8346
X1.4661 Y-1.832
X1.4629 Y-1.83
X1.4593 Y-1.8284
X1.4559 Y-1.8275 F300.
X1.4524 Y-1.827
X0.2806 Y-1.7629
X0.2775
X0.2744 Y-1.7633
G3 X0.2545 Y-1.7844 I0.0048 J-0.0245 F50.
X0.2565 Y-1.8583 I0.9939 J-0.0098
X0.2844 Y-1.9379 I0.1619 J0.0122
X0.3671 Y-2.0279 I0.2923 J0.1854
X0.5255 Y-2.1184 I0.3791 J0.4797
X0.8069 Y-2.1807 I0.3385 J0.8621
X1.3036 Y-2.1055 I0.0832 J1.1281
X1.4098 Y-2.0524 I-0.2689 J0.6704
X1.4452 Y-2.0061 I-0.0523 J0.0767
X1.4659 Y-1.9279 I-0.3654 J0.1385
X1.4528 Y-1.902 I-0.0247 J0.0037
X1.4426 Y-1.8992 I-0.0116 J-0.0221 F300.
G1 X0.2829 Y-1.8332
X0.2796
X0.2764 Y-1.8337
X0.2732 Y-1.8346
G3 X0.2565 Y-1.8583 I0.0083 J-0.0236 F50.
G1 X0.2568 Y-1.8665
X0.2576 Y-1.8747
X0.261 Y-1.8993
X0.2695 Y-1.9449
G3 X0.3134 Y-2.0262 I0.1835 J0.0466
X0.4048 Y-2.1055 I0.3004 J0.2537
X0.5851 Y-2.1879 I0.3696 J0.5705
X0.9427 Y-2.2296 I0.2993 J1.0105
X1.3297 Y-2.1456 I-0.0442 J1.1363
G1 X1.3604 Y-2.1316
X1.3718 Y-2.1258
G3 X1.4118 Y-2.0861 I-0.0415 J0.0818
X1.434 Y-2.0389 I-0.2862 J0.1632
G1 X1.4452 Y-2.0061
G3 X1.436 Y-1.9786 I-0.0239 J0.0073
X1.4226 Y-1.9738 I-0.0147 J-0.0202 F300.
G1 X0.2955 Y-1.9162
G3 X0.2826 Y-1.919 I-0.0013 J-0.025
X0.2695 Y-1.9449 I0.0116 J-0.0221 F50.
X0.2815 Y-1.9896 I0.2821 J0.0512
G1 X0.2955 Y-2.0307
G3 X0.3487 Y-2.1079 I0.1903 J0.0742
X0.4566 Y-2.1841 I0.3018 J0.3126
X0.6534 Y-2.2535 I0.3484 J0.6744
X1.1206 Y-2.2565 I0.241 J1.1453
X1.3328 Y-2.1945 I-0.1789 J1.0064
G1 X1.3438 Y-2.1868
X1.3538 Y-2.1779
X1.3623 Y-2.1676
X1.3722 Y-2.1538
X1.389 Y-2.1292
X1.392 Y-2.1245
X1.4118 Y-2.0861
G3 X1.4067 Y-2.0576 I-0.0226 J0.0107
X1.3904 Y-2.0505 I-0.0175 J-0.0178 F300.
G1 X0.3206 Y-1.9984
G3 X0.3047 Y-2.0032 I-0.0012 J-0.025
X0.2955 Y-2.0307 I0.0147 J-0.0202 F50.
X0.3131 Y-2.0717 I0.3033 J0.1061
G1 X0.3399 Y-2.1236
X0.3433 Y-2.1292
X0.352 Y-2.1419
G3 X0.4379 Y-2.2184 I0.2293 J0.1711
X0.5715 Y-2.279 I0.3033 J0.4908
X0.8563 Y-2.3251 I0.3034 J0.9727
X1.2542 Y-2.273 I0.0399 J1.2417
G1 X1.2682 Y-2.2672
X1.281 Y-2.2592
X1.2924 Y-2.2493
X1.3262 Y-2.2143
X1.329 Y-2.2113
X1.3362 Y-2.2031
X1.3428 Y-2.1949
X1.3623 Y-2.1676
G3 X1.3615 Y-2.1386 I-0.0208 J0.0139
X1.3422 Y-2.1288 I-0.0199 J-0.0151 F300.
G1 X0.3738 Y-2.1036
G3 X0.3536 Y-2.113 I-0.0006 J-0.025
X0.352 Y-2.1419 I0.0195 J-0.0156 F50.
X0.3974 Y-2.2052 I1.4972 J1.0265
G1 X0.4056 Y-2.2138
X0.435 Y-2.2442
G3 X0.5262 Y-2.3049 I0.2138 J0.2223
X0.6774 Y-2.3527 I0.2693 J0.5889
X1.0735 Y-2.3607 I0.2217 J1.1739
X1.1579 Y-2.3461 I-0.088 J0.7591
G1 X1.1665 Y-2.3426
X1.1748 Y-2.3385
G3 X1.2275 Y-2.3038 I-0.128 J0.2518
G1 X1.2732 Y-2.2688
X1.2769 Y-2.2653
X1.2924 Y-2.2493
G3 X1.2957 Y-2.2205 I-0.0186 J0.0167
X1.274 Y-2.2075 I-0.0219 J-0.0121 F300.
G1 X0.4537 Y-2.2024
G3 X0.4316 Y-2.2154 I-0.0002 J-0.025
X0.435 Y-2.2442 I0.0219 J-0.0121 F50.
G1 X0.4549 Y-2.2648
G3 X0.5356 Y-2.3263 I0.6912 J0.823
G1 X0.5947 Y-2.3593
G3 X0.644 Y-2.3803 I0.2383 J0.4924
X0.8357 Y-2.418 I0.2244 J0.6338
X0.9151 Y-2.4202 I0.0639 J0.8803
G1 X0.919 Y-2.4195
X0.9226 Y-2.4182
X0.926 Y-2.4163
X0.9291 Y-2.414
X0.9318 Y-2.4112
X0.934 Y-2.408
X0.9357 Y-2.4046
X0.9368 Y-2.4009
G3 X0.9161 Y-2.3705 I-0.0244 J0.0056 F300.
G1 X0.6573 Y-2.3325
G3 X0.6288 Y-2.3556 I-0.0036 J-0.0247
X0.644 Y-2.3803 I0.0249 J-0.0016 F50.
G1 X0.6769 Y-2.3928
X0.6851 Y-2.3957
G3 X0.7755 Y-2.4163 I0.2841 J1.0371
X0.8577 Y-2.4228 I0.132 J1.1425
X0.9399 Y-2.4182 I-0.003 J0.7863
G1 X0.9645 Y-2.4148
X0.9728 Y-2.4133
X1.0221 Y-2.4023
X1.0303 Y-2.4002
X1.0467 Y-2.3954
X1.055 Y-2.393
X1.1043 Y-2.3742
G3 X1.1748 Y-2.3385 I-0.1863 J0.4556
G1 X1.1779 Y-2.3362
X1.1807 Y-2.3335
X1.183 Y-2.3304
X1.1848 Y-2.327
X1.186 Y-2.3234
X1.1867 Y-2.3196
X1.1868 Y-2.3157
X1.1863 Y-2.3119
X1.1854 Y-2.3081 Z0.0594
X1.1846 Y-2.3043 Z0.0603
X1.1839 Y-2.3008 Z0.0618
X1.1832 Y-2.2975 Z0.0638
X1.1826 Y-2.2946 Z0.0664
X1.182 Y-2.2921 Z0.0694
X1.1816 Y-2.2901 Z0.0727
X1.1813 Y-2.2886 Z0.0763
X1.1811 Y-2.2877 Z0.0801
X1.181 Y-2.2874 Z0.0841
G0 Z1.1321
(2D CONTOUR4)
G64 P0.0004 Q0.0004
G0 X1.4172 Y-1.836
Z1.1321
Z0.7321
G1 Z0.5715 F80.
Z0.0841
G18 G2 X1.4422 Z0.0591 I0.025 K0. F50.
G1 X1.4672
G17 G3 X1.4922 Y-1.811 I0. J0.025
X1.3766 Y-1.4486 I-0.626 J0.
G2 Y-1.3073 I0.0995 J0.0706
G3 X0.3557 Y-0.5824 I-0.5104 J0.3624
Y-1.3073 I0.5104 J-0.3624
G2 Y-1.4486 I-0.0995 J-0.0706
G3 X1.3766 Y-2.1735 I0.5104 J-0.3624
Y-1.4486 I-0.5104 J0.3624
G2 Y-1.3073 I0.0995 J0.0706
G3 X0.3557 Y-0.5824 I-0.5104 J0.3624
Y-1.3073 I0.5104 J-0.3624
G2 Y-1.4486 I-0.0995 J-0.0706
G3 X1.3766 Y-2.1735 I0.5104 J-0.3624
X1.4922 Y-1.811 I-0.5104 J0.3624
X1.4672 Y-1.786 I-0.025 J0.
G1 X1.4422
G18 G3 X1.4172 Z0.0841 I0. K0.025
G0 Z1.1321
G17
M5
G53 G0 Z0.
(2D CHAMFER1)
M9
M1
T13 M6
T35
S7500 M3
G17 G90 G94
G54
M8
G0 X6.2647 Y-0.6227
G43 Z1.1321 H13
G0 Z0.7321
G1 Z0.4021 F80.
G3 X6.0607 I-0.102 J0. F50.
X6.2647 I0.102 J0.
G0 Z0.7321
X6.849 Y-0.5333
G1 Z0.4021 F80.
G3 X6.6495 Y-0.5757 I-0.0998 J-0.0212 F50.
X6.849 Y-0.5333 I0.0998 J0.0212
G0 Z0.7321
X7.7613 Y-0.6618
G1 Z0.4021 F80.
G3 X7.5573 I-0.102 J0. F50.
X7.7613 I0.102 J0.
G0 Z0.7321
X8.5188 Y-0.8764
G1 Z0.4021 F80.
G3 X8.3148 I-0.102 J0. F50.
X8.5188 I0.102 J0.
G0 Z0.7321
X9.2764 Y-1.0911
G1 Z0.4021 F80.
G3 X9.0724 I-0.102 J0. F50.
X9.2764 I0.102 J0.
G0 Z0.7321
X9.2742 Y-1.6436
G1 Z0.4021 F80.
G3 X9.0746 Y-1.686 I-0.0998 J-0.0212 F50.
X9.2742 Y-1.6436 I0.0998 J0.0212
G0 Z0.7321
X8.5188 Y-1.8795
G1 Z0.4021 F80.
G3 X8.3148 I-0.102 J0. F50.
X8.5188 I0.102 J0.
G0 Z0.7321
X7.7613 Y-2.0941
G1 Z0.4021 F80.
G3 X7.5573 I-0.102 J0. F50.
X7.7613 I0.102 J0.
G0 Z0.7321
X6.8513 Y-2.2014
G1 Z0.4021 F80.
G3 X6.6473 I-0.102 J0. F50.
X6.8513 I0.102 J0.
G0 Z0.7321
X6.2647 Y-2.1332
G1 Z0.4021 F80.
G3 X6.0607 I-0.102 J0. F50.
X6.2647 I0.102 J0.
G0 Z0.7321
X5.6781 Y-2.065
G1 Z0.4021 F80.
G3 X5.4741 I-0.102 J0. F50.
X5.6781 I0.102 J0.
G0 Z0.7321
X5.0914 Y-1.9968
G1 Z0.4021 F80.
G3 X4.8874 I-0.102 J0. F50.
X5.0914 I0.102 J0.
G0 Z0.7321
X4.5049 Y-1.9286
G1 Z0.4021 F80.
G3 X4.3009 I-0.102 J0. F50.
X4.5049 I0.102 J0.
G0 Z0.7321
Y-0.8273
G1 Z0.4021 F80.
G3 X4.3009 I-0.102 J0. F50.
X4.5049 I0.102 J0.
G0 Z0.7321
X5.0914 Y-0.7591
G1 Z0.4021 F80.
G3 X4.8874 I-0.102 J0. F50.
X5.0914 I0.102 J0.
G0 Z0.7321
X5.6758 Y-0.6697
G1 Z0.4021 F80.
G3 X5.4763 Y-0.7121 I-0.0998 J-0.0212 F50.
X5.6758 Y-0.6697 I0.0998 J0.0212
G0 Z0.7321
X10.0123 Y-0.3286
G1 Z0.4021 F80.
G3 X9.8819 Y-0.2181 I-0.1304 J-0.0218 F50.
Y-0.4826 I0. J-0.1323
X10.0123 Y-0.3286 I0. J0.1323
G0 Z0.7321
X11.5491 Y-1.0209
G1 Z0.4021 F80.
G3 X11.3451 I-0.102 J0. F50.
X11.5491 I0.102 J0.
G0 Z0.7321
X12.3045 Y-0.785
G1 Z0.4021 F80.
G3 X12.105 Y-0.8274 I-0.0998 J-0.0212 F50.
X12.3045 Y-0.785 I0.0998 J0.0212
G0 Z0.7321
X12.3067 Y-1.9497
G1 Z0.4021 F80.
G3 X12.1027 I-0.102 J0. F50.
X12.3067 I0.102 J0.
G0 Z0.7321
X11.5491 Y-1.735
G1 Z0.4021 F80.
G3 X11.3451 I-0.102 J0. F50.
X11.5491 I0.102 J0.
G0 Z0.7321
X10.0141 Y-2.4055
G1 Z0.4021 F80.
G3 X9.8819 Y-2.2733 I-0.1322 J0. F50.
Y-2.5378 I0. J-0.1322
X10.0141 Y-2.4055 I0. J0.1322
G0 Z0.7321
X1.4055 Y-1.428
G1 Z0.4021 F80.
G2 Y-1.3279 I0.0705 J0.0501 F50.
G3 X0.3268 Y-0.5619 I-0.5394 J0.383
Y-1.3279 I0.5394 J-0.383
G2 Y-1.428 I-0.0705 J-0.0501
G3 X1.4055 Y-2.194 I0.5394 J-0.383
Y-1.428 I-0.5394 J0.383
G0 Z1.1321
X3.5272 Y-0.9409
Z0.7321
G1 Z0.3431 F80.
G3 X3.3232 I-0.102 J0. F50.
X3.5272 I0.102 J0.
G0 Z0.7321
Y-1.815
G1 Z0.3431 F80.
G3 X3.3232 I-0.102 J0. F50.
X3.5272 I0.102 J0.
G0 Z1.1321
X0.9681 Y-0.9449
Z0.7321
G1 Z-0.0309 F80.
G3 X0.7641 I-0.102 J0. F50.
X0.9681 I0.102 J0.
G0 Z0.7321
Y-1.811
G1 Z-0.0309 F80.
G3 X0.7641 I-0.102 J0. F50.
X0.9681 I0.102 J0.
G0 Z1.1321
M5
M9
G53 G0 Z0.
M30
%
