%
(WELDING ACCESS IN JIG)
(T36 D=0.375 CR=0. - ZMIN=-0.02 - FLAT END MILL)
G90 G94 G17 G91.1
G20
G53 G0 Z0.
(2D ADAPTIVE5)
T36 M6
S7500 M3
G17 G90 G94
G54
G64 P0.004 Q0.004
M8
G0 X3.2867 Y-1.3189
G43 Z1.8921 H36
G0 Z1.4921
Z1.0921
G3 X3.5006 Y-1.0719 Z1.0584 I0.0236 J0.1956 F40.
X3.1923 Y-0.9666 Z1.0247 I-0.1896 J-0.0513
X3.2103 Y-1.2909 Z0.991 I0.1183 J-0.1561
X3.5032 Y-1.153 Z0.9573 I0.1 J0.1677
X3.2663 Y-0.9338 Z0.9236 I-0.1924 J0.0297
X3.1523 Y-1.2347 Z0.8899 I0.0445 J-0.1889
X3.4731 Y-1.2276 Z0.8562 I0.158 J0.1117
X3.3465 Y-0.9338 Z0.8225 I-0.1623 J0.1042
X3.1223 Y-1.1606 Z0.7888 I-0.0356 J-0.189
X3.4158 Y-1.283 Z0.7551 I0.188 J0.0377
X3.4191 Y-0.966 Z0.7214 I-0.1051 J0.1596
X3.125 Y-1.0814 Z0.6877 I-0.1082 J-0.1568
X3.3416 Y-1.3101 Z0.654 I0.1854 J-0.0413
X3.472 Y-1.0244 Z0.6203 I-0.0311 J0.1868
X3.1592 Y-1.0108 Z0.5866 I-0.161 J-0.0986
X3.2635 Y-1.3049 Z0.5529 I0.1513 J-0.1119
X3.4963 Y-1.0986 Z0.5192 I0.0468 J0.1817
X3.2186 Y-0.9606 Z0.4855 I-0.1854 J-0.0246
X3.1949 Y-1.2688 Z0.4518 I0.0921 J-0.1621
X3.4886 Y-1.1755 Z0.4181 I0.1154 J0.1457
X3.2925 Y-0.939 Z0.3844 I-0.1778 J0.0522
X3.1473 Y-1.2086 Z0.3507 I0.0183 J-0.1838
X3.4507 Y-1.242 Z0.317 I0.163 J0.0856
X3.3682 Y-0.9491 Z0.2833 I-0.14 J0.1186
X3.1284 Y-1.1349 Z0.2496 I-0.0573 J-0.1737
X3.3897 Y-1.287 Z0.2159 I0.1819 J0.012
X3.4325 Y-0.9887 Z0.1822 I-0.0791 J0.1636
X3.1409 Y-1.0606 Z0.1485 I-0.1216 J-0.1343
X3.3164 Y-1.3032 Z0.1148 I0.1695 J-0.0622
X3.4749 Y-1.0504 Z0.0811 I-0.0059 J0.1799
X3.1821 Y-0.9984 Z0.0474 I-0.164 J-0.0727
X3.2435 Y-1.2884 Z0.0137 I0.1285 J-0.1243
X3.4885 Y-1.1232 Z-0.02 I0.0668 J0.1652
X3.1321 I-0.1782 J0.
X3.4885 I0.1782 J0.
G1 X3.4892 Y-1.0789 F60.
X3.49 Y-1.0734
X3.4903 Y-1.0674
X3.4902 Y-1.0614
X3.4896 Y-1.0554
X3.4887 Y-1.0495
X3.4875 Y-1.0436
X3.486 Y-1.0378
X3.4842 Y-1.0321
X3.4821 Y-1.0264
X3.4798 Y-1.0209
X3.4772 Y-1.0155
X3.4745 Y-1.0102
X3.4715 Y-1.0049
X3.4683 Y-0.9998
X3.4648 Y-0.9947
X3.461 Y-0.9896
X3.457 Y-0.9846
X3.4528 Y-0.9796
X3.4482 Y-0.9747
X3.4434 Y-0.97
X3.4384 Y-0.9653
X3.4331 Y-0.9608
X3.4276 Y-0.9565
X3.4219 Y-0.9523
X3.416 Y-0.9483
X3.4098 Y-0.9445
X3.4035 Y-0.9409
X3.397 Y-0.9375
X3.3903 Y-0.9344
X3.3835 Y-0.9314
X3.3765 Y-0.9288
X3.3694 Y-0.9264
X3.3622 Y-0.9242
X3.3549 Y-0.9224
X3.3474 Y-0.9208
X3.3399 Y-0.9195
X3.3324 Y-0.9184
X3.3247 Y-0.9177
X3.3171 Y-0.9172
X3.3094 Y-0.917
X3.3017 Y-0.9172
X3.2939 Y-0.9176
X3.2862 Y-0.9183
X3.2785 Y-0.9193
X3.2709 Y-0.9206
X3.2633 Y-0.9222
X3.2557 Y-0.9241
X3.2482 Y-0.9263
X3.2408 Y-0.9288
X3.2335 Y-0.9315
X3.2263 Y-0.9345
X3.2192 Y-0.9378
X3.2122 Y-0.9414
X3.2054 Y-0.9453
X3.1987 Y-0.9493
X3.1922 Y-0.9537
X3.1859 Y-0.9583
X3.1797 Y-0.9631
X3.1737 Y-0.9682
X3.1679 Y-0.9735
X3.1623 Y-0.979
X3.1569 Y-0.9847
X3.1518 Y-0.9907
X3.1468 Y-0.9968
X3.1421 Y-1.0031
X3.1377 Y-1.0096
X3.1335 Y-1.0162
X3.1295 Y-1.023
X3.1259 Y-1.03
X3.1224 Y-1.0371
X3.1193 Y-1.0443
X3.1164 Y-1.0516
X3.1138 Y-1.059
X3.1115 Y-1.0665
X3.1095 Y-1.0742
X3.1078 Y-1.0818
X3.1064 Y-1.0896
X3.1052 Y-1.0974
X3.1044 Y-1.1052
X3.1039 Y-1.113
X3.1036 Y-1.1209
X3.1037 Y-1.1288
X3.104 Y-1.1366
X3.1047 Y-1.1445
X3.1057 Y-1.1523
X3.1069 Y-1.1601
X3.1085 Y-1.1678
X3.1103 Y-1.1755
X3.1124 Y-1.183
X3.1149 Y-1.1905
X3.1176 Y-1.1979
X3.1205 Y-1.2052
X3.1238 Y-1.2124
X3.1273 Y-1.2194
X3.1311 Y-1.2263
X3.1352 Y-1.2331
X3.1395 Y-1.2397
X3.1441 Y-1.2461
X3.1489 Y-1.2523
X3.1539 Y-1.2584
X3.1592 Y-1.2642
X3.1646 Y-1.2699
X3.1703 Y-1.2753
X3.1762 Y-1.2806
X3.1823 Y-1.2855
X3.1886 Y-1.2903
X3.195 Y-1.2948
X3.2017 Y-1.2991
X3.2084 Y-1.3031
X3.2154 Y-1.3068
X3.2224 Y-1.3103
X3.2296 Y-1.3135
X3.2369 Y-1.3165
X3.2443 Y-1.3191
X3.2518 Y-1.3215
X3.2594 Y-1.3236
X3.2671 Y-1.3254
X3.2748 Y-1.3269
X3.2826 Y-1.3281
X3.2904 Y-1.329
X3.2983 Y-1.3296
X3.3062 Y-1.3299
X3.314
X3.3219 Y-1.3296
X3.3298 Y-1.329
X3.3376 Y-1.3281
X3.3454 Y-1.327
X3.3531 Y-1.3255
X3.3608 Y-1.3237
X3.3684 Y-1.3216
X3.3759 Y-1.3193
X3.3833 Y-1.3166
X3.3906 Y-1.3137
X3.3978 Y-1.3105
X3.4049 Y-1.307
X3.4118 Y-1.3033
X3.4186 Y-1.2993
X3.4252 Y-1.2951
X3.4317 Y-1.2906
X3.438 Y-1.2858
X3.4441 Y-1.2808
X3.45 Y-1.2756
X3.4557 Y-1.2702
X3.4612 Y-1.2646
X3.4665 Y-1.2587
X3.4715 Y-1.2527
X3.4763 Y-1.2464
X3.4809 Y-1.24
X3.4852 Y-1.2334
X3.4893 Y-1.2267
X3.4931 Y-1.2198
X3.4966 Y-1.2128
X3.4999 Y-1.2056
X3.5029 Y-1.1983
X3.506 Y-1.1899
X3.5094 Y-1.1796
X3.514 Y-1.1632
X3.5173 Y-1.1497
X3.5197 Y-1.1381
X3.5214 Y-1.1276
X3.5226 Y-1.118
X3.5234 Y-1.109
X3.5238 Y-1.1003
X3.5239 Y-1.092
X3.5236 Y-1.0839
X3.5231 Y-1.0761
X3.5223 Y-1.0684
X3.5212 Y-1.0608
X3.5199 Y-1.0534
X3.5182 Y-1.046
X3.5163 Y-1.0388
X3.5141 Y-1.0316
X3.5117 Y-1.0245
X3.509 Y-1.0175
X3.506 Y-1.0106
X3.5027 Y-1.0038
X3.4992 Y-0.997
X3.4953 Y-0.9904
X3.4912 Y-0.9839
X3.4869 Y-0.9775
X3.4822 Y-0.9713
X3.4773 Y-0.9652
X3.4722 Y-0.9592
X3.4667 Y-0.9534
X3.4611 Y-0.9478
X3.4551 Y-0.9423
X3.449 Y-0.9371
X3.4425 Y-0.932
X3.4359 Y-0.9272
X3.4291 Y-0.9226
X3.422 Y-0.9183
X3.4147 Y-0.9142
X3.4073 Y-0.9103
X3.3996 Y-0.9068
X3.3918 Y-0.9035
X3.3839 Y-0.9005
X3.3758 Y-0.8977
X3.3676 Y-0.8953
X3.3592 Y-0.8932
X3.3508 Y-0.8914
X3.3423 Y-0.89
X3.3336 Y-0.8888
X3.325 Y-0.888
X3.3163 Y-0.8875
X3.3075 Y-0.8873
X3.2987 Y-0.8875
X3.29 Y-0.888
X3.2812 Y-0.8888
X3.2724 Y-0.89
X3.2637 Y-0.8915
X3.2551 Y-0.8934
X3.2465 Y-0.8955
X3.2379 Y-0.8981
X3.2295 Y-0.9009
X3.2212 Y-0.904
X3.213 Y-0.9075
X3.2049 Y-0.9113
X3.197 Y-0.9154
X3.1892 Y-0.9198
X3.1816 Y-0.9245
X3.1741 Y-0.9295
X3.1669 Y-0.9348
X3.1598 Y-0.9403
X3.153 Y-0.9461
X3.1464 Y-0.9522
X3.14 Y-0.9585
X3.1339 Y-0.9651
X3.128 Y-0.9719
X3.1224 Y-0.9789
X3.117 Y-0.9862
X3.1119 Y-0.9936
X3.1071 Y-1.0012
X3.1026 Y-1.009
X3.0984 Y-1.017
X3.0946 Y-1.0251
X3.091 Y-1.0334
X3.0877 Y-1.0418
X3.0848 Y-1.0503
X3.0822 Y-1.0589
X3.0799 Y-1.0677
X3.0779 Y-1.0765
X3.0763 Y-1.0853
X3.075 Y-1.0943
X3.0741 Y-1.1033
X3.0735 Y-1.1123
X3.0733 Y-1.1213
Y-1.1303
X3.0738 Y-1.1393
X3.0746 Y-1.1483
X3.0757 Y-1.1573
X3.0772 Y-1.1662
X3.079 Y-1.175
X3.0811 Y-1.1838
X3.0836 Y-1.1925
X3.0864 Y-1.2011
X3.0895 Y-1.2095
X3.0929 Y-1.2179
X3.0967 Y-1.2261
X3.1008 Y-1.2341
X3.1051 Y-1.242
X3.1098 Y-1.2498
X3.1148 Y-1.2573
X3.12 Y-1.2647
X3.1256 Y-1.2718
X3.1313 Y-1.2787
X3.1374 Y-1.2854
X3.1437 Y-1.2919
X3.1502 Y-1.2981
X3.157 Y-1.3041
X3.164 Y-1.3098
X3.1712 Y-1.3152
X3.1787 Y-1.3204
X3.1863 Y-1.3253
X3.194 Y-1.3299
X3.202 Y-1.3341
X3.2101 Y-1.3381
X3.2184 Y-1.3418
X3.2268 Y-1.3451
X3.2353 Y-1.3481
X3.2439 Y-1.3508
X3.2526 Y-1.3532
X3.2614 Y-1.3552
X3.2703 Y-1.3569
X3.2792 Y-1.3583
X3.2882 Y-1.3593
X3.2972 Y-1.36
X3.3062 Y-1.3603
X3.3152
X3.3243 Y-1.3599
X3.3333 Y-1.3592
X3.3422 Y-1.3582
X3.3512 Y-1.3568
X3.36 Y-1.3551
X3.3688 Y-1.353
X3.3775 Y-1.3506
X3.3862 Y-1.3479
X3.3947 Y-1.3448
X3.403 Y-1.3414
X3.4113 Y-1.3378
X3.4194 Y-1.3338
X3.4273 Y-1.3294
X3.4351 Y-1.3248
X3.4427 Y-1.3199
X3.4501 Y-1.3148
X3.4573 Y-1.3093
X3.4642 Y-1.3036
X3.471 Y-1.2976
X3.4775 Y-1.2913
X3.4838 Y-1.2848
X3.4898 Y-1.2781
X3.4956 Y-1.2711
X3.5012 Y-1.2639
X3.5067 Y-1.2561
X3.5124 Y-1.2474
X3.5179 Y-1.2382
X3.5233 Y-1.2285
X3.5283 Y-1.2184
X3.533 Y-1.208
X3.5373 Y-1.1975
X3.5411 Y-1.187
X3.5445 Y-1.1766
X3.5474 Y-1.1662
X3.5499 Y-1.156
X3.5519 Y-1.1458
X3.5535 Y-1.1358
X3.5547 Y-1.1259
X3.5556 Y-1.1161
X3.556 Y-1.1064
X3.5561 Y-1.0968
X3.5558 Y-1.0873
X3.5551 Y-1.0779
X3.5541 Y-1.0686
X3.5528 Y-1.0595
X3.5511 Y-1.0504
X3.5491 Y-1.0415
X3.5468 Y-1.0327
X3.5441 Y-1.024
X3.5411 Y-1.0154
X3.5378 Y-1.007
X3.5342 Y-0.9987
X3.5302 Y-0.9905
X3.5259 Y-0.9825
X3.5214 Y-0.9746
X3.5165 Y-0.9669
X3.5113 Y-0.9594
X3.5058 Y-0.952
X3.5001 Y-0.9449
X3.494 Y-0.9379
X3.4877 Y-0.9312
X3.481 Y-0.9247
X3.4742 Y-0.9184
X3.467 Y-0.9123
X3.4596 Y-0.9065
X3.452 Y-0.901
X3.4441 Y-0.8958
X3.436 Y-0.8908
X3.4276 Y-0.8861
X3.4191 Y-0.8818
X3.4104 Y-0.8777
X3.4015 Y-0.874
X3.3925 Y-0.8706
X3.3833 Y-0.8675
X3.3739 Y-0.8648
X3.3644 Y-0.8625
X3.3549 Y-0.8605
X3.3452 Y-0.8588
X3.3354 Y-0.8575
X3.3256 Y-0.8566
X3.3157 Y-0.8561
X3.3058 Y-0.8559
X3.2959 Y-0.8562
X3.286 Y-0.8568
X3.276 Y-0.8577
X3.2661 Y-0.8591
X3.2563 Y-0.8608
X3.2465 Y-0.8629
X3.2367 Y-0.8654
X3.2271 Y-0.8683
X3.2176 Y-0.8715
X3.2082 Y-0.8751
X3.1989 Y-0.8791
X3.1897 Y-0.8834
X3.1808 Y-0.8881
X3.172 Y-0.8931
X3.1634 Y-0.8984
X3.155 Y-0.9041
X3.1468 Y-0.9101
X3.1388 Y-0.9164
X3.1311 Y-0.923
X3.1236 Y-0.9299
X3.1164 Y-0.9371
X3.1095 Y-0.9446
X3.1028 Y-0.9523
X3.0965 Y-0.9602
X3.0904 Y-0.9685
X3.0847 Y-0.9769
X3.0793 Y-0.9856
X3.0742 Y-0.9944
X3.0695 Y-1.0035
X3.0651 Y-1.0127
X3.0611 Y-1.0221
X3.0574 Y-1.0316
X3.0541 Y-1.0413
X3.0512 Y-1.0511
X3.0486 Y-1.061
X3.0464 Y-1.071
X3.0446 Y-1.0811
X3.0432 Y-1.0912
X3.0422 Y-1.1014
X3.0415 Y-1.1116
X3.0413 Y-1.1218
X3.0414 Y-1.1321
X3.0419 Y-1.1423
X3.0428 Y-1.1525
X3.0441 Y-1.1626
X3.0458 Y-1.1727
X3.0479 Y-1.1828
X3.0504 Y-1.1927
X3.0532 Y-1.2026
X3.0564 Y-1.2123
X3.06 Y-1.2219
X3.0639 Y-1.2314
X3.0682 Y-1.2407
X3.0728 Y-1.2498
X3.0778 Y-1.2587
X3.0832 Y-1.2675
X3.0888 Y-1.276
X3.0948 Y-1.2844
X3.1011 Y-1.2925
X3.1077 Y-1.3003
X3.1146 Y-1.3079
X3.1218 Y-1.3152
X3.1292 Y-1.3223
X3.1369 Y-1.329
X3.1449 Y-1.3355
X3.1531 Y-1.3416
X3.1615 Y-1.3474
X3.1702 Y-1.3529
X3.179 Y-1.3581
X3.188 Y-1.363
X3.1973 Y-1.3674
X3.2066 Y-1.3716
X3.2162 Y-1.3753
X3.2258 Y-1.3787
X3.2356 Y-1.3818
X3.2455 Y-1.3844
X3.2555 Y-1.3867
X3.2656 Y-1.3886
X3.2757 Y-1.3901
X3.2859 Y-1.3912
X3.2962 Y-1.392
X3.3064 Y-1.3923
X3.3167
X3.3269 Y-1.3918
X3.3371 Y-1.391
X3.3473 Y-1.3898
X3.3574 Y-1.3882
X3.3675 Y-1.3862
X3.3775 Y-1.3838
X3.3873 Y-1.3811
X3.3971 Y-1.378
X3.4067 Y-1.3745
X3.4162 Y-1.3706
X3.4256 Y-1.3664
X3.4348 Y-1.3618
X3.4438 Y-1.3569
X3.4526 Y-1.3517
X3.4612 Y-1.3461
X3.4696 Y-1.3402
X3.4778 Y-1.3339
X3.4858 Y-1.3272
X3.4937 Y-1.3202
X3.5015 Y-1.3127
X3.5091 Y-1.3049
X3.5164 Y-1.2966
X3.5236 Y-1.2879
X3.5305 Y-1.2788
X3.5372 Y-1.2694
X3.5435 Y-1.2596
X3.5495 Y-1.2496
X3.5551 Y-1.2393
X3.5604 Y-1.2288
X3.5651 Y-1.2181
X3.5695 Y-1.2074
X3.5734 Y-1.1965
X3.5769 Y-1.1856
X3.58 Y-1.1746
X3.5826 Y-1.1636
X3.5848 Y-1.1525
X3.5865 Y-1.1415
X3.5878 Y-1.1306
X3.5887 Y-1.1196
X3.5892 Y-1.1087
Y-1.0979
X3.5889 Y-1.0871
X3.5881 Y-1.0764
X3.5869 Y-1.0659
X3.5854 Y-1.0554
X3.5834 Y-1.045
X3.5811 Y-1.0347
X3.5783 Y-1.0245
X3.5752 Y-1.0145
X3.5717 Y-1.0046
X3.5679 Y-0.9948
X3.5636 Y-0.9852
X3.5591 Y-0.9758
X3.5541 Y-0.9666
X3.5488 Y-0.9575
X3.5432 Y-0.9486
X3.5372 Y-0.94
X3.5309 Y-0.9316
X3.5242 Y-0.9234
X3.5173 Y-0.9154
X3.51 Y-0.9077
X3.5024 Y-0.9003
X3.4945 Y-0.8931
X3.4864 Y-0.8863
X3.4779 Y-0.8797
X3.4692 Y-0.8735
X3.4602 Y-0.8675
X3.451 Y-0.8619
X3.4416 Y-0.8567
X3.4319 Y-0.8518
X3.4221 Y-0.8472
X3.412 Y-0.843
X3.4018 Y-0.8392
X3.3914 Y-0.8358
X3.3808 Y-0.8328
X3.3701 Y-0.8301
X3.3593 Y-0.8279
X3.3484 Y-0.8261
X3.3375 Y-0.8247
X3.3264 Y-0.8237
X3.3153 Y-0.8231
X3.3042 Y-0.823
X3.293 Y-0.8232
X3.2818 Y-0.824
X3.2707 Y-0.8251
X3.2596 Y-0.8266
X3.2485 Y-0.8286
X3.2375 Y-0.831
X3.2266 Y-0.8339
X3.2158 Y-0.8371
X3.2051 Y-0.8408
X3.1945 Y-0.8448
X3.1841 Y-0.8493
X3.1739 Y-0.8542
X3.1638 Y-0.8595
X3.1539 Y-0.8651
X3.1443 Y-0.8711
X3.1348 Y-0.8775
X3.1257 Y-0.8843
X3.1167 Y-0.8914
X3.1081 Y-0.8988
X3.0997 Y-0.9066
X3.0917 Y-0.9147
X3.0839 Y-0.9231
X3.0764 Y-0.9318
X3.0693 Y-0.9408
X3.0626 Y-0.95
X3.0562 Y-0.9595
X3.0501 Y-0.9693
X3.0445 Y-0.9793
X3.0392 Y-0.9894
X3.0343 Y-0.9998
X3.0298 Y-1.0104
X3.0257 Y-1.0211
X3.022 Y-1.032
X3.0187 Y-1.043
X3.0159 Y-1.0541
X3.0134 Y-1.0654
X3.0114 Y-1.0767
X3.0099 Y-1.0881
X3.0087 Y-1.0995
X3.0081 Y-1.111
X3.0078 Y-1.1225
X3.008 Y-1.134
X3.0086 Y-1.1455
X3.0097 Y-1.157
X3.0112 Y-1.1684
X3.0131 Y-1.1798
X3.0155 Y-1.191
X3.0183 Y-1.2022
X3.0215 Y-1.2133
X3.0251 Y-1.2242
X3.0291 Y-1.235
X3.0336 Y-1.2456
X3.0385 Y-1.256
X3.0437 Y-1.2663
X3.0493 Y-1.2763
X3.0554 Y-1.2862
X3.0617 Y-1.2958
X3.0685 Y-1.3051
X3.0756 Y-1.3142
X3.083 Y-1.323
X3.0908 Y-1.3315
X3.0989 Y-1.3397
X3.1073 Y-1.3476
X3.116 Y-1.3552
X3.125 Y-1.3624
X3.1342 Y-1.3693
X3.1437 Y-1.3758
X3.1534 Y-1.382
X3.1634 Y-1.3878
X3.1736 Y-1.3932
X3.184 Y-1.3982
X3.1945 Y-1.4028
X3.2053 Y-1.407
X3.2161 Y-1.4108
X3.2272 Y-1.4142
X3.2383 Y-1.4171
X3.2495 Y-1.4197
X3.2609 Y-1.4218
X3.2723 Y-1.4234
X3.2837 Y-1.4247
X3.2952 Y-1.4255
X3.3068 Y-1.4258
X3.3183 Y-1.4257
X3.3298 Y-1.4252
X3.3413 Y-1.4242
X3.3527 Y-1.4228
X3.3641 Y-1.421
X3.3754 Y-1.4187
X3.3866 Y-1.4161
X3.3977 Y-1.4129
X3.4087 Y-1.4094
X3.4195 Y-1.4054
X3.4302 Y-1.4011
X3.4407 Y-1.3963
X3.4511 Y-1.3911
X3.4613 Y-1.3855
X3.4714 Y-1.3794
X3.4813 Y-1.373
X3.491 Y-1.3661
X3.5005 Y-1.3588
X3.5098 Y-1.351
X3.5189 Y-1.3429
X3.5278 Y-1.3343
X3.5364 Y-1.3253
X3.5447 Y-1.316
X3.5526 Y-1.3063
X3.5602 Y-1.2962
X3.5675 Y-1.2859
X3.5743 Y-1.2753
X3.5808 Y-1.2644
X3.5868 Y-1.2532
X3.5924 Y-1.2419
X3.5976 Y-1.2304
X3.6023 Y-1.2187
X3.6065 Y-1.2069
X3.6103 Y-1.1949
X3.6136 Y-1.1829
X3.6164 Y-1.1708
X3.6188 Y-1.1587
X3.6207 Y-1.1465
X3.6221 Y-1.1343
X3.6231 Y-1.1221
X3.6235 Y-1.11
X3.6236 Y-1.0979
X3.6231 Y-1.0858
X3.6222 Y-1.0738
X3.6209 Y-1.0618
X3.6191 Y-1.05
X3.6168 Y-1.0382
X3.6141 Y-1.0266
X3.611 Y-1.0151
X3.6075 Y-1.0038
X3.6035 Y-0.9926
X3.5991 Y-0.9815
X3.5943 Y-0.9707
X3.589 Y-0.96
X3.5834 Y-0.9496
X3.5774 Y-0.9393
X3.571 Y-0.9293
X3.5642 Y-0.9195
X3.557 Y-0.91
X3.5495 Y-0.9008
X3.5416 Y-0.8919
X3.5334 Y-0.8832
X3.5248 Y-0.8748
X3.5159 Y-0.8668
X3.5067 Y-0.8591
X3.4971 Y-0.8517
X3.4873 Y-0.8447
X3.4772 Y-0.8381
X3.4669 Y-0.8318
X3.4563 Y-0.826
X3.4454 Y-0.8205
X3.4343 Y-0.8154
X3.4231 Y-0.8107
X3.4116 Y-0.8065
X3.3999 Y-0.8027
X3.3881 Y-0.7994
X3.3762 Y-0.7964
X3.3641 Y-0.794
X3.3519 Y-0.792
X3.3396 Y-0.7904
X3.3273 Y-0.7894
X3.3148 Y-0.7888
X3.3024 Y-0.7886
X3.2899 Y-0.789
X3.2775 Y-0.7898
X3.2651 Y-0.7911
X3.2527 Y-0.7929
X3.2403 Y-0.7951
X3.2281 Y-0.7978
X3.2159 Y-0.801
X3.2039 Y-0.8047
X3.1919 Y-0.8088
X3.1802 Y-0.8134
X3.1686 Y-0.8184
X3.1572 Y-0.8239
X3.146 Y-0.8298
X3.135 Y-0.8361
X3.1243 Y-0.8428
X3.1138 Y-0.85
X3.1036 Y-0.8575
X3.0937 Y-0.8655
X3.084 Y-0.8738
X3.0747 Y-0.8825
X3.0658 Y-0.8916
X3.0572 Y-0.9009
X3.0489 Y-0.9107
X3.041 Y-0.9207
X3.0335 Y-0.931
X3.0264 Y-0.9416
X3.0197 Y-0.9525
X3.0134 Y-0.9636
X3.0075 Y-0.975
X3.0021 Y-0.9866
X2.9971 Y-0.9984
X2.9926 Y-1.0103
X2.9885 Y-1.0225
X2.9849 Y-1.0348
X2.9817 Y-1.0472
X2.9791 Y-1.0597
X2.9769 Y-1.0723
X2.9752 Y-1.085
X2.9739 Y-1.0978
X2.9732 Y-1.1106
X2.973 Y-1.1234
X2.9732 Y-1.1363
X2.9739 Y-1.1491
X2.9752 Y-1.1619
X2.9769 Y-1.1746
X2.9791 Y-1.1872
X2.9817 Y-1.1998
X2.9849 Y-1.2122
X2.9885 Y-1.2246
X2.9926 Y-1.2367
X2.9971 Y-1.2487
X3.0021 Y-1.2606
X3.0076 Y-1.2722
X3.0134 Y-1.2836
X3.0198 Y-1.2948
X3.0265 Y-1.3058
X3.0337 Y-1.3164
X3.0412 Y-1.3268
X3.0492 Y-1.3369
X3.0575 Y-1.3467
X3.0662 Y-1.3562
X3.0752 Y-1.3653
X3.0846 Y-1.3741
X3.0943 Y-1.3825
X3.1043 Y-1.3905
X3.1147 Y-1.3982
X3.1253 Y-1.4054
X3.1362 Y-1.4123
X3.1473 Y-1.4187
X3.1587 Y-1.4247
X3.1703 Y-1.4303
X3.1821 Y-1.4354
X3.194 Y-1.44
X3.2062 Y-1.4442
X3.2185 Y-1.448
X3.2309 Y-1.4512
X3.2435 Y-1.454
X3.2561 Y-1.4563
X3.2688 Y-1.4581
X3.2816 Y-1.4595
X3.2944 Y-1.4603
X3.3073 Y-1.4607
X3.3202 Y-1.4606
X3.333 Y-1.4599
X3.3458 Y-1.4588
X3.3586 Y-1.4572
X3.3713 Y-1.4552
X3.3839 Y-1.4526
X3.3964 Y-1.4495
X3.4088 Y-1.446
X3.4211 Y-1.442
X3.4333 Y-1.4375
X3.4453 Y-1.4326
X3.4572 Y-1.4271
X3.4689 Y-1.4212
X3.4804 Y-1.4148
X3.4918 Y-1.408
X3.5029 Y-1.4007
X3.5138 Y-1.3929
X3.5244 Y-1.3847
X3.5348 Y-1.376
X3.5449 Y-1.3669
X3.5547 Y-1.3574
X3.5641 Y-1.3475
X3.5732 Y-1.3371
X3.5819 Y-1.3265
X3.5903 Y-1.3154
X3.5982 Y-1.3041
X3.6056 Y-1.2924
X3.6127 Y-1.2805
X3.6192 Y-1.2683
X3.6253 Y-1.2559
X3.6309 Y-1.2433
X3.636 Y-1.2304
X3.6407 Y-1.2175
X3.6448 Y-1.2043
X3.6484 Y-1.1911
X3.6515 Y-1.1778
X3.654 Y-1.1644
X3.6561 Y-1.1509
X3.6576 Y-1.1374
X3.6586 Y-1.1239
X3.6591 Y-1.1105
Y-1.097
X3.6586 Y-1.0836
X3.6575 Y-1.0702
X3.656 Y-1.0569
X3.6539 Y-1.0437
X3.6514 Y-1.0306
X3.6484 Y-1.0176
X3.6448 Y-1.0048
X3.6408 Y-0.9921
X3.6363 Y-0.9796
X3.6314 Y-0.9673
X3.626 Y-0.9551
X3.6201 Y-0.9432
X3.6138 Y-0.9316
X3.607 Y-0.9201
X3.5998 Y-0.909
X3.5922 Y-0.8981
X3.5841 Y-0.8875
X3.5757 Y-0.8772
X3.5669 Y-0.8672
X3.5576 Y-0.8576
X3.548 Y-0.8483
X3.5381 Y-0.8393
X3.5278 Y-0.8308
X3.5171 Y-0.8226
X3.5062 Y-0.8148
X3.4949 Y-0.8075
X3.4834 Y-0.8005
X3.4715 Y-0.794
X3.4595 Y-0.7879
X3.4471 Y-0.7823
X3.4346 Y-0.7772
X3.4218 Y-0.7725
X3.4088 Y-0.7684
X3.3957 Y-0.7647
X3.3824 Y-0.7615
X3.369 Y-0.7588
X3.3555 Y-0.7566
X3.3419 Y-0.7549
X3.3282 Y-0.7538
X3.3144 Y-0.7531
X3.3006 Y-0.753
X3.2868 Y-0.7535
X3.273 Y-0.7544
X3.2592 Y-0.7559
X3.2455 Y-0.7579
X3.2319 Y-0.7604
X3.2183 Y-0.7635
X3.2048 Y-0.767
X3.1915 Y-0.7711
X3.1783 Y-0.7757
X3.1653 Y-0.7808
X3.1525 Y-0.7864
X3.1399 Y-0.7925
X3.1275 Y-0.799
X3.1154 Y-0.8061
X3.1035 Y-0.8136
X3.092 Y-0.8215
X3.0807 Y-0.8299
X3.0697 Y-0.8387
X3.0591 Y-0.848
X3.0488 Y-0.8576
X3.0389 Y-0.8677
X3.0294 Y-0.8781
X3.0203 Y-0.8889
X3.0116 Y-0.9
X3.0033 Y-0.9114
X2.9955 Y-0.9232
X2.9881 Y-0.9352
X2.9812 Y-0.9476
X2.9747 Y-0.9602
X2.9688 Y-0.973
X2.9633 Y-0.9861
X2.9583 Y-0.9993
X2.9538 Y-1.0128
X2.9499 Y-1.0264
X2.9464 Y-1.0401
X2.9435 Y-1.054
X2.9411 Y-1.068
X2.9393 Y-1.082
X2.938 Y-1.0962
X2.9372 Y-1.1103
X2.937 Y-1.1245
X2.9373 Y-1.1387
X2.9381 Y-1.1529
X2.9395 Y-1.167
X2.9414 Y-1.1811
X2.9439 Y-1.1951
X2.9469 Y-1.209
X2.9504 Y-1.2228
X2.9545 Y-1.2364
X2.959 Y-1.2498
X2.9641 Y-1.2631
X2.9697 Y-1.2762
X2.9757 Y-1.2891
X2.9823 Y-1.3017
X2.9893 Y-1.314
X2.9968 Y-1.3261
X3.0047 Y-1.3379
X3.0131 Y-1.3494
X3.0219 Y-1.3605
X3.0312 Y-1.3714
X3.0408 Y-1.3818
X3.0509 Y-1.3919
X3.0613 Y-1.4016
X3.0721 Y-1.4108
X3.0832 Y-1.4197
X3.0946 Y-1.4281
X3.1064 Y-1.4361
X3.1185 Y-1.4437
X3.1308 Y-1.4507
X3.1434 Y-1.4573
X3.1563 Y-1.4635
X3.1693 Y-1.4691
X3.1826 Y-1.4742
X3.1961 Y-1.4788
X3.2097 Y-1.4829
X3.2235 Y-1.4865
X3.2373 Y-1.4895
X3.2514 Y-1.492
X3.2654 Y-1.494
X3.2796 Y-1.4955
X3.2938 Y-1.4964
X3.308 Y-1.4967
X3.3223 Y-1.4965
X3.3365 Y-1.4958
X3.3507 Y-1.4945
X3.3648 Y-1.4927
X3.3789 Y-1.4904
X3.3929 Y-1.4875
X3.4068 Y-1.4841
X3.4206 Y-1.4801
X3.4343 Y-1.4756
X3.4479 Y-1.4706
X3.4612 Y-1.465
X3.4745 Y-1.4589
X3.4875 Y-1.4523
X3.5003 Y-1.4452
X3.5128 Y-1.4375
X3.5251 Y-1.4294
X3.5372 Y-1.4208
X3.5489 Y-1.4116
X3.5604 Y-1.4021
X3.5714 Y-1.392
X3.5822 Y-1.3815
X3.5925 Y-1.3706
X3.6024 Y-1.3592
X3.6119 Y-1.3475
X3.621 Y-1.3354
X3.6296 Y-1.323
X3.6377 Y-1.3102
X3.6454 Y-1.2972
X3.6525 Y-1.2838
X3.6591 Y-1.2702
X3.6652 Y-1.2564
X3.6708 Y-1.2424
X3.6758 Y-1.2282
X3.6803 Y-1.2138
X3.6842 Y-1.1993
X3.6875 Y-1.1846
X3.6903 Y-1.1699
X3.6925 Y-1.1551
X3.6941 Y-1.1403
X3.6952 Y-1.1254
X3.6957 Y-1.1105
Y-1.0957
X3.695 Y-1.0809
X3.6939 Y-1.0661
X3.6921 Y-1.0514
X3.6898 Y-1.0368
X3.687 Y-1.0223
X3.6836 Y-1.008
X3.6796 Y-0.9938
X3.6751 Y-0.9798
X3.6701 Y-0.9659
X3.6646 Y-0.9523
X3.6586 Y-0.9389
X3.652 Y-0.9257
X3.645 Y-0.9128
X3.6375 Y-0.9001
X3.6294 Y-0.8878
X3.621 Y-0.8758
X3.612 Y-0.864
X3.6026 Y-0.8527
X3.5928 Y-0.8417
X3.5826 Y-0.831
X3.5719 Y-0.8208
X3.5609 Y-0.8109
X3.5495 Y-0.8015
X3.5426 Y-0.7962
X3.5404 Y-0.7946
X3.5381 Y-0.7929
X3.5358 Y-0.7913
X3.5161 Y-0.7782
X3.5048 Y-0.772
X3.4805 Y-0.76
X3.4711 Y-0.7558
X3.4486 Y-0.7463
X3.4373 Y-0.7422
X3.4149 Y-0.7359
X3.4036 Y-0.7328
X3.369 Y-0.7263
X3.3586 Y-0.725
X3.3361 Y-0.7223
X3.3249 Y-0.7217
X3.3024 Y-0.7222
X3.2912 Y-0.7226
X3.2574 Y-0.7249
X3.2496 Y-0.7263
X3.2237 Y-0.7315
X3.2012 Y-0.7361
X3.1766 Y-0.7426
X3.1646 Y-0.7462
X3.1525 Y-0.7503
X3.1404 Y-0.7551
X3.1282 Y-0.7603
X3.1159 Y-0.7662
X3.1037 Y-0.7726
X3.0915 Y-0.7797
X3.0794 Y-0.7873
X3.0674 Y-0.7954
X3.0557 Y-0.8041
X3.0442 Y-0.8133
X3.033 Y-0.823
X3.022 Y-0.8332
X3.0115 Y-0.8439
X3.0012 Y-0.855
X2.9914 Y-0.8665
X2.982 Y-0.8785
X2.973 Y-0.8908
X2.9645 Y-0.9035
X2.9564 Y-0.9166
X2.9488 Y-0.93
X2.9418 Y-0.9437
X2.9352 Y-0.9576
X2.9292 Y-0.9719
X2.9237 Y-0.9863
X2.9188 Y-1.001
X2.9144 Y-1.0159
X2.9106 Y-1.0309
X2.9073 Y-1.0461
X2.9047 Y-1.0615
X2.9026 Y-1.0769
X2.9011 Y-1.0924
X2.9002 Y-1.1079
X2.8999 Y-1.1235
X2.9002 Y-1.1391
X2.901 Y-1.1547
X2.9025 Y-1.1702
X2.9046 Y-1.1856
X2.9072 Y-1.201
X2.9105 Y-1.2163
X2.9143 Y-1.2314
X2.9187 Y-1.2464
X2.9236 Y-1.2612
X2.9292 Y-1.2758
X2.9352 Y-1.2902
X2.9419 Y-1.3044
X2.949 Y-1.3183
X2.9567 Y-1.3319
X2.9649 Y-1.3452
X2.9736 Y-1.3582
X2.9828 Y-1.3708
X2.9924 Y-1.3831
X3.0025 Y-1.395
X3.0131 Y-1.4066
X3.0241 Y-1.4177
X3.0355 Y-1.4284
X3.0473 Y-1.4386
X3.0595 Y-1.4484
X3.0721 Y-1.4577
X3.085 Y-1.4665
X3.0982 Y-1.4749
X3.1118 Y-1.4827
X3.1256 Y-1.49
X3.1397 Y-1.4968
X3.1541 Y-1.503
X3.1686 Y-1.5087
X3.1834 Y-1.5138
X3.1984 Y-1.5183
X3.2135 Y-1.5223
X3.2288 Y-1.5257
X3.2442 Y-1.5285
X3.2597 Y-1.5307
X3.2752 Y-1.5324
X3.2908 Y-1.5334
X3.3065 Y-1.5339
X3.3222 Y-1.5337
X3.3291 Y-1.5334
X3.339 Y-1.5325
X3.3487 Y-1.5309
X3.3584 Y-1.5286
X3.4036 Y-1.5158
X3.4132 Y-1.5128
X3.4443 Y-1.5015
X3.4747 Y-1.4903
X3.4823 Y-1.4868
X3.4962 Y-1.4791
X3.5048 Y-1.4743
X3.5162 Y-1.4678
X3.5498 Y-1.4452
X3.561 Y-1.4364
X3.5835 Y-1.4175
X3.5902 Y-1.4117
X3.6213 Y-1.378
X3.6285 Y-1.3694
X3.6303 Y-1.3667
X3.6528 Y-1.333
X3.6598 Y-1.3218
X3.6622 Y-1.3177
X3.6659 Y-1.3105
X3.6735 Y-1.294
X3.6761 Y-1.2881
X3.6858 Y-1.2656
X3.6903 Y-1.2544
X3.6998 Y-1.2207
X3.7022 Y-1.2094
X3.7072 Y-1.1836
X3.7082 Y-1.1757
X3.7108 Y-1.1532
X3.7117 Y-1.142
X3.7113 Y-1.1083
X3.7094 Y-1.0746
X3.7076 Y-1.0633
X3.7008 Y-1.0296
X3.6977 Y-1.0184
X3.6945 Y-1.0072
X3.6911 Y-0.9959
X3.6786 Y-0.9622
X3.673 Y-0.951
X3.6672 Y-0.9398
X3.6622 Y-0.9304
X3.6612 Y-0.9285
X3.6544 Y-0.9173
X3.6398 Y-0.8943
X3.6323 Y-0.8836
X3.6146 Y-0.8611
X3.606 Y-0.8504
X3.6056 Y-0.8499
X3.5935 Y-0.8386
X3.5692 Y-0.8162
X3.561 Y-0.8093
X3.5555 Y-0.8049
X3.5498 Y-0.8007
X3.5358 Y-0.7913
G3 X3.506 Y-0.7871 I-0.0197 J-0.0319
X3.4966 Y-0.7912 I0.0101 J-0.0361 F300.
G2 X3.431 Y-0.8168 I-0.1055 J0.1733
X3.4176 Y-0.8171 I-0.0074 J0.0368
G1 X3.303 Y-0.7984
G2 X3.2903 Y-0.794 I0.006 J0.037
X3.2362 Y-0.7489 I0.1008 J0.1761
G1 X3.2334 Y-0.7459
X3.2304 Y-0.7433
G3 X3.2012 Y-0.7361 I-0.0228 J-0.0298 F60.
G1 X3.1945 Y-0.7375
X3.19 Y-0.7385
X3.0775 Y-0.7704
X3.0684 Y-0.7734
X3.0619 Y-0.7759
X3.0554 Y-0.7787
X3.0484 Y-0.782
X3.0409 Y-0.7859
X3.0333 Y-0.7902
X3.0252 Y-0.7952
X3.0167 Y-0.8009
X3.0083 Y-0.8071
X2.9996 Y-0.8139
X2.9907 Y-0.8216
X2.9816 Y-0.8299
X2.9727 Y-0.8388
X2.9638 Y-0.8483
X2.955 Y-0.8585
X2.9463 Y-0.8694
X2.9378 Y-0.881
X2.9296 Y-0.8932
X2.9216 Y-0.9059
X2.914 Y-0.9191
X2.9068 Y-0.9328
X2.9001 Y-0.9469
X2.8939 Y-0.9614
X2.8881 Y-0.9763
X2.8829 Y-0.9916
X2.8782 Y-1.0071
X2.8741 Y-1.023
X2.8706 Y-1.0391
X2.8676 Y-1.0554
X2.8653 Y-1.0719
X2.8636 Y-1.0885
X2.8625 Y-1.1052
X2.8621 Y-1.122
X2.8623 Y-1.1389
X2.8632 Y-1.1557
X2.8647 Y-1.1726
X2.8668 Y-1.1894
X2.8696 Y-1.2061
X2.873 Y-1.2227
X2.8771 Y-1.2392
X2.8818 Y-1.2556
X2.8871 Y-1.2718
X2.893 Y-1.2877
X2.8995 Y-1.3035
X2.9067 Y-1.3189
X2.9144 Y-1.3341
X2.9227 Y-1.349
X2.9315 Y-1.3636
X2.9409 Y-1.3779
X2.9509 Y-1.3917
X2.9613 Y-1.4052
X2.9723 Y-1.4183
X2.9838 Y-1.4309
X2.9957 Y-1.4431
X3.0081 Y-1.4549
X3.021 Y-1.4662
X3.0342 Y-1.4769
X3.0479 Y-1.4872
X3.0619 Y-1.4969
X3.0763 Y-1.5061
X3.0911 Y-1.5147
X3.1062 Y-1.5228
X3.1215 Y-1.5303
X3.1371 Y-1.5372
X3.153 Y-1.5435
X3.1692 Y-1.5492
X3.1855 Y-1.5542
X3.1931 Y-1.5563
X3.2103 Y-1.5597
X3.2277 Y-1.5607
X3.2452 Y-1.5595
X3.2623 Y-1.5558
X3.3584 Y-1.5286
G3 X3.3809 Y-1.5087 I-0.0115 J0.0357
X3.3819 Y-1.4796 I-0.034 J0.0158 F300.
G1 X3.1215 Y-0.7935
G3 X3.1071 Y-0.7755 I-0.0351 J-0.0133
X3.0775 Y-0.7704 I-0.0207 J-0.0313 F60.
G1 X3.0151 Y-0.788
X3.0066 Y-0.7909
X3.001 Y-0.793
X2.9955 Y-0.7954
X2.9899 Y-0.7981
X2.9841 Y-0.8012
X2.9777 Y-0.8049
X2.9714 Y-0.8089
X2.9646 Y-0.8135
X2.9574 Y-0.8189
X2.9503 Y-0.8246
X2.9429 Y-0.8311
X2.9352 Y-0.8383
X2.9274 Y-0.8462
X2.9198 Y-0.8545
X2.912 Y-0.8637
X2.9041 Y-0.8737
X2.8964 Y-0.8845
X2.8888 Y-0.8958
X2.8815 Y-0.9076
X2.8745 Y-0.9202
X2.8676 Y-0.9335
X2.8612 Y-0.9474
X2.855 Y-0.9619
X2.8494 Y-0.977
X2.8442 Y-0.9925
X2.8395 Y-1.0085
X2.8354 Y-1.0248
X2.8319 Y-1.0415
X2.829 Y-1.0585
X2.8267 Y-1.0757
X2.8251 Y-1.0931
X2.8241 Y-1.1108
X2.8238 Y-1.1286
X2.8242 Y-1.1465
X2.8253 Y-1.1645
X2.827 Y-1.1825
X2.8295 Y-1.2005
X2.8326 Y-1.2184
X2.8364 Y-1.2363
X2.841 Y-1.254
X2.8462 Y-1.2716
X2.8521 Y-1.289
X2.8586 Y-1.3062
X2.8658 Y-1.3232
X2.8737 Y-1.3399
X2.8822 Y-1.3563
X2.8913 Y-1.3724
X2.901 Y-1.3881
X2.9114 Y-1.4035
X2.9223 Y-1.4184
X2.9338 Y-1.433
X2.9458 Y-1.4471
X2.9584 Y-1.4607
X2.9715 Y-1.4738
X2.985 Y-1.4865
X2.9991 Y-1.4986
X3.0136 Y-1.5102
X3.0285 Y-1.5212
X3.0439 Y-1.5316
X3.0596 Y-1.5415
X3.0757 Y-1.5507
X3.092 Y-1.5593
X3.1057 Y-1.5658
X3.1115 Y-1.5683
X3.1282 Y-1.5742
X3.1456 Y-1.5777
X3.1633 Y-1.5789
X3.1809 Y-1.5776
X3.1983 Y-1.574
X3.2623 Y-1.5558
G3 X3.2848 Y-1.5359 I-0.0115 J0.0357
X3.2865 Y-1.5085 I-0.034 J0.0158 F300.
G1 X3.0597 Y-0.8128
G3 X3.0447 Y-0.7932 I-0.0357 J-0.0116
X3.0151 Y-0.788 I-0.0207 J-0.0313 F60.
G1 X2.9598 Y-0.8037
X2.9541 Y-0.8056
X2.9485 Y-0.8078
X2.943 Y-0.8102
X2.9377 Y-0.8129
X2.9323 Y-0.8159
X2.9267 Y-0.8193
X2.9209 Y-0.823
X2.9147 Y-0.8275
X2.9084 Y-0.8323
X2.902 Y-0.8377
X2.8951 Y-0.8438
X2.8883 Y-0.8505
X2.8814 Y-0.8577
X2.8743 Y-0.8658
X2.8671 Y-0.8746
X2.86 Y-0.884
X2.853 Y-0.894
X2.846 Y-0.905
X2.839 Y-0.9167
X2.8323 Y-0.9292
X2.8259 Y-0.9422
X2.8199 Y-0.9558
X2.8141 Y-0.9702
X2.8087 Y-0.9852
X2.8038 Y-1.0009
X2.7994 Y-1.0172
X2.7955 Y-1.0339
X2.7922 Y-1.0512
X2.7895 Y-1.0687
X2.7874 Y-1.0866
X2.7861 Y-1.1048
X2.7854 Y-1.1232
Y-1.1419
X2.7861 Y-1.1607
X2.7876 Y-1.1797
X2.7898 Y-1.1987
X2.7927 Y-1.2178
X2.7964 Y-1.2368
X2.8008 Y-1.2558
X2.806 Y-1.2747
X2.8119 Y-1.2935
X2.8185 Y-1.312
X2.8259 Y-1.3304
X2.8339 Y-1.3485
X2.8427 Y-1.3663
X2.8522 Y-1.3838
X2.8623 Y-1.4009
X2.8731 Y-1.4177
X2.8845 Y-1.434
X2.8966 Y-1.45
X2.9093 Y-1.4654
X2.9225 Y-1.4804
X2.9363 Y-1.4949
X2.9507 Y-1.5088
X2.9656 Y-1.5222
X2.981 Y-1.5351
X2.9969 Y-1.5473
X3.0122 Y-1.5582
X3.0251 Y-1.5666
X3.0377 Y-1.5742
X3.0476 Y-1.5797
X3.0496 Y-1.5806
X3.0674 Y-1.588
X3.0861 Y-1.5926
X3.1052 Y-1.5944
X3.1245 Y-1.5934
X3.1433 Y-1.5895
X3.1983 Y-1.574
G3 X3.2208 Y-1.5541 I-0.0115 J0.0357
X3.2226 Y-1.5271 I-0.034 J0.0158 F300.
G1 X3.0045 Y-0.8289
G3 X2.9894 Y-0.8088 I-0.0358 J-0.0112
X2.9598 Y-0.8037 I-0.0207 J-0.0313 F60.
G1 X2.912 Y-0.8173
X2.9063 Y-0.8192
X2.9007 Y-0.8214
X2.8952 Y-0.8238
X2.8899 Y-0.8266
X2.8847 Y-0.8295
X2.8793 Y-0.8328
X2.874 Y-0.8365
X2.8683 Y-0.8406
X2.8623 Y-0.8454
X2.8563 Y-0.8506
X2.85 Y-0.8564
X2.8434 Y-0.863
X2.837 Y-0.8699
X2.8304 Y-0.8776
X2.8236 Y-0.8861
X2.8169 Y-0.8953
X2.8103 Y-0.905
X2.8037 Y-0.9156
X2.7972 Y-0.9271
X2.7908 Y-0.9394
X2.7847 Y-0.9522
X2.7789 Y-0.9657
X2.7734 Y-0.9801
X2.7683 Y-0.9952
X2.7635 Y-1.011
X2.7593 Y-1.0275
X2.7556 Y-1.0446
X2.7525 Y-1.062
X2.75 Y-1.0799
X2.7482 Y-1.0982
X2.747 Y-1.117
X2.7466 Y-1.1362
X2.7469 Y-1.1557
X2.7479 Y-1.1754
X2.7497 Y-1.1953
X2.7523 Y-1.2154
X2.7557 Y-1.2355
X2.7599 Y-1.2556
X2.7649 Y-1.2757
X2.7707 Y-1.2957
X2.7773 Y-1.3155
X2.7846 Y-1.3352
X2.7927 Y-1.3547
X2.8016 Y-1.3739
X2.8113 Y-1.3928
X2.8217 Y-1.4114
X2.8328 Y-1.4296
X2.8446 Y-1.4474
X2.8571 Y-1.4648
X2.8703 Y-1.4817
X2.8841 Y-1.4981
X2.8986 Y-1.514
X2.9135 Y-1.5291
X2.9284 Y-1.5432
X2.9433 Y-1.5562
X2.9563 Y-1.5667
X2.9678 Y-1.5753
X2.979 Y-1.583
X2.9879 Y-1.5886
X2.9921 Y-1.5911
X3.0077 Y-1.5988
X3.0241 Y-1.6044
X3.0412 Y-1.6077
X3.0586 Y-1.6087
X3.0759 Y-1.6074
X3.0929 Y-1.6038
X3.1433 Y-1.5895
G3 X3.1658 Y-1.5697 I-0.0115 J0.0357
X3.1678 Y-1.543 I-0.034 J0.0158 F300.
G1 X2.9568 Y-0.8429
G3 X2.9416 Y-0.8224 I-0.0359 J-0.0108
X2.912 Y-0.8173 I-0.0207 J-0.0313 F60.
G1 X2.8689 Y-0.8295
X2.862 Y-0.8318
X2.8564 Y-0.8339
X2.8509 Y-0.8364
X2.8456 Y-0.8391
X2.8404 Y-0.8421
X2.8353 Y-0.8453
X2.8302 Y-0.8488
X2.8248 Y-0.8528
X2.8191 Y-0.8574
X2.8134 Y-0.8623
X2.8074 Y-0.8679
X2.8012 Y-0.8743
X2.795 Y-0.8809
X2.7887 Y-0.8884
X2.7822 Y-0.8966
X2.7758 Y-0.9055
X2.7695 Y-0.9149
X2.7632 Y-0.9253
X2.7568 Y-0.9366
X2.7507 Y-0.9485
X2.7448 Y-0.9609
X2.7392 Y-0.9743
X2.7338 Y-0.9886
X2.7288 Y-1.0037
X2.7241 Y-1.0196
X2.72 Y-1.0358
X2.7165 Y-1.0527
X2.7134 Y-1.0704
X2.711 Y-1.0887
X2.7092 Y-1.1075
X2.7081 Y-1.127
X2.7078 Y-1.1468
X2.7082 Y-1.1671
X2.7094 Y-1.1876
X2.7114 Y-1.2084
X2.7142 Y-1.2293
X2.7179 Y-1.2503
X2.7224 Y-1.2713
X2.7277 Y-1.2924
X2.7339 Y-1.3134
X2.7409 Y-1.3343
X2.7488 Y-1.355
X2.7576 Y-1.3756
X2.7671 Y-1.396
X2.7775 Y-1.416
X2.7887 Y-1.4357
X2.8006 Y-1.4551
X2.8133 Y-1.474
X2.8268 Y-1.4924
X2.8408 Y-1.5102
X2.8552 Y-1.5272
X2.8693 Y-1.5425
X2.8831 Y-1.5564
X2.8962 Y-1.5686
X2.9073 Y-1.5781
X2.9184 Y-1.5871
X2.9273 Y-1.5936
X2.9372 Y-1.6003
X2.9406 Y-1.6025
X2.9565 Y-1.611
X2.9735 Y-1.6172
X2.9912 Y-1.621
X3.0093 Y-1.6223
X3.0273 Y-1.6211
X3.045 Y-1.6174
X3.0929 Y-1.6038
G3 X3.1154 Y-1.5839 I-0.0115 J0.0357
X3.1174 Y-1.5577 I-0.034 J0.0158 F300.
G1 X2.9139 Y-0.8554
G3 X2.8985 Y-0.8346 I-0.036 J-0.0104
X2.8689 Y-0.8295 I-0.0207 J-0.0313 F60.
G1 X2.8239 Y-0.8422
X2.8182 Y-0.8441
X2.8127 Y-0.8463
X2.8072 Y-0.8489
X2.8019 Y-0.8517
X2.7967 Y-0.8547
X2.7917 Y-0.858
X2.7865 Y-0.8616
X2.7813 Y-0.8656
X2.7758 Y-0.8702
X2.77 Y-0.8753
X2.7643 Y-0.8808
X2.7584 Y-0.8871
X2.7522 Y-0.894
X2.7461 Y-0.9013
X2.74 Y-0.9095
X2.7336 Y-0.9185
X2.7274 Y-0.9281
X2.7213 Y-0.9383
X2.7152 Y-0.9494
X2.7093 Y-0.9615
X2.7035 Y-0.9743
X2.6981 Y-0.9876
X2.693 Y-1.0018
X2.6882 Y-1.017
X2.6837 Y-1.0331
X2.6797 Y-1.0499
X2.6763 Y-1.0673
X2.6735 Y-1.0852
X2.6713 Y-1.1039
X2.6698 Y-1.1233
X2.6689 Y-1.1433
Y-1.1638
X2.6696 Y-1.1848
X2.6712 Y-1.2061
X2.6736 Y-1.2277
X2.6769 Y-1.2495
X2.681 Y-1.2715
X2.6861 Y-1.2935
X2.692 Y-1.3155
X2.6988 Y-1.3375
X2.7066 Y-1.3594
X2.7152 Y-1.3811
X2.7247 Y-1.4027
X2.7352 Y-1.4241
X2.7464 Y-1.4452
X2.7586 Y-1.4659
X2.7715 Y-1.486
X2.7849 Y-1.5054
X2.7985 Y-1.5236
X2.812 Y-1.5401
X2.8253 Y-1.5553
X2.8383 Y-1.569
X2.8497 Y-1.5802
X2.8605 Y-1.59
X2.8705 Y-1.5983
X2.8789 Y-1.6048
X2.8877 Y-1.6111
X2.9043 Y-1.6212
X2.9222 Y-1.6287
X2.941 Y-1.6335
X2.9603 Y-1.6354
X2.9797 Y-1.6344
X2.9987 Y-1.6305
X3.045 Y-1.6174
G3 X3.0676 Y-1.5975 I-0.0115 J0.0357
X3.0696 Y-1.5714 I-0.034 J0.0158 F300.
G1 X2.8689 Y-0.8683
G3 X2.8535 Y-0.8473 I-0.0361 J-0.0103
X2.8239 Y-0.8422 I-0.0207 J-0.0313 F60.
G1 X2.7817 Y-0.8542
X2.776 Y-0.8561
X2.7705 Y-0.8583
X2.765 Y-0.8609
X2.7598 Y-0.8637
X2.7546 Y-0.8668
X2.7496 Y-0.8701
X2.7446 Y-0.8737
X2.7395 Y-0.8777
X2.734 Y-0.8823
X2.7284 Y-0.8874
X2.7228 Y-0.8929
X2.7169 Y-0.8992
X2.7109 Y-0.906
X2.705 Y-0.9133
X2.6989 Y-0.9215
X2.6927 Y-0.9304
X2.6867 Y-0.9399
X2.6807 Y-0.9501
X2.6747 Y-0.9614
X2.6688 Y-0.9735
X2.6633 Y-0.986
X2.658 Y-0.9995
X2.6529 Y-1.0139
X2.6482 Y-1.0293
X2.6438 Y-1.0456
X2.64 Y-1.0623
X2.6367 Y-1.0798
X2.634 Y-1.0982
X2.6319 Y-1.1174
X2.6305 Y-1.1374
X2.6298 Y-1.158
X2.6299 Y-1.1792
X2.6308 Y-1.2007
X2.6326 Y-1.2226
X2.6353 Y-1.2447
X2.6388 Y-1.2672
X2.6433 Y-1.2899
X2.6488 Y-1.3128
X2.6552 Y-1.3358
X2.6626 Y-1.3589
X2.6709 Y-1.3819
X2.6802 Y-1.4047
X2.6905 Y-1.4274
X2.7016 Y-1.4497
X2.7135 Y-1.4715
X2.726 Y-1.4924
X2.739 Y-1.5124
X2.7523 Y-1.5313
X2.7652 Y-1.5481
X2.7778 Y-1.5634
X2.7901 Y-1.5771
X2.8008 Y-1.5882
X2.8121 Y-1.5991
X2.821 Y-1.607
X2.8297 Y-1.6142
X2.8388 Y-1.6212
X2.8462 Y-1.6263
X2.8476 Y-1.6273
X2.8638 Y-1.6362
X2.881 Y-1.6427
X2.899 Y-1.6467
X2.9173 Y-1.6482
X2.9357 Y-1.647
X2.9537 Y-1.6433
X2.9987 Y-1.6305
G3 X3.0213 Y-1.6106 I-0.0115 J0.0357
X3.0234 Y-1.5847 I-0.034 J0.0158 F300.
G1 X2.8268 Y-0.8805
G3 X2.8113 Y-0.8593 I-0.0361 J-0.0101
X2.7817 Y-0.8542 I-0.0207 J-0.0313 F60.
G1 X2.7424 Y-0.8653
X2.7364 Y-0.8673
X2.7308 Y-0.8695
X2.7253 Y-0.872
X2.72 Y-0.8748
X2.7148 Y-0.8778
X2.7098 Y-0.8811
X2.7049 Y-0.8845
X2.6998 Y-0.8885
X2.6945 Y-0.8929
X2.6892 Y-0.8977
X2.6836 Y-0.9032
X2.6777 Y-0.9093
X2.672 Y-0.9157
X2.6661 Y-0.923
X2.66 Y-0.931
X2.6541 Y-0.9395
X2.6481 Y-0.9488
X2.6421 Y-0.959
X2.6361 Y-0.97
X2.6305 Y-0.9815
X2.625 Y-0.994
X2.6196 Y-1.0075
X2.6144 Y-1.0219
X2.6097 Y-1.0369
X2.6054 Y-1.0527
X2.6015 Y-1.0695
X2.598 Y-1.0874
X2.5952 Y-1.1061
X2.5929 Y-1.1256
X2.5914 Y-1.1455
X2.5906 Y-1.166
X2.5907 Y-1.1872
X2.5915 Y-1.2091
X2.5932 Y-1.2315
X2.5959 Y-1.2545
X2.5994 Y-1.2778
X2.604 Y-1.3015
X2.6096 Y-1.3254
X2.6161 Y-1.3494
X2.6237 Y-1.3734
X2.6323 Y-1.3974
X2.6418 Y-1.4211
X2.6522 Y-1.4445
X2.6634 Y-1.4672
X2.6752 Y-1.4891
X2.6875 Y-1.5099
X2.7002 Y-1.5296
X2.7128 Y-1.5477
X2.7254 Y-1.5643
X2.7372 Y-1.5787
X2.7489 Y-1.592
X2.7593 Y-1.6028
X2.7687 Y-1.612
X2.7783 Y-1.6206
X2.786 Y-1.627
X2.7947 Y-1.6337
X2.8028 Y-1.6395
X2.819 Y-1.6485
X2.8363 Y-1.6551
X2.8544 Y-1.6592
X2.8728 Y-1.6607
X2.8913 Y-1.6596
X2.9095 Y-1.6558
X2.9537 Y-1.6433
G3 X2.9763 Y-1.6234 I-0.0115 J0.0357
X2.9785 Y-1.5978 I-0.034 J0.0158 F300.
G1 X2.7876 Y-0.8919
G3 X2.772 Y-0.8704 I-0.0362 J-0.0098
X2.7424 Y-0.8653 I-0.0207 J-0.0313 F60.
G1 X2.703 Y-0.8765
X2.696 Y-0.8788
X2.6904 Y-0.881
X2.685 Y-0.8835
X2.6797 Y-0.8862
X2.6745 Y-0.8893
X2.6695 Y-0.8926
X2.6646 Y-0.8961
X2.6596 Y-0.8999
X2.6544 Y-0.9043
X2.6489 Y-0.9092
X2.6435 Y-0.9145
X2.6378 Y-0.9205
X2.632 Y-0.9272
X2.6263 Y-0.9342
X2.6203 Y-0.9422
X2.6142 Y-0.9509
X2.6084 Y-0.96
X2.6025 Y-0.97
X2.5966 Y-0.981
X2.5909 Y-0.9929
X2.5854 Y-1.0052
X2.5801 Y-1.0186
X2.575 Y-1.0331
X2.5702 Y-1.0485
X2.5659 Y-1.0644
X2.562 Y-1.0812
X2.5586 Y-1.099
X2.5558 Y-1.1178
X2.5536 Y-1.1375
X2.5521 Y-1.1581
X2.5513 Y-1.179
X2.5514 Y-1.2006
X2.5523 Y-1.2229
X2.5541 Y-1.246
X2.5569 Y-1.2696
X2.5607 Y-1.2937
X2.5655 Y-1.3182
X2.5713 Y-1.3429
X2.5782 Y-1.3677
X2.5861 Y-1.3925
X2.5949 Y-1.4171
X2.6046 Y-1.4412
X2.6152 Y-1.4648
X2.6265 Y-1.4875
X2.6383 Y-1.5093
X2.6505 Y-1.5298
X2.663 Y-1.549
X2.6751 Y-1.5662
X2.6868 Y-1.5816
X2.6982 Y-1.5955
X2.7093 Y-1.608
X2.7184 Y-1.6175
X2.728 Y-1.6268
X2.7366 Y-1.6344
X2.7441 Y-1.6407
X2.7527 Y-1.6473
X2.7555 Y-1.6492
X2.772 Y-1.6592
X2.7898 Y-1.6665
X2.8086 Y-1.6712
X2.8278 Y-1.673
X2.847 Y-1.672
X2.8659 Y-1.6681
X2.9095 Y-1.6558
G3 X2.932 Y-1.6359 I-0.0115 J0.0357
X2.9343 Y-1.6106 I-0.034 J0.0158 F300.
G1 X2.7482 Y-0.9033
G3 X2.7326 Y-0.8816 I-0.0363 J-0.0095
X2.703 Y-0.8765 I-0.0207 J-0.0313 F60.
G1 X2.6614 Y-0.8882
X2.6557 Y-0.8902
X2.6502 Y-0.8923
X2.6447 Y-0.8949
X2.6394 Y-0.8977
X2.6343 Y-0.9008
X2.6293 Y-0.9041
X2.6244 Y-0.9076
X2.6194 Y-0.9115
X2.6142 Y-0.9159
X2.6088 Y-0.9208
X2.6034 Y-0.9262
X2.5977 Y-0.9322
X2.5919 Y-0.9389
X2.5862 Y-0.946
X2.5803 Y-0.9539
X2.5742 Y-0.9627
X2.5684 Y-0.972
X2.5625 Y-0.9821
X2.5567 Y-0.9931
X2.5509 Y-1.005
X2.5455 Y-1.0174
X2.5402 Y-1.0309
X2.5352 Y-1.0455
X2.5304 Y-1.0611
X2.5261 Y-1.0772
X2.5223 Y-1.0942
X2.5189 Y-1.1123
X2.5162 Y-1.1314
X2.514 Y-1.1515
X2.5126 Y-1.1724
X2.5119 Y-1.1937
X2.5121 Y-1.2158
X2.5131 Y-1.2387
X2.5151 Y-1.2625
X2.5181 Y-1.2868
X2.5221 Y-1.3116
X2.5272 Y-1.3368
X2.5333 Y-1.3622
X2.5404 Y-1.3875
X2.5486 Y-1.4127
X2.5576 Y-1.4376
X2.5676 Y-1.4619
X2.5783 Y-1.4855
X2.5896 Y-1.508
X2.6013 Y-1.5294
X2.6134 Y-1.5494
X2.6253 Y-1.5677
X2.6368 Y-1.5839
X2.6482 Y-1.5986
X2.6592 Y-1.6119
X2.6688 Y-1.6226
X2.6782 Y-1.6323
X2.6874 Y-1.6411
X2.6948 Y-1.6477
X2.7034 Y-1.6547
X2.7112 Y-1.6606
X2.7129 Y-1.6618
X2.7294 Y-1.6716
X2.7471 Y-1.6789
X2.7657 Y-1.6835
X2.7848 Y-1.6853
X2.804 Y-1.6842
X2.8228 Y-1.6804
X2.8659 Y-1.6681
G3 X2.8885 Y-1.6483 I-0.0115 J0.0357
X2.8907 Y-1.623 I-0.034 J0.0158 F300.
G1 X2.7067 Y-0.9152
G3 X2.691 Y-0.8934 I-0.0363 J-0.0094
X2.6614 Y-0.8882 I-0.0207 J-0.0313 F60.
G1 X2.6215 Y-0.8996
X2.6158 Y-0.9015
X2.6102 Y-0.9037
X2.6048 Y-0.9062
X2.5995 Y-0.909
X2.5944 Y-0.9121
X2.5894 Y-0.9155
X2.5845 Y-0.919
X2.5796 Y-0.9229
X2.5744 Y-0.9273
X2.569 Y-0.9323
X2.5636 Y-0.9376
X2.5579 Y-0.9437
X2.5521 Y-0.9504
X2.5464 Y-0.9575
X2.5405 Y-0.9655
X2.5345 Y-0.9743
X2.5287 Y-0.9835
X2.5228 Y-0.9937
X2.5169 Y-1.0049
X2.5112 Y-1.0168
X2.5058 Y-1.0292
X2.5005 Y-1.0428
X2.4954 Y-1.0576
X2.4907 Y-1.0733
X2.4865 Y-1.0894
X2.4826 Y-1.1067
X2.4793 Y-1.1251
X2.4765 Y-1.1446
X2.4744 Y-1.165
X2.473 Y-1.186
X2.4724 Y-1.2076
X2.4726 Y-1.2303
X2.4738 Y-1.2539
X2.4759 Y-1.2783
X2.479 Y-1.3032
X2.4832 Y-1.3286
X2.4884 Y-1.3543
X2.4947 Y-1.3802
X2.502 Y-1.4059
X2.5103 Y-1.4313
X2.5195 Y-1.4563
X2.5295 Y-1.4806
X2.5402 Y-1.504
X2.5514 Y-1.5261
X2.563 Y-1.547
X2.5748 Y-1.5666
X2.5862 Y-1.5839
X2.5974 Y-1.5996
X2.6084 Y-1.6138
X2.619 Y-1.6265
X2.6281 Y-1.6366
X2.6374 Y-1.6462
X2.6461 Y-1.6544
X2.6534 Y-1.6609
X2.6619 Y-1.6677
X2.6694 Y-1.6735
X2.6704 Y-1.6741
X2.6868 Y-1.6839
X2.7046 Y-1.6911
X2.7231 Y-1.6956
X2.7422 Y-1.6974
X2.7613 Y-1.6963
X2.78 Y-1.6925
X2.8228 Y-1.6804
G3 X2.8453 Y-1.6605 I-0.0115 J0.0357
X2.8477 Y-1.6354 I-0.034 J0.0158 F300.
G1 X2.6668 Y-0.9267
G3 X2.6511 Y-0.9047 I-0.0363 J-0.0093
X2.6215 Y-0.8996 I-0.0207 J-0.0313 F60.
G1 X2.5827 Y-0.9105
X2.5769 Y-0.9125
X2.5713 Y-0.9146
X2.5659 Y-0.9171
X2.5606 Y-0.9199
X2.5554 Y-0.923
X2.5504 Y-0.9263
X2.5455 Y-0.9298
X2.5406 Y-0.9337
X2.5354 Y-0.9381
X2.5301 Y-0.9429
X2.5247 Y-0.9482
X2.519 Y-0.9543
X2.5133 Y-0.9608
X2.5076 Y-0.9679
X2.5016 Y-0.9759
X2.4957 Y-0.9845
X2.4899 Y-0.9937
X2.484 Y-1.0039
X2.478 Y-1.015
X2.4725 Y-1.0266
X2.467 Y-1.0391
X2.4616 Y-1.0529
X2.4564 Y-1.0677
X2.4517 Y-1.0829
X2.4474 Y-1.0993
X2.4434 Y-1.1167
X2.44 Y-1.1354
X2.4371 Y-1.155
X2.4349 Y-1.1751
X2.4335 Y-1.1962
X2.4328 Y-1.2184
X2.4329 Y-1.2416
X2.434 Y-1.2657
X2.4361 Y-1.2906
X2.4392 Y-1.316
X2.4433 Y-1.3417
X2.4485 Y-1.3676
X2.4547 Y-1.3935
X2.462 Y-1.4194
X2.4702 Y-1.4451
X2.4794 Y-1.4703
X2.4894 Y-1.4947
X2.4999 Y-1.5178
X2.5108 Y-1.5397
X2.5221 Y-1.5603
X2.5337 Y-1.5795
X2.545 Y-1.5969
X2.5559 Y-1.6122
X2.5666 Y-1.6262
X2.5771 Y-1.6388
X2.586 Y-1.6488
X2.595 Y-1.6581
X2.6037 Y-1.6664
X2.6108 Y-1.6728
X2.6191 Y-1.6796
X2.6267 Y-1.6853
X2.6275 Y-1.6859
X2.644 Y-1.6957
X2.6618 Y-1.703
X2.6804 Y-1.7076
X2.6995 Y-1.7094
X2.7187 Y-1.7084
X2.7375 Y-1.7045
X2.78 Y-1.6925
G3 X2.8025 Y-1.6726 I-0.0115 J0.0357
X2.8049 Y-1.6477 I-0.034 J0.0158 F300.
G1 X2.6281 Y-0.9379
G3 X2.6123 Y-0.9157 I-0.0364 J-0.0091
X2.5827 Y-0.9105 I-0.0207 J-0.0313 F60.
G1 X2.5428 Y-0.9219
X2.5371 Y-0.9238
X2.5315 Y-0.9259
X2.5261 Y-0.9285
X2.5208 Y-0.9313
X2.5156 Y-0.9344
X2.5106 Y-0.9377
X2.5058 Y-0.9412
X2.5009 Y-0.9451
X2.4957 Y-0.9495
X2.4903 Y-0.9544
X2.4849 Y-0.9597
X2.4793 Y-0.9658
X2.4735 Y-0.9725
X2.4678 Y-0.9796
X2.4618 Y-0.9876
X2.4558 Y-0.9964
X2.45 Y-1.0056
X2.4442 Y-1.0157
X2.4382 Y-1.027
X2.4325 Y-1.0388
X2.4271 Y-1.0514
X2.4217 Y-1.0652
X2.4165 Y-1.0802
X2.4117 Y-1.0959
X2.4075 Y-1.1122
X2.4035 Y-1.1298
X2.4001 Y-1.1486
X2.3972 Y-1.1686
X2.395 Y-1.1894
X2.3936 Y-1.2108
X2.393 Y-1.2333
X2.3932 Y-1.2569
X2.3943 Y-1.2814
X2.3965 Y-1.3065
X2.3997 Y-1.3322
X2.404 Y-1.3583
X2.4093 Y-1.3847
X2.4157 Y-1.411
X2.4231 Y-1.437
X2.4314 Y-1.4626
X2.4405 Y-1.4875
X2.4504 Y-1.5115
X2.4609 Y-1.5345
X2.4719 Y-1.5562
X2.4831 Y-1.5765
X2.4944 Y-1.5952
X2.5052 Y-1.6117
X2.516 Y-1.6269
X2.5265 Y-1.6405
X2.5367 Y-1.6527
X2.5451 Y-1.662
X2.5543 Y-1.6715
X2.5625 Y-1.6793
X2.5696 Y-1.6855
X2.5779 Y-1.6923
X2.5855 Y-1.6981
X2.602 Y-1.7078
X2.6197 Y-1.7151
X2.6383 Y-1.7196
X2.6574 Y-1.7214
X2.6765 Y-1.7203
X2.6952 Y-1.7165
X2.7375 Y-1.7045
G3 X2.7601 Y-1.6846 I-0.0115 J0.0357
X2.7625 Y-1.6599 I-0.034 J0.0158 F300.
G1 X2.5882 Y-0.9493
G3 X2.5724 Y-0.927 I-0.0364 J-0.0089
X2.5428 Y-0.9219 I-0.0207 J-0.0313 F60.
G1 X2.504 Y-0.9329
X2.4981 Y-0.9349
X2.4925 Y-0.937
X2.487 Y-0.9395
X2.4817 Y-0.9423
X2.4765 Y-0.9454
X2.4715 Y-0.9487
X2.4667 Y-0.9522
X2.4618 Y-0.956
X2.4565 Y-0.9604
X2.4513 Y-0.9653
X2.4458 Y-0.9706
X2.4401 Y-0.9767
X2.4345 Y-0.9832
X2.4287 Y-0.9903
X2.4227 Y-0.9984
X2.4168 Y-1.007
X2.4109 Y-1.0162
X2.405 Y-1.0265
X2.399 Y-1.0377
X2.3934 Y-1.0493
X2.3878 Y-1.062
X2.3824 Y-1.076
X2.3771 Y-1.0909
X2.3724 Y-1.1064
X2.368 Y-1.123
X2.364 Y-1.1409
X2.3604 Y-1.16
X2.3575 Y-1.1799
X2.3553 Y-1.2004
X2.3538 Y-1.2222
X2.3531 Y-1.2451
X2.3532 Y-1.2691
X2.3544 Y-1.2939
X2.3565 Y-1.3194
X2.3597 Y-1.3453
X2.3639 Y-1.3715
X2.3691 Y-1.3978
X2.3754 Y-1.4241
X2.3828 Y-1.4503
X2.3911 Y-1.476
X2.4002 Y-1.501
X2.41 Y-1.525
X2.4203 Y-1.5476
X2.431 Y-1.5691
X2.4421 Y-1.5892
X2.4532 Y-1.6078
X2.464 Y-1.6242
X2.4745 Y-1.6391
X2.4849 Y-1.6526
X2.4949 Y-1.6647
X2.5033 Y-1.674
X2.5122 Y-1.6833
X2.5204 Y-1.6911
X2.5274 Y-1.6974
X2.5356 Y-1.7041
X2.5432 Y-1.7098
X2.5597 Y-1.7196
X2.5774 Y-1.7269
X2.5961 Y-1.7315
X2.6152 Y-1.7333
X2.6344 Y-1.7323
X2.6532 Y-1.7284
X2.6952 Y-1.7165
G3 X2.7178 Y-1.6966 I-0.0115 J0.0357
X2.7202 Y-1.672 I-0.034 J0.0158 F300.
G1 X2.5494 Y-0.9605
G3 X2.5336 Y-0.938 I-0.0365 J-0.0088
X2.504 Y-0.9329 I-0.0207 J-0.0313 F60.
G1 X2.4641 Y-0.9442
X2.4584 Y-0.9461
X2.4528 Y-0.9482
X2.4474 Y-0.9508
X2.4421 Y-0.9536
X2.4369 Y-0.9567
X2.4319 Y-0.96
X2.427 Y-0.9635
X2.4222 Y-0.9673
X2.4169 Y-0.9718
X2.4116 Y-0.9767
X2.4062 Y-0.982
X2.4005 Y-0.9881
X2.3947 Y-0.9947
X2.389 Y-1.0018
X2.383 Y-1.0099
X2.3769 Y-1.0187
X2.3711 Y-1.0279
X2.3652 Y-1.0382
X2.3592 Y-1.0495
X2.3535 Y-1.0614
X2.3479 Y-1.0742
X2.3424 Y-1.0882
X2.3371 Y-1.1034
X2.3324 Y-1.119
X2.328 Y-1.1357
X2.3239 Y-1.1537
X2.3204 Y-1.173
X2.3174 Y-1.1934
X2.3152 Y-1.2142
X2.3137 Y-1.2362
X2.313 Y-1.2594
X2.3132 Y-1.2836
X2.3144 Y-1.3086
X2.3166 Y-1.3343
X2.3198 Y-1.3605
X2.3241 Y-1.3869
X2.3295 Y-1.4135
X2.3358 Y-1.4399
X2.3432 Y-1.466
X2.3515 Y-1.4915
X2.3605 Y-1.5162
X2.3703 Y-1.54
X2.3806 Y-1.5626
X2.3913 Y-1.5838
X2.4022 Y-1.6038
X2.4131 Y-1.6218
X2.4236 Y-1.6379
X2.4341 Y-1.6527
X2.4443 Y-1.6659
X2.4541 Y-1.6777
X2.4622 Y-1.6867
X2.4712 Y-1.696
X2.4791 Y-1.7035
X2.4861 Y-1.7097
X2.4943 Y-1.7164
X2.4975 Y-1.7188
X2.5119 Y-1.7283
X2.5273 Y-1.7357
X2.5436 Y-1.7411
X2.5604 Y-1.7443
X2.5775 Y-1.7452
X2.5946 Y-1.7438
X2.6114 Y-1.7403
X2.6532 Y-1.7284
G3 X2.6757 Y-1.7085 I-0.0115 J0.0357
X2.6782 Y-1.6841 I-0.034 J0.0158 F300.
G1 X2.5095 Y-0.9719
G3 X2.4937 Y-0.9493 I-0.0365 J-0.0086
X2.4641 Y-0.9442 I-0.0207 J-0.0313 F60.
G1 X2.4253 Y-0.9552
X2.4192 Y-0.9572
X2.4136 Y-0.9594
X2.4081 Y-0.9618
X2.4028 Y-0.9647
X2.3977 Y-0.9677
X2.3927 Y-0.971
X2.3878 Y-0.9745
X2.3829 Y-0.9784
X2.3776 Y-0.9828
X2.3723 Y-0.9876
X2.3669 Y-0.993
X2.3611 Y-0.9991
X2.3554 Y-1.0056
X2.3496 Y-1.0128
X2.3436 Y-1.0209
X2.3376 Y-1.0296
X2.3317 Y-1.0389
X2.3257 Y-1.0492
X2.3197 Y-1.0605
X2.314 Y-1.0723
X2.3083 Y-1.0852
X2.3028 Y-1.0994
X2.2975 Y-1.1144
X2.2927 Y-1.13
X2.2882 Y-1.147
X2.2841 Y-1.1652
X2.2805 Y-1.1847
X2.2775 Y-1.2048
X2.2752 Y-1.2258
X2.2737 Y-1.2481
X2.2729 Y-1.2715
X2.2731 Y-1.2959
X2.2742 Y-1.3212
X2.2764 Y-1.3471
X2.2795 Y-1.3733
X2.2838 Y-1.3997
X2.289 Y-1.4262
X2.2954 Y-1.4527
X2.3027 Y-1.4788
X2.3109 Y-1.5044
X2.32 Y-1.5292
X2.3296 Y-1.5528
X2.3397 Y-1.5752
X2.3503 Y-1.5963
X2.3611 Y-1.616
X2.3719 Y-1.634
X2.3823 Y-1.65
X2.3927 Y-1.6646
X2.4028 Y-1.6778
X2.4119 Y-1.6888
X2.4209 Y-1.6989
X2.4293 Y-1.7076
X2.4368 Y-1.7147
X2.445 Y-1.722
X2.4519 Y-1.7277
X2.4595 Y-1.7335
X2.476 Y-1.7433
X2.4938 Y-1.7506
X2.5124 Y-1.7552
X2.5315 Y-1.757
X2.5507 Y-1.756
X2.5695 Y-1.7521
X2.6114 Y-1.7403
G3 X2.6339 Y-1.7204 I-0.0115 J0.0357
X2.6364 Y-1.6961 I-0.034 J0.0158 F300.
G1 X2.4708 Y-0.9831
G3 X2.4549 Y-0.9603 I-0.0365 J-0.0085
X2.4253 Y-0.9552 I-0.0207 J-0.0313 F60.
G1 X2.3854 Y-0.9665
X2.3797 Y-0.9684
X2.3741 Y-0.9705
X2.3686 Y-0.973
X2.3633 Y-0.9758
X2.3582 Y-0.9789
X2.3532 Y-0.9822
X2.3483 Y-0.9857
X2.3434 Y-0.9895
X2.3381 Y-0.994
X2.3328 Y-0.9988
X2.3273 Y-1.0042
X2.3216 Y-1.0103
X2.3158 Y-1.0169
X2.31 Y-1.0241
X2.3039 Y-1.0322
X2.2979 Y-1.0409
X2.292 Y-1.0502
X2.2859 Y-1.0606
X2.2799 Y-1.072
X2.2742 Y-1.0838
X2.2685 Y-1.0968
X2.2629 Y-1.111
X2.2576 Y-1.1262
X2.2527 Y-1.1419
X2.2482 Y-1.1589
X2.244 Y-1.1773
X2.2403 Y-1.1969
X2.2374 Y-1.2172
X2.2351 Y-1.2384
X2.2335 Y-1.2609
X2.2327 Y-1.2845
X2.2329 Y-1.309
X2.234 Y-1.3344
X2.2361 Y-1.3604
X2.2393 Y-1.3867
X2.2435 Y-1.4133
X2.2488 Y-1.4399
X2.2552 Y-1.4664
X2.2625 Y-1.4925
X2.2706 Y-1.5179
X2.2796 Y-1.5425
X2.2891 Y-1.566
X2.2992 Y-1.5883
X2.3097 Y-1.6093
X2.3205 Y-1.6289
X2.331 Y-1.6466
X2.3413 Y-1.6624
X2.3516 Y-1.6769
X2.3616 Y-1.69
X2.3712 Y-1.7016
X2.3791 Y-1.7104
X2.388 Y-1.7196
X2.3958 Y-1.7271
X2.4027 Y-1.7333
X2.4108 Y-1.7399
X2.4139 Y-1.7423
X2.4282 Y-1.7518
X2.4437 Y-1.7593
X2.46 Y-1.7647
X2.4769 Y-1.7679
X2.494 Y-1.7688
X2.5112 Y-1.7675
X2.528 Y-1.7639
X2.5695 Y-1.7521
G3 X2.5921 Y-1.7322 I-0.0115 J0.0357
X2.5946 Y-1.708 I-0.034 J0.0158 F300.
G1 X2.4309 Y-0.9945
G3 X2.415 Y-0.9716 I-0.0365 J-0.0084
X2.3854 Y-0.9665 I-0.0207 J-0.0313 F60.
G1 X2.3466 Y-0.9775
X2.3401 Y-0.9797
X2.3345 Y-0.9818
X2.329 Y-0.9843
X2.3237 Y-0.9871
X2.3186 Y-0.9902
X2.3135 Y-0.9934
X2.3087 Y-0.997
X2.3037 Y-1.0008
X2.2984 Y-1.0052
X2.2931 Y-1.0101
X2.2876 Y-1.0155
X2.2819 Y-1.0216
X2.2761 Y-1.0282
X2.2703 Y-1.0354
X2.2642 Y-1.0436
X2.2581 Y-1.0523
X2.2522 Y-1.0616
X2.2461 Y-1.0721
X2.24 Y-1.0834
X2.2343 Y-1.0953
X2.2285 Y-1.1084
X2.2229 Y-1.1227
X2.2175 Y-1.1379
X2.2127 Y-1.1537
X2.2081 Y-1.1708
X2.2039 Y-1.1894
X2.2002 Y-1.2091
X2.1971 Y-1.2294
X2.1948 Y-1.2508
X2.1932 Y-1.2734
X2.1924 Y-1.2972
X2.1925 Y-1.3219
X2.1937 Y-1.3474
X2.1958 Y-1.3735
X2.199 Y-1.3999
X2.2032 Y-1.4265
X2.2085 Y-1.4531
X2.2148 Y-1.4796
X2.222 Y-1.5057
X2.2302 Y-1.5311
X2.2391 Y-1.5556
X2.2486 Y-1.579
X2.2586 Y-1.6011
X2.269 Y-1.6219
X2.2796 Y-1.6415
X2.2901 Y-1.6589
X2.3003 Y-1.6747
X2.3106 Y-1.6892
X2.3204 Y-1.7021
X2.3293 Y-1.7128
X2.3383 Y-1.7229
X2.3465 Y-1.7313
X2.3538 Y-1.7384
X2.362 Y-1.7457
X2.3688 Y-1.7513
X2.3762 Y-1.7569
X2.3927 Y-1.7668
X2.4105 Y-1.7741
X2.4292 Y-1.7788
X2.4483 Y-1.7806
X2.4675 Y-1.7795
X2.4864 Y-1.7757
X2.528 Y-1.7639
G3 X2.5505 Y-1.744 I-0.0115 J0.0357
X2.5531 Y-1.7199 I-0.034 J0.0158 F300.
G1 X2.3921 Y-1.0056
G3 X2.3762 Y-0.9826 I-0.0366 J-0.0082
X2.3466 Y-0.9775 I-0.0207 J-0.0313 F60.
G1 X2.3067 Y-0.9888
X2.3004 Y-0.9909
X2.2948 Y-0.993
X2.2894 Y-0.9955
X2.2841 Y-0.9983
X2.2789 Y-1.0014
X2.2739 Y-1.0047
X2.269 Y-1.0082
X2.2641 Y-1.012
X2.2588 Y-1.0165
X2.2534 Y-1.0213
X2.2479 Y-1.0267
X2.2421 Y-1.0328
X2.2364 Y-1.0394
X2.2305 Y-1.0467
X2.2243 Y-1.0549
X2.2183 Y-1.0636
X2.2123 Y-1.073
X2.2062 Y-1.0835
X2.2001 Y-1.0949
X2.1943 Y-1.1068
X2.1885 Y-1.12
X2.1828 Y-1.1344
X2.1775 Y-1.1495
X2.1725 Y-1.1654
X2.1679 Y-1.1827
X2.1636 Y-1.2014
X2.1599 Y-1.2212
X2.1569 Y-1.2416
X2.1545 Y-1.2631
X2.1529 Y-1.2858
X2.1521 Y-1.3097
X2.1522 Y-1.3346
X2.1533 Y-1.3602
X2.1554 Y-1.3863
X2.1585 Y-1.4128
X2.1627 Y-1.4394
X2.168 Y-1.466
X2.1743 Y-1.4925
X2.1815 Y-1.5185
X2.1896 Y-1.5439
X2.1984 Y-1.5683
X2.2079 Y-1.5916
X2.2178 Y-1.6136
X2.2282 Y-1.6344
X2.2387 Y-1.6538
X2.2491 Y-1.6711
X2.2593 Y-1.6868
X2.2693 Y-1.7011
X2.2792 Y-1.714
X2.2886 Y-1.7254
X2.2964 Y-1.7342
X2.3052 Y-1.7433
X2.3129 Y-1.7507
X2.3198 Y-1.7568
X2.3278 Y-1.7635
X2.3307 Y-1.7657
X2.3451 Y-1.7752
X2.3606 Y-1.7827
X2.3769 Y-1.7882
X2.3938 Y-1.7914
X2.411 Y-1.7923
X2.4282 Y-1.791
X2.445 Y-1.7874
X2.4864 Y-1.7757
G3 X2.5089 Y-1.7558 I-0.0115 J0.0357
X2.5115 Y-1.7318 I-0.034 J0.0158 F300.
G1 X2.3522 Y-1.017
G3 X2.3363 Y-0.9939 I-0.0366 J-0.0082
X2.3067 Y-0.9888 I-0.0207 J-0.0313 F60.
G1 X2.266 Y-1.0003
X2.2603 Y-1.0022
X2.2547 Y-1.0044
X2.2493 Y-1.0069
X2.244 Y-1.0097
X2.2388 Y-1.0128
X2.2338 Y-1.0161
X2.2289 Y-1.0196
X2.224 Y-1.0235
X2.2186 Y-1.028
X2.2132 Y-1.0329
X2.2077 Y-1.0383
X2.2019 Y-1.0445
X2.1961 Y-1.0512
X2.1902 Y-1.0585
X2.184 Y-1.0668
X2.1779 Y-1.0756
X2.1719 Y-1.0851
X2.1658 Y-1.0956
X2.1596 Y-1.1072
X2.1538 Y-1.1192
X2.148 Y-1.1325
X2.1423 Y-1.147
X2.1369 Y-1.1624
X2.132 Y-1.1784
X2.1273 Y-1.1958
X2.1231 Y-1.2146
X2.1194 Y-1.2347
X2.1163 Y-1.2553
X2.114 Y-1.2769
X2.1124 Y-1.2999
X2.1116 Y-1.3239
X2.1118 Y-1.3488
X2.1129 Y-1.3745
X2.1151 Y-1.4008
X2.1183 Y-1.4274
X2.1226 Y-1.4541
X2.1279 Y-1.4807
X2.1342 Y-1.5071
X2.1415 Y-1.533
X2.1496 Y-1.5582
X2.1584 Y-1.5825
X2.1679 Y-1.6057
X2.1778 Y-1.6276
X2.1881 Y-1.6482
X2.1986 Y-1.6673
X2.2088 Y-1.6843
X2.219 Y-1.6999
X2.229 Y-1.7141
X2.2387 Y-1.7267
X2.2473 Y-1.7371
X2.2564 Y-1.7472
X2.2642 Y-1.7554
X2.2717 Y-1.7625
X2.2797 Y-1.7696
X2.2864 Y-1.7751
X2.2896 Y-1.7775
X2.3039 Y-1.787
X2.3194 Y-1.7945
X2.3357 Y-1.7999
X2.3526 Y-1.8031
X2.3697 Y-1.804
X2.3868 Y-1.8027
X2.4036 Y-1.7991
X2.445 Y-1.7874
G3 X2.4675 Y-1.7675 I-0.0115 J0.0357
X2.4701 Y-1.7436 I-0.034 J0.0158 F300.
G1 X2.3116 Y-1.0286
G3 X2.2956 Y-1.0054 I-0.0366 J-0.0081
X2.266 Y-1.0003 I-0.0207 J-0.0313 F60.
G1 X2.2252 Y-1.0119
X2.2195 Y-1.0138
X2.2139 Y-1.016
X2.2085 Y-1.0186
X2.2032 Y-1.0215
X2.1981 Y-1.0246
X2.1931 Y-1.0279
X2.1881 Y-1.0316
X2.1831 Y-1.0355
X2.1777 Y-1.0401
X2.1723 Y-1.0452
X2.1667 Y-1.0507
X2.1609 Y-1.057
X2.155 Y-1.0638
X2.1491 Y-1.0713
X2.1429 Y-1.0797
X2.1367 Y-1.0887
X2.1307 Y-1.0984
X2.1245 Y-1.1091
X2.1184 Y-1.1209
X2.1125 Y-1.1332
X2.1067 Y-1.1466
X2.101 Y-1.1614
X2.0956 Y-1.1772
X2.0907 Y-1.1934
X2.0862 Y-1.211
X2.082 Y-1.23
X2.0784 Y-1.2504
X2.0754 Y-1.2716
X2.0732 Y-1.2934
X2.0717 Y-1.3165
X2.0711 Y-1.3407
X2.0714 Y-1.3658
X2.0727 Y-1.3917
X2.0751 Y-1.418
X2.0785 Y-1.4447
X2.083 Y-1.4715
X2.0885 Y-1.4981
X2.0949 Y-1.5245
X2.1023 Y-1.5502
X2.1106 Y-1.5752
X2.1195 Y-1.5994
X2.1291 Y-1.6223
X2.1391 Y-1.644
X2.1494 Y-1.6643
X2.1596 Y-1.6826
X2.1697 Y-1.6993
X2.1799 Y-1.7147
X2.1897 Y-1.7284
X2.1993 Y-1.7407
X2.2077 Y-1.7507
X2.2167 Y-1.7606
X2.2243 Y-1.7684
X2.2319 Y-1.7756
X2.2397 Y-1.7824
X2.2463 Y-1.7878
X2.249 Y-1.7898
X2.2632 Y-1.7991
X2.2786 Y-1.8064
X2.2948 Y-1.8117
X2.3116 Y-1.8148
X2.3287 Y-1.8157
X2.3457 Y-1.8144
X2.3623 Y-1.8108
X2.4036 Y-1.7991
G3 X2.4262 Y-1.7792 I-0.0115 J0.0357
X2.4288 Y-1.7553 I-0.034 J0.0158 F300.
G1 X2.2707 Y-1.0402
G3 X2.2548 Y-1.017 I-0.0366 J-0.0081
X2.2252 Y-1.0119 I-0.0207 J-0.0313 F60.
G1 X2.1857 Y-1.023
X2.1801 Y-1.0249
X2.1745 Y-1.0271
X2.169 Y-1.0297
X2.1637 Y-1.0325
X2.1586 Y-1.0356
X2.1536 Y-1.0389
X2.1487 Y-1.0424
X2.1436 Y-1.0464
X2.1383 Y-1.051
X2.1329 Y-1.0559
X2.1272 Y-1.0615
X2.1214 Y-1.0677
X2.1156 Y-1.0744
X2.1095 Y-1.0819
X2.1034 Y-1.0902
X2.0973 Y-1.099
X2.0911 Y-1.1088
X2.0849 Y-1.1196
X2.0789 Y-1.1309
X2.0729 Y-1.1433
X2.067 Y-1.157
X2.0613 Y-1.1716
X2.056 Y-1.1868
X2.0509 Y-1.2033
X2.0462 Y-1.2212
X2.0419 Y-1.2403
X2.0383 Y-1.26
X2.0353 Y-1.2808
X2.0329 Y-1.3029
X2.0313 Y-1.3262
X2.0306 Y-1.3506
X2.0308 Y-1.3758
X2.032 Y-1.4016
X2.0342 Y-1.4278
X2.0375 Y-1.4542
X2.0418 Y-1.4808
X2.0472 Y-1.5075
X2.0536 Y-1.5341
X2.0609 Y-1.5601
X2.0691 Y-1.5853
X2.0779 Y-1.6094
X2.0872 Y-1.6321
X2.097 Y-1.6537
X2.1072 Y-1.6739
X2.1176 Y-1.6928
X2.1277 Y-1.7096
X2.1377 Y-1.7248
X2.1476 Y-1.7387
X2.1572 Y-1.7513
X2.1657 Y-1.7615
X2.1745 Y-1.7713
X2.1824 Y-1.7794
X2.1897 Y-1.7864
X2.1977 Y-1.7935
X2.2044 Y-1.7989
X2.2072 Y-1.8011
X2.2215 Y-1.8105
X2.237 Y-1.818
X2.2533 Y-1.8233
X2.2701 Y-1.8265
X2.2872 Y-1.8274
X2.3043 Y-1.8261
X2.3211 Y-1.8225
X2.3623 Y-1.8108
G3 X2.3849 Y-1.7909 I-0.0115 J0.0357
X2.3875 Y-1.7671 I-0.034 J0.0158 F300.
G1 X2.2313 Y-1.0514
G3 X2.2154 Y-1.0281 I-0.0366 J-0.008
X2.1857 Y-1.023 I-0.0207 J-0.0313 F60.
G1 X2.1464 Y-1.0342
X2.1408 Y-1.0361
X2.1351 Y-1.0382
X2.1297 Y-1.0407
X2.1244 Y-1.0435
X2.1192 Y-1.0466
X2.1142 Y-1.0499
X2.1093 Y-1.0533
X2.1042 Y-1.0573
X2.0989 Y-1.0618
X2.0935 Y-1.0666
X2.0879 Y-1.0721
X2.082 Y-1.0783
X2.0762 Y-1.0849
X2.0701 Y-1.0923
X2.064 Y-1.1006
X2.0579 Y-1.1092
X2.0517 Y-1.1189
X2.0454 Y-1.1297
X2.0394 Y-1.1409
X2.0334 Y-1.1532
X2.0274 Y-1.1668
X2.0216 Y-1.1812
X2.0163 Y-1.1963
X2.0112 Y-1.2127
X2.0064 Y-1.2305
X2.002 Y-1.2496
X1.9983 Y-1.2691
X1.9951 Y-1.2899
X1.9927 Y-1.3121
X1.991 Y-1.3353
X1.9901 Y-1.3596
X1.9902 Y-1.3847
X1.9912 Y-1.4104
X1.9933 Y-1.4364
X1.9964 Y-1.4628
X2.0005 Y-1.4896
X2.0058 Y-1.5164
X2.012 Y-1.543
X2.0192 Y-1.569
X2.0272 Y-1.5943
X2.0359 Y-1.6184
X2.0452 Y-1.6413
X2.0549 Y-1.6629
X2.0649 Y-1.6832
X2.0753 Y-1.7023
X2.0854 Y-1.7193
X2.0953 Y-1.7347
X2.1052 Y-1.7487
X2.1149 Y-1.7614
X2.1234 Y-1.7719
X2.1322 Y-1.7817
X2.1402 Y-1.7901
X2.1475 Y-1.7971
X2.1555 Y-1.8043
X2.1623 Y-1.8099
X2.1654 Y-1.8123
X2.1798 Y-1.8219
X2.1953 Y-1.8294
X2.2117 Y-1.8349
X2.2286 Y-1.8381
X2.2458 Y-1.8391
X2.263 Y-1.8378
X2.2799 Y-1.8342
X2.3211 Y-1.8225
G3 X2.3436 Y-1.8026 I-0.0115 J0.0357
X2.3463 Y-1.7789 I-0.034 J0.0158 F300.
G1 X2.1921 Y-1.0627
G3 X2.176 Y-1.0393 I-0.0367 J-0.0079
X2.1464 Y-1.0342 I-0.0207 J-0.0313 F60.
G1 X2.107 Y-1.0453
X2.1006 Y-1.0475
X2.095 Y-1.0496
X2.0896 Y-1.0521
X2.0843 Y-1.0549
X2.0791 Y-1.058
X2.0741 Y-1.0612
X2.0692 Y-1.0647
X2.0641 Y-1.0686
X2.0587 Y-1.0731
X2.0534 Y-1.078
X2.0478 Y-1.0834
X2.0419 Y-1.0897
X2.0361 Y-1.0963
X2.03 Y-1.1037
X2.0238 Y-1.1119
X2.0177 Y-1.1207
X2.0115 Y-1.1303
X2.0052 Y-1.141
X1.9991 Y-1.1524
X1.9931 Y-1.1646
X1.9871 Y-1.1781
X1.9813 Y-1.1927
X1.9759 Y-1.2079
X1.9708 Y-1.2242
X1.966 Y-1.242
X1.9616 Y-1.2611
X1.9577 Y-1.2811
X1.9546 Y-1.3018
X1.9521 Y-1.3238
X1.9504 Y-1.347
X1.9495 Y-1.3712
Y-1.3963
X1.9506 Y-1.4222
X1.9526 Y-1.4485
X1.9557 Y-1.4751
X1.9599 Y-1.5018
X1.9651 Y-1.5286
X1.9713 Y-1.555
X1.9784 Y-1.5809
X1.9863 Y-1.6059
X1.9949 Y-1.63
X2.0042 Y-1.6529
X2.0139 Y-1.6746
X2.024 Y-1.695
X2.0342 Y-1.714
X2.0442 Y-1.7308
X2.0542 Y-1.7463
X2.0641 Y-1.7603
X2.0736 Y-1.7729
X2.0822 Y-1.7833
X2.091 Y-1.7934
X2.0989 Y-1.8016
X2.1062 Y-1.8086
X2.1142 Y-1.8158
X2.1209 Y-1.8214
X2.1242 Y-1.8239
X2.1386 Y-1.8335
X2.1541 Y-1.8411
X2.1704 Y-1.8465
X2.1874 Y-1.8498
X2.2046 Y-1.8508
X2.2218 Y-1.8494
X2.2387 Y-1.8458
X2.2799 Y-1.8342
G3 X2.3024 Y-1.8143 I-0.0115 J0.0357
X2.3051 Y-1.7907 I-0.034 J0.0158 F300.
G1 X2.1527 Y-1.0739
G3 X2.1366 Y-1.0504 I-0.0367 J-0.0078
X2.107 Y-1.0453 I-0.0207 J-0.0313 F60.
G1 X2.0654 Y-1.0571
X2.0598 Y-1.059
X2.0542 Y-1.0612
X2.0487 Y-1.0638
X2.0434 Y-1.0666
X2.0383 Y-1.0697
X2.0333 Y-1.073
X2.0283 Y-1.0766
X2.0233 Y-1.0805
X2.0179 Y-1.0851
X2.0124 Y-1.09
X2.0068 Y-1.0955
X2.0009 Y-1.1018
X1.995 Y-1.1086
X1.989 Y-1.1161
X1.9827 Y-1.1244
X1.9765 Y-1.1334
X1.9704 Y-1.1431
X1.9641 Y-1.1539
X1.9579 Y-1.1656
X1.9519 Y-1.1779
X1.946 Y-1.1915
X1.9401 Y-1.2063
X1.9347 Y-1.2219
X1.9296 Y-1.2383
X1.9249 Y-1.2561
X1.9205 Y-1.2753
X1.9167 Y-1.2957
X1.9136 Y-1.3168
X1.9112 Y-1.3388
X1.9096 Y-1.362
X1.9088 Y-1.3864
X1.909 Y-1.4116
X1.9101 Y-1.4376
X1.9123 Y-1.4641
X1.9156 Y-1.4908
X1.9199 Y-1.5176
X1.9252 Y-1.5442
X1.9314 Y-1.5705
X1.9386 Y-1.5961
X1.9466 Y-1.6211
X1.9554 Y-1.6451
X1.9647 Y-1.6679
X1.9745 Y-1.6895
X1.9846 Y-1.7098
X1.9946 Y-1.728
X2.0046 Y-1.7447
X2.0146 Y-1.7601
X2.0244 Y-1.7738
X2.0338 Y-1.7861
X2.0421 Y-1.7962
X2.0511 Y-1.8063
X2.0587 Y-1.8141
X2.0662 Y-1.8213
X2.074 Y-1.8283
X2.0806 Y-1.8337
X2.0835 Y-1.8359
X2.0979 Y-1.8454
X2.1133 Y-1.8529
X2.1296 Y-1.8583
X2.1465 Y-1.8615
X2.1637 Y-1.8624
X2.1808 Y-1.8611
X2.1976 Y-1.8575
X2.2387 Y-1.8458
G3 X2.2613 Y-1.826 I-0.0115 J0.0357
X2.2639 Y-1.8023 I-0.034 J0.0158 F300.
G1 X2.1111 Y-1.0857
G3 X2.0951 Y-1.0622 I-0.0367 J-0.0078
X2.0654 Y-1.0571 I-0.0207 J-0.0313 F60.
G1 X2.0255 Y-1.0684
X2.0198 Y-1.0703
X2.0142 Y-1.0725
X2.0088 Y-1.075
X2.0035 Y-1.0778
X1.9983 Y-1.0809
X1.9933 Y-1.0842
X1.9884 Y-1.0877
X1.9833 Y-1.0916
X1.9779 Y-1.0962
X1.9725 Y-1.1011
X1.9668 Y-1.1066
X1.9609 Y-1.1129
X1.9551 Y-1.1195
X1.949 Y-1.127
X1.9427 Y-1.1354
X1.9366 Y-1.1442
X1.9304 Y-1.154
X1.924 Y-1.1648
X1.9179 Y-1.1761
X1.9119 Y-1.1885
X1.9058 Y-1.2023
X1.9 Y-1.217
X1.8946 Y-1.2322
X1.8894 Y-1.2488
X1.8846 Y-1.2668
X1.8802 Y-1.286
X1.8764 Y-1.3059
X1.8733 Y-1.3268
X1.8708 Y-1.349
X1.8691 Y-1.3725
X1.8682 Y-1.397
X1.8683 Y-1.4223
X1.8694 Y-1.4482
X1.8715 Y-1.4745
X1.8746 Y-1.501
X1.8788 Y-1.5277
X1.884 Y-1.5544
X1.8902 Y-1.5808
X1.8974 Y-1.6066
X1.9054 Y-1.6317
X1.914 Y-1.6556
X1.9232 Y-1.6783
X1.9328 Y-1.6998
X1.9429 Y-1.72
X1.9531 Y-1.7387
X1.963 Y-1.7554
X1.9729 Y-1.7706
X1.9827 Y-1.7846
X1.9922 Y-1.7971
X2.0006 Y-1.8073
X2.0094 Y-1.8172
X2.0172 Y-1.8254
X2.0245 Y-1.8324
X2.0325 Y-1.8395
X2.0391 Y-1.845
X2.0421 Y-1.8473
X2.0565 Y-1.8569
X2.072 Y-1.8644
X2.0883 Y-1.8699
X2.1053 Y-1.8731
X2.1225 Y-1.8741
X2.1397 Y-1.8727
X2.1565 Y-1.8691
X2.1976 Y-1.8575
G3 X2.2201 Y-1.8376 I-0.0115 J0.0357
X2.2228 Y-1.814 I-0.034 J0.0158 F300.
G1 X2.0712 Y-1.0971
G3 X2.0551 Y-1.0735 I-0.0367 J-0.0078
X2.0255 Y-1.0684 I-0.0207 J-0.0313 F60.
G1 X1.9867 Y-1.0794
X1.9798 Y-1.0818
X1.9742 Y-1.0839
X1.9687 Y-1.0864
X1.9634 Y-1.0892
X1.9582 Y-1.0922
X1.9532 Y-1.0955
X1.9483 Y-1.099
X1.9432 Y-1.1029
X1.9378 Y-1.1074
X1.9324 Y-1.1123
X1.9268 Y-1.1178
X1.9208 Y-1.124
X1.915 Y-1.1306
X1.9089 Y-1.1381
X1.9026 Y-1.1464
X1.8965 Y-1.1551
X1.8903 Y-1.1649
X1.8839 Y-1.1757
X1.8778 Y-1.187
X1.8717 Y-1.1994
X1.8656 Y-1.213
X1.8598 Y-1.2277
X1.8544 Y-1.2429
X1.8492 Y-1.2594
X1.8443 Y-1.2774
X1.8398 Y-1.2966
X1.836 Y-1.3165
X1.8328 Y-1.3374
X1.8303 Y-1.3596
X1.8285 Y-1.3831
X1.8276 Y-1.4075
Y-1.4328
X1.8286 Y-1.4587
X1.8306 Y-1.485
X1.8337 Y-1.5115
X1.8378 Y-1.5382
X1.843 Y-1.5649
X1.8491 Y-1.5913
X1.8562 Y-1.6171
X1.8641 Y-1.6421
X1.8726 Y-1.666
X1.8818 Y-1.6888
X1.8914 Y-1.7103
X1.9014 Y-1.7306
X1.9115 Y-1.7494
X1.9214 Y-1.7662
X1.9313 Y-1.7815
X1.9411 Y-1.7955
X1.9506 Y-1.808
X1.959 Y-1.8183
X1.9679 Y-1.8283
X1.9757 Y-1.8365
X1.9829 Y-1.8435
X1.9909 Y-1.8507
X1.9976 Y-1.8563
X2.0008 Y-1.8587
X2.0152 Y-1.8683
X2.0307 Y-1.876
X2.0471 Y-1.8814
X2.0641 Y-1.8847
X2.0813 Y-1.8857
X2.0985 Y-1.8844
X2.1155 Y-1.8808
X2.1565 Y-1.8691
G3 X2.179 Y-1.8493 I-0.0115 J0.0357
X2.1818 Y-1.8258 I-0.034 J0.0158 F300.
G1 X2.0324 Y-1.1082
G3 X2.0163 Y-1.0845 I-0.0367 J-0.0076
X1.9867 Y-1.0794 I-0.0207 J-0.0313 F60.
G1 X1.944 Y-1.0915
X1.9383 Y-1.0934
X1.9328 Y-1.0957
X1.9273 Y-1.0982
X1.9221 Y-1.1011
X1.9169 Y-1.1042
X1.9119 Y-1.1075
X1.9069 Y-1.1111
X1.9018 Y-1.1151
X1.8964 Y-1.1197
X1.8908 Y-1.1248
X1.8852 Y-1.1303
X1.8792 Y-1.1367
X1.8733 Y-1.1436
X1.8672 Y-1.1511
X1.8609 Y-1.1596
X1.8547 Y-1.1687
X1.8485 Y-1.1784
X1.8422 Y-1.1894
X1.8359 Y-1.2013
X1.8299 Y-1.2137
X1.8239 Y-1.2274
X1.8181 Y-1.2423
X1.8125 Y-1.2583
X1.8075 Y-1.2748
X1.8027 Y-1.2928
X1.7984 Y-1.3122
X1.7946 Y-1.3329
X1.7915 Y-1.3543
X1.7891 Y-1.3765
X1.7875 Y-1.3999
X1.7868 Y-1.4244
X1.787 Y-1.4497
X1.7882 Y-1.4757
X1.7905 Y-1.5022
X1.7938 Y-1.529
X1.7981 Y-1.5558
X1.8035 Y-1.5824
X1.8098 Y-1.6086
X1.817 Y-1.6342
X1.825 Y-1.659
X1.8338 Y-1.6828
X1.8431 Y-1.7055
X1.8528 Y-1.7269
X1.8628 Y-1.7468
X1.8726 Y-1.7647
X1.8826 Y-1.7812
X1.8926 Y-1.7964
X1.9021 Y-1.8099
X1.9115 Y-1.8221
X1.9197 Y-1.832
X1.9287 Y-1.8419
X1.9361 Y-1.8495
X1.9437 Y-1.8568
X1.9514 Y-1.8636
X1.9579 Y-1.869
X1.9606 Y-1.871
X1.9749 Y-1.8804
X1.9903 Y-1.8879
X2.0066 Y-1.8932
X2.0234 Y-1.8964
X2.0406 Y-1.8973
X2.0577 Y-1.896
X2.0744 Y-1.8924
X2.1155 Y-1.8808
G3 X2.138 Y-1.8609 I-0.0115 J0.0357
X2.1407 Y-1.8373 I-0.034 J0.0158 F300.
G1 X1.9897 Y-1.1202
G3 X1.9736 Y-1.0966 I-0.0367 J-0.0077
X1.944 Y-1.0915 I-0.0207 J-0.0313 F60.
G1 X1.9046 Y-1.1027
X1.8989 Y-1.1046
X1.8933 Y-1.1067
X1.8879 Y-1.1092
X1.8826 Y-1.112
X1.8774 Y-1.1151
X1.8724 Y-1.1184
X1.8675 Y-1.1218
X1.8623 Y-1.1259
X1.8569 Y-1.1303
X1.8515 Y-1.1352
X1.8457 Y-1.1408
X1.8399 Y-1.1469
X1.834 Y-1.1536
X1.8278 Y-1.1612
X1.8216 Y-1.1694
X1.8154 Y-1.1783
X1.8091 Y-1.1882
X1.8027 Y-1.1989
X1.7966 Y-1.2102
X1.7905 Y-1.2228
X1.7843 Y-1.2366
X1.7786 Y-1.251
X1.7731 Y-1.2665
X1.7678 Y-1.2833
X1.7628 Y-1.3014
X1.7584 Y-1.3204
X1.7546 Y-1.3401
X1.7514 Y-1.3612
X1.7489 Y-1.3837
X1.7471 Y-1.4073
X1.7461 Y-1.4318
X1.7462 Y-1.4571
X1.7472 Y-1.4828
X1.7492 Y-1.5089
X1.7522 Y-1.5354
X1.7564 Y-1.5622
X1.7615 Y-1.5889
X1.7677 Y-1.6154
X1.7748 Y-1.6413
X1.7828 Y-1.6665
X1.7913 Y-1.6905
X1.8004 Y-1.713
X1.8099 Y-1.7344
X1.8198 Y-1.7544
X1.8299 Y-1.7732
X1.8399 Y-1.79
X1.8496 Y-1.8051
X1.8593 Y-1.819
X1.8688 Y-1.8316
X1.8773 Y-1.8419
X1.8859 Y-1.8516
X1.8938 Y-1.8599
X1.901 Y-1.8669
X1.909 Y-1.8741
X1.9157 Y-1.8796
X1.9188 Y-1.882
X1.9331 Y-1.8916
X1.9486 Y-1.8992
X1.965 Y-1.9047
X1.982 Y-1.908
X1.9993 Y-1.9089
X2.0165 Y-1.9076
X2.0334 Y-1.904
X2.0744 Y-1.8924
G3 X2.0969 Y-1.8725 I-0.0115 J0.0357
X2.0997 Y-1.8491 I-0.034 J0.0158 F300.
G1 X1.9503 Y-1.1315
G3 X1.9342 Y-1.1078 I-0.0367 J-0.0076
X1.9046 Y-1.1027 I-0.0207 J-0.0313 F60.
G1 X1.863 Y-1.1145
X1.8573 Y-1.1164
X1.8518 Y-1.1186
X1.8464 Y-1.1212
X1.8411 Y-1.124
X1.8359 Y-1.1271
X1.8309 Y-1.1304
X1.8259 Y-1.1341
X1.8208 Y-1.1381
X1.8154 Y-1.1427
X1.8098 Y-1.1477
X1.8042 Y-1.1533
X1.7981 Y-1.1597
X1.7922 Y-1.1666
X1.7861 Y-1.1742
X1.7798 Y-1.1827
X1.7735 Y-1.1918
X1.7673 Y-1.2016
X1.7609 Y-1.2126
X1.7546 Y-1.2245
X1.7486 Y-1.237
X1.7426 Y-1.2507
X1.7368 Y-1.2657
X1.7312 Y-1.2817
X1.7261 Y-1.2983
X1.7214 Y-1.3163
X1.717 Y-1.3358
X1.7132 Y-1.3566
X1.71 Y-1.378
X1.7077 Y-1.4003
X1.7061 Y-1.4237
X1.7053 Y-1.4481
X1.7056 Y-1.4735
X1.7068 Y-1.4995
X1.709 Y-1.5261
X1.7123 Y-1.5529
X1.7167 Y-1.5798
X1.722 Y-1.6065
X1.7283 Y-1.6326
X1.7355 Y-1.6582
X1.7435 Y-1.6829
X1.7522 Y-1.7067
X1.7615 Y-1.7293
X1.7712 Y-1.7507
X1.7811 Y-1.7704
X1.791 Y-1.7883
X1.8009 Y-1.8048
X1.8108 Y-1.8199
X1.8203 Y-1.8333
X1.8297 Y-1.8455
X1.8379 Y-1.8553
X1.8468 Y-1.8652
X1.8541 Y-1.8728
X1.8617 Y-1.8801
X1.8694 Y-1.8869
X1.876 Y-1.8922
X1.8785 Y-1.8942
X1.8929 Y-1.9036
X1.9083 Y-1.9111
X1.9246 Y-1.9165
X1.9414 Y-1.9196
X1.9585 Y-1.9206
X1.9756 Y-1.9192
X1.9924 Y-1.9156
X2.0334 Y-1.904
G3 X2.0559 Y-1.8841 I-0.0115 J0.0357
X2.0586 Y-1.8607 I-0.034 J0.0158 F300.
G1 X1.9087 Y-1.1432
G3 X1.8926 Y-1.1196 I-0.0367 J-0.0077
X1.863 Y-1.1145 I-0.0207 J-0.0313 F60.
G1 X1.8231 Y-1.1258
X1.8174 Y-1.1277
X1.8118 Y-1.1299
X1.8064 Y-1.1324
X1.8011 Y-1.1352
X1.7959 Y-1.1383
X1.7909 Y-1.1416
X1.786 Y-1.1451
X1.7808 Y-1.1491
X1.7754 Y-1.1536
X1.77 Y-1.1586
X1.7642 Y-1.1643
X1.7583 Y-1.1705
X1.7524 Y-1.1772
X1.7462 Y-1.1849
X1.7399 Y-1.1931
X1.7337 Y-1.2021
X1.7274 Y-1.212
X1.721 Y-1.2229
X1.7149 Y-1.2343
X1.7087 Y-1.247
X1.7026 Y-1.2609
X1.6968 Y-1.2755
X1.6913 Y-1.2911
X1.686 Y-1.3079
X1.6811 Y-1.3262
X1.6767 Y-1.3455
X1.6729 Y-1.3653
X1.6698 Y-1.3865
X1.6673 Y-1.409
X1.6655 Y-1.4326
X1.6647 Y-1.4573
Y-1.4827
X1.6658 Y-1.5087
X1.6679 Y-1.5349
X1.6711 Y-1.5615
X1.6752 Y-1.5882
X1.6805 Y-1.6149
X1.6867 Y-1.6413
X1.6939 Y-1.6672
X1.7018 Y-1.6921
X1.7103 Y-1.7158
X1.7194 Y-1.7383
X1.729 Y-1.7596
X1.7389 Y-1.7795
X1.749 Y-1.7981
X1.7588 Y-1.8146
X1.7686 Y-1.8296
X1.7783 Y-1.8434
X1.7877 Y-1.8558
X1.796 Y-1.8659
X1.8047 Y-1.8757
X1.8125 Y-1.8837
X1.8197 Y-1.8907
X1.8276 Y-1.8978
X1.8342 Y-1.9033
X1.8371 Y-1.9054
X1.8514 Y-1.915
X1.8669 Y-1.9225
X1.8833 Y-1.928
X1.9002 Y-1.9312
X1.9174 Y-1.9322
X1.9346 Y-1.9308
X1.9514 Y-1.9273
X1.9924 Y-1.9156
G3 X2.0149 Y-1.8958 I-0.0115 J0.0357
X2.0177 Y-1.8723 I-0.034 J0.0158 F300.
G1 X1.8688 Y-1.1546
G3 X1.8527 Y-1.1309 I-0.0367 J-0.0076
X1.8231 Y-1.1258 I-0.0207 J-0.0313 F60.
G1 X1.7843 Y-1.1368
X1.7774 Y-1.1391
X1.7718 Y-1.1412
X1.7663 Y-1.1437
X1.761 Y-1.1465
X1.7558 Y-1.1496
X1.7508 Y-1.1528
X1.7459 Y-1.1563
X1.7407 Y-1.1603
X1.7353 Y-1.1648
X1.7299 Y-1.1696
X1.7242 Y-1.1752
X1.7183 Y-1.1814
X1.7124 Y-1.1881
X1.7062 Y-1.1956
X1.6999 Y-1.2039
X1.6937 Y-1.2127
X1.6874 Y-1.2226
X1.681 Y-1.2334
X1.6748 Y-1.2448
X1.6686 Y-1.2573
X1.6625 Y-1.2711
X1.6566 Y-1.2857
X1.6512 Y-1.301
X1.6459 Y-1.3177
X1.6409 Y-1.3358
X1.6364 Y-1.3552
X1.6326 Y-1.375
X1.6293 Y-1.3961
X1.6267 Y-1.4185
X1.6249 Y-1.4421
X1.624 Y-1.4666
X1.6239 Y-1.492
X1.6249 Y-1.5179
X1.6269 Y-1.5442
X1.6299 Y-1.5707
X1.634 Y-1.5975
X1.6391 Y-1.6242
X1.6453 Y-1.6506
X1.6523 Y-1.6764
X1.6601 Y-1.7013
X1.6686 Y-1.7251
X1.6776 Y-1.7477
X1.6871 Y-1.7691
X1.697 Y-1.7893
X1.7071 Y-1.8079
X1.7169 Y-1.8246
X1.7267 Y-1.8398
X1.7364 Y-1.8537
X1.7458 Y-1.8662
X1.7542 Y-1.8765
X1.7629 Y-1.8864
X1.7707 Y-1.8946
X1.7779 Y-1.9016
X1.7859 Y-1.9087
X1.7925 Y-1.9143
X1.7957 Y-1.9167
X1.8101 Y-1.9264
X1.8256 Y-1.934
X1.842 Y-1.9395
X1.859 Y-1.9428
X1.8763 Y-1.9438
X1.8935 Y-1.9425
X1.9105 Y-1.9389
X1.9514 Y-1.9273
G3 X1.974 Y-1.9074 I-0.0115 J0.0357
X1.9767 Y-1.884 I-0.034 J0.0158 F300.
G1 X1.83 Y-1.1657
G3 X1.8139 Y-1.1419 I-0.0367 J-0.0075
X1.7843 Y-1.1368 I-0.0207 J-0.0313 F60.
G1 X1.7416 Y-1.1489
X1.7359 Y-1.1508
X1.7304 Y-1.153
X1.7249 Y-1.1555
X1.7196 Y-1.1584
X1.7145 Y-1.1615
X1.7095 Y-1.1648
X1.7045 Y-1.1684
X1.6994 Y-1.1724
X1.6939 Y-1.177
X1.6884 Y-1.182
X1.6827 Y-1.1876
X1.6766 Y-1.194
X1.6707 Y-1.2008
X1.6646 Y-1.2084
X1.6582 Y-1.2169
X1.652 Y-1.2259
X1.6457 Y-1.2357
X1.6393 Y-1.2467
X1.633 Y-1.2586
X1.6269 Y-1.271
X1.6209 Y-1.2848
X1.615 Y-1.2998
X1.6094 Y-1.3157
X1.6043 Y-1.3323
X1.5995 Y-1.3504
X1.595 Y-1.3699
X1.5912 Y-1.3906
X1.588 Y-1.4119
X1.5856 Y-1.4343
X1.5839 Y-1.4578
X1.5831 Y-1.4823
X1.5833 Y-1.5077
X1.5844 Y-1.5338
X1.5866 Y-1.5604
X1.5898 Y-1.5872
X1.5941 Y-1.614
X1.5993 Y-1.6406
X1.6056 Y-1.6667
X1.6127 Y-1.6922
X1.6206 Y-1.7169
X1.6293 Y-1.7407
X1.6385 Y-1.7633
X1.6481 Y-1.7847
X1.658 Y-1.8045
X1.6678 Y-1.8224
X1.6777 Y-1.8389
X1.6875 Y-1.8541
X1.6971 Y-1.8676
X1.7064 Y-1.8798
X1.7146 Y-1.8896
X1.7235 Y-1.8996
X1.7309 Y-1.9073
X1.7384 Y-1.9145
X1.7461 Y-1.9214
X1.7527 Y-1.9267
X1.7554 Y-1.9288
X1.7697 Y-1.9383
X1.7852 Y-1.9458
X1.8015 Y-1.9512
X1.8184 Y-1.9544
X1.8356 Y-1.9554
X1.8527 Y-1.954
X1.8695 Y-1.9505
X1.9105 Y-1.9389
G3 X1.933 Y-1.919 I-0.0115 J0.0357
X1.9357 Y-1.8956 I-0.034 J0.0158 F300.
G1 X1.7873 Y-1.1777
G3 X1.7712 Y-1.154 I-0.0367 J-0.0076
X1.7416 Y-1.1489 I-0.0207 J-0.0313 F60.
G1 X1.7022 Y-1.16
X1.6962 Y-1.1621
X1.6906 Y-1.1642
X1.6852 Y-1.1667
X1.6798 Y-1.1695
X1.6747 Y-1.1725
X1.6696 Y-1.1758
X1.6647 Y-1.1792
X1.6595 Y-1.1832
X1.6542 Y-1.1877
X1.6487 Y-1.1926
X1.6429 Y-1.1982
X1.6371 Y-1.2043
X1.6311 Y-1.211
X1.6249 Y-1.2187
X1.6187 Y-1.2268
X1.6125 Y-1.2357
X1.6061 Y-1.2456
X1.5997 Y-1.2564
X1.5935 Y-1.2677
X1.5873 Y-1.2804
X1.5811 Y-1.2942
X1.5753 Y-1.3087
X1.5697 Y-1.3242
X1.5644 Y-1.341
X1.5594 Y-1.3592
X1.555 Y-1.3784
X1.5511 Y-1.3981
X1.5478 Y-1.4193
X1.5452 Y-1.4418
X1.5434 Y-1.4655
X1.5424 Y-1.4901
Y-1.5155
X1.5433 Y-1.5413
X1.5453 Y-1.5674
X1.5483 Y-1.594
X1.5524 Y-1.6207
X1.5575 Y-1.6474
X1.5636 Y-1.6739
X1.5707 Y-1.6998
X1.5785 Y-1.7248
X1.587 Y-1.7487
X1.596 Y-1.7712
X1.6054 Y-1.7925
X1.6153 Y-1.8125
X1.6253 Y-1.8312
X1.6351 Y-1.8479
X1.6448 Y-1.863
X1.6545 Y-1.8769
X1.664 Y-1.8894
X1.6723 Y-1.8997
X1.681 Y-1.9095
X1.6888 Y-1.9178
X1.696 Y-1.9247
X1.704 Y-1.9319
X1.7106 Y-1.9375
X1.7138 Y-1.9399
X1.7281 Y-1.9495
X1.7437 Y-1.9572
X1.7601 Y-1.9627
X1.7771 Y-1.966
X1.7944 Y-1.967
X1.8116 Y-1.9657
X1.8286 Y-1.9621
X1.8695 Y-1.9505
G3 X1.8921 Y-1.9306 I-0.0115 J0.0357
X1.8948 Y-1.9072 I-0.034 J0.0158 F300.
G1 X1.7479 Y-1.1889
G3 X1.7318 Y-1.1651 I-0.0367 J-0.0075
X1.7022 Y-1.16 I-0.0207 J-0.0313 F60.
G1 X1.6606 Y-1.1718
X1.6549 Y-1.1737
X1.6494 Y-1.1759
X1.6439 Y-1.1785
X1.6386 Y-1.1813
X1.6335 Y-1.1843
X1.6284 Y-1.1876
X1.6235 Y-1.1912
X1.6184 Y-1.1952
X1.6129 Y-1.1998
X1.6074 Y-1.2047
X1.6017 Y-1.2103
X1.5956 Y-1.2167
X1.5897 Y-1.2234
X1.5836 Y-1.231
X1.5772 Y-1.2394
X1.571 Y-1.2484
X1.5647 Y-1.2582
X1.5583 Y-1.2692
X1.552 Y-1.281
X1.5459 Y-1.2935
X1.5398 Y-1.3072
X1.5338 Y-1.3222
X1.5283 Y-1.3379
X1.5231 Y-1.3545
X1.5182 Y-1.3726
X1.5138 Y-1.3922
X1.5098 Y-1.4128
X1.5067 Y-1.434
X1.5042 Y-1.4563
X1.5024 Y-1.4798
X1.5016 Y-1.5043
X1.5017 Y-1.5297
X1.5027 Y-1.5558
X1.5048 Y-1.5823
X1.508 Y-1.6091
X1.5122 Y-1.636
X1.5174 Y-1.6626
X1.5236 Y-1.6888
X1.5307 Y-1.7143
X1.5385 Y-1.739
X1.5471 Y-1.7628
X1.5562 Y-1.7854
X1.5658 Y-1.8068
X1.5757 Y-1.8267
X1.5855 Y-1.8447
X1.5953 Y-1.8613
X1.6052 Y-1.8765
X1.6148 Y-1.8901
X1.6241 Y-1.9023
X1.6323 Y-1.9123
X1.6412 Y-1.9223
X1.6486 Y-1.9301
X1.6561 Y-1.9372
X1.6639 Y-1.9442
X1.6704 Y-1.9496
X1.6733 Y-1.9518
X1.6876 Y-1.9614
X1.7031 Y-1.9689
X1.7195 Y-1.9744
X1.7364 Y-1.9776
X1.7536 Y-1.9786
X1.7708 Y-1.9772
X1.7877 Y-1.9737
X1.8286 Y-1.9621
G3 X1.8511 Y-1.9422 I-0.0115 J0.0357
X1.8538 Y-1.9188 I-0.034 J0.0158 F300.
G1 X1.7063 Y-1.2007
G3 X1.6902 Y-1.1769 I-0.0367 J-0.0075
X1.6606 Y-1.1718 I-0.0207 J-0.0313 F60.
G1 X1.6207 Y-1.1831
X1.6149 Y-1.1851
X1.6093 Y-1.1872
X1.6039 Y-1.1897
X1.5985 Y-1.1925
X1.5934 Y-1.1955
X1.5883 Y-1.1988
X1.5834 Y-1.2023
X1.5782 Y-1.2063
X1.5728 Y-1.2108
X1.5674 Y-1.2156
X1.5616 Y-1.2212
X1.5557 Y-1.2274
X1.5498 Y-1.2341
X1.5435 Y-1.2417
X1.5373 Y-1.2499
X1.5311 Y-1.2588
X1.5247 Y-1.2687
X1.5183 Y-1.2795
X1.5121 Y-1.2909
X1.5059 Y-1.3035
X1.4997 Y-1.3174
X1.4938 Y-1.3319
X1.4883 Y-1.3474
X1.4829 Y-1.3642
X1.4779 Y-1.3824
X1.4734 Y-1.4017
X1.4696 Y-1.4215
X1.4663 Y-1.4426
X1.4637 Y-1.4651
X1.4618 Y-1.4887
X1.4609 Y-1.5134
X1.4608 Y-1.5388
X1.4618 Y-1.5648
X1.4637 Y-1.591
X1.4667 Y-1.6176
X1.4708 Y-1.6443
X1.4759 Y-1.6709
X1.482 Y-1.6973
X1.489 Y-1.7231
X1.4968 Y-1.7481
X1.5052 Y-1.7718
X1.5142 Y-1.7944
X1.5237 Y-1.8157
X1.5335 Y-1.8358
X1.5435 Y-1.8544
X1.5533 Y-1.871
X1.563 Y-1.8862
X1.5727 Y-1.9001
X1.5821 Y-1.9126
X1.5904 Y-1.9228
X1.5992 Y-1.9327
X1.607 Y-1.9409
X1.6141 Y-1.9479
X1.6221 Y-1.955
X1.6287 Y-1.9606
X1.6319 Y-1.963
X1.6463 Y-1.9727
X1.6618 Y-1.9804
X1.6782 Y-1.9859
X1.6952 Y-1.9892
X1.7125 Y-1.9902
X1.7298 Y-1.9888
X1.7468 Y-1.9852
X1.7877 Y-1.9737
G3 X1.8102 Y-1.9538 I-0.0115 J0.0357
X1.8129 Y-1.9305 I-0.034 J0.0158 F300.
G1 X1.6664 Y-1.212
G3 X1.6503 Y-1.1882 I-0.0367 J-0.0075
X1.6207 Y-1.1831 I-0.0207 J-0.0313 F60.
G1 X1.5785 Y-1.1951
X1.5728 Y-1.197
X1.5673 Y-1.1992
X1.5618 Y-1.2018
X1.5566 Y-1.2047
X1.5514 Y-1.2078
X1.5464 Y-1.2111
X1.5413 Y-1.2148
X1.5362 Y-1.2188
X1.5307 Y-1.2234
X1.5251 Y-1.2286
X1.5195 Y-1.2342
X1.5134 Y-1.2406
X1.5074 Y-1.2476
X1.5013 Y-1.2552
X1.4949 Y-1.2638
X1.4886 Y-1.273
X1.4823 Y-1.2829
X1.4759 Y-1.2939
X1.4695 Y-1.306
X1.4635 Y-1.3186
X1.4575 Y-1.3324
X1.4516 Y-1.3475
X1.4459 Y-1.3637
X1.4408 Y-1.3804
X1.436 Y-1.3986
X1.4316 Y-1.4182
X1.4278 Y-1.4391
X1.4246 Y-1.4609
X1.4223 Y-1.4833
X1.4207 Y-1.5068
X1.4199 Y-1.5314
X1.4202 Y-1.5568
X1.4214 Y-1.583
X1.4236 Y-1.6096
X1.4269 Y-1.6364
X1.4313 Y-1.6632
X1.4367 Y-1.6898
X1.443 Y-1.7159
X1.4502 Y-1.7414
X1.4581 Y-1.766
X1.4668 Y-1.7897
X1.4761 Y-1.8122
X1.4857 Y-1.8334
X1.4955 Y-1.8528
X1.5052 Y-1.8705
X1.5151 Y-1.8869
X1.5249 Y-1.9018
X1.5343 Y-1.9151
X1.5436 Y-1.9272
X1.5517 Y-1.9369
X1.5606 Y-1.9468
X1.5678 Y-1.9542
X1.5755 Y-1.9616
X1.5831 Y-1.9682
X1.5896 Y-1.9736
X1.592 Y-1.9754
X1.6063 Y-1.9848
X1.6218 Y-1.9923
X1.638 Y-1.9977
X1.6549 Y-2.0008
X1.672 Y-2.0017
X1.6891 Y-2.0004
X1.7058 Y-1.9968
X1.7468 Y-1.9852
G3 X1.7693 Y-1.9654 I-0.0115 J0.0357
X1.772 Y-1.942 I-0.034 J0.0158 F300.
G1 X1.6242 Y-1.2239
G3 X1.6081 Y-1.2002 I-0.0367 J-0.0076
X1.5785 Y-1.1951 I-0.0207 J-0.0313 F60.
G1 X1.5392 Y-1.2062
X1.5335 Y-1.2081
X1.5279 Y-1.2103
X1.5225 Y-1.2128
X1.5171 Y-1.2155
X1.512 Y-1.2186
X1.5069 Y-1.2219
X1.502 Y-1.2253
X1.4968 Y-1.2294
X1.4915 Y-1.2338
X1.4859 Y-1.2387
X1.4801 Y-1.2444
X1.4743 Y-1.2504
X1.4683 Y-1.2572
X1.462 Y-1.2648
X1.4559 Y-1.2729
X1.4496 Y-1.2819
X1.4431 Y-1.2919
X1.4368 Y-1.3025
X1.4306 Y-1.314
X1.4243 Y-1.3267
X1.4182 Y-1.3405
X1.4124 Y-1.3549
X1.4067 Y-1.3706
X1.4013 Y-1.3876
X1.3963 Y-1.4058
X1.3919 Y-1.4246
X1.388 Y-1.4446
X1.3847 Y-1.4659
X1.3821 Y-1.4885
X1.3802 Y-1.5123
X1.3792 Y-1.5369
Y-1.562
X1.3801 Y-1.5876
X1.3821 Y-1.6139
X1.3851 Y-1.6406
X1.3892 Y-1.6674
X1.3943 Y-1.6941
X1.4004 Y-1.7206
X1.4074 Y-1.7465
X1.4153 Y-1.7717
X1.4237 Y-1.7955
X1.4327 Y-1.818
X1.4421 Y-1.8391
X1.4518 Y-1.859
X1.4618 Y-1.8776
X1.4717 Y-1.8944
X1.4813 Y-1.9094
X1.4909 Y-1.9232
X1.5004 Y-1.9358
X1.5088 Y-1.9461
X1.5173 Y-1.9558
X1.5252 Y-1.9641
X1.5323 Y-1.971
X1.5403 Y-1.9782
X1.547 Y-1.9838
X1.5501 Y-1.9863
X1.5662 Y-1.9969
X1.5837 Y-2.005
X1.6022 Y-2.0105
X1.6212 Y-2.0131
X1.6405 Y-2.0129
X1.6595 Y-2.0099
X1.6606 Y-2.0096
X1.7058 Y-1.9968
G3 X1.7284 Y-1.9769 I-0.0115 J0.0357
X1.7311 Y-1.9537 I-0.034 J0.0158 F300.
G1 X1.5849 Y-1.2352
G3 X1.5688 Y-1.2113 I-0.0367 J-0.0075
X1.5392 Y-1.2062 I-0.0207 J-0.0313 F60.
G1 X1.4998 Y-1.2174
X1.4927 Y-1.2198
X1.4871 Y-1.2219
X1.4817 Y-1.2244
X1.4764 Y-1.2272
X1.4712 Y-1.2302
X1.4662 Y-1.2335
X1.4613 Y-1.2369
X1.4561 Y-1.2409
X1.4507 Y-1.2454
X1.4452 Y-1.2503
X1.4395 Y-1.2558
X1.4335 Y-1.2621
X1.4276 Y-1.2687
X1.4214 Y-1.2763
X1.4151 Y-1.2846
X1.4089 Y-1.2934
X1.4025 Y-1.3033
X1.396 Y-1.3142
X1.3898 Y-1.3257
X1.3836 Y-1.3381
X1.3775 Y-1.3519
X1.3715 Y-1.3667
X1.366 Y-1.3821
X1.3607 Y-1.3988
X1.3557 Y-1.4169
X1.3511 Y-1.4364
X1.3472 Y-1.4566
X1.3439 Y-1.4776
X1.3413 Y-1.4999
X1.3394 Y-1.5234
X1.3385 Y-1.5479
X1.3384 Y-1.5733
X1.3393 Y-1.5993
X1.3413 Y-1.6258
X1.3443 Y-1.6525
X1.3484 Y-1.6793
X1.3535 Y-1.706
X1.3595 Y-1.7324
X1.3665 Y-1.758
X1.3742 Y-1.7827
X1.3826 Y-1.8065
X1.3917 Y-1.8292
X1.4011 Y-1.8506
X1.411 Y-1.8707
X1.4209 Y-1.8892
X1.4306 Y-1.9057
X1.4404 Y-1.921
X1.45 Y-1.9349
X1.4594 Y-1.9472
X1.4676 Y-1.9574
X1.4763 Y-1.9672
X1.4844 Y-1.9758
X1.4912 Y-1.9824
X1.4992 Y-1.9896
X1.5067 Y-1.9959
X1.5221 Y-2.0062
X1.5389 Y-2.0141
X1.5566 Y-2.0197
X1.5748 Y-2.0226
X1.5934 Y-2.0229
X1.6117 Y-2.0206
X1.6226 Y-2.0184
X1.6269 Y-2.0175
X1.6494 Y-2.0123
X1.6595 Y-2.0099
G3 X1.6829 Y-1.991 I-0.0099 J0.0362
X1.6864 Y-1.9665 I-0.0333 J0.0173 F300.
G1 X1.5455 Y-1.2466
G3 X1.5294 Y-1.2225 I-0.0368 J-0.0072
X1.4998 Y-1.2174 I-0.0207 J-0.0313 F60.
G1 X1.4582 Y-1.2292
X1.4521 Y-1.2312
X1.4465 Y-1.2334
X1.441 Y-1.2359
X1.4357 Y-1.2386
X1.4305 Y-1.2417
X1.4255 Y-1.2449
X1.4206 Y-1.2484
X1.4155 Y-1.2524
X1.41 Y-1.2569
X1.4045 Y-1.2618
X1.3988 Y-1.2673
X1.3928 Y-1.2736
X1.3869 Y-1.2802
X1.3807 Y-1.2878
X1.3743 Y-1.2961
X1.3682 Y-1.3049
X1.3618 Y-1.3147
X1.3553 Y-1.3257
X1.3491 Y-1.3371
X1.3429 Y-1.3496
X1.3367 Y-1.3634
X1.3307 Y-1.3783
X1.3252 Y-1.3936
X1.3199 Y-1.4103
X1.3149 Y-1.4284
X1.3104 Y-1.4478
X1.3064 Y-1.468
X1.3031 Y-1.489
X1.3005 Y-1.5114
X1.2987 Y-1.5349
X1.2977 Y-1.5595
X1.2976 Y-1.585
X1.2985 Y-1.6111
X1.3005 Y-1.6376
X1.3035 Y-1.6642
X1.3075 Y-1.691
X1.3126 Y-1.7175
X1.3186 Y-1.7438
X1.3255 Y-1.7694
X1.3333 Y-1.7941
X1.3417 Y-1.818
X1.3507 Y-1.8406
X1.3602 Y-1.862
X1.37 Y-1.8822
X1.3799 Y-1.9006
X1.3897 Y-1.9172
X1.3994 Y-1.9325
X1.4091 Y-1.9463
X1.4184 Y-1.9588
X1.4263 Y-1.9684
X1.4348 Y-1.9781
X1.4424 Y-1.9861
X1.4492 Y-1.9928
X1.452 Y-1.9952
X1.4651 Y-2.0056
X1.4794 Y-2.0143
X1.4947 Y-2.021
X1.5108 Y-2.0257
X1.5273 Y-2.0283
X1.5441 Y-2.0287
X1.5482 Y-2.0285
X1.5594 Y-2.0277
X1.5819 Y-2.0258
X1.5932 Y-2.0243
X1.6117 Y-2.0206
G3 X1.6358 Y-2.0025 I-0.0086 J0.0365
X1.64 Y-1.9771 I-0.0327 J0.0184 F300.
G1 X1.504 Y-1.2586
G3 X1.4878 Y-1.2343 I-0.0368 J-0.007
X1.4582 Y-1.2292 I-0.0207 J-0.0313 F60.
G1 X1.447 Y-1.2323
X1.4357 Y-1.2356
X1.4245 Y-1.2393
X1.4132 Y-1.2431
X1.4098 Y-1.2444
X1.4029 Y-1.2474
X1.3975 Y-1.2499
X1.3922 Y-1.2528
X1.3871 Y-1.2559
X1.3821 Y-1.2592
X1.377 Y-1.2629
X1.372 Y-1.2669
X1.3666 Y-1.2715
X1.3609 Y-1.2767
X1.3553 Y-1.2823
X1.3494 Y-1.2886
X1.3433 Y-1.2957
X1.3373 Y-1.3033
X1.331 Y-1.3118
X1.3246 Y-1.3211
X1.3184 Y-1.331
X1.3121 Y-1.342
X1.3057 Y-1.3542
X1.2997 Y-1.3669
X1.2937 Y-1.3807
X1.2879 Y-1.3957
X1.2822 Y-1.4121
X1.2771 Y-1.429
X1.2724 Y-1.4471
X1.2681 Y-1.4667
X1.2643 Y-1.4876
X1.2612 Y-1.5097
X1.2589 Y-1.5324
X1.2574 Y-1.5559
X1.2567 Y-1.5805
X1.257 Y-1.606
X1.2583 Y-1.6322
X1.2607 Y-1.6588
X1.264 Y-1.6856
X1.2685 Y-1.7123
X1.2739 Y-1.7388
X1.2803 Y-1.7649
X1.2876 Y-1.7903
X1.2956 Y-1.815
X1.3044 Y-1.8386
X1.3137 Y-1.861
X1.3232 Y-1.8817
X1.3329 Y-1.9008
X1.3426 Y-1.9183
X1.3525 Y-1.9346
X1.3619 Y-1.9489
X1.3701 Y-1.9604
X1.3788 Y-1.9716
X1.3861 Y-1.9803
X1.3877 Y-1.9821
X1.4002 Y-1.9941
X1.4141 Y-2.0044
X1.4293 Y-2.0127
X1.4455 Y-2.019
X1.4623 Y-2.023
X1.4695 Y-2.0242
X1.4807 Y-2.0259
X1.5127 Y-2.0296
X1.5144 Y-2.0297
X1.5195 Y-2.0296
X1.5441 Y-2.0287
G3 X1.5706 Y-2.0147 I-0.0027 J0.0374
X1.5783 Y-1.9851 I-0.0293 J0.0234 F300.
G1 X1.4586 Y-1.2738
G3 X1.4398 Y-1.2472 I-0.037 J-0.0062
X1.4098 Y-1.2444 I-0.0181 J-0.0328 F60.
G1 X1.3682 Y-1.2598
X1.3567 Y-1.2656
X1.3507 Y-1.2688
X1.3441 Y-1.2727
X1.3391 Y-1.276
X1.3342 Y-1.2795
X1.3294 Y-1.2832
X1.3242 Y-1.2876
X1.319 Y-1.2923
X1.3136 Y-1.2976
X1.3078 Y-1.3037
X1.3022 Y-1.3102
X1.2962 Y-1.3175
X1.2901 Y-1.3257
X1.2841 Y-1.3344
X1.2779 Y-1.3441
X1.2716 Y-1.3549
X1.2657 Y-1.3661
X1.2596 Y-1.3785
X1.2535 Y-1.3923
X1.2478 Y-1.4067
X1.2424 Y-1.4222
X1.2372 Y-1.4391
X1.2323 Y-1.4574
X1.2279 Y-1.4765
X1.2242 Y-1.4963
X1.221 Y-1.5176
X1.2186 Y-1.5402
X1.2169 Y-1.5639
X1.216 Y-1.5886
X1.2162 Y-1.6139
X1.2173 Y-1.6397
X1.2194 Y-1.6659
X1.2226 Y-1.6924
X1.2268 Y-1.7191
X1.2321 Y-1.7458
X1.2383 Y-1.7721
X1.2455 Y-1.7979
X1.2534 Y-1.8226
X1.2619 Y-1.846
X1.2709 Y-1.8682
X1.2803 Y-1.8891
X1.2899 Y-1.9084
X1.2994 Y-1.9258
X1.3074 Y-1.9391
X1.3126 Y-1.9471
X1.3238 Y-1.9619
X1.337 Y-1.9749
X1.3518 Y-1.986
X1.3681 Y-1.9948
X1.402 Y-2.0084
X1.4132 Y-2.0117
X1.4372 Y-2.0184
X1.447 Y-2.0204
X1.4623 Y-2.023
G3 X1.4912 Y-2.0147 I0.005 J0.0372
X1.5044 Y-1.9804 I-0.0239 J0.0289 F300.
G1 X1.4042 Y-1.297
G3 X1.3807 Y-1.2675 I-0.0371 J-0.0054
X1.3507 Y-1.2688 I-0.0136 J-0.035 F60.
G1 X1.3345 Y-1.2774
X1.3233 Y-1.2841
X1.2999 Y-1.2993
X1.2895 Y-1.3064
X1.281 Y-1.3132
X1.2729 Y-1.3202
X1.2682 Y-1.3247
X1.2635 Y-1.3295
X1.2584 Y-1.3352
X1.2532 Y-1.3413
X1.2479 Y-1.3481
X1.2423 Y-1.3559
X1.2369 Y-1.3641
X1.2312 Y-1.3735
X1.2254 Y-1.3838
X1.2199 Y-1.3947
X1.2142 Y-1.4069
X1.2087 Y-1.4203
X1.2035 Y-1.4342
X1.1984 Y-1.4496
X1.1935 Y-1.4666
X1.1892 Y-1.4843
X1.1853 Y-1.503
X1.1819 Y-1.5232
X1.1791 Y-1.5448
X1.1771 Y-1.5676
X1.1759 Y-1.5911
X1.1755 Y-1.6151
X1.1761 Y-1.6401
X1.1778 Y-1.6659
X1.1804 Y-1.6922
X1.1842 Y-1.7188
X1.1889 Y-1.7455
X1.1947 Y-1.7718
X1.2013 Y-1.7975
X1.2088 Y-1.8226
X1.2171 Y-1.8467
X1.2257 Y-1.8691
X1.2316 Y-1.8829
X1.24 Y-1.8991
X1.2505 Y-1.9139
X1.2629 Y-1.9272
X1.2783 Y-1.9413
X1.2895 Y-1.9495
X1.312 Y-1.9646
X1.3253 Y-1.9735
X1.3345 Y-1.979
X1.346 Y-1.9847
X1.357 Y-1.9898
X1.3681 Y-1.9948
G3 X1.3982 Y-1.9941 I0.0142 J0.0347
X1.4195 Y-1.9553 I-0.0158 J0.034 F300.
G1 X1.3404 Y-1.3386
G3 X1.3103 Y-1.3065 I-0.0372 J-0.0048
X1.281 Y-1.3132 I-0.0071 J-0.0368 F60.
G1 X1.2783 Y-1.3153
X1.2564 Y-1.333
X1.2558 Y-1.3336
X1.2446 Y-1.3455
X1.2221 Y-1.3699
X1.2153 Y-1.378
X1.2069 Y-1.3892
X1.1994 Y-1.4004
X1.1883 Y-1.417
X1.1818 Y-1.428
X1.1774 Y-1.436
X1.173 Y-1.4449
X1.1684 Y-1.455
X1.1641 Y-1.4657
X1.1596 Y-1.4781
X1.1554 Y-1.4911
X1.1515 Y-1.5054
X1.1477 Y-1.5214
X1.1444 Y-1.5381
X1.1416 Y-1.556
X1.1392 Y-1.5755
X1.1375 Y-1.5966
X1.1366 Y-1.6184
X1.1365 Y-1.6409
X1.1373 Y-1.6647
X1.1391 Y-1.6894
X1.1419 Y-1.7148
X1.1449 Y-1.7349
X1.1465 Y-1.7437
X1.1487 Y-1.7524
X1.1515 Y-1.7609
G3 X1.1731 Y-1.7818 I0.0347 J0.0142
X1.2235 Y-1.7506 I0.0131 J0.0351 F300.
G1 X1.2561 Y-1.4428
G3 X1.2142 Y-1.4017 I-0.0373 J0.0039
X1.1883 Y-1.417 I0.0046 J-0.0372 F60.
G1 X1.1844 Y-1.4229
X1.178 Y-1.4341
X1.1658 Y-1.4596
X1.1622 Y-1.4678
X1.1531 Y-1.4903
X1.1487 Y-1.5015
X1.1393 Y-1.5353
X1.1371 Y-1.5465
X1.1332 Y-1.569
X1.1321 Y-1.5764
X1.129 Y-1.6027
X1.1282 Y-1.6139
X1.1293 Y-1.6476
X1.1321 Y-1.6824
X1.1339 Y-1.6926
X1.1384 Y-1.715
X1.1407 Y-1.7263
X1.1433 Y-1.7377
X1.147 Y-1.7487
X1.1637 Y-1.7937
X1.1658 Y-1.7983
X1.182 Y-1.8274
X1.1883 Y-1.8377
X1.2041 Y-1.8611
X1.2108 Y-1.8709
X1.2211 Y-1.8836
X1.2333 Y-1.898
X1.2402 Y-1.906
X1.2446 Y-1.9102
X1.2629 Y-1.9272
G3 X1.2917 Y-1.936 I0.0244 J0.0284
G1 X1.2962 Y-1.9355 Z-0.0197
X1.3006 Y-1.935 Z-0.0189
X1.3049 Y-1.9345 Z-0.0176
X1.309 Y-1.934 Z-0.0157
X1.3128 Y-1.9336 Z-0.0134
X1.3164 Y-1.9332 Z-0.0106
X1.3196 Y-1.9328 Z-0.0074
X1.3223 Y-1.9325 Z-0.0038
X1.3247 Y-1.9322 Z0.0001
X1.3265 Y-1.932 Z0.0042
X1.3278 Y-1.9318 Z0.0085
X1.3287 Y-1.9317 Z0.013
X1.3289 Z0.0175
G0 Z1.8921
M5
M9
G53 G0 Z0.
M30
%
