%
(OP1 1,75X1,57X1,25)
(T13 D=0.375 CR=0. TAPER=45DEG - ZMIN=1.093 - CHAMFER MILL)
(T32 D=0.1875 CR=0. - ZMIN=0.9035 - FLAT END MILL)
(T36 D=0.375 CR=0. - ZMIN=0.14 - FLAT END MILL)
(T51 D=0.201 CR=0. TAPER=118DEG - ZMIN=0.0396 - DRILL)
(T54 D=0.3125 CR=0. TAPER=118DEG - ZMIN=0. - DRILL)
G90 G94 G17 G91.1
G20
G53 G0 Z0.
(2D ADAPTIVE ROUGHING1)
T36 M6
T51
S7500 M3
G17 G90 G94
G54
G64 P0.004 Q0.004
M8
G0 X2.1479 Y-1.6057
G43 Z1.85 H36
G0 Z1.45
Z0.2562
G1 Z0.2187 F60.
Z0.14
G3 X1.9438 Y-1.5764 I-0.2376 J-0.9274
G1 X1.9382
X1.9081 Y-1.6089
X1.8727 Y-1.6357
X1.8338 Y-1.657
X1.7926 Y-1.6734
X1.7499 Y-1.6857
X1.7064 Y-1.6945
X1.6625 Y-1.7008
X1.6183 Y-1.7051
X1.5941 Y-1.7067
X1.5869 Y-1.7075
X1.5799 Y-1.7088
X1.573 Y-1.7106
X1.5617 Y-1.7129
X1.5505 Y-1.7149
X1.5393 Y-1.7169
X1.5168 Y-1.7195
X1.5054 Y-1.7207
X1.4831 Y-1.723
X1.4719 Y-1.7236
X1.4494 Y-1.7238
X1.427 Y-1.7239
X0.3153
X0.3041 Y-1.7238
X0.2816 Y-1.7236
X0.2704 Y-1.723
X0.267 Y-1.7226
X0.2227 Y-1.72
X0.1784 Y-1.7178
X0.1341 Y-1.7164
X0.0897 Y-1.7155
X0.0467 Y-1.7046
X0.0077 Y-1.6835
X-0.0261 Y-1.6547
X-0.0541 Y-1.6203
X-0.0766 Y-1.582
X-0.0939 Y-1.5412
X-0.107 Y-1.4988
X-0.1165 Y-1.4554
X-0.1181 Y-1.4472
X-0.1204 Y-1.4392
X-0.1234 Y-1.4314
X-0.1246 Y-1.4286
X-0.128 Y-1.4174
X-0.1309 Y-1.4061
X-0.1336 Y-1.3949
X-0.1398 Y-1.3612
X-0.1439 Y-1.3387
X-0.145 Y-1.3292
X-0.1461 Y-1.3163
X-0.147 Y-1.305
X-0.146 Y-1.2825
X-0.1454 Y-1.2713
X-0.145 Y-1.2669
X-0.1442 Y-1.2225
X-0.1418 Y-1.1782
X-0.1403 Y-1.1339
X-0.1393 Y-1.0895
X-0.1387 Y-1.0451
X-0.1383 Y-1.0008
X-0.138 Y-0.9564
X-0.1378 Y-0.912
X-0.1376 Y-0.8233
X-0.1375 Y-0.6901
Y-0.1133
X-0.1331 Y-0.0691
X-0.1171 Y-0.0278
X-0.0921 Y0.0089
X-0.0604 Y0.04
X-0.024 Y0.0653
X0.0156 Y0.0853
X0.0573 Y0.1006
X0.1002 Y0.1118
X0.1438 Y0.12
X0.1879 Y0.1257
X0.232 Y0.1296
X0.2763 Y0.1323
X0.3207 Y0.134
X0.365 Y0.1352
X0.4094 Y0.136
X0.4538 Y0.1365
X0.4981 Y0.1369
X0.5425 Y0.1371
X0.5869 Y0.1372
X0.6756 Y0.1374
X0.8531 Y0.1375
X1.0471
X1.0565 Y0.1378
X1.0658 Y0.1388
X1.0749 Y0.1405
X1.0789 Y0.1414
X1.0901 Y0.1429
X1.1126 Y0.1445
X1.135 Y0.1452
X1.1575 Y0.1458
X1.1687 Y0.1461
X1.1799
X1.1912 Y0.1453
X1.2355 Y0.1442
X1.2798 Y0.1418
X1.3242 Y0.1403
X1.3686 Y0.1393
X1.4129 Y0.1387
X1.4573 Y0.1383
X1.5017 Y0.138
X1.546 Y0.1378
X1.6348 Y0.1376
X1.6791 Y0.1349
X1.7209 Y0.1201
X1.7582 Y0.0961
X1.79 Y0.0651
X1.816 Y0.0292
X1.8367 Y-0.0101
X1.8525 Y-0.0516
X1.8642 Y-0.0943
X1.8727 Y-0.1379
X1.8786 Y-0.1819
X1.8827 Y-0.2261
X1.8855 Y-0.2703
X1.8874 Y-0.3147
X1.8887 Y-0.359
X1.8895 Y-0.4034
X1.89 Y-0.4478
X1.8904 Y-0.4921
X1.8906 Y-0.5365
X1.8908 Y-0.5809
X1.8909 Y-0.6696
X1.891 Y-0.8028
Y-1.1931
X1.8913 Y-1.2005
X1.8919 Y-1.2078
X1.8929 Y-1.2151
X1.8966 Y-1.2376
X1.8982 Y-1.2488
X1.9004 Y-1.2713
X1.9003 Y-1.2825
X1.8995 Y-1.305
X1.8987 Y-1.3163
X1.8978 Y-1.3606
X1.8954 Y-1.4049
X1.8848 Y-1.448
X1.8656 Y-1.488
X1.8392 Y-1.5237
X1.828 Y-1.5345
X1.8225 Y-1.54
X1.8174 Y-1.546
X1.8127 Y-1.5522
G3 X1.8187 Y-1.579 I0.0152 J-0.0107
X1.8453 Y-1.5692 I0.0092 J0.0161 F300.
G1 X1.9346 Y-1.3246
G3 X1.9208 Y-1.3 I-0.0174 J0.0064
X1.8987 Y-1.3163 I-0.0037 J-0.0182 F60.
G1 X1.8979 Y-1.3275
X1.8971 Y-1.3387
X1.8947 Y-1.3612
X1.8927 Y-1.3724
X1.8872 Y-1.3949
X1.8838 Y-1.4061
X1.8768 Y-1.4286
X1.8693 Y-1.4511
X1.865 Y-1.4623
X1.8537 Y-1.485
X1.8476 Y-1.496
X1.8344 Y-1.5185
X1.8312 Y-1.5237
X1.82 Y-1.5419
X1.8127 Y-1.5522
X1.7928 Y-1.5747
X1.7863 Y-1.5819
X1.7717 Y-1.5971
X1.7608 Y-1.6084
X1.7526 Y-1.6164
X1.7414 Y-1.6262
X1.7302 Y-1.6344
X1.7188 Y-1.6421
X1.6965 Y-1.6566
X1.6839 Y-1.6646
X1.674 Y-1.6707
X1.6657 Y-1.6758
X1.6628 Y-1.6771
X1.6396 Y-1.687
X1.6291 Y-1.6912
X1.5954 Y-1.7034
X1.5842 Y-1.7072
X1.573 Y-1.7106
G3 X1.5626 Y-1.7162 I0.0123 J-0.0354
G2 X1.5473 Y-1.7276 I-0.6483 J0.8547
X1.4044 Y-1.8158 I-0.633 J0.8661 F300.
X1.3876 Y-1.8199 I-0.0171 J0.0334
G1 X0.4608 Y-1.8295
G2 X0.444 Y-1.8257 I-0.0004 J0.0375
X0.2941 Y-1.7368 I0.4703 J0.9642
X0.2837 Y-1.7294 I0.6202 J0.8753 F60.
G3 X0.267 Y-1.7226 I-0.022 J-0.0303
G1 X0.248 Y-1.7205
X0.2367 Y-1.7192
X0.2143 Y-1.7163
X0.203 Y-1.7145
X0.1918 Y-1.7127
X0.1806 Y-1.7107
X0.1694 Y-1.7075
X0.1581 Y-1.7038
X0.1469 Y-1.6995
X0.1244 Y-1.6906
X0.1132 Y-1.686
X0.0884 Y-1.6758
X0.0795 Y-1.6709
X0.0683 Y-1.6644
X0.0571 Y-1.6575
X0.0346 Y-1.6411
X0.0234 Y-1.6328
X0.0009 Y-1.6159
X-0.0081 Y-1.6084
X-0.0103 Y-1.6062
X-0.0198 Y-1.5971
X-0.0296 Y-1.5859
X-0.0328 Y-1.5822
X-0.0574 Y-1.5522
X-0.0665 Y-1.541
X-0.0777 Y-1.5254
X-0.0822 Y-1.5185
X-0.0942 Y-1.496
X-0.1001 Y-1.4835
X-0.1114 Y-1.4593
X-0.1234 Y-1.4314
X-0.1248 Y-1.4288
X-0.1263 Y-1.4263
G2 X-0.1342 Y-1.4136 I0.1412 J0.0962
X-0.1379 Y-1.4042 I0.0327 J0.0183
G1 X-0.1386 Y-1.4003 F300.
X-0.1518 Y-1.3033
X-0.1521 Y-1.3001
Y-1.2969
X-0.1517 Y-1.2931 F60.
X-0.151 Y-1.2893
G2 X-0.1468 Y-1.275 I0.166 J-0.0408
G1 X-0.1457 Y-1.271
X-0.145 Y-1.2669
X-0.1438 Y-1.2488
X-0.1428 Y-1.2376
X-0.1406 Y-1.2151
X-0.1383 Y-1.2039
X-0.1338 Y-1.1853
X-0.1327 Y-1.1814
X-0.1215 Y-1.1477
X-0.1147 Y-1.1239
X-0.1109 Y-1.1082
X-0.1069 Y-1.0884
X-0.1027 Y-1.0624
X-0.0982 Y-1.0267
X-0.0944 Y-0.9825
X-0.092 Y-0.9382
X-0.0905 Y-0.8939
X-0.0894 Y-0.8495
X-0.0888 Y-0.8052
X-0.0883 Y-0.7608
X-0.0881 Y-0.7164
X-0.0879 Y-0.672
X-0.0877 Y-0.6277
X-0.0876 Y-0.5389
X-0.0875 Y-0.3614
Y-0.2283
X-0.0852 Y-0.184
X-0.0746 Y-0.1409
X-0.0562 Y-0.1005
X-0.0309 Y-0.0641
X0. Y-0.0323
X0.0353 Y-0.0053
X0.0736 Y0.017
X0.1142 Y0.0349
X0.1564 Y0.0489
X0.1994 Y0.0596
X0.2431 Y0.0675
X0.2871 Y0.0734
X0.3312 Y0.0776
X0.3755 Y0.0807
X0.4198 Y0.0828
X0.4642 Y0.0843
X0.5085 Y0.0853
X0.5529 Y0.086
X0.5973 Y0.0865
X0.6416 Y0.0868
X0.686 Y0.087
X0.7304 Y0.0872
X0.8191 Y0.0874
X0.8924
X0.9083 Y0.0884
X0.924 Y0.0914
X0.9392 Y0.0962
X0.9537 Y0.1029
X0.9554 Y0.1038
X0.9666 Y0.1089
X0.9891 Y0.1179
X1.0032 Y0.1219
X1.0227 Y0.1274
X1.0452 Y0.1335
X1.0564 Y0.1365
X1.0749 Y0.1405
X1.0778 Y0.1413
X1.0805 Y0.1424
G2 X1.0923 Y0.1469 I0.0575 J-0.1331
X1.1025 Y0.1488 I0.0118 J-0.0356
G1 X1.1045 Y0.1489
X1.161 Y0.1514 F300.
G2 X1.1713 Y0.1504 I0.0017 J-0.0375 F60.
X1.1835 Y0.1469 I-0.0334 J-0.1411
G1 X1.1873 Y0.1459
X1.1912 Y0.1453
X1.2035 Y0.1443
X1.2136 Y0.1427
X1.2361 Y0.1383
X1.281 Y0.1286
X1.2922 Y0.1257
X1.3035 Y0.1224
X1.3048 Y0.1219
X1.3109 Y0.1198
X1.3226 Y0.1163
X1.3368 Y0.1126
X1.3549 Y0.1086
X1.3779 Y0.1045
X1.409 Y0.1001
X1.4532 Y0.0956
X1.4974 Y0.0928
X1.5418 Y0.091
X1.5858 Y0.0852
X1.628 Y0.0715
X1.6669 Y0.0502
X1.7017 Y0.0227
X1.7317 Y-0.01
X1.7569 Y-0.0465
X1.7775 Y-0.0858
X1.7939 Y-0.1271
X1.8066 Y-0.1696
X1.8162 Y-0.2129
X1.8234 Y-0.2567
X1.8286 Y-0.3008
X1.8324 Y-0.345
X1.835 Y-0.3893
X1.8369 Y-0.4336
X1.8382 Y-0.478
X1.8391 Y-0.5223
X1.8397 Y-0.5667
X1.8401 Y-0.6111
X1.8404 Y-0.6554
X1.8406 Y-0.6998
X1.8408 Y-0.7442
X1.8409 Y-0.8329
X1.841 Y-1.0004
X1.8416 Y-1.0123
X1.8432 Y-1.0242
X1.846 Y-1.0359
X1.8777 Y-1.1477
X1.8809 Y-1.159
X1.887 Y-1.1814
X1.8921 Y-1.2101
X1.8929 Y-1.2151
G3 X1.9104 Y-1.2396 I0.0367 J0.0077
X1.967 Y-1.2039 I0.0192 J0.0322 F300.
G1 X1.965 Y-0.3725
X1.9506 Y-0.2261
X1.9339 Y-0.1478
X1.9098 Y-0.0691
X1.8862 Y-0.0129
X1.8521 Y0.0445
X1.8169 Y0.0895
X1.7712 Y0.1331
X1.7189 Y0.171
X1.6628 Y0.1973
X1.6179 Y0.2103
X1.3372 Y0.2408
G3 X1.2807 Y0.1407 I-0.0072 J-0.0619
X1.3048 Y0.1219 I0.0492 J0.0382 F60.
G1 X1.3259 Y0.1134
X1.3325 Y0.1106
X1.3596 Y0.0975
X1.3785 Y0.0882
X1.3943 Y0.0814
X1.4042 Y0.0775
X1.4156 Y0.0736
X1.429 Y0.0695
X1.472 Y0.0583
X1.515 Y0.0475
X1.5564 Y0.0315
X1.595 Y0.0097
X1.6302 Y-0.0174
X1.6612 Y-0.0491
X1.6881 Y-0.0844
X1.7107 Y-0.1226
X1.7293 Y-0.1629
X1.7442 Y-0.2047
X1.7561 Y-0.2474
X1.7652 Y-0.2908
X1.7722 Y-0.3347
X1.7774 Y-0.3787
X1.7813 Y-0.4229
X1.7841 Y-0.4672
X1.7861 Y-0.5115
X1.7876 Y-0.5559
X1.7886 Y-0.6003
X1.7893 Y-0.6446
X1.7898 Y-0.689
X1.7902 Y-0.7334
X1.7905 Y-0.7777
X1.7906 Y-0.8234
X1.7912 Y-0.8353
X1.7929 Y-0.847
X1.7956 Y-0.8586
X1.846 Y-1.0359
G3 X1.8659 Y-1.0584 I0.0357 J0.0115
X1.8985 Y-1.0578 I0.0158 J0.034 F300.
G1 X1.9118 Y-1.0466
X1.9192 Y-1.0241
X1.9072 Y-0.3612
X1.8883 Y-0.2377
X1.8506 Y-0.1141
X1.82 Y-0.0545
X1.7629 Y0.032
X1.674 Y0.1138
X1.6371 Y0.1331
X1.427 Y0.2024
G3 X1.356 Y0.1088 I-0.019 J-0.0593
X1.3785 Y0.0882 I0.0521 J0.0342 F60.
G1 X1.3933 Y0.0809
X1.4 Y0.0769
X1.4158 Y0.0672
X1.4178 Y0.0657
X1.427 Y0.0586
X1.4355 Y0.0523
X1.4721 Y0.0271
X1.5094 Y0.0031
X1.5447 Y-0.0237
X1.5773 Y-0.0538
X1.6065 Y-0.0872
X1.6322 Y-0.1234
X1.6542 Y-0.162
X1.6727 Y-0.2023
X1.688 Y-0.2439
X1.7003 Y-0.2866
X1.7102 Y-0.3298
X1.7179 Y-0.3735
X1.7238 Y-0.4175
X1.7284 Y-0.4616
X1.7318 Y-0.5059
X1.7343 Y-0.5502
X1.7361 Y-0.5945
X1.7375 Y-0.6389
X1.7382 Y-0.6498
X1.7399 Y-0.6607
X1.7424 Y-0.6714
X1.7956 Y-0.8586
G3 X1.8155 Y-0.8811 I0.0357 J0.0115
X1.8687 Y-0.8444 I0.0158 J0.034 F300.
G1 X1.8527 Y-0.3949
X1.823 Y-0.2377
X1.7807 Y-0.1253
X1.7226 Y-0.0242
X1.6944 Y0.0095
X1.5056 Y0.1552
G3 X1.4098 Y0.0839 I-0.0373 J-0.0499
X1.4202 Y0.0657 I0.0586 J0.0213 F60.
G1 X1.427 Y0.0586
X1.4607 Y0.0307
X1.4727 Y0.0208
X1.4857 Y0.0095
X1.4944 Y0.001
X1.4968 Y-0.0017
X1.5056 Y-0.0115
X1.5154 Y-0.0242
X1.5487 Y-0.0691
X1.5505 Y-0.0717
X1.5563 Y-0.0804
X1.5617 Y-0.0888
X1.5742 Y-0.1141
X1.5792 Y-0.1253
X1.5886 Y-0.1478
X1.6025 Y-0.1815
X1.6031 Y-0.1833
X1.6184 Y-0.225
X1.633 Y-0.2669
X1.6452 Y-0.3096
X1.6553 Y-0.3528
X1.6607 Y-0.3817
X1.6615 Y-0.3857
X1.6624 Y-0.3895
X1.6634 Y-0.3934
G3 X1.6833 Y-0.4159 I0.0357 J0.0115
X1.7352 Y-0.3716 I0.0158 J0.034 F300.
G1 X1.6753 Y-0.1631
G3 X1.6074 Y-0.1536 I-0.036 J-0.0104
X1.6031 Y-0.1833 I0.0318 J-0.0198 F60.
G1 X1.6066 Y-0.1947
X1.6095 Y-0.2039
X1.6128 Y-0.2152
X1.7424 Y-0.6714
X1.7526 Y-0.6874
X1.7626 Y-0.6939
X1.8735 Y-0.7657 F300.
G2 X1.9211 Y-0.8248 I-0.047 J-0.0865
G1 X2.0044 Y-1.1253
X2.0291 Y-1.2376
X2.0267 Y-1.3387
X2.0184 Y-1.4061
X1.9878 Y-1.5073
X1.9519 Y-1.5747
X1.9074 Y-1.6421
X1.8301 Y-1.7207
X1.7768 Y-1.7609
X1.6965 Y-1.8058
X1.6066 Y-1.8354
X1.5056 Y-1.8519
X1.3484 Y-1.8548
X0.2704 Y-1.8543
X0.1469 Y-1.8356
X0.102 Y-1.8218
X0.0122 Y-1.7828
X-0.0664 Y-1.7287
X-0.1235 Y-1.6758
X-0.1941 Y-1.5859
X-0.2423 Y-1.4848
X-0.2616 Y-1.4174
X-0.2762 Y-1.3339
X-0.2775 Y-1.305
G2 X-0.2574 Y-1.2376 I0.0981 J0.0074
G1 X-0.2573 Y-1.2375
G2 X-0.2124 Y-1.2049 I0.078 J-0.0601
G1 X-0.1563 Y-1.1834
G3 X-0.139 Y-1.1728 I-0.0235 J0.0577
X-0.1226 Y-1.1505 I-0.0408 J0.0471 F60.
G1 X-0.1215 Y-1.1477
X-0.1139 Y-1.1253
X-0.1114 Y-1.1184
X-0.0989 Y-1.0915
X-0.0936 Y-1.0826
X-0.0886 Y-1.0733
X-0.0852 Y-1.0663
X-0.0817 Y-1.0581
X-0.0781 Y-1.049
X-0.0741 Y-1.0377
X-0.07 Y-1.0244
X-0.0658 Y-1.0085
X-0.0613 Y-0.9887
X-0.0567 Y-0.9638
X-0.0519 Y-0.9315
X-0.0471 Y-0.8874
X-0.044 Y-0.8431
X-0.0419 Y-0.7988
X-0.0405 Y-0.7545
X-0.0395 Y-0.7101
X-0.0389 Y-0.6657
X-0.0384 Y-0.6214
X-0.0381 Y-0.577
X-0.0379 Y-0.5326
X-0.0378 Y-0.4882
X-0.0376 Y-0.3995
Y-0.3551
X-0.0375 Y-0.3107
X-0.0345 Y-0.2665
X-0.0251 Y-0.2231
X-0.0087 Y-0.1819
X0.0142 Y-0.1438
X0.0425 Y-0.1097
X0.0754 Y-0.08
X0.1119 Y-0.0547
X0.151 Y-0.0337
X0.192 Y-0.0166
X0.2342 Y-0.0031
X0.2773 Y0.0075
X0.3209 Y0.0155
X0.3649 Y0.0216
X0.409 Y0.0261
X0.4533 Y0.0294
X0.4976 Y0.0317
X0.5419 Y0.0334
X0.5863 Y0.0346
X0.6307 Y0.0355
X0.675 Y0.0361
X0.7194 Y0.0365
X0.7638 Y0.0368
X0.8082 Y0.037
X0.8094 Y0.0371
X0.8281 Y0.039
X0.8464 Y0.0437
X0.8638 Y0.0509
X0.8799 Y0.0605
X0.888 Y0.0662
X0.8992 Y0.0726
X0.9441 Y0.0977
X0.9537 Y0.1029
G3 X0.9715 Y0.1272 I-0.0189 J0.0324
X0.9329 Y0.1727 I-0.0366 J0.0081 F300.
G1 X0.349 Y0.1516
X0.1968 Y0.1219
X0.1192 Y0.0938
X0.0346 Y0.0504
X-0.0227 Y0.0066
X-0.0664 Y-0.038
X-0.1063 Y-0.0916
X-0.1402 Y-0.159
X-0.1579 Y-0.2216
X-0.1666 Y-0.2826
X-0.2082 Y-1.0466
G3 X-0.116 Y-1.1034 I0.0623 J-0.0022
X-0.0936 Y-1.0826 I-0.0299 J0.0547 F60.
G1 X-0.0922 Y-1.0803
X-0.0777 Y-1.0576
X-0.0632 Y-1.0354
X-0.0589 Y-1.0292
X-0.0515 Y-1.0174
X-0.0478 Y-1.0109
X-0.0441 Y-1.0037
X-0.0402 Y-0.9956
X-0.0358 Y-0.9855
X-0.0313 Y-0.9738
X-0.0269 Y-0.961
X-0.0221 Y-0.9448
X-0.0174 Y-0.9268
X-0.0123 Y-0.9037
X-0.0073 Y-0.8756
X-0.0021 Y-0.8387
X0.0025 Y-0.7945
X0.0055 Y-0.7503
X0.0077 Y-0.706
X0.0092 Y-0.6616
X0.0102 Y-0.6172
X0.0109 Y-0.5729
X0.0114 Y-0.5285
X0.0117 Y-0.4841
X0.012 Y-0.4398
X0.0123 Y-0.3954
X0.0145 Y-0.3511
X0.0219 Y-0.3073
X0.0354 Y-0.265
X0.0551 Y-0.2253
X0.0805 Y-0.1889
X0.1107 Y-0.1564
X0.1448 Y-0.1281
X0.1821 Y-0.1039
X0.2216 Y-0.0838
X0.2628 Y-0.0673
X0.3052 Y-0.0541
X0.3483 Y-0.0438
X0.392 Y-0.0358
X0.4359 Y-0.0297
X0.4801 Y-0.025
X0.5243 Y-0.0216
X0.5686 Y-0.0191
X0.6129 Y-0.0172
X0.6573 Y-0.0159
X0.7016 Y-0.0149
X0.7371 Y-0.014
X0.7579 Y-0.0126
X0.7587
X0.7752 Y-0.0098
X0.7913 Y-0.0049
X0.8066 Y0.0021
X0.8209 Y0.0109
X0.8339 Y0.0216
X0.8451 Y0.032
X0.8543 Y0.0404
X0.8655 Y0.0503
X0.8722 Y0.0551
X0.8799 Y0.0605
G3 X0.8946 Y0.0867 I-0.0226 J0.0299
X0.8543 Y0.1278 I-0.0373 J0.0038 F300.
G1 X0.3715 Y0.0942
X0.2929 Y0.0769
X0.203 Y0.0478
X0.1172 Y0.0089
X0.0234 Y-0.0598
X-0.0252 Y-0.1141
X-0.0625 Y-0.1702
X-0.0922 Y-0.2377
X-0.1101 Y-0.3051
X-0.1711 Y-0.9904
G3 X-0.0828 Y-1.0484 I0.0623 J-0.0014
X-0.0589 Y-1.0292 I-0.026 J0.0566 F60.
G1 X-0.0552 Y-1.0239
X-0.0328 Y-0.9957
X-0.0215 Y-0.9824
X-0.0164 Y-0.9757
X-0.0127 Y-0.9704
X-0.0091 Y-0.9648
X-0.005 Y-0.9579
X-0.0008 Y-0.9502
X0.0036 Y-0.9414
X0.0084 Y-0.9306
X0.0131 Y-0.9192
X0.0181 Y-0.9054
X0.0233 Y-0.8889
X0.0284 Y-0.8704
X0.0338 Y-0.8476
X0.0393 Y-0.8196
X0.0448 Y-0.7848
X0.05 Y-0.7408
X0.0537 Y-0.6966
X0.0562 Y-0.6523
X0.0581 Y-0.6079
X0.0594 Y-0.5636
X0.0603 Y-0.5192
X0.0611 Y-0.4748
X0.0631 Y-0.4305
X0.069 Y-0.3865
X0.0803 Y-0.3436
X0.0975 Y-0.3027
X0.1203 Y-0.2646
X0.1481 Y-0.2301
X0.1801 Y-0.1994
X0.2156 Y-0.1727
X0.2537 Y-0.15
X0.2939 Y-0.1311
X0.3355 Y-0.1156
X0.3781 Y-0.1032
X0.4213 Y-0.0934
X0.465 Y-0.0857
X0.509 Y-0.0798
X0.5532 Y-0.0753
X0.5974 Y-0.0719
X0.6806 Y-0.067
X0.7011 Y-0.0651
X0.7107 Y-0.0638
X0.7286 Y-0.0601
X0.7458 Y-0.0539
X0.7619 Y-0.0453
X0.7767 Y-0.0346
X0.7899 Y-0.0219
X0.7982 Y-0.0127
X0.8089 Y-0.0017
X0.8209 Y0.0095
X0.8339 Y0.0216
G3 X0.8449 Y0.0495 I-0.0265 J0.0265
X0.7982 Y0.0845 I-0.0375 J-0.0014 F300.
G1 X0.3153 Y0.0138
X0.2394 Y-0.0129
X0.1581 Y-0.0543
X0.0908 Y-0.1046
X0.0279 Y-0.1702
X-0.0215 Y-0.2502
X-0.044 Y-0.3062
X-0.0632 Y-0.3837
X-0.1297 Y-0.9342
G3 X-0.047 Y-0.9993 I0.062 J-0.0063
X-0.0215 Y-0.9824 I-0.0207 J0.0588 F60.
G1 X0.0234 Y-0.9292
X0.0291 Y-0.9217
X0.0331 Y-0.9161
X0.037 Y-0.91
X0.0415 Y-0.9025
X0.0459 Y-0.8944
X0.0506 Y-0.8849
X0.0557 Y-0.8735
X0.0606 Y-0.8615
X0.0661 Y-0.8463
X0.0714 Y-0.8296
X0.077 Y-0.8094
X0.0825 Y-0.786
X0.0883 Y-0.7567
X0.0941 Y-0.7199
X0.0993 Y-0.6758
X0.103 Y-0.6316
X0.1057 Y-0.5873
X0.1078 Y-0.543
X0.1106 Y-0.4987
X0.1165 Y-0.4547
X0.1273 Y-0.4116
X0.1433 Y-0.3703
X0.1649 Y-0.3315
X0.1914 Y-0.2959
X0.2222 Y-0.2639
X0.2565 Y-0.2359
X0.2938 Y-0.2117
X0.3332 Y-0.1913
X0.3742 Y-0.1744
X0.4163 Y-0.1605
X0.4593 Y-0.1494
X0.5028 Y-0.1406
X0.5466 Y-0.1337
X0.5906 Y-0.1282
X0.6347 Y-0.123
X0.6561 Y-0.1198
X0.674 Y-0.1164
X0.6762 Y-0.1159
X0.6922 Y-0.1111
X0.7075 Y-0.1043
X0.7217 Y-0.0956
X0.7348 Y-0.0852
X0.7464 Y-0.0731
X0.7782 Y-0.0354
X0.7869 Y-0.0252
X0.7899 Y-0.0219
G3 X0.7983 Y0.0069 I-0.0287 J0.0241
X0.7533 Y0.0388 I-0.0372 J-0.0047 F300.
G1 X0.3266 Y-0.0518
X0.2143 Y-0.1076
X0.1518 Y-0.1535
X0.1094 Y-0.1927
X0.0571 Y-0.2612
X0.0207 Y-0.3275
X0.0033 Y-0.3725
X-0.0844 Y-0.8781
G3 X-0.0021 Y-0.9461 I0.0616 J-0.0093
X0.0234 Y-0.9292 I-0.0207 J0.0588 F60.
G1 X0.0683 Y-0.876
X0.0766 Y-0.8651
X0.0807 Y-0.8592
X0.0848 Y-0.853
X0.0892 Y-0.8455
X0.094 Y-0.8368
X0.0987 Y-0.8273
X0.104 Y-0.8155
X0.1091 Y-0.803
X0.1146 Y-0.7878
X0.1202 Y-0.77
X0.1259 Y-0.7497
X0.1316 Y-0.7253
X0.1376 Y-0.6949
X0.1441 Y-0.6533
X0.1494 Y-0.6092
X0.1542 Y-0.5651
X0.161 Y-0.5213
X0.1716 Y-0.4782
X0.1871 Y-0.4366
X0.2076 Y-0.3973
X0.233 Y-0.3609
X0.2627 Y-0.3279
X0.296 Y-0.2986
X0.3323 Y-0.2731
X0.371 Y-0.2513
X0.4114 Y-0.233
X0.4531 Y-0.2179
X0.4957 Y-0.2055
X0.5389 Y-0.1952
X0.5823 Y-0.1862
X0.6141 Y-0.1793
X0.6281 Y-0.1758
X0.6434 Y-0.1708
X0.658 Y-0.1641
X0.6716 Y-0.1555
X0.684 Y-0.1454
X0.6952 Y-0.1337
X0.7464 Y-0.0731
G3 X0.7539 Y-0.044 I-0.0295 J0.0232
X0.7083 Y-0.0134 I-0.037 J-0.0059 F300.
G1 X0.349 Y-0.1181
X0.2592 Y-0.1651
X0.1918 Y-0.2167
X0.1295 Y-0.2826
X0.0908 Y-0.3402
X0.0539 Y-0.4174
X-0.039 Y-0.8219
G3 X0.0428 Y-0.8929 I0.0611 J-0.0123
X0.0683 Y-0.876 I-0.0207 J0.0588 F60.
G1 X0.1192 Y-0.8157
X0.1248 Y-0.8084
X0.1289 Y-0.8025
X0.1332 Y-0.796
X0.1376 Y-0.7885
X0.1426 Y-0.7793
X0.1473 Y-0.7698
X0.1527 Y-0.7579
X0.1582 Y-0.7442
X0.1637 Y-0.729
X0.1699 Y-0.7097
X0.1766 Y-0.6853
X0.1868 Y-0.6421
X0.1961 Y-0.5987
X0.2071 Y-0.5557
X0.2215 Y-0.5137
X0.2403 Y-0.4736
X0.2637 Y-0.4358
X0.2913 Y-0.4011
X0.3227 Y-0.3698
X0.3573 Y-0.342
X0.3946 Y-0.3179
X0.4339 Y-0.2972
X0.4746 Y-0.2796
X0.5163 Y-0.2645
X0.5585 Y-0.2508
X0.5768 Y-0.2446
X0.5932 Y-0.2379
X0.6085 Y-0.2289
X0.6224 Y-0.218
X0.6347 Y-0.2053
X0.6952 Y-0.1337
G3 X0.7027 Y-0.1047 I-0.0295 J0.0232
X0.6522 Y-0.0756 I-0.037 J-0.0059 F300.
G1 X0.3266 Y-0.2071
X0.2646 Y-0.2489
X0.2143 Y-0.2954
X0.1672 Y-0.35
X0.1293 Y-0.4062
X0.0138 Y-0.7545
G3 X0.0937 Y-0.8327 I0.0592 J-0.0194
X0.1192 Y-0.8157 I-0.0207 J0.0588 F60.
G1 X0.1658 Y-0.7606
X0.1743 Y-0.7494
X0.1784 Y-0.7435
X0.1832 Y-0.7362
X0.1885 Y-0.7272
X0.1941 Y-0.7171
X0.2004 Y-0.7043
X0.2096 Y-0.6839
X0.2262 Y-0.6428
X0.2423 Y-0.6014
X0.2603 Y-0.5609
X0.2817 Y-0.522
X0.3067 Y-0.4853
X0.3355 Y-0.4516
X0.3676 Y-0.4209
X0.4026 Y-0.3936
X0.4398 Y-0.3694
X0.4787 Y-0.3481
X0.5143 Y-0.3307
X0.5299 Y-0.3218
X0.5441 Y-0.3107
X0.5566 Y-0.2978
X0.6347 Y-0.2053
G3 X0.6423 Y-0.1762 I-0.0295 J0.0232
X0.5902 Y-0.1478 I-0.037 J-0.0059 F300.
G1 X0.3266 Y-0.2874
X0.2367 Y-0.3658
X0.1962 Y-0.4174
X0.0659 Y-0.6871
G3 X0.1403 Y-0.7775 I0.0537 J-0.0316
X0.1658 Y-0.7606 I-0.0207 J0.0588 F60.
G1 X0.2255 Y-0.6899
X0.2465 Y-0.6622
X0.2721 Y-0.626
X0.297 Y-0.5892
X0.3236 Y-0.5537
X0.3525 Y-0.5201
X0.3841 Y-0.4889
X0.4139 Y-0.4639
X0.4194 Y-0.459
X0.4246 Y-0.4538
X0.4295 Y-0.4483
G3 X0.4371 Y-0.4192 I-0.0295 J0.0232
G1 X0.4314 Y-0.4062 F300.
G3 X0.2999 Y-0.3837 I-0.072 J-0.0254
G1 X0.1312 Y-0.6084
G3 X0.1694 Y-0.7095 I0.0481 J-0.0396
G1 X0.1806 Y-0.7103
G3 X0.2 Y-0.7068 I-0.0013 J0.0623
X0.2255 Y-0.6899 I-0.0207 J0.0588 F60.
G1 X0.5566 Y-0.2978
G3 X0.5642 Y-0.2687 I-0.0295 J0.0232
G1 X0.5634 Y-0.2642 Z0.1403
X0.5627 Y-0.2598 Z0.1411
X0.5621 Y-0.2556 Z0.1424
X0.5614 Y-0.2515 Z0.1443
X0.5608 Y-0.2477 Z0.1466
X0.5602 Y-0.2442 Z0.1494
X0.5597 Y-0.241 Z0.1526
X0.5593 Y-0.2382 Z0.1562
X0.5589 Y-0.2359 Z0.1601
X0.5586 Y-0.2341 Z0.1642
X0.5584 Y-0.2328 Z0.1685
X0.5583 Y-0.2319 Z0.173
Y-0.2317 Z0.1775
G0 Z1.85
(2D ADAPTIVE ROUGHING2)
G0 X1.1962 Y-0.9312
Z1.85
Z1.45
Z1.3
G3 X1.0583 Y-0.7756 Z1.2806 I-0.1785 J-0.0193 F40.
X0.8663 Y-0.8544 Z1.2612 I-0.0405 J-0.1746
X0.8775 Y-1.0612 Z1.2418 I0.1512 J-0.0956
X1.0761 Y-1.1187 Z1.2224 I0.1398 J0.1111
X1.1955 Y-0.9505 Z1.203 I-0.0587 J0.1682
X0.8392 I-0.1782 J0.
X1.1955 I0.1782 J0.
G1 X1.1957 Y-0.9394 F60.
X1.2004 Y-0.8953
X1.202 Y-0.8895
X1.2031 Y-0.8836
X1.2037 Y-0.8776
X1.2039 Y-0.8716
X1.2038 Y-0.8655
X1.2032 Y-0.8591
X1.2022 Y-0.8522
X1.2008 Y-0.8451
X1.1988 Y-0.8376
X1.1962 Y-0.83
X1.1931 Y-0.8221
X1.1893 Y-0.8141
X1.185 Y-0.806
X1.1799 Y-0.7979
X1.1742 Y-0.7899
X1.1679 Y-0.7819
X1.1609 Y-0.7741
X1.1532 Y-0.7665
X1.1449 Y-0.7592
X1.1359 Y-0.7523
X1.1264 Y-0.7457
X1.1163 Y-0.7396
X1.1056 Y-0.734
X1.0945 Y-0.7289
X1.0829 Y-0.7245
X1.071 Y-0.7207
X1.0586 Y-0.7175
X1.046 Y-0.7151
X1.0331 Y-0.7134
X1.02 Y-0.7124
X1.0068 Y-0.7122
X0.9934 Y-0.7128
X0.9801 Y-0.7142
X0.9667 Y-0.7164
X0.9535 Y-0.7194
X0.9404 Y-0.7232
X0.9274 Y-0.7278
X0.9147 Y-0.7331
X0.9023 Y-0.7392
X0.8903 Y-0.746
X0.8786 Y-0.7536
X0.8674 Y-0.7618
X0.8566 Y-0.7708
X0.8464 Y-0.7803
X0.8367 Y-0.7905
X0.8277 Y-0.8012
X0.8192 Y-0.8125
X0.8115 Y-0.8243
X0.8044 Y-0.8365
X0.798 Y-0.8491
X0.7924 Y-0.8621
X0.7876 Y-0.8754
X0.7836 Y-0.8889
X0.7803 Y-0.9027
X0.7779 Y-0.9167
X0.7763 Y-0.9308
X0.7756 Y-0.945
Y-0.9592
X0.7765 Y-0.9733
X0.7783 Y-0.9874
X0.7809 Y-1.0014
X0.7842 Y-1.0152
X0.7884 Y-1.0288
X0.7934 Y-1.0421
X0.7992 Y-1.0551
X0.8057 Y-1.0678
X0.813 Y-1.08
X0.8209 Y-1.0918
X0.8296 Y-1.1031
X0.8389 Y-1.1139
X0.8488 Y-1.1241
X0.8593 Y-1.1337
X0.8703 Y-1.1427
X0.8819 Y-1.151
X0.8939 Y-1.1587
X0.9064 Y-1.1656
X0.9192 Y-1.1717
X0.9324 Y-1.1771
X0.9459 Y-1.1817
X0.9596 Y-1.1855
X0.9736 Y-1.1885
X0.9876 Y-1.1907
X1.0018 Y-1.192
X1.0161 Y-1.1925
X1.0303 Y-1.1922
X1.0445 Y-1.191
X1.0586 Y-1.189
X1.0726 Y-1.1861
X1.0863 Y-1.1825
X1.0999 Y-1.178
X1.1131 Y-1.1728
X1.126 Y-1.1668
X1.1386 Y-1.16
X1.1507 Y-1.1525
X1.1623 Y-1.1443
X1.1735 Y-1.1354
X1.1841 Y-1.1259
X1.1941 Y-1.1158
X1.2036 Y-1.1051
X1.2123 Y-1.0939
X1.2204 Y-1.0822
X1.2278 Y-1.07
X1.2357 Y-1.0551
X1.2479 Y-1.0285
X1.2575 Y-1.0037
X1.2641 Y-0.9829
X1.269 Y-0.9641
X1.2724 Y-0.9467
X1.2746 Y-0.93
X1.2758 Y-0.9139
X1.2761 Y-0.8983
X1.2754 Y-0.8832
X1.2739 Y-0.8684
X1.2715 Y-0.8539
X1.2684 Y-0.8396
X1.2643 Y-0.8256
X1.2595 Y-0.8118
X1.2539 Y-0.7983
X1.2474 Y-0.7851
X1.2402 Y-0.7723
X1.2321 Y-0.7598
X1.2233 Y-0.7477
X1.2137 Y-0.7361
X1.2033 Y-0.7249
X1.1922 Y-0.7143
X1.1804 Y-0.7043
X1.1679 Y-0.6949
X1.1548 Y-0.6862
X1.141 Y-0.6782
X1.1267 Y-0.671
X1.1119 Y-0.6646
X1.0965 Y-0.659
X1.0808 Y-0.6542
X1.0646 Y-0.6504
X1.0481 Y-0.6475
X1.0313 Y-0.6456
X1.0144 Y-0.6446
X0.9973 Y-0.6447
X0.9801 Y-0.6457
X0.963 Y-0.6478
X0.9459 Y-0.6509
X0.9289 Y-0.6551
X0.9121 Y-0.6602
X0.8956 Y-0.6663
X0.8794 Y-0.6735
X0.8637 Y-0.6816
X0.8483 Y-0.6906
X0.8335 Y-0.7006
X0.8193 Y-0.7114
X0.8056 Y-0.7231
X0.7927 Y-0.7356
X0.7805 Y-0.7489
X0.7691 Y-0.7629
X0.7585 Y-0.7775
X0.7488 Y-0.7928
X0.7399 Y-0.8087
X0.7321 Y-0.825
X0.7251 Y-0.8419
X0.7192 Y-0.8591
X0.7143 Y-0.8766
X0.7104 Y-0.8945
X0.7076 Y-0.9125
X0.7059 Y-0.9307
X0.7052 Y-0.949
X0.7056 Y-0.9673
X0.7071 Y-0.9855
X0.7096 Y-1.0036
X0.7133 Y-1.0216
X0.7179 Y-1.0393
X0.7236 Y-1.0568
X0.7304 Y-1.0738
X0.7381 Y-1.0905
X0.7468 Y-1.1067
X0.7564 Y-1.1223
X0.7669 Y-1.1373
X0.7783 Y-1.1517
X0.7906 Y-1.1654
X0.8036 Y-1.1784
X0.8173 Y-1.1906
X0.8318 Y-1.2019
X0.8469 Y-1.2124
X0.8626 Y-1.222
X0.8788 Y-1.2306
X0.8955 Y-1.2383
X0.9127 Y-1.245
X0.9302 Y-1.2506
X0.948 Y-1.2552
X0.966 Y-1.2588
X0.9842 Y-1.2613
X1.0026 Y-1.2627
X1.021 Y-1.263
X1.0394 Y-1.2623
X1.0577 Y-1.2604
X1.0758 Y-1.2575
X1.0938 Y-1.2536
X1.1115 Y-1.2485
X1.1289 Y-1.2425
X1.1459 Y-1.2354
X1.1624 Y-1.2274
X1.1784 Y-1.2184
X1.1939 Y-1.2084
X1.2088 Y-1.1976
X1.2232 Y-1.1857
X1.2372 Y-1.1728
X1.2517 Y-1.1577
X1.2663 Y-1.1405
X1.2801 Y-1.1222
X1.293 Y-1.1029
X1.3046 Y-1.083
X1.315 Y-1.0626
X1.3239 Y-1.042
X1.3316 Y-1.0213
X1.3378 Y-1.0005
X1.3428 Y-0.9798
X1.3464 Y-0.9592
X1.3489 Y-0.9387
X1.35 Y-0.9183
Y-0.8981
X1.3488 Y-0.8782
X1.3465 Y-0.8585
X1.343 Y-0.8392
X1.3384 Y-0.8201
X1.3327 Y-0.8014
X1.3259 Y-0.7831
X1.3181 Y-0.7652
X1.3092 Y-0.7479
X1.2993 Y-0.731
X1.2884 Y-0.7147
X1.2766 Y-0.699
X1.2638 Y-0.6841
X1.25 Y-0.6698
X1.2354 Y-0.6563
X1.2199 Y-0.6436
X1.2036 Y-0.6318
X1.1866 Y-0.6209
X1.1688 Y-0.6109
X1.1503 Y-0.602
X1.1313 Y-0.5941
X1.1117 Y-0.5873
X1.0916 Y-0.5817
X1.0712 Y-0.5772
X1.0503 Y-0.5739
X1.0293 Y-0.5718
X1.008 Y-0.571
X0.9866 Y-0.5714
X0.9651 Y-0.5731
X0.9438 Y-0.5761
X0.9225 Y-0.5803
X0.9014 Y-0.5858
X0.8807 Y-0.5926
X0.8602 Y-0.6006
X0.8403 Y-0.6098
X0.8208 Y-0.6202
X0.802 Y-0.6317
X0.7838 Y-0.6444
X0.7663 Y-0.6582
X0.7497 Y-0.673
X0.7339 Y-0.6888
X0.719 Y-0.7055
X0.7051 Y-0.7231
X0.6923 Y-0.7415
X0.6805 Y-0.7607
X0.6699 Y-0.7805
X0.6605 Y-0.801
X0.6522 Y-0.822
X0.6453 Y-0.8435
X0.6395 Y-0.8654
X0.6351 Y-0.8876
X0.632 Y-0.91
X0.6302 Y-0.9326
X0.6298 Y-0.9553
X0.6306 Y-0.978
X0.6329 Y-1.0006
X0.6364 Y-1.0231
X0.6413 Y-1.0453
X0.6474 Y-1.0672
X0.6549 Y-1.0887
X0.6636 Y-1.1098
X0.6735 Y-1.1303
X0.6846 Y-1.1502
X0.6969 Y-1.1694
X0.7103 Y-1.1878
X0.7248 Y-1.2055
X0.7402 Y-1.2222
X0.7567 Y-1.2381
X0.774 Y-1.2529
X0.7922 Y-1.2667
X0.8112 Y-1.2794
X0.8309 Y-1.291
X0.8512 Y-1.3013
X0.8721 Y-1.3105
X0.8935 Y-1.3184
X0.9154 Y-1.3251
X0.9376 Y-1.3305
X0.9601 Y-1.3345
X0.9828 Y-1.3372
X1.0056 Y-1.3386
X1.0284
X1.0512 Y-1.3373
X1.0739 Y-1.3346
X1.0964 Y-1.3306
X1.1187 Y-1.3253
X1.1405 Y-1.3187
X1.162 Y-1.3108
X1.1831 Y-1.3016
X1.2038 Y-1.2911
X1.2242 Y-1.2792
X1.2442 Y-1.2659
X1.2638 Y-1.251
X1.283 Y-1.2347
X1.3015 Y-1.217
X1.3191 Y-1.198
X1.3357 Y-1.1778
X1.3512 Y-1.1566
X1.3654 Y-1.1345
X1.3782 Y-1.1117
X1.3896 Y-1.0882
X1.3996 Y-1.0643
X1.4081 Y-1.0399
X1.4151 Y-1.0153
X1.4205 Y-0.9905
X1.4207 Y-0.9892
X1.4223 Y-0.9718
X1.4212 Y-0.9543
X1.4177 Y-0.9371
X1.3598 Y-0.7333
X1.3531 Y-0.7136
X1.3472 Y-0.6991
X1.3403 Y-0.6845
X1.3322 Y-0.6699
X1.3228 Y-0.655
X1.312 Y-0.6399
X1.2998 Y-0.6248
X1.2864 Y-0.6101
X1.2719 Y-0.5959
X1.2561 Y-0.5822
X1.239 Y-0.5691
X1.2206 Y-0.5566
X1.2012 Y-0.545
X1.1806 Y-0.5344
X1.1591 Y-0.5248
X1.1368 Y-0.5164
X1.1137 Y-0.5092
X1.09 Y-0.5033
X1.0657 Y-0.4988
X1.041 Y-0.4957
X1.016 Y-0.494
X0.9907 Y-0.4938
X0.9652 Y-0.4951
X0.9397 Y-0.498
X0.9269 Y-0.5001
X0.9104 Y-0.5042
X0.8947 Y-0.5104
X0.88 Y-0.5188
X0.8667 Y-0.5292
X0.8549 Y-0.5413
X0.6185 Y-0.8212
X0.6081 Y-0.8348
X0.6022 Y-0.8437
X0.596 Y-0.8541
X0.5902 Y-0.8654
X0.5846 Y-0.8781
X0.5793 Y-0.8923
X0.5747 Y-0.9071
X0.5708 Y-0.9235
X0.5675 Y-0.9413
X0.5652 Y-0.96
X0.564 Y-0.9794
X0.5639 Y-0.9999
X0.5651 Y-1.0214
X0.5677 Y-1.0437
X0.5716 Y-1.0663
X0.577 Y-1.0892
X0.5839 Y-1.1121
X0.5923 Y-1.1351
X0.6022 Y-1.158
X0.6136 Y-1.1806
X0.6265 Y-1.2029
X0.6409 Y-1.2246
X0.6567 Y-1.2456
X0.6739 Y-1.2658
X0.6923 Y-1.2851
X0.7119 Y-1.3034
X0.7212 Y-1.3111
X0.7348 Y-1.3209
X0.7495 Y-1.3286
X0.7653 Y-1.3343
X0.7816 Y-1.3377
X0.7982 Y-1.3389
X1.1801
X1.1939 Y-1.3382
X1.2052 Y-1.3369
X1.2169 Y-1.335
X1.2299 Y-1.332
X1.2435 Y-1.328
X1.2579 Y-1.3228
X1.2736 Y-1.3161
X1.2892 Y-1.3083
X1.3057 Y-1.2989
X1.323 Y-1.2875
X1.3402 Y-1.2748
X1.3572 Y-1.2605
X1.3743 Y-1.2443
X1.3913 Y-1.2263
X1.4078 Y-1.2066
X1.4235 Y-1.1854
X1.4382 Y-1.1629
X1.4421 Y-1.1561
X1.4491 Y-1.1417
X1.4542 Y-1.1265
X1.4572 Y-1.1107
X1.458 Y-1.0947
X1.4568 Y-1.0788
X1.4535 Y-1.0631
X1.4177 Y-0.9371
G3 X1.3978 Y-0.9146 I-0.0357 J-0.0115
X1.3494 Y-0.9301 I-0.0158 J-0.034 F300.
G1 X1.1488 Y-1.2829
G3 X1.153 Y-1.3259 I0.0326 J-0.0185
X1.1801 Y-1.3389 I0.0284 J0.0245 F60.
G1 X1.2924
X1.2994 Y-1.3385
X1.3086 Y-1.3375
X1.3184 Y-1.3359
X1.3292 Y-1.3334
X1.3408 Y-1.33
X1.353 Y-1.3256
X1.3663 Y-1.3199
X1.3797 Y-1.3132
X1.3943 Y-1.3048
X1.4092 Y-1.2951
X1.4242 Y-1.284
X1.4377 Y-1.2727
X1.4498 Y-1.2612
X1.4608 Y-1.2477
X1.4697 Y-1.2327
X1.4762 Y-1.2165
X1.4804 Y-1.1995
X1.482 Y-1.1822
X1.481 Y-1.1647
X1.4775 Y-1.1477
G3 X1.4576 Y-1.1251 I-0.0357 J-0.0115
X1.4158 Y-1.1321 I-0.0158 J-0.034 F300.
G1 X1.2677 Y-1.2744
G3 X1.2653 Y-1.3259 I0.026 J-0.027
X1.2924 Y-1.3389 I0.0284 J0.0245 F60.
G1 X1.3822
X1.3939 Y-1.3383
X1.4021 Y-1.3374
X1.4102 Y-1.336
X1.418 Y-1.3342
X1.4267 Y-1.3317
X1.4346 Y-1.3288
X1.4426 Y-1.3254
X1.4509 Y-1.3213
X1.464 Y-1.3122
X1.4755 Y-1.3011
X1.485 Y-1.2883
X1.4922 Y-1.2741
X1.4969 Y-1.2588
X1.4991 Y-1.243
X1.4987 Y-1.2271
X1.4956 Y-1.2115
G3 X1.4757 Y-1.1889 I-0.0357 J-0.0115
X1.433 Y-1.1968 I-0.0158 J-0.034 F300.
G1 X1.3567 Y-1.2752
G3 X1.3551 Y-1.3259 I0.0269 J-0.0262
X1.3822 Y-1.3389 I0.0284 J0.0245 F60.
G1 X1.4272
X1.453 Y-1.3384
X1.459 Y-1.3379
X1.4716 Y-1.3346
X1.4833 Y-1.3286
X1.4935 Y-1.3204
X1.5017 Y-1.3102
X1.5076 Y-1.2985
X1.5109 Y-1.2859
X1.5114 Y-1.2728
X1.5093 Y-1.2599
G3 X1.4927 Y-1.2342 I-0.0556 J-0.0177
X1.4437 Y-1.2201 I-0.039 J-0.0433 F300.
X1.4236 Y-1.3301 I0.0102 J-0.0587
X1.453 Y-1.3384 I0.0303 J0.0513 F60.
G1 X1.4609 Y-1.3382
X1.4721 Y-1.3371
X1.4777 Y-1.3362
X1.4833 Y-1.3345
X1.4889 Y-1.3321
X1.4945 Y-1.3287
X1.4952 Y-1.3282
X1.4982 Y-1.3258
X1.5013 Y-1.3229
X1.5058 Y-1.3175
X1.5061 Y-1.317
X1.5095 Y-1.3114
X1.5118 Y-1.3058
X1.5134 Y-1.3001
X1.5143 Y-1.2945
X1.5145 Y-1.2889
X1.514 Y-1.2833
X1.5121 Y-1.272
X1.5095 Y-1.2608
X1.5001 Y-1.2271
X1.4535 Y-1.0631
G3 X1.4336 Y-1.0406 I-0.0357 J-0.0115
G1 X1.431 Y-1.0395 F300.
X1.4284 Y-1.0386
X0.6569 Y-0.8104
G3 X0.6459 Y-0.8089 I-0.0106 J-0.036
X0.6185 Y-0.8212 I0.0004 J-0.0375 F60.
G1 X0.5481 Y-0.9046
X0.5416 Y-0.9131
X0.5368 Y-0.9202
X0.5318 Y-0.9287
X0.5272 Y-0.9377
X0.5224 Y-0.9484
X0.5182 Y-0.9598
X0.5143 Y-0.9726
X0.5108 Y-0.9867
X0.5081 Y-1.0016
X0.5061 Y-1.0182
X0.505 Y-1.0359
X0.5049 Y-1.0542
X0.506 Y-1.074
X0.5084 Y-1.0952
X0.5122 Y-1.1169
X0.5175 Y-1.139
X0.5243 Y-1.162
X0.533 Y-1.1856
X0.5434 Y-1.2097
X0.5555 Y-1.2338
X0.5694 Y-1.2576
X0.5838 Y-1.2794
X0.5922 Y-1.2906
X0.6045 Y-1.3046
X0.6188 Y-1.3165
X0.6348 Y-1.3261
X0.6521 Y-1.3332
X0.6703 Y-1.3374
X0.6888 Y-1.3389
X0.7982
G3 X0.8253 Y-1.3259 I-0.0013 J0.0375
X0.8292 Y-1.2822 I-0.0284 J0.0245 F300.
G1 X0.6081 Y-0.9106
G3 X0.5755 Y-0.8922 I-0.0322 J-0.0192
X0.5481 Y-0.9046 I0.0004 J-0.0375 F60.
G1 X0.4888 Y-0.9748
X0.4832 Y-0.9821
X0.4787 Y-0.9889
X0.4743 Y-0.9962
X0.4698 Y-1.005
X0.4657 Y-1.0143
X0.4616 Y-1.0252
X0.4581 Y-1.0367
X0.4549 Y-1.0497
X0.4523 Y-1.064
X0.4505 Y-1.0789
X0.4495 Y-1.0957
X0.4494 Y-1.1135
X0.4504 Y-1.1321
X0.4528 Y-1.1525
X0.4565 Y-1.174
X0.4617 Y-1.1958
X0.4684 Y-1.2184
X0.4759 Y-1.2389
X0.4842 Y-1.258
X0.4924 Y-1.2742
X0.495 Y-1.2787
X0.5052 Y-1.2936
X0.5174 Y-1.3068
X0.5316 Y-1.318
X0.5472 Y-1.327
X0.5639 Y-1.3335
X0.5815 Y-1.3375
X0.5995 Y-1.3389
X0.6888
G3 X0.7159 Y-1.3259 I-0.0013 J0.0375
X0.7202 Y-1.2829 I-0.0284 J0.0245 F300.
G1 X0.5492 Y-0.9815
G3 X0.5162 Y-0.9625 I-0.0326 J-0.0185
X0.4888 Y-0.9748 I0.0004 J-0.0375 F60.
G1 X0.4319 Y-1.0422
X0.428 Y-1.0472
X0.4237 Y-1.0537
X0.4195 Y-1.0608
X0.4152 Y-1.0691
X0.4112 Y-1.0782
X0.4074 Y-1.0885
X0.4038 Y-1.1
X0.4009 Y-1.1122
X0.3983 Y-1.1261
X0.3965 Y-1.1406
X0.3956 Y-1.1563
X0.3955 Y-1.1731
X0.3965 Y-1.1905
X0.3983 Y-1.2069
X0.4012 Y-1.2232
X0.4047 Y-1.2379
X0.409 Y-1.2523
X0.4138 Y-1.2655
X0.4192 Y-1.278
X0.4283 Y-1.2929
X0.4396 Y-1.3062
X0.4528 Y-1.3176
X0.4676 Y-1.3267
X0.4837 Y-1.3334
X0.5007 Y-1.3375
X0.5181 Y-1.3389
X0.5995
G3 X0.6266 Y-1.3259 I-0.0013 J0.0375
X0.6304 Y-1.2823 I-0.0284 J0.0245 F300.
G1 X0.4919 Y-1.0483
G3 X0.4593 Y-1.0299 I-0.0323 J-0.0191
X0.4319 Y-1.0422 I0.0004 J-0.0375 F60.
G1 X0.3801 Y-1.1035
X0.3744 Y-1.111
X0.3703 Y-1.1171
X0.3661 Y-1.1242
X0.3622 Y-1.1317
X0.3584 Y-1.1404
X0.3549 Y-1.1497
X0.3518 Y-1.1597
X0.3492 Y-1.1706
X0.3471 Y-1.1822
X0.3456 Y-1.1942
X0.3449 Y-1.2061
X0.3448 Y-1.2175
X0.3455 Y-1.2296
X0.3467 Y-1.2403
X0.3487 Y-1.2518
X0.3512 Y-1.2624
X0.3523 Y-1.2661
X0.3583 Y-1.2813
X0.3665 Y-1.2954
X0.3769 Y-1.3079
X0.3891 Y-1.3187
X0.403 Y-1.3274
X0.418 Y-1.3337
X0.4338 Y-1.3376
X0.4501 Y-1.3389
G3 X0.4771 Y-1.3259 I-0.0013 J0.0375
X0.4852 Y-1.2928 I-0.0284 J0.0245 F300.
G1 X0.4444 Y-1.12
G3 X0.4075 Y-1.0911 I-0.0365 J-0.0086
X0.3801 Y-1.1035 I0.0004 J-0.0375 F60.
G1 X0.3293 Y-1.1637
X0.3252 Y-1.1691
X0.3217 Y-1.1742
X0.3183 Y-1.18
X0.3151 Y-1.1862
X0.312 Y-1.1931
X0.3095 Y-1.2
X0.3072 Y-1.2074
X0.3052 Y-1.2154
X0.3039 Y-1.2229
X0.3029 Y-1.2309
X0.3024 Y-1.2393
X0.3023 Y-1.247
X0.3028 Y-1.2555
X0.3031 Y-1.2579
X0.3065 Y-1.2742
X0.3127 Y-1.2895
X0.3217 Y-1.3035
X0.3331 Y-1.3157
X0.3464 Y-1.3256
X0.3613 Y-1.3329
X0.3773 Y-1.3374
X0.3939 Y-1.3389
G3 X0.421 Y-1.3259 I-0.0013 J0.0375
X0.4283 Y-1.2901 I-0.0284 J0.0245 F300.
G1 X0.3928 Y-1.1776
G3 X0.3567 Y-1.1513 I-0.0358 J-0.0113
X0.3293 Y-1.1637 I0.0004 J-0.0375 F60.
G1 X0.2886 Y-1.2118
X0.285 Y-1.2166
X0.2818 Y-1.2216
X0.279 Y-1.2269
X0.2766 Y-1.2324
X0.2746 Y-1.2381
X0.2729 Y-1.2439
X0.2717 Y-1.2499
X0.271 Y-1.2647
X0.2732 Y-1.2794
X0.278 Y-1.2934
X0.2855 Y-1.3062
X0.2952 Y-1.3174
X0.3068 Y-1.3265
X0.32 Y-1.3333
X0.3342 Y-1.3375
X0.349 Y-1.3389
G3 X0.3761 Y-1.3259 I-0.0013 J0.0375
X0.3814 Y-1.285 I-0.0284 J0.0245 F300.
G1 X0.3502 Y-1.2206
G3 X0.316 Y-1.1995 I-0.0337 J-0.0164
X0.2886 Y-1.2118 I0.0004 J-0.0375 F60.
G1 X0.2662 Y-1.2383
X0.2606 Y-1.2454
X0.2571 Y-1.2503
X0.2542 Y-1.2556
X0.2518 Y-1.2611
X0.2495 Y-1.2731
X0.2496 Y-1.2853
X0.2522 Y-1.2972
X0.2572 Y-1.3084
X0.2643 Y-1.3183
X0.2733 Y-1.3266
X0.2838 Y-1.3328
X0.2954 Y-1.3368
X0.3075 Y-1.3384
G3 X0.3366 Y-1.3295 I-0.0005 J0.0537
X0.3514 Y-1.315 I-0.0296 J0.0448 F300.
X0.2859 Y-1.2284 I-0.0473 J0.0323
X0.2606 Y-1.2454 I0.0182 J-0.0543 F60.
G1 X0.2573 Y-1.2496
X0.2494 Y-1.2608
X0.2479 Y-1.2632
X0.2451 Y-1.2676
X0.243 Y-1.272
X0.241 Y-1.2777
X0.2399 Y-1.2833
X0.2394 Y-1.2889
X0.2395 Y-1.2945
X0.2404 Y-1.3001
X0.242 Y-1.3058
X0.2444 Y-1.3114
X0.2479 Y-1.3171
X0.2525 Y-1.3227
X0.2591 Y-1.3284
X0.2647 Y-1.3318
X0.2704 Y-1.3343
X0.276 Y-1.3359
X0.2816 Y-1.3368
X0.2928 Y-1.338
X0.3265 Y-1.3389
X0.5181
G3 X0.5381 Y-1.3322 I-0.0013 J0.0375
G1 X0.5459 Y-1.3268
X1.3447 Y-0.7731 F300.
G3 X1.3547 Y-0.7629 I-0.0214 J0.0308
X1.3598 Y-0.7333 I-0.0313 J0.0206 F60.
G1 X1.3244 Y-0.609
X1.3204 Y-0.597
X1.3166 Y-0.5878
X1.3122 Y-0.5784
X1.3064 Y-0.568
X1.2999 Y-0.5577
X1.292 Y-0.5465
X1.2828 Y-0.5352
X1.2725 Y-0.5239
X1.2603 Y-0.512
X1.2469 Y-0.5004
X1.2322 Y-0.4891
X1.2157 Y-0.4779
X1.1974 Y-0.467
X1.1779 Y-0.4568
X1.1572 Y-0.4476
X1.135 Y-0.4393
X1.1114 Y-0.4319
X1.0865 Y-0.4257
X1.0605 Y-0.4209
X1.036 Y-0.4178
X1.0242 Y-0.417
X1.0054 Y-0.4172
X0.9868 Y-0.4204
X0.969 Y-0.4264
X0.9523 Y-0.435
X0.9371 Y-0.4462
X0.9239 Y-0.4596
X0.8549 Y-0.5413
G3 X0.8473 Y-0.5704 I0.0295 J-0.0232
X0.8794 Y-0.6017 I0.037 J0.0059 F300.
G1 X1.2831 Y-0.6551
G3 X1.3193 Y-0.6386 I0.0049 J0.0372
X1.3244 Y-0.609 I-0.0313 J0.0206 F60.
G1 X1.2971 Y-0.5129
X1.2942 Y-0.5041
X1.2911 Y-0.4964
X1.287 Y-0.488
X1.2822 Y-0.4792
X1.2763 Y-0.4699
X1.2693 Y-0.4601
X1.2614 Y-0.4503
X1.2518 Y-0.4398
X1.2413 Y-0.4295
X1.2291 Y-0.4189
X1.2151 Y-0.4082
X1.2001 Y-0.398
X1.1832 Y-0.3879
X1.1644 Y-0.3782
X1.1459 Y-0.3699
X1.1272 Y-0.3629
X1.1107 Y-0.3577
X1.0939 Y-0.3536
X1.0935 Y-0.3535
X1.0754 Y-0.3515
X1.0572 Y-0.3523
X1.0394 Y-0.3557
X1.0223 Y-0.3618
X1.0063 Y-0.3705
X0.9918 Y-0.3814
X0.979 Y-0.3943
X0.9239 Y-0.4596
G3 X0.9163 Y-0.4887 I0.0295 J-0.0232
X0.9486 Y-0.52 I0.037 J0.0059 F300.
G1 X1.256 Y-0.559
G3 X1.292 Y-0.5425 I0.0047 J0.0372
X1.2971 Y-0.5129 I-0.0313 J0.0206 F60.
G1 X1.2734 Y-0.4291
X1.2699 Y-0.4191
X1.2669 Y-0.4116
X1.2633 Y-0.404
X1.2586 Y-0.3955
X1.2532 Y-0.387
X1.2467 Y-0.3779
X1.2391 Y-0.3685
X1.2307 Y-0.3592
X1.221 Y-0.3498
X1.2102 Y-0.3404
X1.1998 Y-0.3324
X1.1884 Y-0.3247
X1.1774 Y-0.3181
X1.1663 Y-0.3124
X1.1546 Y-0.3071
X1.1437 Y-0.303
X1.1281 Y-0.2994
X1.1121 Y-0.2981
X1.0961 Y-0.2991
X1.0805 Y-0.3025
X1.0655 Y-0.3081
X1.0514 Y-0.3158
X1.0387 Y-0.3255
X1.0275 Y-0.3369
G3 X1.0199 Y-0.366 I0.0295 J-0.0232
X1.0421 Y-0.3945 I0.037 J0.0059 F300.
G1 X1.222 Y-0.4725
G3 X1.2683 Y-0.4587 I0.0149 J0.0344
X1.2734 Y-0.4291 I-0.0313 J0.0206 F60.
G1 X1.25 Y-0.3471
X1.2475 Y-0.3395
X1.2449 Y-0.3333
X1.2418 Y-0.3267
X1.238 Y-0.3197
X1.2336 Y-0.3128
X1.2287 Y-0.3059
X1.2236 Y-0.2997
X1.2176 Y-0.2931
X1.2117 Y-0.2873
X1.2051 Y-0.2816
X1.198 Y-0.2761
X1.1911 Y-0.2715
X1.1831 Y-0.2667
X1.1686 Y-0.2606
X1.1533 Y-0.2571
X1.1376 Y-0.2561
X1.122 Y-0.2578
X1.1068 Y-0.262
X1.0926 Y-0.2687
X1.0796 Y-0.2776
X1.0684 Y-0.2886
G3 X1.0604 Y-0.3176 I0.0292 J-0.0236
X1.0843 Y-0.3473 I0.0371 J0.0054 F300.
G1 X1.2004 Y-0.3911
G3 X1.2449 Y-0.3767 I0.0132 J0.0351
X1.25 Y-0.3471 I-0.0313 J0.0206 F60.
G1 X1.2446 Y-0.328
X1.2408 Y-0.3167
X1.2323 Y-0.2943
X1.2276 Y-0.283
X1.225 Y-0.279
X1.2197 Y-0.2718
X1.217 Y-0.2683
X1.2138 Y-0.2648
X1.2088 Y-0.2606
X1.2025 Y-0.2553
X1.1975 Y-0.2519
X1.1913 Y-0.2488
X1.1801 Y-0.2437
X1.1688 Y-0.2411
X1.1632 Y-0.2399
X1.1576 Y-0.2394
X1.1464 Y-0.2396
X1.1408 Y-0.2399
X1.1351 Y-0.241
X1.1239 Y-0.2441
X1.1183 Y-0.2462
X1.1124 Y-0.2493
X1.1015 Y-0.2557
X1.0959 Y-0.2606
X1.0838 Y-0.2718
X1.079 Y-0.2764
X1.0678 Y-0.2893
X1.0635 Y-0.2943
X0.979 Y-0.3943
G3 X0.9715 Y-0.4234 I0.0295 J-0.0232
G1 X0.9722 Y-0.4279 Z1.2033
X0.9729 Y-0.4323 Z1.2041
X0.9736 Y-0.4365 Z1.2054
X0.9742 Y-0.4406 Z1.2073
X0.9748 Y-0.4444 Z1.2096
X0.9754 Y-0.448 Z1.2124
X0.9759 Y-0.4511 Z1.2156
X0.9763 Y-0.4539 Z1.2192
X0.9767 Y-0.4562 Z1.2231
X0.977 Y-0.458 Z1.2272
X0.9772 Y-0.4594 Z1.2315
X0.9773 Y-0.4602 Z1.236
X0.9774 Y-0.4604 Z1.2405
G0 Z1.85
(2D CONTOUR1)
G64 P0.0004 Q0.0004
G0 X-0.2468 Y-1.221
Z1.85
Z1.45
G1 Z1.2894 F80.
Z0.1775
X-0.2466 Z0.173 F40.
X-0.2458 Y-1.2212 Z0.1685
X-0.2445 Y-1.2215 Z0.1642
X-0.2426 Y-1.2218 Z0.1601
X-0.2403 Y-1.2223 Z0.1562
X-0.2376 Y-1.2228 Z0.1526
X-0.2345 Y-1.2235 Z0.1494
X-0.231 Y-1.2242 Z0.1466
X-0.2272 Y-1.225 Z0.1443
X-0.2231 Y-1.2258 Z0.1424
X-0.2189 Y-1.2266 Z0.1411
X-0.2145 Y-1.2275 Z0.1403
X-0.2101 Y-1.2284 Z0.14
X-0.1733 Y-1.2358
G3 X-0.1291 Y-1.2064 I0.0074 J0.0368
G2 X-0.0375 Y-1.0168 I0.4154 J-0.0837
G1 X0.5153 Y-0.3622
X0.7986 Y-0.0268
G2 X1.5978 Y-0.199 I0.3538 J-0.2988
G1 X1.8749 Y-1.1744
G2 X1.4673 Y-1.7139 I-0.4076 J-0.1158
G1 X0.2862
G2 X-0.0375 Y-1.0168 I0. J0.4237
G1 X0.5153 Y-0.3622
X0.7986 Y-0.0268
G2 X1.5978 Y-0.199 I0.3538 J-0.2988
G1 X1.8749 Y-1.1744
G2 X1.4673 Y-1.7139 I-0.4076 J-0.1158
G1 X0.2862
G2 X-0.1291 Y-1.2064 I0. J0.4237
G3 X-0.1585 Y-1.1623 I-0.0368 J0.0074
G1 X-0.1953 Y-1.1549
X-0.1997 Y-1.154 Z0.1403
X-0.2041 Y-1.1531 Z0.1411
X-0.2083 Y-1.1522 Z0.1424
X-0.2123 Y-1.1514 Z0.1443
X-0.2161 Y-1.1507 Z0.1466
X-0.2196 Y-1.15 Z0.1494
X-0.2228 Y-1.1493 Z0.1526
X-0.2255 Y-1.1488 Z0.1562
X-0.2278 Y-1.1483 Z0.1601
X-0.2296 Y-1.1479 Z0.1642
X-0.231 Y-1.1477 Z0.1685
X-0.2318 Y-1.1475 Z0.173
X-0.232 Z0.1775
G0 Z1.85
M5
G53 G0 Z0.
(DRILL1)
M9
M1
T51 M6
T54
S5000 M3
G17 G90 G94
G54
M8
G0 X0.2862 Y-1.2902
G43 Z1.85 H51
G0 Z1.45
Z1.403
G1 Z0.703 F25.
G0 Z1.403
Z0.783
G1 Z0.553 F25.
G0 Z1.403
Z0.633
G1 Z0.403 F25.
G0 Z1.403
Z0.483
G1 Z0.253 F25.
G0 Z1.403
Z0.333
G1 Z0.103 F25.
G0 Z1.403
Z0.183
G1 Z0.0396 F25.
G4 P0.05
G0 Z1.45
X1.4673
Z1.403
G1 Z0.703 F25.
G0 Z1.403
Z0.783
G1 Z0.553 F25.
G0 Z1.403
Z0.633
G1 Z0.403 F25.
G0 Z1.403
Z0.483
G1 Z0.253 F25.
G0 Z1.403
Z0.333
G1 Z0.103 F25.
G0 Z1.403
Z0.183
G1 Z0.0396 F25.
G4 P0.05
G0 Z1.45
Z1.85
M5
G53 G0 Z0.
(DRILL2)
M9
M1
T54 M6
T32
S5000 M3
G17 G90 G94
G54
M8
G0 X1.1524 Y-0.3256
G43 Z1.85 H54
G0 Z1.45
Z1.403
G1 Z0.703 F40.
G0 Z1.403
Z0.783
G1 Z0.503 F40.
G0 Z1.403
Z0.583
G1 Z0.303 F40.
G0 Z1.403
Z0.383
G1 Z0.103 F40.
G0 Z1.403
Z0.183
G1 Z0. F40.
G4 P0.05
G0 Z1.45
Z1.85
(DRILL2 2)
G0 X1.0014 Y-0.9159
Z1.85
Z1.45
Z1.403
G1 Z0.703 F40.
G0 Z1.403
Z0.783
G1 Z0.503 F40.
G0 Z1.403
Z0.583
G1 Z0.303 F40.
G0 Z1.403
Z0.383
G1 Z0.103 F40.
G0 Z1.403
Z0.183
G1 Z0. F40.
G4 P0.05
G0 Z1.45
Z1.85
M5
G53 G0 Z0.
(2D ADAPTIVE ROUGHING3)
M9
M1
T32 M6
T13
S7500 M3
G17 G90 G94
G54
G64 P0.004 Q0.004
M8
G0 X1.0014 Y-0.9159
G43 Z1.85 H32
G0 Z1.45
Z1.3687
G1 Z1.35 F40.
Z0.9035
X0.9999
Y-0.9174
X1.0011 Y-0.9182
X1.0026 Y-0.918
X1.0037 Y-0.917
X1.004 Y-0.9155
X1.0033 Y-0.9141
X1.002 Y-0.9134
X1.0005 Y-0.9133
X0.9992 Y-0.9139
X0.9982 Y-0.9151
X0.9978 Y-0.9165
X0.9981 Y-0.918
X0.9989 Y-0.9192
X1.0001 Y-0.9201
X1.0016 Y-0.9204
X1.0031 Y-0.9202
X1.0044 Y-0.9196
X1.0055 Y-0.9185
X1.0061 Y-0.9172
X1.0064 Y-0.9157
X1.0061 Y-0.9142
X1.0054 Y-0.9129
X1.0044 Y-0.9118
X1.0031 Y-0.911
X1.0016 Y-0.9106
X0.9986 Y-0.9107
X0.996 Y-0.9122
X0.9945 Y-0.9147
X0.9941 Y-0.9177
X0.995 Y-0.9206
X0.9969 Y-0.9229
X0.9996 Y-0.9243
X1.0026 Y-0.9246
X1.0055 Y-0.9239
X1.008 Y-0.9223
X1.0098 Y-0.9199
X1.0108 Y-0.9171
Y-0.9141
X1.0099 Y-0.9112
X1.0081 Y-0.9088
X1.0058 Y-0.9069
X1.003 Y-0.9057
X1. Y-0.9053
X0.9971 Y-0.9058
X0.9943 Y-0.907
X0.9897 Y-0.9108
X0.9875 Y-0.9164
X0.9881 Y-0.9224
X0.9912 Y-0.9275
X0.9961 Y-0.931
X1.0019 Y-0.9323
X1.0079 Y-0.9314
X1.0131 Y-0.9284
X1.0169 Y-0.9237
X1.0189 Y-0.9181
Y-0.9121
X1.0169 Y-0.9064
X1.0131 Y-0.9017
X1.0082 Y-0.8984
X1.0024 Y-0.8967
X0.9964 Y-0.8968
X0.9906 Y-0.8984
X0.9856 Y-0.9016
X0.9816 Y-0.9062
X0.979 Y-0.9116
X0.978 Y-0.9175
X0.9785 Y-0.9234
X0.9805 Y-0.9291
X0.9839 Y-0.934
X0.9884 Y-0.938
X0.9937 Y-0.9409
X0.9995 Y-0.9423
X1.0055 Y-0.9425
X1.0114 Y-0.9412
X1.0168 Y-0.9387
X1.0216 Y-0.935
X1.0254 Y-0.9304
X1.0282 Y-0.9251
X1.0297 Y-0.9193
X1.03 Y-0.9133
X1.0291 Y-0.9073
X1.027 Y-0.9017
X1.0237 Y-0.8967
X1.0196 Y-0.8923
X1.0147 Y-0.8889
X1.0092 Y-0.8865
X1.0034 Y-0.885
X0.9974 Y-0.8848
X0.9914 Y-0.8856
X0.9857 Y-0.8875
X0.9805 Y-0.8904
X0.9758 Y-0.8942
X0.9719 Y-0.8987
X0.9689 Y-0.9039
X0.9668 Y-0.9095
X0.9657 Y-0.9154
X0.9656 Y-0.9214
X0.9666 Y-0.9274
X0.9684 Y-0.9331
X0.9712 Y-0.9384
X0.9749 Y-0.9431
X0.9792 Y-0.9473
X0.9842 Y-0.9507
X0.9896 Y-0.9532
X0.9954 Y-0.9549
X1.0013 Y-0.9557
X1.0073 Y-0.9556
X1.0132 Y-0.9546
X1.0189 Y-0.9527
X1.0242 Y-0.9499
X1.0291 Y-0.9464
X1.0334 Y-0.9423
X1.0371 Y-0.9375
X1.04 Y-0.9323
X1.0422 Y-0.9267
X1.0435 Y-0.9208
X1.044 Y-0.9148
X1.0436 Y-0.9088
X1.0424 Y-0.903
X1.0404 Y-0.8973
X1.0377 Y-0.892
X1.0343 Y-0.887
X1.0302 Y-0.8826
X1.0256 Y-0.8788
X1.0205 Y-0.8756
X1.0151 Y-0.8731
X1.0093 Y-0.8713
X1.0034 Y-0.8703
X0.9974 Y-0.87
X0.9915 Y-0.8705
X0.9856 Y-0.8718
X0.9799 Y-0.8738
X0.9746 Y-0.8765
X0.9696 Y-0.8798
X0.965 Y-0.8837
X0.961 Y-0.8882
X0.9576 Y-0.8931
X0.9547 Y-0.8984
X0.9525 Y-0.904
X0.9511 Y-0.9098
X0.9503 Y-0.9157
X0.9502 Y-0.9217
X0.9508 Y-0.9277
X0.9522 Y-0.9335
X0.9541 Y-0.9392
X0.9568 Y-0.9446
X0.96 Y-0.9497
X0.9638 Y-0.9543
X0.968 Y-0.9585
X0.9728 Y-0.9622
X0.9779 Y-0.9654
X0.9833 Y-0.9679
X0.989 Y-0.9699
X0.9948 Y-0.9712
X1.0008 Y-0.9718
X1.0068 Y-0.9719
X1.0128 Y-0.9712
X1.0186 Y-0.97
X1.0243 Y-0.9681
X1.0298 Y-0.9656
X1.035 Y-0.9625
X1.0398 Y-0.9589
X1.0442 Y-0.9549
X1.0482 Y-0.9504
X1.0516 Y-0.9455
X1.0546 Y-0.9403
X1.057 Y-0.9348
X1.0588 Y-0.9291
X1.0601 Y-0.9232
X1.0607 Y-0.9172
Y-0.9112
X1.0602 Y-0.9053
X1.059 Y-0.8994
X1.0572 Y-0.8936
X1.0549 Y-0.8881
X1.0521 Y-0.8828
X1.0488 Y-0.8778
X1.045 Y-0.8732
X1.0407 Y-0.8689
X1.0361 Y-0.8651
X1.0311 Y-0.8617
X1.0259 Y-0.8589
X1.0204 Y-0.8565
X1.0146 Y-0.8547
X1.0088 Y-0.8534
X1.0028 Y-0.8527
X0.9968 Y-0.8525
X0.9908 Y-0.8529
X0.9849 Y-0.8538
X0.9791 Y-0.8553
X0.9734 Y-0.8573
X0.968 Y-0.8599
X0.9628 Y-0.8629
X0.9579 Y-0.8663
X0.9533 Y-0.8702
X0.9492 Y-0.8745
X0.9454 Y-0.8792
X0.942 Y-0.8841
X0.9391 Y-0.8894
X0.9367 Y-0.8949
X0.9347 Y-0.9006
X0.9333 Y-0.9064
X0.9324 Y-0.9123
X0.932 Y-0.9183
X0.9321 Y-0.9243
X0.9328 Y-0.9303
X0.9339 Y-0.9362
X0.9356 Y-0.9419
X0.9378 Y-0.9475
X0.9404 Y-0.9529
X0.9434 Y-0.9581
X0.9469 Y-0.963
X0.9508 Y-0.9675
X0.9551 Y-0.9718
X0.9597 Y-0.9756
X0.9646 Y-0.9791
X0.9697 Y-0.9821
X0.9751 Y-0.9847
X0.9807 Y-0.9869
X0.9865 Y-0.9886
X0.9924 Y-0.9898
X0.9983 Y-0.9905
X1.0043 Y-0.9908
X1.0103 Y-0.9905
X1.0163 Y-0.9898
X1.0221 Y-0.9886
X1.0279 Y-0.9869
X1.0335 Y-0.9848
X1.0389 Y-0.9822
X1.0442 Y-0.9793
X1.0491 Y-0.9759
X1.0538 Y-0.9721
X1.0581 Y-0.968
X1.0622 Y-0.9635
X1.0658 Y-0.9588
X1.0691 Y-0.9538
X1.072 Y-0.9485
X1.0745 Y-0.943
X1.0765 Y-0.9374
X1.0781 Y-0.9316
X1.0793 Y-0.9257
X1.08 Y-0.9198
X1.0802 Y-0.9138
X1.08 Y-0.9078
X1.0793 Y-0.9018
X1.0782 Y-0.8959
X1.0767 Y-0.8901
X1.0747 Y-0.8845
X1.0723 Y-0.879
X1.0695 Y-0.8736
X1.0663 Y-0.8686
X1.0628 Y-0.8637
X1.0589 Y-0.8592
X1.0547 Y-0.8549
X1.0501 Y-0.8509
X1.0453 Y-0.8473
X1.0403 Y-0.8441
X1.035 Y-0.8412
X1.0296 Y-0.8387
X1.0239 Y-0.8367
X1.0182 Y-0.835
X1.0123 Y-0.8337
X1.0064 Y-0.8329
X1.0004 Y-0.8325
X0.9944
X0.9884 Y-0.833
X0.9825 Y-0.8338
X0.9766 Y-0.8351
X0.9708 Y-0.8368
X0.9652 Y-0.8389
X0.9598 Y-0.8414
X0.9545 Y-0.8442
X0.9494 Y-0.8474
X0.9446 Y-0.851
X0.94 Y-0.8549
X0.9357 Y-0.8591
X0.9317 Y-0.8636
X0.9281 Y-0.8683
X0.9247 Y-0.8733
X0.9217 Y-0.8785
X0.9191 Y-0.8839
X0.9168 Y-0.8894
X0.915 Y-0.8951
X0.9135 Y-0.901
X0.9124 Y-0.9069
X0.9117 Y-0.9128
X0.9114 Y-0.9188
X0.9115 Y-0.9248
X0.912 Y-0.9308
X0.9129 Y-0.9367
X0.9142 Y-0.9426
X0.9159 Y-0.9483
X0.9179 Y-0.954
X0.9204 Y-0.9595
X0.9232 Y-0.9648
X0.9263 Y-0.9699
X0.9297 Y-0.9748
X0.9335 Y-0.9795
X0.9375 Y-0.9839
X0.9419 Y-0.988
X0.9465 Y-0.9919
X0.9513 Y-0.9955
X0.9564 Y-0.9987
X0.9616 Y-1.0016
X0.967 Y-1.0042
X0.9726 Y-1.0064
X0.9783 Y-1.0082
X0.9841 Y-1.0097
X0.99 Y-1.0108
X0.996 Y-1.0115
X1.002 Y-1.0119
X1.008
X1.014 Y-1.0115
X1.0199 Y-1.0107
X1.0258 Y-1.0096
X1.0316 Y-1.0081
X1.0373 Y-1.0062
X1.0429 Y-1.004
X1.0483 Y-1.0014
X1.0536 Y-0.9985
X1.0586 Y-0.9953
X1.0635 Y-0.9918
X1.0681 Y-0.988
X1.0725 Y-0.9839
X1.0767 Y-0.9796
X1.0805 Y-0.975
X1.0841 Y-0.9702
X1.0874 Y-0.9651
X1.0904 Y-0.9599
X1.093 Y-0.9545
X1.0953 Y-0.949
X1.0973 Y-0.9433
X1.0989 Y-0.9375
X1.1002 Y-0.9317
X1.1011 Y-0.9258
X1.1017 Y-0.9198
X1.1019 Y-0.9138
X1.1018 Y-0.9078
X1.1013 Y-0.9018
X1.1004 Y-0.8959
X1.0992 Y-0.89
X1.0977 Y-0.8842
X1.0958 Y-0.8785
X1.0936 Y-0.8729
X1.091 Y-0.8675
X1.0882 Y-0.8622
X1.085 Y-0.8571
X1.0816 Y-0.8522
X1.0778 Y-0.8475
X1.0739 Y-0.843
X1.0696 Y-0.8388
X1.0651 Y-0.8348
X1.0604 Y-0.8311
X1.0555 Y-0.8276
X1.0504 Y-0.8245
X1.0451 Y-0.8216
X1.0397 Y-0.819
X1.0341 Y-0.8168
X1.0285 Y-0.8149
X1.0227 Y-0.8133
X1.0168 Y-0.812
X1.0109 Y-0.8111
X1.0049 Y-0.8105
X0.9989 Y-0.8102
X0.9929 Y-0.8103
X0.9869 Y-0.8107
X0.981 Y-0.8115
X0.9751 Y-0.8126
X0.9692 Y-0.814
X0.9635 Y-0.8157
X0.9579 Y-0.8178
X0.9523 Y-0.8201
X0.947 Y-0.8228
X0.9418 Y-0.8258
X0.9367 Y-0.829
X0.9318 Y-0.8325
X0.9272 Y-0.8363
X0.9227 Y-0.8403
X0.9185 Y-0.8446
X0.9145 Y-0.8491
X0.9108 Y-0.8538
X0.9073 Y-0.8587
X0.9041 Y-0.8638
X0.9012 Y-0.869
X0.8986 Y-0.8744
X0.8963 Y-0.8799
X0.8943 Y-0.8856
X0.8925 Y-0.8913
X0.8911 Y-0.8972
X0.89 Y-0.9031
X0.8893 Y-0.909
X0.8888 Y-0.915
X0.8887 Y-0.921
X0.8889 Y-0.927
X0.8894 Y-0.933
X0.8902 Y-0.9389
X0.8913 Y-0.9448
X0.8928 Y-0.9506
X0.8945 Y-0.9564
X0.8966 Y-0.962
X0.8989 Y-0.9675
X0.9016 Y-0.9729
X0.9045 Y-0.9782
X0.9077 Y-0.9832
X0.9111 Y-0.9882
X0.9148 Y-0.9929
X0.9187 Y-0.9974
X0.9229 Y-1.0017
X0.9273 Y-1.0058
X0.9319 Y-1.0097
X0.9367 Y-1.0133
X0.9416 Y-1.0166
X0.9468 Y-1.0198
X0.9521 Y-1.0226
X0.9575 Y-1.0252
X0.963 Y-1.0274
X0.9687 Y-1.0294
X0.9745 Y-1.0311
X0.9803 Y-1.0325
X0.9862 Y-1.0336
X0.9921 Y-1.0344
X0.9981 Y-1.0349
X1.0041 Y-1.0351
X1.0101 Y-1.035
X1.0161 Y-1.0346
X1.0221 Y-1.0339
X1.028 Y-1.0329
X1.0338 Y-1.0316
X1.0396 Y-1.03
X1.0453 Y-1.0281
X1.0509 Y-1.0259
X1.0564 Y-1.0234
X1.0617 Y-1.0207
X1.0669 Y-1.0177
X1.072 Y-1.0145
X1.0769 Y-1.011
X1.0816 Y-1.0073
X1.0861 Y-1.0033
X1.0904 Y-0.9992
X1.0945 Y-0.9948
X1.0984 Y-0.9902
X1.102 Y-0.9854
X1.1054 Y-0.9805
X1.1086 Y-0.9754
X1.1115 Y-0.9701
X1.1142 Y-0.9648
X1.1165 Y-0.9593
X1.1187 Y-0.9536
X1.1205 Y-0.9478
X1.1221 Y-0.942
X1.1233 Y-0.9362
X1.1243 Y-0.9302
X1.125 Y-0.9242
X1.1254 Y-0.9181
X1.1255 Y-0.912
X1.1253 Y-0.906
X1.1249 Y-0.9
X1.1241 Y-0.894
X1.123 Y-0.888
X1.1216 Y-0.8819
X1.12 Y-0.876
X1.118 Y-0.8703
X1.1158 Y-0.8646
X1.1133 Y-0.859
X1.1106 Y-0.8535
X1.1075 Y-0.8481
X1.1041 Y-0.8429
X1.1006 Y-0.8378
X1.0968 Y-0.833
X1.0928 Y-0.8284
X1.0885 Y-0.8238
X1.084 Y-0.8195
X1.0792 Y-0.8154
X1.0743 Y-0.8116
X1.0692 Y-0.808
X1.064 Y-0.8047
X1.0586 Y-0.8016
X1.053 Y-0.7987
X1.0472 Y-0.7961
X1.0413 Y-0.7938
X1.0353 Y-0.7918
X1.0293 Y-0.7901
X1.0232 Y-0.7887
X1.0169 Y-0.7876
X1.0106 Y-0.7868
X1.0043 Y-0.7863
X0.9979 Y-0.7861
X0.9915 Y-0.7862
X0.9852 Y-0.7866
X0.9789 Y-0.7874
X0.9726 Y-0.7884
X0.9663 Y-0.7898
X0.9601 Y-0.7914
X0.954 Y-0.7934
X0.9479 Y-0.7957
X0.942 Y-0.7982
X0.9362 Y-0.801
X0.9306 Y-0.8041
X0.9251 Y-0.8075
X0.9198 Y-0.8112
X0.9146 Y-0.8151
X0.9096 Y-0.8193
X0.9048 Y-0.8238
X0.9003 Y-0.8284
X0.8959 Y-0.8333
X0.8918 Y-0.8384
X0.888 Y-0.8437
X0.8844 Y-0.8491
X0.8811 Y-0.8548
X0.8781 Y-0.8606
X0.8753 Y-0.8666
X0.8728 Y-0.8727
X0.8706 Y-0.879
X0.8688 Y-0.8853
X0.8672 Y-0.8918
X0.8659 Y-0.8983
X0.865 Y-0.9049
X0.8644 Y-0.9115
X0.8641 Y-0.9181
Y-0.9247
X0.8645 Y-0.9314
X0.8652 Y-0.938
X0.8662 Y-0.9447
X0.8675 Y-0.9513
X0.8692 Y-0.9578
X0.8712 Y-0.9643
X0.8734 Y-0.9706
X0.876 Y-0.9769
X0.8789 Y-0.983
X0.8821 Y-0.9889
X0.8856 Y-0.9947
X0.8893 Y-1.0003
X0.8934 Y-1.0058
X0.8977 Y-1.011
X0.9023 Y-1.0161
X0.9071 Y-1.0209
X0.9121 Y-1.0255
X0.9174 Y-1.0299
X0.9229 Y-1.034
X0.9286 Y-1.0379
X0.9345 Y-1.0414
X0.9406 Y-1.0447
X0.9468 Y-1.0477
X0.9532 Y-1.0504
X0.9597 Y-1.0527
X0.9663 Y-1.0548
X0.973 Y-1.0565
X0.9798 Y-1.0579
X0.9867 Y-1.059
X0.9936 Y-1.0597
X1.0005 Y-1.0601
X1.0075 Y-1.0602
X1.0145 Y-1.0599
X1.0214 Y-1.0592
X1.0284 Y-1.0583
X1.0353 Y-1.057
X1.0421 Y-1.0553
X1.0489 Y-1.0534
X1.0555 Y-1.0511
X1.0621 Y-1.0485
X1.0685 Y-1.0455
X1.0748 Y-1.0422
X1.0809 Y-1.0387
X1.0869 Y-1.0348
X1.0927 Y-1.0307
X1.0982 Y-1.0262
X1.1036 Y-1.0215
X1.1087 Y-1.0165
X1.1136 Y-1.0113
X1.1182 Y-1.0059
X1.1226 Y-1.0002
X1.1266 Y-0.9943
X1.1304 Y-0.9882
X1.1339 Y-0.9819
X1.1371 Y-0.9754
X1.14 Y-0.9688
X1.1426 Y-0.9621
X1.1448 Y-0.9552
X1.1467 Y-0.9482
X1.1483 Y-0.9411
X1.1495 Y-0.9339
X1.1503 Y-0.9267
X1.1508 Y-0.9194
X1.151 Y-0.9121
X1.1508 Y-0.9048
X1.1502 Y-0.8976
X1.1493 Y-0.8903
X1.1481 Y-0.8831
X1.1464 Y-0.8759
X1.1445 Y-0.8688
X1.1422 Y-0.8618
X1.1395 Y-0.8549
X1.1365 Y-0.8482
X1.1332 Y-0.8416
X1.1296 Y-0.8351
X1.1256 Y-0.8288
X1.1213 Y-0.8228
X1.1168 Y-0.8169
X1.1119 Y-0.8112
X1.1068 Y-0.8058
X1.1014 Y-0.8007
X1.0958 Y-0.7957
X1.0899 Y-0.7911
X1.0838 Y-0.7868
X1.0775 Y-0.7827
X1.0749 Y-0.7812
X1.0683 Y-0.7779
X1.0615 Y-0.7751
X1.0545 Y-0.7729
X1.0451 Y-0.7704
X1.0403 Y-0.7689
X1.0364 Y-0.7676
X1.028 Y-0.7654
X1.0213 Y-0.7639
X1.0145 Y-0.7628
X1.0075 Y-0.7619
X1.0005 Y-0.7615
X0.9933 Y-0.7613
X0.9861 Y-0.7615
X0.9788 Y-0.7621
X0.9715 Y-0.763
X0.9643 Y-0.7643
X0.957 Y-0.7659
X0.9498 Y-0.7679
X0.9427 Y-0.7703
X0.9357 Y-0.773
X0.9288 Y-0.7761
X0.922 Y-0.7795
X0.9153 Y-0.7833
X0.9089 Y-0.7874
X0.9026 Y-0.7918
X0.8965 Y-0.7965
X0.8907 Y-0.8015
X0.8851 Y-0.8068
X0.8798 Y-0.8124
X0.8747 Y-0.8182
X0.8699 Y-0.8244
X0.8654 Y-0.8307
X0.8612 Y-0.8373
X0.8573 Y-0.8441
X0.8537 Y-0.851
X0.8505 Y-0.8582
X0.8476 Y-0.8655
X0.8451 Y-0.8729
X0.843 Y-0.8805
X0.8412 Y-0.8882
X0.8398 Y-0.896
X0.8388 Y-0.9038
X0.8381 Y-0.9117
X0.8378 Y-0.9196
X0.838 Y-0.9276
X0.8385 Y-0.9355
X0.8394 Y-0.9435
X0.8407 Y-0.9513
X0.8423 Y-0.9591
X0.8444 Y-0.9669
X0.8468 Y-0.9745
X0.8496 Y-0.982
X0.8527 Y-0.9894
X0.8563 Y-0.9966
X0.8601 Y-1.0037
X0.8644 Y-1.0105
X0.8689 Y-1.0172
X0.8738 Y-1.0237
X0.879 Y-1.0299
X0.8845 Y-1.0358
X0.8903 Y-1.0415
X0.8964 Y-1.0469
X0.9027 Y-1.052
X0.9093 Y-1.0568
X0.9161 Y-1.0613
X0.9231 Y-1.0655
X0.9304 Y-1.0693
X0.9378 Y-1.0727
X0.9454 Y-1.0758
X0.9531 Y-1.0786
X0.961 Y-1.0809
X0.969 Y-1.0829
X0.9771 Y-1.0844
X0.979 Y-1.0847
X0.987 Y-1.0854
X0.995 Y-1.0852
X1.003 Y-1.084
X1.0332 Y-1.0776
X1.0403 Y-1.0759
X1.0545 Y-1.0724
X1.0616 Y-1.0704
X1.0758 Y-1.0652
X1.0868 Y-1.0606
X1.0927 Y-1.0578
X1.0986 Y-1.0546
X1.1044 Y-1.0511
X1.1102 Y-1.0472
X1.1159 Y-1.0429
X1.1215 Y-1.0382
X1.127 Y-1.0332
X1.1324 Y-1.0278
X1.1376 Y-1.0221
X1.1425 Y-1.0161
X1.1472 Y-1.0097
X1.1516 Y-1.0031
X1.1558 Y-0.9962
X1.1596 Y-0.989
X1.1631 Y-0.9816
X1.1663 Y-0.974
X1.1691 Y-0.9662
X1.1715 Y-0.9582
X1.1735 Y-0.9501
X1.1752 Y-0.9419
X1.1764 Y-0.9336
X1.1773 Y-0.9252
X1.1777 Y-0.9167
X1.1778 Y-0.9082
X1.1774 Y-0.8997
X1.1766 Y-0.8911
X1.1754 Y-0.8826
X1.1737 Y-0.8742
X1.1717 Y-0.8658
X1.1692 Y-0.8576
X1.1664 Y-0.8494
X1.1631 Y-0.8414
X1.1595 Y-0.8335
X1.1554 Y-0.8258
X1.151 Y-0.8183
X1.1462 Y-0.811
X1.1411 Y-0.8039
X1.1408 Y-0.8035
X1.1314 Y-0.7939
X1.1203 Y-0.7863
X1.1079 Y-0.781
X1.0948 Y-0.7783
X1.083 Y-0.7769
X1.0758 Y-0.7761
X1.0616 Y-0.7742
X1.0545 Y-0.7729
X1.0516 Y-0.7727
X1.0497 Y-0.7726
X1.0479 Y-0.7723
X1.0461 Y-0.7719
X1.0449 Y-0.7716
X1.0432 Y-0.771
X1.0416 Y-0.7703
X1.0399 Y-0.7693
X1.0382 Y-0.7684
X1.0364 Y-0.7676
X0.9866 Y-0.7515
X0.9808 Y-0.7499
X0.975 Y-0.7486
X0.969 Y-0.7479
X0.963 Y-0.7475
X0.957 Y-0.7476
X0.951 Y-0.748
X0.9451 Y-0.7487
X0.9392 Y-0.7498
X0.9331 Y-0.7512
X0.9269 Y-0.7529
X0.9206 Y-0.755
X0.9142 Y-0.7575
X0.9077 Y-0.7604
X0.9011 Y-0.7637
X0.8945 Y-0.7675
X0.888 Y-0.7716
X0.8816 Y-0.7762
X0.8753 Y-0.7811
X0.8691 Y-0.7864
X0.8631 Y-0.7921
X0.8574 Y-0.7981
X0.8518 Y-0.8046
X0.8465 Y-0.8113
X0.8415 Y-0.8184
X0.8368 Y-0.8258
X0.8324 Y-0.8334
X0.8284 Y-0.8414
X0.8248 Y-0.8495
X0.8215 Y-0.8579
X0.8186 Y-0.8664
X0.8162 Y-0.8751
X0.8141 Y-0.884
X0.8125 Y-0.893
X0.8113 Y-0.9021
X0.8106 Y-0.9112
X0.8103 Y-0.9204
X0.8105 Y-0.9296
X0.8111 Y-0.9389
X0.8121 Y-0.9481
X0.8137 Y-0.9572
X0.8156 Y-0.9663
X0.818 Y-0.9753
X0.8209 Y-0.9842
X0.8241 Y-0.993
X0.8278 Y-1.0016
X0.832 Y-1.01
X0.8365 Y-1.0182
X0.8414 Y-1.0262
X0.8468 Y-1.034
X0.8525 Y-1.0415
X0.8585 Y-1.0487
X0.865 Y-1.0556
X0.8717 Y-1.0623
X0.8788 Y-1.0686
X0.8862 Y-1.0745
X0.8939 Y-1.0801
X0.8978 Y-1.0826
X0.9075 Y-1.0879
X0.9179 Y-1.0916
X0.9288 Y-1.0935
X0.9399 Y-1.0937
X0.955 Y-1.0928
X0.9621 Y-1.0922
X0.9763 Y-1.0895
X0.9976 Y-1.0851
X1.003 Y-1.084
X1.0057 Y-1.083
G2 X1.0248 Y-1.076 I0.0906 J-0.2151
G1 X1.0259 Y-1.0757
X1.0322 Y-1.074
X1.0454 Y-1.0706 F300.
X1.0508 Y-1.0693 F40.
X1.0519 Y-1.069
G2 X1.072 Y-1.066 I0.0444 J-0.2291
G1 X1.0739 Y-1.0657
X1.0758 Y-1.0652
X1.1295 Y-1.0457
X1.135 Y-1.0433
X1.1403 Y-1.0405
X1.1454 Y-1.0374
X1.1503 Y-1.0338
X1.1549 Y-1.03
X1.1594 Y-1.026
X1.1636 Y-1.0217
X1.1678 Y-1.017
X1.1719 Y-1.0118
X1.1759 Y-1.0064
X1.1798 Y-1.0005
X1.1835 Y-0.9941
X1.1871 Y-0.9872
X1.1905 Y-0.98
X1.1935 Y-0.9725
X1.1962 Y-0.9647
X1.1987 Y-0.9566
X1.2007 Y-0.9482
X1.2024 Y-0.9395
X1.2037 Y-0.9306
X1.2045 Y-0.9215
X1.205 Y-0.9122
X1.2049 Y-0.9029
X1.2044 Y-0.8934
X1.2035 Y-0.8839
X1.202 Y-0.8744
X1.2001 Y-0.8649
X1.1978 Y-0.8555
X1.1949 Y-0.8461
X1.1916 Y-0.8368
X1.1884 Y-0.8292
X1.185 Y-0.8219
X1.1829 Y-0.818
X1.1753 Y-0.8067
X1.1656 Y-0.7971
X1.1542 Y-0.7895
X1.1416 Y-0.7844
X1.1281 Y-0.7819
G3 X1.1084 Y-0.8003 I-0.001 J-0.0187
G1 Y-0.8011
X1.1049 Y-1.0276 F300.
X1.105 Y-1.03
X1.1054 Y-1.0323
G3 X1.1295 Y-1.0457 I0.0182 J0.0045 F40.
G1 X1.1327 Y-1.0445
X1.142 Y-1.0406
X1.1612 Y-1.0305
X1.1754 Y-1.0229
X1.1805 Y-1.0198
X1.1854 Y-1.0163
X1.19 Y-1.0124
X1.1943 Y-1.0083
X1.1984 Y-1.0038
X1.2021 Y-0.9991
X1.2056 Y-0.9943
X1.209 Y-0.989
X1.2123 Y-0.9834
X1.2154 Y-0.9774
X1.2184 Y-0.9708
X1.2212 Y-0.9638
X1.2238 Y-0.9562
X1.226 Y-0.9484
X1.228 Y-0.9403
X1.2296 Y-0.9316
X1.2308 Y-0.9226
X1.2316 Y-0.9133
X1.232 Y-0.9037
X1.2319 Y-0.8938
X1.2313 Y-0.8839
X1.2302 Y-0.8739
X1.2286 Y-0.8641
X1.2267 Y-0.855
X1.2247 Y-0.8471
X1.222 Y-0.8385
X1.2196 Y-0.832
X1.2171 Y-0.8261
X1.2138 Y-0.8192
X1.2068 Y-0.8088
X1.198 Y-0.7997
X1.1877 Y-0.7925
X1.1763 Y-0.7872
X1.1641 Y-0.7841
X1.1515 Y-0.7833
G3 X1.134 Y-0.8034 I0.0012 J-0.0187
G1 X1.1341 Y-0.8047
X1.1484 Y-1.0073 F300.
X1.1488 Y-1.0102
X1.1497 Y-1.0129
G3 X1.1754 Y-1.0229 I0.0174 J0.0069 F40.
G1 X1.2038 Y-1.0077
X1.2082 Y-1.0051
X1.2136 Y-1.0014
X1.2183 Y-0.9978
X1.2228 Y-0.9938
X1.2269 Y-0.9894
X1.2307 Y-0.9848
X1.2342 Y-0.9799
X1.2374 Y-0.9749
X1.2404 Y-0.9696
X1.2433 Y-0.9638
X1.246 Y-0.9578
X1.2486 Y-0.9512
X1.251 Y-0.944
X1.2531 Y-0.9363
X1.255 Y-0.9283
X1.2565 Y-0.9199
X1.2576 Y-0.911
X1.2583 Y-0.9019
X1.2586 Y-0.8926
X1.2584 Y-0.8832
X1.2578 Y-0.874
X1.2567 Y-0.8651
X1.2553 Y-0.8564
X1.2538 Y-0.8495
X1.2517 Y-0.8417
X1.2496 Y-0.8354
X1.2475 Y-0.8297
X1.2448 Y-0.8235
X1.2431 Y-0.82
X1.2358 Y-0.8083
X1.2264 Y-0.7983
X1.2151 Y-0.7904
X1.2026 Y-0.7848
X1.1891 Y-0.7819
X1.1754 Y-0.7817
G3 X1.159 Y-0.8024 I0.0022 J-0.0186
G1 X1.1591 Y-0.804
X1.1807 Y-0.9907 F300.
X1.1813 Y-0.9935
X1.1822 Y-0.9961
G3 X1.2082 Y-1.0051 I0.0172 J0.0076 F40.
G1 X1.2251 Y-0.9947
X1.2311 Y-0.9909
X1.2439 Y-0.9814
X1.2486 Y-0.9777
X1.2529 Y-0.9736
X1.257 Y-0.9691
X1.2606 Y-0.9644
X1.264 Y-0.9594
X1.267 Y-0.9542
X1.2698 Y-0.9489
X1.2723 Y-0.9432
X1.2747 Y-0.9373
X1.2769 Y-0.9308
X1.279 Y-0.9238
X1.2807 Y-0.9164
X1.2821 Y-0.9088
X1.2832 Y-0.9008
X1.2839 Y-0.8924
X1.2838 Y-0.8852
X1.2829 Y-0.8781
X1.2813 Y-0.8711
G3 X1.2564 Y-0.8595 I-0.0178 J-0.0058
X1.2457 Y-0.8708 I0.0071 J-0.0173 F300.
G1 X1.2156 Y-0.9599
G3 X1.2171 Y-0.9753 I0.0178 J-0.006
X1.2439 Y-0.9814 I0.0163 J0.0093 F40.
G1 X1.2726 Y-0.9604
X1.2773 Y-0.9566
X1.2843 Y-0.9482
X1.2894 Y-0.9385
X1.2923 Y-0.9279
X1.2929 Y-0.917
X1.2912 Y-0.9062
G3 X1.2664 Y-0.8942 I-0.0179 J-0.0055
X1.2555 Y-0.9057 I0.0069 J-0.0174 F300.
G1 X1.2443 Y-0.9389
G3 X1.2458 Y-0.9542 I0.0178 J-0.006
X1.2726 Y-0.9604 I0.0163 J0.0093 F40.
G1 X1.2892 Y-0.9482
X1.291 Y-0.9466
X1.2928 Y-0.9446
X1.2941 Y-0.9429
X1.2951 Y-0.9411
X1.2962 Y-0.9384
X1.2968 Y-0.9362
X1.2972 Y-0.934
Y-0.9322
X1.2971 Y-0.9304
X1.2966 Y-0.9269
X1.2962 Y-0.9248
X1.2911 Y-0.9055
X1.2891 Y-0.8984
X1.2689 Y-0.8273
X1.2669 Y-0.8215
X1.2614 Y-0.8106
X1.254 Y-0.8008
X1.2449 Y-0.7926
X1.2344 Y-0.7862
X1.223 Y-0.7818
X1.2109 Y-0.7795
X1.1987
G3 X1.1827 Y-0.8019 I0.0024 J-0.0186
X1.1905 Y-0.8136 I0.0184 J0.0038 F300.
G1 X1.2402 Y-0.8473
G3 X1.2537 Y-0.8503 I0.0105 J0.0155
X1.2689 Y-0.8273 I-0.0031 J0.0185 F40.
G1 X1.2612 Y-0.8003
X1.2593 Y-0.7946
X1.254 Y-0.7869
X1.2466 Y-0.7811
X1.2378 Y-0.7776
X1.2285 Y-0.7769
G3 X1.212 Y-0.799 I0.002 J-0.0186
X1.2194 Y-0.8107 I0.0184 J0.0034 F300.
G1 X1.2319 Y-0.8199
G3 X1.2461 Y-0.8233 I0.0111 J0.0151
X1.2612 Y-0.8003 I-0.0031 J0.0185 F40.
G1 X1.2607 Y-0.7984
X1.2586 Y-0.7917
X1.257 Y-0.7882
X1.2561 Y-0.7864
X1.2549 Y-0.7846
X1.2536 Y-0.783
X1.2518 Y-0.7812
X1.25 Y-0.7798
X1.2483 Y-0.7787
X1.2465 Y-0.7778
X1.2457 Y-0.7775
X1.2441 Y-0.777
X1.2425 Y-0.7767
X1.2394 Y-0.7764
X1.2323 Y-0.7766
X1.2251 Y-0.7772
X1.218 Y-0.7777
X1.1742 Y-0.7818
X1.1683 Y-0.7823
X1.1541 Y-0.7832
X1.1469 Y-0.7834
X1.1327 Y-0.7823
X1.1256 Y-0.7817
X1.0948 Y-0.7783
X1.0919
G2 X1.0775 Y-0.7788 I-0.0134 J0.1646
G1 X1.0753 Y-0.7787
X1.0731 Y-0.7783
X1.0642 Y-0.7761
X1.0147 Y-0.7639 F300.
X1.0068 Y-0.7619 F40.
X1.0047 Y-0.7613
X1.0027 Y-0.7604
G2 X0.9901 Y-0.7532 I0.0758 J0.1468
G1 X0.9884 Y-0.7522
X0.9866 Y-0.7515
X0.9763 Y-0.7481
X0.9692 Y-0.7454
X0.9621 Y-0.7418
X0.9567 Y-0.7392
X0.951 Y-0.7373
X0.9451 Y-0.736
X0.9392 Y-0.7353
X0.9332 Y-0.7351
X0.9272 Y-0.7353
X0.9212 Y-0.7359
X0.9153 Y-0.7368
X0.9094 Y-0.7381
X0.9036 Y-0.7397
X0.8977 Y-0.7416
X0.8916 Y-0.7439
X0.8854 Y-0.7466
X0.879 Y-0.7498
X0.8725 Y-0.7534
X0.866 Y-0.7575
X0.8596 Y-0.7619
X0.8531 Y-0.7669
X0.8467 Y-0.7723
X0.8404 Y-0.7782
X0.8343 Y-0.7846
X0.8283 Y-0.7914
X0.8226 Y-0.7986
X0.8171 Y-0.8061
X0.812 Y-0.8141
X0.8072 Y-0.8224
X0.8027 Y-0.831
X0.7986 Y-0.84
X0.7949 Y-0.8492
X0.7916 Y-0.8587
X0.7888 Y-0.8684
X0.7864 Y-0.8784
X0.7845 Y-0.8885
X0.7831 Y-0.8987
X0.7822 Y-0.9091
X0.7818 Y-0.9195
X0.7819 Y-0.93
X0.7825 Y-0.9405
X0.7836 Y-0.9511
X0.7853 Y-0.9615
X0.7874 Y-0.9719
X0.7901 Y-0.9822
X0.7933 Y-0.9924
X0.7969 Y-1.0025
X0.8011 Y-1.0124
X0.8057 Y-1.0221
X0.8109 Y-1.0315
X0.8165 Y-1.0408
X0.8225 Y-1.0497
X0.829 Y-1.0584
X0.8359 Y-1.0667
X0.8423 Y-1.0738
X0.8451 Y-1.0766
X0.854 Y-1.084
X0.8641 Y-1.0899
X0.875 Y-1.094
X0.8864 Y-1.0962
X0.898 Y-1.0964
X0.9399 Y-1.0937
G3 X0.9567 Y-1.0759 I-0.0019 J0.0187
G1 X0.9569 Y-1.0717
X0.9709 Y-0.7693 F300.
X0.9713 Y-0.7588 F40.
G3 X0.9621 Y-0.7418 I-0.0187 J0.0009
G1 X0.9479 Y-0.7341
X0.9395 Y-0.7294
X0.9341 Y-0.7267
X0.9285 Y-0.7246
X0.9227 Y-0.7232
X0.9167 Y-0.7224
X0.9107 Y-0.7221
X0.9047 Y-0.7222
X0.8988 Y-0.7227
X0.8928 Y-0.7236
X0.8869 Y-0.7248
X0.8811 Y-0.7263
X0.8752 Y-0.7281
X0.8693 Y-0.7304
X0.863 Y-0.733
X0.8565 Y-0.7362
X0.85 Y-0.7398
X0.8434 Y-0.7438
X0.8368 Y-0.7483
X0.8301 Y-0.7533
X0.8234 Y-0.7589
X0.8168 Y-0.765
X0.8103 Y-0.7716
X0.804 Y-0.7786
X0.798 Y-0.7861
X0.7921 Y-0.7941
X0.7865 Y-0.8025
X0.7812 Y-0.8115
X0.7763 Y-0.8208
X0.7717 Y-0.8306
X0.7676 Y-0.8407
X0.7639 Y-0.8511
X0.7607 Y-0.8618
X0.758 Y-0.8728
X0.7558 Y-0.884
X0.7541 Y-0.8954
X0.753 Y-0.907
X0.7524 Y-0.9186
Y-0.9303
X0.753 Y-0.9421
X0.7542 Y-0.9539
X0.7559 Y-0.9657
X0.7582 Y-0.9774
X0.7611 Y-0.989
X0.7646 Y-1.0006
X0.7687 Y-1.0119
X0.7733 Y-1.0231
X0.7784 Y-1.0341
X0.7841 Y-1.0448
X0.7897 Y-1.0542
X0.7951 Y-1.0625
X0.8004 Y-1.0697
X0.8016 Y-1.0711
X0.8114 Y-1.0809
X0.823 Y-1.0886
X0.8359 Y-1.0938
X0.8496 Y-1.0963
X0.8626 Y-1.0973
X0.8697
X0.8839 Y-1.0971
X0.891 Y-1.0969
X0.898 Y-1.0964
G3 X0.9148 Y-1.0796 I-0.0019 J0.0187
G1 X0.9153 Y-1.0745
X0.9473 Y-0.7571 F300.
X0.9483 Y-0.7473 F40.
G3 X0.9395 Y-0.7294 I-0.0187 J0.0019
G1 X0.9155 Y-0.7158
X0.9102 Y-0.7131
X0.9045 Y-0.7112
X0.893 Y-0.7097
X0.8814 Y-0.7103
X0.8701 Y-0.713
X0.8594 Y-0.7177
X0.8498 Y-0.7242
X0.8416 Y-0.7324
G3 X0.8459 Y-0.7595 I0.0147 J-0.0116
X0.8608 Y-0.7621 I0.0104 J0.0156 F300.
G1 X0.9102 Y-0.75
G3 X0.9209 Y-0.7428 I-0.0045 J0.0182
X0.9155 Y-0.7158 I-0.0152 J0.011 F40.
G1 X0.8981 Y-0.7059
X0.8942 Y-0.7039
X0.8924 Y-0.703
X0.891 Y-0.7023
X0.8855 Y-0.6999
X0.8772
X0.8695 Y-0.7027
X0.863 Y-0.7078
G3 Y-0.7363 I0.0171 J-0.0143
X0.881 Y-0.7443 I0.0171 J0.0142 F300.
X0.9014 Y-0.7289 I-0.001 J0.0224
X0.891 Y-0.7023 I-0.0213 J0.007 F40.
G1 X0.8875 Y-0.7005
X0.8857 Y-0.6998
X0.8839 Y-0.6993
X0.8821 Y-0.699
X0.8803 Y-0.6988
X0.8785
X0.8768 Y-0.699
X0.8752 Y-0.6993
X0.8724 Y-0.7002
X0.8697 Y-0.7016
X0.8683 Y-0.7025
X0.867 Y-0.7036
X0.8643 Y-0.7064
X0.8515 Y-0.7206
X0.8455 Y-0.7277
X0.7559 Y-0.8338
X0.7521 Y-0.8387
X0.7487 Y-0.8437
X0.7456 Y-0.8488
X0.7427 Y-0.8543
X0.7399 Y-0.8602
X0.7371 Y-0.867
X0.7345 Y-0.8741
X0.7321 Y-0.8819
X0.7299 Y-0.8904
X0.7281 Y-0.8996
X0.7266 Y-0.909
X0.7256 Y-0.919
X0.725 Y-0.9296
X0.7249 Y-0.9407
X0.7254 Y-0.9521
X0.7265 Y-0.9638
X0.7282 Y-0.9756
X0.7305 Y-0.9876
X0.7334 Y-0.9996
X0.7369 Y-1.0118
X0.7411 Y-1.0237
X0.7457 Y-1.035
X0.75 Y-1.0444
X0.7543 Y-1.0526
X0.759 Y-1.0606
X0.7601 Y-1.0624
X0.7679 Y-1.0723
X0.7774 Y-1.0805
X0.7882 Y-1.0869
X0.8 Y-1.0913
X0.8124 Y-1.0934
X0.8496 Y-1.0963
G3 X0.8691 Y-1.0769 I0.0008 J0.0187
G1 X0.8688 Y-1.0741 F300.
X0.8681 Y-1.0714
X0.7875 Y-0.8402
X0.7865 Y-0.8378
X0.7851 Y-0.8355
X0.7834 Y-0.8335
G3 X0.7559 Y-0.8338 I-0.0136 J-0.0129 F40.
G1 X0.7253 Y-0.87
X0.7217 Y-0.8748
X0.7183 Y-0.8798
X0.7152 Y-0.8849
X0.7125 Y-0.8903
X0.7102 Y-0.8958
X0.708 Y-0.9016
X0.7061 Y-0.9078
X0.7042 Y-0.9148
X0.7026 Y-0.9222
X0.7013 Y-0.9302
X0.7004 Y-0.939
X0.6998 Y-0.9483
X0.6996 Y-0.9579
X0.7 Y-0.9682
X0.7009 Y-0.9791
X0.7024 Y-0.9904
X0.7044 Y-1.0016
X0.707 Y-1.0126
X0.7101 Y-1.0234
X0.7131 Y-1.0322
X0.7165 Y-1.041
X0.7199 Y-1.0484
X0.7229 Y-1.0544
X0.7234 Y-1.0551
X0.7317 Y-1.0667
X0.7422 Y-1.0763
X0.7545 Y-1.0835
X0.768 Y-1.088
G3 X0.7901 Y-1.0716 I0.0034 J0.0184
G1 X0.7902 Y-1.069 F300.
X0.7899 Y-1.0664
X0.7577 Y-0.8794
G3 X0.7529 Y-0.8697 I-0.0185 J-0.0032
X0.7253 Y-0.87 I-0.0136 J-0.0129 F40.
G1 X0.699 Y-0.9011
X0.6954 Y-0.9059
X0.692 Y-0.9109
X0.689 Y-0.9161
X0.6864 Y-0.9215
X0.6842 Y-0.9271
X0.6823 Y-0.9327
X0.6806 Y-0.9385
X0.6791 Y-0.945
X0.6778 Y-0.9522
X0.6769 Y-0.9596
X0.6762 Y-0.9677
X0.6759 Y-0.9765
X0.6761 Y-0.9854
X0.6767 Y-0.9944
X0.6777 Y-1.0037
X0.6792 Y-1.0129
X0.681 Y-1.021
X0.6828 Y-1.0279
X0.6853 Y-1.0357
X0.686 Y-1.0377
X0.692 Y-1.0499
X0.7004 Y-1.0607
X0.7106 Y-1.0697
X0.7225 Y-1.0764
X0.7354 Y-1.0807
G3 X0.7575 Y-1.0643 I0.0034 J0.0184
G1 X0.7576 Y-1.0617 F300.
X0.7574 Y-1.0591
X0.7314 Y-0.9105
G3 X0.7266 Y-0.9009 I-0.0185 J-0.0032
X0.699 Y-0.9011 I-0.0136 J-0.0129 F40.
G1 X0.674 Y-0.9308
X0.6704 Y-0.9355
X0.6671 Y-0.9406
X0.6643 Y-0.9459
X0.6619 Y-0.9514
X0.6598 Y-0.957
X0.6581 Y-0.9628
X0.6567 Y-0.9686
X0.6555 Y-0.9746
X0.6546 Y-0.981
X0.654 Y-0.9876
X0.6537 Y-0.9946
X0.6538 Y-1.0008
X0.6541 Y-1.0069
X0.6548 Y-1.0138
X0.6558 Y-1.0197
X0.6561 Y-1.0215
X0.66 Y-1.0341
X0.6662 Y-1.0456
X0.6745 Y-1.0558
X0.6845 Y-1.0643
X0.696 Y-1.0706
X0.7085 Y-1.0747
G3 X0.7306 Y-1.0583 I0.0034 J0.0184
G1 Y-1.0553 F300.
X0.7303 Y-1.0524
X0.7062 Y-0.9395
G3 X0.7015 Y-0.9305 I-0.0183 J-0.0039
X0.674 Y-0.9308 I-0.0136 J-0.0129 F40.
G1 X0.6511 Y-0.9579
X0.6474 Y-0.9627
X0.6443 Y-0.9678
X0.6416 Y-0.9732
X0.6393 Y-0.9787
X0.6375 Y-0.9844
X0.6361 Y-0.9903
X0.636 Y-0.9907
X0.6351 Y-1.0043
X0.637 Y-1.0178
X0.6414 Y-1.0306
X0.6483 Y-1.0424
X0.6573 Y-1.0525
X0.6682 Y-1.0607
X0.6805 Y-1.0666
G3 X0.7045 Y-1.0531 I0.0058 J0.0178
G1 X0.7049 Y-1.05 F300.
Y-1.0469
X0.7043 Y-1.0438
X0.6831 Y-0.9656
X0.682 Y-0.9627
X0.6805 Y-0.96
X0.6786 Y-0.9576
G3 X0.6511 Y-0.9579 I-0.0136 J-0.0129 F40.
G1 X0.6319 Y-0.9807
X0.6282 Y-0.9854
X0.6254 Y-0.9907
X0.6233 Y-0.9963
X0.6218 Y-1.0088
X0.6234 Y-1.0211
X0.6278 Y-1.0328
X0.635 Y-1.0431
X0.6443 Y-1.0513
X0.6554 Y-1.0571
G3 X0.6796 Y-1.044 I0.006 J0.0178
X0.6792 Y-1.0334 I-0.0182 J0.0046 F300.
G1 X0.6635 Y-0.9872
X0.6625 Y-0.9848
X0.6611 Y-0.9825
X0.6594 Y-0.9804
G3 X0.6319 Y-0.9807 I-0.0136 J-0.0129 F40.
G1 X0.619 Y-0.9959
X0.6153 Y-1.0007
X0.6128 Y-1.0061
X0.6117 Y-1.015
X0.6127 Y-1.0238
X0.6158 Y-1.0322
X0.6208 Y-1.0395
X0.6275 Y-1.0454
X0.6354 Y-1.0496
G3 X0.6647 Y-1.0448 I0.0102 J0.0301
X0.673 Y-1.0355 I-0.0191 J0.0254 F300.
X0.6468 Y-0.985 I-0.0291 J0.0169
X0.619 Y-0.9959 I-0.0028 J-0.0335 F40.
G1 X0.6098 Y-1.0068
X0.6087 Y-1.0081
X0.6056 Y-1.0133
X0.6044 Y-1.0206
X0.6054 Y-1.0279
X0.6086 Y-1.0346
X0.6136 Y-1.0401
X0.62 Y-1.0438
G3 X0.6452 Y-1.0339 I0.0068 J0.0197
G1 X0.6459 Y-1.0326
G3 X0.6369 Y-1.0039 I-0.0205 J0.0093 F300.
X0.6087 Y-1.0081 I-0.0115 J-0.0194 F40.
G1 X0.6066 Y-1.0112
X0.6041 Y-1.0158
X0.6034 Y-1.0175
X0.6028 Y-1.0193
X0.6025 Y-1.0211
X0.6023 Y-1.0229
X0.6024 Y-1.0246
X0.6025 Y-1.0264
X0.6029 Y-1.0282
X0.6034 Y-1.03
X0.6042 Y-1.0318
X0.6051 Y-1.0335
X0.6066 Y-1.0356
X0.6079 Y-1.0371
X0.6095 Y-1.0386
X0.6109 Y-1.0397
X0.6124 Y-1.0406
X0.6137 Y-1.0413
X0.6208 Y-1.0441
X0.6706 Y-1.0629
X0.6777 Y-1.0656
X0.6919 Y-1.0707
X0.699 Y-1.0726
X0.7701 Y-1.0885
X0.7772 Y-1.0897
X0.7915 Y-1.0917
X0.811 Y-1.0933
X0.8124 Y-1.0934
X0.8132
G3 X0.8319 Y-1.074 I0. J0.0187
G1 X0.8318 Y-1.0707 Z0.9038
X0.8317 Y-1.0676 Z0.9046
X0.8316 Y-1.0646 Z0.906
X0.8315 Y-1.0619 Z0.9079
X0.8314 Y-1.0596 Z0.9102
X0.8313 Y-1.0578 Z0.9129
Y-1.0564 Z0.9158
Y-1.0555 Z0.919
Y-1.0553 Z0.9223
G0 Z1.85
(2D CONTOUR2)
G64 P0.0004 Q0.0004
G0 X0.9847 Y-0.8016
Z1.85
Z1.45
G1 Z1.2875 F80.
Z0.9223
X0.9848 Y-0.8013 Z0.919 F40.
X0.9851 Y-0.8006 Z0.9158
X0.9856 Y-0.7993 Z0.9129
X0.9863 Y-0.7975 Z0.9102
X0.9872 Y-0.7954 Z0.9079
X0.9882 Y-0.7929 Z0.906
X0.9892 Y-0.7901 Z0.9046
X0.9904 Y-0.7872 Z0.9038
X0.9916 Y-0.7842 Z0.9035
X0.9985 Y-0.7667
G3 X0.9879 Y-0.7424 I-0.0174 J0.0069
G2 X0.8928 Y-0.6908 I0.1645 J0.4168
G3 X0.8601 Y-0.695 I-0.0141 J-0.0199
G1 X0.5939 Y-1.0101
G3 X0.6023 Y-1.048 I0.0186 J-0.0157
X1.3001 Y-0.9529 I0.2745 J0.5939
X1.3078 Y-0.9277 I-0.0158 J0.0186
G1 X1.2666 Y-0.7826
G3 X1.2385 Y-0.7653 I-0.0234 J-0.0067
G2 X0.8928 Y-0.6908 I-0.0861 J0.4397
G3 X0.8601 Y-0.695 I-0.0141 J-0.0199
G1 X0.5939 Y-1.0101
G3 X0.6023 Y-1.048 I0.0186 J-0.0157
X1.3001 Y-0.9529 I0.2745 J0.5939
X1.3078 Y-0.9277 I-0.0158 J0.0186
G1 X1.2666 Y-0.7826
G3 X1.2385 Y-0.7653 I-0.0234 J-0.0067
G2 X0.9879 Y-0.7424 I-0.0861 J0.4397
G3 X0.9636 Y-0.753 I-0.0069 J-0.0174
G1 X0.9567 Y-0.7704
X0.9555 Y-0.7734 Z0.9038
X0.9544 Y-0.7764 Z0.9046
X0.9533 Y-0.7791 Z0.906
X0.9523 Y-0.7816 Z0.9079
X0.9514 Y-0.7838 Z0.9102
X0.9507 Y-0.7855 Z0.9129
X0.9502 Y-0.7868 Z0.9158
X0.9499 Y-0.7876 Z0.919
X0.9498 Y-0.7878 Z0.9223
G0 Z1.85
M5
G53 G0 Z0.
(2D CHAMFER1)
M9
M1
T13 M6
T36
S7500 M3
G17 G90 G94
G54
M8
G0 X0.9869 Y-0.745
G43 Z1.85 H13
G0 Z1.45
G1 Z1.33 F80.
Z1.093
G2 X0.8912 Y-0.6931 I0.1655 J0.4194 F50.
G3 X0.8622 Y-0.6967 I-0.0125 J-0.0176
G1 X0.596 Y-1.0119
G3 X0.6034 Y-1.0455 I0.0165 J-0.0139
X1.2984 Y-0.9508 I0.2734 J0.5914
X1.3052 Y-0.9284 I-0.014 J0.0165
G1 X1.2639 Y-0.7833
G3 X1.239 Y-0.768 I-0.0208 J-0.0059
G2 X0.9869 Y-0.745 I-0.0866 J0.4424
G0 Z1.45
X1.7935 Y-1.2244
G1 Z1.33 F80.
Z1.093
G2 X1.4673 Y-1.6229 I-0.3262 J-0.0657 F50.
G1 X0.2862
G2 X0.032 Y-1.0755 I0. J0.3327
G1 X0.5848 Y-0.421
X0.8681 Y-0.0855
G2 X1.5103 Y-0.2239 I0.2843 J-0.2401
G1 X1.7874 Y-1.1992
G2 X1.7935 Y-1.2244 I-0.3201 J-0.0909
G0 Z1.85
(2D CHAMFER2)
G0 X1.2533 Y-0.3256
Z1.85
Z1.45
G1 Z1.33 F80.
Z1.153
G3 X1.0514 I-0.101 J0. F50.
X1.2533 I0.101 J0.
G0 Z1.45
X1.5252 Y-1.2691
G1 Z1.33 F80.
Z1.153
G3 X1.4094 Y-1.3112 I-0.0579 J-0.0211 F50.
X1.5252 Y-1.2691 I0.0579 J0.0211
G0 Z1.45
X0.3478 Y-1.2902
G1 Z1.33 F80.
Z1.153
G3 X0.2246 I-0.0616 J0. F50.
X0.3478 I0.0616 J0.
G0 Z1.85
M5
M9
G53 G0 Z0.
M30
%
