%
(OP2, HOLE RIGHT)
(T13 D=0.375 CR=0. TAPER=45DEG - ZMIN=0.953 - CHAMFER MILL)
(T32 D=0.1875 CR=0. - ZMIN=0.7635 - FLAT END MILL)
(T36 D=0.375 CR=0. - ZMIN=1.063 - FLAT END MILL)
G90 G94 G17 G91.1
G20
G53 G0 Z0.
(3D ADAPTIVE ROUGHING1)
T36 M6
T32
S7500 M3
G17 G90 G94
G54
G64 P0.004 Q0.004
M8
G0 X-0.0881 Y-1.9572
G43 Z1.803 H36
G0 Z1.403
Z1.148
G1 Z1.1105 F60.
X-0.088 Y-1.957 Z1.106
X-0.0878 Y-1.9562 Z1.1015
X-0.0875 Y-1.9549 Z1.0972
X-0.087 Y-1.9531 Z1.0931
X-0.0865 Y-1.9508 Z1.0892
X-0.0858 Y-1.9481 Z1.0856
X-0.085 Y-1.945 Z1.0824
X-0.0841 Y-1.9415 Z1.0796
X-0.0831 Y-1.9378 Z1.0773
X-0.0821 Y-1.9338 Z1.0754
X-0.081 Y-1.9296 Z1.0741
X-0.0799 Y-1.9253 Z1.0733
X-0.0788 Y-1.9209 Z1.073
G3 X-0.0494 Y-1.7168 I-0.9274 J0.2376
G1 Y-1.7116
X-0.0702 Y-1.6724
X-0.0864 Y-1.6311
X-0.099 Y-1.5885
X-0.1086 Y-1.5452
X-0.1158 Y-1.5014
X-0.1213 Y-1.4574
X-0.1254 Y-1.4132
X-0.1284 Y-1.369
X-0.1307 Y-1.3246
X-0.1323 Y-1.2803
X-0.1335 Y-1.2359
X-0.1344 Y-1.1916
X-0.1351 Y-1.1472
X-0.1356 Y-1.1028
X-0.136 Y-1.0585
X-0.1362 Y-1.0141
X-0.1364 Y-0.9697
X-0.1367 Y-0.881
X-0.1368 Y-0.7479
X-0.1369 Y-0.526
Y-0.0823
X-0.1234 Y-0.04
X-0.0986 Y-0.0032
X-0.0667 Y0.0276
X-0.03 Y0.0526
X0.0096 Y0.0725
X0.0512 Y0.0881
X0.0939 Y0.1002
X0.1373 Y0.1093
X0.1811 Y0.1163
X0.2252 Y0.1215
X0.2694 Y0.1254
X0.3137 Y0.1283
X0.358 Y0.1304
X0.4024 Y0.132
X0.4467 Y0.1332
X0.4911 Y0.1341
X0.5354 Y0.1347
X0.5798 Y0.1352
X0.6242 Y0.1355
X0.6686 Y0.1358
X0.7129 Y0.136
X0.8017 Y0.1362
X0.9348 Y0.1364
X1.201 Y0.1365
X1.556 Y0.1366
X1.5996 Y0.1285
X1.6385 Y0.1071
X1.6715 Y0.0774
X1.6985 Y0.0422
X1.7201 Y0.0034
X1.7372 Y-0.0375
X1.7504 Y-0.0799
X1.7605 Y-0.1231
X1.7682 Y-0.1668
X1.7739 Y-0.2108
X1.7782 Y-0.255
X1.7815 Y-0.2992
X1.7838 Y-0.3435
X1.7856 Y-0.3879
X1.7869 Y-0.4322
X1.7878 Y-0.4766
X1.7885 Y-0.521
X1.7891 Y-0.5653
X1.7894 Y-0.6097
X1.7897 Y-0.6541
X1.7899 Y-0.6984
X1.7902 Y-0.7872
X1.7904 Y-0.9203
X1.7905 Y-1.1422
Y-1.364
X1.7899 Y-1.3751
X1.7836 Y-1.419
X1.763 Y-1.4583
X1.7337 Y-1.4917
X1.6988 Y-1.5191
X1.6603 Y-1.5411
X1.6194 Y-1.5584
X1.5771 Y-1.5718
X1.534 Y-1.5821
X1.4903 Y-1.59
X1.4463 Y-1.5959
X1.4022 Y-1.6003
X1.3579 Y-1.6036
X1.3136 Y-1.606
X1.2693 Y-1.6078
X1.2249 Y-1.6091
X1.1805 Y-1.6101
X1.1362 Y-1.6108
X1.0918 Y-1.6114
X1.0474 Y-1.6118
X1.0031 Y-1.6121
X0.9587 Y-1.6123
X0.9143 Y-1.6125
X0.8256 Y-1.6127
X0.6925 Y-1.6128
X0.3818 Y-1.613
X0.2043
X0.1619 Y-1.6002
X0.1239 Y-1.5772
X0.0914 Y-1.547
X0.0642 Y-1.512
X0.042 Y-1.4735
X0.0242 Y-1.4329
X0.0101 Y-1.3908
X-0.001 Y-1.3479
X-0.0096 Y-1.3043
X-0.0162 Y-1.2604
X-0.0213 Y-1.2164
X-0.0251 Y-1.1722
X-0.0281 Y-1.1279
X-0.0303 Y-1.0836
X-0.0319 Y-1.0392
X-0.0332 Y-0.9949
X-0.0341 Y-0.9505
X-0.0348 Y-0.9061
X-0.0354 Y-0.8618
X-0.0358 Y-0.8174
X-0.0361 Y-0.773
X-0.0363 Y-0.7286
X-0.0365 Y-0.6843
X-0.0367 Y-0.5955
X-0.0368 Y-0.4624
X-0.0369 Y-0.418
Y-0.2849
X-0.0368 Y-0.2405
X-0.0267 Y-0.1973
X-0.0074 Y-0.1574
X0.0192 Y-0.1219
X0.0513 Y-0.0912
X0.0874 Y-0.0654
X0.1263 Y-0.0441
X0.1671 Y-0.0267
X0.2093 Y-0.0127
X0.2522 Y-0.0016
X0.2957 Y0.0071
X0.3396 Y0.0139
X0.3836 Y0.0192
X0.4278 Y0.0233
X0.4721 Y0.0265
X0.5164 Y0.0289
X0.5607 Y0.0307
X0.6051 Y0.0321
X0.6494 Y0.0332
X0.6938 Y0.034
X0.7382 Y0.0346
X0.7825 Y0.0351
X0.8269 Y0.0354
X0.8713 Y0.0357
X0.9157 Y0.0359
X1.0044 Y0.0362
X1.1375 Y0.0364
X1.3594 Y0.0365
X1.4038 Y0.0366
X1.4474 Y0.0287
X1.4882 Y0.0112
X1.5248 Y-0.0139
X1.5565 Y-0.0449
X1.5834 Y-0.0802
X1.6057 Y-0.1186
X1.6239 Y-0.1591
X1.6386 Y-0.2009
X1.6502 Y-0.2438
X1.6595 Y-0.2872
X1.6667 Y-0.3309
X1.6723 Y-0.375
X1.6766 Y-0.4191
X1.6799 Y-0.4634
X1.6825 Y-0.5077
X1.6844 Y-0.552
X1.6859 Y-0.5963
X1.687 Y-0.6407
X1.6879 Y-0.6851
X1.6885 Y-0.7294
X1.689 Y-0.7738
X1.6894 Y-0.8182
X1.6896 Y-0.8626
X1.6899 Y-0.9069
X1.6901 Y-0.9957
X1.6903 Y-1.0844
X1.6904 Y-1.2175
X1.6845 Y-1.2615
X1.6687 Y-1.303
X1.645 Y-1.3405
X1.6149 Y-1.3731
X1.5803 Y-1.4009
X1.5425 Y-1.4241
X1.5024 Y-1.443
X1.4607 Y-1.4583
X1.418 Y-1.4705
X1.3747 Y-1.4802
X1.331 Y-1.4877
X1.287 Y-1.4936
X1.2429 Y-1.4982
X1.1986 Y-1.5017
X1.1544 Y-1.5044
X1.11 Y-1.5064
X1.0657 Y-1.508
X1.0213 Y-1.5092
X0.977 Y-1.5101
X0.9326 Y-1.5108
X0.8882 Y-1.5113
X0.8439 Y-1.5117
X0.7995 Y-1.512
X0.7551 Y-1.5122
X0.7107 Y-1.5124
X0.622 Y-1.5127
X0.4889 Y-1.5128
X0.4001 Y-1.5129
X0.3558 Y-1.5126
X0.3124 Y-1.5034
X0.2718 Y-1.4854
X0.2353 Y-1.4602
X0.2034 Y-1.4293
X0.1763 Y-1.3942
X0.1535 Y-1.3561
X0.1348 Y-1.3159
X0.1195 Y-1.2742
X0.1073 Y-1.2316
X0.0975 Y-1.1883
X0.0898 Y-1.1446
X0.0837 Y-1.1006
X0.079 Y-1.0565
X0.0753 Y-1.0123
X0.0724 Y-0.968
X0.0702 Y-0.9237
X0.0685 Y-0.8794
X0.0672 Y-0.835
X0.0662 Y-0.7906
X0.0655 Y-0.7463
X0.0649 Y-0.7019
X0.0645 Y-0.6575
X0.0641 Y-0.6132
X0.0639 Y-0.5688
X0.0637 Y-0.5244
X0.0634 Y-0.4357
X0.0633 Y-0.3913
X0.0686 Y-0.3472
X0.0822 Y-0.305
X0.1033 Y-0.266
X0.1307 Y-0.231
X0.163 Y-0.2006
X0.199 Y-0.1746
X0.2376 Y-0.1528
X0.2781 Y-0.1348
X0.32 Y-0.12
X0.3627 Y-0.108
X0.406 Y-0.0985
X0.4497 Y-0.0908
X0.4937 Y-0.0848
X0.5378 Y-0.08
X0.582 Y-0.0763
X0.6263 Y-0.0734
X0.6706 Y-0.0711
X0.715 Y-0.0694
X0.7593 Y-0.068
X0.8037 Y-0.067
X0.848 Y-0.0661
X0.8924 Y-0.0655
X0.9368 Y-0.065
X0.9812 Y-0.0647
X1.0255 Y-0.0644
X1.0699 Y-0.0642
X1.1586 Y-0.0639
X1.2474 Y-0.0637
X1.2917 Y-0.0664
X1.3347 Y-0.0772
X1.375 Y-0.0959
X1.4114 Y-0.1212
X1.4434 Y-0.152
X1.4709 Y-0.1868
X1.4941 Y-0.2246
X1.5134 Y-0.2646
X1.5293 Y-0.306
X1.5422 Y-0.3485
X1.5525 Y-0.3916
X1.5608 Y-0.4352
X1.5673 Y-0.4791
X1.5725 Y-0.5232
X1.5766 Y-0.5674
X1.5797 Y-0.6116
X1.5822 Y-0.6559
X1.5841 Y-0.7003
X1.5856 Y-0.7446
X1.5867 Y-0.789
X1.5876 Y-0.8333
X1.5883 Y-0.8777
X1.5888 Y-0.9221
X1.5892 Y-0.9664
X1.5895 Y-1.0108
X1.5897 Y-1.0552
X1.589 Y-1.0995
X1.581 Y-1.1432
X1.5648 Y-1.1845
X1.5415 Y-1.2223
X1.5123 Y-1.2557
X1.4787 Y-1.2847
X1.4418 Y-1.3093
X1.4025 Y-1.3298
X1.3614 Y-1.3468
X1.3193 Y-1.3606
X1.2763 Y-1.3717
X1.2329 Y-1.3806
X1.189 Y-1.3877
X1.145 Y-1.3933
X1.1009 Y-1.3977
X1.0566 Y-1.4011
X1.0123 Y-1.4038
X0.968 Y-1.4059
X0.9237 Y-1.4075
X0.8793 Y-1.4088
X0.835 Y-1.4097
X0.7906 Y-1.4105
X0.7462 Y-1.4111
X0.7018 Y-1.4115
X0.6575 Y-1.4119
X0.6131 Y-1.4121
X0.5687 Y-1.4123
X0.5244 Y-1.4125
X0.48 Y-1.411
X0.4365 Y-1.4023
X0.3953 Y-1.3857
X0.3577 Y-1.3623
X0.3241 Y-1.3332
X0.295 Y-1.2997
X0.2702 Y-1.263
X0.2493 Y-1.2238
X0.2321 Y-1.1829
X0.218 Y-1.1408
X0.2065 Y-1.098
X0.1973 Y-1.0546
X0.1899 Y-1.0108
X0.1841 Y-0.9668
X0.1795 Y-0.9227
X0.1758 Y-0.8785
X0.173 Y-0.8342
X0.1707 Y-0.7899
X0.169 Y-0.7455
X0.1677 Y-0.7012
X0.1666 Y-0.6568
X0.1658 Y-0.6124
X0.1652 Y-0.5681
X0.1647 Y-0.5237
X0.168 Y-0.4794
X0.1784 Y-0.4363
X0.1961 Y-0.3956
X0.2204 Y-0.3585
X0.25 Y-0.3254
X0.2838 Y-0.2967
X0.3207 Y-0.2721
X0.3599 Y-0.2514
X0.4008 Y-0.2341
X0.4429 Y-0.22
X0.4857 Y-0.2084
X0.5291 Y-0.1991
X0.5728 Y-0.1916
X0.6168 Y-0.1856
X0.6609 Y-0.1808
X0.7051 Y-0.1771
X0.7494 Y-0.1741
X0.7937 Y-0.1718
X0.8381 Y-0.1699
X0.8824 Y-0.1685
X0.9268 Y-0.1674
X0.9711 Y-0.1665
X1.0155 Y-0.1658
X1.0599 Y-0.1653
X1.1042 Y-0.1649
X1.1486 Y-0.1653
X1.1926 Y-0.1715
X1.2348 Y-0.185
X1.2741 Y-0.2056
X1.3096 Y-0.2322
X1.3409 Y-0.2637
X1.3679 Y-0.2989
X1.3909 Y-0.3368
X1.4101 Y-0.3768
X1.426 Y-0.4183
X1.439 Y-0.4607
X1.4496 Y-0.5038
X1.4582 Y-0.5473
X1.465 Y-0.5912
X1.4705 Y-0.6352
X1.4748 Y-0.6794
X1.4782 Y-0.7236
X1.4809 Y-0.7679
X1.483 Y-0.8122
X1.4847 Y-0.8565
X1.486 Y-0.9009
X1.4869 Y-0.9453
X1.485 Y-0.9896
X1.476 Y-1.0331
X1.4595 Y-1.0743
X1.4364 Y-1.1121
X1.4076 Y-1.1459
X1.3745 Y-1.1754
X1.338 Y-1.2006
X1.2991 Y-1.222
X1.2584 Y-1.2397
X1.2165 Y-1.2544
X1.1738 Y-1.2663
X1.1305 Y-1.276
X1.0868 Y-1.2837
X1.0428 Y-1.29
X0.9987 Y-1.2949
X0.9545 Y-1.2988
X0.9103 Y-1.3019
X0.866 Y-1.3043
X0.8216 Y-1.3062
X0.7773 Y-1.3077
X0.7329 Y-1.3089
X0.6886 Y-1.3098
X0.6442 Y-1.3105
X0.5999 Y-1.3092
X0.5562 Y-1.3015
X0.5144 Y-1.2865
X0.4757 Y-1.2647
X0.4409 Y-1.2372
X0.4102 Y-1.2051
X0.3838 Y-1.1695
X0.3613 Y-1.1313
X0.3425 Y-1.0911
X0.3269 Y-1.0495
X0.3141 Y-1.007
X0.3037 Y-0.9639
X0.2953 Y-0.9203
X0.2886 Y-0.8765
X0.2832 Y-0.8324
X0.2789 Y-0.7883
X0.2755 Y-0.744
X0.2728 Y-0.6997
X0.2707 Y-0.6554
X0.271 Y-0.611
X0.2774 Y-0.5671
X0.2912 Y-0.5249
X0.3118 Y-0.4856
X0.3383 Y-0.4501
X0.3696 Y-0.4186
X0.4045 Y-0.3913
X0.4423 Y-0.368
X0.4821 Y-0.3483
X0.5233 Y-0.332
X0.5656 Y-0.3185
X0.6086 Y-0.3075
X0.6521 Y-0.2986
X0.6959 Y-0.2913
X0.7398 Y-0.2856
X0.784 Y-0.2809
X0.8282 Y-0.2772
X0.8725 Y-0.2743
X0.9168 Y-0.272
X0.9611 Y-0.2701
X1.0055 Y-0.2688
X1.0498 Y-0.2703
X1.0935 Y-0.2781
X1.1353 Y-0.2931
X1.174 Y-0.3147
X1.2089 Y-0.3421
X1.2397 Y-0.374
X1.2664 Y-0.4095
X1.2891 Y-0.4476
X1.3082 Y-0.4877
X1.3241 Y-0.5291
X1.3372 Y-0.5715
X1.3479 Y-0.6146
X1.3565 Y-0.6581
X1.3635 Y-0.7019
X1.3692 Y-0.7459
X1.3736 Y-0.7901
X1.3769 Y-0.8343
X1.376 Y-0.8787
X1.368 Y-0.9223
X1.3525 Y-0.9639
X1.3302 Y-1.0023
X1.3023 Y-1.0368
X1.2699 Y-1.067
X1.234 Y-1.0931
X1.1955 Y-1.1153
X1.1552 Y-1.1338
X1.1136 Y-1.1492
X1.0711 Y-1.1619
X1.0279 Y-1.1722
X0.9843 Y-1.1805
X0.9405 Y-1.1872
X0.8964 Y-1.1926
X0.8522 Y-1.1969
X0.808 Y-1.2003
X0.7637 Y-1.2029
X0.7193 Y-1.2033
X0.6753 Y-1.1979
X0.6327 Y-1.1853
X0.5929 Y-1.1657
X0.5567 Y-1.1401
X0.5245 Y-1.1096
X0.4964 Y-1.0752
X0.4724 Y-1.0379
X0.4521 Y-0.9985
X0.4351 Y-0.9575
X0.4211 Y-0.9154
X0.4096 Y-0.8725
X0.4002 Y-0.8291
X0.3927 Y-0.7854
X0.3876 Y-0.7413
X0.3883 Y-0.697
X0.3966 Y-0.6534
X0.4125 Y-0.6119
X0.4352 Y-0.5738
X0.4635 Y-0.5396
X0.4961 Y-0.5096
X0.5322 Y-0.4837
X0.5707 Y-0.4617
X0.6111 Y-0.4432
X0.6527 Y-0.4279
X0.6952 Y-0.4153
X0.7384 Y-0.405
X0.782 Y-0.3966
X0.8258 Y-0.3899
X0.8699 Y-0.3845
X0.9141 Y-0.3812
X0.9585 Y-0.3831
X1.0019 Y-0.3924
X1.043 Y-0.4089
X1.0809 Y-0.4321
X1.1149 Y-0.4606
X1.1447 Y-0.4935
X1.1704 Y-0.5296
X1.1923 Y-0.5682
X1.2107 Y-0.6086
X1.226 Y-0.6503
X1.2385 Y-0.6928
X1.2475 Y-0.7363
X1.2494 Y-0.7806
X1.2426 Y-0.8245
X1.2276 Y-0.8662
X1.2054 Y-0.9046
X1.1773 Y-0.939
X1.1447 Y-0.9691
X1.1086 Y-0.9949
X1.07 Y-1.0168
X1.0295 Y-1.0351
X0.9878 Y-1.0502
X0.9452 Y-1.0626
X0.902 Y-1.0727
X0.8583 Y-1.0803
X0.814 Y-1.083
X0.7699 Y-1.0781
X0.7274 Y-1.0652
X0.6879 Y-1.0451
X0.6521 Y-1.0189
X0.6204 Y-0.9878
X0.5929 Y-0.953
X0.5695 Y-0.9153
X0.55 Y-0.8754
X0.5367 Y-0.8331
X0.5328 Y-0.7889
X0.5389 Y-0.7449
X0.5541 Y-0.7032
X0.5767 Y-0.6651
X0.6053 Y-0.6312
X0.6385 Y-0.6017
X0.6751 Y-0.5766
X0.7141 Y-0.5554
X0.7548 Y-0.5378
X0.7971 Y-0.5243
X0.841 Y-0.5179
X0.8853 Y-0.5206
X0.9281 Y-0.5323
X0.968 Y-0.5518
X1.0039 Y-0.5778
X1.0354 Y-0.609
X1.0595 Y-0.6463
X1.071 Y-0.6892
X1.0697 Y-0.7335
X1.0573 Y-0.7761
X1.0361 Y-0.8151
X1.0082 Y-0.8496
X0.975 Y-0.8791
X0.9365 Y-0.9011
X0.8934 Y-0.9116
X0.8712 Y-0.9108
X0.8603 Y-0.909
X0.8495 Y-0.9062
X0.8391 Y-0.9024
X0.8291 Y-0.8977
X0.8195 Y-0.892
X0.815 Y-0.8888
G3 X0.7854 Y-0.8835 I-0.0208 J-0.0312
G1 X0.781 Y-0.8846 Z1.0733
X0.7767 Y-0.8856 Z1.0741
X0.7725 Y-0.8866 Z1.0754
X0.7685 Y-0.8876 Z1.0773
X0.7647 Y-0.8885 Z1.0796
X0.7613 Y-0.8893 Z1.0824
X0.7581 Y-0.8901 Z1.0856
X0.7554 Y-0.8907 Z1.0892
X0.7531 Y-0.8913 Z1.0931
X0.7513 Y-0.8917 Z1.0972
X0.75 Y-0.892 Z1.1015
X0.7492 Y-0.8922 Z1.106
X0.749 Y-0.8923 Z1.1105
G0 Z1.803
(2D ADAPTIVE ROUGHING2 2)
G0 X1.1199 Y-0.4778
Z1.803
Z1.403
Z1.253
G3 X0.8808 Y-0.4171 Z1.2292 I-0.1522 J-0.0981 F40.
X0.8033 Y-0.6507 Z1.2055 I0.0867 J-0.1585
X1.0302 Y-0.7445 Z1.1817 I0.1639 J0.075
X1.1398 Y-0.5253 Z1.158 I-0.063 J0.1684
X0.9295 Y-0.4007 Z1.1342 I-0.1721 J-0.0506
X0.7904 Y-0.6011 Z1.1105 I0.0381 J-0.1749
X0.98 Y-0.7538 Z1.0867 I0.1768 J0.0255
X1.1454 Y-0.576 Z1.063 I-0.0127 J0.1777
X0.7891 I-0.1782 J0.
X1.1454 I0.1782 J0.
G1 X1.1455 Y-0.565 F60.
X1.1503 Y-0.5208
X1.1517 Y-0.5155
X1.1528 Y-0.5096
X1.1535 Y-0.5036
X1.1538 Y-0.4976
X1.1536 Y-0.4916
X1.1531 Y-0.4851
X1.1522 Y-0.4783
X1.1507 Y-0.4712
X1.1488 Y-0.4638
X1.1463 Y-0.4561
X1.1432 Y-0.4483
X1.1395 Y-0.4403
X1.1352 Y-0.4322
X1.1302 Y-0.4241
X1.1245 Y-0.4161
X1.1182 Y-0.4081
X1.1113 Y-0.4003
X1.1036 Y-0.3927
X1.0954 Y-0.3854
X1.0865 Y-0.3784
X1.077 Y-0.3718
X1.0669 Y-0.3656
X1.0563 Y-0.36
X1.0453 Y-0.3549
X1.0337 Y-0.3504
X1.0218 Y-0.3465
X1.0095 Y-0.3433
X0.9968 Y-0.3408
X0.984 Y-0.3391
X0.9709 Y-0.3381
X0.9577 Y-0.3378
X0.9443 Y-0.3383
X0.931 Y-0.3397
X0.9176 Y-0.3418
X0.9044 Y-0.3447
X0.8913 Y-0.3484
X0.8783 Y-0.3529
X0.8656 Y-0.3582
X0.8532 Y-0.3643
X0.8411 Y-0.3711
X0.8294 Y-0.3786
X0.8181 Y-0.3868
X0.8073 Y-0.3956
X0.7971 Y-0.4051
X0.7873 Y-0.4153
X0.7782 Y-0.4259
X0.7697 Y-0.4372
X0.7619 Y-0.4489
X0.7548 Y-0.4611
X0.7484 Y-0.4737
X0.7427 Y-0.4866
X0.7378 Y-0.4999
X0.7337 Y-0.5134
X0.7304 Y-0.5272
X0.728 Y-0.5412
X0.7263 Y-0.5553
X0.7255 Y-0.5694
Y-0.5836
X0.7263 Y-0.5978
X0.728 Y-0.6119
X0.7305 Y-0.6259
X0.7338 Y-0.6397
X0.738 Y-0.6533
X0.7429 Y-0.6667
X0.7486 Y-0.6797
X0.755 Y-0.6924
X0.7622 Y-0.7046
X0.7702 Y-0.7165
X0.7787 Y-0.7278
X0.788 Y-0.7386
X0.7979 Y-0.7489
X0.8083 Y-0.7586
X0.8193 Y-0.7676
X0.8308 Y-0.776
X0.8428 Y-0.7836
X0.8553 Y-0.7906
X0.8681 Y-0.7968
X0.8812 Y-0.8023
X0.8947 Y-0.8069
X0.9084 Y-0.8108
X0.9223 Y-0.8139
X0.9364 Y-0.8161
X0.9506 Y-0.8175
X0.9648 Y-0.8181
X0.979 Y-0.8178
X0.9932 Y-0.8167
X1.0074 Y-0.8147
X1.0213 Y-0.8119
X1.0351 Y-0.8084
X1.0487 Y-0.804
X1.0619 Y-0.7988
X1.0749 Y-0.7928
X1.0875 Y-0.7861
X1.0996 Y-0.7787
X1.1113 Y-0.7705
X1.1225 Y-0.7617
X1.1331 Y-0.7522
X1.1432 Y-0.7422
X1.1527 Y-0.7315
X1.1615 Y-0.7203
X1.1697 Y-0.7087
X1.1771 Y-0.6965
X1.1848 Y-0.6822
X1.1968 Y-0.6563
X1.2067 Y-0.631
X1.2135 Y-0.6101
X1.2185 Y-0.5911
X1.222 Y-0.5736
X1.2243 Y-0.5568
X1.2256 Y-0.5407
X1.2259 Y-0.5251
X1.2253 Y-0.5099
X1.2239 Y-0.4951
X1.2216 Y-0.4806
X1.2185 Y-0.4663
X1.2145 Y-0.4522
X1.2098 Y-0.4384
X1.2042 Y-0.4249
X1.1978 Y-0.4117
X1.1906 Y-0.3988
X1.1826 Y-0.3863
X1.1738 Y-0.3742
X1.1643 Y-0.3626
X1.154 Y-0.3514
X1.1429 Y-0.3407
X1.1312 Y-0.3307
X1.1188 Y-0.3212
X1.1057 Y-0.3125
X1.092 Y-0.3044
X1.0777 Y-0.2971
X1.0629 Y-0.2906
X1.0476 Y-0.285
X1.0319 Y-0.2802
X1.0157 Y-0.2763
X0.9993 Y-0.2733
X0.9825 Y-0.2713
X0.9656 Y-0.2703
X0.9485 Y-0.2702
X0.9313 Y-0.2712
X0.9142 Y-0.2732
X0.8971 Y-0.2762
X0.8801 Y-0.2803
X0.8633 Y-0.2853
X0.8468 Y-0.2914
X0.8306 Y-0.2985
X0.8147 Y-0.3065
X0.7994 Y-0.3155
X0.7845 Y-0.3253
X0.7702 Y-0.3361
X0.7566 Y-0.3477
X0.7436 Y-0.3602
X0.7313 Y-0.3734
X0.7198 Y-0.3873
X0.7092 Y-0.4019
X0.6994 Y-0.4172
X0.6905 Y-0.433
X0.6825 Y-0.4493
X0.6755 Y-0.4661
X0.6695 Y-0.4833
X0.6645 Y-0.5008
X0.6606 Y-0.5186
X0.6577 Y-0.5366
X0.6559 Y-0.5548
X0.6551 Y-0.5731
X0.6554 Y-0.5914
X0.6568 Y-0.6096
X0.6593 Y-0.6278
X0.6628 Y-0.6458
X0.6674 Y-0.6635
X0.673 Y-0.681
X0.6797 Y-0.6981
X0.6873 Y-0.7147
X0.6959 Y-0.731
X0.7055 Y-0.7466
X0.7159 Y-0.7617
X0.7273 Y-0.7762
X0.7394 Y-0.7899
X0.7524 Y-0.803
X0.7661 Y-0.8152
X0.7805 Y-0.8266
X0.7956 Y-0.8372
X0.8112 Y-0.8468
X0.8274 Y-0.8555
X0.8441 Y-0.8633
X0.8612 Y-0.87
X0.8787 Y-0.8758
X0.8964 Y-0.8805
X0.9145 Y-0.8841
X0.9327 Y-0.8867
X0.951 Y-0.8882
X0.9694 Y-0.8886
X0.9878 Y-0.8879
X1.0061 Y-0.8862
X1.0243 Y-0.8834
X1.0423 Y-0.8795
X1.06 Y-0.8745
X1.0774 Y-0.8686
X1.0944 Y-0.8616
X1.111 Y-0.8536
X1.1271 Y-0.8447
X1.1426 Y-0.8348
X1.1575 Y-0.824
X1.1719 Y-0.8123
X1.1859 Y-0.7994
X1.2004 Y-0.7845
X1.215 Y-0.7675
X1.2289 Y-0.7492
X1.2418 Y-0.73
X1.2536 Y-0.7101
X1.264 Y-0.6898
X1.2731 Y-0.6692
X1.2808 Y-0.6485
X1.2872 Y-0.6277
X1.2923 Y-0.607
X1.296 Y-0.5864
X1.2985 Y-0.5658
X1.2998 Y-0.5455
X1.2999 Y-0.5253
X1.2988 Y-0.5053
X1.2965 Y-0.4856
X1.2931 Y-0.4662
X1.2886 Y-0.4472
X1.283 Y-0.4284
X1.2764 Y-0.4101
X1.2686 Y-0.3922
X1.2598 Y-0.3748
X1.25 Y-0.3579
X1.2392 Y-0.3416
X1.2274 Y-0.3258
X1.2146 Y-0.3108
X1.201 Y-0.2965
X1.1864 Y-0.2829
X1.171 Y-0.2701
X1.1548 Y-0.2582
X1.1378 Y-0.2473
X1.12 Y-0.2372
X1.1017 Y-0.2282
X1.0827 Y-0.2203
X1.0631 Y-0.2134
X1.0431 Y-0.2077
X1.0226 Y-0.2031
X1.0018 Y-0.1997
X0.9808 Y-0.1975
X0.9595 Y-0.1966
X0.9381 Y-0.1969
X0.9167 Y-0.1985
X0.8953 Y-0.2014
X0.874 Y-0.2055
X0.8529 Y-0.2109
X0.8321 Y-0.2176
X0.8117 Y-0.2255
X0.7917 Y-0.2346
X0.7722 Y-0.2449
X0.7533 Y-0.2564
X0.735 Y-0.269
X0.7175 Y-0.2826
X0.7008 Y-0.2974
X0.685 Y-0.3131
X0.67 Y-0.3297
X0.6561 Y-0.3472
X0.6431 Y-0.3656
X0.6313 Y-0.3847
X0.6206 Y-0.4045
X0.6111 Y-0.4249
X0.6027 Y-0.4459
X0.5956 Y-0.4674
X0.5898 Y-0.4892
X0.5853 Y-0.5114
X0.5821 Y-0.5338
X0.5802 Y-0.5564
X0.5796 Y-0.5791
X0.5804 Y-0.6018
X0.5825 Y-0.6244
X0.586 Y-0.6469
X0.5907 Y-0.6691
X0.5968 Y-0.6911
X0.6041 Y-0.7126
X0.6127 Y-0.7337
X0.6226 Y-0.7543
X0.6336 Y-0.7742
X0.6458 Y-0.7935
X0.6591 Y-0.812
X0.67 Y-0.8253
X0.6718 Y-0.8275
X0.6926 Y-0.8497
X0.709 Y-0.8654
X0.7263 Y-0.88
X0.7445 Y-0.8936
X0.7635 Y-0.9062
X0.7832 Y-0.9176
X0.8035 Y-0.9278
X0.8244 Y-0.9369
X0.8459 Y-0.9446
X0.8677 Y-0.9511
X0.8899 Y-0.9564
X0.9124 Y-0.9603
X0.9351 Y-0.9628
X0.9579 Y-0.9641
X0.9807 Y-0.9639
X1.0035 Y-0.9625
X1.0261 Y-0.9597
X1.0486 Y-0.9556
X1.0708 Y-0.9501
X1.0926 Y-0.9434
X1.114 Y-0.9354
X1.135 Y-0.9261
X1.1557 Y-0.9154
X1.1762 Y-0.9033
X1.1964 Y-0.8897
X1.216 Y-0.8747
X1.235 Y-0.8583
X1.2533 Y-0.8405
X1.2708 Y-0.8215
X1.2872 Y-0.8012
X1.3026 Y-0.7799
X1.313 Y-0.7635
X1.3187 Y-0.7534
X1.3235 Y-0.7428
X1.3272 Y-0.7318
X1.3575 Y-0.6252
X1.3653 Y-0.5912
X1.3688 Y-0.5707
X1.3711 Y-0.5497
X1.3722 Y-0.5281
X1.372 Y-0.5062
X1.3705 Y-0.484
X1.3676 Y-0.4617
X1.3635 Y-0.4394
X1.3579 Y-0.4172
X1.3511 Y-0.3952
X1.3428 Y-0.3735
X1.3333 Y-0.3522
X1.3224 Y-0.3313
X1.3103 Y-0.311
X1.2969 Y-0.2914
X1.2823 Y-0.2724
X1.2665 Y-0.2542
X1.2496 Y-0.2369
X1.2316 Y-0.2205
X1.2238 Y-0.2143
X1.2104 Y-0.2049
X1.1958 Y-0.1974
X1.1804 Y-0.1919
X1.1643 Y-0.1886
X1.148 Y-0.1875
X0.8156
X0.7962 Y-0.1885
X0.785 Y-0.1897
X0.7728 Y-0.1918
X0.7596 Y-0.1948
X0.7462 Y-0.1987
X0.7316 Y-0.204
X0.7166 Y-0.2104
X0.7014 Y-0.2179
X0.6856 Y-0.227
X0.6694 Y-0.2376
X0.6533 Y-0.2496
X0.6376 Y-0.2628
X0.622 Y-0.2775
X0.6067 Y-0.2937
X0.5919 Y-0.3114
X0.5778 Y-0.3305
X0.5645 Y-0.3508
X0.5523 Y-0.3722
X0.5412 Y-0.3945
X0.5313 Y-0.4178
X0.5227 Y-0.4419
X0.5154 Y-0.4668
X0.5096 Y-0.4922
X0.5052 Y-0.5182
X0.5023 Y-0.5446
X0.501 Y-0.5712
X0.5012 Y-0.5824
X0.5025 Y-0.5991
X0.5061 Y-0.6154
X0.5119 Y-0.631
X0.5198 Y-0.6457
X0.5297 Y-0.6592
X0.67 Y-0.8253
X0.672 Y-0.8274
X0.6742 Y-0.8294
G3 X0.6978 Y-0.8326 I0.0145 J0.018
X0.6796 Y-0.7901 I-0.0091 J0.0212 F300.
X0.6693 Y-0.7988 I0.0091 J-0.0212
X0.6686 Y-0.8226 I0.0194 J-0.0126 F60.
G1 X0.6701 Y-0.8251
X0.6718 Y-0.8275
X0.7762 Y-0.9511
X0.7852 Y-0.9607
X0.793 Y-0.9681
X0.8022 Y-0.9759
X0.8121 Y-0.9834
X0.8239 Y-0.9911
X0.8365 Y-0.9985
X0.8505 Y-1.0055
X0.8661 Y-1.0122
X0.8829 Y-1.0183
X0.9005 Y-1.0236
X0.9197 Y-1.0281
X0.9401 Y-1.0316
X0.9616 Y-1.0341
X0.9836 Y-1.0352
X1.0063 Y-1.0351
X1.0296 Y-1.0336
X1.0535 Y-1.0307
X1.0778 Y-1.0262
X1.1024 Y-1.0202
X1.1272 Y-1.0126
X1.152 Y-1.0033
X1.1768 Y-0.9923
X1.2012 Y-0.9797
X1.2252 Y-0.9655
X1.2326 Y-0.9605
X1.246 Y-0.9501
X1.2577 Y-0.9379
X1.2676 Y-0.9242
X1.2755 Y-0.9092
X1.2813 Y-0.8933
X1.3272 Y-0.7318
G3 X1.3221 Y-0.7022 I-0.0364 J0.009
X1.2762 Y-0.6883 I-0.0313 J-0.0206 F300.
G1 X0.7911 Y-0.8934
G3 X0.7687 Y-0.9221 I0.0146 J-0.0345
X0.7762 Y-0.9511 I0.037 J-0.0059 F60.
G1 X0.8427 Y-1.0298
X0.8514 Y-1.0392
X0.8576 Y-1.045
X0.8651 Y-1.0514
X0.8732 Y-1.0575
X0.8829 Y-1.0639
X0.8934 Y-1.07
X0.9052 Y-1.0759
X0.9186 Y-1.0817
X0.9327 Y-1.0868
X0.9486 Y-1.0915
X0.9659 Y-1.0956
X0.9839 Y-1.0987
X1.0036 Y-1.101
X1.0249 Y-1.1021
X1.047 Y-1.102
X1.0698 Y-1.1005
X1.094 Y-1.0976
X1.1193 Y-1.0929
X1.1453 Y-1.0866
X1.1685 Y-1.0794
X1.1784 Y-1.0757
X1.1954 Y-1.0678
X1.2111 Y-1.0572
X1.2249 Y-1.0444
X1.2365 Y-1.0296
X1.2457 Y-1.0132
X1.2522 Y-0.9956
X1.2813 Y-0.8933
G3 X1.2762 Y-0.8637 I-0.0364 J0.009
X1.2332 Y-0.8487 I-0.0313 J-0.0206 F300.
G1 X0.8605 Y-0.971
G3 X0.8351 Y-1.0007 I0.0117 J-0.0356
X0.8427 Y-1.0298 I0.037 J-0.0059 F60.
G1 X0.9028 Y-1.101
X0.9094 Y-1.1081
X0.9153 Y-1.1137
X0.9218 Y-1.1192
X0.9297 Y-1.1251
X0.9382 Y-1.1307
X0.9482 Y-1.1365
X0.959 Y-1.142
X0.9712 Y-1.1472
X0.9849 Y-1.1522
X0.9994 Y-1.1565
X1.0159 Y-1.1604
X1.0334 Y-1.1634
X1.0522 Y-1.1656
X1.0724 Y-1.1666
X1.0915
X1.1108 Y-1.1653
X1.1269 Y-1.1633
X1.1436 Y-1.1603
X1.1604 Y-1.1548
X1.1762 Y-1.1468
X1.1907 Y-1.1366
X1.2034 Y-1.1243
X1.2142 Y-1.1102
X1.2227 Y-1.0947
X1.2288 Y-1.0781
X1.2522 Y-0.9956
G3 X1.2471 Y-0.9659 I-0.0364 J0.009
X1.2043 Y-0.9509 I-0.0313 J-0.0206 F300.
G1 X0.9208 Y-1.0422
G3 X0.8953 Y-1.072 I0.0115 J-0.0357
X0.9028 Y-1.101 I0.037 J-0.0059 F60.
G1 X0.9566 Y-1.1647
X0.9647 Y-1.1734
X0.9704 Y-1.1788
X0.9767 Y-1.1841
X0.9841 Y-1.1897
X0.9925 Y-1.1952
X1.0016 Y-1.2005
X1.0122 Y-1.2058
X1.0233 Y-1.2106
X1.0353 Y-1.215
X1.0484 Y-1.2189
X1.0603 Y-1.2217
X1.0733 Y-1.2239
X1.0851 Y-1.2253
X1.0975 Y-1.226
X1.1094 Y-1.2259
X1.1207 Y-1.2252
X1.1378 Y-1.2216
X1.154 Y-1.2152
X1.169 Y-1.2063
X1.1822 Y-1.1949
X1.1934 Y-1.1815
X1.2022 Y-1.1665
X1.2083 Y-1.1501
G3 X1.2032 Y-1.1205 I-0.0364 J0.009
X1.1719 Y-1.1037 I-0.0313 J-0.0206 F300.
G1 X0.986 Y-1.104
G3 X0.949 Y-1.1356 I0.0001 J-0.0375
X0.9566 Y-1.1647 I0.037 J-0.0059 F60.
G1 X1.0104 Y-1.2284
X1.0164 Y-1.2349
X1.0213 Y-1.2395
X1.0266 Y-1.244
X1.0326 Y-1.2485
X1.0394 Y-1.2529
X1.0461 Y-1.2568
X1.0529 Y-1.2603
X1.0609 Y-1.2637
X1.0684 Y-1.2664
X1.076 Y-1.2687
X1.0846 Y-1.2707
X1.1011 Y-1.2721
X1.1175 Y-1.2707
X1.1335 Y-1.2664
X1.1485 Y-1.2595
X1.1621 Y-1.2501
X1.1739 Y-1.2385
X1.1835 Y-1.225
X1.1906 Y-1.2101
G3 X1.188 Y-1.1802 I-0.0355 J0.012
X1.1528 Y-1.1607 I-0.0329 J-0.018 F300.
G1 X1.0375 Y-1.1678
G3 X1.0028 Y-1.1993 I0.0023 J-0.0374
X1.0104 Y-1.2284 I0.037 J-0.0059 F60.
G1 X1.0135 Y-1.2321
X1.0232 Y-1.2434
X1.029 Y-1.25
X1.0338 Y-1.2546
X1.0459 Y-1.2658
X1.0515 Y-1.2706
X1.0627 Y-1.2772
X1.0683 Y-1.2802
X1.0739 Y-1.2823
X1.0851 Y-1.2854
X1.0908 Y-1.2864
X1.0964 Y-1.2868
X1.1076 Y-1.287
X1.1132 Y-1.2865
X1.1188 Y-1.2853
X1.1301 Y-1.2827
X1.1413 Y-1.2776
X1.1475 Y-1.2745
X1.1525 Y-1.271
X1.1588 Y-1.2658
X1.1638 Y-1.2616
X1.167 Y-1.2581
X1.1697 Y-1.2546
X1.175 Y-1.2474
X1.1776 Y-1.2434
X1.1823 Y-1.2321
X1.1908 Y-1.2096
X1.1946 Y-1.1984
X1.2288 Y-1.0781
G3 X1.2266 Y-1.0538 I-0.0364 J0.009
G1 X1.2241 Y-1.0483
X0.8485 Y-0.2096 F300.
G3 X0.8427 Y-0.2005 I-0.0342 J-0.0153
X0.8156 Y-0.1875 I-0.0284 J-0.0245 F60.
G1 X0.7033
X0.6914 Y-0.1881
X0.6827 Y-0.189
X0.6729 Y-0.1907
X0.6628 Y-0.193
X0.6515 Y-0.1964
X0.64 Y-0.2005
X0.6275 Y-0.2058
X0.6144 Y-0.2123
X0.6012 Y-0.2199
X0.587 Y-0.2292
X0.5727 Y-0.2398
X0.5584 Y-0.2518
X0.5438 Y-0.2656
X0.5291 Y-0.2812
X0.5149 Y-0.2981
X0.5013 Y-0.3165
X0.4881 Y-0.3367
X0.4756 Y-0.3586
X0.4639 Y-0.3821
X0.4534 Y-0.407
X0.4441 Y-0.4329
X0.4368 Y-0.4578
X0.4338 Y-0.4709
X0.4311 Y-0.4893
X0.4312 Y-0.508
X0.4342 Y-0.5264
X0.4399 Y-0.5441
X0.4484 Y-0.5607
X0.4593 Y-0.5758
X0.5297 Y-0.6592
G3 X0.5571 Y-0.6715 I0.0278 J0.0252
X0.5928 Y-0.6465 I0.0004 J0.0375 F300.
G1 X0.7373 Y-0.2375
G3 X0.7304 Y-0.2005 I-0.0354 J0.0125
X0.7033 Y-0.1875 I-0.0284 J-0.0245 F60.
G1 X0.6134
X0.6001 Y-0.1882
X0.5919 Y-0.1891
X0.5834 Y-0.1905
X0.5738 Y-0.1927
X0.564 Y-0.1956
X0.5529 Y-0.1996
X0.5418 Y-0.2043
X0.5298 Y-0.2103
X0.5171 Y-0.2176
X0.5045 Y-0.2259
X0.4908 Y-0.236
X0.4772 Y-0.2474
X0.4635 Y-0.2603
X0.4494 Y-0.2753
X0.4353 Y-0.2921
X0.422 Y-0.3102
X0.409 Y-0.33
X0.3982 Y-0.3489
X0.389 Y-0.3674
X0.3819 Y-0.3841
X0.3802 Y-0.389
X0.3754 Y-0.4063
X0.3732 Y-0.4242
X0.3738 Y-0.4422
X0.377 Y-0.46
X0.3828 Y-0.477
X0.3911 Y-0.493
X0.4016 Y-0.5076
X0.4593 Y-0.5758
G3 X0.4867 Y-0.5882 I0.0278 J0.0252
X0.5221 Y-0.5641 I0.0004 J0.0375 F300.
G1 X0.6471 Y-0.2384
G3 X0.6405 Y-0.2005 I-0.035 J0.0134
X0.6134 Y-0.1875 I-0.0284 J-0.0245 F60.
G1 X0.5236
X0.5144 Y-0.188
X0.5066 Y-0.1888
X0.4985 Y-0.1902
X0.4893 Y-0.1923
X0.4797 Y-0.1951
X0.4694 Y-0.1988
X0.4583 Y-0.2036
X0.447 Y-0.2092
X0.4347 Y-0.2163
X0.4224 Y-0.2243
X0.4098 Y-0.2337
X0.3968 Y-0.2445
X0.3841 Y-0.2565
X0.3728 Y-0.2686
X0.3621 Y-0.2813
X0.3531 Y-0.2935
X0.3449 Y-0.306
X0.3379 Y-0.3183
X0.3318 Y-0.3305
X0.3263 Y-0.3471
X0.3234 Y-0.3643
X0.3233 Y-0.3818
X0.3259 Y-0.399
X0.3311 Y-0.4157
X0.339 Y-0.4313
X0.3491 Y-0.4454
X0.4016 Y-0.5076
G3 X0.4291 Y-0.5199 I0.0278 J0.0252
X0.4647 Y-0.4951 I0.0004 J0.0375 F300.
G1 X0.5576 Y-0.2377
G3 X0.5507 Y-0.2005 I-0.0353 J0.0127
X0.5236 Y-0.1875 I-0.0284 J-0.0245 F60.
G1 X0.4388
X0.4311 Y-0.1879
X0.4237 Y-0.1887
X0.4156 Y-0.1901
X0.4073 Y-0.192
X0.3981 Y-0.1947
X0.3887 Y-0.198
X0.3791 Y-0.2022
X0.369 Y-0.2072
X0.3587 Y-0.2131
X0.3486 Y-0.2197
X0.3389 Y-0.2269
X0.3302 Y-0.2343
X0.3213 Y-0.2426
X0.314 Y-0.2504
X0.3064 Y-0.2594
X0.2999 Y-0.2682
X0.2941 Y-0.2771
X0.2875 Y-0.2911
X0.283 Y-0.3059
X0.2809 Y-0.3211
X0.2811 Y-0.3366
X0.2837 Y-0.3518
X0.2886 Y-0.3665
X0.2956 Y-0.3802
X0.3046 Y-0.3927
G3 X0.332 Y-0.405 I0.0278 J0.0252
X0.3626 Y-0.3898 I0.0004 J0.0375 F300.
G1 X0.4677 Y-0.2472
G3 X0.4659 Y-0.2005 I-0.0302 J0.0223
X0.4388 Y-0.1875 I-0.0284 J-0.0245 F60.
G1 X0.3602
X0.3542 Y-0.1878
X0.3479 Y-0.1885
X0.3413 Y-0.1897
X0.3344 Y-0.1913
X0.3272 Y-0.1935
X0.3196 Y-0.1962
X0.3126 Y-0.1992
X0.3055 Y-0.2028
X0.2983 Y-0.207
X0.292 Y-0.2112
X0.2852 Y-0.2163
X0.2789 Y-0.2216
X0.2732 Y-0.2271
X0.2672 Y-0.2335
X0.2583 Y-0.2464
X0.2518 Y-0.2606
X0.2478 Y-0.2758
X0.2465 Y-0.2914
X0.248 Y-0.307
X0.2521 Y-0.3221
X0.2588 Y-0.3363
X0.2678 Y-0.3491
G3 X0.2952 Y-0.3614 I0.0278 J0.0252
X0.3272 Y-0.3441 I0.0004 J0.0375 F300.
G1 X0.3905 Y-0.2452
G3 X0.3873 Y-0.2005 I-0.0316 J0.0202
X0.3602 Y-0.1875 I-0.0284 J-0.0245 F60.
G1 X0.299
X0.293 Y-0.1878
X0.287 Y-0.1885
X0.2811 Y-0.1896
X0.2753 Y-0.1912
X0.2697 Y-0.1932
X0.2642 Y-0.1956
X0.2589 Y-0.1984
X0.2537 Y-0.2015
X0.2428 Y-0.2106
X0.2337 Y-0.2217
X0.2269 Y-0.2342
X0.2224 Y-0.2477
X0.2205 Y-0.2619
X0.2213 Y-0.2761
X0.2247 Y-0.29
X0.2305 Y-0.303
X0.2387 Y-0.3147
G3 X0.2661 Y-0.327 I0.0278 J0.0252
X0.3002 Y-0.3058 I0.0004 J0.0375 F300.
G1 X0.3314 Y-0.2413
G3 X0.3261 Y-0.2005 I-0.0338 J0.0163
X0.299 Y-0.1875 I-0.0284 J-0.0245 F60.
G1 X0.2765
X0.254 Y-0.1881
X0.2481 Y-0.1885
X0.2422 Y-0.1896
X0.2364 Y-0.1912
X0.2256 Y-0.197
X0.2162 Y-0.2048
X0.2086 Y-0.2144
X0.2032 Y-0.2253
X0.2001 Y-0.2371
X0.1995 Y-0.2493
X0.2014 Y-0.2614
X0.2057 Y-0.2728
X0.2123 Y-0.2831
G3 X0.2378 Y-0.2998 I0.0415 J0.0355
X0.2581 Y-0.302 I0.0159 J0.0522 F300.
X0.2834 Y-0.1965 I-0.0045 J0.0569
X0.254 Y-0.1881 I-0.0299 J-0.0486 F60.
G1 X0.2428 Y-0.1884
X0.2316 Y-0.1896
X0.226 Y-0.1904
X0.2204 Y-0.1921
X0.2147 Y-0.1945
X0.2089 Y-0.1981
X0.2025 Y-0.2037
X0.1978 Y-0.2094
X0.1944 Y-0.215
X0.192 Y-0.2206
X0.1904 Y-0.2262
X0.1895 Y-0.2319
X0.1894 Y-0.2375
X0.1899 Y-0.2431
X0.191 Y-0.2487
X0.193 Y-0.2543
X0.1951 Y-0.2588
X0.1979 Y-0.2632
X0.1994 Y-0.2656
X0.2073 Y-0.2768
X0.2091 Y-0.2791
X0.2162 Y-0.2881
X0.3491 Y-0.4454
G3 X0.3694 Y-0.457 I0.0278 J0.0252
G1 X0.3765 Y-0.4584
X1.3142 Y-0.6505 F300.
G3 X1.3376 Y-0.6477 I0.0075 J0.0367
X1.3575 Y-0.6252 I-0.0158 J0.034 F60.
G1 X1.4022 Y-0.4679
X1.4046 Y-0.4571
X1.4064 Y-0.4466
X1.4077 Y-0.4347
X1.4084 Y-0.4222
X1.4082 Y-0.4081
X1.4072 Y-0.3935
X1.4053 Y-0.3779
X1.4021 Y-0.3609
X1.3977 Y-0.3436
X1.3921 Y-0.3256
X1.385 Y-0.3067
X1.3762 Y-0.2871
X1.3661 Y-0.2676
X1.3548 Y-0.2488
X1.3491 Y-0.2404
X1.3387 Y-0.2272
X1.3266 Y-0.2155
X1.313 Y-0.2057
X1.2981 Y-0.1979
X1.2823 Y-0.1921
X1.2659 Y-0.1887
X1.2492 Y-0.1875
G3 X1.2221 Y-0.2005 I0.0013 J-0.0375
X1.217 Y-0.2418 I0.0284 J-0.0245 F300.
G1 X1.3329 Y-0.4732
G3 X1.3823 Y-0.4904 I0.0335 J0.0168
X1.4022 Y-0.4679 I-0.0158 J0.034 F60.
G1 X1.4309 Y-0.3667
X1.4329 Y-0.3582
X1.4343 Y-0.3497
X1.4354 Y-0.3398
X1.4359 Y-0.3295
X1.4358 Y-0.3178
X1.435 Y-0.3058
X1.4335 Y-0.294
X1.4311 Y-0.2815
X1.4284 Y-0.2704
X1.4247 Y-0.2585
X1.4176 Y-0.2435
X1.4084 Y-0.2297
X1.3972 Y-0.2174
X1.3843 Y-0.207
X1.37 Y-0.1986
X1.3545 Y-0.1925
X1.3384 Y-0.1888
X1.3218 Y-0.1875
G3 X1.2947 Y-0.2005 I0.0013 J-0.0375
X1.2903 Y-0.2431 I0.0284 J-0.0245 F300.
G1 X1.3624 Y-0.3734
G3 X1.411 Y-0.3892 I0.0328 J0.0182
X1.4309 Y-0.3667 I-0.0158 J0.034 F60.
G1 X1.4501 Y-0.2993
X1.4532 Y-0.2881
X1.4549 Y-0.2808
X1.4558 Y-0.2748
X1.456 Y-0.2603
X1.4534 Y-0.246
X1.4483 Y-0.2324
X1.4408 Y-0.2199
X1.4312 Y-0.209
X1.4197 Y-0.2001
X1.4068 Y-0.1934
X1.3929 Y-0.1891
X1.3784 Y-0.1875
G3 X1.3484 Y-0.1941 I0.0011 J-0.077
X1.3035 Y-0.2525 I0.0311 J-0.0704 F300.
X1.4382 Y-0.3149 I0.0762 J-0.0121
X1.4532 Y-0.2881 I-0.0585 J0.0503 F60.
G1 X1.4595 Y-0.2656
X1.4621 Y-0.2543
X1.464 Y-0.2431
X1.4645 Y-0.2375
X1.4643 Y-0.2319
X1.4634 Y-0.2262
X1.4618 Y-0.2206
X1.4595 Y-0.215
X1.4561 Y-0.2094
X1.4558 Y-0.2089
X1.4513 Y-0.2035
X1.4482 Y-0.2005
X1.4452 Y-0.1981
X1.4445 Y-0.1977
X1.4389 Y-0.1943
X1.4333 Y-0.1919
X1.4277 Y-0.1902
X1.4221 Y-0.1893
X1.4109 Y-0.1882
X1.3772 Y-0.1875
X1.148
G3 X1.1209 Y-0.2005 I0.0013 J-0.0375
G1 X1.1179 Y-0.2039 Z1.0633
X1.115 Y-0.2073 Z1.0641
X1.1122 Y-0.2106 Z1.0654
X1.1095 Y-0.2137 Z1.0673
X1.1069 Y-0.2166 Z1.0696
X1.1046 Y-0.2193 Z1.0724
X1.1025 Y-0.2218 Z1.0756
X1.1007 Y-0.2239 Z1.0792
X1.0992 Y-0.2256 Z1.0831
X1.098 Y-0.2271 Z1.0872
X1.0971 Y-0.2281 Z1.0915
X1.0965 Y-0.2287 Z1.096
X1.0964 Y-0.2289 Z1.1005
G0 Z1.803
M5
G53 G0 Z0.
(2D ADAPTIVE ROUGHING3 2)
M9
M1
T32 M6
T13
S7500 M3
G17 G90 G94
G54
M8
G0 X0.9514 Y-0.6105
G43 Z1.803 H32
G0 Z1.403
Z1.3217
G1 Z1.303 F40.
Z0.7635
X0.9499
Y-0.612
X0.9511 Y-0.6128
X0.9526 Y-0.6127
X0.9537 Y-0.6116
X0.954 Y-0.6102
X0.9534 Y-0.6088
X0.9521 Y-0.608
X0.9506 Y-0.6079
X0.9492 Y-0.6085
X0.9482 Y-0.6096
X0.9478 Y-0.611
X0.948 Y-0.6125
X0.9488 Y-0.6138
X0.95 Y-0.6147
X0.9515 Y-0.615
X0.953 Y-0.6149
X0.9543 Y-0.6142
X0.9554 Y-0.6132
X0.9561 Y-0.6118
X0.9564 Y-0.6104
X0.9561 Y-0.6089
X0.9555 Y-0.6075
X0.9545 Y-0.6064
X0.9532 Y-0.6057
X0.9517 Y-0.6052
X0.9487
X0.9461 Y-0.6067
X0.9445 Y-0.6092
X0.9441 Y-0.6122
X0.9449 Y-0.6151
X0.9468 Y-0.6174
X0.9494 Y-0.6188
X0.9524 Y-0.6192
X0.9553 Y-0.6186
X0.9579 Y-0.617
X0.9597 Y-0.6146
X0.9607 Y-0.6118
X0.9608 Y-0.6088
X0.9599 Y-0.606
X0.9582 Y-0.6035
X0.9559 Y-0.6016
X0.9532 Y-0.6004
X0.9502 Y-0.5999
X0.9473 Y-0.6003
X0.9445 Y-0.6015
X0.9397 Y-0.6052
X0.9375 Y-0.6107
X0.938 Y-0.6167
X0.941 Y-0.6219
X0.9458 Y-0.6255
X0.9516 Y-0.6269
X0.9576 Y-0.6261
X0.9628 Y-0.6232
X0.9667 Y-0.6186
X0.9688 Y-0.613
X0.9689 Y-0.607
X0.967 Y-0.6013
X0.9634 Y-0.5965
X0.9585 Y-0.5931
X0.9527 Y-0.5913
X0.9468
X0.941 Y-0.5928
X0.9358 Y-0.5959
X0.9318 Y-0.6004
X0.9291 Y-0.6057
X0.928 Y-0.6116
X0.9284 Y-0.6176
X0.9303 Y-0.6233
X0.9336 Y-0.6283
X0.938 Y-0.6324
X0.9432 Y-0.6353
X0.949 Y-0.6369
X0.955 Y-0.6371
X0.9609 Y-0.636
X0.9664 Y-0.6335
X0.9712 Y-0.63
X0.9751 Y-0.6254
X0.978 Y-0.6201
X0.9797 Y-0.6144
X0.98 Y-0.6084
X0.9792 Y-0.6025
X0.9772 Y-0.5968
X0.9741 Y-0.5917
X0.97 Y-0.5873
X0.9652 Y-0.5837
X0.9597 Y-0.5812
X0.9539 Y-0.5797
X0.948 Y-0.5793
X0.942 Y-0.58
X0.9363 Y-0.5818
X0.931 Y-0.5846
X0.9263 Y-0.5883
X0.9223 Y-0.5928
X0.9191 Y-0.5979
X0.9169 Y-0.6035
X0.9157 Y-0.6094
X0.9155 Y-0.6154
X0.9164 Y-0.6213
X0.9181 Y-0.6271
X0.9208 Y-0.6324
X0.9244 Y-0.6372
X0.9287 Y-0.6415
X0.9335 Y-0.645
X0.9389 Y-0.6476
X0.9446 Y-0.6494
X0.9506 Y-0.6503
X0.9566
X0.9625 Y-0.6494
X0.9682 Y-0.6476
X0.9736 Y-0.6449
X0.9785 Y-0.6415
X0.9829 Y-0.6374
X0.9867 Y-0.6327
X0.9897 Y-0.6276
X0.992 Y-0.622
X0.9934 Y-0.6162
X0.994 Y-0.6102
X0.9937 Y-0.6042
X0.9927 Y-0.5983
X0.9908 Y-0.5926
X0.9882 Y-0.5872
X0.9848 Y-0.5822
X0.9808 Y-0.5778
X0.9763 Y-0.5738
X0.9713 Y-0.5705
X0.9659 Y-0.5679
X0.9602 Y-0.5661
X0.9543 Y-0.5649
X0.9483 Y-0.5646
X0.9423 Y-0.565
X0.9364 Y-0.5661
X0.9307 Y-0.568
X0.9253 Y-0.5706
X0.9202 Y-0.5738
X0.9156 Y-0.5777
X0.9115 Y-0.582
X0.908 Y-0.5869
X0.9051 Y-0.5921
X0.9028 Y-0.5977
X0.9012 Y-0.6035
X0.9003 Y-0.6094
X0.9001 Y-0.6154
X0.9006 Y-0.6214
X0.9018 Y-0.6272
X0.9037 Y-0.6329
X0.9062 Y-0.6384
X0.9094 Y-0.6435
X0.9131 Y-0.6482
X0.9173 Y-0.6525
X0.9219 Y-0.6563
X0.927 Y-0.6595
X0.9324 Y-0.6622
X0.938 Y-0.6642
X0.9438 Y-0.6657
X0.9498 Y-0.6664
X0.9558 Y-0.6665
X0.9617 Y-0.666
X0.9676 Y-0.6649
X0.9734 Y-0.6631
X0.9789 Y-0.6607
X0.9841 Y-0.6577
X0.989 Y-0.6542
X0.9935 Y-0.6503
X0.9975 Y-0.6458
X1.0011 Y-0.641
X1.0041 Y-0.6358
X1.0066 Y-0.6304
X1.0086 Y-0.6247
X1.0099 Y-0.6189
X1.0106 Y-0.6129
X1.0108 Y-0.6069
X1.0103 Y-0.6009
X1.0093 Y-0.595
X1.0076 Y-0.5893
X1.0054 Y-0.5837
X1.0027 Y-0.5783
X0.9995 Y-0.5733
X0.9957 Y-0.5686
X0.9916 Y-0.5642
X0.987 Y-0.5603
X0.9821 Y-0.5569
X0.9769 Y-0.5539
X0.9714 Y-0.5515
X0.9658 Y-0.5495
X0.9599 Y-0.5482
X0.954 Y-0.5473
X0.948 Y-0.547
X0.942 Y-0.5473
X0.9361 Y-0.5482
X0.9302 Y-0.5495
X0.9245 Y-0.5514
X0.919 Y-0.5539
X0.9138 Y-0.5568
X0.9088 Y-0.5601
X0.9042 Y-0.564
X0.8999 Y-0.5682
X0.8961 Y-0.5728
X0.8926 Y-0.5777
X0.8896 Y-0.5828
X0.8871 Y-0.5883
X0.885 Y-0.5939
X0.8835 Y-0.5997
X0.8825 Y-0.6056
X0.882 Y-0.6116
Y-0.6176
X0.8825 Y-0.6236
X0.8836 Y-0.6295
X0.8851 Y-0.6353
X0.8872 Y-0.6409
X0.8897 Y-0.6464
X0.8927 Y-0.6516
X0.8961 Y-0.6565
X0.8999 Y-0.6612
X0.904 Y-0.6655
X0.9086 Y-0.6694
X0.9134 Y-0.673
X0.9185 Y-0.6761
X0.9239 Y-0.6788
X0.9294 Y-0.6811
X0.9352 Y-0.6829
X0.941 Y-0.6842
X0.9469 Y-0.685
X0.9529 Y-0.6854
X0.9589 Y-0.6853
X0.9649 Y-0.6847
X0.9708 Y-0.6836
X0.9766 Y-0.682
X0.9822 Y-0.68
X0.9877 Y-0.6775
X0.993 Y-0.6746
X0.998 Y-0.6713
X1.0027 Y-0.6677
X1.0072 Y-0.6636
X1.0113 Y-0.6592
X1.015 Y-0.6546
X1.0184 Y-0.6496
X1.0214 Y-0.6444
X1.024 Y-0.639
X1.0261 Y-0.6334
X1.0278 Y-0.6276
X1.0291 Y-0.6218
X1.0299 Y-0.6158
X1.0302 Y-0.6098
X1.0301 Y-0.6038
X1.0296 Y-0.5978
X1.0286 Y-0.5919
X1.0271 Y-0.5861
X1.0253 Y-0.5804
X1.023 Y-0.5749
X1.0203 Y-0.5695
X1.0172 Y-0.5644
X1.0137 Y-0.5595
X1.0099 Y-0.5548
X1.0058 Y-0.5505
X1.0013 Y-0.5465
X0.9966 Y-0.5428
X0.9916 Y-0.5394
X0.9864 Y-0.5365
X0.981 Y-0.5339
X0.9754 Y-0.5317
X0.9697 Y-0.5299
X0.9638 Y-0.5285
X0.9579 Y-0.5276
X0.9519 Y-0.5271
X0.9459 Y-0.527
X0.9399 Y-0.5273
X0.934 Y-0.5281
X0.9281 Y-0.5293
X0.9223 Y-0.5308
X0.9166 Y-0.5328
X0.9111 Y-0.5352
X0.9058 Y-0.538
X0.9007 Y-0.5411
X0.8958 Y-0.5446
X0.8912 Y-0.5484
X0.8868 Y-0.5525
X0.8827 Y-0.5569
X0.8789 Y-0.5616
X0.8755 Y-0.5665
X0.8724 Y-0.5716
X0.8697 Y-0.577
X0.8673 Y-0.5825
X0.8653 Y-0.5881
X0.8638 Y-0.5939
X0.8626 Y-0.5998
X0.8618 Y-0.6058
X0.8613 Y-0.6117
Y-0.6177
X0.8617 Y-0.6237
X0.8625 Y-0.6297
X0.8637 Y-0.6356
X0.8653 Y-0.6413
X0.8673 Y-0.647
X0.8696 Y-0.6526
X0.8723 Y-0.6579
X0.8753 Y-0.6631
X0.8786 Y-0.6681
X0.8823 Y-0.6728
X0.8863 Y-0.6773
X0.8906 Y-0.6815
X0.8951 Y-0.6855
X0.8999 Y-0.6891
X0.9048 Y-0.6924
X0.91 Y-0.6954
X0.9154 Y-0.6981
X0.921 Y-0.7004
X0.9266 Y-0.7024
X0.9324 Y-0.704
X0.9383 Y-0.7052
X0.9442 Y-0.706
X0.9502 Y-0.7065
X0.9562 Y-0.7066
X0.9622 Y-0.7063
X0.9682 Y-0.7056
X0.9741 Y-0.7046
X0.9799 Y-0.7032
X0.9856 Y-0.7014
X0.9913 Y-0.6993
X0.9967 Y-0.6969
X1.002 Y-0.6941
X1.0072 Y-0.691
X1.0121 Y-0.6875
X1.0168 Y-0.6838
X1.0213 Y-0.6798
X1.0255 Y-0.6755
X1.0294 Y-0.671
X1.0331 Y-0.6663
X1.0365 Y-0.6613
X1.0395 Y-0.6561
X1.0423 Y-0.6508
X1.0447 Y-0.6453
X1.0468 Y-0.6397
X1.0485 Y-0.6339
X1.0499 Y-0.6281
X1.0509 Y-0.6222
X1.0516 Y-0.6162
X1.0519 Y-0.6102
Y-0.6042
X1.0515 Y-0.5983
X1.0508 Y-0.5923
X1.0497 Y-0.5864
X1.0482 Y-0.5806
X1.0465 Y-0.5748
X1.0443 Y-0.5692
X1.0419 Y-0.5637
X1.0391 Y-0.5584
X1.0361 Y-0.5533
X1.0327 Y-0.5483
X1.0291 Y-0.5435
X1.0252 Y-0.539
X1.021 Y-0.5346
X1.0166 Y-0.5306
X1.012 Y-0.5268
X1.0071 Y-0.5232
X1.0021 Y-0.52
X0.9969 Y-0.517
X0.9915 Y-0.5144
X0.986 Y-0.512
X0.9803 Y-0.51
X0.9746 Y-0.5083
X0.9687 Y-0.5069
X0.9628 Y-0.5059
X0.9569 Y-0.5052
X0.9509 Y-0.5048
X0.9449
X0.9389 Y-0.5051
X0.9329 Y-0.5057
X0.927 Y-0.5067
X0.9211 Y-0.508
X0.9154 Y-0.5096
X0.9097 Y-0.5116
X0.9041 Y-0.5138
X0.8987 Y-0.5164
X0.8934 Y-0.5193
X0.8883 Y-0.5224
X0.8834 Y-0.5258
X0.8787 Y-0.5295
X0.8741 Y-0.5335
X0.8698 Y-0.5377
X0.8658 Y-0.5421
X0.862 Y-0.5467
X0.8584 Y-0.5516
X0.8551 Y-0.5566
X0.8521 Y-0.5618
X0.8494 Y-0.5671
X0.847 Y-0.5726
X0.8448 Y-0.5782
X0.843 Y-0.5839
X0.8415 Y-0.5897
X0.8403 Y-0.5956
X0.8394 Y-0.6015
X0.8388 Y-0.6075
X0.8386 Y-0.6135
X0.8387 Y-0.6195
X0.8391 Y-0.6255
X0.8398 Y-0.6314
X0.8408 Y-0.6374
X0.8421 Y-0.6432
X0.8438 Y-0.649
X0.8457 Y-0.6547
X0.848 Y-0.6602
X0.8505 Y-0.6657
X0.8533 Y-0.671
X0.8564 Y-0.6761
X0.8598 Y-0.6811
X0.8634 Y-0.6859
X0.8673 Y-0.6905
X0.8713 Y-0.6949
X0.8756 Y-0.699
X0.8802 Y-0.703
X0.8849 Y-0.7067
X0.8898 Y-0.7101
X0.8949 Y-0.7133
X0.9001 Y-0.7163
X0.9055 Y-0.7189
X0.911 Y-0.7213
X0.9166 Y-0.7234
X0.9223 Y-0.7252
X0.9281 Y-0.7267
X0.934 Y-0.7279
X0.94 Y-0.7288
X0.9459 Y-0.7294
X0.9519 Y-0.7297
X0.9579 Y-0.7298
X0.9639 Y-0.7294
X0.9699 Y-0.7288
X0.9758 Y-0.7279
X0.9817 Y-0.7267
X0.9875 Y-0.7252
X0.9932 Y-0.7235
X0.9989 Y-0.7214
X1.0044 Y-0.719
X1.0098 Y-0.7164
X1.015 Y-0.7135
X1.0201 Y-0.7104
X1.0251 Y-0.707
X1.0299 Y-0.7033
X1.0344 Y-0.6995
X1.0388 Y-0.6954
X1.043 Y-0.6911
X1.047 Y-0.6866
X1.0507 Y-0.6819
X1.0542 Y-0.677
X1.0575 Y-0.672
X1.0605 Y-0.6668
X1.0632 Y-0.6614
X1.0657 Y-0.656
X1.0679 Y-0.6504
X1.0699 Y-0.6446
X1.0716 Y-0.6388
X1.0729 Y-0.633
X1.074 Y-0.6271
X1.0748 Y-0.6211
X1.0754 Y-0.615
X1.0756 Y-0.6089
X1.0755 Y-0.6029
X1.0751 Y-0.5969
X1.0745 Y-0.5909
X1.0735 Y-0.5848
X1.0722 Y-0.5788
X1.0707 Y-0.5728
X1.0689 Y-0.567
X1.0668 Y-0.5613
X1.0644 Y-0.5557
X1.0617 Y-0.5501
X1.0587 Y-0.5447
X1.0555 Y-0.5394
X1.052 Y-0.5343
X1.0483 Y-0.5294
X1.0444 Y-0.5246
X1.0402 Y-0.5201
X1.0357 Y-0.5157
X1.0311 Y-0.5115
X1.0262 Y-0.5075
X1.0212 Y-0.5039
X1.016 Y-0.5004
X1.0107 Y-0.4972
X1.0051 Y-0.4943
X0.9994 Y-0.4916
X0.9935 Y-0.4892
X0.9876 Y-0.4871
X0.9816 Y-0.4853
X0.9755 Y-0.4838
X0.9693 Y-0.4825
X0.963 Y-0.4816
X0.9567 Y-0.481
X0.9503 Y-0.4807
X0.9439
X0.9375 Y-0.481
X0.9312 Y-0.4816
X0.9249 Y-0.4825
X0.9187 Y-0.4837
X0.9124 Y-0.4853
X0.9062 Y-0.4871
X0.9001 Y-0.4893
X0.8942 Y-0.4917
X0.8883 Y-0.4945
X0.8827 Y-0.4975
X0.8771 Y-0.5007
X0.8717 Y-0.5043
X0.8665 Y-0.5081
X0.8614 Y-0.5122
X0.8566 Y-0.5166
X0.8519 Y-0.5212
X0.8475 Y-0.526
X0.8433 Y-0.531
X0.8394 Y-0.5362
X0.8357 Y-0.5416
X0.8323 Y-0.5472
X0.8291 Y-0.5529
X0.8262 Y-0.5589
X0.8237 Y-0.565
X0.8213 Y-0.5712
X0.8194 Y-0.5775
X0.8177 Y-0.5839
X0.8163 Y-0.5904
X0.8152 Y-0.5969
X0.8145 Y-0.6035
X0.8141 Y-0.6101
X0.814 Y-0.6168
X0.8142 Y-0.6235
X0.8148 Y-0.6301
X0.8157 Y-0.6368
X0.8169 Y-0.6434
X0.8184 Y-0.65
X0.8203 Y-0.6565
X0.8225 Y-0.6629
X0.8249 Y-0.6691
X0.8277 Y-0.6753
X0.8308 Y-0.6813
X0.8342 Y-0.6872
X0.8378 Y-0.6928
X0.8417 Y-0.6984
X0.846 Y-0.7037
X0.8504 Y-0.7089
X0.8552 Y-0.7138
X0.8601 Y-0.7185
X0.8653 Y-0.7229
X0.8708 Y-0.7271
X0.8764 Y-0.7311
X0.8822 Y-0.7348
X0.8882 Y-0.7382
X0.8944 Y-0.7413
X0.9007 Y-0.744
X0.9072 Y-0.7465
X0.9138 Y-0.7487
X0.9204 Y-0.7505
X0.9272 Y-0.7521
X0.934 Y-0.7533
X0.9409 Y-0.7541
X0.9479 Y-0.7547
X0.9549 Y-0.7548
X0.9618 Y-0.7547
X0.9688 Y-0.7542
X0.9758 Y-0.7534
X0.9827 Y-0.7522
X0.9896 Y-0.7507
X0.9963 Y-0.7488
X1.003 Y-0.7467
X1.0096 Y-0.7441
X1.0161 Y-0.7413
X1.0225 Y-0.7382
X1.0287 Y-0.7347
X1.0347 Y-0.731
X1.0405 Y-0.7269
X1.0462 Y-0.7226
X1.0516 Y-0.718
X1.0568 Y-0.7131
X1.0618 Y-0.708
X1.0665 Y-0.7026
X1.071 Y-0.697
X1.0752 Y-0.6912
X1.0791 Y-0.6851
X1.0827 Y-0.6789
X1.086 Y-0.6725
X1.089 Y-0.666
X1.0917 Y-0.6592
X1.0941 Y-0.6524
X1.0961 Y-0.6455
X1.0978 Y-0.6384
X1.0991 Y-0.6313
X1.1001 Y-0.6241
X1.1007 Y-0.6168
X1.101 Y-0.6095
Y-0.6022
X1.1005 Y-0.5949
X1.0998 Y-0.5876
X1.0986 Y-0.5804
X1.0972 Y-0.5732
X1.0953 Y-0.566
X1.0931 Y-0.559
X1.0906 Y-0.5521
X1.0877 Y-0.5453
X1.0845 Y-0.5386
X1.081 Y-0.5321
X1.0772 Y-0.5257
X1.073 Y-0.5196
X1.0686 Y-0.5136
X1.0638 Y-0.5079
X1.0588 Y-0.5024
X1.0535 Y-0.4971
X1.048 Y-0.4921
X1.0422 Y-0.4874
X1.0361 Y-0.4829
X1.0299 Y-0.4787
X1.0235 Y-0.4749
X1.0168 Y-0.4713
X1.01 Y-0.4681
X1.003 Y-0.4652
X0.9959 Y-0.4627
X0.9887 Y-0.4604
X0.9813 Y-0.4586
X0.9739 Y-0.4571
X0.9664 Y-0.456
X0.9588 Y-0.4552
X0.9512 Y-0.4548
X0.9436
X0.936 Y-0.4551
X0.9284 Y-0.4558
X0.9208 Y-0.4569
X0.9133 Y-0.4583
X0.9058 Y-0.4602
X0.8984 Y-0.4623
X0.8912 Y-0.4649
X0.884 Y-0.4678
X0.877 Y-0.471
X0.8702 Y-0.4746
X0.8635 Y-0.4785
X0.857 Y-0.4828
X0.8508 Y-0.4873
X0.8447 Y-0.4922
X0.8389 Y-0.4974
X0.8334 Y-0.5028
X0.8281 Y-0.5085
X0.823 Y-0.5145
X0.8183 Y-0.5207
X0.8139 Y-0.5272
X0.8098 Y-0.5339
X0.806 Y-0.5407
X0.8025 Y-0.5478
X0.7994 Y-0.555
X0.7967 Y-0.5624
X0.7943 Y-0.5699
X0.7922 Y-0.5775
X0.7906 Y-0.5852
X0.7893 Y-0.593
X0.7884 Y-0.6009
X0.7879 Y-0.6088
X0.7877 Y-0.6168
X0.788 Y-0.6248
X0.7886 Y-0.6327
X0.7896 Y-0.6406
X0.791 Y-0.6485
X0.7928 Y-0.6563
X0.795 Y-0.664
X0.7976 Y-0.6716
X0.8005 Y-0.6791
X0.8038 Y-0.6864
X0.8074 Y-0.6936
X0.8114 Y-0.7006
X0.8157 Y-0.7074
X0.8204 Y-0.714
X0.8254 Y-0.7203
X0.8307 Y-0.7265
X0.8363 Y-0.7324
X0.8422 Y-0.738
X0.8484 Y-0.7433
X0.8548 Y-0.7483
X0.8615 Y-0.753
X0.8684 Y-0.7574
X0.8755 Y-0.7614
X0.8828 Y-0.7651
X0.8903 Y-0.7684
X0.8979 Y-0.7714
X0.9008 Y-0.7724
X0.9114 Y-0.775
X0.9223 Y-0.7759
X0.9331 Y-0.7751
X0.9438 Y-0.7726
X0.9903 Y-0.7575
X0.9951 Y-0.756
X1.0045 Y-0.7535
X1.0116 Y-0.7521
X1.0226 Y-0.7507
X1.0287 Y-0.7496
X1.0345 Y-0.7483
X1.0403 Y-0.7465
X1.0459 Y-0.7443
X1.0513 Y-0.7418
X1.0566 Y-0.7389
X1.0617 Y-0.7358
X1.0667 Y-0.7324
X1.0716 Y-0.7287
X1.0764 Y-0.7246
X1.0812 Y-0.7202
X1.0859 Y-0.7154
X1.0905 Y-0.7102
X1.0949 Y-0.7047
X1.0992 Y-0.6988
X1.1033 Y-0.6925
X1.1071 Y-0.686
X1.1107 Y-0.6793
X1.1139 Y-0.6722
X1.1169 Y-0.6649
X1.1195 Y-0.6574
X1.1218 Y-0.6497
X1.1237 Y-0.6419
X1.1252 Y-0.6338
X1.1264 Y-0.6257
X1.1272 Y-0.6174
X1.1275 Y-0.6091
Y-0.6007
X1.1271 Y-0.5922
X1.1262 Y-0.5838
X1.1249 Y-0.5754
X1.1232 Y-0.567
X1.1211 Y-0.5587
X1.1186 Y-0.5505
X1.1157 Y-0.5424
X1.1124 Y-0.5344
X1.1087 Y-0.5266
X1.1046 Y-0.5189
X1.1001 Y-0.5115
X1.0953 Y-0.5042
X1.0901 Y-0.4972
X1.0873 Y-0.4938
X1.0787 Y-0.485
X1.0687 Y-0.4779
X1.0575 Y-0.4727
X1.0116 Y-0.456
X1.0045 Y-0.454
X0.9892 Y-0.4502
X0.9832 Y-0.4487
X0.9405 Y-0.4398
X0.9335 Y-0.4387
X0.9276 Y-0.4381
X0.9216 Y-0.4378
X0.9156
X0.9096 Y-0.4382
X0.9034 Y-0.4388
X0.897 Y-0.4399
X0.8904 Y-0.4412
X0.8837 Y-0.443
X0.877 Y-0.4451
X0.8701 Y-0.4476
X0.8631 Y-0.4506
X0.8561 Y-0.454
X0.8492 Y-0.4577
X0.8423 Y-0.462
X0.8355 Y-0.4666
X0.8288 Y-0.4715
X0.8224 Y-0.4769
X0.8161 Y-0.4827
X0.8101 Y-0.4888
X0.8043 Y-0.4952
X0.7988 Y-0.502
X0.7936 Y-0.5091
X0.7887 Y-0.5165
X0.7841 Y-0.5241
X0.7799 Y-0.532
X0.7761 Y-0.5402
X0.7726 Y-0.5486
X0.7696 Y-0.5571
X0.7669 Y-0.5658
X0.7647 Y-0.5747
X0.7629 Y-0.5837
X0.7616 Y-0.5928
X0.7607 Y-0.602
X0.7602 Y-0.6112
Y-0.6205
X0.7606 Y-0.6297
X0.7615 Y-0.639
X0.7629 Y-0.6482
X0.7647 Y-0.6573
X0.7669 Y-0.6664
X0.7696 Y-0.6753
X0.7727 Y-0.6841
X0.7762 Y-0.6928
X0.7802 Y-0.7013
X0.7846 Y-0.7096
X0.7894 Y-0.7177
X0.7946 Y-0.7256
X0.8001 Y-0.7332
X0.8061 Y-0.7405
X0.8124 Y-0.7476
X0.819 Y-0.7543
X0.826 Y-0.7608
X0.8333 Y-0.7669
X0.8408 Y-0.7726
X0.8476 Y-0.7772
X0.8507 Y-0.7791
X0.8633 Y-0.7851
X0.8769 Y-0.7885
X0.8909 Y-0.7891
X0.9047 Y-0.7868
X0.9178 Y-0.7817
X0.9192 Y-0.781
X0.9263 Y-0.7783
X0.9438 Y-0.7726
G3 X0.9561 Y-0.7549 I-0.0064 J0.0176
G1 Y-0.7469
X0.9548 Y-0.464 F300.
Y-0.4579 F40.
G3 X0.9405 Y-0.4398 I-0.0187 J-0.0001
G1 X0.9263 Y-0.4369
X0.9121 Y-0.4341
X0.905 Y-0.4336
X0.8815 Y-0.4321
X0.8755 Y-0.432
X0.8695 Y-0.4323
X0.8635 Y-0.433
X0.8576 Y-0.4341
X0.8518 Y-0.4355
X0.8461 Y-0.4373
X0.8404 Y-0.4394
X0.8345 Y-0.4419
X0.8286 Y-0.4447
X0.8225 Y-0.448
X0.8163 Y-0.4518
X0.81 Y-0.4561
X0.8037 Y-0.4608
X0.7975 Y-0.4659
X0.7914 Y-0.4715
X0.7853 Y-0.4776
X0.7794 Y-0.4842
X0.7737 Y-0.4913
X0.7682 Y-0.4987
X0.7629 Y-0.5066
X0.758 Y-0.5148
X0.7535 Y-0.5233
X0.7493 Y-0.5322
X0.7455 Y-0.5413
X0.7422 Y-0.5508
X0.7392 Y-0.5604
X0.7368 Y-0.5703
X0.7348 Y-0.5804
X0.7332 Y-0.5906
X0.7322 Y-0.601
X0.7317 Y-0.6114
X0.7316 Y-0.6219
X0.7321 Y-0.6324
X0.7331 Y-0.643
X0.7346 Y-0.6534
X0.7367 Y-0.6639
X0.7392 Y-0.6742
X0.7423 Y-0.6845
X0.7458 Y-0.6946
X0.7499 Y-0.7045
X0.7544 Y-0.7143
X0.7595 Y-0.7238
X0.7649 Y-0.7331
X0.7709 Y-0.7421
X0.7773 Y-0.7509
X0.7841 Y-0.7593
X0.7911 Y-0.7672
X0.797 Y-0.7733
X0.8039 Y-0.7796
X0.8099 Y-0.7846
X0.815 Y-0.7885
X0.8211 Y-0.7926
X0.823 Y-0.7938
X0.8339 Y-0.7992
X0.8455 Y-0.8026
X0.8575 Y-0.804
X0.8696 Y-0.8032
X0.8814 Y-0.8002
X0.8925 Y-0.7953
X0.8993 Y-0.7915
X0.9125 Y-0.7844
X0.9178 Y-0.7817
G3 X0.9273 Y-0.7636 I-0.0091 J0.0164
G1 X0.9265 Y-0.7544
X0.8988 Y-0.4541 F300.
X0.8983 Y-0.449 F40.
G3 X0.8815 Y-0.4321 I-0.0187 J-0.0017
G1 X0.8424 Y-0.4296
X0.8364 Y-0.4295
X0.8304 Y-0.4299
X0.8245 Y-0.4308
X0.8187 Y-0.4321
X0.8129 Y-0.4339
X0.8073 Y-0.436
X0.8018 Y-0.4384
X0.7964 Y-0.4411
X0.7909 Y-0.4442
X0.7851 Y-0.4478
X0.7794 Y-0.4518
X0.7736 Y-0.4563
X0.7677 Y-0.4614
X0.7617 Y-0.4671
X0.7559 Y-0.4732
X0.7502 Y-0.4797
X0.7446 Y-0.4868
X0.7391 Y-0.4945
X0.7339 Y-0.5027
X0.7289 Y-0.5114
X0.7243 Y-0.5205
X0.72 Y-0.53
X0.7161 Y-0.5398
X0.7127 Y-0.55
X0.7097 Y-0.5605
X0.7072 Y-0.5713
X0.7052 Y-0.5823
X0.7037 Y-0.5936
X0.7027 Y-0.6051
X0.7023 Y-0.6167
X0.7025 Y-0.6284
X0.7032 Y-0.6401
X0.7046 Y-0.6519
X0.7065 Y-0.6636
X0.7089 Y-0.6753
X0.712 Y-0.6869
X0.7144 Y-0.6945
X0.7177 Y-0.7029
X0.7221 Y-0.7108
X0.7274 Y-0.7181
X0.7895 Y-0.7915
X0.7947 Y-0.7971
X0.8056 Y-0.8057
X0.8181 Y-0.8117
X0.8316 Y-0.8149
X0.8455 Y-0.8152
X0.8591 Y-0.8125
X0.8718 Y-0.807
G3 X0.8772 Y-0.78 I-0.0098 J0.016
X0.8656 Y-0.7726 I-0.0152 J-0.011 F300.
G1 X0.8077 Y-0.7615
G3 X0.7938 Y-0.7643 I-0.0035 J-0.0184
X0.7895 Y-0.7915 I0.0104 J-0.0156 F40.
G1 X0.7983 Y-0.802
X0.8015 Y-0.8057
X0.8093 Y-0.8144
X0.8135 Y-0.8187
X0.821 Y-0.8229
X0.8293 Y-0.8248
X0.8379 Y-0.8243
X0.846 Y-0.8215
G3 X0.8524 Y-0.7948 I-0.0091 J0.0164
X0.8407 Y-0.7868 I-0.0156 J-0.0104 F300.
G1 X0.8276 Y-0.784
G3 X0.8128 Y-0.7871 I-0.0039 J-0.0183
X0.8093 Y-0.8144 I0.0109 J-0.0153 F40.
G1 X0.8143 Y-0.82
X0.817 Y-0.8228
X0.8183 Y-0.8239
X0.8197 Y-0.8248
X0.8224 Y-0.8262
X0.8252 Y-0.8271
X0.8268 Y-0.8274
X0.8285 Y-0.8276
X0.8303
X0.8321 Y-0.8274
X0.8339 Y-0.8271
X0.8357 Y-0.8266
X0.8375 Y-0.8259
X0.841 Y-0.8241
X0.8481 Y-0.8204
X0.8925 Y-0.7953
G3 X0.9014 Y-0.7769 I-0.0097 J0.0161
G1 X0.9002 Y-0.7677
X0.8599 Y-0.4515 F300.
X0.8592 Y-0.4459 F40.
G3 X0.8424 Y-0.4296 I-0.0186 J-0.0024
G1 X0.841 Y-0.4295
X0.8339 Y-0.4293
X0.8197 Y-0.429
X0.8126 Y-0.4291
X0.7962 Y-0.4304
X0.7902 Y-0.4311
X0.7844 Y-0.4324
X0.7786 Y-0.4341
X0.773 Y-0.4362
X0.7675 Y-0.4387
X0.7622 Y-0.4414
X0.7571 Y-0.4445
X0.7519 Y-0.4479
X0.7464 Y-0.452
X0.741 Y-0.4564
X0.7355 Y-0.4613
X0.7299 Y-0.4669
X0.7242 Y-0.4731
X0.7187 Y-0.4798
X0.7133 Y-0.4869
X0.708 Y-0.4947
X0.7029 Y-0.5031
X0.698 Y-0.5122
X0.6934 Y-0.5217
X0.6892 Y-0.5317
X0.6854 Y-0.542
X0.682 Y-0.5529
X0.6791 Y-0.5642
X0.6766 Y-0.5758
X0.6747 Y-0.5878
X0.6734 Y-0.6001
X0.6727 Y-0.6127
X0.6725 Y-0.6254
X0.6727 Y-0.6307
X0.6741 Y-0.642
X0.6773 Y-0.6529
X0.6823 Y-0.6632
X0.6889 Y-0.6724
X0.7274 Y-0.7181
G3 X0.7549 Y-0.7183 I0.0139 J0.0126
X0.7596 Y-0.7094 I-0.0136 J0.0129 F300.
G1 X0.8153 Y-0.4531
X0.8157 Y-0.4498
G3 X0.7962 Y-0.4304 I-0.0187 J0.0007 F40.
G1 X0.7606 Y-0.4331
X0.7547 Y-0.4339
X0.7488 Y-0.4352
X0.7431 Y-0.437
X0.7375 Y-0.4392
X0.7321 Y-0.4418
X0.7269 Y-0.4447
X0.7218 Y-0.448
X0.7169 Y-0.4515
X0.7119 Y-0.4554
X0.7066 Y-0.46
X0.7013 Y-0.4651
X0.6961 Y-0.4707
X0.6907 Y-0.477
X0.6853 Y-0.4839
X0.6801 Y-0.4914
X0.6751 Y-0.4993
X0.6702 Y-0.508
X0.6654 Y-0.5175
X0.661 Y-0.5275
X0.6569 Y-0.5381
X0.6533 Y-0.5491
X0.6501 Y-0.5606
X0.6475 Y-0.5725
X0.6457 Y-0.5825
X0.6452 Y-0.5865
X0.6449 Y-0.6006
X0.6475 Y-0.6145
X0.6529 Y-0.6276
X0.6609 Y-0.6393
G3 X0.6884 Y-0.6396 I0.0139 J0.0126
G1 X0.6902 Y-0.6374 F300.
X0.6916 Y-0.6351
X0.7782 Y-0.4602
X0.7792 Y-0.4577
X0.7799 Y-0.4552
X0.7802 Y-0.4525
G3 X0.7606 Y-0.4331 I-0.0187 J0.0007 F40.
G1 X0.7415 Y-0.4346
X0.7272 Y-0.4366
X0.7201 Y-0.4379
X0.7137 Y-0.4397
X0.708 Y-0.4416
X0.7024 Y-0.4439
X0.6971 Y-0.4467
X0.6919 Y-0.4497
X0.687 Y-0.4531
X0.6822 Y-0.4567
X0.6774 Y-0.4607
X0.6723 Y-0.4654
X0.6673 Y-0.4706
X0.6622 Y-0.4763
X0.657 Y-0.4828
X0.6518 Y-0.4899
X0.6468 Y-0.4975
X0.642 Y-0.5058
X0.6372 Y-0.5148
X0.6328 Y-0.5243
X0.6294 Y-0.5328
X0.6265 Y-0.541
X0.624 Y-0.5494
X0.6235 Y-0.5513
X0.6217 Y-0.564
X0.6222 Y-0.577
X0.6252 Y-0.5895
X0.6304 Y-0.6013
X0.6378 Y-0.6119
G3 X0.6653 Y-0.6122 I0.0139 J0.0126
G1 X0.6671 Y-0.6101 F300.
X0.6685 Y-0.6077
X0.7396 Y-0.4648
X0.7408 Y-0.4618
X0.7414 Y-0.4585
X0.7415 Y-0.4553
G3 X0.7201 Y-0.4379 I-0.0187 J-0.0012 F40.
G1 X0.6824 Y-0.4463
X0.6766 Y-0.4479
X0.671 Y-0.4499
X0.6655 Y-0.4524
X0.6603 Y-0.4554
X0.6552 Y-0.4586
X0.6504 Y-0.4622
X0.6458 Y-0.466
X0.6412 Y-0.4701
X0.6365 Y-0.4748
X0.6317 Y-0.4801
X0.627 Y-0.4858
X0.6225 Y-0.4919
X0.6183 Y-0.4982
X0.615 Y-0.5037
X0.6115 Y-0.5103
X0.6087 Y-0.5161
X0.6064 Y-0.5218
X0.603 Y-0.5357
X0.6026 Y-0.55
X0.6051 Y-0.5641
X0.6105 Y-0.5774
X0.6186 Y-0.5892
G3 X0.6461 Y-0.5895 I0.0139 J0.0126
G1 X0.648 Y-0.5872 F300.
X0.6494 Y-0.5847
X0.7028 Y-0.4728
G3 X0.7045 Y-0.4628 I-0.0169 J0.0081
X0.6824 Y-0.4463 I-0.0186 J-0.002 F40.
G1 X0.649 Y-0.4538
X0.6419 Y-0.4561
X0.6363 Y-0.4582
X0.6309 Y-0.4608
X0.6257 Y-0.4638
X0.6208 Y-0.4672
X0.6161 Y-0.4709
X0.6116 Y-0.4749
X0.6074 Y-0.4792
X0.6034 Y-0.4837
X0.5997 Y-0.4884
X0.5935 Y-0.4996
X0.5894 Y-0.5117
X0.5877 Y-0.5244
X0.5883 Y-0.5371
X0.5913 Y-0.5496
X0.5965 Y-0.5612
X0.6038 Y-0.5717
G3 X0.6313 Y-0.572 I0.0139 J0.0126
G1 X0.6328 Y-0.5702 F300.
X0.6341 Y-0.5682
X0.6351 Y-0.5661
X0.6699 Y-0.4792
X0.6708 Y-0.4763
X0.6712 Y-0.4733
X0.6711 Y-0.4702
G3 X0.649 Y-0.4538 I-0.0186 J-0.002 F40.
G1 X0.6419 Y-0.4557
X0.6277 Y-0.4608
X0.6096 Y-0.4677
X0.6078 Y-0.4683
X0.6023 Y-0.4707
X0.5971 Y-0.4736
X0.5878 Y-0.4824
X0.5808 Y-0.4931
X0.5765 Y-0.5051
X0.5751 Y-0.5178
X0.5766 Y-0.5304
X0.581 Y-0.5424
X0.588 Y-0.553
G3 X0.6156 Y-0.5533 I0.0139 J0.0126
X0.6203 Y-0.5444 I-0.0136 J0.0129 F300.
G1 X0.6321 Y-0.4901
X0.6325 Y-0.4872
Y-0.4843
X0.632 Y-0.4815
G3 X0.6078 Y-0.4683 I-0.0182 J-0.0046 F40.
G1 X0.5865 Y-0.4764
X0.581 Y-0.4788
X0.5761 Y-0.4823
X0.57 Y-0.49
X0.5661 Y-0.4991
X0.5644 Y-0.5088
X0.5652 Y-0.5186
X0.5684 Y-0.5279
X0.5738 Y-0.5362
G3 X0.6015 Y-0.5474 I0.0256 J0.0232
X0.6171 Y-0.5426 I-0.0021 J0.0345 F300.
X0.6164 Y-0.4792 I-0.0189 J0.0315
X0.5865 Y-0.4764 I-0.0181 J-0.0319 F40.
G1 X0.5723 Y-0.4818
X0.5668 Y-0.4842
X0.5609 Y-0.4906
X0.5573 Y-0.4986
X0.5565 Y-0.5073
X0.5584 Y-0.5158
X0.5629 Y-0.5233
G3 X0.5912 Y-0.529 I0.0181 J0.0164
G1 X0.5929 Y-0.5281 F300.
G3 X0.6002 Y-0.4898 I-0.0125 J0.0222
X0.5723 Y-0.4818 I-0.0197 J-0.0161 F40.
G1 X0.5637 Y-0.4851
X0.5624 Y-0.4857
X0.5609 Y-0.4866
X0.5595 Y-0.4877
X0.5579 Y-0.4892
X0.5566 Y-0.4908
X0.5551 Y-0.4928
X0.5542 Y-0.4946
X0.5534 Y-0.4964
X0.5529 Y-0.4982
X0.5525 Y-0.5
X0.5524 Y-0.5017
X0.5523 Y-0.5035
X0.5525 Y-0.5053
X0.5528 Y-0.5071
X0.5534 Y-0.5088
X0.5541 Y-0.5106
X0.5566 Y-0.5152
X0.5587 Y-0.5182
X0.6889 Y-0.6724
G3 X0.6986 Y-0.6781 I0.0139 J0.0126
G1 X0.7176 Y-0.6824
X0.9924 Y-0.7448 F300.
X1.0167 Y-0.7503 F40.
X1.0197 Y-0.7508
X1.0226 Y-0.7507
X1.033 Y-0.7494
X1.06 Y-0.7464
X1.0659 Y-0.7455
X1.0717 Y-0.744
X1.0773 Y-0.742
X1.0828 Y-0.7395
X1.0881 Y-0.7366
X1.0932 Y-0.7334
X1.098 Y-0.7299
X1.1027 Y-0.7262
X1.1072 Y-0.7221
X1.1115 Y-0.7179
X1.1158 Y-0.7132
X1.12 Y-0.708
X1.1243 Y-0.7024
X1.1283 Y-0.6964
X1.1322 Y-0.6901
X1.1358 Y-0.6834
X1.1392 Y-0.6763
X1.1424 Y-0.6689
X1.1452 Y-0.6611
X1.1478 Y-0.653
X1.1499 Y-0.6446
X1.1517 Y-0.6359
X1.1531 Y-0.6271
X1.1541 Y-0.6181
X1.1547 Y-0.609
X1.1548 Y-0.5997
X1.1544 Y-0.5904
X1.1536 Y-0.581
X1.1523 Y-0.5715
X1.1506 Y-0.5621
X1.1483 Y-0.5526
X1.1456 Y-0.5433
X1.1425 Y-0.534
X1.141 Y-0.5303
X1.1355 Y-0.5195
X1.1283 Y-0.5098
X1.1196 Y-0.5016
X1.1095 Y-0.495
G3 X1.0838 Y-0.5049 I-0.0083 J-0.0168
G1 X1.0828 Y-0.5082 F300.
X1.0401 Y-0.7241
X1.0399 Y-0.7259
X1.0398 Y-0.7277
G3 X1.06 Y-0.7464 I0.0187 J0. F40.
G1 X1.0756 Y-0.7447
X1.0827 Y-0.7441
X1.0898 Y-0.7435
X1.0958 Y-0.7427
X1.1016 Y-0.7413
X1.1073 Y-0.7393
X1.1127 Y-0.7368
X1.118 Y-0.7339
X1.123 Y-0.7306
X1.1278 Y-0.727
X1.1324 Y-0.7232
X1.1368 Y-0.719
X1.1409 Y-0.7147
X1.1451 Y-0.71
X1.1492 Y-0.7047
X1.1533 Y-0.699
X1.1572 Y-0.6929
X1.1609 Y-0.6864
X1.1645 Y-0.6794
X1.1679 Y-0.6719
X1.171 Y-0.664
X1.1738 Y-0.6558
X1.1763 Y-0.6473
X1.1783 Y-0.6384
X1.18 Y-0.6292
X1.1813 Y-0.6197
X1.1821 Y-0.6099
X1.1824 Y-0.5999
X1.1823 Y-0.5897
X1.1817 Y-0.5794
X1.1806 Y-0.5702
X1.1792 Y-0.5613
X1.1789 Y-0.5599
X1.1754 Y-0.5485
X1.17 Y-0.5378
X1.1628 Y-0.5282
X1.1541 Y-0.52
X1.144 Y-0.5135
G3 X1.1184 Y-0.5234 I-0.0083 J-0.0168
G1 X1.1176 Y-0.5259 F300.
X1.0708 Y-0.7204
X1.0704 Y-0.7223
X1.0702 Y-0.7242
G3 X1.0898 Y-0.7435 I0.0187 J-0.0006 F40.
G1 X1.0969 Y-0.7429
X1.1041 Y-0.7431
X1.1097 Y-0.7435
X1.1157 Y-0.7436
X1.1217 Y-0.743
X1.1275 Y-0.7417
X1.1332 Y-0.7397
X1.1387 Y-0.7372
X1.1439 Y-0.7344
X1.149 Y-0.7311
X1.1538 Y-0.7276
X1.1585 Y-0.7238
X1.1629 Y-0.7197
X1.1672 Y-0.7153
X1.1713 Y-0.7106
X1.1755 Y-0.7054
X1.1797 Y-0.6996
X1.1837 Y-0.6934
X1.1876 Y-0.6868
X1.1913 Y-0.6798
X1.1948 Y-0.6722
X1.1981 Y-0.6641
X1.201 Y-0.6555
X1.2037 Y-0.6465
X1.2059 Y-0.6373
X1.2078 Y-0.6276
X1.2092 Y-0.6177
X1.2101 Y-0.6082
X1.2104 Y-0.6001
Y-0.5915
X1.21 Y-0.5848
X1.207 Y-0.5707
X1.2012 Y-0.5576
X1.1929 Y-0.546
X1.1822 Y-0.5364
G3 X1.1554 Y-0.5426 I-0.0106 J-0.0155
G1 X1.1546 Y-0.5441 F300.
X1.154 Y-0.5457
X1.094 Y-0.7187
X1.0932 Y-0.7215
G3 X1.1097 Y-0.7435 I0.0184 J-0.0034 F40.
G1 X1.1183 Y-0.7441
X1.1254 Y-0.7447
X1.1337 Y-0.7455
X1.1397 Y-0.7457
X1.1456 Y-0.7452
X1.1515 Y-0.7439
X1.1572 Y-0.7421
X1.1627 Y-0.7397
X1.1681 Y-0.737
X1.1732 Y-0.7338
X1.1781 Y-0.7304
X1.1828 Y-0.7267
X1.1873 Y-0.7227
X1.1916 Y-0.7185
X1.196 Y-0.7138
X1.2004 Y-0.7085
X1.2047 Y-0.7029
X1.2089 Y-0.6968
X1.2131 Y-0.6902
X1.2171 Y-0.6829
X1.2209 Y-0.6752
X1.2244 Y-0.6671
X1.2275 Y-0.6586
X1.2303 Y-0.65
X1.2327 Y-0.6411
X1.2345 Y-0.633
X1.2356 Y-0.6261
X1.2366 Y-0.6181
X1.2367 Y-0.6159
X1.2362 Y-0.6021
X1.233 Y-0.5887
X1.2272 Y-0.5762
X1.219 Y-0.5651
X1.2088 Y-0.5558
G3 X1.1819 Y-0.562 I-0.0106 J-0.0155
G1 X1.1808 Y-0.5644 F300.
X1.1186 Y-0.7199
X1.1177 Y-0.7231
G3 X1.1337 Y-0.7455 I0.0184 J-0.0038 F40.
G1 X1.1577 Y-0.7477
X1.1637 Y-0.7479
X1.1697 Y-0.7476
X1.1756 Y-0.7464
X1.1871 Y-0.7417
X1.1974 Y-0.7347
X1.2062 Y-0.7259
X1.2129 Y-0.7155
X1.2175 Y-0.7039
G3 X1.2024 Y-0.6809 I-0.0182 J0.0045
X1.188 Y-0.6845 I-0.0031 J-0.0185 F300.
G1 X1.1488 Y-0.7141
G3 X1.1417 Y-0.7253 I0.0113 J-0.0149
X1.1577 Y-0.7477 I0.0184 J-0.0038 F40.
G1 X1.168 Y-0.7486
X1.1751 Y-0.7492
X1.1823 Y-0.7497
X1.1834 Y-0.7498
X1.1852 Y-0.7499
X1.1912 Y-0.7498
X1.1983 Y-0.7469
X1.2041 Y-0.742
X1.2082 Y-0.7355
G3 X1.2063 Y-0.7151 I-0.0213 J0.0083
G1 X1.2044 Y-0.7125
X1.2021 Y-0.7102
X1.1996 Y-0.7082
G3 X1.1644 Y-0.7303 I-0.0126 J-0.0189 F300.
X1.1852 Y-0.7499 I0.0225 J0.0031 F40.
G1 X1.1894 Y-0.75
X1.1925 Y-0.7497
X1.1941 Y-0.7494
X1.1957 Y-0.7489
X1.1965 Y-0.7486
X1.1983 Y-0.7477
X1.2 Y-0.7466
X1.2018 Y-0.7452
X1.2036 Y-0.7434
X1.2049 Y-0.7417
X1.2061 Y-0.74
X1.207 Y-0.7382
X1.2086 Y-0.7346
X1.2108 Y-0.7275
X1.2391 Y-0.6278
X1.243 Y-0.6137
X1.2449 Y-0.6066
X1.2453 Y-0.6051
X1.2456 Y-0.604
X1.2466 Y-0.5992
X1.2469 Y-0.5976
X1.2471 Y-0.596
Y-0.5954
G3 X1.227 Y-0.5771 I-0.0187 J-0.0005
X1.212 Y-0.5866 I0.0014 J-0.0187 F300.
G1 X1.2001 Y-0.6077
G3 X1.2295 Y-0.6304 I0.0163 J-0.0092
G1 X1.2297 Y-0.6302
G3 X1.2456 Y-0.604 I-0.0437 J0.0444 F40.
G1 X1.2462 Y-0.6015
X1.2466 Y-0.5995
X1.2471 Y-0.596
X1.2472 Y-0.5942
Y-0.5924
X1.2468 Y-0.5902
X1.2462 Y-0.588
X1.2451 Y-0.5853
X1.2441 Y-0.5835
X1.2428 Y-0.5817
X1.241 Y-0.5798
X1.2391 Y-0.5781
X1.1811 Y-0.5355
X1.1751 Y-0.5317
X1.1582 Y-0.5213
X1.1538 Y-0.5187
X1.0969 Y-0.4883
X1.092 Y-0.4857
X1.0827 Y-0.4819
X1.0685 Y-0.4767
X1.0575 Y-0.4727
G3 X1.0335 Y-0.4861 I-0.0058 J-0.0178
G1 X1.0328 Y-0.4893 Z0.7638
X1.032 Y-0.4924 Z0.7646
X1.0313 Y-0.4953 Z0.766
X1.0307 Y-0.4979 Z0.7679
X1.0302 Y-0.5001 Z0.7702
X1.0297 Y-0.5019 Z0.7729
X1.0294 Y-0.5033 Z0.7758
X1.0292 Y-0.5041 Z0.779
Y-0.5044 Z0.7823
G0 Z1.803
(2D CONTOUR2 2)
G64 P0.0004 Q0.0004
G0 X0.8998 Y-0.7385
Z1.803
Z1.403
G1 Z1.2405 F80.
Z0.7823
X0.8999 Y-0.7388 Z0.779 F40.
X0.9002 Y-0.7396 Z0.7758
X0.9007 Y-0.7409 Z0.7729
X0.9014 Y-0.7426 Z0.7702
X0.9023 Y-0.7448 Z0.7679
X0.9033 Y-0.7473 Z0.766
X0.9044 Y-0.75 Z0.7646
X0.9055 Y-0.7529 Z0.7638
X0.9067 Y-0.756 Z0.7635
X0.9136 Y-0.7734
G3 X0.9379 Y-0.784 I0.0174 J0.0069
G2 X1.1885 Y-0.7611 I0.1645 J-0.4168
G3 X1.2166 Y-0.7438 I0.0047 J0.0239
G1 X1.2578 Y-0.5987
G3 X1.2501 Y-0.5735 I-0.0234 J0.0067
X0.5523 Y-0.4784 I-0.4234 J-0.4988
X0.5439 Y-0.5162 I0.0102 J-0.0221
G1 X0.8101 Y-0.8314
G3 X0.8428 Y-0.8356 I0.0186 J0.0157
G2 X1.1885 Y-0.7611 I0.2596 J-0.3652
G3 X1.2166 Y-0.7438 I0.0047 J0.0239
G1 X1.2578 Y-0.5987
G3 X1.2501 Y-0.5735 I-0.0234 J0.0067
X0.5523 Y-0.4784 I-0.4234 J-0.4988
X0.5439 Y-0.5162 I0.0102 J-0.0221
G1 X0.8101 Y-0.8314
G3 X0.8428 Y-0.8356 I0.0186 J0.0157
G2 X0.9379 Y-0.784 I0.2596 J-0.3652
G3 X0.9485 Y-0.7597 I-0.0069 J0.0174
G1 X0.9416 Y-0.7422
X0.9404 Y-0.7392 Z0.7638
X0.9392 Y-0.7362 Z0.7646
X0.9382 Y-0.7335 Z0.766
X0.9372 Y-0.731 Z0.7679
X0.9363 Y-0.7288 Z0.7702
X0.9356 Y-0.7271 Z0.7729
X0.9351 Y-0.7258 Z0.7758
X0.9348 Y-0.725 Z0.779
X0.9347 Y-0.7248 Z0.7823
G0 Z1.803
M5
G53 G0 Z0.
(2D CHAMFER1 2)
M9
M1
T13 M6
T36
S7500 M3
G17 G90 G94
G54
M8
G0 X0.9369 Y-0.7814
G43 Z1.803 H13
G0 Z1.403
G1 Z1.283 F80.
Z0.953
G2 X1.189 Y-0.7584 I0.1655 J-0.4194 F50.
G3 X1.2139 Y-0.7431 I0.0042 J0.0212
G1 X1.2552 Y-0.598
G3 X1.2484 Y-0.5756 I-0.0208 J0.0059
X0.5534 Y-0.4809 I-0.4216 J-0.4967
X0.546 Y-0.5145 I0.0091 J-0.0196
G1 X0.8122 Y-0.8296
G3 X0.8412 Y-0.8333 I0.0165 J0.0139
G2 X0.9369 Y-0.7814 I0.2612 J-0.3675
G0 Z1.403
X-0.0899 Y-0.302
G1 Z1.283 F80.
Z0.953
G2 X0.2362 Y0.0965 I0.3262 J0.0657 F50.
G1 X1.4173
G2 X1.7374 Y-0.3271 I0. J-0.3327
G1 X1.4603 Y-1.3025
G2 X0.8181 Y-1.4409 I-0.3579 J0.1017
G1 X-0.018 Y-0.4509
G2 X-0.0899 Y-0.302 I0.2542 J0.2147
G0 Z1.803
(2D CHAMFER2 2)
G0 X1.2033 Y-1.2008
Z1.803
Z1.403
G1 Z1.283 F80.
Z1.013
G3 X1.0014 I-0.101 J0. F50.
X1.2033 I0.101 J0.
G0 Z1.403
X1.4789 Y-0.2362
G1 Z1.283 F80.
Z1.013
G3 X1.3557 I-0.0616 J0. F50.
X1.4789 I0.0616 J0.
G0 Z1.403
X0.2978
G1 Z1.283 F80.
Z1.013
G3 X0.1746 I-0.0616 J0. F50.
X0.2978 I0.0616 J0.
G0 Z1.803
M5
M9
G53 G0 Z0.
M30
%
