%
(OP3, HOLE RIGHT)
(T36 D=0.375 CR=0. - ZMIN=-0.005 - FLAT END MILL)
G90 G94 G17 G91.1
G20
G53 G0 Z0.
(3D ADAPTIVE ROUGHING2)
T36 M6
S7500 M3
G17 G90 G94
G54
G64 P0.004 Q0.004
M8
G0 X-0.1967 Y-1.0054
G43 Z2.1264 H36
G0 Z0.5085
G1 Z0.471 F60.
X-0.1965 Y-1.0052 Z0.4664
X-0.1961 Y-1.0045 Z0.462
X-0.1954 Y-1.0033 Z0.4577
X-0.1945 Y-1.0017 Z0.4535
X-0.1933 Y-0.9997 Z0.4497
X-0.1919 Y-0.9972 Z0.4461
X-0.1903 Y-0.9945 Z0.4429
X-0.1886 Y-0.9914 Z0.4401
X-0.1866 Y-0.988 Z0.4378
X-0.1846 Y-0.9845 Z0.4359
X-0.1824 Y-0.9807 Z0.4346
X-0.1802 Y-0.9769 Z0.4337
X-0.1779 Y-0.9729 Z0.4335
G3 X-0.0945 Y-0.7843 I-0.8289 J0.4791
G1 X-0.093 Y-0.7788
X-0.0818 Y-0.7536
G3 X-0.0608 Y-0.6722 I-0.3365 J0.1301
X-0.0475 Y-0.5105 I-1.2031 J0.1806
G1 X-0.0462 Y-0.4662
X-0.0454 Y-0.4218
X-0.0453 Y-0.4093
G3 X-0.0664 Y-0.3349 I-0.1359 J0.0016
X-0.0919 Y-0.319 I-0.0309 J-0.0212
X-0.1348 Y-0.3543 I-0.0055 J-0.0371 F300.
G1 X-0.1529 Y-0.7354
G3 X-0.1047 Y-0.7731 I0.0375 J-0.0018
X-0.0818 Y-0.7536 I-0.0108 J0.0359 F60.
G2 X-0.0622 Y-0.7223 I0.2154 J-0.1128
G3 X-0.0334 Y-0.6649 I-0.142 J0.1071
X-0.0104 Y-0.5625 I-0.488 J0.1637
X-0.002 Y-0.452 I-0.6724 J0.1064
X-0.0375 Y-0.3669 I-0.131 J-0.0047
G1 X-0.0593 Y-0.3438
X-0.0633 Y-0.3393
X-0.0664 Y-0.3349
G3 X-0.0925 Y-0.32 I-0.0301 J-0.0224
X-0.134 Y-0.3581 I-0.0039 J-0.0373 F300.
G1 X-0.1267 Y-0.6972
G3 X-0.0899 Y-0.7338 I0.0375 J0.0008
X-0.0621 Y-0.7223 I0.0007 J0.0375 F60.
G1 X-0.0593 Y-0.7192
X-0.0369 Y-0.6954
X-0.0359 Y-0.6944
X-0.035 Y-0.6937
G3 X-0.0154 Y-0.6698 I-0.0547 J0.0646
X0.0251 Y-0.5633 I-0.2842 J0.169
X0.0328 Y-0.4626 I-0.2725 J0.0715
G1 X0.0273 Y-0.4434
G3 X-0.0192 Y-0.3807 I-0.1228 J-0.0425
X-0.0488 Y-0.3753 I-0.0209 J-0.0311
X-0.0776 Y-0.4095 I0.0086 J-0.0365 F300.
G1 X-0.0934 Y-0.6603
G3 X-0.0645 Y-0.6992 I0.0374 J-0.0024
X-0.035 Y-0.6937 I0.0086 J0.0365 F60.
G1 X-0.0145 Y-0.6788
X-0.0127 Y-0.6777
G3 X0.0348 Y-0.6197 I-0.0883 J0.1207
X0.0659 Y-0.5006 I-0.2226 J0.1217
X-0.0006 Y-0.3927 I-0.1274 J-0.004
G1 X-0.0047 Y-0.391
X-0.0089 Y-0.3897
X-0.0133 Y-0.389
X-0.0177 Y-0.3888
X-0.0221 Y-0.3891
X-0.0264 Y-0.3899
X-0.0306 Y-0.3912
G3 X-0.0547 Y-0.4238 I0.0133 J-0.0351 F300.
G1 X-0.0692 Y-0.643
G3 X-0.0425 Y-0.6814 I0.0374 J-0.0025
X-0.0127 Y-0.6777 I0.0107 J0.0359 F60.
G1 X-0.0037 Y-0.6719
X0.008 Y-0.6656
X0.0113 Y-0.6641
G3 X0.0639 Y-0.6122 I-0.0574 J0.1108
X0.0925 Y-0.4947 I-0.159 J0.101
X0.0192 Y-0.4024 I-0.1122 J-0.0138
X-0.0107 Y-0.405 I-0.012 J-0.0356
X-0.0302 Y-0.436 I0.018 J-0.0329 F300.
G1 X-0.0403 Y-0.6274
G3 X-0.0188 Y-0.6634 I0.0374 J-0.002
X0.0113 Y-0.6641 I0.0159 J0.034 F60.
G1 X0.0192 Y-0.6606
X0.0304 Y-0.6565
X0.0351 Y-0.6551
G3 X0.0895 Y-0.61 I-0.0366 J0.0995
X0.117 Y-0.4882 I-0.135 J0.0945
X0.0416 Y-0.4098 I-0.0994 J-0.0202
X0.0119 Y-0.4145 I-0.0096 J-0.0363
X-0.0054 Y-0.4447 I0.0201 J-0.0316 F300.
G1 X-0.0119 Y-0.6174
G3 X0.0054 Y-0.6505 I0.0375 J-0.0014
X0.0351 Y-0.6551 I0.0201 J0.0316 F60.
G2 X0.0586 Y-0.6493 I0.0551 J-0.1719
G3 X0.1077 Y-0.6169 I-0.0208 J0.0849
X0.1432 Y-0.4979 I-0.1176 J0.1
X0.0608 Y-0.4141 I-0.0996 J-0.0156
X0.0319 Y-0.4223 I-0.0051 J-0.0372
X0.0182 Y-0.4507 I0.0238 J-0.029 F300.
G1 X0.016 Y-0.6116
G3 X0.0297 Y-0.6411 I0.0375 J-0.0005
X0.0586 Y-0.6493 I0.0238 J0.029 F60.
G1 X0.0641 Y-0.6483
X0.0753 Y-0.6469
X0.0772
G3 X0.1245 Y-0.6235 I-0.0069 J0.0734
X0.1646 Y-0.4856 I-0.0999 J0.1039
X0.0753 Y-0.4161 I-0.0923 J-0.0265
X0.0469 Y-0.4261 I-0.0028 J-0.0374
X0.035 Y-0.4546 I0.0256 J-0.0274 F300.
G1 X0.0399 Y-0.6105
G3 X0.0497 Y-0.6347 I0.0375 J0.0012
X0.0772 Y-0.6469 I0.0277 J0.0253 F60.
G1 X0.0996 Y-0.6462
G3 X0.1518 Y-0.6198 I-0.0066 J0.0778
X0.1899 Y-0.4918 I-0.1007 J0.0997
X0.0977 Y-0.4167 I-0.0944 J-0.0217
G1 X0.0753 Y-0.4161
G3 X0.0478 Y-0.4283 I0.0002 J-0.0375
X0.0384 Y-0.4594 I0.0277 J-0.0253 F300.
G1 X0.063 Y-0.6146
G3 X0.0722 Y-0.6338 I0.037 J0.0059
X0.0996 Y-0.6462 I0.0279 J0.0251 F60.
G1 X0.1089 Y-0.646
X0.122
G3 X0.1748 Y-0.6208 I-0.0045 J0.0771
X0.2129 Y-0.4884 I-0.098 J0.0999
X0.1195 Y-0.417 I-0.0935 J-0.0254
G1 X0.1089
X0.0977 Y-0.4167
G3 X0.0703 Y-0.4291 I0.0005 J-0.0375
X0.0612 Y-0.4603 I0.0279 J-0.0251 F300.
G1 X0.0863 Y-0.6146
G3 X0.0949 Y-0.633 I0.037 J0.006
X0.122 Y-0.646 I0.0284 J0.0245 F60.
G1 X0.146
G3 X0.1987 Y-0.6208 I-0.0046 J0.0773
X0.2376 Y-0.4927 I-0.0975 J0.0996
X0.1426 Y-0.417 I-0.095 J-0.0218
G1 X0.1195
G3 X0.0924 Y-0.43 I0.0013 J-0.0375
X0.0838 Y-0.4608 I0.0284 J-0.0245 F300.
G1 X0.1103 Y-0.6149
G3 X0.1189 Y-0.633 I0.037 J0.0064
X0.146 Y-0.646 I0.0284 J0.0245 F60.
G1 X0.1697
G3 X0.2226 Y-0.621 I-0.0042 J0.0772
X0.2616 Y-0.4938 I-0.097 J0.0993
X0.165 Y-0.417 I-0.0965 J-0.0222
G1 X0.1426
G3 X0.1155 Y-0.43 I0.0013 J-0.0375
X0.107 Y-0.461 I0.0284 J-0.0245 F300.
G1 X0.1341 Y-0.615
G3 X0.1426 Y-0.633 I0.0369 J0.0065
X0.1697 Y-0.646 I0.0284 J0.0245 F60.
G1 X0.1936
G3 X0.2465 Y-0.621 I-0.0041 J0.0771
X0.2853 Y-0.4945 I-0.0964 J0.0988
X0.1875 Y-0.417 I-0.0978 J-0.023
G1 X0.165
G3 X0.1379 Y-0.43 I0.0013 J-0.0375
X0.1295 Y-0.4613 I0.0284 J-0.0245 F300.
G1 X0.1581 Y-0.6154
G3 X0.1665 Y-0.633 I0.0369 J0.0068
X0.1936 Y-0.646 I0.0284 J0.0245 F60.
G1 X0.2176
G3 X0.2705 Y-0.621 I-0.0041 J0.077
X0.3088 Y-0.4945 I-0.0959 J0.0982
X0.2105 Y-0.417 I-0.0983 J-0.0237
G1 X0.1875
G3 X0.1604 Y-0.43 I0.0013 J-0.0375
X0.152 Y-0.4617 I0.0284 J-0.0245 F300.
G1 X0.1821 Y-0.6157
G3 X0.1905 Y-0.633 I0.0368 J0.0072
X0.2176 Y-0.646 I0.0284 J0.0245 F60.
G1 X0.2413
G3 X0.2942 Y-0.6211 I-0.0038 J0.0767
X0.331 Y-0.4887 I-0.0956 J0.0979
X0.2356 Y-0.417 I-0.0954 J-0.0275
G1 X0.2105
G3 X0.1834 Y-0.43 I0.0013 J-0.0375
X0.175 Y-0.4618 I0.0284 J-0.0245 F300.
G1 X0.2058 Y-0.6159
G3 X0.2142 Y-0.633 I0.0368 J0.0074
X0.2413 Y-0.646 I0.0284 J0.0245 F60.
G1 X0.266
G3 X0.3186 Y-0.6206 I-0.0047 J0.0768
X0.3546 Y-0.4878 I-0.0971 J0.0976
X0.2601 Y-0.417 I-0.0945 J-0.0276
G1 X0.2356
G3 X0.2085 Y-0.43 I0.0013 J-0.0375
X0.2001 Y-0.4617 I0.0284 J-0.0245 F300.
G1 X0.2305 Y-0.6158
G3 X0.2389 Y-0.633 I0.0368 J0.0073
X0.266 Y-0.646 I0.0284 J0.0245 F60.
G1 X0.2884
G3 X0.3456 Y-0.6171 I-0.0039 J0.0788
X0.3788 Y-0.489 I-0.1012 J0.0946
X0.2837 Y-0.417 I-0.095 J-0.0267
G1 X0.2601
G3 X0.233 Y-0.43 I0.0013 J-0.0375
X0.2245 Y-0.4613 I0.0284 J-0.0245 F300.
G1 X0.2529 Y-0.6153
G3 X0.2613 Y-0.633 I0.0369 J0.0068
X0.2884 Y-0.646 I0.0284 J0.0245 F60.
G1 X0.3127
G3 X0.3656 Y-0.621 I-0.0037 J0.0763
X0.4025 Y-0.4885 I-0.0973 J0.0985
X0.3078 Y-0.417 I-0.0947 J-0.0269
G1 X0.2837
G3 X0.2566 Y-0.43 I0.0013 J-0.0375
X0.2482 Y-0.4614 I0.0284 J-0.0245 F300.
G1 X0.2772 Y-0.6155
G3 X0.2857 Y-0.633 I0.0369 J0.0069
X0.3127 Y-0.646 I0.0284 J0.0245 F60.
G1 X0.3367
G3 X0.3895 Y-0.6209 I-0.004 J0.0764
X0.4263 Y-0.4883 I-0.0975 J0.0985
X0.3318 Y-0.417 I-0.0945 J-0.0269
G1 X0.3078
G3 X0.2807 Y-0.43 I0.0013 J-0.0375
X0.2723 Y-0.4614 I0.0284 J-0.0245 F300.
G1 X0.3012 Y-0.6154
G3 X0.3096 Y-0.633 I0.0369 J0.0069
X0.3367 Y-0.646 I0.0284 J0.0245 F60.
G1 X0.3605
G3 X0.4132 Y-0.6209 I-0.004 J0.0765
X0.4502 Y-0.4883 I-0.0975 J0.0986
X0.3558 Y-0.417 I-0.0944 J-0.0268
G1 X0.3318
G3 X0.3047 Y-0.43 I0.0013 J-0.0375
X0.2962 Y-0.4613 I0.0284 J-0.0245 F300.
G1 X0.3249 Y-0.6154
G3 X0.3334 Y-0.633 I0.0369 J0.0069
X0.3605 Y-0.646 I0.0284 J0.0245 F60.
G1 X0.3844
G3 X0.4371 Y-0.6208 I-0.0042 J0.0766
X0.4753 Y-0.4937 I-0.0976 J0.0986
X0.3782 Y-0.417 I-0.097 J-0.0229
G1 X0.3558
G3 X0.3287 Y-0.43 I0.0013 J-0.0375
X0.3202 Y-0.4613 I0.0284 J-0.0245 F300.
G1 X0.3488 Y-0.6154
G3 X0.3573 Y-0.633 I0.0369 J0.0068
X0.3844 Y-0.646 I0.0284 J0.0245 F60.
G1 X0.4083
G3 X0.461 Y-0.6207 I-0.0044 J0.0766
X0.4989 Y-0.494 I-0.0971 J0.0981
X0.401 Y-0.417 I-0.0979 J-0.0238
G1 X0.3782
G3 X0.3511 Y-0.43 I0.0013 J-0.0375
X0.3427 Y-0.4617 I0.0284 J-0.0245 F300.
G1 X0.3728 Y-0.6157
G3 X0.3812 Y-0.633 I0.0368 J0.0072
X0.4083 Y-0.646 I0.0284 J0.0245 F60.
G1 X0.432
G3 X0.4847 Y-0.6208 I-0.0043 J0.0766
X0.5225 Y-0.4941 I-0.0964 J0.0977
X0.4242 Y-0.417 I-0.0983 J-0.0242
G1 X0.401
G3 X0.3739 Y-0.43 I0.0013 J-0.0375
X0.3656 Y-0.4619 I0.0284 J-0.0245 F300.
G1 X0.3966 Y-0.6159
G3 X0.4049 Y-0.633 I0.0368 J0.0074
X0.432 Y-0.646 I0.0284 J0.0245 F60.
G1 X0.4557
G3 X0.5085 Y-0.6209 I-0.0041 J0.0766
X0.5447 Y-0.4883 I-0.0961 J0.0975
X0.4495 Y-0.417 I-0.0952 J-0.0279
G1 X0.4242
G3 X0.3971 Y-0.43 I0.0013 J-0.0375
X0.3887 Y-0.462 I0.0284 J-0.0245 F300.
G1 X0.4203 Y-0.616
G3 X0.4286 Y-0.633 I0.0367 J0.0075
X0.4557 Y-0.646 I0.0284 J0.0245 F60.
G1 X0.4792
G3 X0.532 Y-0.6211 I-0.0037 J0.0764
X0.5686 Y-0.4885 I-0.0968 J0.098
X0.4736 Y-0.417 I-0.0949 J-0.0272
G1 X0.4495
G3 X0.4224 Y-0.43 I0.0013 J-0.0375
X0.414 Y-0.4616 I0.0284 J-0.0245 F300.
G1 X0.4437 Y-0.6156
G3 X0.4521 Y-0.633 I0.0368 J0.0071
X0.4792 Y-0.646 I0.0284 J0.0245 F60.
G1 X0.5035
G3 X0.5561 Y-0.6207 I-0.0043 J0.0764
X0.5923 Y-0.488 I-0.0977 J0.098
X0.4979 Y-0.417 I-0.0944 J-0.0273
G1 X0.4736
G3 X0.4465 Y-0.43 I0.0013 J-0.0375
X0.4381 Y-0.4616 I0.0284 J-0.0245 F300.
G1 X0.468 Y-0.6157
G3 X0.4764 Y-0.633 I0.0368 J0.0071
X0.5035 Y-0.646 I0.0284 J0.0245 F60.
G1 X0.5274
G3 X0.58 Y-0.6205 I-0.0046 J0.0764
X0.6162 Y-0.4878 I-0.0981 J0.098
X0.522 Y-0.417 I-0.0942 J-0.0273
G1 X0.4979
G3 X0.4708 Y-0.43 I0.0013 J-0.0375
X0.4623 Y-0.4615 I0.0284 J-0.0245 F300.
G1 X0.4919 Y-0.6156
G3 X0.5003 Y-0.633 I0.0368 J0.0071
X0.5274 Y-0.646 I0.0284 J0.0245 F60.
G1 X0.5499
G3 X0.607 Y-0.6171 I-0.004 J0.0787
X0.6402 Y-0.488 I-0.1015 J0.0948
X0.5465 Y-0.417 I-0.0937 J-0.0262
G1 X0.522
G3 X0.4949 Y-0.43 I0.0013 J-0.0375
X0.4864 Y-0.4611 I0.0284 J-0.0245 F300.
G1 X0.5143 Y-0.6152
G3 X0.5228 Y-0.633 I0.0369 J0.0067
X0.5499 Y-0.646 I0.0284 J0.0245 F60.
G1 X0.5747
G3 X0.6273 Y-0.6207 I-0.0044 J0.0765
X0.6653 Y-0.4932 I-0.0981 J0.0986
X0.5689 Y-0.417 I-0.0963 J-0.0227
G1 X0.5465
G3 X0.5194 Y-0.43 I0.0013 J-0.0375
X0.5109 Y-0.4612 I0.0284 J-0.0245 F300.
G1 X0.5391 Y-0.6153
G3 X0.5476 Y-0.633 I0.0369 J0.0068
X0.5747 Y-0.646 I0.0284 J0.0245 F60.
G1 X0.5975
G3 X0.6546 Y-0.617 I-0.0042 J0.079
X0.6892 Y-0.4946 I-0.1009 J0.0946
X0.5914 Y-0.417 I-0.0978 J-0.0229
G1 X0.5689
G3 X0.5418 Y-0.43 I0.0013 J-0.0375
X0.5334 Y-0.4613 I0.0284 J-0.0245 F300.
G1 X0.562 Y-0.6154
G3 X0.5704 Y-0.633 I0.0369 J0.0068
X0.5975 Y-0.646 I0.0284 J0.0245 F60.
G1 X0.6215
G3 X0.6744 Y-0.6211 I-0.0036 J0.0765
X0.7128 Y-0.4946 I-0.096 J0.0982
X0.6143 Y-0.417 I-0.0984 J-0.0236
G1 X0.5914
G3 X0.5643 Y-0.43 I0.0013 J-0.0375
X0.5559 Y-0.4617 I0.0284 J-0.0245 F300.
G1 X0.586 Y-0.6157
G3 X0.5944 Y-0.633 I0.0368 J0.0072
X0.6215 Y-0.646 I0.0284 J0.0245 F60.
G1 X0.6452
G3 X0.7023 Y-0.6169 I-0.0044 J0.0792
X0.735 Y-0.4888 I-0.0996 J0.0936
X0.6395 Y-0.417 I-0.0955 J-0.0275
G1 X0.6143
G3 X0.5872 Y-0.43 I0.0013 J-0.0375
X0.5788 Y-0.4618 I0.0284 J-0.0245 F300.
G1 X0.6097 Y-0.6159
G3 X0.6181 Y-0.633 I0.0368 J0.0074
X0.6452 Y-0.646 I0.0284 J0.0245 F60.
G1 X0.6699
G3 X0.7225 Y-0.6206 I-0.0045 J0.0767
X0.7585 Y-0.4879 I-0.0971 J0.0976
X0.6639 Y-0.417 I-0.0946 J-0.0276
G1 X0.6395
G3 X0.6124 Y-0.43 I0.0013 J-0.0375
X0.604 Y-0.4617 I0.0284 J-0.0245 F300.
G1 X0.6344 Y-0.6158
G3 X0.6428 Y-0.633 I0.0368 J0.0073
X0.6699 Y-0.646 I0.0284 J0.0245 F60.
G1 X0.6923
G3 X0.7495 Y-0.6172 I-0.0038 J0.0787
X0.7828 Y-0.4891 I-0.1011 J0.0946
X0.6876 Y-0.417 I-0.0951 J-0.0267
G1 X0.6639
G3 X0.6368 Y-0.43 I0.0013 J-0.0375
X0.6283 Y-0.4613 I0.0284 J-0.0245 F300.
G1 X0.6568 Y-0.6153
G3 X0.6652 Y-0.633 I0.0369 J0.0068
X0.6923 Y-0.646 I0.0284 J0.0245 F60.
G1 X0.7166
G3 X0.7695 Y-0.6211 I-0.0036 J0.0762
X0.8065 Y-0.4886 I-0.0973 J0.0985
X0.7117 Y-0.417 I-0.0947 J-0.0269
G1 X0.6876
G3 X0.6605 Y-0.43 I0.0013 J-0.0375
X0.6521 Y-0.4614 I0.0284 J-0.0245 F300.
G1 X0.6811 Y-0.6155
G3 X0.6895 Y-0.633 I0.0369 J0.0069
X0.7166 Y-0.646 I0.0284 J0.0245 F60.
G1 X0.7406
G3 X0.7934 Y-0.6209 I-0.0039 J0.0764
X0.8302 Y-0.4884 I-0.0974 J0.0985
X0.7357 Y-0.417 I-0.0945 J-0.0269
G1 X0.7117
G3 X0.6846 Y-0.43 I0.0013 J-0.0375
X0.6761 Y-0.4614 I0.0284 J-0.0245 F300.
G1 X0.705 Y-0.6154
G3 X0.7135 Y-0.633 I0.0369 J0.0069
X0.7406 Y-0.646 I0.0284 J0.0245 F60.
G1 X0.7643
G3 X0.8171 Y-0.6209 I-0.0039 J0.0764
X0.8541 Y-0.4883 I-0.0975 J0.0986
X0.7596 Y-0.417 I-0.0944 J-0.0268
G1 X0.7357
G3 X0.7086 Y-0.43 I0.0013 J-0.0375
X0.7001 Y-0.4613 I0.0284 J-0.0245 F300.
G1 X0.7288 Y-0.6154
G3 X0.7372 Y-0.633 I0.0369 J0.0069
X0.7643 Y-0.646 I0.0284 J0.0245 F60.
G1 X0.7882
G3 X0.841 Y-0.6208 I-0.0041 J0.0765
X0.8792 Y-0.4938 I-0.0976 J0.0986
X0.7821 Y-0.417 I-0.097 J-0.0229
G1 X0.7596
G3 X0.7325 Y-0.43 I0.0013 J-0.0375
X0.7241 Y-0.4613 I0.0284 J-0.0245 F300.
G1 X0.7527 Y-0.6154
G3 X0.7611 Y-0.633 I0.0369 J0.0068
X0.7882 Y-0.646 I0.0284 J0.0245 F60.
G1 X0.8122
G3 X0.8649 Y-0.6207 I-0.0043 J0.0766
X0.9029 Y-0.494 I-0.097 J0.0981
X0.8049 Y-0.417 I-0.0979 J-0.0237
G1 X0.7821
G3 X0.755 Y-0.43 I0.0013 J-0.0375
X0.7466 Y-0.4617 I0.0284 J-0.0245 F300.
G1 X0.7767 Y-0.6157
G3 X0.7851 Y-0.633 I0.0368 J0.0072
X0.8122 Y-0.646 I0.0284 J0.0245 F60.
G1 X0.8359
G3 X0.8886 Y-0.6208 I-0.0042 J0.0766
X0.9264 Y-0.4941 I-0.0963 J0.0977
X0.8281 Y-0.417 I-0.0983 J-0.0241
G1 X0.8049
G3 X0.7778 Y-0.43 I0.0013 J-0.0375
X0.7694 Y-0.4619 I0.0284 J-0.0245 F300.
G1 X0.8004 Y-0.6159
G3 X0.8088 Y-0.633 I0.0368 J0.0074
X0.8359 Y-0.646 I0.0284 J0.0245 F60.
G1 X0.8596
G3 X0.9124 Y-0.6209 I-0.0041 J0.0766
X0.9486 Y-0.4883 I-0.0961 J0.0975
X0.8534 Y-0.417 I-0.0952 J-0.0279
G1 X0.8281
G3 X0.801 Y-0.43 I0.0013 J-0.0375
X0.7926 Y-0.462 I0.0284 J-0.0245 F300.
G1 X0.8242 Y-0.616
G3 X0.8325 Y-0.633 I0.0367 J0.0075
X0.8596 Y-0.646 I0.0284 J0.0245 F60.
G1 X0.883
G3 X0.9359 Y-0.6211 I-0.0037 J0.0764
X0.9725 Y-0.4885 I-0.0967 J0.098
X0.8775 Y-0.417 I-0.0949 J-0.0272
G1 X0.8534
G3 X0.8263 Y-0.43 I0.0013 J-0.0375
X0.8179 Y-0.4616 I0.0284 J-0.0245 F300.
G1 X0.8475 Y-0.6156
G3 X0.8559 Y-0.633 I0.0368 J0.0071
X0.883 Y-0.646 I0.0284 J0.0245 F60.
G1 X0.9073
G3 X0.96 Y-0.6207 I-0.0043 J0.0764
X0.9963 Y-0.488 I-0.0977 J0.098
X0.9017 Y-0.417 I-0.0945 J-0.0273
G1 X0.8775
G3 X0.8504 Y-0.43 I0.0013 J-0.0375
X0.842 Y-0.4616 I0.0284 J-0.0245 F300.
G1 X0.8718 Y-0.6157
G3 X0.8802 Y-0.633 I0.0368 J0.0071
X0.9073 Y-0.646 I0.0284 J0.0245 F60.
G1 X0.9313
G3 X0.9839 Y-0.6205 I-0.0045 J0.0764
X1.0201 Y-0.4878 I-0.0981 J0.0981
X0.9259 Y-0.417 I-0.0942 J-0.0273
G1 X0.9017
G3 X0.8747 Y-0.43 I0.0013 J-0.0375
X0.8662 Y-0.4615 I0.0284 J-0.0245 F300.
G1 X0.8958 Y-0.6156
G3 X0.9042 Y-0.633 I0.0368 J0.0071
X0.9313 Y-0.646 I0.0284 J0.0245 F60.
G1 X0.9537
G3 X1.0109 Y-0.6171 I-0.0039 J0.0787
X1.0441 Y-0.4881 I-0.1014 J0.0949
X0.9504 Y-0.417 I-0.0937 J-0.0262
G1 X0.9259
G3 X0.8988 Y-0.43 I0.0013 J-0.0375
X0.8903 Y-0.4611 I0.0284 J-0.0245 F300.
G1 X0.9182 Y-0.6152
G3 X0.9267 Y-0.633 I0.0369 J0.0067
X0.9537 Y-0.646 I0.0284 J0.0245 F60.
G1 X0.9786
G3 X1.0312 Y-0.6207 I-0.0044 J0.0765
X1.0692 Y-0.4932 I-0.0981 J0.0986
X0.9728 Y-0.417 I-0.0963 J-0.0227
G1 X0.9504
G3 X0.9233 Y-0.43 I0.0013 J-0.0375
X0.9148 Y-0.4612 I0.0284 J-0.0245 F300.
G1 X0.943 Y-0.6153
G3 X0.9515 Y-0.633 I0.0369 J0.0068
X0.9786 Y-0.646 I0.0284 J0.0245 F60.
G1 X1.0014
G3 X1.0585 Y-0.617 I-0.0042 J0.079
X1.0932 Y-0.4946 I-0.1009 J0.0947
X0.9952 Y-0.417 I-0.0979 J-0.0229
G1 X0.9728
G3 X0.9457 Y-0.43 I0.0013 J-0.0375
X0.9372 Y-0.4613 I0.0284 J-0.0245 F300.
G1 X0.9658 Y-0.6154
G3 X0.9743 Y-0.633 I0.0369 J0.0068
X1.0014 Y-0.646 I0.0284 J0.0245 F60.
G1 X1.0254
G3 X1.0824 Y-0.6169 I-0.0045 J0.0792
X1.1167 Y-0.4946 I-0.1001 J0.094
X1.0182 Y-0.417 I-0.0985 J-0.0237
G1 X0.9952
G3 X0.9681 Y-0.43 I0.0013 J-0.0375
X0.9597 Y-0.4617 I0.0284 J-0.0245 F300.
G1 X0.9899 Y-0.6157
G3 X0.9983 Y-0.633 I0.0368 J0.0072
X1.0254 Y-0.646 I0.0284 J0.0245 F60.
G1 X1.0491
G3 X1.1062 Y-0.6169 I-0.0043 J0.0792
X1.1389 Y-0.4889 I-0.0996 J0.0937
X1.0433 Y-0.417 I-0.0955 J-0.0275
G1 X1.0182
G3 X0.9911 Y-0.43 I0.0013 J-0.0375
X0.9827 Y-0.4618 I0.0284 J-0.0245 F300.
G1 X1.0136 Y-0.6159
G3 X1.022 Y-0.633 I0.0368 J0.0074
X1.0491 Y-0.646 I0.0284 J0.0245 F60.
G1 X1.0738
G3 X1.1264 Y-0.6206 I-0.0045 J0.0767
X1.1624 Y-0.4879 I-0.0971 J0.0976
X1.0678 Y-0.417 I-0.0946 J-0.0275
G1 X1.0433
G3 X1.0162 Y-0.43 I0.0013 J-0.0375
X1.0079 Y-0.4617 I0.0284 J-0.0245 F300.
G1 X1.0383 Y-0.6158
G3 X1.0467 Y-0.633 I0.0368 J0.0073
X1.0738 Y-0.646 I0.0284 J0.0245 F60.
G1 X1.0981
G3 X1.1505 Y-0.6203 I-0.005 J0.0766
X1.1862 Y-0.4874 I-0.0982 J0.0976
X1.0921 Y-0.417 I-0.0941 J-0.0276
G1 X1.0678
G3 X1.0407 Y-0.43 I0.0013 J-0.0375
X1.0323 Y-0.4617 I0.0284 J-0.0245 F300.
G1 X1.0626 Y-0.6158
G3 X1.071 Y-0.633 I0.0368 J0.0072
X1.0981 Y-0.646 I0.0284 J0.0245 F60.
G1 X1.1205
G3 X1.1734 Y-0.6211 I-0.0035 J0.0761
X1.2105 Y-0.4886 I-0.0976 J0.0987
X1.1158 Y-0.417 I-0.0946 J-0.0267
G1 X1.0921
G3 X1.065 Y-0.43 I0.0013 J-0.0375
X1.0565 Y-0.4613 I0.0284 J-0.0245 F300.
G1 X1.0849 Y-0.6153
G3 X1.0934 Y-0.633 I0.0369 J0.0068
X1.1205 Y-0.646 I0.0284 J0.0245 F60.
G1 X1.1445
G3 X1.1973 Y-0.621 I-0.0038 J0.0763
X1.2342 Y-0.4884 I-0.0976 J0.0987
X1.1397 Y-0.417 I-0.0945 J-0.0268
G1 X1.1158
G3 X1.0887 Y-0.43 I0.0013 J-0.0375
X1.0802 Y-0.4613 I0.0284 J-0.0245 F300.
G1 X1.1089 Y-0.6154
G3 X1.1174 Y-0.633 I0.0369 J0.0069
X1.1445 Y-0.646 I0.0284 J0.0245 F60.
G1 X1.1682
G3 X1.221 Y-0.621 I-0.0039 J0.0764
X1.2581 Y-0.4885 I-0.0975 J0.0987
X1.1636 Y-0.417 I-0.0945 J-0.0267
G1 X1.1397
G3 X1.1126 Y-0.43 I0.0013 J-0.0375
X1.1041 Y-0.4613 I0.0284 J-0.0245 F300.
G1 X1.1326 Y-0.6154
G3 X1.1411 Y-0.633 I0.0369 J0.0068
X1.1682 Y-0.646 I0.0284 J0.0245 F60.
G1 X1.1921
G3 X1.2449 Y-0.6209 I-0.0041 J0.0766
X1.2832 Y-0.4939 I-0.0975 J0.0986
X1.1859 Y-0.417 I-0.0971 J-0.0229
G1 X1.1636
G3 X1.1365 Y-0.43 I0.0013 J-0.0375
X1.128 Y-0.4613 I0.0284 J-0.0245 F300.
G1 X1.1566 Y-0.6154
G3 X1.165 Y-0.633 I0.0369 J0.0068
X1.1921 Y-0.646 I0.0284 J0.0245 F60.
G1 X1.2161
G3 X1.2688 Y-0.6208 I-0.0043 J0.0766
X1.3068 Y-0.4941 I-0.0969 J0.0981
X1.2088 Y-0.417 I-0.098 J-0.0237
G1 X1.1859
G3 X1.1589 Y-0.43 I0.0013 J-0.0375
X1.1505 Y-0.4617 I0.0284 J-0.0245 F300.
G1 X1.1806 Y-0.6157
G3 X1.189 Y-0.633 I0.0368 J0.0072
X1.2161 Y-0.646 I0.0284 J0.0245 F60.
G1 X1.2398
G3 X1.2925 Y-0.6209 I-0.0042 J0.0766
X1.3304 Y-0.4942 I-0.0962 J0.0978
X1.232 Y-0.417 I-0.0984 J-0.0241
G1 X1.2088
G3 X1.1817 Y-0.43 I0.0013 J-0.0375
X1.1733 Y-0.4619 I0.0284 J-0.0245 F300.
G1 X1.2043 Y-0.6159
G3 X1.2127 Y-0.633 I0.0368 J0.0074
X1.2398 Y-0.646 I0.0284 J0.0245 F60.
G1 X1.2635
G3 X1.3163 Y-0.6209 I-0.004 J0.0766
X1.3525 Y-0.4884 I-0.096 J0.0975
X1.2573 Y-0.417 I-0.0953 J-0.0279
G1 X1.232
G3 X1.2049 Y-0.43 I0.0013 J-0.0375
X1.1965 Y-0.462 I0.0284 J-0.0245 F300.
G1 X1.228 Y-0.616
G3 X1.2364 Y-0.633 I0.0367 J0.0075
X1.2635 Y-0.646 I0.0284 J0.0245 F60.
G1 X1.2869
G3 X1.3439 Y-0.6168 I-0.0045 J0.079
X1.3765 Y-0.4886 I-0.1008 J0.0938
X1.2814 Y-0.417 I-0.095 J-0.0272
G1 X1.2573
G3 X1.2302 Y-0.43 I0.0013 J-0.0375
X1.2218 Y-0.4616 I0.0284 J-0.0245 F300.
G1 X1.2514 Y-0.6156
G3 X1.2598 Y-0.633 I0.0368 J0.0071
X1.2869 Y-0.646 I0.0284 J0.0245 F60.
G1 X1.3112
G3 X1.3639 Y-0.6207 I-0.0042 J0.0764
X1.4002 Y-0.4881 I-0.0976 J0.098
X1.3056 Y-0.417 I-0.0945 J-0.0273
G1 X1.2814
G3 X1.2543 Y-0.43 I0.0013 J-0.0375
X1.2459 Y-0.4616 I0.0284 J-0.0245 F300.
G1 X1.2757 Y-0.6157
G3 X1.2841 Y-0.633 I0.0368 J0.0071
X1.3112 Y-0.646 I0.0284 J0.0245 F60.
G1 X1.3352
G3 X1.3926 Y-0.6175 I-0.0035 J0.0792
X1.4277 Y-0.4939 I-0.1007 J0.0954
X1.3318 Y-0.417 I-0.0958 J-0.0212
G1 X1.3056
G3 X1.2785 Y-0.43 I0.0013 J-0.0375
X1.2701 Y-0.4615 I0.0284 J-0.0245 F300.
G1 X1.2997 Y-0.6156
G3 X1.3081 Y-0.633 I0.0368 J0.0071
X1.3352 Y-0.646 I0.0284 J0.0245 F60.
G1 X1.3604
G3 X1.418 Y-0.6178 I-0.0032 J0.0795
G2 X1.4817 Y-0.5739 I0.1223 J-0.1093
G3 X1.4612 Y-0.4807 I-0.2708 J-0.0107
X1.4118 Y-0.4298 I-0.1035 J-0.0509
G1 X1.3952 Y-0.4227
X1.3778 Y-0.4184
X1.3598 Y-0.417
X1.3318
G3 X1.3047 Y-0.43 I0.0013 J-0.0375
X1.2962 Y-0.4613 I0.0284 J-0.0245 F300.
G1 X1.3248 Y-0.6154
G3 X1.3333 Y-0.633 I0.0369 J0.0068
X1.3604 Y-0.646 I0.0284 J0.0245 F60.
G1 X1.3856
G3 X1.4345 Y-0.6341 I-0.0154 J0.1688
G2 X1.543 Y-0.6293 I0.0607 J-0.1449
G1 X1.5672 Y-0.6382
X1.5816 Y-0.6426
X1.5963 Y-0.6452
X1.6113 Y-0.6461
G3 X1.6384 Y-0.6333 I-0.0011 J0.0375
X1.6101 Y-0.5712 I-0.0283 J0.0246 F300.
G1 X1.3869 Y-0.571
G3 X1.3585 Y-0.633 I0. J-0.0375
X1.3856 Y-0.646 I0.0284 J0.0245 F60.
G1 X1.5786
X1.6123 Y-0.6461
X1.6235 Y-0.6473
X1.6258 Z0.4336
X1.6295 Y-0.6468 Z0.4341
X1.6331 Y-0.6463 Z0.435
X1.6366 Y-0.6458 Z0.4364
X1.6393 Y-0.6445 Z0.4381
X1.6419 Y-0.6433 Z0.4401
X1.6443 Y-0.6422 Z0.4424
X1.6464 Y-0.6412 Z0.445
X1.6483 Y-0.6398 Z0.4484
X1.6498 Y-0.6386 Z0.4521
X1.6508 Y-0.6377 Z0.4561
X1.6515 Y-0.6372 Z0.4602
X1.6517 Y-0.637 Z0.4644
G0 Z1.7264
X-0.1426 Y-0.4191
Z0.5085
G1 Z0.471 F60.
X-0.1425 Y-0.4188 Z0.4664
X-0.1423 Y-0.418 Z0.462
X-0.142 Y-0.4167 Z0.4577
X-0.1415 Y-0.4149 Z0.4535
X-0.1409 Y-0.4127 Z0.4497
X-0.1402 Y-0.4099 Z0.4461
X-0.1394 Y-0.4068 Z0.4429
X-0.1385 Y-0.4034 Z0.4401
X-0.1376 Y-0.3996 Z0.4378
X-0.1365 Y-0.3956 Z0.4359
X-0.1355 Y-0.3914 Z0.4346
X-0.1344 Y-0.3871 Z0.4337
X-0.1333 Y-0.3828 Z0.4335
G3 X-0.1039 Y-0.1786 I-0.9274 J0.2376
G1 Y-0.1757
X-0.1042 Y-0.1697
G2 X-0.1129 Y-0.0362 I0.134 J0.0758
G1 X-0.1085 Y-0.0237
X-0.1054 Y-0.0108
X-0.1037 Y0.0024
G3 X-0.1145 Y0.0304 I-0.0375 J0.0016
X-0.1787 Y0.004 I-0.0266 J-0.0264 F300.
G1 X-0.1789 Y-0.1744
G3 X-0.1169 Y-0.2028 I0.0375 J0.
X-0.1039 Y-0.1757 I-0.0245 J0.0284 F60.
G1 Y-0.009
G2 X-0.0931 Y0.0642 I0.2293 J0.0037
G1 X-0.0862 Y0.0808
X-0.0818 Y0.0898
X-0.0673 Y0.1145
X-0.0664 Y0.1157
X-0.0577 Y0.1258
X-0.0524 Y0.1318
X-0.0507 Y0.1342
X-0.0491 Y0.1367
G2 X-0.0363 Y0.1582 I0.8166 J-0.4726
X-0.0048 Y0.206 I0.8037 J-0.4941 F300.
X0.0241 Y0.2219 I0.0307 J-0.0215
G1 X1.4536 Y0.291
G2 X1.4839 Y0.2779 I0.0018 J-0.0375
X1.5347 Y0.2132 I-0.7164 J-0.6139
G1 X1.5368 Y0.2105
G3 X1.5639 Y0.1975 I0.0284 J0.0245 F60.
G1 X1.5786
X1.6123 Y0.1974
G2 X1.7245 Y0.1585 I-0.0084 J-0.2061
X1.8041 Y0.0022 I-0.1195 J-0.1592
G1 X1.8043 Y-0.009
X1.8044 Y-0.1051
X1.8046 Y-0.108
X1.805 Y-0.111
G2 X1.8089 Y-0.1357 I-0.3281 J-0.0638
G1 X1.8093 Y-0.1398 F300.
X1.8095 Y-0.1428
Y-0.1458
X1.8041 Y-0.2409
X1.8036 Y-0.2453
X1.8033 Y-0.2469 F60.
G2 X1.7957 Y-0.2751 I-0.3264 J0.0722
G1 Y-0.2752
G2 X1.781 Y-0.3123 I-0.1616 J0.0426
G1 X1.7663 Y-0.3349
X1.7583 Y-0.3461
G2 X1.7246 Y-0.3779 I-0.175 J0.1521
G1 X1.702 Y-0.3921
G2 X1.6123 Y-0.4166 I-0.0943 J0.1684
G1 X1.5786 Y-0.417
X1.3598
G3 X1.3327 Y-0.43 I0.0013 J-0.0375
G1 X1.3298 Y-0.4334 Z0.4337
X1.3268 Y-0.4368 Z0.4346
X1.324 Y-0.4401 Z0.4359
X1.3213 Y-0.4432 Z0.4378
X1.3188 Y-0.4461 Z0.4401
X1.3165 Y-0.4488 Z0.4429
X1.3144 Y-0.4512 Z0.4461
X1.3126 Y-0.4534 Z0.4497
X1.311 Y-0.4551 Z0.4535
X1.3098 Y-0.4565 Z0.4577
X1.3089 Y-0.4576 Z0.462
X1.3084 Y-0.4582 Z0.4664
X1.3082 Y-0.4584 Z0.471
G0 Z2.1264
(2D ADAPTIVE ROUGHING5)
G0 X0.7624 Y-0.6207
Z2.1264
Z0.6331
G3 X0.7721 Y-0.4489 Z0.6153 I-0.0535 J0.0892 F40.
X0.6093 Y-0.5031 Z0.5976 I-0.063 J-0.0823
X0.7194 Y-0.634 Z0.5799 I0.0995 J-0.0281
X0.8002 Y-0.4839 Z0.5622 I-0.0105 J0.1025
X0.6314 Y-0.4641 Z0.5444 I-0.0911 J-0.0474
X0.6752 Y-0.6278 Z0.5267 I0.0775 J-0.067
X0.8108 Y-0.5271 Z0.509 I0.0336 J0.0964
X0.6675 Y-0.4385 Z0.4913 I-0.1017 J-0.0043
X0.6381 Y-0.6038 Z0.4736 I0.0414 J-0.0927
X0.8021 Y-0.5703 Z0.4558 I0.0707 J0.0724
X0.7108 Y-0.4306 Z0.4381 I-0.0931 J0.0389
X0.6149 Y-0.5666 Z0.4204 I-0.0018 J-0.1006
X0.7762 Y-0.6055 Z0.4027 I0.0938 J0.0353
X0.7529 Y-0.4417 Z0.3849 I-0.0672 J0.074
X0.6097 Y-0.5235 Z0.3672 I-0.0438 J-0.0895
X0.7381 Y-0.6261 Z0.3495 I0.099 J-0.0077
X0.786 Y-0.4694 Z0.3318 I-0.0293 J0.0946
X0.6232 Y-0.4826 Z0.314 I-0.0769 J-0.0619
X0.6953 Y-0.6286 Z0.2963 I0.0856 J-0.0485
X0.8041 Y-0.5081 Z0.2786 I0.0135 J0.0972
X0.6524 Y-0.4517 Z0.2609 I-0.095 J-0.0232
X0.6559 Y-0.6129 Z0.2431 I0.0565 J-0.0795
X0.804 Y-0.5505 Z0.2254 I0.0529 J0.0815
X0.6917 Y-0.4362 Z0.2077 I-0.095 J0.019
X0.6271 Y-0.5822 Z0.19 I0.0173 J-0.095
X0.7862 Y-0.5884 Z0.1722 I0.0817 J0.0509
X0.7334 Y-0.4387 Z0.1545 I-0.0772 J0.0569
X0.6141 Y-0.5426 Z0.1368 I-0.0244 J-0.0925
X0.7542 Y-0.615 Z0.1191 I0.0946 J0.0114
X0.7698 Y-0.4586 Z0.1013 I-0.0454 J0.0835
X0.6191 Y-0.5017 Z0.0836 I-0.0607 J-0.0727
X0.7145 Y-0.6254 Z0.0659 I0.0897 J-0.0295
X0.794 Y-0.4916 Z0.0482 I-0.0056 J0.0939
X0.6408 Y-0.4671 Z0.0304 I-0.0849 J-0.0397
X0.6744 Y-0.618 Z0.0127 I0.068 J-0.0641
X0.8019 Y-0.5314 Z-0.005 I0.0344 J0.0866
X0.6156 I-0.0931 J0.
X0.8019 I0.0931 J0.
G1 X0.8025 Y-0.4989 F60.
G3 X0.7684 Y-0.4386 I-0.0748 J-0.0025
X0.6353 Y-0.4449 I-0.0626 J-0.0865
X0.782 Y-0.6188 I0.0734 J-0.087
X0.8148 Y-0.5728 I-0.0734 J0.087
X0.8236 Y-0.4822 I-0.1216 J0.0575
X0.7435 Y-0.4132 I-0.0965 J-0.031
G1 X0.7276 Y-0.412
X0.6775
G3 X0.6331 Y-0.4247 I0.0001 J-0.0841
X0.5862 Y-0.5084 I0.0512 J-0.0838
X0.5992 Y-0.5355 I0.0375 J0.0013
X0.6514 Y-0.5324 I0.0245 J0.0284 F300.
G1 X0.7039 Y-0.4747
G3 X0.7046 Y-0.425 I-0.0277 J0.0253
X0.6775 Y-0.412 I-0.0284 J-0.0245 F60.
G1 X0.647
X0.641 Y-0.4123
G3 X0.5863 Y-0.4766 I0.0097 J-0.0637
G1 X0.5867 Y-0.4818
X0.5875 Y-0.4868
X0.5888 Y-0.4918
X0.5905 Y-0.4967
X0.5926 Y-0.5014
X0.5951 Y-0.5059
G3 X0.6641 Y-0.5308 I0.0503 J0.0313 F300.
X0.6763 Y-0.4207 I-0.0192 J0.0579
X0.647 Y-0.412 I-0.0315 J-0.0522 F60.
G1 X0.6303
X0.6256 Y-0.4121
X0.6236 Y-0.4122
X0.6223
X0.6179 Y-0.4126
G3 X0.6042 Y-0.4318 I0.0045 J-0.0177
G1 X0.6046 Y-0.4344
X0.6053 Y-0.4369
G3 X0.6401 Y-0.4329 I0.0168 J0.0066 F300.
X0.6223 Y-0.4122 I-0.0179 J0.0026 F60.
G1 X0.6191 Y-0.4123
X0.6174 Y-0.4127
X0.6162 Y-0.413
X0.6147 Y-0.4133
X0.6129 Y-0.4138
G3 X0.6081 Y-0.4237 I0.0033 J-0.0077
X0.6242 Y-0.4193 I0.0081 J0.0022
X0.6147 Y-0.4133 I-0.0081 J-0.0022
G1 X0.6135 Y-0.4135
X0.6118 Y-0.4142
X0.6106 Y-0.4147
X0.6091 Y-0.4152
X0.6072 Y-0.4161
G3 X0.6029 Y-0.4296 I0.0054 J-0.0092
X0.6157 Y-0.4354 I0.0097 J0.0043
G1 X0.617 Y-0.4349 F300.
X0.6183 Y-0.4342
G3 X0.6091 Y-0.4152 I-0.0057 J0.009 F60.
G1 X0.6079 Y-0.4157
X0.606 Y-0.4167
G3 X0.5862 Y-0.4513 I0.0186 J-0.0336
G1 Y-0.5586
G3 X0.6031 Y-0.6099 I0.0875 J0.0003
X0.6824 Y-0.651 I0.0793 J0.056
X0.7095 Y-0.638 I-0.0013 J0.0375
X0.7067 Y-0.5861 I-0.0284 J0.0245 F300.
G1 X0.6493 Y-0.5325
G3 X0.5992 Y-0.5315 I-0.0256 J-0.0274
X0.5862 Y-0.5586 I0.0245 J-0.0284 F60.
G1 Y-0.5895
G3 X0.5944 Y-0.6194 I0.0551 J-0.0009
X0.6504 Y-0.651 I0.056 J0.0338
X0.6797 Y-0.6422 I-0.0021 J0.0597
X0.7054 Y-0.5736 I-0.0314 J0.0509 F300.
X0.5949 Y-0.5602 I-0.0583 J-0.0181
X0.5862 Y-0.5895 I0.0523 J-0.0315 F60.
G1 Y-0.6117
Y-0.6131
Y-0.6142
G3 X0.5934 Y-0.635 I0.0452 J0.004
X0.6212 Y-0.6453 I0.0232 J0.0201
G1 X0.624 Y-0.6447 F300.
X0.6267 Y-0.6439
G3 X0.6444 Y-0.6024 I-0.01 J0.0288
X0.6014 Y-0.5888 I-0.0277 J-0.0127
X0.5862 Y-0.6142 I0.0153 J-0.0264 F60.
X0.6191 Y-0.6507 I0.0385 J0.0016
G1 X0.6303 Y-0.651
X0.7403
G3 X0.8173 Y-0.6105 I-0.0037 J0.1004
X0.847 Y-0.4812 I-0.1083 J0.093
X0.7529 Y-0.4119 I-0.0944 J-0.0298
G1 X0.7276 Y-0.412
G3 X0.7005 Y-0.425 I0.0013 J-0.0375
X0.6916 Y-0.4524 I0.0284 J-0.0245 F300.
G1 X0.7042 Y-0.6164
G3 X0.7132 Y-0.638 I0.0374 J0.0029
X0.7403 Y-0.651 I0.0284 J0.0245 F60.
G1 X0.7712
G3 X0.8342 Y-0.6205 I-0.004 J0.0886
X0.8726 Y-0.4869 I-0.1031 J0.102
X0.7763 Y-0.412 I-0.0964 J-0.0246
G1 X0.7529
G3 X0.7258 Y-0.425 I0.0013 J-0.0375
X0.717 Y-0.4536 I0.0284 J-0.0245 F300.
G1 X0.7352 Y-0.6177
G3 X0.7441 Y-0.638 I0.0373 J0.0041
X0.7712 Y-0.651 I0.0284 J0.0245 F60.
G1 X0.7987
G3 X0.8568 Y-0.6235 I-0.0045 J0.0844
X0.8965 Y-0.4855 I-0.102 J0.104
X0.7999 Y-0.412 I-0.0967 J-0.0268
G1 X0.7763
G3 X0.7492 Y-0.425 I0.0013 J-0.0375
X0.7404 Y-0.4545 I0.0284 J-0.0245 F300.
G1 X0.7629 Y-0.6186
G3 X0.7716 Y-0.638 I0.0372 J0.0051
X0.7987 Y-0.651 I0.0284 J0.0245 F60.
G1 X0.8246
G3 X0.8824 Y-0.623 I-0.0046 J0.0831
X0.9206 Y-0.4847 I-0.1031 J0.1029
X0.824 Y-0.412 I-0.0967 J-0.0279
G1 X0.7999
G3 X0.7728 Y-0.425 I0.0013 J-0.0375
X0.7641 Y-0.455 I0.0284 J-0.0245 F300.
G1 X0.7888 Y-0.6191
G3 X0.7975 Y-0.638 I0.0371 J0.0056
X0.8246 Y-0.651 I0.0284 J0.0245 F60.
G1 X0.8498
G3 X0.9075 Y-0.6228 I-0.0046 J0.0825
X0.9448 Y-0.4843 I-0.1037 J0.1022
X0.8482 Y-0.412 I-0.0966 J-0.0284
G1 X0.824
G3 X0.7969 Y-0.425 I0.0013 J-0.0375
X0.7882 Y-0.4553 I0.0284 J-0.0245 F300.
G1 X0.8141 Y-0.6194
G3 X0.8227 Y-0.638 I0.037 J0.0058
X0.8498 Y-0.651 I0.0284 J0.0245 F60.
G1 X0.875
G3 X0.9325 Y-0.6224 I-0.005 J0.0822
X0.969 Y-0.4837 I-0.1044 J0.1017
X0.8727 Y-0.412 I-0.0964 J-0.0289
G1 X0.8482
G3 X0.8211 Y-0.425 I0.0013 J-0.0375
X0.8125 Y-0.4555 I0.0284 J-0.0245 F300.
G1 X0.8393 Y-0.6196
G3 X0.8479 Y-0.638 I0.037 J0.006
X0.875 Y-0.651 I0.0284 J0.0245 F60.
G1 X0.8997
G3 X0.9572 Y-0.6224 I-0.0049 J0.0818
X0.9918 Y-0.4778 I-0.1047 J0.1014
X0.933 Y-0.418 I-0.0929 J-0.0326
G1 X0.9163 Y-0.4135
X0.8991 Y-0.412
X0.8727
G3 X0.8456 Y-0.425 I0.0013 J-0.0375
X0.837 Y-0.4556 I0.0284 J-0.0245 F300.
G1 X0.864 Y-0.6196
G3 X0.8726 Y-0.638 I0.037 J0.0061
X0.8997 Y-0.651 I0.0284 J0.0245 F60.
G1 X0.9241
G3 X0.9816 Y-0.6225 I-0.0045 J0.0815
X1.0193 Y-0.4885 I-0.1055 J0.102
X0.9222 Y-0.412 I-0.097 J-0.0233
G1 X0.8991
G3 X0.872 Y-0.425 I0.0013 J-0.0375
X0.8634 Y-0.4551 I0.0284 J-0.0245 F300.
G1 X0.8883 Y-0.6192
G3 X0.897 Y-0.638 I0.0371 J0.0056
X0.9241 Y-0.651 I0.0284 J0.0245 F60.
G1 X0.948
G3 X1.0057 Y-0.6229 I-0.0039 J0.0812
X1.044 Y-0.4898 I-0.1047 J0.1022
X0.9446 Y-0.412 I-0.0993 J-0.0244
G1 X0.9222
G3 X0.8951 Y-0.425 I0.0013 J-0.0375
X0.8865 Y-0.4553 I0.0284 J-0.0245 F300.
G1 X0.9123 Y-0.6194
G3 X0.9209 Y-0.638 I0.037 J0.0058
X0.948 Y-0.651 I0.0284 J0.0245 F60.
G1 X0.9733
G3 X1.0307 Y-0.6224 I-0.0047 J0.0815
X1.0465 Y-0.6034 I-0.0639 J0.0692
X1.0673 Y-0.5329 I-0.1088 J0.0704
X1.0543 Y-0.5058 I-0.0375 J-0.0013
X0.9991 Y-0.5128 I-0.0245 J-0.0284 F300.
G1 X0.9438 Y-0.5921
G3 X0.9462 Y-0.638 I0.0308 J-0.0214
X0.9733 Y-0.651 I0.0284 J0.0245 F60.
G1 X0.9985
X1.0045 Y-0.6507
X1.0104 Y-0.6497
G3 X1.0673 Y-0.5751 I-0.0199 J0.0741
G1 X1.0668 Y-0.5689
X1.0657 Y-0.5629
X1.0641 Y-0.5569
X1.062 Y-0.5511
X1.0593 Y-0.5455
G3 X0.976 Y-0.5143 I-0.0595 J-0.0319 F300.
X0.9688 Y-0.6433 I0.0249 J-0.0661
X0.9985 Y-0.651 I0.0322 J0.0629 F60.
G1 X1.0197
X1.0257 Y-0.6507
G3 X1.0673 Y-0.6015 I-0.0082 J0.0492
X1.0564 Y-0.5732 I-0.0462 J-0.0016
X1.0077 Y-0.5589 I-0.0353 J-0.0299 F300.
X0.9913 Y-0.6402 I0.0137 J-0.0451
X1.0197 Y-0.651 I0.03 J0.0363 F60.
G1 X1.0232
X1.0345 Y-0.6507
G3 X1.0673 Y-0.6142 I-0.0055 J0.0379
G1 Y-0.5973
Y-0.5125
G3 X0.9702 Y-0.4119 I-0.0976 J0.003
G1 X0.9658 Y-0.4123
X0.9615 Y-0.4133
X0.9573 Y-0.4147
X0.9533 Y-0.4166
X0.9496 Y-0.419
X0.9462 Y-0.4218
X0.9431 Y-0.425
G3 X0.9443 Y-0.4752 I0.0284 J-0.0245 F300.
G1 X1.0026 Y-0.537
G3 X1.0543 Y-0.5396 I0.0273 J0.0257
X1.0673 Y-0.5125 I-0.0245 J0.0284 F60.
G1 Y-0.4748
X1.067 Y-0.4688
G3 X1.0016 Y-0.4121 I-0.0649 J-0.0087
G1 X0.9955 Y-0.4126
X0.9894 Y-0.4137
X0.9835 Y-0.4155
X0.9777 Y-0.4178
X0.9723 Y-0.4207
G3 X0.9455 Y-0.4913 I0.0315 J-0.0523 F300.
X1.0588 Y-0.5042 I0.0595 J0.0187
X1.0673 Y-0.4748 I-0.0538 J0.0316 F60.
G1 Y-0.4536
Y-0.4523
Y-0.4513
G3 X1.0569 Y-0.424 I-0.0436 J-0.0011
G1 X1.0534 Y-0.4213
X1.0496 Y-0.4191
X1.0456 Y-0.4173
X1.0413 Y-0.416
X1.037 Y-0.4153
X1.0326 Y-0.415
X1.0282 Y-0.4153
X1.024 Y-0.4161 F300.
X1.0199 Y-0.4174
G3 X1.0019 Y-0.4671 I0.0125 J-0.0326
X1.0536 Y-0.4779 I0.0305 J0.017
X1.0673 Y-0.4513 I-0.0212 J0.0278 F60.
X1.0345 Y-0.4123 I-0.0384 J0.001
G1 X1.0232 Y-0.412
X0.9446
G3 X0.9175 Y-0.425 I0.0013 J-0.0375
G1 X0.9146 Y-0.4284 Z-0.0047
X0.9117 Y-0.4318 Z-0.0039
X0.9089 Y-0.4351 Z-0.0026
X0.9062 Y-0.4382 Z-0.0007
X0.9036 Y-0.4411 Z0.0016
X0.9013 Y-0.4438 Z0.0044
X0.8992 Y-0.4462 Z0.0076
X0.8974 Y-0.4484 Z0.0112
X0.8959 Y-0.4501 Z0.0151
X0.8947 Y-0.4515 Z0.0192
X0.8938 Y-0.4526 Z0.0235
X0.8932 Y-0.4532 Z0.028
X0.8931 Y-0.4534 Z0.0325
G0 Z2.1264
(2D CONTOUR3)
G64 P0.0004 Q0.0004
G0 X0.7432 Y-0.5195
Z2.1264
Z1.7264
G1 Z1.5657 F80.
Z0.0375
G19 G3 Y-0.482 Z0. J0.0375 K0. F30.
G1 Y-0.4445
G17 G3 X0.7057 Y-0.407 I-0.0375 J0.
G1 X0.5906
G3 X0.5812 Y-0.4163 I0. J-0.0094
G1 Y-0.6467
G3 X0.5906 Y-0.656 I0.0094 J0.
G1 X1.063
G3 X1.0723 Y-0.6467 I0. J0.0094
G1 Y-0.4163
G3 X1.063 Y-0.407 I-0.0094 J0.
G1 X0.7057
X0.5906
G3 X0.5812 Y-0.4163 I0. J-0.0094
G1 Y-0.6467
G3 X0.5906 Y-0.656 I0.0094 J0.
G1 X1.063
G3 X1.0723 Y-0.6467 I0. J0.0094
G1 Y-0.4163
G3 X1.063 Y-0.407 I-0.0094 J0.
G1 X0.7057
G3 X0.6682 Y-0.4445 I0. J-0.0375
G1 Y-0.482
G19 G2 Y-0.5195 Z0.0375 J0. K0.0375
G0 Z2.1264
G17
(2D CONTOUR4)
G0 X1.803 Y-0.5195
Z2.1264
Z1.7264
G1 Z1.5657 F80.
Z0.4706
G19 G3 Y-0.482 Z0.4331 J0.0375 K0. F40.
G1 Y-0.4445
G17 G3 X1.7655 Y-0.407 I-0.0375 J0.
G1 X0.4655
X0.0933
X-0.0067
G3 X-0.0442 Y-0.4445 I0. J-0.0375
G1 Y-0.482
G19 G2 Y-0.5195 Z0.4706 J0. K0.0375
G0 Z1.7264
X-0.2442 Y-0.5435
G1 Z1.5657 F80.
Z0.4706
G2 Y-0.581 Z0.4331 J-0.0375 K0. F40.
G1 Y-0.6185
G17 G3 X-0.2067 Y-0.656 I0.0375 J0.
G1 X1.7655
G3 X1.803 Y-0.6185 I0. J0.0375
G1 Y-0.581
G19 G3 Y-0.5435 Z0.4706 J0. K0.0375
G0 Z1.7264
Y-0.5195
G1 Z1.5657 F80.
Z0.4706
G3 Y-0.482 Z0.4331 J0.0375 K0. F40.
G1 Y-0.4445
G17 G3 X1.7655 Y-0.407 I-0.0375 J0.
G1 X0.4655
X0.0933
X-0.0067
G3 X-0.0442 Y-0.4445 I0. J-0.0375
G1 Y-0.482
G19 G2 Y-0.5195 Z0.4706 J0. K0.0375
G0 Z1.7264
X-0.2442 Y-0.5435
G1 Z1.5657 F80.
Z0.4706
G2 Y-0.581 Z0.4331 J-0.0375 K0. F40.
G1 Y-0.6185
G17 G3 X-0.2067 Y-0.656 I0.0375 J0.
G1 X1.7655
G3 X1.803 Y-0.6185 I0. J0.0375
G1 Y-0.581
G19 G3 Y-0.5435 Z0.4706 J0. K0.0375
G0 Z2.1264
G17
M5
M9
G53 G0 Z0.
M30
%
