%
(BASE OP2)
(MACHINE)
(  VENDOR CALLUM)
(  MODEL MILL R1)
(  DESCRIPTION 14X8X14 MILL)
(T35 D=0.375 CR=0. - ZMIN=0.76 - FLAT END MILL)
G90 G94 G17 G91.1
G20
G53 G0 Z-0.6
(ADAPTIVE2)
T35 M6
S5000 M3
G17 G90 G94
G55
G64 P0.004 Q0.004
M8
G0 X-1.0627 Y-1.9942
G43 Z1.57 H35
G0 Z1.17
Z0.835
G1 Z0.7975 F50.
Y-1.9939 Z0.793
X-1.0625 Y-1.9932 Z0.7885
X-1.0621 Y-1.9918 Z0.7842
X-1.0617 Y-1.99 Z0.7801
X-1.0611 Y-1.9878 Z0.7762
X-1.0604 Y-1.9851 Z0.7726
X-1.0596 Y-1.982 Z0.7694
X-1.0587 Y-1.9785 Z0.7666
X-1.0578 Y-1.9748 Z0.7643
X-1.0567 Y-1.9708 Z0.7624
X-1.0557 Y-1.9666 Z0.7611
X-1.0545 Y-1.9623 Z0.7603
X-1.0534 Y-1.9579 Z0.76
G3 X-1.0241 Y-1.7537 I-0.9274 J0.2376
G1 Y-1.7426
X-1.0213 Y-1.7212
X-1.0209 Y-1.711
X-1.0213 Y-1.6986
X-1.023 Y-1.6833
X-1.0316 Y-1.6398
X-1.0307 Y-1.5954
X-1.0221 Y-1.5519
X-1.0079 Y-1.5099
X-0.9896 Y-1.4694
X-0.9683 Y-1.4305
X-0.9448 Y-1.3929
X-0.9196 Y-1.3564
X-0.8931 Y-1.3207
X-0.8657 Y-1.2858
X-0.8376 Y-1.2515
X-0.809 Y-1.2176
X-0.78 Y-1.184
X-0.7507 Y-1.1507
X-0.7211 Y-1.1176
X-0.6914 Y-1.0847
X-0.6616 Y-1.0518
X-0.6316 Y-1.0191
X-0.6016 Y-0.9864
X-0.5715 Y-0.9538
X-0.5414 Y-0.9212
X-0.481 Y-0.8562
X-0.3904 Y-0.7587
X-0.2391 Y-0.5963
X0.124 Y-0.2069
X1.1529 Y0.8965
X1.1609 Y0.9041
X1.1699 Y0.9107
X1.1893 Y0.9215
X1.232 Y0.9336
X1.2763 Y0.9342
X1.3201 Y0.9267
X1.3624 Y0.9133
X1.4031 Y0.8956
X1.4422 Y0.8748
X1.48 Y0.8515
X1.5167 Y0.8266
X1.5525 Y0.8003
X1.5875 Y0.773
X1.6219 Y0.745
X1.6559 Y0.7165
X1.6895 Y0.6875
X1.7228 Y0.6582
X1.756 Y0.6287
X1.7889 Y0.599
X1.8218 Y0.5692
X1.8545 Y0.5393
X1.8872 Y0.5092
X1.9198 Y0.4792
X1.9524 Y0.449
X2.0175 Y0.3887
X2.115 Y0.2981
X2.2085 Y0.211
X2.2187 Y0.2028
X2.2301 Y0.1962
X2.2423 Y0.1914
X2.2551 Y0.1885
X2.2681 Y0.1875
X2.3456
X2.3681 Y0.1874
X2.3793 Y0.1869
X2.4018 Y0.1846
X2.4052 Y0.1839
X2.4243 Y0.1789
X2.4355 Y0.1752
X2.458 Y0.1654
X2.4653 Y0.1614
X2.4692 Y0.1589
X2.4818 Y0.1501
X2.4917 Y0.1422
X2.5029 Y0.1321
X2.5075 Y0.1276
X3.1211 Y-0.4859
X3.1371 Y-0.5023
X3.1436 Y-0.5098
X3.1465 Y-0.5135
X3.155 Y-0.5248
X3.1618 Y-0.536
X3.173 Y-0.5585
X3.1773 Y-0.5697
X3.1809 Y-0.581
X3.1867 Y-0.5997
X3.1978 Y-0.627
X3.2146 Y-0.6606
X3.2376 Y-0.6986
X3.2632 Y-0.7348
X3.2907 Y-0.7696
X3.3194 Y-0.8034
X3.3492 Y-0.8364
X3.3796 Y-0.8687
X3.4105 Y-0.9005
X3.4418 Y-0.9319
X3.4734 Y-0.9631
X3.5052 Y-0.994
X3.5372 Y-1.0248
X3.5692 Y-1.0555
X3.6014 Y-1.086
X3.6337 Y-1.1165
X3.666 Y-1.147
X3.6983 Y-1.1774
X3.763 Y-1.238
X3.7954 Y-1.2684
X3.8079 Y-1.2867
X3.8239 Y-1.3281
X3.8271 Y-1.3724
X3.8215 Y-1.4164
X3.8094 Y-1.4591
X3.7927 Y-1.5002
X3.7726 Y-1.5397
X3.7499 Y-1.5779
X3.7254 Y-1.6148
X3.6994 Y-1.6508
X3.6723 Y-1.686
X3.6445 Y-1.7205
X3.6161 Y-1.7546
X3.5872 Y-1.7883
X3.558 Y-1.8217
X3.5286 Y-1.8549
X3.4989 Y-1.8879
X3.4691 Y-1.9208
X3.4392 Y-1.9536
X3.4092 Y-1.9863
X3.3791 Y-2.0189
X3.349 Y-2.0515
X3.2887 Y-2.1166
X3.2109 Y-2.2003
X3.2028 Y-2.2105
X3.1962 Y-2.2218
X3.1914 Y-2.234
X3.1885 Y-2.2468
X3.1875 Y-2.2599
Y-2.2907
X3.186 Y-2.3132
X3.1846 Y-2.3245
X3.1797 Y-2.3469
X3.1773 Y-2.3535
X3.1711 Y-2.3694
X3.166 Y-2.38
X3.1522 Y-2.4032
X3.1434 Y-2.4144
X3.1332 Y-2.4257
X3.1211 Y-2.4381
X2.5254 Y-3.0337
X2.5142 Y-3.0448
X2.4912 Y-3.0668
X2.4805 Y-3.0752
X2.4765 Y-3.0781
X2.4692 Y-3.0829
X2.4583 Y-3.0893
X2.458 Y-3.0895
X2.4211 Y-3.1097
X2.384 Y-3.1341
X2.3485 Y-3.1607
X2.3142 Y-3.1888
X2.2808 Y-3.2181
X2.2482 Y-3.2482
X2.2162 Y-3.2788
X2.1845 Y-3.31
X2.1532 Y-3.3414
X2.1222 Y-3.3731
X2.0913 Y-3.405
X2.0606 Y-3.437
X2.03 Y-3.4691
X1.9995 Y-3.5013
X1.969 Y-3.5336
X1.9386 Y-3.5659
X1.8779 Y-3.6306
X1.8172 Y-3.6954
X1.7112 Y-3.8089
X1.693 Y-3.8216
X1.6518 Y-3.838
X1.6075 Y-3.8414
X1.5635 Y-3.8359
X1.5207 Y-3.8239
X1.4796 Y-3.8073
X1.44 Y-3.7872
X1.4019 Y-3.7646
X1.3649 Y-3.7401
X1.3289 Y-3.7141
X1.2937 Y-3.6871
X1.2591 Y-3.6593
X1.225 Y-3.6309
X1.1913 Y-3.6021
X1.1579 Y-3.5729
X1.1247 Y-3.5434
X1.0917 Y-3.5138
X1.0588 Y-3.484
X1.026 Y-3.4541
X0.9933 Y-3.4241
X0.9606 Y-3.394
X0.928 Y-3.3639
X0.8629 Y-3.3036
X0.7979 Y-3.2432
X0.6797 Y-3.1333
X0.668 Y-3.1242
X0.6549 Y-3.1173
X0.6407 Y-3.1129
X0.626 Y-3.1111
X0.6036 Y-3.1094
X0.5923 Y-3.1071
X0.5811 Y-3.1044
X0.5699 Y-3.1014
X0.5586 Y-3.0972
X0.5474 Y-3.0922
X0.5419 Y-3.0893
X0.5361 Y-3.0861
X0.5249 Y-3.079
X0.5235 Y-3.0781
X0.5137 Y-3.071
X0.5088 Y-3.0668
X0.4912 Y-3.0501
X0.4852 Y-3.0443
X-0.1222 Y-2.4369
X-0.127 Y-2.4321
X-0.1431 Y-2.4144
X-0.1494 Y-2.4072
X-0.1522 Y-2.4032
X-0.174 Y-2.3716
X-0.202 Y-2.3371
X-0.2311 Y-2.3037
X-0.2611 Y-2.271
X-0.2918 Y-2.2389
X-0.3229 Y-2.2072
X-0.3543 Y-2.1759
X-0.386 Y-2.1448
X-0.4178 Y-2.114
X-0.4498 Y-2.0832
X-0.482 Y-2.0526
X-0.5142 Y-2.0221
X-0.5464 Y-1.9916
X-0.5787 Y-1.9612
X-0.6435 Y-1.9005
X-0.7083 Y-1.8399
X-0.7407 Y-1.8096
X-0.771 Y-1.7771
X-0.7955 Y-1.7401
X-0.8105 Y-1.6984
X-0.8164 Y-1.6544
X-0.8147 Y-1.6101
X-0.8068 Y-1.5664
X-0.794 Y-1.5239
X-0.7774 Y-1.4828
X-0.7577 Y-1.443
X-0.7357 Y-1.4044
X-0.7119 Y-1.367
X-0.6866 Y-1.3305
X-0.6603 Y-1.2948
X-0.6331 Y-1.2598
X-0.6052 Y-1.2253
X-0.5768 Y-1.1912
X-0.548 Y-1.1574
X-0.5188 Y-1.124
X-0.4894 Y-1.0907
X-0.4599 Y-1.0576
X-0.4301 Y-1.0247
X-0.4003 Y-0.9919
X-0.3703 Y-0.9591
X-0.3403 Y-0.9264
X-0.3102 Y-0.8938
X-0.2801 Y-0.8612
X-0.2198 Y-0.7961
X-0.2109 Y-0.7865
X-0.2027 Y-0.7763
X-0.1962 Y-0.7649
X-0.1914 Y-0.7528
X-0.1885 Y-0.74
X-0.1875 Y-0.727
Y-0.6485
X-0.1871 Y-0.626
X-0.1866 Y-0.6147
X-0.1832 Y-0.5913
X-0.1805 Y-0.581
X-0.1771 Y-0.5697
X-0.173 Y-0.5585
X-0.1607 Y-0.5338
X-0.1547 Y-0.5248
X-0.1494 Y-0.5171
X-0.1468 Y-0.5135
X-0.1382 Y-0.5034
X-0.1149 Y-0.4798
X0.4925 Y0.1276
X0.5024 Y0.1367
X0.5178 Y0.1501
X0.5249 Y0.155
X0.5348 Y0.1614
X0.5361 Y0.1621
X0.5474 Y0.168
X0.5699 Y0.1772
X0.5811 Y0.1804
X0.5869 Y0.1821
X0.613 Y0.1921
X0.6451 Y0.2075
X0.6834 Y0.2298
X0.72 Y0.255
X0.7551 Y0.2821
X0.789 Y0.3107
X0.8221 Y0.3402
X0.8545 Y0.3705
X0.8864 Y0.4014
X0.918 Y0.4326
X0.9492 Y0.4641
X0.9802 Y0.4959
X1.011 Y0.5278
X1.0417 Y0.5599
X1.0722 Y0.5921
X1.1027 Y0.6243
X1.1332 Y0.6566
X1.1691 Y0.6827
X1.2109 Y0.6974
X1.255 Y0.7024
X1.2993 Y0.6996
X1.3427 Y0.6906
X1.3849 Y0.6768
X1.4257 Y0.6593
X1.4651 Y0.6389
X1.5033 Y0.6163
X1.5404 Y0.5919
X1.5766 Y0.5663
X1.612 Y0.5396
X1.6468 Y0.5121
X1.6812 Y0.484
X1.7151 Y0.4554
X1.7487 Y0.4264
X1.7821 Y0.3971
X1.8152 Y0.3677
X1.8483 Y0.338
X1.8811 Y0.3082
X1.9139 Y0.2783
X1.9466 Y0.2483
X1.9877 Y0.2106
X1.9979 Y0.2025
X2.0092 Y0.1961
X2.0213 Y0.1913
X2.034 Y0.1885
X2.0469 Y0.1875
X2.2681
X2.2683
G2 X2.2974 Y0.1974 I0.2353 J-0.6466
X2.5036 Y0.229 I0.2062 J-0.6565 F300.
X2.5278 Y0.2202 I0. J-0.0375
G1 X3.1689 Y-0.3196
G2 X3.1817 Y-0.3419 I-0.0242 J-0.0287
X3.1856 Y-0.5504 I-0.678 J-0.1172
X3.1809 Y-0.5809 I-0.682 J0.0914 F50.
G1 Y-0.581
X3.1833 Y-0.5922
X3.1866 Y-0.6147
X3.1871 Y-0.626
X3.1875 Y-0.6485
Y-0.716
X3.1885 Y-0.7362
X3.191 Y-0.7554
X3.1959 Y-0.7782
X3.2037 Y-0.8043
X3.2158 Y-0.8353
X3.2339 Y-0.8727
X3.2564 Y-0.9109
X3.2814 Y-0.9476
X3.3082 Y-0.983
X3.3363 Y-1.0173
X3.3655 Y-1.0508
X3.3954 Y-1.0836
X3.4259 Y-1.1158
X3.4568 Y-1.1476
X3.4881 Y-1.1791
X3.5196 Y-1.2103
X3.5513 Y-1.2413
X3.5767 Y-1.2777
X3.5908 Y-1.3198
X3.5953 Y-1.3639
X3.5921 Y-1.4082
X3.5828 Y-1.4516
X3.5688 Y-1.4937
X3.5511 Y-1.5344
X3.5306 Y-1.5737
X3.5079 Y-1.6119
X3.4835 Y-1.6489
X3.4578 Y-1.6851
X3.4311 Y-1.7205
X3.4035 Y-1.7553
X3.3754 Y-1.7896
X3.3468 Y-1.8235
X3.3178 Y-1.8571
X3.2885 Y-1.8905
X3.2591 Y-1.9237
X3.2294 Y-1.9567
X3.2102 Y-1.9779
X3.2005 Y-1.9907
X3.1934 Y-2.0051
X3.189 Y-2.0206
X3.1875 Y-2.0366
Y-2.2599
G2 X3.1927 Y-2.2903 I-0.685 J-0.1331
X3.1917 Y-2.5022 I-0.6902 J-0.1027 F300.
X3.1829 Y-2.5211 I-0.037 J0.0059
G1 X2.7166 Y-3.0514
G2 X2.699 Y-3.0626 I-0.0282 J0.0248
X2.4889 Y-3.0907 I-0.1965 J0.6696
X2.4582 Y-3.0895 I0.0136 J0.6977 F50.
G1 X2.458
X2.4468 Y-3.0949
X2.4355 Y-3.0995
X2.4328 Y-3.1006
X2.4243 Y-3.1029
X2.413 Y-3.1058
X2.4018 Y-3.1086
X2.3793 Y-3.1109
X2.3681 Y-3.1114
X2.3344 Y-3.1115
X2.3205 Y-3.1122
X2.3023 Y-3.1146
X2.2811 Y-3.1191
X2.2561 Y-3.1266
X2.2264 Y-3.1382
X2.1905 Y-3.1556
X2.1522 Y-3.1781
X2.1156 Y-3.2032
X2.0803 Y-3.2301
X2.0461 Y-3.2584
X2.0128 Y-3.2876
X1.9801 Y-3.3176
X1.948 Y-3.3482
X1.9162 Y-3.3792
X1.8848 Y-3.4106
X1.8537 Y-3.4422
X1.8227 Y-3.474
X1.7919 Y-3.5059
X1.7613 Y-3.538
X1.7307 Y-3.5702
X1.693 Y-3.5936
X1.6503 Y-3.6059
X1.6061 Y-3.6088
X1.5619 Y-3.6044
X1.5187 Y-3.5941
X1.4769 Y-3.5794
X1.4365 Y-3.5611
X1.3973 Y-3.5402
X1.3594 Y-3.5171
X1.3225 Y-3.4925
X1.2865 Y-3.4665
X1.2512 Y-3.4396
X1.2165 Y-3.412
X1.1823 Y-3.3838
X1.1484 Y-3.3551
X1.1149 Y-3.3261
X1.0815 Y-3.2968
X1.0484 Y-3.2672
X1.0154 Y-3.2376
X0.9826 Y-3.2077
X0.9498 Y-3.1778
X0.9171 Y-3.1478
X0.9027 Y-3.1346
X0.8925 Y-3.1265
X0.8812 Y-3.1201
X0.8691 Y-3.1153
X0.8564 Y-3.1125
X0.8435 Y-3.1115
X0.6373
X0.626 Y-3.1111
G2 X0.5954 Y-3.1154 I-0.1072 J0.6637
X0.4505 Y-3.1163 I-0.0766 J0.668 F300.
X0.4291 Y-3.1067 I0.0038 J0.0373
G1 X-0.1291 Y-2.599
G2 X-0.1407 Y-2.5785 I0.0252 J0.0277
X-0.1534 Y-2.4341 I0.6594 J0.1311
X-0.1521 Y-2.4034 I0.6722 J-0.0133 F50.
G1 X-0.1522 Y-2.4032
X-0.1656 Y-2.3807
X-0.1714 Y-2.3694
X-0.1761 Y-2.3582
X-0.1797 Y-2.3469
X-0.1846 Y-2.3245
X-0.186 Y-2.3132
X-0.1875 Y-2.2907
Y-2.2873
X-0.188 Y-2.2772
X-0.1903 Y-2.26
X-0.1946 Y-2.2399
X-0.2018 Y-2.2161
X-0.213 Y-2.1876
X-0.2299 Y-2.153
X-0.2525 Y-2.1148
X-0.2777 Y-2.0782
X-0.3047 Y-2.0431
X-0.3332 Y-2.009
X-0.3626 Y-1.9758
X-0.3928 Y-1.9433
X-0.4235 Y-1.9112
X-0.4546 Y-1.8796
X-0.486 Y-1.8483
X-0.5177 Y-1.8172
X-0.5493 Y-1.7861
X-0.575 Y-1.7499
X-0.5915 Y-1.7087
X-0.5992 Y-1.665
X-0.5994 Y-1.6206
X-0.5933 Y-1.5767
X-0.5822 Y-1.5337
X-0.567 Y-1.492
X-0.5487 Y-1.4516
X-0.5278 Y-1.4124
X-0.505 Y-1.3744
X-0.4806 Y-1.3373
X-0.4549 Y-1.3011
X-0.4283 Y-1.2656
X-0.4009 Y-1.2307
X-0.3729 Y-1.1963
X-0.3444 Y-1.1623
X-0.3156 Y-1.1285
X-0.2864 Y-1.0951
X-0.257 Y-1.0618
X-0.2275 Y-1.0288
X-0.21 Y-1.0094
X-0.2004 Y-0.9966
X-0.1933 Y-0.9822
X-0.189 Y-0.9668
X-0.1875 Y-0.9508
Y-0.727
Y-0.7268
G2 X-0.1974 Y-0.6977 I0.6434 J0.2342
X-0.2288 Y-0.4927 I0.6532 J0.205 F300.
X-0.2199 Y-0.4684 I0.0375 J0.
G1 X0.3207 Y0.1699
G2 X0.3432 Y0.1826 I0.0286 J-0.0242
X0.5506 Y0.1854 I0.1127 J-0.6753
X0.5809 Y0.1804 I-0.0947 J-0.6781 F50.
G1 X0.5811
X0.5957 Y0.1839
X0.6036 Y0.1854
X0.626 Y0.1871
X0.6373 Y0.1875
X0.716
X0.7315 Y0.1883
X0.7507 Y0.1908
X0.7732 Y0.1956
X0.7995 Y0.2035
X0.8303 Y0.2155
X0.8676 Y0.2336
X0.9058 Y0.2561
X0.9425 Y0.2811
X0.9779 Y0.3078
X1.0122 Y0.336
X1.0456 Y0.3651
X1.0784 Y0.395
X1.1106 Y0.4255
X1.145 Y0.4536
X1.1852 Y0.4724
X1.2285 Y0.482
X1.2729 Y0.4836
X1.3169 Y0.4785
X1.3601 Y0.4681
X1.402 Y0.4536
X1.4426 Y0.4356
X1.4819 Y0.4151
X1.5201 Y0.3924
X1.5572 Y0.3682
X1.5935 Y0.3426
X1.6291 Y0.3161
X1.664 Y0.2888
X1.6985 Y0.2608
X1.7325 Y0.2324
X1.7605 Y0.2085
X1.7731 Y0.1995
X1.787 Y0.1929
X1.8019 Y0.1889
X1.8173 Y0.1875
X2.0469
G3 X2.074 Y0.2005 I-0.0013 J0.0375
X2.0646 Y0.2573 I-0.0284 J0.0245 F300.
G1 X1.4465 Y0.5761
X1.3791 Y0.5976
X1.2667 Y0.6131
X1.1655 Y0.6028
X1.0981 Y0.5763
X0.6822 Y0.3007
G3 X0.6866 Y0.196 I0.0359 J-0.0509
X0.716 Y0.1875 I0.0316 J0.0537 F50.
G1 X0.907
X0.9246 Y0.1884
X0.9459 Y0.1912
X0.9698 Y0.1963
X0.998 Y0.2047
X1.0312 Y0.2177
X1.0711 Y0.237
X1.1098 Y0.2588
X1.1511 Y0.2751
X1.1945 Y0.2843
X1.2388 Y0.2867
X1.283 Y0.2831
X1.3265 Y0.2744
X1.369 Y0.2615
X1.4102 Y0.2451
X1.4502 Y0.2259
X1.4891 Y0.2045
X1.4959 Y0.2004
X1.5102 Y0.1933
X1.5257 Y0.189
X1.5416 Y0.1875
X1.8173
X1.8174
G3 X1.8444 Y0.2005 I-0.0014 J0.0375
X1.8286 Y0.2603 I-0.0284 J0.0245 F300.
G1 X1.3436 Y0.4051
X1.2442 Y0.4171
X1.188 Y0.4149
X1.1206 Y0.4013
X0.886 Y0.3076
G3 X0.8776 Y0.196 I0.0232 J-0.0578
X0.907 Y0.1875 I0.0316 J0.0537 F50.
G1 X1.5416
X1.563 Y0.1951
X1.5676 Y0.2019
X1.6084 Y0.2626 F300.
X1.6156 Y0.2739
G2 X1.6937 Y0.3196 I0.0832 J-0.0525
G1 X2.3906 Y0.3167
X2.458 Y0.3056
X2.5089 Y0.2851
X2.5617 Y0.2514
X2.6132 Y0.2064
X3.241 Y-0.4235
X3.2784 Y-0.4794
G2 X3.2728 Y-0.5922 I-0.0833 J-0.0524
G1 X3.1962 Y-0.6863
X3.1875 Y-0.716 F50.
Y-0.9072
X3.1886 Y-0.9296
X3.1914 Y-0.9509
X3.1965 Y-0.9748
X3.205 Y-1.0031
X3.2179 Y-1.0363
X3.2372 Y-1.0761
X3.2597 Y-1.1143
X3.2846 Y-1.1511
X3.3111 Y-1.1866
X3.339 Y-1.2211
X3.3621 Y-1.259
X3.3764 Y-1.301
X3.3822 Y-1.345
X3.3808 Y-1.3894
X3.3735 Y-1.4331
X3.3614 Y-1.4758
X3.3455 Y-1.5173
X3.3265 Y-1.5574
X3.3052 Y-1.5963
X3.282 Y-1.6341
X3.2573 Y-1.671
X3.2314 Y-1.707
X3.2053 Y-1.7414
X3.1977 Y-1.7534
X3.1921 Y-1.7664
X3.1886 Y-1.7801
X3.1875 Y-1.7943
Y-2.0366
G3 X3.2005 Y-2.0637 I0.0375 J0.0013
X3.2572 Y-2.0545 I0.0245 J0.0284 F300.
G1 X3.4895 Y-1.5033
X3.5032 Y-1.4449
X3.5128 Y-1.3459
X3.5032 Y-1.274
X3.4864 Y-1.2221
X3.307 Y-0.8847
G3 X3.196 Y-0.8778 I-0.0572 J-0.0247
X3.1875 Y-0.9072 I0.0537 J-0.0316 F50.
G1 Y-1.1097
X3.1885 Y-1.1297
X3.1943 Y-1.1737
X3.2031 Y-1.2172
X3.2082 Y-1.2612
X3.2085 Y-1.3056
X3.204 Y-1.3498
X3.1952 Y-1.3932
X3.1911 Y-1.4068
X3.1891 Y-1.415
X3.1879 Y-1.4234
X3.1875 Y-1.4318
G3 X3.2005 Y-1.4589 I0.0375 J0.0013
G1 X3.2039 Y-1.4619 Z0.7603
X3.2073 Y-1.4648 Z0.7611
X3.2106 Y-1.4676 Z0.7624
X3.2137 Y-1.4703 Z0.7643
X3.2166 Y-1.4728 Z0.7666
X3.2193 Y-1.4751 Z0.7694
X3.2218 Y-1.4772 Z0.7726
X3.2239 Y-1.4791 Z0.7762
X3.2256 Y-1.4806 Z0.7801
X3.2271 Y-1.4818 Z0.7842
X3.2281 Y-1.4827 Z0.7885
X3.2287 Y-1.4832 Z0.793
X3.2289 Y-1.4834 Z0.7975
G0 Z1.17
X3.2154 Y-1.0478
Z0.835
G1 Z0.7975 F50.
X3.2152 Y-1.048 Z0.793
X3.2148 Y-1.0487 Z0.7885
X3.2141 Y-1.0498 Z0.7842
X3.2132 Y-1.0514 Z0.7801
X3.212 Y-1.0535 Z0.7762
X3.2106 Y-1.0559 Z0.7726
X3.2089 Y-1.0586 Z0.7694
X3.2071 Y-1.0617 Z0.7666
X3.2051 Y-1.065 Z0.7643
X3.203 Y-1.0686 Z0.7624
X3.2008 Y-1.0723 Z0.7611
X3.1985 Y-1.0761 Z0.7603
X3.1962 Y-1.08 Z0.76
G3 X3.1875 Y-1.1097 I0.0536 J-0.0318
G1 Y-1.7943
G3 X3.2005 Y-1.8214 I0.0375 J0.0013
X3.2166 Y-1.8295 I0.0245 J0.0284 F300.
G1 X3.2335 Y-1.8323
G2 X3.3171 Y-1.9308 I-0.0148 J-0.0973
G1 X3.3179 Y-2.302
X3.3105 Y-2.3616
X3.2936 Y-2.4144
X3.2637 Y-2.4707
X3.2173 Y-2.5269
X2.5851 Y-3.1568
X2.5479 Y-3.1863
G2 X2.4243 Y-3.1772 I-0.0562 J0.0808
G1 X2.3793 Y-3.133
G3 X2.3638 Y-3.12 I-0.0471 J-0.0408
X2.3388 Y-3.1118 I-0.0316 J-0.0537 F50.
G1 X2.3344 Y-3.1115
X2.1545
X2.1312 Y-3.1127
X2.1102 Y-3.1154
X2.0866 Y-3.1205
X2.0587 Y-3.1288
X2.0259 Y-3.1416
X1.9867 Y-3.1606
X1.9484 Y-3.1832
X1.9117 Y-3.208
X1.8762 Y-3.2346
X1.8417 Y-3.2626
X1.8081 Y-3.2915
X1.7751 Y-3.3212
X1.7427 Y-3.3515
X1.7044 Y-3.3739
X1.662 Y-3.3869
X1.6178 Y-3.3914
X1.5735 Y-3.3888
X1.5299 Y-3.3804
X1.4875 Y-3.3674
X1.4464 Y-3.3508
X1.4066 Y-3.3312
X1.3679 Y-3.3094
X1.3304 Y-3.2857
X1.2938 Y-3.2607
X1.2579 Y-3.2345
X1.2227 Y-3.2075
X1.1881 Y-3.1798
X1.1538 Y-3.1515
X1.131 Y-3.1322
X1.1185 Y-3.1234
X1.1046 Y-3.1168
X1.0898 Y-3.1128
X1.0745 Y-3.1115
X0.8435
G3 X0.8164 Y-3.1245 I0.0013 J-0.0375
X0.8283 Y-3.1827 I0.0284 J-0.0245 F300.
G1 X1.4131 Y-3.4777
X1.495 Y-3.5055
X1.5926 Y-3.5199
X1.6937 Y-3.5132
X1.7387 Y-3.4993
X1.7837 Y-3.4758
X2.1883 Y-3.2247
G3 X2.1839 Y-3.12 I-0.0359 J0.0509
X2.159 Y-3.1118 I-0.0316 J-0.0537 F50.
G1 X2.1545 Y-3.1115
X1.9522
X1.9325 Y-3.1125
X1.9109 Y-3.1153
X1.8865 Y-3.1205
X1.8577 Y-3.1292
X1.8239 Y-3.1424
X1.7839 Y-3.1617
X1.7434 Y-3.1799
X1.7007 Y-3.1916
X1.6566 Y-3.1966
X1.6122 Y-3.1954
X1.5683 Y-3.1887
X1.5254 Y-3.1775
X1.4836 Y-3.1626
X1.443 Y-3.1446
X1.4036 Y-3.1242
X1.4024 Y-3.1235
X1.3885 Y-3.1169
X1.3736 Y-3.1129
X1.3582 Y-3.1115
X1.0745
G3 X1.0474 Y-3.1245 I0.0013 J-0.0375
X1.0644 Y-3.1847 I0.0284 J-0.0245 F300.
G1 X1.5926 Y-3.3247
X1.6713 Y-3.3255
X1.7162 Y-3.3177
X1.9747 Y-3.231
G3 X1.9816 Y-3.12 I-0.0247 J0.0572
X1.9567 Y-3.1118 I-0.0316 J-0.0537 F50.
G1 X1.9522 Y-3.1115
X1.3582
G3 X1.3311 Y-3.1245 I0.0013 J-0.0375
X1.3229 Y-3.1412 I0.0284 J-0.0245 F300.
G1 X1.3153 Y-3.1681
G2 X1.2217 Y-3.2411 I-0.0951 J0.0254
G1 X0.626 Y-3.242
X0.5586 Y-3.2333
X0.4873 Y-3.2091
X0.4143 Y-3.1568
X-0.2474 Y-2.4932
G2 X-0.2378 Y-2.3582 I0.0761 J0.0624
G1 X-0.2056 Y-2.3292
G3 X-0.196 Y-2.3167 I-0.0441 J0.044
X-0.1875 Y-2.2873 I-0.0538 J0.0315 F50.
G1 Y-2.1107
X-0.1884 Y-2.0928
X-0.1911 Y-2.0721
X-0.1961 Y-2.0488
X-0.2043 Y-2.0213
X-0.217 Y-1.9889
X-0.2358 Y-1.9501
X-0.2583 Y-1.9119
X-0.2832 Y-1.8752
X-0.3098 Y-1.8397
X-0.3378 Y-1.8052
X-0.3631 Y-1.7688
X-0.3807 Y-1.728
X-0.3901 Y-1.6847
X-0.3922 Y-1.6404
X-0.388 Y-1.5962
X-0.3786 Y-1.5528
X-0.3651 Y-1.5106
X-0.3481 Y-1.4696
X-0.3284 Y-1.4298
X-0.3066 Y-1.3912
X-0.283 Y-1.3535
X-0.2581 Y-1.3168
X-0.2321 Y-1.2809
X-0.2054 Y-1.2458
X-0.1977 Y-1.2338
X-0.1921 Y-1.2207
X-0.1887 Y-1.2069
X-0.1875 Y-1.1928
Y-0.9508
G3 X-0.2005 Y-0.9237 I-0.0375 J-0.0013
X-0.2608 Y-0.9409 I-0.0245 J-0.0284 F300.
G1 X-0.4932 Y-1.4808
X-0.5163 Y-1.5708
X-0.5216 Y-1.6496
X-0.5157 Y-1.7261
X-0.5021 Y-1.7733
X-0.307 Y-2.1332
G3 X-0.2281 Y-2.167 I0.0572 J0.0247
X-0.1961 Y-2.1401 I-0.0217 J0.0584
X-0.1889 Y-2.122 I-0.0537 J0.0316 F50.
G1 X-0.1875 Y-2.1107
Y-1.9195
X-0.1887 Y-1.8948
X-0.1918 Y-1.8718
X-0.201 Y-1.8284
X-0.2106 Y-1.7851
X-0.2161 Y-1.7411
X-0.2167 Y-1.6967
X-0.2127 Y-1.6525
X-0.2041 Y-1.6089
X-0.1918 Y-1.5663
X-0.1894 Y-1.5586
X-0.188 Y-1.5506
X-0.1875 Y-1.5425
G3 X-0.2005 Y-1.5154 I-0.0375 J-0.0013
G1 X-0.2039 Y-1.5124 Z0.7603
X-0.2073 Y-1.5095 Z0.7611
X-0.2106 Y-1.5067 Z0.7624
X-0.2137 Y-1.504 Z0.7643
X-0.2166 Y-1.5015 Z0.7666
X-0.2193 Y-1.4992 Z0.7694
X-0.2218 Y-1.4971 Z0.7726
X-0.2239 Y-1.4952 Z0.7762
X-0.2256 Y-1.4937 Z0.7801
X-0.2271 Y-1.4925 Z0.7842
X-0.2281 Y-1.4916 Z0.7885
X-0.2287 Y-1.4911 Z0.793
X-0.2289 Y-1.4909 Z0.7975
G0 Z1.17
X-0.2154 Y-1.9814
Z0.835
G1 Z0.7975 F50.
X-0.2152 Y-1.9812 Z0.793
X-0.2148 Y-1.9805 Z0.7885
X-0.2141 Y-1.9793 Z0.7842
X-0.2132 Y-1.9777 Z0.7801
X-0.212 Y-1.9757 Z0.7762
X-0.2106 Y-1.9733 Z0.7726
X-0.2089 Y-1.9706 Z0.7694
X-0.2071 Y-1.9675 Z0.7666
X-0.2051 Y-1.9642 Z0.7643
X-0.203 Y-1.9606 Z0.7624
X-0.2008 Y-1.9569 Z0.7611
X-0.1985 Y-1.9531 Z0.7603
X-0.1962 Y-1.9492 Z0.76
G3 X-0.1875 Y-1.9195 I-0.0536 J0.0318
G1 Y-1.1928
G3 X-0.2005 Y-1.1657 I-0.0375 J-0.0013
G1 X-0.2039 Y-1.1627 Z0.7603
X-0.2073 Y-1.1598 Z0.7611
X-0.2106 Y-1.157 Z0.7624
X-0.2137 Y-1.1543 Z0.7643
X-0.2166 Y-1.1518 Z0.7666
X-0.2193 Y-1.1494 Z0.7694
X-0.2218 Y-1.1473 Z0.7726
X-0.2239 Y-1.1455 Z0.7762
X-0.2256 Y-1.144 Z0.7801
X-0.2271 Y-1.1428 Z0.7842
X-0.2281 Y-1.1419 Z0.7885
X-0.2287 Y-1.1414 Z0.793
X-0.2289 Y-1.1412 Z0.7975
G0 Z1.57
(FACE2)
G64 P0.0004 Q0.0004
G0 X2.7583 Y-2.8649
Z1.57
Z1.17
G1 Z0.9975 F80.
G18 G3 X2.7208 Z0.96 I-0.0375 K0. F50.
G1 X2.7166
X0.2834
X0.0394
G17 G2 Y-2.6209 I0. J0.122
G1 X2.9606
X3.1
G3 Y-2.3768 I0. J0.122
G1 X-0.1
G2 Y-2.1328 I0. J0.122
G1 X3.1
G3 Y-1.8888 I0. J0.122
G1 X-0.1
G2 Y-1.6448 I0. J0.122
G1 X3.1
G3 Y-1.4008 I0. J0.122
G1 X-0.1
G2 Y-1.1568 I0. J0.122
G1 X3.1
G3 Y-0.9128 I0. J0.122
G1 X-0.1
G2 Y-0.6688 I0. J0.122
G1 X3.1
G3 Y-0.4248 I0. J0.122
G1 X3.0823
X-0.0823
G2 Y-0.1808 I0. J0.122
G1 X0.1617
X2.8383
G18 G2 X2.8758 Z0.9975 I0. K0.0375
G0 Z1.57
G17
M5
M9
G53 G0 Z-0.6
M30
%
