%
(FIXTURE PLATE SETUP)
(T32 D=0.1875 CR=0. - ZMIN=-0.55 - FLAT END MILL)
(T51 D=0.201 CR=0. TAPER=118DEG - ZMIN=-0.6104 - DRILL)
G90 G94 G17 G91.1
G20
G53 G0 Z0.
(DRILL4)
T51 M6
T32
S5000 M3
G17 G90 G94
G54
M8
G0 X4.3774 Y-0.4724
G43 Z1.3243 H51
G0 Z0.9243
G98 G81 X4.3774 Y-0.4724 Z-0.6104 R0.2 F25.
X11.4631
G80
G0 Z1.3243
M5
G53 G0 Z0.
(2D CONTOUR5)
M9
M1
T32 M6
T51
S7500 M3
G17 G90 G94
G54
G64 P0.0004 Q0.0004
M8
G0 X11.4861 Y-0.4806
G43 Z1.3243 H32
G0 Z0.2
G1 Z0.0375 F10.
Z-0.0917
G3 X11.4401 Y-0.4643 I-0.023 J0.0081 F4.
X11.4861 Y-0.4806 I0.023 J-0.0081
G1 Z-0.1833 F10.
G3 X11.4401 Y-0.4643 I-0.023 J0.0081 F4.
X11.4861 Y-0.4806 I0.023 J-0.0081
G1 Z-0.275 F10.
G3 X11.4401 Y-0.4643 I-0.023 J0.0081 F4.
X11.4861 Y-0.4806 I0.023 J-0.0081
G1 Z-0.3667 F10.
G3 X11.4401 Y-0.4643 I-0.023 J0.0081 F4.
X11.4861 Y-0.4806 I0.023 J-0.0081
G1 Z-0.4583 F10.
G3 X11.4401 Y-0.4643 I-0.023 J0.0081 F4.
X11.4861 Y-0.4806 I0.023 J-0.0081
G1 Z-0.55 F10.
G3 X11.4401 Y-0.4643 I-0.023 J0.0081 F4.
X11.4861 Y-0.4806 I0.023 J-0.0081
X11.4401 Y-0.4643 I-0.023 J0.0081
X11.4861 Y-0.4806 I0.023 J-0.0081
G0 Z0.9243
X4.4018 Y-0.4724
Z0.2
G1 Z0.0375 F10.
Z-0.0917
G3 X4.353 I-0.0244 J0. F4.
X4.4018 I0.0244 J0.
G1 Z-0.1833 F10.
G3 X4.353 I-0.0244 J0. F4.
X4.4018 I0.0244 J0.
G1 Z-0.275 F10.
G3 X4.353 I-0.0244 J0. F4.
X4.4018 I0.0244 J0.
G1 Z-0.3667 F10.
G3 X4.353 I-0.0244 J0. F4.
X4.4018 I0.0244 J0.
G1 Z-0.4583 F10.
G3 X4.353 I-0.0244 J0. F4.
X4.4018 I0.0244 J0.
G1 Z-0.55 F10.
G3 X4.353 I-0.0244 J0. F4.
X4.4018 I0.0244 J0.
X4.353 I-0.0244 J0.
X4.4018 I0.0244 J0.
G0 Z1.3243
M5
M9
G53 G0 Z0.
M30
%
