%
(OP3 - END FLATS)
(T32 D=0.1875 CR=0. - ZMIN=-2.2143 - FLAT END MILL)
(T33 D=0.25 CR=0. - ZMIN=-2.4103 - FLAT END MILL)
(T51 D=0.201 CR=0. TAPER=118DEG - ZMIN=-2.6037 - DRILL)
(T101 D=0.1 CR=0. TAPER=135DEG - ZMIN=-2.2343 - DRILL)
G90 G94 G17 G91.1
G20
G53 G0 Z0.
(2D ADAPTIVE3)
T33 M6
T51
S7500 M3
G17 G90 G94
G54
G64 P0.004 Q0.004
M8
G0 X0.9428 Y-1.2071
G43 Z0.824 H33
G0 Z-0.1325
G1 Z-0.2362 F50.
G3 X0.9624 Y-1.071 I-0.6183 J0.1584
G1 Y-1.0669
X0.9623 Y-1.065
G3 X0.9111 Y-1.0422 I-0.081 J-0.113
X0.8095 Y-1.026 I-0.1311 J-0.4947
X0.5925 Y-1.0205 I-0.1877 J-3.1247
G2 X0.4479 Y-1.016 I-0.0081 J2.0694
X0.2724 Y-0.9743 I0.0598 J0.6418
X0.0924 Y-0.8554 I0.211 J0.5151
X-0.0632 Y-0.5361 I0.3818 J0.3837
X0.0333 Y-0.1591 I0.5372 J0.0633
X0.2553 Y0.0213 I0.4401 J-0.3147
X0.394 Y0.0613 I0.2225 J-0.5104
X0.5744 Y0.0733 I0.1763 J-1.2988
X0.8853 Y0.0749 I0.2322 J-14.7097
G3 X0.9565 Y0.1226 I-0.0003 J0.0775
G1 X0.9609 Y0.1371
X0.9624 Y0.1521
G3 X0.9448 Y0.1751 I-0.025 J-0.0009
G1 X0.941 Y0.1763 Z-0.2359
X0.9374 Y0.1774 Z-0.235
X0.9339 Y0.1785 Z-0.2335
X0.9307 Y0.1795 Z-0.2314
X0.9279 Y0.1804 Z-0.2289
X0.9254 Y0.1811 Z-0.2259
X0.9235 Y0.1817 Z-0.2226
X0.922 Y0.1822 Z-0.2189
X0.9212 Y0.1824 Z-0.2151
X0.9209 Y0.1825 Z-0.2112
G0 Z0.424
X0.9409 Y-1.1181
Z-0.1862
G1 Z-0.2112 F50.
X0.9411 Y-1.1178 Z-0.2151
X0.9415 Y-1.117 Z-0.2189
X0.9423 Y-1.1157 Z-0.2226
X0.9433 Y-1.114 Z-0.2259
X0.9446 Y-1.1118 Z-0.2289
X0.9462 Y-1.1092 Z-0.2314
X0.9479 Y-1.1063 Z-0.2335
X0.9497 Y-1.1032 Z-0.235
X0.9517 Y-1.0999 Z-0.2359
X0.9537 Y-1.0966 Z-0.2362
G3 X0.9624 Y-1.0669 I-0.0536 J0.0318
G1 Y-1.0546
X0.9623 Y-1.0531
G3 X0.9129 Y-1.0147 I-0.0937 J-0.0696
X0.8377 Y-0.99 I-0.13 J-0.269
X0.702 Y-0.9745 I-0.1601 J-0.7978
X0.5574 Y-0.9702 I-0.2417 J-5.7883
G2 X0.4134 Y-0.9568 I0.0151 J0.9443
X0.2434 Y-0.8973 I0.0981 J0.5525
X0.0443 Y-0.6928 I0.239 J0.4318
X0.0691 Y-0.2097 I0.429 J0.2201
X0.3226 Y-0.0151 I0.4031 J-0.2626
G1 X0.3573 Y-0.0048
X0.3925 Y0.0032
X0.4282 Y0.0093
G2 X0.6447 Y0.023 I0.2155 J-1.691
X0.8256 Y0.0248 I0.1684 J-8.0176
G3 X0.9015 Y0.0371 I-0.0013 J0.2469
X0.961 Y0.1076 I-0.0315 J0.0869
G1 X0.9624 Y0.1236
G3 X0.9448 Y0.1467 I-0.025 J-0.0009
G1 X0.941 Y0.1478 Z-0.2359
X0.9374 Y0.1489 Z-0.235
X0.9339 Y0.15 Z-0.2335
X0.9307 Y0.151 Z-0.2314
X0.9279 Y0.1519 Z-0.2289
X0.9254 Y0.1526 Z-0.2259
X0.9235 Y0.1532 Z-0.2226
X0.922 Y0.1537 Z-0.2189
X0.9212 Y0.1539 Z-0.2151
X0.9209 Y0.154 Z-0.2112
G0 Z0.424
X0.9409 Y-1.1057
Z-0.1862
G1 Z-0.2112 F50.
X0.9411 Y-1.1054 Z-0.2151
X0.9415 Y-1.1047 Z-0.2189
X0.9423 Y-1.1034 Z-0.2226
X0.9433 Y-1.1016 Z-0.2259
X0.9446 Y-1.0994 Z-0.2289
X0.9462 Y-1.0969 Z-0.2314
X0.9479 Y-1.094 Z-0.2335
X0.9497 Y-1.0909 Z-0.235
X0.9517 Y-1.0876 Z-0.2359
X0.9537 Y-1.0842 Z-0.2362
G3 X0.9624 Y-1.0546 I-0.0536 J0.0318
G1 Y-1.037
X0.9621 Y-1.031
G3 X0.9104 Y-0.9818 I-0.1132 J-0.0672
X0.8224 Y-0.947 I-0.1547 J-0.2622
X0.6917 Y-0.9274 I-0.1712 J-0.697
X0.5472 Y-0.9194 I-0.7885 J-12.9296
G2 X0.4041 Y-0.8991 I0.0469 J0.8417
X0.27 Y-0.846 I0.1195 J0.498
X0.1581 Y-0.7551 I0.2259 J0.3925
X0.0509 Y-0.492 I0.3197 J0.2836
X0.1136 Y-0.2504 I0.4241 J0.0188
X0.2694 Y-0.1026 I0.3605 J-0.2239
X0.4048 Y-0.0529 I0.2395 J-0.443
X0.5842 Y-0.031 I0.2176 J-1.0384
X0.765 Y-0.0261 I0.1939 J-3.7891
G3 X0.8572 Y-0.0177 I0.0015 J0.4979
X0.9297 Y0.0124 I-0.033 J0.1817
X0.961 Y0.0671 I-0.0631 J0.0724
G1 X0.9624 Y0.083
G3 X0.9448 Y0.1061 I-0.025 J-0.0009
G1 X0.941 Y0.1072 Z-0.2359
X0.9374 Y0.1083 Z-0.235
X0.9339 Y0.1094 Z-0.2335
X0.9307 Y0.1104 Z-0.2314
X0.9279 Y0.1113 Z-0.2289
X0.9254 Y0.112 Z-0.2259
X0.9235 Y0.1126 Z-0.2226
X0.922 Y0.1131 Z-0.2189
X0.9212 Y0.1133 Z-0.2151
X0.9209 Y0.1134 Z-0.2112
G0 Z0.424
X0.9409 Y-1.0882
Z-0.1862
G1 Z-0.2112 F50.
X0.9411 Y-1.0879 Z-0.2151
X0.9415 Y-1.0871 Z-0.2189
X0.9423 Y-1.0858 Z-0.2226
X0.9433 Y-1.0841 Z-0.2259
X0.9446 Y-1.0819 Z-0.2289
X0.9462 Y-1.0793 Z-0.2314
X0.9479 Y-1.0764 Z-0.2335
X0.9497 Y-1.0733 Z-0.235
X0.9517 Y-1.07 Z-0.2359
X0.9537 Y-1.0667 Z-0.2362
G3 X0.9624 Y-1.037 I-0.0536 J0.0318
G1 Y-1.0148
G3 X0.955 Y-0.9923 I-0.0428 J-0.0016
X0.8945 Y-0.9356 I-0.1325 J-0.0807
X0.7826 Y-0.894 I-0.1787 J-0.3091
X0.6455 Y-0.8743 I-0.1925 J-0.8556
G1 X0.5734 Y-0.8673
G2 X0.4307 Y-0.8445 I0.0777 J0.9464
X0.2976 Y-0.7887 I0.1195 J0.4715
G1 X0.2677 Y-0.7683
X0.2398 Y-0.7453
X0.2141 Y-0.7198
X0.191 Y-0.692
X0.1707 Y-0.6621
G2 X0.1336 Y-0.5797 I0.4078 J0.233
G1 X0.1245 Y-0.5447
X0.1191 Y-0.5089
X0.1173 Y-0.4728
X0.1191 Y-0.4367
X0.1246 Y-0.4009
X0.1337 Y-0.3659
X0.1463 Y-0.3319
X0.1623 Y-0.2995
X0.1815 Y-0.2689
X0.2038 Y-0.2403
X0.2288 Y-0.2142
X0.2563 Y-0.1906
X0.2859 Y-0.1699
X0.3174 Y-0.1521
G2 X0.4542 Y-0.1062 I0.236 J-0.4768
X0.6699 Y-0.0842 I0.2397 J-1.2831
G3 X0.7758 Y-0.0788 I-0.0778 J2.5608
X0.8709 Y-0.06 I-0.0475 J0.4903
X0.9332 Y-0.0279 I-0.053 J0.1794
X0.9624 Y0.0396 I-0.0652 J0.0683
G1 X0.962 Y0.0434
X0.961 Y0.0471
X0.9594 Y0.0507
X0.9573 Y0.0539
X0.9547 Y0.0568
X0.9517 Y0.0592
X0.9484 Y0.0612
X0.9448 Y0.0626
X0.941 Y0.0637 Z-0.2359
X0.9374 Y0.0649 Z-0.235
X0.9339 Y0.0659 Z-0.2335
X0.9307 Y0.0669 Z-0.2314
X0.9279 Y0.0678 Z-0.2289
X0.9254 Y0.0686 Z-0.2259
X0.9235 Y0.0692 Z-0.2226
X0.922 Y0.0696 Z-0.2189
X0.9212 Y0.0699 Z-0.2151
X0.9209 Y0.07 Z-0.2112
G0 Z0.424
X0.9409 Y-1.066
Z-0.1862
G1 Z-0.2112 F50.
X0.9411 Y-1.0657 Z-0.2151
X0.9415 Y-1.0649 Z-0.2189
X0.9423 Y-1.0636 Z-0.2226
X0.9433 Y-1.0619 Z-0.2259
X0.9446 Y-1.0597 Z-0.2289
X0.9462 Y-1.0571 Z-0.2314
X0.9479 Y-1.0543 Z-0.2335
X0.9497 Y-1.0511 Z-0.235
X0.9517 Y-1.0479 Z-0.2359
X0.9537 Y-1.0445 Z-0.2362
G3 X0.9624 Y-1.0148 I-0.0536 J0.0318
G1 Y-0.9877
G3 X0.9477 Y-0.949 I-0.0724 J-0.0053
X0.9079 Y-0.9079 I-0.1332 J-0.0891
G2 X0.8826 Y-0.871 I0.0593 J0.068
G3 X0.6701 Y-0.8284 I-0.3218 J-1.0523
G1 X0.5982 Y-0.8199
G2 X0.4558 Y-0.7947 I0.0998 J0.9789
G1 X0.4213 Y-0.7838
X0.3877 Y-0.7705
X0.3553 Y-0.7544
X0.3244 Y-0.7355
X0.2956 Y-0.7136
X0.2692 Y-0.6888
G2 X0.2407 Y-0.6334 I0.0705 J0.0714
G1 X0.24 Y-0.6244
X0.2404 Y-0.5882
G3 X0.2575 Y-0.5283 I-0.8112 J0.2644
G1 X0.2583 Y-0.5223
X0.2584 Y-0.5193
X0.2583 Y-0.5163
X0.2364 Y-0.4875
X0.2229 Y-0.4539
X0.2175 Y-0.4181
X0.2196 Y-0.382
X0.2284 Y-0.3469
X0.2432 Y-0.3139
X0.263 Y-0.2836
X0.2869 Y-0.2565
X0.3143 Y-0.2328
X0.3442 Y-0.2125
X0.3761 Y-0.1954
X0.4094 Y-0.1812
G2 X0.5498 Y-0.1475 I0.2212 J-0.6127
X0.694 Y-0.1346 I0.2317 J-1.7692
G1 X0.7297 Y-0.1402
X0.7615 Y-0.1574
X0.7896 Y-0.1802
X0.793 Y-0.1832
X0.8206 Y-0.1599
X0.8505 Y-0.1394
G3 X0.9269 Y-0.0887 I-0.3681 J0.6381
X0.9614 Y-0.0328 I-0.0535 J0.0716
G1 X0.9624 Y-0.0193
Y-0.0015
X0.9575 Y0.0124
X0.9438 Y0.0209
X0.9417 Y0.0222 F300.
X0.4484 Y-0.0333
X0.3415 Y-0.0676
X0.2675 Y-0.1076
X0.2181 Y-0.1437
X0.1689 Y-0.1941
X0.1262 Y-0.2588
X0.0994 Y-0.3245
X0.09 Y-0.3738
X0.0896 Y-0.4396
X0.1154 Y-0.6615
X0.1396 Y-0.7272
X0.1615 Y-0.7601
X0.2017 Y-0.8036
X0.2675 Y-0.8536
X0.3415 Y-0.8916
X0.8841 Y-1.0457
G3 X0.9499 Y-1.023 I0.016 J0.0602
G1 X0.9527 Y-1.0167
X0.9611 Y-0.9984 F50.
X0.9624 Y-0.9877
Y-0.9573
G3 X0.955 Y-0.9255 I-0.0871 J-0.0035
X0.9321 Y-0.8794 I-0.1686 J-0.0551
G1 X0.9094 Y-0.8512
X0.8953 Y-0.8179
X0.8907 Y-0.8004
X0.887 Y-0.7856
X0.8861 Y-0.7826
X0.8501 Y-0.7861
G2 X0.7057 Y-0.7798 I-0.0259 J1.0576
X0.5264 Y-0.7562 I0.1176 J1.5887
G1 X0.4913 Y-0.7475
X0.4567 Y-0.7367
X0.4232 Y-0.7232
X0.391 Y-0.7066
X0.3652 Y-0.6812
X0.3468 Y-0.65
X0.3344 Y-0.6161
G3 X0.316 Y-0.5492 I-0.74 J-0.168
G1 X0.3025 Y-0.5156
X0.2918 Y-0.481
X0.2874 Y-0.4451
X0.2902 Y-0.409
X0.3 Y-0.3742
X0.3161 Y-0.3418
X0.3376 Y-0.3127
X0.3633 Y-0.2872
X0.3923 Y-0.2655
X0.4236 Y-0.2474
X0.4566 Y-0.2325
G2 X0.5967 Y-0.1977 I0.2175 J-0.5762
G1 X0.6329 Y-0.1961
X0.6686 Y-0.2015
G3 X0.7605 Y-0.222 I0.2086 J0.7167
G1 X0.786 Y-0.2272
G3 X0.8205 Y-0.2283 I0.02 J0.084
G1 X0.8493 Y-0.2063
X0.8787 Y-0.1852
G3 X0.9348 Y-0.1414 I-0.2721 J0.4068
X0.9624 Y-0.0759 I-0.0644 J0.0657
G1 Y-0.0193
G3 X0.9448 Y0.0038 I-0.025 J-0.0009
X0.9316 Y0.0042 I-0.0074 J-0.0239 F300.
G1 X0.4562 Y-0.0944
X0.3745 Y-0.1273
X0.316 Y-0.1602
X0.2593 Y-0.2075
X0.2219 Y-0.2506
X0.1853 Y-0.312
X0.1631 Y-0.382
X0.1585 Y-0.4314
X0.1625 Y-0.4889
X0.1723 Y-0.5382
X0.2282 Y-0.7025
X0.2636 Y-0.7601
X0.2997 Y-0.7984
X0.3415 Y-0.8277
X0.3937 Y-0.8505
X0.8823 Y-1.0148
G3 X0.9538 Y-0.9867 I0.0178 J0.0597
X0.9616 Y-0.9655 I-0.0537 J0.0316 F50.
G1 X0.9624 Y-0.9573
Y-0.9117
G3 X0.9438 Y-0.8183 I-0.4118 J-0.0335
X0.9298 Y-0.79 I-0.1141 J-0.039
G1 X0.9108 Y-0.7649
G3 X0.8857 Y-0.7412 I-0.0693 J-0.0483
G2 X0.6332 Y-0.721 I0.1557 J3.53
G1 X0.5974 Y-0.7155
X0.5618 Y-0.7088
X0.5267 Y-0.7003
X0.4928 Y-0.6875
X0.4628 Y-0.6673
X0.4372 Y-0.6418
X0.4154 Y-0.6129
X0.3963 Y-0.5822
X0.3793 Y-0.5502
X0.3666 Y-0.5163
X0.3607 Y-0.4806
X0.363 Y-0.4445
X0.373 Y-0.4097
X0.3899 Y-0.3778
X0.4124 Y-0.3494
X0.4391 Y-0.3251
X0.469 Y-0.3047
X0.4851 Y-0.2963
X0.4892 Y-0.2944
X0.5222 Y-0.2797
X0.5569 Y-0.2695
X0.5928 Y-0.2645
X0.6289 Y-0.2636
X0.6651 Y-0.2651
X0.7011 Y-0.2684
X0.7357 Y-0.2723
G3 X0.8345 Y-0.2559 I0.0216 J0.1763
X0.9311 Y-0.199 I-0.1474 J0.3607
X0.9624 Y-0.1298 I-0.0613 J0.0695
G1 Y-0.0759
X0.9573 Y-0.0615
X0.9438 Y-0.0534
X0.9417 Y-0.0521 F300.
X0.4484 Y-0.1691
X0.3896 Y-0.2012
X0.3333 Y-0.2446
X0.284 Y-0.303
X0.2547 Y-0.3574
X0.237 Y-0.4149
X0.2312 Y-0.4807
X0.2405 Y-0.5464
X0.2675 Y-0.6152
X0.3021 Y-0.6779
X0.3643 Y-0.7519
X0.4168 Y-0.7929
X0.8728 Y-0.9655
G3 X0.9538 Y-0.9411 I0.0273 J0.056
X0.9624 Y-0.9117 I-0.0537 J0.0316 F50.
G1 Y-0.8258
G3 X0.9276 Y-0.7369 I-0.1286 J0.0009
X0.8571 Y-0.7049 I-0.1095 J-0.1473
X0.7522 Y-0.6839 I-0.192 J-0.6875
G2 X0.6222 Y-0.663 I1.2344 J8.1004
G1 X0.5873 Y-0.6536
X0.5543 Y-0.6387
X0.5241 Y-0.6189
X0.4969 Y-0.595
X0.4741 Y-0.5669
X0.4595 Y-0.5338
X0.4552 Y-0.4978
X0.456 Y-0.4934
X0.4569 Y-0.4889
G3 X0.4442 Y-0.4629 I-0.0247 J0.0041
G1 X0.4237 Y-0.4576 F300.
G3 X0.3415 Y-0.6341 I-0.028 J-0.0944
G1 X0.5388 Y-0.7632
X0.5429 Y-0.7658
X0.547 Y-0.7682
X0.8823 Y-0.8833
G3 X0.9538 Y-0.8552 I0.0178 J0.0597
X0.9616 Y-0.834 I-0.0537 J0.0316 F50.
G1 X0.9624 Y-0.8258
Y-0.772
G3 X0.9345 Y-0.714 I-0.0789 J-0.0022
X0.8612 Y-0.6694 I-0.1416 J-0.1499
X0.7456 Y-0.6363 I-0.2265 J-0.5738
G1 X0.7375 Y-0.6323
X0.7298 Y-0.6275
X0.701 Y-0.6056
X0.6803 Y-0.5759
X0.6642 Y-0.5435
X0.6488 Y-0.5108
G2 X0.652 Y-0.4403 I0.0861 J0.0313
G1 X0.6691 Y-0.4084
X0.6958 Y-0.384
X0.7261 Y-0.3642
X0.7581 Y-0.3473
G3 X0.8828 Y-0.2861 I-0.9035 J2.
X0.9292 Y-0.2543 I-0.1776 J0.309
X0.9624 Y-0.1837 I-0.059 J0.0708
G1 Y-0.1298
G3 X0.9448 Y-0.1068 I-0.025 J-0.0009
X0.9252 Y-0.1089 I-0.0074 J-0.0239 F300.
G1 X0.6046 Y-0.2912
X0.5635 Y-0.3374
G3 X0.5553 Y-0.3492 I0.0765 J-0.062
G1 X0.5295 Y-0.4067
X0.5185 Y-0.4724
X0.5261 Y-0.5464
X0.5584 Y-0.6286
X0.5717 Y-0.6593
G3 X0.6082 Y-0.7025 I0.0903 J0.0391
G1 X0.6704 Y-0.7411
X0.8759 Y-0.8272
G3 X0.9538 Y-0.8014 I0.0242 J0.0574
X0.9624 Y-0.772 I-0.0537 J0.0316 F50.
G1 Y-0.7391
G3 X0.9356 Y-0.6806 I-0.0859 J-0.004
X0.8735 Y-0.6342 I-0.1502 J-0.1362
X0.8246 Y-0.6108 I-0.2334 J-0.424
G1 X0.8097 Y-0.6006
G2 X0.775 Y-0.5209 I0.0566 J0.0721
G1 X0.7797 Y-0.4851
X0.7957 Y-0.4526
X0.8172 Y-0.4235
X0.8421 Y-0.3973
X0.8692 Y-0.3733
G3 X0.9359 Y-0.3161 I-0.5756 J0.7388
X0.9624 Y-0.2514 I-0.0668 J0.0651
G1 Y-0.1837
G3 X0.9448 Y-0.1607 I-0.025 J-0.0009
X0.9183 Y-0.1684 I-0.0074 J-0.0239 F300.
G1 X0.7102 Y-0.3492
X0.6745 Y-0.4067
X0.6551 Y-0.4724
X0.658 Y-0.5628
X0.6868 Y-0.6363
G3 X0.7197 Y-0.6812 I0.0926 J0.0334
G1 X0.8594 Y-0.7841
G3 X0.9538 Y-0.7685 I0.0407 J0.0472
X0.9624 Y-0.7391 I-0.0537 J0.0316 F50.
G1 Y-0.7062
G3 X0.9392 Y-0.6497 I-0.0911 J-0.0044
G1 X0.9343 Y-0.6433
X0.9284 Y-0.6367
X0.9028 Y-0.6111
X0.8874 Y-0.5784
X0.8827 Y-0.5425
X0.8873 Y-0.5066
X0.8988 Y-0.4723
X0.9152 Y-0.44
X0.9345 Y-0.4095
X0.9466 Y-0.3916
G3 X0.9624 Y-0.3402 I-0.0759 J0.0514
G1 Y-0.2514
G3 X0.9448 Y-0.2284 I-0.025 J-0.0009
X0.917 Y-0.2379 I-0.0074 J-0.0239 F300.
G1 X0.7901 Y-0.3985
X0.7638 Y-0.4642
X0.7534 Y-0.53
X0.7554 Y-0.5711
G3 X0.7712 Y-0.6204 I0.0983 J0.0045
G1 X0.8463 Y-0.7354
G3 X0.9538 Y-0.7356 I0.0538 J0.0313
X0.9624 Y-0.7062 I-0.0537 J0.0316 F50.
G1 Y-0.6697
X0.9621 Y-0.6637
X0.9612 Y-0.6577
X0.9531 Y-0.6225
X0.9493 Y-0.5865
X0.9516 Y-0.5504
X0.9591 Y-0.515
X0.9609 Y-0.5083
X0.962 Y-0.5014
X0.9624 Y-0.4945
G3 X0.9448 Y-0.4715 I-0.025 J-0.0009
X0.9124 Y-0.4953 I-0.0074 J-0.0239 F300.
G1 Y-0.6688
G3 X0.9448 Y-0.6927 I0.025 J0.
X0.9624 Y-0.6697 I-0.0074 J0.0239 F50.
G1 Y-0.3402
G3 X0.9448 Y-0.3172 I-0.025 J-0.0009
G1 X0.941 Y-0.316 Z-0.2359
X0.9374 Y-0.3149 Z-0.235
X0.9339 Y-0.3138 Z-0.2335
X0.9307 Y-0.3129 Z-0.2314
X0.9279 Y-0.312 Z-0.2289
X0.9254 Y-0.3112 Z-0.2259
X0.9235 Y-0.3106 Z-0.2226
X0.922 Y-0.3102 Z-0.2189
X0.9212 Y-0.3099 Z-0.2151
X0.9209 Y-0.3098 Z-0.2112
G0 Z0.824
(2D CONTOUR6)
G64 P0.0004 Q0.0004
G0 X0.8974 Y-1.0699
Z0.824
Z0.424
G1 Z0.2634 F80.
Z-0.2112
G18 G2 X0.9224 Z-0.2362 I0.025 K0. F50.
G1 X0.9474
G17 G3 X0.9724 Y-1.0449 I0. J0.025
G1 Y0.1
G3 X0.9474 Y0.125 I-0.025 J0.
G1 X0.9224
G18 G3 X0.8974 Z-0.2112 I0. K0.025
G0 Z0.424
Y-1.0699
G1 Z0.2634 F80.
Z-0.2112
G2 X0.9224 Z-0.2362 I0.025 K0. F50.
G1 X0.9474
G17 G3 X0.9724 Y-1.0449 I0. J0.025
G1 Y0.1
G3 X0.9474 Y0.125 I-0.025 J0.
G1 X0.9224
G18 G3 X0.8974 Z-0.2112 I0. K0.025
G0 Z0.824
G17
(2D ADAPTIVE3 2)
G64 P0.004 Q0.004
G0 X12.3361 Y0.2622
Z0.824
Z-1.8549
G1 Z-1.9587 F50.
G3 X12.3165 Y0.1261 I0.6183 J-0.1584
G1 Y0.122
X12.3166 Y0.1201
G3 X12.3678 Y0.0971 I0.0842 J0.1189
X12.4694 Y0.0811 I0.135 J0.5245
G1 X12.5055 Y0.0788
X12.5417 Y0.0774
X12.5779 Y0.0765
X12.6127 Y0.0668
X12.6428 Y0.0466
X12.667 Y0.0197
X12.6856 Y-0.0113
X12.6992 Y-0.0448
X12.709 Y-0.0796
G2 X12.7252 Y-0.2233 I-0.7871 J-0.1616
X12.7287 Y-0.5127 I-7.0023 J-0.2286
G1 X12.729 Y-0.6574
Y-0.8745
X12.7173 Y-0.9087
X12.6959 Y-0.9379
X12.6682 Y-0.9612
X12.6366 Y-0.9789
X12.6029 Y-0.9919
X12.5679 Y-1.0011
G2 X12.4241 Y-1.0164 I-0.1613 J0.8364
G1 X12.388 Y-1.0177
G3 X12.3165 Y-1.0907 I0.0016 J-0.073
G1 X12.3218 Y-1.1052
X12.3351 Y-1.1132
X12.3372 Y-1.1145 F300.
X12.5345 Y-1.1379
X12.6332 Y-1.1176
X12.6907 Y-1.0978
X12.6915 Y-1.0974
X12.6923 Y-1.097
X12.7578 Y-1.0559
X12.7912 Y-1.023
X12.8282 Y-0.9737
X12.8535 Y-0.908
X12.8591 Y-0.8587
X12.8557 Y-0.2752
X12.8443 Y-0.1026
X12.8222 Y-0.004
X12.7894 Y0.0692
X12.7565 Y0.114
X12.7166 Y0.1521
G3 X12.7073 Y0.1603 I-0.0694 J-0.0698
G1 X12.644 Y0.1932
X12.5921 Y0.2054
X12.3701 Y0.1816
G3 X12.3251 Y0.1514 I0.0087 J-0.0617
X12.3165 Y0.122 I0.0537 J-0.0316 F50.
G1 Y0.1097
X12.3166 Y0.1082
G3 X12.3573 Y0.0742 I0.0871 J0.063
X12.4412 Y0.0451 I0.136 J0.2571
G1 X12.4689 Y0.0398
X12.5047 Y0.0349
X12.5388 Y0.0229
X12.5694 Y0.0036
X12.5955 Y-0.0215
X12.6168 Y-0.0508
X12.6336 Y-0.0828
X12.6465 Y-0.1167
X12.656 Y-0.1515
G2 X12.6738 Y-0.295 I-0.8212 J-0.1744
X12.6785 Y-0.5482 I-4.8811 J-0.2173
G1 X12.6788 Y-0.6206
X12.6789 Y-0.7291
X12.679 Y-0.7653
X12.6759 Y-0.8013
X12.6636 Y-0.8354
X12.6437 Y-0.8656
X12.618 Y-0.8911
X12.5883 Y-0.9117
X12.5559 Y-0.9277
X12.5218 Y-0.9399
X12.4867 Y-0.9489
X12.4512 Y-0.9555
G3 X12.3749 Y-0.9748 I0.0418 J-0.3247
X12.3165 Y-1.0604 I0.0338 J-0.0857
G1 X12.3208 Y-1.0734
X12.3342 Y-1.0834
X12.3347 Y-1.0833
X12.5427 Y-1.0674 F300.
G3 X12.5591 Y-1.0641 I-0.0109 J0.0978
G1 X12.6249 Y-1.039
X12.6825 Y-1.0049
X12.7345 Y-0.9573
X12.7603 Y-0.9244
X12.7866 Y-0.8751
X12.8011 Y-0.834
X12.8097 Y-0.7601
X12.8043 Y-0.3163
X12.797 Y-0.1994
X12.7811 Y-0.1179
X12.7615 Y-0.0533
X12.7435 Y-0.0122
X12.7419 Y-0.0081
X12.7401 Y-0.004
X12.7071 Y0.0461
X12.6626 Y0.0946
X12.6032 Y0.1357
X12.5674 Y0.1495
X12.3865 Y0.1693
G3 X12.3251 Y0.1391 I-0.0077 J-0.0618
X12.3165 Y0.1097 I0.0537 J-0.0316 F50.
G1 Y0.0921
X12.3168 Y0.0861
G3 X12.3668 Y0.0356 I0.1137 J0.0624
X12.4098 Y0.0145 I0.1351 J0.2216
G1 X12.4435 Y0.0012
X12.4758 Y-0.015
X12.5052 Y-0.0362
X12.5308 Y-0.0617
X12.5335 Y-0.0653
X12.5361 Y-0.069
X12.5567 Y-0.0988
X12.5734 Y-0.1309
X12.5866 Y-0.1646
G2 X12.6141 Y-0.3063 I-0.6052 J-0.1912
X12.6232 Y-0.5367 I-2.5874 J-0.2173
X12.6242 Y-0.6815 I-8.7322 J-0.1335
G1 X12.6227 Y-0.7176
X12.6216 Y-0.722
X12.6119 Y-0.7569
X12.5949 Y-0.7888
X12.5717 Y-0.8166
X12.544 Y-0.8398
X12.5132 Y-0.8589
G2 X12.4239 Y-0.8972 I-0.3892 J0.7835
G3 X12.3539 Y-0.934 I0.1389 J-0.3492
X12.3165 Y-1.0081 I0.0554 J-0.0744
G1 X12.3222 Y-1.023
X12.3351 Y-1.0306
X12.3372 Y-1.0318 F300.
X12.4605 Y-1.0185
G3 X12.4982 Y-1.0066 I-0.0101 J0.0979
G1 X12.6578 Y-0.8975
X12.6966 Y-0.8587
X12.7206 Y-0.8237
X12.743 Y-0.7683
X12.7528 Y-0.719
X12.7511 Y-0.4067
X12.74 Y-0.2621
X12.7253 Y-0.193
X12.6791 Y-0.0533
X12.6559 Y-0.0122
X12.6083 Y0.0453
X12.5838 Y0.0653
X12.403 Y0.1474
G3 X12.3291 Y0.1275 I-0.0242 J-0.0574
G1 X12.3262 Y0.1211
X12.3178 Y0.1028 F50.
X12.3165 Y0.0921
Y0.0686
G3 X12.3236 Y0.046 I0.0482 J0.0026
X12.3732 Y-0.0053 I0.1354 J0.0815
G2 X12.4193 Y-0.0418 I-0.4209 J-0.5785
X12.4476 Y-0.1154 I-0.0632 J-0.0665
G1 X12.443 Y-0.1513
X12.4408 Y-0.1568
X12.4385 Y-0.1624
X12.4369 Y-0.1666
X12.4673 Y-0.1862
X12.4925 Y-0.2122
X12.5127 Y-0.2422
X12.5282 Y-0.2749
G2 X12.5413 Y-0.3274 I-0.1991 J-0.0776
X12.5154 Y-0.3931 I-0.0948 J-0.0006
G1 X12.489 Y-0.4179
X12.5116 Y-0.4461
X12.5288 Y-0.4779
X12.5415 Y-0.5118
G2 X12.5584 Y-0.5959 I-0.4699 J-0.1382
X12.5143 Y-0.6798 I-0.0915 J-0.0054
G1 X12.4824 Y-0.6969
X12.4765 Y-0.6979
X12.4736 Y-0.6984
X12.4721 Y-0.6988
X12.4631 Y-0.7338
X12.4462 Y-0.7658
X12.424 Y-0.7944
X12.3988 Y-0.8203
G3 X12.341 Y-0.8744 I0.6935 J-0.7982
X12.3165 Y-0.937 I0.0684 J-0.0629
G1 Y-0.9434
G3 X12.3342 Y-0.9664 I0.025 J0.0009
X12.3512 Y-0.9655 I0.0074 J0.0239 F300.
G1 X12.4605 Y-0.9291
G3 X12.5024 Y-0.8998 I-0.0335 J0.0925
G1 X12.5446 Y-0.8505
X12.6446 Y-0.719
X12.6472 Y-0.715
X12.6496 Y-0.7109
X12.6723 Y-0.6615
X12.6841 Y-0.5957
X12.6616 Y-0.267
X12.6381 Y-0.2012
X12.5379 Y0.0124
X12.5098 Y0.0403
X12.4194 Y0.1137
G3 X12.3251 Y0.098 I-0.0406 J-0.0472
X12.3165 Y0.0686 I0.0537 J-0.0316 F50.
G1 Y0.0411
G3 X12.328 Y0.0063 I0.0756 J0.0056
G1 X12.3464 Y-0.0248
X12.3598 Y-0.0584
G3 X12.392 Y-0.1746 I1.4156 J0.33
X12.4096 Y-0.2024 I0.0733 J0.0269
G1 X12.4299 Y-0.2323
X12.4397 Y-0.2671
X12.4424 Y-0.3032
X12.4405 Y-0.3394
X12.4317 Y-0.3745
G3 X12.4194 Y-0.4178 I0.2387 J-0.0911
X12.4199 Y-0.4415 I0.0502 J-0.0109
G1 X12.4431 Y-0.4693
X12.4565 Y-0.5029
X12.4586 Y-0.539
X12.4533 Y-0.5748
X12.4443 Y-0.6099
X12.4326 Y-0.6441
X12.4205 Y-0.6782
X12.4042 Y-0.7105
X12.3844 Y-0.7408
X12.3624 Y-0.7695
X12.3395 Y-0.7975
G3 X12.3165 Y-0.8586 I0.0716 J-0.0618
G1 Y-0.937
G3 X12.3342 Y-0.96 I0.025 J0.0009
X12.3619 Y-0.9506 I0.0074 J0.0239 F300.
G1 X12.5181 Y-0.7747
X12.5466 Y-0.7108
X12.5757 Y-0.6204
X12.5884 Y-0.5382
X12.5674 Y-0.247
X12.5472 Y-0.193
X12.4359 Y0.0639
G3 X12.3251 Y0.0705 I-0.0571 J-0.025
X12.3165 Y0.0411 I0.0537 J-0.0316 F50.
G1 Y-0.004
G3 X12.3294 Y-0.1161 I0.5831 J0.0101
G1 X12.3335 Y-0.1329
X12.3375 Y-0.1461
X12.3411 Y-0.1565
X12.3547 Y-0.19
X12.3667 Y-0.2241
X12.3736 Y-0.2596
X12.3755 Y-0.2958
X12.3742 Y-0.3319
X12.3723 Y-0.3624
G3 X12.3767 Y-0.4149 I0.1709 J-0.0122
G1 X12.3868 Y-0.4497
X12.3923 Y-0.4855
X12.3933 Y-0.5216
X12.3903 Y-0.5577
X12.3837 Y-0.5933
X12.3733 Y-0.6279
X12.3592 Y-0.6612
X12.3422 Y-0.6932
X12.3294 Y-0.7148
X12.3223 Y-0.7295
X12.318 Y-0.7453
X12.3165 Y-0.7616
Y-0.8586
G3 X12.3342 Y-0.8816 I0.025 J0.0009
X12.3619 Y-0.8722 I0.0074 J0.0239 F300.
G1 X12.4909 Y-0.6861
X12.5143 Y-0.6039
X12.5235 Y-0.5135
X12.5184 Y-0.4478
X12.4402 Y0.0042
G3 X12.3251 Y0.0254 I-0.0614 J-0.0104
X12.3165 Y-0.004 I0.0537 J-0.0316 F50.
G1 Y-0.1519
X12.3183 Y-0.1881
G2 X12.3222 Y-0.3314 I-1.5838 J-0.1148
G1 X12.3236 Y-0.3521
X12.3274 Y-0.3881
X12.3326 Y-0.4239
X12.3359 Y-0.4599
X12.3365 Y-0.4961
X12.3336 Y-0.5321
X12.3269 Y-0.5677
X12.3202 Y-0.5905
X12.3182 Y-0.599
X12.3169 Y-0.6076
X12.3165 Y-0.6163
Y-0.7616
G3 X12.3342 Y-0.7846 I0.025 J0.0009
X12.3619 Y-0.7752 I0.0074 J0.0239 F300.
G1 X12.4334 Y-0.6697
G3 X12.4503 Y-0.6286 I-0.0802 J0.057
G1 X12.4663 Y-0.5053
X12.4411 Y-0.1519
G3 X12.3251 Y-0.1226 I-0.0623 J-0.0022
X12.3165 Y-0.1519 I0.0537 J-0.0316 F50.
G1 Y-0.6163
G3 X12.3342 Y-0.6393 I0.025 J0.0009
G1 X12.3379 Y-0.6404 Z-1.9584
X12.3415 Y-0.6416 Z-1.9574
X12.345 Y-0.6426 Z-1.9559
X12.3482 Y-0.6436 Z-1.9539
X12.351 Y-0.6445 Z-1.9513
X12.3535 Y-0.6452 Z-1.9484
X12.3554 Y-0.6458 Z-1.945
X12.3569 Y-0.6463 Z-1.9414
X12.3578 Y-0.6465 Z-1.9376
X12.358 Y-0.6466 Z-1.9337
G0 Z0.824
(2D CONTOUR6 2)
G64 P0.0004 Q0.0004
G0 X12.3815 Y0.225
Z0.824
Z0.424
G1 Z0.2634 F80.
Z-1.9337
G18 G3 X12.3565 Z-1.9587 I-0.025 K0. F50.
G1 X12.3315
G17 G3 X12.3065 Y0.2 I0. J-0.025
G1 Y-0.9449
Y-1.1449
G3 X12.3315 Y-1.1699 I0.025 J0.
G1 X12.3565
G18 G2 X12.3815 Z-1.9337 I0. K0.025
G0 Z0.424
Y0.225
G1 Z0.2634 F80.
Z-1.9337
G3 X12.3565 Z-1.9587 I-0.025 K0. F50.
G1 X12.3315
G17 G3 X12.3065 Y0.2 I0. J-0.025
G1 Y-0.9449
Y-1.1449
G3 X12.3315 Y-1.1699 I0.025 J0.
G1 X12.3565
G18 G2 X12.3815 Z-1.9337 I0. K0.025
G0 Z0.824
X12.854 Y0.1463
Z0.424
G1 Z0.2634 F80.
Z-2.3853
G3 X12.829 Z-2.4103 I-0.025 K0. F50.
G1 X12.804
G17 G3 X12.779 Y0.1213 I0. J-0.025
G1 Y-0.8661
Y-1.0661
G3 X12.804 Y-1.0911 I0.025 J0.
G1 X12.829
G18 G2 X12.854 Z-2.3853 I0. K0.025
G0 Z0.424
Y0.1463
G1 Z0.2634 F80.
Z-2.3853
G3 X12.829 Z-2.4103 I-0.025 K0. F50.
G1 X12.804
G17 G3 X12.779 Y0.1213 I0. J-0.025
G1 Y-0.8661
Y-1.0661
G3 X12.804 Y-1.0911 I0.025 J0.
G1 X12.829
G18 G2 X12.854 Z-2.3853 I0. K0.025
G0 Z0.824
G17
M5
G53 G0 Z0.
(DRILL5)
M9
M1
T51 M6
T101
S5000 M3
G17 G90 G94
G54
M8
G0 X12.4178 Y-0.2362
G43 Z0.824 H51
G0 Z0.424
G98 G81 X12.4178 Y-0.2362 Z-2.6037 R-1.7587 F25.
Y-0.7087
G80
G0 X0.8612 Z0.424
G81 X0.8612 Y-0.7087 Z-0.7828 R-0.0362 F25.
Y-0.2362
X0.2706 Y-0.4724
G80
G0 Z0.824
(DRILL6)
G0 X0.6131 Y-0.4724
Z0.824
Z0.424
G81 X0.6131 Y-0.4724 Z-0.2612 R-0.0362 F25.
G80
G0 X12.4178 Z0.424
G81 X12.4178 Y-0.4724 Z-1.9837 R-1.7587 F25.
G80
G0 Z0.824
M5
G53 G0 Z0.
(DRILL7)
M9
M1
T101 M6
T32
S5000 M3
G17 G90 G94
G54
M8
G0 X0.6131 Y-0.4724
G43 Z0.824 H101
G0 Z0.424
G81 X0.6131 Y-0.4724 Z-0.5906 R-0.0362 F15.
G80
G0 X12.4178 Z0.424
G81 X12.4178 Y-0.4724 Z-2.2343 R-1.7587 F15.
G80
G0 Z0.824
M5
G53 G0 Z0.
(2D CONTOUR7)
M9
M1
T32 M6
T33
S7500 M3
G17 G90 G94
G54
G64 P0.0004 Q0.0004
M8
G0 X0.6143 Y-0.4724
G43 Z0.824 H32
G0 Z0.424
G1 Z0.1247 F10.
G3 X0.6119 I-0.0012 J0. F1.
X0.6143 I0.0012 J0.
G1 Z0.0254 F10.
G3 X0.6119 I-0.0012 J0. F1.
X0.6143 I0.0012 J0.
G1 Z-0.074 F10.
G3 X0.6119 I-0.0012 J0. F1.
X0.6143 I0.0012 J0.
G1 Z-0.1733 F10.
G3 X0.6119 I-0.0012 J0. F1.
X0.6143 I0.0012 J0.
G1 Z-0.2726 F10.
G3 X0.6119 I-0.0012 J0. F1.
X0.6143 I0.0012 J0.
G1 Z-0.3719 F10.
G3 X0.6119 I-0.0012 J0. F1.
X0.6143 I0.0012 J0.
G1 Z-0.4712 F10.
G3 X0.6119 I-0.0012 J0. F1.
X0.6143 I0.0012 J0.
G1 Z-0.5706 F10.
X0.6141 Y-0.4717 F1.
X0.6133 Y-0.4713
X0.6125 Y-0.4714
X0.612 Y-0.472
Y-0.4728
X0.6125 Y-0.4735
X0.6133 Y-0.4736
X0.6141 Y-0.4732
X0.6143 Y-0.4724
X0.6141 Y-0.4717
X0.6133 Y-0.4713
X0.6125 Y-0.4714
X0.612 Y-0.472
Y-0.4728
X0.6125 Y-0.4735
X0.6133 Y-0.4736
X0.6141 Y-0.4732
X0.6143 Y-0.4724
G0 Z0.824
X12.419
Z0.424
G1 Z0.1265 F10.
G3 X12.4166 I-0.0012 J0. F1.
X12.419 I0.0012 J0.
G1 Z0.0289 F10.
G3 X12.4166 I-0.0012 J0. F1.
X12.419 I0.0012 J0.
G1 Z-0.0686 F10.
G3 X12.4166 I-0.0012 J0. F1.
X12.419 I0.0012 J0.
G1 Z-0.1661 F10.
G3 X12.4166 I-0.0012 J0. F1.
X12.419 I0.0012 J0.
G1 Z-0.2637 F10.
G3 X12.4166 I-0.0012 J0. F1.
X12.419 I0.0012 J0.
G1 Z-0.3612 F10.
G3 X12.4166 I-0.0012 J0. F1.
X12.419 I0.0012 J0.
G1 Z-0.4587 F10.
G3 X12.4166 I-0.0012 J0. F1.
X12.419 I0.0012 J0.
G1 Z-0.5562 F10.
G3 X12.4166 I-0.0012 J0. F1.
X12.419 I0.0012 J0.
G1 Z-0.6538 F10.
G3 X12.4166 I-0.0012 J0. F1.
X12.419 I0.0012 J0.
G1 Z-0.7513 F10.
G3 X12.4166 I-0.0012 J0. F1.
X12.419 I0.0012 J0.
G1 Z-0.8488 F10.
G3 X12.4166 I-0.0012 J0. F1.
X12.419 I0.0012 J0.
G1 Z-0.9464 F10.
G3 X12.4166 I-0.0012 J0. F1.
X12.419 I0.0012 J0.
G1 Z-1.0439 F10.
G3 X12.4166 I-0.0012 J0. F1.
X12.419 I0.0012 J0.
G1 Z-1.1414 F10.
G3 X12.4166 I-0.0012 J0. F1.
X12.419 I0.0012 J0.
G1 Z-1.239 F10.
G3 X12.4166 I-0.0012 J0. F1.
X12.419 I0.0012 J0.
G1 Z-1.3365 F10.
G3 X12.4166 I-0.0012 J0. F1.
X12.419 I0.0012 J0.
G1 Z-1.434 F10.
G3 X12.4166 I-0.0012 J0. F1.
X12.419 I0.0012 J0.
G1 Z-1.5315 F10.
G3 X12.4166 I-0.0012 J0. F1.
X12.419 I0.0012 J0.
G1 Z-1.6291 F10.
G3 X12.4166 I-0.0012 J0. F1.
X12.419 I0.0012 J0.
G1 Z-1.7266 F10.
G3 X12.4166 I-0.0012 J0. F1.
X12.419 I0.0012 J0.
G1 Z-1.8241 F10.
G3 X12.4166 I-0.0012 J0. F1.
X12.419 I0.0012 J0.
G1 Z-1.9217 F10.
G3 X12.4166 I-0.0012 J0. F1.
X12.419 I0.0012 J0.
G1 Z-2.0192 F10.
G3 X12.4166 I-0.0012 J0. F1.
X12.419 I0.0012 J0.
G1 Z-2.1167 F10.
G3 X12.4166 I-0.0012 J0. F1.
X12.419 I0.0012 J0.
G1 Z-2.2143 F10.
X12.4187 Y-0.4717 F1.
X12.418 Y-0.4713
X12.4172 Y-0.4714
X12.4166 Y-0.472
Y-0.4729
X12.4172 Y-0.4735
X12.418 Y-0.4736
X12.4187 Y-0.4732
X12.419 Y-0.4724
X12.4187 Y-0.4717
X12.418 Y-0.4713
X12.4172 Y-0.4714
X12.4166 Y-0.472
Y-0.4729
X12.4172 Y-0.4735
X12.418 Y-0.4736
X12.4187 Y-0.4732
X12.419 Y-0.4724
G0 Z0.824
M5
M9
G53 G0 Z0.
M30
%
