%
(OP4 - COUNTERBORES)
(T32 D=0.1875 CR=0. - ZMIN=-1.9378 - FLAT END MILL)
(T72 D=0.1875 CR=0.0937 - ZMIN=-1.9056 - BALL END MILL)
G90 G94 G17 G91.1
G20
G53 G0 Z0.
(2D CONTOUR12)
T32 M6
T72
S7500 M3
G17 G90 G94
G54
G64 P0.0004 Q0.0004
M8
G0 X0.2636 Y-0.2546
G43 Z0.6248 H32
G0 Z0.2248
G1 Z0.0623 F80.
Z-0.0982
X0.2639 Z-0.1015 F20.
X0.2648 Z-0.1046
X0.2661 Z-0.1076
X0.268 Y-0.2545 Z-0.1103
X0.2703 Z-0.1126
X0.273 Z-0.1144
X0.276 Y-0.2544 Z-0.1158
X0.2791 Z-0.1167
X0.2824 Y-0.2543 Z-0.117
X0.3011 Y-0.2541
G3 X0.3196 Y-0.2351 I-0.0003 J0.0187
X0.1528 Y-0.2373 I-0.0834 J-0.0011
X0.3196 Y-0.2351 I0.0834 J0.0011
X0.1528 Y-0.2373 I-0.0834 J-0.0011
X0.3196 Y-0.2351 I0.0834 J0.0011
X0.3006 Y-0.2166 I-0.0187 J-0.0003
G1 X0.2819 Y-0.2169
X0.2786 Z-0.1167
X0.2755 Z-0.1158
X0.2725 Y-0.217 Z-0.1144
X0.2698 Z-0.1126
X0.2675 Z-0.1103
X0.2656 Y-0.2171 Z-0.1076
X0.2643 Z-0.1046
X0.2634 Z-0.1015
X0.2631 Z-0.0982
G0 Z0.2248
X0.2668 Y-0.7211
G1 Z0.0623 F80.
Z-0.0982
X0.2671 Z-0.1015 F20.
X0.2679 Y-0.7209 Z-0.1046
X0.2692 Y-0.7206 Z-0.1076
X0.2711 Y-0.7202 Z-0.1103
X0.2733 Y-0.7197 Z-0.1126
X0.2759 Y-0.7191 Z-0.1144
X0.2788 Y-0.7185 Z-0.1158
X0.2819 Y-0.7178 Z-0.1167
X0.2851 Y-0.7171 Z-0.117
X0.3034 Y-0.7131
G3 X0.3177 Y-0.6908 I-0.004 J0.0183
X0.1547 Y-0.7266 I-0.0815 J-0.0179
X0.3177 Y-0.6908 I0.0815 J0.0179
X0.1547 Y-0.7266 I-0.0815 J-0.0179
X0.3177 Y-0.6908 I0.0815 J0.0179
X0.2954 Y-0.6765 I-0.0183 J-0.004
G1 X0.277 Y-0.6805
X0.2739 Y-0.6812 Z-0.1167
X0.2708 Y-0.6819 Z-0.1158
X0.2679 Y-0.6825 Z-0.1144
X0.2653 Y-0.6831 Z-0.1126
X0.263 Y-0.6836 Z-0.1103
X0.2612 Y-0.684 Z-0.1076
X0.2598 Y-0.6843 Z-0.1046
X0.259 Y-0.6845 Z-0.1015
X0.2587 Z-0.0982
G0 Z0.6248
X12.4108 Y-0.4908
Z0.2248
G1 Z0.0623 F80.
Z-1.9191
X12.4111 Z-1.9223 F20.
X12.4119 Z-1.9255
X12.4133 Z-1.9285
X12.4152 Y-0.4907 Z-1.9311
X12.4175 Z-1.9334
X12.4202 Z-1.9353
X12.4231 Y-0.4906 Z-1.9367
X12.4263 Z-1.9375
X12.4295 Z-1.9378
X12.4483 Y-0.4903
G3 X12.4668 Y-0.4713 I-0.0003 J0.0187
X12.3 Y-0.4735 I-0.0834 J-0.0011
X12.4668 Y-0.4713 I0.0834 J0.0011
X12.3 Y-0.4735 I-0.0834 J-0.0011
X12.4668 Y-0.4713 I0.0834 J0.0011
X12.4478 Y-0.4528 I-0.0187 J-0.0003
G1 X12.429 Y-0.4531
X12.4258 Z-1.9375
X12.4226 Z-1.9367
X12.4196 Y-0.4532 Z-1.9353
X12.417 Z-1.9334
X12.4147 Y-0.4533 Z-1.9311
X12.4128 Z-1.9285
X12.4114 Z-1.9255
X12.4106 Z-1.9223
X12.4103 Z-1.9191
G0 Z0.2248
X11.82 Y-0.255
G1 Z0.0623 F80.
Z-1.9191
G18 G2 X11.8387 Z-1.9378 I0.0187 K0. F20.
G1 X11.8575
G17 G3 X11.8762 Y-0.2362 I0. J0.0188
X11.7094 I-0.0834 J0.
X11.8762 I0.0834 J0.
X11.7094 I-0.0834 J0.
X11.8762 I0.0834 J0.
X11.8575 Y-0.2175 I-0.0188 J0.
G1 X11.8387
G18 G3 X11.82 Z-1.9191 I0. K0.0187
G0 Z0.2248
X11.8234 Y-0.7211
G1 Z0.0623 F80.
Z-1.9191
X11.8236 Z-1.9223 F20.
X11.8245 Y-0.7209 Z-1.9255
X11.8258 Y-0.7206 Z-1.9285
X11.8277 Y-0.7202 Z-1.9311
X11.8299 Y-0.7197 Z-1.9334
X11.8325 Y-0.7191 Z-1.9353
X11.8354 Y-0.7185 Z-1.9367
X11.8385 Y-0.7178 Z-1.9375
X11.8417 Y-0.7171 Z-1.9378
X11.86 Y-0.7131
G17 G3 X11.8743 Y-0.6908 I-0.004 J0.0183
X11.7113 Y-0.7265 I-0.0815 J-0.0179
X11.8743 Y-0.6908 I0.0815 J0.0179
X11.7113 Y-0.7265 I-0.0815 J-0.0179
X11.8743 Y-0.6908 I0.0815 J0.0179
X11.852 Y-0.6765 I-0.0183 J-0.004
G1 X11.8336 Y-0.6805
X11.8305 Y-0.6812 Z-1.9375
X11.8274 Y-0.6819 Z-1.9367
X11.8245 Y-0.6825 Z-1.9353
X11.8219 Y-0.6831 Z-1.9334
X11.8196 Y-0.6836 Z-1.9311
X11.8178 Y-0.684 Z-1.9285
X11.8164 Y-0.6843 Z-1.9255
X11.8156 Y-0.6844 Z-1.9223
X11.8153 Y-0.6845 Z-1.9191
G0 Z0.6248
M5
G53 G0 Z0.
(TRACE3)
M9
M1
T72 M6
T32
S7500 M3
G17 G90 G94
G54
M8
G0 X0.1832 Y-0.133
G43 Z0.6248 H72
G0 Z0.0714
G1 Z-0.0558 F30.
X0.177 Y-0.1364 Z-0.0544
X0.1712 Y-0.1401 Z-0.0531
X0.1656 Y-0.1441 Z-0.0518
X0.1603 Y-0.1485 Z-0.0506
X0.1552 Y-0.1531 Z-0.0494
X0.1504 Y-0.1581 Z-0.0483
X0.1459 Y-0.1633 Z-0.0473
X0.1418 Y-0.1688 Z-0.0464
X0.1379 Y-0.1745 Z-0.0455
X0.1344 Y-0.1804 Z-0.0447
X0.1313 Y-0.1866 Z-0.044
X0.1286 Y-0.1929 Z-0.0434
X0.1262 Y-0.1993 Z-0.0428
X0.1242 Y-0.2059 Z-0.0424
X0.1226 Y-0.2126 Z-0.042
X0.1214 Y-0.2193 Z-0.0417
X0.1206 Y-0.2261 Z-0.0416
X0.1202 Y-0.233 Z-0.0415
Y-0.2399
X0.1206 Y-0.2467 Z-0.0416
X0.1215 Y-0.2535 Z-0.0417
X0.1227 Y-0.2603 Z-0.042
X0.1243 Y-0.267 Z-0.0424
X0.1263 Y-0.2735 Z-0.0429
X0.1287 Y-0.28 Z-0.0434
X0.1315 Y-0.2863 Z-0.044
X0.1347 Y-0.2924 Z-0.0448
X0.1382 Y-0.2983 Z-0.0455
X0.142 Y-0.304 Z-0.0464
X0.1462 Y-0.3095 Z-0.0474
X0.1507 Y-0.3147 Z-0.0484
X0.1555 Y-0.3196 Z-0.0495
X0.1606 Y-0.3242 Z-0.0507
X0.1659 Y-0.3286 Z-0.0519
X0.1715 Y-0.3326 Z-0.0531
X0.1774 Y-0.3363 Z-0.0545
X0.1834 Y-0.3396 Z-0.0559
X0.1896 Y-0.3425 Z-0.0573
X0.196 Y-0.3451 Z-0.0587
X0.2026 Y-0.3473 Z-0.0602
X0.2093 Y-0.3491 Z-0.0617
X0.216 Y-0.3505 Z-0.0633
X0.2228 Y-0.3515 Z-0.0648
X0.2297 Y-0.3521 Z-0.0664
X0.2366 Y-0.3523 Z-0.068
X0.2435 Y-0.3521 Z-0.0695
X0.2504 Y-0.3514 Z-0.0711
X0.2572 Y-0.3504 Z-0.0727
X0.264 Y-0.3489 Z-0.0742
X0.2706 Y-0.3471 Z-0.0757
X0.2772 Y-0.3448 Z-0.0772
X0.2835 Y-0.3422 Z-0.0786
X0.2897 Y-0.3392 Z-0.0801
X0.2958 Y-0.3358 Z-0.0814
X0.3016 Y-0.3321 Z-0.0827
X0.3072 Y-0.3281 Z-0.084
X0.3125 Y-0.3237 Z-0.0852
X0.3175 Y-0.319 Z-0.0864
X0.3223 Y-0.3141 Z-0.0875
X0.3268 Y-0.3088 Z-0.0885
X0.3309 Y-0.3033 Z-0.0894
X0.3347 Y-0.2976 Z-0.0903
X0.3382 Y-0.2916 Z-0.0911
X0.3413 Y-0.2855 Z-0.0918
X0.344 Y-0.2792 Z-0.0924
X0.3464 Y-0.2728 Z-0.0929
X0.3484 Y-0.2662 Z-0.0934
X0.3499 Y-0.2595 Z-0.0938
X0.3511 Y-0.2527 Z-0.094
X0.3519 Y-0.2459 Z-0.0942
X0.3523 Y-0.239 Z-0.0943
X0.3522 Y-0.2322
X0.3518 Y-0.2253 Z-0.0942
X0.3509 Y-0.2185 Z-0.094
X0.3497 Y-0.2117 Z-0.0937
X0.348 Y-0.2051 Z-0.0933
X0.346 Y-0.1985 Z-0.0929
X0.3436 Y-0.1921 Z-0.0923
X0.3408 Y-0.1858 Z-0.0917
X0.3376 Y-0.1797 Z-0.0909
X0.3341 Y-0.1738 Z-0.0901
X0.3302 Y-0.1681 Z-0.0893
X0.326 Y-0.1627 Z-0.0883
X0.3215 Y-0.1575 Z-0.0873
X0.3167 Y-0.1526 Z-0.0862
X0.3116 Y-0.1479 Z-0.085
X0.3062 Y-0.1436 Z-0.0838
X0.3006 Y-0.1396 Z-0.0825
X0.2946 Y-0.1359 Z-0.0812
X0.2894 Y-0.133 Z-0.08
X0.2841 Y-0.1305 Z-0.0827
X0.2787 Y-0.1282 Z-0.085
X0.2733 Y-0.1262 Z-0.0868
X0.2677 Y-0.1245 Z-0.0882
X0.2621 Y-0.1231 Z-0.0891
X0.2565 Y-0.1219 Z-0.0896
X0.2508 Y-0.1211 Z-0.0897
X0.245 Y-0.1205 Z-0.0893
X0.2393 Y-0.1202 Z-0.0884
X0.2335 Z-0.0871
X0.2277 Y-0.1205 Z-0.0853
X0.2219 Y-0.121 Z-0.0831
X0.2161 Y-0.1219 Z-0.0805
X0.2104 Y-0.1231 Z-0.0774
X0.2047 Y-0.1245 Z-0.0739
X0.1991 Y-0.1263 Z-0.0699
X0.1935 Y-0.1283 Z-0.0655
X0.1879 Y-0.1307 Z-0.0606
X0.1832 Y-0.133 Z-0.0558
Z0.0714
G0 Z0.2248
X0.222 Y-0.5935
Z0.0708
G1 Z-0.0646 F30.
X0.2152 Y-0.5945 Z-0.0631
X0.2085 Y-0.596 Z-0.0616
X0.2018 Y-0.5978 Z-0.06
X0.1953 Y-0.6001 Z-0.0586
X0.1889 Y-0.6027 Z-0.0571
X0.1827 Y-0.6057 Z-0.0557
X0.1767 Y-0.609 Z-0.0543
X0.1709 Y-0.6128 Z-0.053
X0.1653 Y-0.6168 Z-0.0517
X0.16 Y-0.6212 Z-0.0505
X0.1549 Y-0.6259 Z-0.0494
X0.1501 Y-0.6308 Z-0.0483
X0.1457 Y-0.6361 Z-0.0473
X0.1415 Y-0.6416 Z-0.0463
X0.1377 Y-0.6473 Z-0.0454
X0.1343 Y-0.6532 Z-0.0447
X0.1311 Y-0.6594 Z-0.044
X0.1284 Y-0.6657 Z-0.0433
X0.1261 Y-0.6721 Z-0.0428
X0.1241 Y-0.6787 Z-0.0423
X0.1225 Y-0.6854 Z-0.042
X0.1213 Y-0.6922 Z-0.0417
X0.1206 Y-0.699 Z-0.0415
X0.1202 Y-0.7058
Y-0.7127
X0.1207 Y-0.7196 Z-0.0416
X0.1215 Y-0.7264 Z-0.0418
X0.1228 Y-0.7331 Z-0.042
X0.1244 Y-0.7398 Z-0.0424
X0.1265 Y-0.7464 Z-0.0429
X0.1289 Y-0.7528 Z-0.0434
X0.1317 Y-0.7591 Z-0.0441
X0.1348 Y-0.7652 Z-0.0448
X0.1384 Y-0.7711 Z-0.0456
X0.1422 Y-0.7768 Z-0.0465
X0.1464 Y-0.7822 Z-0.0474
X0.151 Y-0.7874 Z-0.0485
X0.1558 Y-0.7923 Z-0.0496
X0.1609 Y-0.797 Z-0.0507
X0.1662 Y-0.8013 Z-0.0519
X0.1719 Y-0.8053 Z-0.0532
X0.1778 Y-0.809 Z-0.0546
X0.183 Y-0.8118 Z-0.0558
X0.1885 Y-0.8145 Z-0.0611
X0.1941 Y-0.8168 Z-0.0659
X0.1997 Y-0.8188 Z-0.0703
X0.2053 Y-0.8205 Z-0.0743
X0.2111 Y-0.822 Z-0.0778
X0.2168 Y-0.8231 Z-0.0808
X0.2226 Y-0.8239 Z-0.0834
X0.2284 Y-0.8245 Z-0.0856
X0.2342 Y-0.8247 Z-0.0873
X0.24 Z-0.0885
X0.2458 Y-0.8243 Z-0.0893
X0.2515 Y-0.8237 Z-0.0897
X0.2572 Y-0.8228 Z-0.0896
X0.2629 Y-0.8216 Z-0.089
X0.2685 Y-0.8201 Z-0.0881
X0.274 Y-0.8184 Z-0.0866
X0.2794 Y-0.8164 Z-0.0847
X0.2849 Y-0.814 Z-0.0824
X0.2892 Y-0.8119 Z-0.08
X0.2954 Y-0.8085 Z-0.0813
X0.3013 Y-0.8048 Z-0.0827
X0.3068 Y-0.8008 Z-0.0839
X0.3122 Y-0.7964 Z-0.0852
X0.3173 Y-0.7918 Z-0.0863
X0.322 Y-0.7868 Z-0.0874
X0.3265 Y-0.7816 Z-0.0884
X0.3307 Y-0.7761 Z-0.0894
X0.3345 Y-0.7704 Z-0.0902
X0.338 Y-0.7644 Z-0.091
X0.3411 Y-0.7583 Z-0.0917
X0.3439 Y-0.752 Z-0.0924
X0.3463 Y-0.7456 Z-0.0929
X0.3483 Y-0.739 Z-0.0934
X0.3498 Y-0.7323 Z-0.0937
X0.351 Y-0.7256 Z-0.094
X0.3518 Y-0.7187 Z-0.0942
X0.3522 Y-0.7119 Z-0.0943
Y-0.705
X0.3518 Y-0.6982 Z-0.0942
X0.351 Y-0.6913 Z-0.094
X0.3498 Y-0.6846 Z-0.0937
X0.3481 Y-0.6779 Z-0.0933
X0.3461 Y-0.6713 Z-0.0929
X0.3437 Y-0.6649 Z-0.0923
X0.3409 Y-0.6586 Z-0.0917
X0.3378 Y-0.6525 Z-0.091
X0.3343 Y-0.6466 Z-0.0902
X0.3304 Y-0.6409 Z-0.0893
X0.3263 Y-0.6354 Z-0.0884
X0.3218 Y-0.6302 Z-0.0873
X0.317 Y-0.6253 Z-0.0862
X0.3119 Y-0.6206 Z-0.0851
X0.3065 Y-0.6163 Z-0.0839
X0.3009 Y-0.6123 Z-0.0826
X0.2951 Y-0.6086 Z-0.0813
X0.289 Y-0.6053 Z-0.0799
X0.2828 Y-0.6024 Z-0.0785
X0.2764 Y-0.5998 Z-0.077
X0.2699 Y-0.5976 Z-0.0755
X0.2632 Y-0.5958 Z-0.074
X0.2564 Y-0.5944 Z-0.0725
X0.2496 Y-0.5934 Z-0.0709
X0.2427 Y-0.5928 Z-0.0693
X0.2358 Y-0.5926 Z-0.0678
X0.2289 Y-0.5928 Z-0.0662
X0.222 Y-0.5935 Z-0.0646
Z0.0708
G0 Z0.2248
X11.6768 Y-0.7128
Z-1.6518
G1 Z-1.7647 F30.
X11.6772 Y-0.7196 Z-1.7648
X11.6781 Y-0.7263 Z-1.765
X11.6794 Y-0.7331 Z-1.7653
X11.681 Y-0.7398 Z-1.7656
X11.6831 Y-0.7464 Z-1.7661
X11.6855 Y-0.7529 Z-1.7667
X11.6883 Y-0.7591 Z-1.7673
X11.6914 Y-0.7651 Z-1.768
X11.695 Y-0.7711 Z-1.7688
X11.6988 Y-0.7768 Z-1.7697
X11.7031 Y-0.7822 Z-1.7707
X11.7076 Y-0.7874 Z-1.7717
X11.7124 Y-0.7924 Z-1.7728
X11.7175 Y-0.797 Z-1.7739
X11.7228 Y-0.8012 Z-1.7752
X11.7285 Y-0.8053 Z-1.7764
X11.7344 Y-0.809 Z-1.7778
X11.7396 Y-0.8118 Z-1.779
X11.7451 Y-0.8145 Z-1.7843
X11.7506 Y-0.8168 Z-1.7892
X11.7563 Y-0.8188 Z-1.7936
X11.7619 Y-0.8205 Z-1.7975
X11.7676 Y-0.822 Z-1.801
X11.7734 Y-0.8231 Z-1.8041
X11.7792 Y-0.8239 Z-1.8067
X11.785 Y-0.8245 Z-1.8088
X11.7908 Y-0.8247 Z-1.8105
X11.7966 Z-1.8118
X11.8024 Y-0.8243 Z-1.8126
X11.8082 Y-0.8237 Z-1.8129
X11.8138 Y-0.8228 Z-1.8128
X11.8195 Y-0.8216 Z-1.8123
X11.8251 Y-0.8201 Z-1.8113
X11.8306 Y-0.8184 Z-1.8098
X11.836 Y-0.8164 Z-1.808
X11.8415 Y-0.814 Z-1.8056
X11.8458 Y-0.8119 Z-1.8032
X11.852 Y-0.8085 Z-1.8046
X11.8579 Y-0.8048 Z-1.8059
X11.8635 Y-0.8008 Z-1.8072
X11.8687 Y-0.7965 Z-1.8084
X11.8738 Y-0.7918 Z-1.8095
X11.8787 Y-0.7868 Z-1.8106
X11.8831 Y-0.7816 Z-1.8116
X11.8873 Y-0.7761 Z-1.8126
X11.8912 Y-0.7703 Z-1.8135
X11.8946 Y-0.7645 Z-1.8143
X11.8977 Y-0.7583 Z-1.815
X11.9005 Y-0.752 Z-1.8156
X11.9028 Y-0.7456 Z-1.8161
X11.9048 Y-0.739 Z-1.8166
X11.9065 Y-0.7323 Z-1.817
X11.9077 Y-0.7255 Z-1.8172
X11.9085 Y-0.7188 Z-1.8174
X11.9088 Y-0.712 Z-1.8175
Y-0.705
X11.9084 Y-0.6981 Z-1.8174
X11.9076 Y-0.6913 Z-1.8172
X11.9064 Y-0.6845 Z-1.8169
X11.9048 Y-0.678 Z-1.8166
X11.8975 Y-0.6585 Z-1.8149
X11.8944 Y-0.6525 Z-1.8142
X11.8909 Y-0.6467 Z-1.8134
X11.887 Y-0.6409 Z-1.8125
X11.8828 Y-0.6354 Z-1.8116
X11.8783 Y-0.6302 Z-1.8106
X11.8736 Y-0.6253 Z-1.8095
X11.8685 Y-0.6206 Z-1.8083
X11.8631 Y-0.6163 Z-1.8071
X11.8575 Y-0.6123 Z-1.8058
X11.8516 Y-0.6086 Z-1.8045
X11.8456 Y-0.6053 Z-1.8031
X11.8394 Y-0.6024 Z-1.8017
X11.833 Y-0.5998 Z-1.8002
X11.8264 Y-0.5976 Z-1.7987
X11.8198 Y-0.5958 Z-1.7972
X11.813 Y-0.5944 Z-1.7957
X11.8062 Y-0.5934 Z-1.7941
X11.7993 Y-0.5928 Z-1.7926
X11.7924 Y-0.5926 Z-1.791
X11.7855 Y-0.5928 Z-1.7894
X11.7786 Y-0.5935 Z-1.7879
X11.7718 Y-0.5945 Z-1.7863
X11.765 Y-0.596 Z-1.7848
X11.7584 Y-0.5978 Z-1.7833
X11.7519 Y-0.6001 Z-1.7818
X11.7455 Y-0.6027 Z-1.7803
X11.7393 Y-0.6057 Z-1.7789
X11.7333 Y-0.609 Z-1.7775
X11.7274 Y-0.6128 Z-1.7762
X11.7219 Y-0.6168 Z-1.7749
X11.7165 Y-0.6212 Z-1.7737
X11.7115 Y-0.6258 Z-1.7726
X11.7067 Y-0.6308 Z-1.7715
X11.7022 Y-0.6361 Z-1.7705
X11.6981 Y-0.6415 Z-1.7695
X11.6943 Y-0.6473 Z-1.7687
X11.6909 Y-0.6532 Z-1.7679
X11.6878 Y-0.6593 Z-1.7672
X11.685 Y-0.6657 Z-1.7666
X11.6826 Y-0.6722 Z-1.766
X11.6807 Y-0.6787 Z-1.7656
X11.6791 Y-0.6854 Z-1.7652
X11.6779 Y-0.6922 Z-1.7649
X11.6772 Y-0.699 Z-1.7648
X11.6768 Y-0.7059 Z-1.7647
Y-0.7128
Z-1.6518
G0 Z0.2248
X11.807 Y-0.3514
Z-1.6544
G1 Z-1.7943 F30.
X11.8138 Y-0.3504 Z-1.7959
X11.8206 Y-0.3489 Z-1.7974
X11.8272 Y-0.3471 Z-1.7989
X11.8337 Y-0.3448 Z-1.8004
X11.8401 Y-0.3422 Z-1.8019
X11.8463 Y-0.3392 Z-1.8033
X11.8524 Y-0.3358 Z-1.8047
X11.8582 Y-0.3321 Z-1.806
X11.8638 Y-0.3281 Z-1.8072
X11.8691 Y-0.3237 Z-1.8085
X11.8741 Y-0.3191 Z-1.8096
X11.8789 Y-0.3141 Z-1.8107
X11.8834 Y-0.3088 Z-1.8117
X11.8875 Y-0.3033 Z-1.8127
X11.8913 Y-0.2976 Z-1.8135
X11.8948 Y-0.2917 Z-1.8143
X11.8979 Y-0.2855 Z-1.815
X11.9006 Y-0.2791 Z-1.8156
X11.903 Y-0.2727 Z-1.8162
X11.9049 Y-0.2662 Z-1.8166
X11.9065 Y-0.2594 Z-1.817
X11.9077 Y-0.2527 Z-1.8172
X11.9085 Y-0.2459 Z-1.8174
X11.9088 Y-0.239 Z-1.8175
Y-0.2321
X11.9084 Y-0.2253 Z-1.8174
X11.9075 Y-0.2186 Z-1.8172
X11.9063 Y-0.2118 Z-1.8169
X11.9046 Y-0.2051 Z-1.8165
X11.9026 Y-0.1985 Z-1.8161
X11.9001 Y-0.192 Z-1.8155
X11.8973 Y-0.1858 Z-1.8149
X11.8942 Y-0.1798 Z-1.8142
X11.8907 Y-0.1738 Z-1.8134
X11.8868 Y-0.1681 Z-1.8125
X11.8826 Y-0.1627 Z-1.8115
X11.8781 Y-0.1575 Z-1.8105
X11.8732 Y-0.1525 Z-1.8094
X11.8682 Y-0.1479 Z-1.8082
X11.8628 Y-0.1437 Z-1.807
X11.8571 Y-0.1396 Z-1.8057
X11.8512 Y-0.1359 Z-1.8044
X11.846 Y-0.133 Z-1.8032
X11.8407 Y-0.1305 Z-1.8059
X11.8353 Y-0.1282 Z-1.8082
X11.8299 Y-0.1262 Z-1.8101
X11.8243 Y-0.1245 Z-1.8114
X11.8188 Y-0.1231 Z-1.8124
X11.8131 Y-0.1219 Z-1.8129
X11.8074 Y-0.1211
X11.8016 Y-0.1205 Z-1.8125
X11.7958 Y-0.1202 Z-1.8116
X11.7901 Z-1.8103
X11.7843 Y-0.1205 Z-1.8086
X11.7785 Y-0.121 Z-1.8064
X11.7727 Y-0.1219 Z-1.8037
X11.767 Y-0.1231 Z-1.8006
X11.7613 Y-0.1245 Z-1.7971
X11.7557 Y-0.1263 Z-1.7931
X11.7501 Y-0.1283 Z-1.7887
X11.7445 Y-0.1307 Z-1.7838
X11.7398 Y-0.133 Z-1.779
X11.7336 Y-0.1364 Z-1.7776
X11.7278 Y-0.1401 Z-1.7763
X11.7222 Y-0.1441 Z-1.775
X11.7169 Y-0.1484 Z-1.7738
X11.7118 Y-0.1531 Z-1.7727
X11.707 Y-0.1581 Z-1.7716
X11.7025 Y-0.1633 Z-1.7705
X11.6983 Y-0.1688 Z-1.7696
X11.6945 Y-0.1745 Z-1.7687
X11.691 Y-0.1804 Z-1.7679
X11.6879 Y-0.1866 Z-1.7672
X11.6851 Y-0.1929 Z-1.7666
X11.6828 Y-0.1993 Z-1.766
X11.6808 Y-0.2059 Z-1.7656
X11.6792 Y-0.2126 Z-1.7652
X11.678 Y-0.2194 Z-1.765
X11.6772 Y-0.2261 Z-1.7648
X11.6768 Y-0.2329 Z-1.7647
Y-0.2398
X11.6772 Y-0.2468 Z-1.7648
X11.6781 Y-0.2536 Z-1.765
X11.6793 Y-0.2604 Z-1.7653
X11.6809 Y-0.2669 Z-1.7656
X11.6881 Y-0.2863 Z-1.7673
X11.6912 Y-0.2924 Z-1.768
X11.6947 Y-0.2982 Z-1.7688
X11.6986 Y-0.304 Z-1.7697
X11.7028 Y-0.3095 Z-1.7706
X11.7073 Y-0.3147 Z-1.7716
X11.712 Y-0.3196 Z-1.7727
X11.7172 Y-0.3242 Z-1.7739
X11.7225 Y-0.3286 Z-1.7751
X11.7281 Y-0.3326 Z-1.7764
X11.734 Y-0.3363 Z-1.7777
X11.74 Y-0.3396 Z-1.7791
X11.7462 Y-0.3425 Z-1.7805
X11.7526 Y-0.3451 Z-1.782
X11.7592 Y-0.3473 Z-1.7834
X11.7659 Y-0.3491 Z-1.785
X11.7726 Y-0.3505 Z-1.7865
X11.7794 Y-0.3515 Z-1.788
X11.7863 Y-0.3521 Z-1.7896
X11.7932 Y-0.3523 Z-1.7912
X11.8001 Y-0.3521 Z-1.7928
X11.807 Y-0.3514 Z-1.7943
Z-1.6544
G0 Z0.2248
X12.2832 Y-0.4138
Z-1.7398
G1 Z-1.8564 F30.
X12.2799 Y-0.4199 Z-1.8556
X12.277 Y-0.4261 Z-1.8549
X12.2744 Y-0.4324 Z-1.8544
X12.2722 Y-0.439 Z-1.8539
X12.2704 Y-0.4456 Z-1.8535
X12.2675 Y-0.4659 Z-1.8528
X12.2673 Y-0.4728 Z-1.8527
X12.2675 Y-0.4797 Z-1.8528
X12.2682 Y-0.4865 Z-1.8529
X12.2692 Y-0.4933 Z-1.8532
X12.2706 Y-0.5 Z-1.8535
X12.2725 Y-0.5067 Z-1.8539
X12.2747 Y-0.5132 Z-1.8544
X12.2773 Y-0.5196 Z-1.855
X12.2803 Y-0.5258 Z-1.8557
X12.2836 Y-0.5318 Z-1.8564
X12.2873 Y-0.5376 Z-1.8573
X12.2913 Y-0.5431 Z-1.8582
X12.2956 Y-0.5484 Z-1.8592
X12.3003 Y-0.5535 Z-1.8602
X12.3053 Y-0.5583 Z-1.8614
X12.3105 Y-0.5628 Z-1.8626
X12.316 Y-0.5669 Z-1.8638
X12.3218 Y-0.5708 Z-1.8651
X12.3277 Y-0.5743 Z-1.8665
X12.3338 Y-0.5774 Z-1.8679
X12.3402 Y-0.5802 Z-1.8693
X12.3466 Y-0.5825 Z-1.8708
X12.3532 Y-0.5845 Z-1.8723
X12.3599 Y-0.5861 Z-1.8738
X12.3667 Y-0.5873 Z-1.8754
X12.3736 Y-0.5881 Z-1.8769
X12.3805 Y-0.5885 Z-1.8785
X12.3874 Y-0.5884 Z-1.8801
X12.3943 Y-0.588 Z-1.8816
X12.4012 Y-0.5871 Z-1.8832
X12.4079 Y-0.5859 Z-1.8847
X12.4146 Y-0.5842 Z-1.8863
X12.4212 Y-0.5821 Z-1.8878
X12.4277 Y-0.5797 Z-1.8892
X12.434 Y-0.5769 Z-1.8907
X12.4401 Y-0.5737 Z-1.8921
X12.446 Y-0.5701 Z-1.8934
X12.4517 Y-0.5663 Z-1.8947
X12.4571 Y-0.5621 Z-1.8959
X12.4623 Y-0.5575 Z-1.8971
X12.4672 Y-0.5527 Z-1.8982
X12.4719 Y-0.5475 Z-1.8993
X12.4762 Y-0.5421 Z-1.9003
X12.4801 Y-0.5366 Z-1.9012
X12.4837 Y-0.5308 Z-1.902
X12.487 Y-0.5246 Z-1.9027
X12.4899 Y-0.5185 Z-1.9034
X12.4925 Y-0.512 Z-1.904
X12.4946 Y-0.5055 Z-1.9045
X12.4987 Y-0.4854 Z-1.9054
X12.4993 Y-0.4785 Z-1.9055
X12.4994 Y-0.4725 Z-1.9056
X12.4992 Y-0.4655 Z-1.9055
X12.4986 Y-0.4588 Z-1.9054
X12.4976 Y-0.4519 Z-1.9052
X12.4962 Y-0.4452 Z-1.9048
X12.4944 Y-0.4386 Z-1.9044
X12.4922 Y-0.4321 Z-1.9039
X12.4896 Y-0.4258 Z-1.9033
X12.4866 Y-0.4195 Z-1.9027
X12.4834 Y-0.4135 Z-1.9019
X12.4797 Y-0.4077 Z-1.9011
X12.4756 Y-0.4021 Z-1.9002
X12.4713 Y-0.3967 Z-1.8992
X12.4667 Y-0.3916 Z-1.8981
X12.4618 Y-0.3869 Z-1.897
X12.4565 Y-0.3824 Z-1.8958
X12.451 Y-0.3781 Z-1.8946
X12.4454 Y-0.3743 Z-1.8933
X12.4394 Y-0.3708 Z-1.8919
X12.4333 Y-0.3676 Z-1.8905
X12.427 Y-0.3649 Z-1.8891
X12.4205 Y-0.3625 Z-1.8876
X12.4139 Y-0.3605 Z-1.8861
X12.4072 Y-0.3588 Z-1.8846
X12.4004 Y-0.3576 Z-1.883
X12.3935 Y-0.3568 Z-1.8815
X12.3866 Y-0.3564 Z-1.8799
X12.3797 Z-1.8783
X12.3728 Y-0.3569 Z-1.8768
X12.366 Y-0.3577 Z-1.8752
X12.3592 Y-0.3589 Z-1.8737
X12.3525 Y-0.3606 Z-1.8721
X12.3459 Y-0.3626 Z-1.8706
X12.3394 Y-0.365 Z-1.8692
X12.3331 Y-0.3678 Z-1.8677
X12.327 Y-0.371 Z-1.8663
X12.3211 Y-0.3745 Z-1.865
X12.3154 Y-0.3784 Z-1.8637
X12.3099 Y-0.3826 Z-1.8624
X12.3047 Y-0.3871 Z-1.8612
X12.2998 Y-0.3919 Z-1.8601
X12.2952 Y-0.397 Z-1.8591
X12.2908 Y-0.4024 Z-1.8581
X12.2868 Y-0.408 Z-1.8572
X12.2832 Y-0.4138 Z-1.8564
Z-1.7398
G0 Z0.6248
M5
M9
G53 G0 Z0.
M30
%
