%
(1 CIRCLE SQUARE V1)
(MACHINE)
(  VENDOR CALLUM)
(  MODEL MILL R1)
(  DESCRIPTION 14X8X14 MILL)
(T21 D=0.375 CR=0. - ZMIN=0. - FLAT END MILL)
G90 G94 G17 G91.1
G20
G53 G0 Z0.
(FACE1)
T21 M6
S5000 M3
G17 G90 G94
G54
G64 P0.0004 Q0.0004
M8
G0 X1.3237 Y-1.0481
G43 Z1.39 H21
G0 Z0.99
G1 Z0.7875 F13.333
G18 G3 X1.2862 Z0.75 I-0.0375 K0. F40.
G1 X1.18
X-0.1
G3 X-0.1375 Z0.7875 I0. K0.0375
G0 Z0.99
X1.3237 Y-0.8312
G1 Z0.7875 F13.333
G3 X1.2862 Z0.75 I-0.0375 K0. F40.
G1 X1.18
X-0.1
G3 X-0.1375 Z0.7875 I0. K0.0375
G0 Z0.99
X1.3237 Y-0.6144
G1 Z0.7875 F13.333
G3 X1.2862 Z0.75 I-0.0375 K0. F40.
G1 X1.18
X-0.1
G3 X-0.1375 Z0.7875 I0. K0.0375
G0 Z0.99
X1.3237 Y-0.3976
G1 Z0.7875 F13.333
G3 X1.2862 Z0.75 I-0.0375 K0. F40.
G1 X1.18
X-0.1
G3 X-0.1375 Z0.7875 I0. K0.0375
G0 Z0.99
X1.3237 Y-0.1808
G1 Z0.7875 F13.333
G3 X1.2862 Z0.75 I-0.0375 K0. F40.
G1 X1.18
X-0.1
G3 X-0.1375 Z0.7875 I0. K0.0375
G0 Z1.39
G17
(ADAPTIVE1)
G64 P0.004 Q0.004
G0 X-0.0378 Y-1.5111
Z1.39
Z0.99
Z0.125
G1 Z0.0875 F40.
X-0.0377 Y-1.5108 Z0.083
X-0.0375 Y-1.51 Z0.0785
X-0.0372 Y-1.5087 Z0.0742
X-0.0367 Y-1.5069 Z0.0701
X-0.0361 Y-1.5046 Z0.0662
X-0.0354 Y-1.5019 Z0.0626
X-0.0346 Y-1.4988 Z0.0594
X-0.0337 Y-1.4954 Z0.0566
X-0.0328 Y-1.4916 Z0.0543
X-0.0318 Y-1.4876 Z0.0524
X-0.0307 Y-1.4834 Z0.0511
X-0.0296 Y-1.4791 Z0.0503
X-0.0285 Y-1.4747 Z0.05
G3 X0.0009 Y-1.2706 I-0.9274 J0.2376
G1 Y-1.2646
X-0.0026 Y-1.2535
X-0.0082 Y-1.2433
X-0.0157 Y-1.2344
X-0.0248 Y-1.2272
X-0.0352 Y-1.222
X-0.0429 Y-1.219
X-0.0541 Y-1.2133
X-0.0554 Y-1.2126
X-0.0653 Y-1.207
X-0.0735 Y-1.2014
X-0.0996 Y-1.1797
X-0.1214 Y-1.1535
X-0.127 Y-1.1453
X-0.1326 Y-1.1354
X-0.1333 Y-1.1341
X-0.139 Y-1.1229
X-0.1476 Y-1.1005
X-0.1507 Y-1.0893
X-0.155 Y-1.0701
X-0.1556 Y-1.0668
X-0.1568 Y-1.0556
X-0.1573 Y-1.0444
X-0.1575 Y-1.0332
Y-0.0468
X-0.1573 Y-0.0356
X-0.1568 Y-0.0244
X-0.1556 Y-0.0132
X-0.155 Y-0.0099
X-0.1507 Y0.0093
X-0.1476 Y0.0205
X-0.139 Y0.0429
X-0.1333 Y0.0541
X-0.1326 Y0.0554
X-0.127 Y0.0653
X-0.1214 Y0.0735
X-0.0997 Y0.0996
X-0.0735 Y0.1214
X-0.0653 Y0.127
X-0.0554 Y0.1326
X-0.0541 Y0.1333
X-0.0429 Y0.139
X-0.0205 Y0.1476
X-0.0093 Y0.1507
X0.0099 Y0.155
X0.0132 Y0.1556
X0.0244 Y0.1568
X0.0356 Y0.1573
X0.0468 Y0.1575
X1.0332
X1.0444 Y0.1573
X1.0556 Y0.1568
X1.0668 Y0.1556
X1.0701 Y0.155
X1.0893 Y0.1507
X1.1005 Y0.1476
X1.1229 Y0.139
X1.1341 Y0.1333
X1.1354 Y0.1326
X1.1453 Y0.127
X1.1535 Y0.1214
X1.1796 Y0.0997
X1.2014 Y0.0735
X1.207 Y0.0653
X1.2126 Y0.0554
X1.2133 Y0.0541
X1.219 Y0.0429
X1.2276 Y0.0205
X1.2307 Y0.0093
X1.235 Y-0.0099
X1.2356 Y-0.0132
X1.2368 Y-0.0244
X1.2373 Y-0.0356
X1.2375 Y-0.0468
Y-1.0332
X1.2373 Y-1.0444
X1.2368 Y-1.0556
X1.2356 Y-1.0668
X1.235 Y-1.0701
X1.2307 Y-1.0893
X1.2276 Y-1.1005
X1.219 Y-1.1229
X1.2133 Y-1.1341
X1.2126 Y-1.1354
X1.207 Y-1.1453
X1.2014 Y-1.1535
X1.1796 Y-1.1797
X1.1535 Y-1.2014
X1.1453 Y-1.207
X1.1354 Y-1.2126
X1.1341 Y-1.2133
X1.1229 Y-1.219
X1.1005 Y-1.2276
X1.0893 Y-1.2307
X1.0701 Y-1.235
X1.0668 Y-1.2356
X1.0556 Y-1.2368
X1.0444 Y-1.2373
X1.0332 Y-1.2375
X0.0468
X0.0406 Y-1.2374
X0.037 Y-1.238 Z0.0502
X0.0334 Y-1.2386 Z0.0509
X0.03 Y-1.2391 Z0.052
X0.0264 Y-1.2408 Z0.0538
X0.0232 Y-1.2424 Z0.0561
X0.0202 Y-1.2438 Z0.0589
X0.0182 Y-1.2456 Z0.0619
X0.0165 Y-1.2471 Z0.0653
X0.0151 Y-1.2483 Z0.069
X0.0141 Y-1.2492 Z0.0728
X0.0135 Y-1.2497 Z0.0768
X0.0133 Y-1.2499 Z0.0809
G0 Z0.99
X0.012 Y-1.4803
Z0.575
G1 Z0.5375 F40.
X0.0121 Y-1.48 Z0.533
X0.0123 Y-1.4792 Z0.5285
X0.0126 Y-1.4779 Z0.5242
X0.0131 Y-1.4761 Z0.5201
X0.0136 Y-1.4738 Z0.5162
X0.0143 Y-1.4711 Z0.5126
X0.0151 Y-1.468 Z0.5094
X0.016 Y-1.4646 Z0.5066
X0.017 Y-1.4608 Z0.5043
X0.018 Y-1.4568 Z0.5024
X0.0191 Y-1.4526 Z0.5011
X0.0202 Y-1.4483 Z0.5003
X0.0213 Y-1.444 Z0.5
G3 X0.0507 Y-1.2398 I-0.9274 J0.2376
G1 Y-1.2338
X0.038 Y-1.1913
X0.0273 Y-1.1482
X0.019 Y-1.1046
X0.0127 Y-1.0607
X0.0079 Y-1.0166
X0.0076 Y-1.0127
X0.0049 Y-0.9973
X-0.0005 Y-0.9826
X-0.0084 Y-0.9691
X-0.0205 Y-0.9523
X-0.0429 Y-0.9203
X-0.0575 Y-0.8987
X-0.0646 Y-0.8875
X-0.0765 Y-0.8634
X-0.0811 Y-0.8539
X-0.1073 Y-0.7978
X-0.1101 Y-0.7913
X-0.1199 Y-0.7642
X-0.1214 Y-0.7594
X-0.1381 Y-0.6969
X-0.1438 Y-0.6745
X-0.1462 Y-0.6633
X-0.1492 Y-0.6409
X-0.1504 Y-0.6297
X-0.1563 Y-0.5624
X-0.157 Y-0.5512
X-0.1575 Y-0.54
X-0.157 Y-0.5288
X-0.1563 Y-0.5176
X-0.1504 Y-0.4503
X-0.1492 Y-0.4391
X-0.1462 Y-0.4167
X-0.1438 Y-0.4055
X-0.1381 Y-0.3831
X-0.1214 Y-0.3206
X-0.1199 Y-0.3158
X-0.1101 Y-0.2887
X-0.1073 Y-0.2822
X-0.0811 Y-0.2261
X-0.0638 Y-0.1853
X-0.0468 Y-0.1443
X-0.0177 Y-0.1108
X-0.0044 Y-0.1007
X0.0003 Y-0.0969
X0.0047 Y-0.0928
X0.0089 Y-0.0883
G3 X0.0169 Y-0.0596 Z0.5042 I-0.0291 J0.0236
X0.0034 Y-0.0356 Z0.508 I-0.0372 J-0.0051 F110.
X-0.0516 Y-0.0442 I-0.0237 J-0.0291
G1 X-0.1457 Y-0.1881
G3 X-0.1318 Y-0.2418 I0.0314 J-0.0205
X-0.1044 Y-0.2448 Z0.5042 I0.0175 J0.0332
X-0.0811 Y-0.2261 Z0.5 I-0.0099 J0.0362 F40.
G1 X-0.0757 Y-0.2149
X-0.0646 Y-0.1925
X-0.0575 Y-0.1813
X-0.0423 Y-0.1589
X-0.0205 Y-0.1277
X0.0019 Y-0.0963
X0.0132 Y-0.0834
X0.0159 Y-0.0804
X0.0468 Y-0.0495
X0.0719 Y-0.0244
X0.0804 Y-0.0159
X0.0834 Y-0.0132
X0.0963 Y-0.0019
X0.1277 Y0.0205
X0.1597 Y0.0429
X0.1813 Y0.0575
X0.1925 Y0.0646
X0.2166 Y0.0765
X0.2261 Y0.0811
X0.2822 Y0.1073
X0.2887 Y0.1101
X0.3158 Y0.1199
X0.3206 Y0.1214
X0.3831 Y0.1381
X0.4055 Y0.1438
X0.4167 Y0.1462
X0.4391 Y0.1492
X0.4503 Y0.1504
X0.5176 Y0.1563
X0.5288 Y0.157
X0.54 Y0.1575
X0.5512 Y0.157
X0.5624 Y0.1563
X0.6297 Y0.1504
X0.6409 Y0.1492
X0.6633 Y0.1462
X0.6745 Y0.1438
X0.6969 Y0.1381
X0.7594 Y0.1214
X0.7642 Y0.1199
X0.7913 Y0.1101
X0.7978 Y0.1073
X0.8539 Y0.0811
X0.8947 Y0.0638
X0.9357 Y0.0468
X0.9692 Y0.0177
X0.9793 Y0.0044
X0.9831 Y-0.0003
X0.9872 Y-0.0047
X0.9917 Y-0.0089
G3 X1.0204 Y-0.0169 Z0.5042 I0.0236 J0.0291
X1.0444 Y-0.0034 Z0.508 I-0.0051 J0.0372 F110.
X1.0358 Y0.0516 I-0.0291 J0.0237
G1 X0.8919 Y0.1457
G3 X0.8382 Y0.1318 I-0.0205 J-0.0314
X0.8352 Y0.1044 Z0.5042 I0.0332 J-0.0175
X0.8539 Y0.0811 Z0.5 I0.0362 J0.0099 F40.
G1 X0.8651 Y0.0757
X0.8875 Y0.0646
X0.8987 Y0.0575
X0.9211 Y0.0423
X0.9523 Y0.0205
X0.9837 Y-0.0019
X0.9966 Y-0.0132
X0.9996 Y-0.0159
X1.0305 Y-0.0468
X1.0556 Y-0.0719
X1.0641 Y-0.0804
X1.0668 Y-0.0834
X1.0781 Y-0.0963
X1.1005 Y-0.1277
X1.1229 Y-0.1597
X1.1375 Y-0.1813
X1.1446 Y-0.1925
X1.1565 Y-0.2166
X1.1611 Y-0.2261
X1.1873 Y-0.2822
X1.1901 Y-0.2887
X1.1999 Y-0.3158
X1.2014 Y-0.3206
X1.2181 Y-0.3831
X1.2238 Y-0.4055
X1.2262 Y-0.4167
X1.2292 Y-0.4391
X1.2304 Y-0.4503
X1.2363 Y-0.5176
X1.237 Y-0.5288
X1.2375 Y-0.54
X1.237 Y-0.5512
X1.2363 Y-0.5624
X1.2304 Y-0.6297
X1.2292 Y-0.6409
X1.2262 Y-0.6633
X1.2238 Y-0.6745
X1.2181 Y-0.6969
X1.2014 Y-0.7594
X1.1999 Y-0.7642
X1.1901 Y-0.7913
X1.1873 Y-0.7978
X1.1611 Y-0.8539
X1.1438 Y-0.8947
X1.1268 Y-0.9357
X1.0977 Y-0.9692
X1.0844 Y-0.9793
X1.0797 Y-0.9831
X1.0753 Y-0.9872
X1.0711 Y-0.9917
G3 X1.0631 Y-1.0204 Z0.5042 I0.0291 J-0.0236
X1.0766 Y-1.0444 Z0.508 I0.0372 J0.0051 F110.
X1.1316 Y-1.0358 I0.0237 J0.0291
G1 X1.2257 Y-0.8919
G3 X1.2118 Y-0.8382 I-0.0314 J0.0205
X1.1844 Y-0.8352 Z0.5042 I-0.0175 J-0.0332
X1.1611 Y-0.8539 Z0.5 I0.0099 J-0.0362 F40.
G1 X1.1557 Y-0.8651
X1.1446 Y-0.8875
X1.1375 Y-0.8987
X1.1223 Y-0.9211
X1.1005 Y-0.9523
X1.0781 Y-0.9837
X1.0668 Y-0.9966
X1.0641 Y-0.9996
X1.0332 Y-1.0305
X1.0081 Y-1.0556
X0.9996 Y-1.0641
X0.9966 Y-1.0668
X0.9837 Y-1.0781
X0.9523 Y-1.1005
X0.9203 Y-1.1229
X0.8987 Y-1.1375
X0.8875 Y-1.1446
X0.8634 Y-1.1565
X0.8539 Y-1.1611
X0.7978 Y-1.1873
X0.7913 Y-1.1901
X0.7642 Y-1.1999
X0.7594 Y-1.2014
X0.6969 Y-1.2181
X0.6745 Y-1.2238
X0.6633 Y-1.2262
X0.6409 Y-1.2292
X0.6297 Y-1.2304
X0.5624 Y-1.2363
X0.5512 Y-1.237
X0.54 Y-1.2375
X0.5288 Y-1.237
X0.5176 Y-1.2363
X0.4503 Y-1.2304
X0.4391 Y-1.2292
X0.4167 Y-1.2262
X0.4055 Y-1.2238
X0.3831 Y-1.2181
X0.3206 Y-1.2014
X0.3158 Y-1.1999
X0.2887 Y-1.1901
X0.2822 Y-1.1873
X0.2261 Y-1.1611
X0.2149 Y-1.1557
X0.1925 Y-1.1446
X0.1813 Y-1.1375
X0.1589 Y-1.1223
X0.1277 Y-1.1005
X0.0963 Y-1.0781
X0.0834 Y-1.0668
X0.0804 Y-1.0641
X0.0495 Y-1.0332
X0.0197 Y-1.0034
X0.0167 Y-1.0013 Z0.5002
X0.0137 Y-0.9992 Z0.5009
X0.0109 Y-0.9972 Z0.502
X0.0072 Y-0.996 Z0.5038
X0.0037 Y-0.9949 Z0.5061
X0.0006 Y-0.9938 Z0.5089
X-0.002 Y-0.9936 Z0.5117
X-0.0041 Y-0.9934 Z0.5149
X-0.0059 Y-0.9933 Z0.5183
X-0.0074 Z0.5224
X-0.0083 Y-0.9934 Z0.5266
X-0.0086 Z0.5309
G0 Z0.99
X-0.0378 Y-1.5111
Z0.075
G1 Z0.0375 F40.
X-0.0377 Y-1.5108 Z0.033
X-0.0375 Y-1.51 Z0.0285
X-0.0372 Y-1.5087 Z0.0242
X-0.0367 Y-1.5069 Z0.0201
X-0.0361 Y-1.5046 Z0.0162
X-0.0354 Y-1.5019 Z0.0126
X-0.0346 Y-1.4988 Z0.0094
X-0.0337 Y-1.4954 Z0.0066
X-0.0328 Y-1.4916 Z0.0043
X-0.0318 Y-1.4876 Z0.0024
X-0.0307 Y-1.4834 Z0.0011
X-0.0296 Y-1.4791 Z0.0003
X-0.0285 Y-1.4747 Z0.
G3 X0.0009 Y-1.2706 I-0.9274 J0.2376
G1 Y-1.2646
X-0.0026 Y-1.2535
X-0.0082 Y-1.2433
X-0.0157 Y-1.2344
X-0.0248 Y-1.2272
X-0.0352 Y-1.222
X-0.0429 Y-1.219
X-0.0541 Y-1.2133
X-0.0554 Y-1.2126
X-0.0653 Y-1.207
X-0.0735 Y-1.2014
X-0.0996 Y-1.1797
X-0.1214 Y-1.1535
X-0.127 Y-1.1453
X-0.1326 Y-1.1354
X-0.1333 Y-1.1341
X-0.139 Y-1.1229
X-0.1476 Y-1.1005
X-0.1507 Y-1.0893
X-0.155 Y-1.0701
X-0.1556 Y-1.0668
X-0.1568 Y-1.0556
X-0.1573 Y-1.0444
X-0.1575 Y-1.0332
Y-0.0468
X-0.1573 Y-0.0356
X-0.1568 Y-0.0244
X-0.1556 Y-0.0132
X-0.155 Y-0.0099
X-0.1507 Y0.0093
X-0.1476 Y0.0205
X-0.139 Y0.0429
X-0.1333 Y0.0541
X-0.1326 Y0.0554
X-0.127 Y0.0653
X-0.1214 Y0.0735
X-0.0997 Y0.0996
X-0.0735 Y0.1214
X-0.0653 Y0.127
X-0.0554 Y0.1326
X-0.0541 Y0.1333
X-0.0429 Y0.139
X-0.0205 Y0.1476
X-0.0093 Y0.1507
X0.0099 Y0.155
X0.0132 Y0.1556
X0.0244 Y0.1568
X0.0356 Y0.1573
X0.0468 Y0.1575
X1.0332
X1.0444 Y0.1573
X1.0556 Y0.1568
X1.0668 Y0.1556
X1.0701 Y0.155
X1.0893 Y0.1507
X1.1005 Y0.1476
X1.1229 Y0.139
X1.1341 Y0.1333
X1.1354 Y0.1326
X1.1453 Y0.127
X1.1535 Y0.1214
X1.1796 Y0.0997
X1.2014 Y0.0735
X1.207 Y0.0653
X1.2126 Y0.0554
X1.2133 Y0.0541
X1.219 Y0.0429
X1.2276 Y0.0205
X1.2307 Y0.0093
X1.235 Y-0.0099
X1.2356 Y-0.0132
X1.2368 Y-0.0244
X1.2373 Y-0.0356
X1.2375 Y-0.0468
Y-1.0332
X1.2373 Y-1.0444
X1.2368 Y-1.0556
X1.2356 Y-1.0668
X1.235 Y-1.0701
X1.2307 Y-1.0893
X1.2276 Y-1.1005
X1.219 Y-1.1229
X1.2133 Y-1.1341
X1.2126 Y-1.1354
X1.207 Y-1.1453
X1.2014 Y-1.1535
X1.1796 Y-1.1797
X1.1535 Y-1.2014
X1.1453 Y-1.207
X1.1354 Y-1.2126
X1.1341 Y-1.2133
X1.1229 Y-1.219
X1.1005 Y-1.2276
X1.0893 Y-1.2307
X1.0701 Y-1.235
X1.0668 Y-1.2356
X1.0556 Y-1.2368
X1.0444 Y-1.2373
X1.0332 Y-1.2375
X0.0468
X0.0406 Y-1.2374
G3 X0.0133 Y-1.2499 I0.0007 J-0.0375
G1 X0.0103 Y-1.2533 Z0.0003
X0.0073 Y-1.2566 Z0.0011
X0.0044 Y-1.2598 Z0.0024
X0.0017 Y-1.2629 Z0.0043
X-0.0009 Y-1.2658 Z0.0066
X-0.0033 Y-1.2685 Z0.0094
X-0.0054 Y-1.2709 Z0.0126
X-0.0072 Y-1.2729 Z0.0162
X-0.0088 Y-1.2747 Z0.0201
X-0.01 Y-1.2761 Z0.0242
X-0.0109 Y-1.2771 Z0.0285
X-0.0115 Y-1.2777 Z0.033
X-0.0117 Y-1.2779 Z0.0375
G0 Z1.39
(2D CONTOUR1)
G64 P0.0004 Q0.0004
G0 X1.34 Y-0.5025
Z1.39
Z0.99
G1 Z0.8294 F13.333
Z0.5375
G18 G3 X1.3025 Z0.5 I-0.0375 K0. F40.
G1 X1.265
G17 G3 X1.2275 Y-0.54 I0. J-0.0375
G2 X-0.1475 I-0.6875 J0.
X1.2275 I0.6875 J0.
X-0.1475 I-0.6875 J0.
X1.2275 I0.6875 J0.
G3 X1.265 Y-0.5775 I0.0375 J0.
G1 X1.3025
G18 G2 X1.34 Z0.5375 I0. K0.0375
G0 Z1.39
Y-0.5025
Z0.99
G1 Z0.8294 F13.333
Z0.0375
G3 X1.3025 Z0. I-0.0375 K0. F40.
G1 X1.265
G17 G3 X1.2275 Y-0.54 I0. J-0.0375
G1 Y-1.04
G2 X1.04 Y-1.2275 I-0.1875 J0.
G1 X0.04
G2 X-0.1475 Y-1.04 I0. J0.1875
G1 Y-0.04
G2 X0.04 Y0.1475 I0.1875 J0.
G1 X1.04
G2 X1.2275 Y-0.04 I0. J-0.1875
G1 Y-1.04
G2 X1.04 Y-1.2275 I-0.1875 J0.
G1 X0.04
G2 X-0.1475 Y-1.04 I0. J0.1875
G1 Y-0.04
G2 X0.04 Y0.1475 I0.1875 J0.
G1 X1.04
G2 X1.2275 Y-0.04 I0. J-0.1875
G1 Y-0.54
G3 X1.265 Y-0.5775 I0.0375 J0.
G1 X1.3025
G18 G2 X1.34 Z0.0375 I0. K0.0375
G0 Z1.39
G17
M5
M9
G53 G0 Z0.
M30
%
