%
(75 X 75 X 5 LOGO PLATE R1 OP1)
(MACHINE)
(  VENDOR CALLUM)
(  MODEL MILL R1)
(  DESCRIPTION 14X8X14 MILL)
(T11 D=0.125 CR=0. TAPER=45DEG - ZMIN=-0.1872 - CHAMFER MILL)
(T32 D=0.1875 CR=0. - ZMIN=-0.1872 - FLAT END MILL)
G90 G94 G17 G91.1
G20
G53 G0 Z0.
(FACE1)
T32 M6
T11
S5000 M3
G17 G90 G94
G55
G64 P0.0004 Q0.0004
M8
G0 X1.6195 Y-1.4538
G43 Z0.6 H32
G0 Z0.2
G1 Z0.0087 F13.333
G18 G3 X1.6008 Z-0.01 I-0.0187 K0. F40.
G1 X1.5976
X-1.5976
G17 G2 Y-1.3175 I0. J0.0681
G1 X1.5976
G3 Y-1.1813 I0. J0.0681
G1 X-1.5976
G2 Y-1.045 I0. J0.0681
G1 X1.5976
G3 Y-0.9088 I0. J0.0681
G1 X-1.5976
G2 Y-0.7726 I0. J0.0681
G1 X1.5976
G3 Y-0.6363 I0. J0.0681
G1 X-1.5976
G2 Y-0.5001 I0. J0.0681
G1 X1.5976
G3 Y-0.3639 I0. J0.0681
G1 X-1.5976
G2 Y-0.2276 I0. J0.0681
G1 X1.5976
G3 Y-0.0914 I0. J0.0681
G1 X-1.5976
G2 Y0.0448 I0. J0.0681
G1 X1.5976
G3 Y0.1811 I0. J0.0681
G1 X-1.5976
G2 Y0.3173 I0. J0.0681
G1 X1.5976
G3 Y0.4535 I0. J0.0681
G1 X-1.5976
G2 Y0.5898 I0. J0.0681
G1 X1.5976
G3 Y0.726 I0. J0.0681
G1 X-1.5976
G2 Y0.8622 I0. J0.0681
G1 X1.5976
G3 Y0.9985 I0. J0.0681
G1 X-1.5976
G2 Y1.1347 I0. J0.0681
G1 X1.5976
G3 Y1.2709 I0. J0.0681
G1 X-1.5976
G2 Y1.4072 I0. J0.0681
G1 X1.5976
G18 G2 X1.6164 Z0.0087 I0. K0.0188
G0 Z0.6
G17
(2D CONTOUR1)
G0 X-0.0187 Y1.6704
Z0.6
Z0.2
G1 Z0.0375 F13.333
Z-0.1684
G19 G2 Y1.6516 Z-0.1872 J-0.0187 K0. F40.
G1 Y1.6329
G17 G3 X0. Y1.6141 I0.0188 J0.
G1 X1.2008
G2 X1.6141 Y1.2008 I0. J-0.4134
G1 Y-1.2008
G2 X1.2008 Y-1.6141 I-0.4134 J0.
G1 X-1.2008
G2 X-1.6141 Y-1.2008 I0. J0.4134
G1 Y1.2008
G2 X-1.2008 Y1.6141 I0.4134 J0.
G1 X0.
G2 X0.0383 Y1.5886 I0. J-0.0414
G3 X0.0765 Y1.5631 I0.0383 J0.0159
G1 X1.2008
G2 X1.5631 Y1.2008 I0. J-0.3624
G1 Y-1.2008
G2 X1.2008 Y-1.5631 I-0.3624 J0.
G1 X-1.2008
G2 X-1.5631 Y-1.2008 I0. J0.3624
G1 Y1.2008
G2 X-1.2008 Y1.5631 I0.3624 J0.
G1 X0.0765
G2 X0.1163 Y1.5366 I0. J-0.0431
G3 X0.156 Y1.5101 I0.0397 J0.0166
G1 X1.2008
G2 X1.5101 Y1.2008 I0. J-0.3094
G1 Y-1.2008
G2 X1.2008 Y-1.5101 I-0.3094 J0.
G1 X-1.2008
G2 X-1.5101 Y-1.2008 I0. J0.3094
G1 Y1.2008
G2 X-1.2008 Y1.5101 I0.3094 J0.
G1 X0.156
G2 X0.1701 Y1.5008 I0. J-0.0152
G3 X0.1841 Y1.4914 I0.0141 J0.0059
G1 X1.2008
G2 X1.4914 Y1.2008 I0. J-0.2906
G1 Y-1.2008
G2 X1.2008 Y-1.4914 I-0.2906 J0.
G1 X-1.2008
G2 X-1.4914 Y-1.2008 I0. J0.2906
G1 Y1.2008
G2 X-1.2008 Y1.4914 I0.2906 J0.
G1 X0.1841
X1.2008
G2 X1.4914 Y1.2008 I0. J-0.2906
G1 Y-1.2008
G2 X1.2008 Y-1.4914 I-0.2906 J0.
G1 X-1.2008
G2 X-1.4914 Y-1.2008 I0. J0.2906
G1 Y1.2008
G2 X-1.2008 Y1.4914 I0.2906 J0.
G1 X0.1841
G3 X0.2029 Y1.5101 I0. J0.0187
G1 Y1.5289
G19 G3 Y1.5476 Z-0.1684 J0. K0.0188
G0 Z0.6
G17
M5
G53 G0 Z0.
(ENGRAVE1)
M9
M1
T11 M6
T32
S5000 M3
G17 G90 G94
G55
M8
G0 X-1.1357 Y1.0145
G43 Z0.6 H11
G0 Z0.19
G1 Z-0.01 F13.333
X-1.1281 Y1.0021 Z-0.0162 F20.
X-1.1206 Y0.9899 Z-0.0223
X-1.1131 Y0.9779 Z-0.0283
X-1.1056 Y0.9662 Z-0.0342
X-1.0982 Y0.9547 Z-0.04
X-1.0907 Y0.9435 Z-0.0456
X-1.0833 Y0.9325 Z-0.0512
X-1.0759 Y0.9217 Z-0.0566
X-1.0686 Y0.9112 Z-0.0618
X-1.0613 Y0.9009 Z-0.067
X-1.0578 Y0.8962 Z-0.0694
X-1.0566 Y0.8904
X-1.0541 Y0.8795
X-1.0515 Y0.8688
X-1.0488 Y0.8582
X-1.046 Y0.8479
X-1.0431 Y0.8377
X-1.04 Y0.8276
X-1.0369 Y0.8178
X-1.0336 Y0.8081
X-1.0302 Y0.7986
X-1.0266 Y0.7893
X-1.023 Y0.7801
X-1.0192 Y0.7711
X-1.0153 Y0.7623
X-1.0112 Y0.7537
X-1.007 Y0.7453
X-1.0027 Y0.737
X-0.9982 Y0.7289
X-0.9936 Y0.721
X-0.9889 Y0.7132
X-0.9839 Y0.7056
X-0.9789 Y0.6981
X-0.9737 Y0.6909
X-0.9683 Y0.6837
X-0.9628 Y0.6767
X-0.9571 Y0.6698
X-0.9513 Y0.6631
X-0.9452 Y0.6565
X-0.939 Y0.65
X-0.9326 Y0.6437
X-0.926 Y0.6375
X-0.9192 Y0.6313
X-0.9123 Y0.6253
X-0.9051 Y0.6194
X-0.8977 Y0.6136
X-0.8901 Y0.6079
X-0.8823 Y0.6023
X-0.8743 Y0.5968
X-0.8661 Y0.5913
X-0.8576 Y0.586
X-0.849 Y0.5807
X-0.8401 Y0.5755
X-0.8311 Y0.5704
X-0.8218 Y0.5653
X-0.8124 Y0.5604
X-0.8027 Y0.5554
X-0.7929 Y0.5506
X-0.7828 Y0.5457
X-0.7726 Y0.541
X-0.7623 Y0.5363
X-0.7517 Y0.5316
X-0.741 Y0.5269
X-0.7301 Y0.5223
X-0.719 Y0.5177
G2 X-0.693 Y0.4292 I-0.0229 J-0.0548
G3 X-0.15 Y-0.0039 I0.2866 J-0.1975
G2 X-0.0801 Y0.0092 I0.0437 J-0.0402
G1 X-0.0783 Y0.0071 Z-0.0683
X-0.0764 Y0.005 Z-0.0674
X-0.0747 Y0.0028 Z-0.0665
X-0.073 Y0.0006 Z-0.0657
X-0.0714 Y-0.0017 Z-0.0649
X-0.0698 Y-0.004 Z-0.0642
X-0.0683 Y-0.0064 Z-0.0635
X-0.0668 Y-0.0087 Z-0.063
X-0.0655 Y-0.0112 Z-0.0624
X-0.0641 Y-0.0136 Z-0.062
X-0.0629 Y-0.0161 Z-0.0616
X-0.0617 Y-0.0186 Z-0.0614
X-0.0605 Y-0.0215 Z-0.0611
X-0.0576 Y-0.0289 Z-0.0608
X-0.051 Y-0.047 Z-0.0601
X-0.0451 Y-0.0637 Z-0.0595
X-0.044 Y-0.0666 Z-0.0596
X-0.0425 Y-0.0698 Z-0.0597
X-0.0408 Y-0.0734 Z-0.0601
X-0.039 Y-0.0769 Z-0.0606
X-0.0367 Y-0.0808 Z-0.0614
X-0.0345 Y-0.0842 Z-0.0623
X-0.0322 Y-0.0876 Z-0.0633
X-0.0294 Y-0.0914 Z-0.0647
X-0.0268 Y-0.0947 Z-0.0661
X-0.024 Y-0.0979 Z-0.0676
X-0.021 Y-0.1011 Z-0.0694
G3 X0.0233 I0.0222 J0.0551
G1 X0.0231 Y-0.1016
X0.0192 Y-0.1131
X0.0191 Y-0.1136
X0.0152 Y-0.1251
X0.0151 Y-0.1256
X0.0113 Y-0.1373
X0.0112 Y-0.1378
X0.0075 Y-0.1496
X0.0073 Y-0.15
X0.0037 Y-0.162
X0.0036 Y-0.1624
X0.0011 Y-0.1708
Y-0.1889 Z-0.0644
Y-0.2162 Z-0.0571
Y-0.2437 Z-0.0502
Y-0.2714 Z-0.0437
Y-0.2994 Z-0.0374
Y-0.3276 Z-0.0314
Y-0.356 Z-0.0256
Y-0.3848 Z-0.0202
Y-0.4139 Z-0.015
Y-0.4432 Z-0.01
Y-0.4139 Z-0.015
Y-0.3848 Z-0.0202
Y-0.356 Z-0.0256
Y-0.3276 Z-0.0314
Y-0.2994 Z-0.0374
Y-0.2714 Z-0.0437
Y-0.2437 Z-0.0502
Y-0.2162 Z-0.0571
Y-0.1889 Z-0.0644
Y-0.1708 Z-0.0694
X-0.0013 Y-0.1624
X-0.0015 Y-0.162
X-0.0051 Y-0.15
X-0.0052 Y-0.1496
X-0.0089 Y-0.1378
X-0.0091 Y-0.1373
X-0.0128 Y-0.1256
X-0.013 Y-0.1251
X-0.0168 Y-0.1136
X-0.017 Y-0.1131
X-0.0208 Y-0.1016
X-0.021 Y-0.1011
X-0.0208 Y-0.1016
X-0.017 Y-0.1131
X-0.0168 Y-0.1136
X-0.013 Y-0.1251
X-0.0128 Y-0.1256
X-0.0091 Y-0.1373
X-0.0089 Y-0.1378
X-0.0052 Y-0.1496
X-0.0051 Y-0.15
X-0.0015 Y-0.162
X-0.0013 Y-0.1624
X0.0011 Y-0.1708
X0.0036 Y-0.1624
X0.0037 Y-0.162
X0.0073 Y-0.15
X0.0075 Y-0.1496
X0.0112 Y-0.1378
X0.0113 Y-0.1373
X0.0151 Y-0.1256
X0.0152 Y-0.1251
X0.0191 Y-0.1136
X0.0192 Y-0.1131
X0.0231 Y-0.1016
X0.0233 Y-0.1011
X0.0262 Y-0.0979 Z-0.0676
X0.029 Y-0.0947 Z-0.0661
X0.032 Y-0.0909 Z-0.0645
X0.0345 Y-0.0876 Z-0.0633
X0.0368 Y-0.0842 Z-0.0623
X0.0392 Y-0.0804 Z-0.0613
X0.0412 Y-0.0769 Z-0.0606
X0.0431 Y-0.0734 Z-0.0601
X0.045 Y-0.0694 Z-0.0597
X0.0462 Y-0.0666 Z-0.0596
X0.0474 Y-0.0637 Z-0.0595
X0.0494 Y-0.058 Z-0.0596
X0.056 Y-0.0393 Z-0.0604
X0.0616 Y-0.0245 Z-0.0609
X0.0627 Y-0.0215 Z-0.0611
X0.064 Y-0.0186 Z-0.0614
X0.0652 Y-0.0161 Z-0.0616
X0.0664 Y-0.0136 Z-0.062
X0.0678 Y-0.0112 Z-0.0624
X0.0691 Y-0.0087 Z-0.063
X0.0706 Y-0.0064 Z-0.0635
X0.0721 Y-0.004 Z-0.0642
X0.0737 Y-0.0017 Z-0.0649
X0.0753 Y0.0006 Z-0.0657
X0.077 Y0.0028 Z-0.0665
X0.0787 Y0.005 Z-0.0674
X0.0805 Y0.0071 Z-0.0683
X0.0824 Y0.0092 Z-0.0694
Y0.0094
X0.0862 Y0.0194
X0.09 Y0.0293
X0.0938 Y0.0391
X0.0978 Y0.0487
X0.1017 Y0.0583
X0.1058 Y0.0677
X0.1099 Y0.0771
X0.114 Y0.0863
X0.1145 Y0.0873
X0.1157 Y0.0917 Z-0.0686
X0.1171 Y0.0959 Z-0.0681
X0.1188 Y0.1006 Z-0.0676
X0.1198 Y0.1029 Z-0.0674
X0.1207 Y0.1052
X0.1223 Y0.1085 Z-0.0673
X0.1237 Y0.1113 Z-0.0674
X0.13 Y0.1226 Z-0.068
X0.1323 Y0.1265 Z-0.0682
X0.1395 Y0.1388 Z-0.0689
X0.1452 Y0.1479 Z-0.0694
X0.1465 Y0.1499
X0.1471 Y0.1508
X0.1547 Y0.1615
X0.1553 Y0.1623
X0.163 Y0.1728
X0.1637 Y0.1737
X0.1715 Y0.1839
X0.1722 Y0.1848
X0.1802 Y0.1948
X0.1809 Y0.1957
X0.189 Y0.2055
G2 X0.2905 Y0.1882 I0.0458 J-0.0378
G3 X0.5267 Y0.2751 I0.1181 J0.0435
X0.4885 Y0.3289 I-0.1181 J-0.0435
G2 X0.5023 Y0.4291 I0.0377 J0.0459
G1 X0.5137 Y0.4341
X0.5141 Y0.4343
X0.5257 Y0.4393
X0.5262 Y0.4395
X0.5493 Y0.4492
X0.5499 Y0.4495
X0.5732 Y0.459
X0.5736 Y0.4591
X0.5968 Y0.4684
G2 X0.6638 Y0.4521 I0.022 J-0.0552
X0.6094 Y-0.0392 I-0.2552 J-0.2204
X0.1235 Y0.0516 I-0.2008 J0.2709
X0.1145 Y0.0873 I0.0502 J0.0317
G0 Z0.2
X0.3404 Y-0.4841
Z0.19
G1 Z-0.0172 F13.333
X0.3323 Y-0.4873 Z-0.0171 F20.
X0.331 Y-0.4879 Z-0.0172
X0.3153 Y-0.4957 Z-0.0176
X0.3067 Y-0.5003 Z-0.0181
X0.299 Y-0.5053
X0.2986 Y-0.5056
X0.2906 Y-0.5111 Z-0.0184
X0.2821 Y-0.5174 Z-0.0191
X0.2705 Y-0.5267 Z-0.0199
X0.2675 Y-0.5292 Z-0.0201
X0.2597 Y-0.5366 Z-0.0209
X0.2494 Y-0.5469 Z-0.0217
X0.2444 Y-0.5524 Z-0.022
X0.2374 Y-0.5604 Z-0.0225
X0.237 Y-0.5609
X0.2301 Y-0.5696 Z-0.0232
X0.2211 Y-0.5812 Z-0.0244
X0.2106 Y-0.597 Z-0.0253
X0.2038 Y-0.608 Z-0.0264
X0.1956 Y-0.6223 Z-0.0274
X0.1885 Y-0.6356 Z-0.0283
X0.182 Y-0.6493 Z-0.0291
X0.1761 Y-0.6636 Z-0.0298
X0.1709 Y-0.6772 Z-0.0305
X0.1652 Y-0.6931 Z-0.0316
X0.1614 Y-0.7056 Z-0.0318
X0.1564 Y-0.7237 Z-0.0325
X0.1527 Y-0.7388 Z-0.0329
X0.1505 Y-0.7492 Z-0.033
X0.1496 Y-0.7537 Z-0.0331
X0.1479 Y-0.7645
X0.1473 Y-0.7687
X0.1461 Y-0.7797 Z-0.033
X0.1457 Y-0.7841 Z-0.0331
X0.1449 Y-0.7949 Z-0.0329
X0.1438 Y-0.8158 Z-0.033
Y-0.8261 Z-0.0326
X0.1441 Y-0.8335
X0.1447 Y-0.8421 Z-0.0324
X0.1454 Y-0.8506 Z-0.0321
X0.1469 Y-0.8612 Z-0.0316
X0.1481 Y-0.8675 Z-0.0313
X0.1494 Y-0.8734 Z-0.0309
X0.1524 Y-0.8852 Z-0.0306
X0.1563 Y-0.8966 Z-0.0299
X0.1573 Y-0.8994 Z-0.0298
X0.1601 Y-0.9065 Z-0.0294
X0.163 Y-0.9132 Z-0.0288
X0.1655 Y-0.9184 Z-0.0282
X0.1663 Y-0.9198 Z-0.0281
X0.1703 Y-0.9263 Z-0.0277
X0.1769 Y-0.9364 Z-0.0266
X0.1789 Y-0.9393 Z-0.0265
X0.1834 Y-0.9446 Z-0.0256
X0.1905 Y-0.9525 Z-0.0246
X0.194 Y-0.9559 Z-0.0243
X0.1981 Y-0.9595 Z-0.0238
X0.1995 Y-0.9607 Z-0.0237
X0.206 Y-0.9657 Z-0.0229
X0.2115 Y-0.9694 Z-0.0223
X0.2226 Y-0.9765 Z-0.0208
X0.2248 Y-0.9777
X0.2411 Y-0.9846 Z-0.0194
X0.2505 Y-0.9879 Z-0.0187
X0.2559 Y-0.9894 Z-0.0184
X0.26 Y-0.9904 Z-0.018
X0.2639 Y-0.9911 Z-0.0179
X0.2695 Y-0.992 Z-0.0175
X0.2722 Y-0.9924
X0.2791 Y-0.993 Z-0.0172
X0.2893 Y-0.9937 Z-0.0171
X0.2985 Z-0.0165
X0.3097 Y-0.993 Z-0.0166
X0.3197 Y-0.992
X0.3296 Y-0.9905
X0.3375 Y-0.9887
X0.3394 Y-0.9883 Z-0.0167
X0.347 Y-0.9861 Z-0.0168
X0.3491 Y-0.9854 Z-0.0169
X0.3563 Y-0.9829 Z-0.0171
X0.3682 Y-0.9784 Z-0.0178
X0.375 Y-0.9753
X0.3873 Y-0.9689 Z-0.0186
X0.3966 Y-0.9638 Z-0.0191
X0.4054 Y-0.9583 Z-0.0195
X0.414 Y-0.9524 Z-0.0199
X0.4223 Y-0.9459 Z-0.0204
X0.4306 Y-0.9389 Z-0.0209
X0.4384 Y-0.932 Z-0.0216
X0.4472 Y-0.9234 Z-0.0219
X0.4548 Y-0.9153 Z-0.0227
X0.4636 Y-0.9055 Z-0.0234
X0.4716 Y-0.8958 Z-0.024
X0.4791 Y-0.8858 Z-0.0246
X0.4862 Y-0.8755 Z-0.0252
X0.4929 Y-0.8651 Z-0.026
X0.4961 Y-0.8599 Z-0.0265
X0.5055 Y-0.8431 Z-0.0272
X0.5096 Y-0.8351 Z-0.028
X0.517 Y-0.8197 Z-0.029
X0.5212 Y-0.8101 Z-0.0297
X0.5273 Y-0.7951 Z-0.0304
X0.531 Y-0.7844 Z-0.031
X0.5357 Y-0.7704 Z-0.0316
X0.5396 Y-0.7579 Z-0.0324
X0.543 Y-0.7451 Z-0.0326
X0.5461 Y-0.7319 Z-0.0331
X0.549 Y-0.7188 Z-0.0333
X0.5512 Y-0.7064 Z-0.0335
X0.5533 Y-0.6919 Z-0.0334
X0.5546 Y-0.6782 Z-0.0332
X0.5554 Y-0.6646 Z-0.0331
X0.556 Y-0.6542 Z-0.0332
X0.5558 Y-0.6368 Z-0.0323
X0.5555 Y-0.6304 Z-0.0322
X0.5547 Y-0.6188 Z-0.0318
X0.5533 Y-0.6078 Z-0.0314
X0.5519 Y-0.6003 Z-0.0308
X0.5512 Y-0.5969 Z-0.0307
X0.5479 Y-0.584 Z-0.0298
X0.5475 Y-0.5829 Z-0.0297
X0.5418 Y-0.5651 Z-0.0285
X0.5411 Y-0.5631 Z-0.0284
X0.5353 Y-0.5509 Z-0.0272
X0.5319 Y-0.5443 Z-0.0268
X0.5279 Y-0.5371 Z-0.0261
X0.5269 Y-0.5355 Z-0.026
X0.5235 Y-0.5304 Z-0.0256
X0.5213 Y-0.5274 Z-0.0254
X0.5187 Y-0.5242 Z-0.025
X0.515 Y-0.5198 Z-0.0245
X0.5079 Y-0.5121 Z-0.0234
X0.4976 Y-0.5029 Z-0.0223
X0.492 Y-0.4982 Z-0.0219
X0.4858 Y-0.4942 Z-0.021
X0.4796 Y-0.4906 Z-0.0205
X0.473 Y-0.487 Z-0.0202
X0.4632 Y-0.4824 Z-0.0196
X0.4602 Y-0.4812 Z-0.0194
X0.4532 Y-0.4788 Z-0.0192
X0.446 Y-0.4768 Z-0.0187
X0.4428 Y-0.4759 Z-0.0186
X0.4385 Y-0.475 Z-0.0183
X0.4309 Y-0.4737 Z-0.0179
X0.4234 Y-0.4728 Z-0.0176
X0.4159 Y-0.4722 Z-0.0175
X0.4095 Y-0.4718
X0.4006 Y-0.472 Z-0.0169
X0.3823 Y-0.4735 Z-0.0168
X0.3746 Y-0.4746 Z-0.0167
X0.369 Y-0.4755 Z-0.0168
X0.3659 Y-0.4762
X0.3561 Y-0.4786 Z-0.017
X0.349 Y-0.481
X0.3435 Y-0.4829 Z-0.0172
X0.3404 Y-0.4841
G0 Z0.2
X-0.8881 Y0.8077
Z0.19
G1 Z-0.0694 F13.333
G3 X-0.9465 Y0.715 I-0.0099 J-0.0586 F20.
G1 X-0.9421 Y0.7087
X-0.9414 Y0.7078
X-0.9368 Y0.7015
X-0.9361 Y0.7006
X-0.9314 Y0.6944
X-0.9307 Y0.6935
X-0.9259 Y0.6874
X-0.9251 Y0.6864
X-0.9201 Y0.6804
X-0.9193 Y0.6795
X-0.9142 Y0.6736
X-0.9134 Y0.6727
X-0.9082 Y0.6669
X-0.9073 Y0.6659
X-0.9019 Y0.6602
X-0.9011 Y0.6593
X-0.8955 Y0.6537
X-0.8946 Y0.6528
X-0.889 Y0.6472
X-0.8881 Y0.6464
X-0.8823 Y0.6409
X-0.8814 Y0.6401
X-0.8754 Y0.6347
X-0.8745 Y0.6339
X-0.8684 Y0.6286
X-0.8675 Y0.6278
X-0.8612 Y0.6226
X-0.8603 Y0.6219
X-0.8539 Y0.6167
X-0.853 Y0.616
X-0.8464 Y0.611
X-0.8455 Y0.6103
X-0.8388 Y0.6053
X-0.838 Y0.6047
X-0.8311 Y0.5998
X-0.8302 Y0.5992
X-0.8232 Y0.5944
X-0.8224 Y0.5938
X-0.8153 Y0.5891
X-0.8144 Y0.5886
X-0.8071 Y0.5839
X-0.8064 Y0.5834
X-0.7989 Y0.5788
X-0.7982 Y0.5783
X-0.7906 Y0.5738
X-0.7899 Y0.5733
X-0.7822 Y0.5689
X-0.7815 Y0.5685
X-0.7737 Y0.5641
X-0.773 Y0.5637
X-0.765 Y0.5594
X-0.7644 Y0.559
X-0.7563 Y0.5548
X-0.7557 Y0.5545
X-0.7475 Y0.5502
X-0.7469 Y0.5499
X-0.7386 Y0.5458
X-0.7381 Y0.5455
X-0.7296 Y0.5414
X-0.7291 Y0.5411
X-0.7206 Y0.5371
X-0.7201 Y0.5368
X-0.7115 Y0.5328
X-0.711 Y0.5326
X-0.7023 Y0.5286
X-0.7019 Y0.5284
X-0.6931 Y0.5245
X-0.6927 Y0.5243
X-0.6838 Y0.5204
X-0.6834 Y0.5203
X-0.6744 Y0.5164
X-0.674 Y0.5162
X-0.6558 Y0.5085
X-0.6553 Y0.5083
X-0.6368 Y0.5007
X-0.6365 Y0.5005
X-0.6177 Y0.493
X-0.6175 Y0.4929
X-0.5986 Y0.4853
X-0.5985
X-0.5795 Y0.4777
X-0.5605 Y0.4701
X-0.5415 Y0.4625
X-0.5227 Y0.4548
X-0.5041 Y0.447
X-0.4856 Y0.4392
X-0.4674 Y0.4311
X-0.4493 Y0.4229
X-0.4406 Y0.4187
X-0.4318 Y0.4145
X-0.4231 Y0.4102
X-0.4145 Y0.4059
X-0.406 Y0.4015
X-0.3976 Y0.3971
X-0.3893 Y0.3926
X-0.3811 Y0.388
X-0.373 Y0.3833
X-0.365 Y0.3786
X-0.357 Y0.3738
X-0.3492 Y0.3689
X-0.3416 Y0.364
X-0.334 Y0.359
X-0.3265 Y0.3539
X-0.3191 Y0.3487
X-0.3119 Y0.3434
X-0.3047 Y0.3381
X-0.2977 Y0.3326
X-0.2907 Y0.3271
X-0.2839 Y0.3215
X-0.2771 Y0.3158
X-0.2705 Y0.31
X-0.264 Y0.3041
X-0.2575 Y0.2981
X-0.2512 Y0.292
X-0.245 Y0.2858
X-0.2388 Y0.2795
X-0.2328 Y0.2731
X-0.2268 Y0.2666
X-0.2209 Y0.26
X-0.2151 Y0.2533
X-0.2094 Y0.2465
X-0.2038 Y0.2395
X-0.1983 Y0.2325
X-0.1929 Y0.2254
X-0.1875 Y0.2181
X-0.1822 Y0.2107
X-0.177 Y0.2032
X-0.1719 Y0.1956
X-0.1668 Y0.1879
X-0.1619 Y0.1801
X-0.157 Y0.1721
X-0.1521 Y0.1641
X-0.1474 Y0.1559
X-0.1429 Y0.1479
X-0.1373 Y0.1388 Z-0.0689
X-0.13 Y0.1265 Z-0.0682
X-0.1278 Y0.1226 Z-0.068
X-0.1214 Y0.1113 Z-0.0674
X-0.12 Y0.1085 Z-0.0673
X-0.1185 Y0.1052 Z-0.0674
X-0.1175 Y0.1029
X-0.1165 Y0.1006 Z-0.0676
X-0.1148 Y0.0959 Z-0.0681
X-0.1134 Y0.0917 Z-0.0686
X-0.1122 Y0.0873 Z-0.0694
X-0.1118 Y0.0863
X-0.1076 Y0.0771
X-0.1035 Y0.0677
X-0.0995 Y0.0583
X-0.0955 Y0.0487
X-0.0916 Y0.0391
X-0.0877 Y0.0293
X-0.0839 Y0.0194
X-0.0802 Y0.0094
X-0.0801 Y0.0092
X-0.0802 Y0.0094
X-0.0839 Y0.0194
X-0.0877 Y0.0293
X-0.0916 Y0.0391
X-0.0955 Y0.0487
X-0.0995 Y0.0583
X-0.1035 Y0.0677
X-0.1076 Y0.0771
X-0.1118 Y0.0863
X-0.1122 Y0.0873
G2 X-0.1213 Y0.0516 I-0.0592 J-0.004
X-0.6071 Y-0.0392 I-0.285 J0.1801
X-0.6615 Y0.4521 I0.2008 J0.2709
X-0.5946 Y0.4684 I0.0449 J-0.0388
G1 X-0.5713 Y0.4591
X-0.5709 Y0.459
X-0.5477 Y0.4495
X-0.5471 Y0.4492
X-0.5239 Y0.4395
X-0.5234 Y0.4393
X-0.5119 Y0.4343
X-0.5115 Y0.4341
X-0.5 Y0.4291
G2 X-0.4862 Y0.3289 I-0.024 J-0.0543
G3 X-0.3264 Y0.1345 I0.0799 J-0.0972
X-0.2882 Y0.1882 I-0.0799 J0.0972
G2 X-0.1868 Y0.2055 I0.0557 J-0.0205
G1 X-0.1786 Y0.1957
X-0.1779 Y0.1948
X-0.1699 Y0.1848
X-0.1693 Y0.1839
X-0.1614 Y0.1737
X-0.1607 Y0.1728
X-0.153 Y0.1623
X-0.1524 Y0.1615
X-0.1449 Y0.1508
X-0.1443 Y0.1499
X-0.1429 Y0.1479
G0 Z0.2
X-1.0578 Y0.8962
Z0.19
G1 Z-0.0694 F13.333
G3 X-0.8881 Y0.8077 I1.0589 J1.8246 F20.
G1 X-0.8847 Y0.8066 Z-0.069
X-0.88 Y0.8049 Z-0.0685
X-0.8769 Y0.8036 Z-0.0683
X-0.8737 Y0.8022
X-0.8502 Y0.7917
X-0.8266 Y0.7814
X-0.8028 Y0.7714
X-0.7789 Y0.7618
X-0.7549 Y0.7524
X-0.7308 Y0.7433
X-0.7066 Y0.7345
X-0.6822 Y0.726
X-0.6578 Y0.7178
X-0.6333 Y0.7099
X-0.6086 Y0.7023
X-0.5839 Y0.695
X-0.5591 Y0.688
X-0.5342 Y0.6813
X-0.5093 Y0.6749
X-0.4842 Y0.6688
X-0.4591 Y0.663
X-0.4339 Y0.6575
X-0.4086 Y0.6524
X-0.3833 Y0.6475
X-0.358 Y0.643
X-0.3325 Y0.6387
X-0.3071 Y0.6348
X-0.2815 Y0.6312
X-0.256 Y0.6279
X-0.2304 Y0.6249
X-0.2047 Y0.6222
X-0.1791 Y0.6199
X-0.1534 Y0.6178
X-0.1277 Y0.6161
X-0.1019 Y0.6147
X-0.0762 Y0.6136
X-0.0504 Y0.6128
X-0.0246 Y0.6123
X0.0011 Y0.6122
X0.0269 Y0.6123
X0.0527 Y0.6128
X0.0784 Y0.6136
X0.1042 Y0.6147
X0.1299 Y0.6161
X0.1556 Y0.6178
X0.1813 Y0.6199
X0.207 Y0.6222
X0.2326 Y0.6249
X0.2582 Y0.6279
X0.2838 Y0.6312
X0.3093 Y0.6348
X0.3348 Y0.6387
X0.3602 Y0.643
X0.3856 Y0.6475
X0.4109 Y0.6524
X0.4362 Y0.6575
X0.4613 Y0.663
X0.4865 Y0.6688
X0.5115 Y0.6749
X0.5365 Y0.6813
X0.5614 Y0.688
X0.5862 Y0.695
X0.6109 Y0.7023
X0.6355 Y0.7099
X0.6601 Y0.7178
X0.6845 Y0.726
X0.7088 Y0.7345
X0.7331 Y0.7433
X0.7572 Y0.7524
X0.7812 Y0.7618
X0.8051 Y0.7714
X0.8288 Y0.7814
X0.8525 Y0.7917
X0.8791 Y0.8036
X0.8823 Y0.8049 Z-0.0685
X0.8869 Y0.8066 Z-0.069
X0.8903 Y0.8077 Z-0.0694
G2 X0.9488 Y0.715 I0.0099 J-0.0586
G1 X0.9443 Y0.7087
X0.9437 Y0.7078
X0.9391 Y0.7015
X0.9384 Y0.7006
X0.9337 Y0.6944
X0.9329 Y0.6934
X0.9281 Y0.6874
X0.9274 Y0.6864
X0.9224 Y0.6805
X0.9216 Y0.6795
X0.9165 Y0.6736
X0.9157 Y0.6727
X0.9104 Y0.6668
X0.9096 Y0.6659
X0.9042 Y0.6602
X0.9033 Y0.6593
X0.8978 Y0.6537
X0.8969 Y0.6528
X0.8912 Y0.6472
X0.8904 Y0.6464
X0.8845 Y0.6409
X0.8836 Y0.6401
X0.8776 Y0.6347
X0.8768 Y0.6339
X0.8706 Y0.6286
X0.8697 Y0.6278
X0.8635 Y0.6226
X0.8625 Y0.6219
X0.8561 Y0.6167
X0.8553 Y0.616
X0.8487 Y0.611
X0.8478 Y0.6103
X0.8411 Y0.6053
X0.8402 Y0.6047
X0.8333 Y0.5998
X0.8325 Y0.5992
X0.8255 Y0.5944
X0.8247 Y0.5938
X0.8175 Y0.5891
X0.8167 Y0.5886
X0.8094 Y0.5839
X0.8086 Y0.5834
X0.8012 Y0.5788
X0.8004 Y0.5783
X0.7929 Y0.5738
X0.7921 Y0.5734
X0.7844 Y0.5689
X0.7837 Y0.5685
X0.7759 Y0.5641
X0.7752 Y0.5637
X0.7673 Y0.5594
X0.7666 Y0.559
X0.7585 Y0.5548
X0.758 Y0.5545
X0.7497 Y0.5502
X0.7492 Y0.5499
X0.7409 Y0.5458
X0.7403 Y0.5455
X0.7319 Y0.5414
X0.7314 Y0.5411
X0.7228 Y0.5371
X0.7224 Y0.5368
X0.7137 Y0.5328
X0.7133 Y0.5326
X0.7046 Y0.5286
X0.7041 Y0.5284
X0.6953 Y0.5245
X0.695 Y0.5243
X0.6861 Y0.5204
X0.6857 Y0.5203
X0.6767 Y0.5164
X0.6763 Y0.5162
X0.658 Y0.5085
X0.6576 Y0.5083
X0.6391 Y0.5007
X0.6387 Y0.5005
X0.62 Y0.493
X0.6198 Y0.4929
X0.6009 Y0.4853
X0.6008
X0.5818 Y0.4777
X0.5628 Y0.4701
X0.5438 Y0.4625
X0.525 Y0.4548
X0.5063 Y0.447
X0.4878 Y0.4392
X0.4696 Y0.4311
X0.4516 Y0.4229
X0.4428 Y0.4187
X0.4341 Y0.4145
X0.4254 Y0.4102
X0.4168 Y0.4059
X0.4083 Y0.4015
X0.3999 Y0.3971
X0.3915 Y0.3926
X0.3833 Y0.388
X0.3752 Y0.3833
X0.3672 Y0.3786
X0.3593 Y0.3738
X0.3515 Y0.3689
X0.3438 Y0.364
X0.3362 Y0.359
X0.3288 Y0.3539
X0.3214 Y0.3487
X0.3141 Y0.3434
X0.307 Y0.3381
X0.2999 Y0.3326
X0.293 Y0.3271
X0.2861 Y0.3215
X0.2794 Y0.3158
X0.2728 Y0.31
X0.2662 Y0.3041
X0.2598 Y0.2981
X0.2535 Y0.292
X0.2472 Y0.2858
X0.2411 Y0.2795
X0.235 Y0.2731
X0.2291 Y0.2666
X0.2232 Y0.26
X0.2174 Y0.2533
X0.2117 Y0.2465
X0.2061 Y0.2395
X0.2006 Y0.2325
X0.1951 Y0.2254
X0.1898 Y0.2181
X0.1845 Y0.2107
X0.1793 Y0.2032
X0.1741 Y0.1956
X0.1691 Y0.1879
X0.1641 Y0.1801
X0.1592 Y0.1721
X0.1544 Y0.1641
X0.1496 Y0.1559
X0.1452 Y0.1479
X0.1496 Y0.1559
X0.1544 Y0.1641
X0.1592 Y0.1721
X0.1641 Y0.1801
X0.1691 Y0.1879
X0.1741 Y0.1956
X0.1793 Y0.2032
X0.1845 Y0.2107
X0.1898 Y0.2181
X0.1951 Y0.2254
X0.2006 Y0.2325
X0.2061 Y0.2395
X0.2117 Y0.2465
X0.2174 Y0.2533
X0.2232 Y0.26
X0.2291 Y0.2666
X0.235 Y0.2731
X0.2411 Y0.2795
X0.2472 Y0.2858
X0.2535 Y0.292
X0.2598 Y0.2981
X0.2662 Y0.3041
X0.2728 Y0.31
X0.2794 Y0.3158
X0.2861 Y0.3215
X0.293 Y0.3271
X0.2999 Y0.3326
X0.307 Y0.3381
X0.3141 Y0.3434
X0.3214 Y0.3487
X0.3288 Y0.3539
X0.3362 Y0.359
X0.3438 Y0.364
X0.3515 Y0.3689
X0.3593 Y0.3738
X0.3672 Y0.3786
X0.3752 Y0.3833
X0.3833 Y0.388
X0.3915 Y0.3926
X0.3999 Y0.3971
X0.4083 Y0.4015
X0.4168 Y0.4059
X0.4254 Y0.4102
X0.4341 Y0.4145
X0.4428 Y0.4187
X0.4516 Y0.4229
X0.4696 Y0.4311
X0.4878 Y0.4392
X0.5063 Y0.447
X0.525 Y0.4548
X0.5438 Y0.4625
X0.5628 Y0.4701
X0.5818 Y0.4777
X0.6008 Y0.4853
X0.6009
X0.6198 Y0.4929
X0.62 Y0.493
X0.6387 Y0.5005
X0.6391 Y0.5007
X0.6576 Y0.5083
X0.658 Y0.5085
X0.6763 Y0.5162
X0.6767 Y0.5164
X0.6857 Y0.5203
X0.6861 Y0.5204
X0.695 Y0.5243
X0.6953 Y0.5245
X0.7041 Y0.5284
X0.7046 Y0.5286
X0.7133 Y0.5326
X0.7137 Y0.5328
X0.7224 Y0.5368
X0.7228 Y0.5371
X0.7314 Y0.5411
X0.7319 Y0.5414
X0.7403 Y0.5455
X0.7409 Y0.5458
X0.7492 Y0.5499
X0.7497 Y0.5502
X0.758 Y0.5545
X0.7585 Y0.5548
X0.7666 Y0.559
X0.7673 Y0.5594
X0.7752 Y0.5637
X0.7759 Y0.5641
X0.7837 Y0.5685
X0.7844 Y0.5689
X0.7921 Y0.5734
X0.7929 Y0.5738
X0.8004 Y0.5783
X0.8012 Y0.5788
X0.8086 Y0.5834
X0.8094 Y0.5839
X0.8167 Y0.5886
X0.8175 Y0.5891
X0.8247 Y0.5938
X0.8255 Y0.5944
X0.8325 Y0.5992
X0.8333 Y0.5998
X0.8402 Y0.6047
X0.8411 Y0.6053
X0.8478 Y0.6103
X0.8487 Y0.611
X0.8553 Y0.616
X0.8561 Y0.6167
X0.8625 Y0.6219
X0.8635 Y0.6226
X0.8697 Y0.6278
X0.8706 Y0.6286
X0.8768 Y0.6339
X0.8776 Y0.6347
X0.8836 Y0.6401
X0.8845 Y0.6409
X0.8904 Y0.6464
X0.8912 Y0.6472
X0.8969 Y0.6528
X0.8978 Y0.6537
X0.9033 Y0.6593
X0.9042 Y0.6602
X0.9096 Y0.6659
X0.9104 Y0.6668
X0.9157 Y0.6727
X0.9165 Y0.6736
X0.9216 Y0.6795
X0.9224 Y0.6805
X0.9274 Y0.6864
X0.9281 Y0.6874
X0.9329 Y0.6934
X0.9337 Y0.6944
X0.9384 Y0.7006
X0.9391 Y0.7015
X0.9437 Y0.7078
X0.9443 Y0.7087
X0.9488 Y0.715
G3 X0.8903 Y0.8077 I-0.0486 J0.0341
X1.0601 Y0.8962 I-0.8892 J1.9131
G1 X1.0635 Y0.901 Z-0.067
X1.0708 Y0.9112 Z-0.0618
X1.0782 Y0.9217 Z-0.0566
X1.0856 Y0.9325 Z-0.0512
X1.093 Y0.9435 Z-0.0456
X1.1004 Y0.9547 Z-0.04
X1.1079 Y0.9662 Z-0.0342
X1.1154 Y0.9779 Z-0.0283
X1.1229 Y0.9899 Z-0.0223
X1.1304 Y1.0021 Z-0.0162
X1.1379 Y1.0145 Z-0.01
X1.1304 Y1.0021 Z-0.0162
X1.1229 Y0.9899 Z-0.0223
X1.1154 Y0.9779 Z-0.0283
X1.1079 Y0.9662 Z-0.0342
X1.1004 Y0.9547 Z-0.04
X1.093 Y0.9435 Z-0.0456
X1.0856 Y0.9325 Z-0.0512
X1.0782 Y0.9217 Z-0.0566
X1.0708 Y0.9112 Z-0.0618
X1.0635 Y0.901 Z-0.067
X1.0601 Y0.8962 Z-0.0694
X1.0588 Y0.8904
X1.0564 Y0.8795
X1.0538 Y0.8688
X1.0511 Y0.8582
X1.0483 Y0.8479
X1.0454 Y0.8377
X1.0423 Y0.8276
X1.0391 Y0.8178
X1.0358 Y0.8081
X1.0324 Y0.7986
X1.0289 Y0.7893
X1.0252 Y0.7801
X1.0214 Y0.7711
X1.0175 Y0.7624
X1.0135 Y0.7537
X1.0093 Y0.7453
X1.0049 Y0.737
X1.0005 Y0.7289
X0.9959 Y0.721
X0.9911 Y0.7132
X0.9862 Y0.7056
X0.9812 Y0.6981
X0.976 Y0.6908
X0.9706 Y0.6837
X0.9651 Y0.6767
X0.9594 Y0.6698
X0.9535 Y0.6631
X0.9475 Y0.6565
X0.9413 Y0.65
X0.9349 Y0.6437
X0.9283 Y0.6375
X0.9215 Y0.6313
X0.9145 Y0.6253
X0.9073 Y0.6194
X0.9 Y0.6136
X0.8924 Y0.6079
X0.8846 Y0.6023
X0.8765 Y0.5968
X0.8683 Y0.5913
X0.8599 Y0.586
X0.8513 Y0.5807
X0.8424 Y0.5755
X0.8334 Y0.5704
X0.8241 Y0.5653
X0.8146 Y0.5604
X0.805 Y0.5554
X0.7951 Y0.5506
X0.7851 Y0.5457
X0.7749 Y0.541
X0.7645 Y0.5363
X0.754 Y0.5316
X0.7433 Y0.5269
X0.7324 Y0.5223
X0.7212 Y0.5177
G3 X0.6952 Y0.4292 I0.0229 J-0.0548
G2 X0.1523 Y-0.0039 I-0.2866 J-0.1975
G3 X0.0824 Y0.0092 I-0.0437 J-0.0402
G0 Z0.2
X-0.307 Y-0.6296
Z0.19
G1 Z-0.0317 F13.333
X-0.3064 Y-0.6298 Z-0.0323 F20.
X-0.307 Y-0.63 Z-0.0317
X-0.3064 Y-0.6298 Z-0.0323
X-0.306 Z-0.0326
X-0.3062 Y-0.6293 Z-0.0321
X-0.306 Y-0.6298 Z-0.0326
X-0.3055 Y-0.63 Z-0.0329
X-0.3054 Y-0.6305 Z-0.0326
X-0.3053 Y-0.6309 Z-0.0323
X-0.3051 Y-0.6315 Z-0.0317
X-0.3053 Y-0.6309 Z-0.0323
X-0.3055 Y-0.6315 Z-0.0317
X-0.3053 Y-0.6309 Z-0.0323
X-0.3054 Y-0.6305 Z-0.0326
X-0.3049 Y-0.6307 Z-0.0321
X-0.3054 Y-0.6305 Z-0.0326
X-0.3055 Y-0.63 Z-0.0329
X-0.3053 Y-0.6298 Z-0.0327
X-0.3039 Y-0.6283 Z-0.031
X-0.2889 Y-0.6134 Z-0.01
G0 Z0.2
X-0.3559 Y-0.7787
Z0.19
G1 Z-0.01 F13.333
X-0.3414 Y-0.7903 Z-0.0263 F20.
X-0.3171 Y-0.7625 Z-0.01
X-0.3414 Y-0.7903 Z-0.0263
X-0.3665 Y-0.9032 Z-0.0216
X-0.3692 Y-0.9169 Z-0.0214
X-0.3712 Y-0.9305 Z-0.0216
X-0.3721 Y-0.9377 Z-0.022
X-0.3727 Y-0.945
X-0.3728 Y-0.9514 Z-0.0225
X-0.3727 Y-0.9553 Z-0.0229
X-0.3726 Y-0.9567
X-0.3723 Y-0.9587 Z-0.0231
X-0.3718 Y-0.9619 Z-0.0234
X-0.371 Y-0.9652 Z-0.0237
X-0.3702 Y-0.9679 Z-0.024
X-0.3687 Y-0.9717
X-0.3679 Y-0.9734 Z-0.0243
X-0.3656 Y-0.9773 Z-0.0246
X-0.3646 Y-0.9786 Z-0.0248
X-0.3613 Y-0.9821 Z-0.0249
X-0.3601 Y-0.9829 Z-0.0248
X-0.3591 Y-0.9834 Z-0.0246
X-0.3563 Y-0.9843 Z-0.0242
X-0.3541 Y-0.9845 Z-0.0236
X-0.3526 Y-0.9846 Z-0.023
X-0.351 Y-0.9845 Z-0.0226
X-0.3471 Y-0.9839 Z-0.0211
X-0.3449 Y-0.9833 Z-0.0203
X-0.3429 Y-0.9825 Z-0.0196
X-0.3412 Y-0.9814 Z-0.0192
X-0.3301 Y-0.9738 Z-0.0165
X-0.3247 Y-0.9697 Z-0.0156
X-0.3233 Y-0.9684 Z-0.0154
X-0.3198 Y-0.9652 Z-0.0149
X-0.3152 Y-0.9606 Z-0.0144
X-0.3108 Y-0.9559 Z-0.0142
X-0.3052 Y-0.9496
X-0.3055 Y-0.9437 Z-0.01
X-0.3052 Y-0.9496 Z-0.0142
X-0.2992 Y-0.9492 Z-0.01
G0 Z0.2
X-0.2596 Y-0.9444
Z0.19
G1 Z-0.0262 F13.333
X-0.2594 Y-0.9453 Z-0.0261 F20.
X-0.2579 Y-0.9512 Z-0.0253
X-0.2555 Y-0.9578 Z-0.0242
X-0.2524 Y-0.9643 Z-0.0232
X-0.2493 Y-0.9701 Z-0.0226
X-0.2415 Y-0.9799 Z-0.02
X-0.2401 Y-0.9812 Z-0.0196
X-0.2361 Y-0.9847 Z-0.0191
X-0.2315 Y-0.988 Z-0.0182
X-0.2266 Y-0.9908 Z-0.0172
X-0.2257 Y-0.9912 Z-0.017
X-0.2213 Y-0.9929 Z-0.0163
X-0.2203 Y-0.9932 Z-0.0161
X-0.2158 Y-0.9943 Z-0.0156
X-0.2104 Y-0.9953 Z-0.0153
X-0.2045 Y-0.9959 Z-0.0152
X-0.2002 Z-0.0147
X-0.1991 Y-0.9958 Z-0.0146
X-0.1886 Y-0.9938 Z-0.0153
X-0.181 Y-0.9919 Z-0.0157
X-0.1782 Y-0.991
X-0.1738 Y-0.9893 Z-0.016
X-0.1684 Y-0.987
X-0.1677 Y-0.9866
X-0.1635 Y-0.9842 Z-0.0162
X-0.1601 Y-0.982 Z-0.0165
X-0.159 Y-0.9812 Z-0.0166
X-0.1506 Y-0.9745 Z-0.0177
X-0.1476 Y-0.9718 Z-0.0184
X-0.1427 Y-0.9666 Z-0.0191
X-0.1353 Y-0.9581 Z-0.0207
X-0.1295 Y-0.9508 Z-0.022
X-0.1285 Y-0.9494 Z-0.0222
X-0.1245 Y-0.9436 Z-0.0232
X-0.1199 Y-0.9362 Z-0.024
X-0.1156 Y-0.9284 Z-0.0249
X-0.1125 Y-0.9225 Z-0.0253
X-0.1076 Y-0.9122 Z-0.0265
X-0.1059 Y-0.9078 Z-0.0267
X-0.1014 Y-0.8955 Z-0.0276
X-0.1006 Y-0.8932 Z-0.0277
X-0.0988 Y-0.8874 Z-0.0281
X-0.0967 Y-0.8795 Z-0.0284
X-0.0951 Y-0.8716 Z-0.0285
X-0.0938 Y-0.8633 Z-0.0284
X-0.0936 Y-0.8617 Z-0.0283
X-0.0923 Y-0.847 Z-0.0282
X-0.0924 Y-0.8327 Z-0.0273
X-0.0925 Y-0.8319 Z-0.0272
X-0.0931 Y-0.8267 Z-0.0268
X-0.094 Y-0.8212 Z-0.0263
X-0.0945 Y-0.8194 Z-0.026
X-0.0955 Y-0.8157 Z-0.0254
X-0.0963 Y-0.8133 Z-0.0249
X-0.0976 Y-0.8099 Z-0.0244
X-0.0989 Y-0.8072 Z-0.0238
X-0.1019 Y-0.8012 Z-0.0228
X-0.1038 Y-0.798 Z-0.0225
X-0.1061 Y-0.795 Z-0.0217
X-0.1131 Y-0.7869 Z-0.0197
X-0.1139 Y-0.7861 Z-0.0195
X-0.1148 Y-0.7853 Z-0.0194
X-0.1169 Y-0.7835 Z-0.019
X-0.1226 Y-0.7794 Z-0.0178
X-0.1275 Y-0.7768 Z-0.0168
X-0.1322 Y-0.7749 Z-0.0159
X-0.1339 Y-0.7744 Z-0.0157
X-0.137 Y-0.7736 Z-0.0153
X-0.1418 Y-0.7728 Z-0.0149
X-0.1481 Y-0.772 Z-0.0148
X-0.1517 Z-0.0143
X-0.1608 Y-0.7731
X-0.1642 Y-0.7737 Z-0.0145
X-0.17 Y-0.775 Z-0.0146
X-0.1719 Y-0.7756 Z-0.0148
X-0.1792 Y-0.7783 Z-0.0154
X-0.1872 Y-0.7825 Z-0.0159
X-0.1927 Y-0.7862 Z-0.0166
X-0.1964 Y-0.7889 Z-0.017
X-0.2054 Y-0.7962 Z-0.0183
X-0.2132 Y-0.8043 Z-0.0195
X-0.2181 Y-0.8098 Z-0.0205
X-0.2209 Y-0.8132 Z-0.021
X-0.2237 Y-0.8168 Z-0.0218
X-0.2298 Y-0.8255 Z-0.0231
X-0.2334 Y-0.8313 Z-0.0239
X-0.2385 Y-0.8401 Z-0.0247
X-0.2459 Y-0.8551 Z-0.0263
X-0.2522 Y-0.8711 Z-0.0274
X-0.2547 Y-0.8788 Z-0.0279
X-0.2568 Y-0.8864 Z-0.0281
X-0.2584 Y-0.8939 Z-0.0282
X-0.2594 Y-0.8996 Z-0.0281
X-0.2597 Y-0.9019
X-0.261 Y-0.9147 Z-0.0279
X-0.2613 Y-0.9184 Z-0.028
X-0.2612 Y-0.9309 Z-0.0271
X-0.2611 Y-0.9327
X-0.2604 Y-0.9392 Z-0.0267
X-0.2596 Y-0.9444 Z-0.0262
G0 Z0.2
X-0.591 Y-0.969
Z0.19
G1 Z-0.01 F13.333
X-0.5712 Y-0.9686 Z-0.0249 F20.
X-0.571 Y-0.9664 Z-0.0235
X-0.5701 Y-0.9545 Z-0.0166
X-0.5688 Y-0.9429 Z-0.01
X-0.5701 Y-0.9545 Z-0.0166
X-0.571 Y-0.9664 Z-0.0235
X-0.5712 Y-0.9686 Z-0.0249
X-0.5686 Y-0.9718 Z-0.0247
X-0.5642 Y-0.9764 Z-0.0241
X-0.5637 Y-0.9769
X-0.5598 Y-0.9802 Z-0.0235
X-0.5587 Y-0.981 Z-0.0234
X-0.5549 Y-0.9834 Z-0.0228
X-0.5532 Y-0.9843 Z-0.0227
X-0.5497 Y-0.9859 Z-0.0221
X-0.5456 Y-0.9875 Z-0.0216
X-0.5442 Y-0.9879 Z-0.0214
X-0.5355 Y-0.9902 Z-0.0206
X-0.5342 Y-0.9905 Z-0.0205
X-0.5312 Y-0.9911 Z-0.0204
X-0.5244 Y-0.9916 Z-0.0194
X-0.5217 Y-0.9918 Z-0.019
X-0.5136 Y-0.9917 Z-0.0176
X-0.5117 Y-0.9915 Z-0.0175
X-0.5019 Y-0.9893 Z-0.0165
X-0.4978 Y-0.988 Z-0.016
X-0.4929 Y-0.9862 Z-0.0156
X-0.4922 Y-0.9859
X-0.4884 Y-0.9838 Z-0.0154
X-0.4834 Y-0.9807
X-0.4757 Y-0.975 Z-0.0153
X-0.4754 Y-0.9747
X-0.4686 Y-0.9673 Z-0.0155
X-0.4664 Y-0.9643 Z-0.0156
X-0.4636 Y-0.9601 Z-0.016
X-0.463 Y-0.9589 Z-0.0161
X-0.4614 Y-0.9556 Z-0.0164
X-0.4593 Y-0.95 Z-0.0172
X-0.458 Y-0.9455 Z-0.0179
X-0.457 Y-0.9413 Z-0.0184
X-0.4566 Y-0.937 Z-0.0191
X-0.4565 Y-0.9337 Z-0.0195
Y-0.9325 Z-0.0197
X-0.4569 Y-0.927 Z-0.0205
X-0.4573 Y-0.9242 Z-0.0212
X-0.4585 Y-0.9204 Z-0.0216
X-0.4612 Y-0.9137 Z-0.0227
X-0.4618 Y-0.9124 Z-0.0229
X-0.4625 Y-0.9111 Z-0.0233
X-0.4659 Y-0.9056 Z-0.0246
X-0.469 Y-0.9013 Z-0.0253
X-0.4733 Y-0.8965 Z-0.0259
X-0.4772 Y-0.8926 Z-0.026
X-0.4901 Y-0.8815 Z-0.0262
X-0.51 Y-0.8651 Z-0.026
X-0.5173 Y-0.8584 Z-0.0256
X-0.5204 Y-0.8553 Z-0.0254
X-0.5235 Y-0.8521 Z-0.0253
X-0.5256 Y-0.8492 Z-0.0249
X-0.5282 Y-0.8449 Z-0.0243
X-0.5298 Y-0.8406 Z-0.0235
X-0.5305 Y-0.8383 Z-0.023
X-0.531 Y-0.8365 Z-0.0227
X-0.5317 Y-0.8315 Z-0.0216
X-0.532 Y-0.8283 Z-0.0211
X-0.5321 Y-0.8205 Z-0.0194
X-0.5319 Y-0.818 Z-0.0186
X-0.5317 Y-0.8171 Z-0.0184
X-0.5305 Y-0.8128 Z-0.0179
X-0.5294 Y-0.8096 Z-0.0173
X-0.5278 Y-0.8057 Z-0.0168
X-0.5257 Y-0.802 Z-0.0162
X-0.5232 Y-0.7985 Z-0.0158
X-0.5206 Y-0.7953 Z-0.0156
X-0.5164 Y-0.791 Z-0.0155
X-0.5152 Y-0.79 Z-0.0154
X-0.5091 Y-0.7856 Z-0.0155
X-0.5043 Y-0.7826 Z-0.0154
X-0.5011 Y-0.7809 Z-0.0157
X-0.5004 Y-0.7806
X-0.4961 Y-0.779 Z-0.0159
X-0.4922 Y-0.7777 Z-0.0164
X-0.4836 Y-0.7758 Z-0.0174
X-0.4743 Y-0.7753 Z-0.0185
X-0.4691 Y-0.7755 Z-0.0191
X-0.4653 Y-0.7758 Z-0.0198
X-0.4642 Y-0.776 Z-0.0199
X-0.459 Y-0.7772 Z-0.0207
X-0.454 Y-0.779 Z-0.0216
X-0.4531 Y-0.7794 Z-0.0217
X-0.448 Y-0.7822 Z-0.0224
X-0.4459 Y-0.7836 Z-0.0225
X-0.4446 Y-0.7844 Z-0.0226
X-0.4434 Y-0.7854 Z-0.0228
X-0.4398 Y-0.789 Z-0.0231
X-0.4387 Y-0.7902
X-0.438 Y-0.7912 Z-0.023
X-0.4378 Y-0.7915
X-0.4372 Y-0.7925 Z-0.0228
X-0.4355 Y-0.7964 Z-0.0219
X-0.435 Y-0.7978 Z-0.0216
X-0.434 Y-0.8031 Z-0.0199
X-0.4339 Y-0.8038 Z-0.0197
X-0.4338 Y-0.8064 Z-0.0189
X-0.4339 Y-0.8086 Z-0.018
X-0.4343 Y-0.811 Z-0.0169
X-0.4353 Y-0.8141 Z-0.0152
X-0.4387 Y-0.8227 Z-0.01
G0 Z0.2
X-1.1208 Y-1.0115
Z0.19
G1 Z-0.01 F13.333
X-1.1086 Y-1.0044 Z-0.0185 F20.
X-1.0983 Y-0.9979 Z-0.0255
X-1.1081 Y-0.9814 Z-0.01
X-1.0983 Y-0.9979 Z-0.0255
X-1.0979
X-1.093 Y-0.998 Z-0.0251
X-1.0771 Z-0.0243
X-1.0748 Y-0.9978 Z-0.0242
X-1.0692 Y-0.9972 Z-0.0243
X-1.06 Y-0.9961 Z-0.0242
X-1.0474 Y-0.994 Z-0.0236
X-1.0413 Y-0.9929 Z-0.0233
X-1.0223 Y-0.9888 Z-0.0222
X-1.0196 Y-0.9881 Z-0.0219
X-1.0061 Y-0.9842 Z-0.0209
X-1.0022 Y-0.983 Z-0.0207
X-0.9928 Y-0.9798 Z-0.0199
X-0.9825 Y-0.9759 Z-0.0194
X-0.9798 Y-0.9748 Z-0.0192
X-0.9673 Y-0.969 Z-0.0185
X-0.9635 Y-0.967 Z-0.0184
X-0.9551 Y-0.9625 Z-0.0181
X-0.9433 Y-0.9556 Z-0.0179
X-0.9318 Y-0.9479 Z-0.0178
X-0.9265 Y-0.9442
X-0.9205 Y-0.9398
X-0.9087 Y-0.9307 Z-0.018
X-0.8989 Y-0.9226 Z-0.0177
X-0.8916 Y-0.9163
X-0.8776 Y-0.9038 Z-0.0172
X-0.875 Y-0.9012 Z-0.0174
X-0.8588 Y-0.8838 Z-0.0173
X-0.8435 Y-0.8656 Z-0.0175
X-0.8416 Y-0.8632 Z-0.0174
X-0.8293 Y-0.8467 Z-0.0175
X-0.822 Y-0.8365 Z-0.0172
X-0.815 Y-0.8262 Z-0.0173
X-0.8139 Y-0.8249 Z-0.0175
X-0.8126 Y-0.8237 Z-0.018
X-0.8111 Y-0.8226 Z-0.0186
X-0.8103 Y-0.8221 Z-0.019
X-0.8089 Y-0.823 Z-0.0181
X-0.8078 Y-0.8236 Z-0.0176
X-0.8063 Y-0.8245 Z-0.0172
X-0.8048 Y-0.8256
X-0.7889 Y-0.8383 Z-0.0171
X-0.7847 Y-0.8418 Z-0.017
X-0.7735 Y-0.8514
X-0.765 Y-0.8595 Z-0.0169
X-0.759 Y-0.8656 Z-0.0171
X-0.7558 Y-0.869
X-0.7454 Y-0.8805 Z-0.0176
X-0.7302 Y-0.8993 Z-0.0177
X-0.7201 Y-0.9133 Z-0.0182
X-0.7151 Y-0.9206 Z-0.0183
X-0.7079 Y-0.9317 Z-0.0186
X-0.7011 Y-0.9431 Z-0.0189
X-0.6974 Y-0.9496 Z-0.0194
X-0.6969 Y-0.9505 Z-0.0196
X-0.6962 Y-0.9514 Z-0.0198
X-0.6955 Y-0.9522 Z-0.0201
X-0.6938 Y-0.9538 Z-0.0208
X-0.6923 Y-0.9551 Z-0.0217
X-0.6912 Y-0.956 Z-0.0224
X-0.6899 Y-0.9569 Z-0.0232
X-0.6886 Y-0.9577 Z-0.0241
X-0.6857 Y-0.9592 Z-0.0262
X-0.6825 Y-0.9606 Z-0.0286
X-0.6789 Y-0.9619 Z-0.0314
X-0.6788 Y-0.9628 Z-0.0311
X-0.6777 Y-0.9775 Z-0.0269
X-0.6894 Y-0.9944 Z-0.01
X-0.6777 Y-0.9775 Z-0.0269
X-0.664 Y-0.9944 Z-0.01
X-0.6777 Y-0.9775 Z-0.0269
X-0.6788 Y-0.9628 Z-0.0311
X-0.6789 Y-0.9619 Z-0.0314
X-0.678 Y-0.9605 Z-0.0308
X-0.6771 Y-0.9591 Z-0.0302
X-0.6763 Y-0.9577 Z-0.0297
X-0.6755 Y-0.9563 Z-0.0293
X-0.6749 Y-0.9548 Z-0.0289
X-0.6743 Y-0.9534 Z-0.0286
X-0.6737 Y-0.9519 Z-0.0284
X-0.6732 Y-0.9505 Z-0.0282
X-0.6728 Y-0.949 Z-0.0281
X-0.6458 Y-0.8225 Z-0.0282
X-0.6454 Y-0.8203 Z-0.0283
X-0.6451 Y-0.8179 Z-0.0285
X-0.645 Y-0.8156 Z-0.0289
X-0.644 Y-0.8132 Z-0.0286
X-0.6431 Y-0.8108
X-0.6422 Y-0.8085 Z-0.0289
X-0.6364 Y-0.8097 Z-0.0236
X-0.6323 Y-0.8105 Z-0.0202
X-0.6306 Y-0.8109 Z-0.019
X-0.6291 Y-0.8112 Z-0.0181
X-0.6277 Y-0.8115 Z-0.0174
X-0.6263 Y-0.8117 Z-0.017
X-0.6249 Y-0.8119 Z-0.0168
X-0.6235 Y-0.812 Z-0.0167
X-0.6037
X-0.5982 Y-0.8187 Z-0.01
X-0.6037 Y-0.812 Z-0.0167
X-0.5954 Y-0.8053 Z-0.01
X-0.6037 Y-0.812 Z-0.0167
X-0.6235
X-0.6249 Y-0.8119 Z-0.0168
X-0.6263 Y-0.8117 Z-0.017
X-0.6277 Y-0.8115 Z-0.0174
X-0.6291 Y-0.8112 Z-0.0181
X-0.6306 Y-0.8109 Z-0.019
X-0.6323 Y-0.8105 Z-0.0202
X-0.6364 Y-0.8097 Z-0.0236
X-0.6422 Y-0.8085 Z-0.0289
X-0.6421 Y-0.8061 Z-0.0285
X-0.6418 Y-0.8038 Z-0.0283
X-0.6414 Y-0.8015 Z-0.0282
X-0.5862 Y-0.5395 Z-0.0288
X-0.5834 Y-0.5263
X-0.5819 Y-0.5195 Z-0.0287
X-0.5814 Y-0.5168 Z-0.0288
X-0.5805 Y-0.5096 Z-0.029
X-0.5803 Y-0.5074 Z-0.0291
X-0.5801 Y-0.5017 Z-0.0299
X-0.5802 Y-0.4995 Z-0.0302
Y-0.4978 Z-0.0306
X-0.5805 Y-0.494 Z-0.0315
X-0.5809 Y-0.4923 Z-0.0319
X-0.5816 Y-0.4889 Z-0.033
X-0.5823 Y-0.4869 Z-0.0335
X-0.5826 Y-0.4863 Z-0.0336
X-0.5824 Y-0.4858 Z-0.0332
X-0.5818 Y-0.4851 Z-0.0322
X-0.5824 Y-0.4858 Z-0.0332
X-0.5823 Y-0.4844 Z-0.0318
X-0.5824 Y-0.4858 Z-0.0332
X-0.5826 Y-0.4863 Z-0.0336
X-0.5853 Y-0.4854 Z-0.0321
X-0.5898 Y-0.4843 Z-0.0299
X-0.5923 Y-0.4838 Z-0.0288
X-0.5954 Y-0.4836 Z-0.0275
X-0.5975 Z-0.0267
X-0.5991 Y-0.4837 Z-0.026
X-0.6025 Y-0.4841 Z-0.0247
X-0.6065 Y-0.4851 Z-0.023
X-0.6081 Y-0.4856 Z-0.0224
X-0.6104 Y-0.4866 Z-0.0216
X-0.6114 Y-0.4872 Z-0.0212
X-0.6136 Y-0.4886 Z-0.0208
X-0.6207 Y-0.4939 Z-0.0188
X-0.625 Y-0.4975 Z-0.0179
X-0.6285 Y-0.5014 Z-0.0172
X-0.6316 Y-0.5054 Z-0.0168
X-0.6345 Y-0.5093 Z-0.0167
X-0.6396 Y-0.5171 Z-0.0168
X-0.6439 Y-0.5238 Z-0.017
X-0.6539 Y-0.5398 Z-0.0172
X-0.661 Y-0.5518 Z-0.0173
X-0.6673 Y-0.563 Z-0.0172
X-0.677 Y-0.5806 Z-0.0174
X-0.6926 Y-0.61 Z-0.0172
X-0.7151 Y-0.6532 Z-0.0171
X-0.7303 Y-0.6819 Z-0.0168
X-0.7478 Y-0.714 Z-0.0167
X-0.7657 Y-0.7462 Z-0.0169
X-0.7841 Y-0.7781 Z-0.0176
X-0.7985 Y-0.8021 Z-0.0179
X-0.799 Y-0.803 Z-0.0181
X-0.7993 Y-0.8039 Z-0.0182
X-0.7997 Y-0.8048 Z-0.0184
X-0.8002 Y-0.8068 Z-0.019
X-0.8005 Y-0.8089 Z-0.0199
X-0.8035 Y-0.8106 Z-0.0183
X-0.8049 Y-0.8117 Z-0.0177
X-0.8062 Y-0.8129 Z-0.0172
X-0.8073 Y-0.8142 Z-0.017
X-0.8078 Y-0.8149
X-0.8083 Y-0.8157
X-0.8088 Y-0.8165 Z-0.0172
X-0.8091 Y-0.8173 Z-0.0173
X-0.8095 Y-0.8182 Z-0.0175
X-0.81 Y-0.8201 Z-0.0181
X-0.8103 Y-0.8221 Z-0.019
X-0.81 Y-0.8201 Z-0.0181
X-0.8095 Y-0.8182 Z-0.0175
X-0.8091 Y-0.8173 Z-0.0173
X-0.8088 Y-0.8165 Z-0.0172
X-0.8083 Y-0.8157 Z-0.017
X-0.8078 Y-0.8149
X-0.8073 Y-0.8142
X-0.8062 Y-0.8129 Z-0.0172
X-0.8049 Y-0.8117 Z-0.0177
X-0.8035 Y-0.8106 Z-0.0183
X-0.8005 Y-0.8089 Z-0.0199
X-0.7987 Y-0.81 Z-0.0188
X-0.7968 Y-0.8109 Z-0.0179
X-0.795 Y-0.8115 Z-0.0172
X-0.794 Y-0.8117 Z-0.017
X-0.7931 Y-0.8119 Z-0.0169
X-0.7922 Y-0.812 Z-0.0167
X-0.7913
X-0.6622 Y-0.8121 Z-0.0168
X-0.6608 Y-0.8123 Z-0.017
X-0.6595 Y-0.8126 Z-0.0174
X-0.6581 Y-0.8129 Z-0.0181
X-0.6566 Y-0.8132 Z-0.019
X-0.6549 Y-0.8135 Z-0.0202
X-0.653 Y-0.8139 Z-0.0217
X-0.6507 Y-0.8144 Z-0.0236
X-0.645 Y-0.8156 Z-0.0289
G0 Z0.2
X0.5899 Y-0.7826
Z0.19
G1 Z-0.01 F13.333
X0.5981 Y-0.7759 Z-0.0167 F20.
X0.5926 Y-0.7692 Z-0.01
X0.5981 Y-0.7759 Z-0.0167
X0.6293 Y-0.776 Z-0.0168
X0.6307 Y-0.7762 Z-0.017
X0.6318 Y-0.7765 Z-0.0174
X0.633 Y-0.7767 Z-0.0179
X0.6343 Y-0.777 Z-0.0186
X0.6357 Y-0.7773 Z-0.0195
X0.6393 Y-0.778 Z-0.0223
X0.6442 Y-0.779 Z-0.0267
X0.645 Y-0.7772 Z-0.0264
X0.6456 Y-0.7759 Z-0.0263
X0.6461 Y-0.7746 Z-0.0264
X0.6469 Y-0.7729 Z-0.0267
Y-0.7726 Z-0.0266
X0.647 Y-0.7703 Z-0.0262
X0.6472 Y-0.7681 Z-0.026
X0.6477 Y-0.7657 Z-0.0259
X0.6675 Y-0.6744 Z-0.0268
X0.6529 Y-0.6622 Z-0.01
X0.6675 Y-0.6744 Z-0.0268
X0.6909 Y-0.6471 Z-0.01
X0.6675 Y-0.6744 Z-0.0268
X0.6477 Y-0.7657 Z-0.0259
X0.6472 Y-0.7681 Z-0.026
X0.647 Y-0.7703 Z-0.0262
X0.6469 Y-0.7726 Z-0.0266
Y-0.7729 Z-0.0267
X0.6519 Y-0.7739 Z-0.0223
X0.6554 Y-0.7746 Z-0.0195
X0.6568 Y-0.7749 Z-0.0186
X0.6581 Y-0.7752 Z-0.0179
X0.6593 Y-0.7754 Z-0.0174
X0.6604 Y-0.7756 Z-0.017
X0.6618 Y-0.7759 Z-0.0168
X0.7192 Z-0.0167
X0.7246 Y-0.7826 Z-0.01
X0.7192 Y-0.7759 Z-0.0167
X0.7274 Y-0.7692 Z-0.01
X0.7192 Y-0.7759 Z-0.0167
X0.6618 Z-0.0168
X0.6604 Y-0.7756 Z-0.017
X0.6593 Y-0.7754 Z-0.0174
X0.6581 Y-0.7752 Z-0.0179
X0.6568 Y-0.7749 Z-0.0186
X0.6554 Y-0.7746 Z-0.0195
X0.6519 Y-0.7739 Z-0.0223
X0.6469 Y-0.7729 Z-0.0267
X0.6461 Y-0.7746 Z-0.0264
X0.6456 Y-0.7759 Z-0.0263
X0.645 Y-0.7772 Z-0.0264
X0.6442 Y-0.779 Z-0.0267
X0.6441 Y-0.7813 Z-0.0262
X0.6438 Y-0.7836 Z-0.026
X0.6436 Y-0.7847 Z-0.0259
X0.6164 Y-0.9115 Z-0.0243
X0.6133 Y-0.9273 Z-0.0242
X0.6124 Y-0.9337 Z-0.0244
X0.6113 Y-0.9438
X0.6112 Y-0.9447
X0.6111 Y-0.9527 Z-0.0248
X0.612 Y-0.9604 Z-0.0252
X0.6124 Y-0.9621 Z-0.0253
X0.6127 Y-0.9635 Z-0.0254
X0.6135 Y-0.9662 Z-0.0256
X0.6145 Y-0.9685
X0.6155 Y-0.9706 Z-0.0255
X0.6188 Y-0.976 Z-0.0254
X0.6204 Y-0.9778 Z-0.025
X0.6226 Y-0.9799 Z-0.0248
X0.6246 Y-0.9815 Z-0.0245
X0.6264 Y-0.9827 Z-0.0241
X0.6285 Y-0.9838 Z-0.0237
X0.6311 Y-0.9849 Z-0.0231
X0.6347 Y-0.9862 Z-0.0222
X0.6376 Y-0.9868 Z-0.0219
X0.6416 Y-0.9872 Z-0.021
X0.6443 Y-0.9873 Z-0.0206
X0.6489 Y-0.987 Z-0.0197
X0.6509 Y-0.9866 Z-0.0193
X0.6573 Y-0.9848 Z-0.0181
X0.663 Y-0.9824 Z-0.017
X0.6642 Y-0.9818 Z-0.0169
X0.668 Y-0.9794 Z-0.0162
X0.6732 Y-0.9756 Z-0.0156
X0.6752 Y-0.9739
X0.6854 Y-0.9646 Z-0.0152
X0.6874 Y-0.9626 Z-0.015
X0.6949 Y-0.9545 Z-0.0148
X0.7017 Y-0.9471 Z-0.0144
X0.7076 Y-0.9468 Z-0.01
X0.7017 Y-0.9471 Z-0.0144
Y-0.9409 Z-0.01
G0 Z0.2
X0.7723 Y-0.7787
Z0.19
G1 Z-0.01 F13.333
X0.7867 Y-0.7904 Z-0.0264 F20.
X0.8107 Y-0.7625 Z-0.01
X0.7867 Y-0.7904 Z-0.0264
X0.7596 Y-0.9133 Z-0.0229
X0.758 Y-0.9214
X0.756 Y-0.9318 Z-0.0227
X0.755 Y-0.9389 Z-0.0229
X0.7548 Y-0.9412 Z-0.0228
X0.7542 Y-0.95 Z-0.0229
Y-0.952 Z-0.023
Y-0.9558 Z-0.0233
X0.7547 Y-0.9602
X0.7551 Y-0.9628 Z-0.0235
X0.756 Y-0.9667 Z-0.0236
X0.7567 Y-0.9685 Z-0.0237
X0.7575 Y-0.9703
X0.7589 Y-0.9727 Z-0.0236
X0.7613 Y-0.9762 Z-0.0234
X0.7623 Y-0.9775
X0.7668 Y-0.9817 Z-0.0225
X0.7686 Y-0.983 Z-0.0223
X0.7694 Y-0.9835
X0.7718 Y-0.9849 Z-0.022
X0.7745 Y-0.9862 Z-0.0214
X0.7777 Y-0.9873 Z-0.0209
X0.7829 Y-0.9886 Z-0.0198
X0.7846 Y-0.989 Z-0.0197
X0.7903 Y-0.9889 Z-0.0184
X0.7959 Y-0.9886 Z-0.0174
X0.7978 Y-0.9884 Z-0.0171
X0.7991 Y-0.9882 Z-0.0169
X0.8078 Y-0.9856
X0.8116 Y-0.9843 Z-0.0167
X0.8188 Y-0.9815 Z-0.0165
X0.8226 Y-0.9798 Z-0.0162
X0.8288 Y-0.9763 Z-0.0159
X0.833 Y-0.9737 Z-0.0154
X0.838 Y-0.97 Z-0.0149
X0.8425 Y-0.966 Z-0.0145
X0.8473 Y-0.9612 Z-0.0144
X0.8507 Y-0.9576 Z-0.0142
X0.8557 Y-0.9517
X0.8583 Y-0.9484
X0.8636 Y-0.9414 Z-0.0144
X0.8642 Y-0.9407
X0.8647 Y-0.9401 Z-0.0145
X0.8654 Y-0.9396 Z-0.0147
X0.8663 Y-0.939 Z-0.0151
X0.8678 Y-0.9382 Z-0.0159
X0.8695 Y-0.9375 Z-0.017
X0.8714 Y-0.937 Z-0.0183
X0.8735 Y-0.9366 Z-0.0199
X0.8759 Y-0.9364 Z-0.0217
X0.8784 Y-0.9363 Z-0.0238
X0.8789 Y-0.9387 Z-0.0231
X0.8793 Y-0.9411 Z-0.0226
Y-0.9423 Z-0.0224
Y-0.945 Z-0.0223
Y-0.9514 Z-0.0226
X0.8795 Y-0.955 Z-0.0229
X0.8797 Y-0.9567
X0.8799 Y-0.9587 Z-0.0231
X0.8805 Y-0.9619 Z-0.0234
X0.8813 Y-0.9652 Z-0.0237
X0.882 Y-0.9679 Z-0.024
X0.8836 Y-0.9717
X0.8844 Y-0.9734 Z-0.0243
X0.8867 Y-0.9773 Z-0.0246
X0.8876 Y-0.9786 Z-0.0248
X0.8904 Y-0.9815 Z-0.0249
X0.8916 Y-0.9825
X0.8921 Y-0.9829 Z-0.0248
X0.8932 Y-0.9834 Z-0.0246
X0.896 Y-0.9843 Z-0.0242
X0.8981 Y-0.9845 Z-0.0236
X0.8996 Y-0.9846 Z-0.0231
X0.9013 Y-0.9845 Z-0.0226
X0.9051 Y-0.9839 Z-0.0211
X0.9073 Y-0.9833 Z-0.0203
X0.9094 Y-0.9825 Z-0.0196
X0.9111 Y-0.9814 Z-0.0192
X0.9221 Y-0.9738 Z-0.0165
X0.9276 Y-0.9697 Z-0.0156
X0.929 Y-0.9684 Z-0.0154
X0.9325 Y-0.9652 Z-0.0149
X0.9371 Y-0.9606 Z-0.0144
X0.9415 Y-0.9559 Z-0.0142
X0.9471 Y-0.9496
X0.9467 Y-0.9437 Z-0.01
X0.9471 Y-0.9496 Z-0.0142
X0.953 Y-0.9492 Z-0.01
X0.9471 Y-0.9496 Z-0.0142
X0.9415 Y-0.9559
X0.9371 Y-0.9606 Z-0.0144
X0.9325 Y-0.9652 Z-0.0149
X0.929 Y-0.9684 Z-0.0154
X0.9276 Y-0.9697 Z-0.0156
X0.9221 Y-0.9738 Z-0.0165
X0.9111 Y-0.9814 Z-0.0192
X0.9094 Y-0.9825 Z-0.0196
X0.9073 Y-0.9833 Z-0.0203
X0.9051 Y-0.9839 Z-0.0211
X0.9013 Y-0.9845 Z-0.0226
X0.8996 Y-0.9846 Z-0.0231
X0.8981 Y-0.9845 Z-0.0236
X0.896 Y-0.9843 Z-0.0242
X0.8932 Y-0.9834 Z-0.0246
X0.8921 Y-0.9829 Z-0.0248
X0.8916 Y-0.9825 Z-0.0249
X0.8904 Y-0.9815
X0.8876 Y-0.9786 Z-0.0248
X0.8867 Y-0.9773 Z-0.0246
X0.8844 Y-0.9734 Z-0.0243
X0.8836 Y-0.9717 Z-0.024
X0.882 Y-0.9679
X0.8813 Y-0.9652 Z-0.0237
X0.8805 Y-0.9619 Z-0.0234
X0.8799 Y-0.9587 Z-0.0231
X0.8797 Y-0.9567 Z-0.0229
X0.8795 Y-0.955
X0.8793 Y-0.9514 Z-0.0226
Y-0.945 Z-0.0223
Y-0.9423 Z-0.0224
Y-0.9411 Z-0.0226
X0.8789 Y-0.9387 Z-0.0231
X0.8784 Y-0.9363 Z-0.0238
X0.8804 Y-0.9306 Z-0.0223
X0.8812 Y-0.9279 Z-0.0218
X0.8814 Y-0.9269 Z-0.0217
X0.8831 Y-0.9169 Z-0.0214
X0.8857 Y-0.9032 Z-0.0216
X0.9109 Y-0.7903 Z-0.0263
X0.8964 Y-0.7787 Z-0.01
X0.9109 Y-0.7903 Z-0.0263
X0.9352 Y-0.7625 Z-0.01
G0 Z0.2
X0.9531 Y-0.969
Z0.19
G1 Z-0.01 F13.333
X0.9729 Y-0.9686 Z-0.0249 F20.
X0.974 Y-0.9549 Z-0.0168
X0.9753 Y-0.9429 Z-0.01
X0.974 Y-0.9549 Z-0.0168
X0.9729 Y-0.9686 Z-0.0249
X0.9755 Y-0.9717 Z-0.0247
X0.9787 Y-0.9752 Z-0.0242
X0.9799 Y-0.9764 Z-0.0241
X0.9832 Y-0.9793 Z-0.0236
X0.9854 Y-0.981 Z-0.0234
X0.9879 Y-0.9826 Z-0.023
X0.9909 Y-0.9843 Z-0.0227
X0.9931 Y-0.9853 Z-0.0223
X0.9976 Y-0.9872 Z-0.0218
X0.9985 Y-0.9875 Z-0.0216
X1.0054 Y-0.9894 Z-0.021
X1.0086 Y-0.9902 Z-0.0206
X1.0129 Y-0.9911 Z-0.0204
X1.0192 Y-0.9916 Z-0.0194
X1.0224 Y-0.9918 Z-0.019
X1.0294 Z-0.0178
X1.0305 Y-0.9917 Z-0.0176
X1.0315 Y-0.9916
X1.0407 Y-0.9897 Z-0.0166
X1.0457 Y-0.9882 Z-0.016
X1.0505 Y-0.9865 Z-0.0157
X1.0512 Y-0.9862 Z-0.0156
X1.0552 Y-0.9841 Z-0.0154
X1.0596 Y-0.9814 Z-0.0153
X1.0675 Y-0.9757 Z-0.0152
X1.0684 Y-0.975 Z-0.0153
X1.0744 Y-0.9686 Z-0.0154
X1.0747 Y-0.9682 Z-0.0155
X1.0773 Y-0.9648 Z-0.0156
X1.08 Y-0.9608 Z-0.0159
X1.0811 Y-0.9589 Z-0.0161
X1.0824 Y-0.9563 Z-0.0163
X1.0842 Y-0.9516 Z-0.0169
X1.0861 Y-0.9455 Z-0.0179
X1.0869 Y-0.9425 Z-0.0182
X1.0871 Y-0.9413 Z-0.0184
X1.0875 Y-0.937 Z-0.0191
X1.0876 Y-0.9337 Z-0.0195
X1.0873 Y-0.9281 Z-0.0204
X1.0872 Y-0.927 Z-0.0205
X1.0868 Y-0.9242 Z-0.0212
X1.085 Y-0.919 Z-0.0218
X1.0823 Y-0.9124 Z-0.0229
X1.0816 Y-0.911 Z-0.0233
X1.0782 Y-0.9056 Z-0.0246
X1.0748 Y-0.9009 Z-0.0254
X1.0708 Y-0.8965 Z-0.0259
X1.0661 Y-0.8918 Z-0.0261
X1.054 Y-0.8815 Z-0.0262
X1.0503 Y-0.8785
X1.0341 Y-0.865 Z-0.026
X1.0311 Y-0.8624 Z-0.0258
X1.0268 Y-0.8584 Z-0.0256
X1.0227 Y-0.8544 Z-0.0253
X1.0206 Y-0.8521
X1.0185 Y-0.8492 Z-0.0249
X1.0181 Y-0.8487 Z-0.0248
X1.0159 Y-0.8449 Z-0.0243
X1.0151 Y-0.843 Z-0.0239
X1.0143 Y-0.8406 Z-0.0235
X1.0131 Y-0.8365 Z-0.0227
X1.0129 Y-0.8358 Z-0.0226
X1.0122 Y-0.8301 Z-0.0214
X1.0121 Y-0.8283 Z-0.0211
X1.012 Y-0.8197 Z-0.0191
X1.0122 Y-0.818 Z-0.0186
X1.0126 Y-0.8163 Z-0.0183
X1.0136 Y-0.8128 Z-0.0179
X1.015 Y-0.8088 Z-0.0172
X1.0167 Y-0.8049 Z-0.0167
X1.0189 Y-0.8012 Z-0.0161
X1.0215 Y-0.7976 Z-0.0158
X1.0239 Y-0.795 Z-0.0156
X1.0277 Y-0.791 Z-0.0155
X1.0297 Y-0.7894 Z-0.0154
X1.0361 Y-0.7848
X1.0365 Y-0.7846
X1.0403 Y-0.7823 Z-0.0155
X1.0437 Y-0.7806 Z-0.0157
X1.0444 Y-0.7803
X1.0486 Y-0.7788 Z-0.016
X1.0528 Y-0.7775 Z-0.0165
X1.0608 Y-0.7757 Z-0.0174
X1.062 Y-0.7756 Z-0.0175
X1.0709 Y-0.7753 Z-0.0186
X1.0759 Y-0.7755 Z-0.0193
X1.0788 Y-0.7758 Z-0.0198
X1.0812 Y-0.7763 Z-0.0201
X1.0863 Y-0.7776 Z-0.0209
X1.0911 Y-0.7795 Z-0.0218
X1.0961 Y-0.7822 Z-0.0224
X1.0995 Y-0.7844 Z-0.0226
X1.1009 Y-0.7855 Z-0.0228
X1.1043 Y-0.789 Z-0.0231
X1.1054 Y-0.7902
X1.1063 Y-0.7915 Z-0.023
X1.1069 Y-0.7925 Z-0.0228
X1.1074 Y-0.7937 Z-0.0226
X1.1091 Y-0.7978 Z-0.0216
X1.1101 Y-0.8031 Z-0.0199
X1.1102 Y-0.8038 Z-0.0197
X1.1103 Y-0.8064 Z-0.0189
X1.1102 Y-0.8086 Z-0.018
X1.1098 Y-0.811 Z-0.0169
X1.1088 Y-0.8141 Z-0.0152
X1.1054 Y-0.8227 Z-0.01
G0 Z0.6
(ENGRAVE1 2)
G0 X-1.1357 Y1.0145
Z0.6
Z0.19
G1 Z-0.01 F13.333
X-1.1281 Y1.0021 Z-0.0162 F40.
X-1.1206 Y0.9899 Z-0.0223
X-1.1131 Y0.9779 Z-0.0283
X-1.1056 Y0.9662 Z-0.0342
X-1.0982 Y0.9547 Z-0.04
X-1.0907 Y0.9435 Z-0.0456
X-1.0833 Y0.9325 Z-0.0512
X-1.0759 Y0.9217 Z-0.0566
X-1.0686 Y0.9112 Z-0.0618
X-1.0613 Y0.9009 Z-0.067
X-1.0578 Y0.8962 Z-0.0694
X-1.0566 Y0.8904
X-1.0541 Y0.8795
X-1.0515 Y0.8688
X-1.0488 Y0.8582
X-1.046 Y0.8479
X-1.0431 Y0.8377
X-1.04 Y0.8276
X-1.0369 Y0.8178
X-1.0336 Y0.8081
X-1.0302 Y0.7986
X-1.0266 Y0.7893
X-1.023 Y0.7801
X-1.0192 Y0.7711
X-1.0153 Y0.7623
X-1.0112 Y0.7537
X-1.007 Y0.7453
X-1.0027 Y0.737
X-0.9982 Y0.7289
X-0.9936 Y0.721
X-0.9889 Y0.7132
X-0.9839 Y0.7056
X-0.9789 Y0.6981
X-0.9737 Y0.6909
X-0.9683 Y0.6837
X-0.9628 Y0.6767
X-0.9571 Y0.6698
X-0.9513 Y0.6631
X-0.9452 Y0.6565
X-0.939 Y0.65
X-0.9326 Y0.6437
X-0.926 Y0.6375
X-0.9192 Y0.6313
X-0.9123 Y0.6253
X-0.9051 Y0.6194
X-0.8977 Y0.6136
X-0.8901 Y0.6079
X-0.8823 Y0.6023
X-0.8743 Y0.5968
X-0.8661 Y0.5913
X-0.8576 Y0.586
X-0.849 Y0.5807
X-0.8401 Y0.5755
X-0.8311 Y0.5704
X-0.8218 Y0.5653
X-0.8124 Y0.5604
X-0.8027 Y0.5554
X-0.7929 Y0.5506
X-0.7828 Y0.5457
X-0.7726 Y0.541
X-0.7623 Y0.5363
X-0.7517 Y0.5316
X-0.741 Y0.5269
X-0.7301 Y0.5223
X-0.719 Y0.5177
G2 X-0.693 Y0.4292 I-0.0229 J-0.0548
G3 X-0.15 Y-0.0039 I0.2866 J-0.1975
G2 X-0.0801 Y0.0092 I0.0437 J-0.0402
G1 X-0.0783 Y0.0071 Z-0.0683
X-0.0764 Y0.005 Z-0.0674
X-0.0747 Y0.0028 Z-0.0665
X-0.073 Y0.0006 Z-0.0657
X-0.0714 Y-0.0017 Z-0.0649
X-0.0698 Y-0.004 Z-0.0642
X-0.0683 Y-0.0064 Z-0.0635
X-0.0668 Y-0.0087 Z-0.063
X-0.0655 Y-0.0112 Z-0.0624
X-0.0641 Y-0.0136 Z-0.062
X-0.0629 Y-0.0161 Z-0.0616
X-0.0617 Y-0.0186 Z-0.0614
X-0.0605 Y-0.0215 Z-0.0611
X-0.0576 Y-0.0289 Z-0.0608
X-0.051 Y-0.047 Z-0.0601
X-0.0451 Y-0.0637 Z-0.0595
X-0.044 Y-0.0666 Z-0.0596
X-0.0425 Y-0.0698 Z-0.0597
X-0.0408 Y-0.0734 Z-0.0601
X-0.039 Y-0.0769 Z-0.0606
X-0.0367 Y-0.0808 Z-0.0614
X-0.0345 Y-0.0842 Z-0.0623
X-0.0322 Y-0.0876 Z-0.0633
X-0.0294 Y-0.0914 Z-0.0647
X-0.0268 Y-0.0947 Z-0.0661
X-0.024 Y-0.0979 Z-0.0676
X-0.021 Y-0.1011 Z-0.0694
G3 X0.0233 I0.0222 J0.0551
G1 X0.0231 Y-0.1016
X0.0192 Y-0.1131
X0.0191 Y-0.1136
X0.0152 Y-0.1251
X0.0151 Y-0.1256
X0.0113 Y-0.1373
X0.0112 Y-0.1378
X0.0075 Y-0.1496
X0.0073 Y-0.15
X0.0037 Y-0.162
X0.0036 Y-0.1624
X0.0011 Y-0.1708
Y-0.1889 Z-0.0644
Y-0.2162 Z-0.0571
Y-0.2437 Z-0.0502
Y-0.2714 Z-0.0437
Y-0.2994 Z-0.0374
Y-0.3276 Z-0.0314
Y-0.356 Z-0.0256
Y-0.3848 Z-0.0202
Y-0.4139 Z-0.015
Y-0.4432 Z-0.01
Y-0.4139 Z-0.015
Y-0.3848 Z-0.0202
Y-0.356 Z-0.0256
Y-0.3276 Z-0.0314
Y-0.2994 Z-0.0374
Y-0.2714 Z-0.0437
Y-0.2437 Z-0.0502
Y-0.2162 Z-0.0571
Y-0.1889 Z-0.0644
Y-0.1708 Z-0.0694
X-0.0013 Y-0.1624
X-0.0015 Y-0.162
X-0.0051 Y-0.15
X-0.0052 Y-0.1496
X-0.0089 Y-0.1378
X-0.0091 Y-0.1373
X-0.0128 Y-0.1256
X-0.013 Y-0.1251
X-0.0168 Y-0.1136
X-0.017 Y-0.1131
X-0.0208 Y-0.1016
X-0.021 Y-0.1011
X-0.0208 Y-0.1016
X-0.017 Y-0.1131
X-0.0168 Y-0.1136
X-0.013 Y-0.1251
X-0.0128 Y-0.1256
X-0.0091 Y-0.1373
X-0.0089 Y-0.1378
X-0.0052 Y-0.1496
X-0.0051 Y-0.15
X-0.0015 Y-0.162
X-0.0013 Y-0.1624
X0.0011 Y-0.1708
X0.0036 Y-0.1624
X0.0037 Y-0.162
X0.0073 Y-0.15
X0.0075 Y-0.1496
X0.0112 Y-0.1378
X0.0113 Y-0.1373
X0.0151 Y-0.1256
X0.0152 Y-0.1251
X0.0191 Y-0.1136
X0.0192 Y-0.1131
X0.0231 Y-0.1016
X0.0233 Y-0.1011
X0.0262 Y-0.0979 Z-0.0676
X0.029 Y-0.0947 Z-0.0661
X0.032 Y-0.0909 Z-0.0645
X0.0345 Y-0.0876 Z-0.0633
X0.0368 Y-0.0842 Z-0.0623
X0.0392 Y-0.0804 Z-0.0613
X0.0412 Y-0.0769 Z-0.0606
X0.0431 Y-0.0734 Z-0.0601
X0.045 Y-0.0694 Z-0.0597
X0.0462 Y-0.0666 Z-0.0596
X0.0474 Y-0.0637 Z-0.0595
X0.0494 Y-0.058 Z-0.0596
X0.056 Y-0.0393 Z-0.0604
X0.0616 Y-0.0245 Z-0.0609
X0.0627 Y-0.0215 Z-0.0611
X0.064 Y-0.0186 Z-0.0614
X0.0652 Y-0.0161 Z-0.0616
X0.0664 Y-0.0136 Z-0.062
X0.0678 Y-0.0112 Z-0.0624
X0.0691 Y-0.0087 Z-0.063
X0.0706 Y-0.0064 Z-0.0635
X0.0721 Y-0.004 Z-0.0642
X0.0737 Y-0.0017 Z-0.0649
X0.0753 Y0.0006 Z-0.0657
X0.077 Y0.0028 Z-0.0665
X0.0787 Y0.005 Z-0.0674
X0.0805 Y0.0071 Z-0.0683
X0.0824 Y0.0092 Z-0.0694
Y0.0094
X0.0862 Y0.0194
X0.09 Y0.0293
X0.0938 Y0.0391
X0.0978 Y0.0487
X0.1017 Y0.0583
X0.1058 Y0.0677
X0.1099 Y0.0771
X0.114 Y0.0863
X0.1145 Y0.0873
X0.1157 Y0.0917 Z-0.0686
X0.1171 Y0.0959 Z-0.0681
X0.1188 Y0.1006 Z-0.0676
X0.1198 Y0.1029 Z-0.0674
X0.1207 Y0.1052
X0.1223 Y0.1085 Z-0.0673
X0.1237 Y0.1113 Z-0.0674
X0.13 Y0.1226 Z-0.068
X0.1323 Y0.1265 Z-0.0682
X0.1395 Y0.1388 Z-0.0689
X0.1452 Y0.1479 Z-0.0694
X0.1465 Y0.1499
X0.1471 Y0.1508
X0.1547 Y0.1615
X0.1553 Y0.1623
X0.163 Y0.1728
X0.1637 Y0.1737
X0.1715 Y0.1839
X0.1722 Y0.1848
X0.1802 Y0.1948
X0.1809 Y0.1957
X0.189 Y0.2055
G2 X0.2905 Y0.1882 I0.0458 J-0.0378
G3 X0.5267 Y0.2751 I0.1181 J0.0435
X0.4885 Y0.3289 I-0.1181 J-0.0435
G2 X0.5023 Y0.4291 I0.0377 J0.0459
G1 X0.5137 Y0.4341
X0.5141 Y0.4343
X0.5257 Y0.4393
X0.5262 Y0.4395
X0.5493 Y0.4492
X0.5499 Y0.4495
X0.5732 Y0.459
X0.5736 Y0.4591
X0.5968 Y0.4684
G2 X0.6638 Y0.4521 I0.022 J-0.0552
X0.6094 Y-0.0392 I-0.2552 J-0.2204
X0.1235 Y0.0516 I-0.2008 J0.2709
X0.1145 Y0.0873 I0.0502 J0.0317
G0 Z0.2
X0.3404 Y-0.4841
Z0.19
G1 Z-0.0172 F13.333
X0.3323 Y-0.4873 Z-0.0171 F40.
X0.331 Y-0.4879 Z-0.0172
X0.3153 Y-0.4957 Z-0.0176
X0.3067 Y-0.5003 Z-0.0181
X0.299 Y-0.5053
X0.2986 Y-0.5056
X0.2906 Y-0.5111 Z-0.0184
X0.2821 Y-0.5174 Z-0.0191
X0.2705 Y-0.5267 Z-0.0199
X0.2675 Y-0.5292 Z-0.0201
X0.2597 Y-0.5366 Z-0.0209
X0.2494 Y-0.5469 Z-0.0217
X0.2444 Y-0.5524 Z-0.022
X0.2374 Y-0.5604 Z-0.0225
X0.237 Y-0.5609
X0.2301 Y-0.5696 Z-0.0232
X0.2211 Y-0.5812 Z-0.0244
X0.2106 Y-0.597 Z-0.0253
X0.2038 Y-0.608 Z-0.0264
X0.1956 Y-0.6223 Z-0.0274
X0.1885 Y-0.6356 Z-0.0283
X0.182 Y-0.6493 Z-0.0291
X0.1761 Y-0.6636 Z-0.0298
X0.1709 Y-0.6772 Z-0.0305
X0.1652 Y-0.6931 Z-0.0316
X0.1614 Y-0.7056 Z-0.0318
X0.1564 Y-0.7237 Z-0.0325
X0.1527 Y-0.7388 Z-0.0329
X0.1505 Y-0.7492 Z-0.033
X0.1496 Y-0.7537 Z-0.0331
X0.1479 Y-0.7645
X0.1473 Y-0.7687
X0.1461 Y-0.7797 Z-0.033
X0.1457 Y-0.7841 Z-0.0331
X0.1449 Y-0.7949 Z-0.0329
X0.1438 Y-0.8158 Z-0.033
Y-0.8261 Z-0.0326
X0.1441 Y-0.8335
X0.1447 Y-0.8421 Z-0.0324
X0.1454 Y-0.8506 Z-0.0321
X0.1469 Y-0.8612 Z-0.0316
X0.1481 Y-0.8675 Z-0.0313
X0.1494 Y-0.8734 Z-0.0309
X0.1524 Y-0.8852 Z-0.0306
X0.1563 Y-0.8966 Z-0.0299
X0.1573 Y-0.8994 Z-0.0298
X0.1601 Y-0.9065 Z-0.0294
X0.163 Y-0.9132 Z-0.0288
X0.1655 Y-0.9184 Z-0.0282
X0.1663 Y-0.9198 Z-0.0281
X0.1703 Y-0.9263 Z-0.0277
X0.1769 Y-0.9364 Z-0.0266
X0.1789 Y-0.9393 Z-0.0265
X0.1834 Y-0.9446 Z-0.0256
X0.1905 Y-0.9525 Z-0.0246
X0.194 Y-0.9559 Z-0.0243
X0.1981 Y-0.9595 Z-0.0238
X0.1995 Y-0.9607 Z-0.0237
X0.206 Y-0.9657 Z-0.0229
X0.2115 Y-0.9694 Z-0.0223
X0.2226 Y-0.9765 Z-0.0208
X0.2248 Y-0.9777
X0.2411 Y-0.9846 Z-0.0194
X0.2505 Y-0.9879 Z-0.0187
X0.2559 Y-0.9894 Z-0.0184
X0.26 Y-0.9904 Z-0.018
X0.2639 Y-0.9911 Z-0.0179
X0.2695 Y-0.992 Z-0.0175
X0.2722 Y-0.9924
X0.2791 Y-0.993 Z-0.0172
X0.2893 Y-0.9937 Z-0.0171
X0.2985 Z-0.0165
X0.3097 Y-0.993 Z-0.0166
X0.3197 Y-0.992
X0.3296 Y-0.9905
X0.3375 Y-0.9887
X0.3394 Y-0.9883 Z-0.0167
X0.347 Y-0.9861 Z-0.0168
X0.3491 Y-0.9854 Z-0.0169
X0.3563 Y-0.9829 Z-0.0171
X0.3682 Y-0.9784 Z-0.0178
X0.375 Y-0.9753
X0.3873 Y-0.9689 Z-0.0186
X0.3966 Y-0.9638 Z-0.0191
X0.4054 Y-0.9583 Z-0.0195
X0.414 Y-0.9524 Z-0.0199
X0.4223 Y-0.9459 Z-0.0204
X0.4306 Y-0.9389 Z-0.0209
X0.4384 Y-0.932 Z-0.0216
X0.4472 Y-0.9234 Z-0.0219
X0.4548 Y-0.9153 Z-0.0227
X0.4636 Y-0.9055 Z-0.0234
X0.4716 Y-0.8958 Z-0.024
X0.4791 Y-0.8858 Z-0.0246
X0.4862 Y-0.8755 Z-0.0252
X0.4929 Y-0.8651 Z-0.026
X0.4961 Y-0.8599 Z-0.0265
X0.5055 Y-0.8431 Z-0.0272
X0.5096 Y-0.8351 Z-0.028
X0.517 Y-0.8197 Z-0.029
X0.5212 Y-0.8101 Z-0.0297
X0.5273 Y-0.7951 Z-0.0304
X0.531 Y-0.7844 Z-0.031
X0.5357 Y-0.7704 Z-0.0316
X0.5396 Y-0.7579 Z-0.0324
X0.543 Y-0.7451 Z-0.0326
X0.5461 Y-0.7319 Z-0.0331
X0.549 Y-0.7188 Z-0.0333
X0.5512 Y-0.7064 Z-0.0335
X0.5533 Y-0.6919 Z-0.0334
X0.5546 Y-0.6782 Z-0.0332
X0.5554 Y-0.6646 Z-0.0331
X0.556 Y-0.6542 Z-0.0332
X0.5558 Y-0.6368 Z-0.0323
X0.5555 Y-0.6304 Z-0.0322
X0.5547 Y-0.6188 Z-0.0318
X0.5533 Y-0.6078 Z-0.0314
X0.5519 Y-0.6003 Z-0.0308
X0.5512 Y-0.5969 Z-0.0307
X0.5479 Y-0.584 Z-0.0298
X0.5475 Y-0.5829 Z-0.0297
X0.5418 Y-0.5651 Z-0.0285
X0.5411 Y-0.5631 Z-0.0284
X0.5353 Y-0.5509 Z-0.0272
X0.5319 Y-0.5443 Z-0.0268
X0.5279 Y-0.5371 Z-0.0261
X0.5269 Y-0.5355 Z-0.026
X0.5235 Y-0.5304 Z-0.0256
X0.5213 Y-0.5274 Z-0.0254
X0.5187 Y-0.5242 Z-0.025
X0.515 Y-0.5198 Z-0.0245
X0.5079 Y-0.5121 Z-0.0234
X0.4976 Y-0.5029 Z-0.0223
X0.492 Y-0.4982 Z-0.0219
X0.4858 Y-0.4942 Z-0.021
X0.4796 Y-0.4906 Z-0.0205
X0.473 Y-0.487 Z-0.0202
X0.4632 Y-0.4824 Z-0.0196
X0.4602 Y-0.4812 Z-0.0194
X0.4532 Y-0.4788 Z-0.0192
X0.446 Y-0.4768 Z-0.0187
X0.4428 Y-0.4759 Z-0.0186
X0.4385 Y-0.475 Z-0.0183
X0.4309 Y-0.4737 Z-0.0179
X0.4234 Y-0.4728 Z-0.0176
X0.4159 Y-0.4722 Z-0.0175
X0.4095 Y-0.4718
X0.4006 Y-0.472 Z-0.0169
X0.3823 Y-0.4735 Z-0.0168
X0.3746 Y-0.4746 Z-0.0167
X0.369 Y-0.4755 Z-0.0168
X0.3659 Y-0.4762
X0.3561 Y-0.4786 Z-0.017
X0.349 Y-0.481
X0.3435 Y-0.4829 Z-0.0172
X0.3404 Y-0.4841
G0 Z0.2
X-0.8881 Y0.8077
Z0.19
G1 Z-0.0694 F13.333
G3 X-0.9465 Y0.715 I-0.0099 J-0.0586 F40.
G1 X-0.9421 Y0.7087
X-0.9414 Y0.7078
X-0.9368 Y0.7015
X-0.9361 Y0.7006
X-0.9314 Y0.6944
X-0.9307 Y0.6935
X-0.9259 Y0.6874
X-0.9251 Y0.6864
X-0.9201 Y0.6804
X-0.9193 Y0.6795
X-0.9142 Y0.6736
X-0.9134 Y0.6727
X-0.9082 Y0.6669
X-0.9073 Y0.6659
X-0.9019 Y0.6602
X-0.9011 Y0.6593
X-0.8955 Y0.6537
X-0.8946 Y0.6528
X-0.889 Y0.6472
X-0.8881 Y0.6464
X-0.8823 Y0.6409
X-0.8814 Y0.6401
X-0.8754 Y0.6347
X-0.8745 Y0.6339
X-0.8684 Y0.6286
X-0.8675 Y0.6278
X-0.8612 Y0.6226
X-0.8603 Y0.6219
X-0.8539 Y0.6167
X-0.853 Y0.616
X-0.8464 Y0.611
X-0.8455 Y0.6103
X-0.8388 Y0.6053
X-0.838 Y0.6047
X-0.8311 Y0.5998
X-0.8302 Y0.5992
X-0.8232 Y0.5944
X-0.8224 Y0.5938
X-0.8153 Y0.5891
X-0.8144 Y0.5886
X-0.8071 Y0.5839
X-0.8064 Y0.5834
X-0.7989 Y0.5788
X-0.7982 Y0.5783
X-0.7906 Y0.5738
X-0.7899 Y0.5733
X-0.7822 Y0.5689
X-0.7815 Y0.5685
X-0.7737 Y0.5641
X-0.773 Y0.5637
X-0.765 Y0.5594
X-0.7644 Y0.559
X-0.7563 Y0.5548
X-0.7557 Y0.5545
X-0.7475 Y0.5502
X-0.7469 Y0.5499
X-0.7386 Y0.5458
X-0.7381 Y0.5455
X-0.7296 Y0.5414
X-0.7291 Y0.5411
X-0.7206 Y0.5371
X-0.7201 Y0.5368
X-0.7115 Y0.5328
X-0.711 Y0.5326
X-0.7023 Y0.5286
X-0.7019 Y0.5284
X-0.6931 Y0.5245
X-0.6927 Y0.5243
X-0.6838 Y0.5204
X-0.6834 Y0.5203
X-0.6744 Y0.5164
X-0.674 Y0.5162
X-0.6558 Y0.5085
X-0.6553 Y0.5083
X-0.6368 Y0.5007
X-0.6365 Y0.5005
X-0.6177 Y0.493
X-0.6175 Y0.4929
X-0.5986 Y0.4853
X-0.5985
X-0.5795 Y0.4777
X-0.5605 Y0.4701
X-0.5415 Y0.4625
X-0.5227 Y0.4548
X-0.5041 Y0.447
X-0.4856 Y0.4392
X-0.4674 Y0.4311
X-0.4493 Y0.4229
X-0.4406 Y0.4187
X-0.4318 Y0.4145
X-0.4231 Y0.4102
X-0.4145 Y0.4059
X-0.406 Y0.4015
X-0.3976 Y0.3971
X-0.3893 Y0.3926
X-0.3811 Y0.388
X-0.373 Y0.3833
X-0.365 Y0.3786
X-0.357 Y0.3738
X-0.3492 Y0.3689
X-0.3416 Y0.364
X-0.334 Y0.359
X-0.3265 Y0.3539
X-0.3191 Y0.3487
X-0.3119 Y0.3434
X-0.3047 Y0.3381
X-0.2977 Y0.3326
X-0.2907 Y0.3271
X-0.2839 Y0.3215
X-0.2771 Y0.3158
X-0.2705 Y0.31
X-0.264 Y0.3041
X-0.2575 Y0.2981
X-0.2512 Y0.292
X-0.245 Y0.2858
X-0.2388 Y0.2795
X-0.2328 Y0.2731
X-0.2268 Y0.2666
X-0.2209 Y0.26
X-0.2151 Y0.2533
X-0.2094 Y0.2465
X-0.2038 Y0.2395
X-0.1983 Y0.2325
X-0.1929 Y0.2254
X-0.1875 Y0.2181
X-0.1822 Y0.2107
X-0.177 Y0.2032
X-0.1719 Y0.1956
X-0.1668 Y0.1879
X-0.1619 Y0.1801
X-0.157 Y0.1721
X-0.1521 Y0.1641
X-0.1474 Y0.1559
X-0.1429 Y0.1479
X-0.1373 Y0.1388 Z-0.0689
X-0.13 Y0.1265 Z-0.0682
X-0.1278 Y0.1226 Z-0.068
X-0.1214 Y0.1113 Z-0.0674
X-0.12 Y0.1085 Z-0.0673
X-0.1185 Y0.1052 Z-0.0674
X-0.1175 Y0.1029
X-0.1165 Y0.1006 Z-0.0676
X-0.1148 Y0.0959 Z-0.0681
X-0.1134 Y0.0917 Z-0.0686
X-0.1122 Y0.0873 Z-0.0694
X-0.1118 Y0.0863
X-0.1076 Y0.0771
X-0.1035 Y0.0677
X-0.0995 Y0.0583
X-0.0955 Y0.0487
X-0.0916 Y0.0391
X-0.0877 Y0.0293
X-0.0839 Y0.0194
X-0.0802 Y0.0094
X-0.0801 Y0.0092
X-0.0802 Y0.0094
X-0.0839 Y0.0194
X-0.0877 Y0.0293
X-0.0916 Y0.0391
X-0.0955 Y0.0487
X-0.0995 Y0.0583
X-0.1035 Y0.0677
X-0.1076 Y0.0771
X-0.1118 Y0.0863
X-0.1122 Y0.0873
G2 X-0.1213 Y0.0516 I-0.0592 J-0.004
X-0.6071 Y-0.0392 I-0.285 J0.1801
X-0.6615 Y0.4521 I0.2008 J0.2709
X-0.5946 Y0.4684 I0.0449 J-0.0388
G1 X-0.5713 Y0.4591
X-0.5709 Y0.459
X-0.5477 Y0.4495
X-0.5471 Y0.4492
X-0.5239 Y0.4395
X-0.5234 Y0.4393
X-0.5119 Y0.4343
X-0.5115 Y0.4341
X-0.5 Y0.4291
G2 X-0.4862 Y0.3289 I-0.024 J-0.0543
G3 X-0.3264 Y0.1345 I0.0799 J-0.0972
X-0.2882 Y0.1882 I-0.0799 J0.0972
G2 X-0.1868 Y0.2055 I0.0557 J-0.0205
G1 X-0.1786 Y0.1957
X-0.1779 Y0.1948
X-0.1699 Y0.1848
X-0.1693 Y0.1839
X-0.1614 Y0.1737
X-0.1607 Y0.1728
X-0.153 Y0.1623
X-0.1524 Y0.1615
X-0.1449 Y0.1508
X-0.1443 Y0.1499
X-0.1429 Y0.1479
G0 Z0.2
X-1.0578 Y0.8962
Z0.19
G1 Z-0.0694 F13.333
G3 X-0.8881 Y0.8077 I1.0589 J1.8246 F40.
G1 X-0.8847 Y0.8066 Z-0.069
X-0.88 Y0.8049 Z-0.0685
X-0.8769 Y0.8036 Z-0.0683
X-0.8737 Y0.8022
X-0.8502 Y0.7917
X-0.8266 Y0.7814
X-0.8028 Y0.7714
X-0.7789 Y0.7618
X-0.7549 Y0.7524
X-0.7308 Y0.7433
X-0.7066 Y0.7345
X-0.6822 Y0.726
X-0.6578 Y0.7178
X-0.6333 Y0.7099
X-0.6086 Y0.7023
X-0.5839 Y0.695
X-0.5591 Y0.688
X-0.5342 Y0.6813
X-0.5093 Y0.6749
X-0.4842 Y0.6688
X-0.4591 Y0.663
X-0.4339 Y0.6575
X-0.4086 Y0.6524
X-0.3833 Y0.6475
X-0.358 Y0.643
X-0.3325 Y0.6387
X-0.3071 Y0.6348
X-0.2815 Y0.6312
X-0.256 Y0.6279
X-0.2304 Y0.6249
X-0.2047 Y0.6222
X-0.1791 Y0.6199
X-0.1534 Y0.6178
X-0.1277 Y0.6161
X-0.1019 Y0.6147
X-0.0762 Y0.6136
X-0.0504 Y0.6128
X-0.0246 Y0.6123
X0.0011 Y0.6122
X0.0269 Y0.6123
X0.0527 Y0.6128
X0.0784 Y0.6136
X0.1042 Y0.6147
X0.1299 Y0.6161
X0.1556 Y0.6178
X0.1813 Y0.6199
X0.207 Y0.6222
X0.2326 Y0.6249
X0.2582 Y0.6279
X0.2838 Y0.6312
X0.3093 Y0.6348
X0.3348 Y0.6387
X0.3602 Y0.643
X0.3856 Y0.6475
X0.4109 Y0.6524
X0.4362 Y0.6575
X0.4613 Y0.663
X0.4865 Y0.6688
X0.5115 Y0.6749
X0.5365 Y0.6813
X0.5614 Y0.688
X0.5862 Y0.695
X0.6109 Y0.7023
X0.6355 Y0.7099
X0.6601 Y0.7178
X0.6845 Y0.726
X0.7088 Y0.7345
X0.7331 Y0.7433
X0.7572 Y0.7524
X0.7812 Y0.7618
X0.8051 Y0.7714
X0.8288 Y0.7814
X0.8525 Y0.7917
X0.8791 Y0.8036
X0.8823 Y0.8049 Z-0.0685
X0.8869 Y0.8066 Z-0.069
X0.8903 Y0.8077 Z-0.0694
G2 X0.9488 Y0.715 I0.0099 J-0.0586
G1 X0.9443 Y0.7087
X0.9437 Y0.7078
X0.9391 Y0.7015
X0.9384 Y0.7006
X0.9337 Y0.6944
X0.9329 Y0.6934
X0.9281 Y0.6874
X0.9274 Y0.6864
X0.9224 Y0.6805
X0.9216 Y0.6795
X0.9165 Y0.6736
X0.9157 Y0.6727
X0.9104 Y0.6668
X0.9096 Y0.6659
X0.9042 Y0.6602
X0.9033 Y0.6593
X0.8978 Y0.6537
X0.8969 Y0.6528
X0.8912 Y0.6472
X0.8904 Y0.6464
X0.8845 Y0.6409
X0.8836 Y0.6401
X0.8776 Y0.6347
X0.8768 Y0.6339
X0.8706 Y0.6286
X0.8697 Y0.6278
X0.8635 Y0.6226
X0.8625 Y0.6219
X0.8561 Y0.6167
X0.8553 Y0.616
X0.8487 Y0.611
X0.8478 Y0.6103
X0.8411 Y0.6053
X0.8402 Y0.6047
X0.8333 Y0.5998
X0.8325 Y0.5992
X0.8255 Y0.5944
X0.8247 Y0.5938
X0.8175 Y0.5891
X0.8167 Y0.5886
X0.8094 Y0.5839
X0.8086 Y0.5834
X0.8012 Y0.5788
X0.8004 Y0.5783
X0.7929 Y0.5738
X0.7921 Y0.5734
X0.7844 Y0.5689
X0.7837 Y0.5685
X0.7759 Y0.5641
X0.7752 Y0.5637
X0.7673 Y0.5594
X0.7666 Y0.559
X0.7585 Y0.5548
X0.758 Y0.5545
X0.7497 Y0.5502
X0.7492 Y0.5499
X0.7409 Y0.5458
X0.7403 Y0.5455
X0.7319 Y0.5414
X0.7314 Y0.5411
X0.7228 Y0.5371
X0.7224 Y0.5368
X0.7137 Y0.5328
X0.7133 Y0.5326
X0.7046 Y0.5286
X0.7041 Y0.5284
X0.6953 Y0.5245
X0.695 Y0.5243
X0.6861 Y0.5204
X0.6857 Y0.5203
X0.6767 Y0.5164
X0.6763 Y0.5162
X0.658 Y0.5085
X0.6576 Y0.5083
X0.6391 Y0.5007
X0.6387 Y0.5005
X0.62 Y0.493
X0.6198 Y0.4929
X0.6009 Y0.4853
X0.6008
X0.5818 Y0.4777
X0.5628 Y0.4701
X0.5438 Y0.4625
X0.525 Y0.4548
X0.5063 Y0.447
X0.4878 Y0.4392
X0.4696 Y0.4311
X0.4516 Y0.4229
X0.4428 Y0.4187
X0.4341 Y0.4145
X0.4254 Y0.4102
X0.4168 Y0.4059
X0.4083 Y0.4015
X0.3999 Y0.3971
X0.3915 Y0.3926
X0.3833 Y0.388
X0.3752 Y0.3833
X0.3672 Y0.3786
X0.3593 Y0.3738
X0.3515 Y0.3689
X0.3438 Y0.364
X0.3362 Y0.359
X0.3288 Y0.3539
X0.3214 Y0.3487
X0.3141 Y0.3434
X0.307 Y0.3381
X0.2999 Y0.3326
X0.293 Y0.3271
X0.2861 Y0.3215
X0.2794 Y0.3158
X0.2728 Y0.31
X0.2662 Y0.3041
X0.2598 Y0.2981
X0.2535 Y0.292
X0.2472 Y0.2858
X0.2411 Y0.2795
X0.235 Y0.2731
X0.2291 Y0.2666
X0.2232 Y0.26
X0.2174 Y0.2533
X0.2117 Y0.2465
X0.2061 Y0.2395
X0.2006 Y0.2325
X0.1951 Y0.2254
X0.1898 Y0.2181
X0.1845 Y0.2107
X0.1793 Y0.2032
X0.1741 Y0.1956
X0.1691 Y0.1879
X0.1641 Y0.1801
X0.1592 Y0.1721
X0.1544 Y0.1641
X0.1496 Y0.1559
X0.1452 Y0.1479
X0.1496 Y0.1559
X0.1544 Y0.1641
X0.1592 Y0.1721
X0.1641 Y0.1801
X0.1691 Y0.1879
X0.1741 Y0.1956
X0.1793 Y0.2032
X0.1845 Y0.2107
X0.1898 Y0.2181
X0.1951 Y0.2254
X0.2006 Y0.2325
X0.2061 Y0.2395
X0.2117 Y0.2465
X0.2174 Y0.2533
X0.2232 Y0.26
X0.2291 Y0.2666
X0.235 Y0.2731
X0.2411 Y0.2795
X0.2472 Y0.2858
X0.2535 Y0.292
X0.2598 Y0.2981
X0.2662 Y0.3041
X0.2728 Y0.31
X0.2794 Y0.3158
X0.2861 Y0.3215
X0.293 Y0.3271
X0.2999 Y0.3326
X0.307 Y0.3381
X0.3141 Y0.3434
X0.3214 Y0.3487
X0.3288 Y0.3539
X0.3362 Y0.359
X0.3438 Y0.364
X0.3515 Y0.3689
X0.3593 Y0.3738
X0.3672 Y0.3786
X0.3752 Y0.3833
X0.3833 Y0.388
X0.3915 Y0.3926
X0.3999 Y0.3971
X0.4083 Y0.4015
X0.4168 Y0.4059
X0.4254 Y0.4102
X0.4341 Y0.4145
X0.4428 Y0.4187
X0.4516 Y0.4229
X0.4696 Y0.4311
X0.4878 Y0.4392
X0.5063 Y0.447
X0.525 Y0.4548
X0.5438 Y0.4625
X0.5628 Y0.4701
X0.5818 Y0.4777
X0.6008 Y0.4853
X0.6009
X0.6198 Y0.4929
X0.62 Y0.493
X0.6387 Y0.5005
X0.6391 Y0.5007
X0.6576 Y0.5083
X0.658 Y0.5085
X0.6763 Y0.5162
X0.6767 Y0.5164
X0.6857 Y0.5203
X0.6861 Y0.5204
X0.695 Y0.5243
X0.6953 Y0.5245
X0.7041 Y0.5284
X0.7046 Y0.5286
X0.7133 Y0.5326
X0.7137 Y0.5328
X0.7224 Y0.5368
X0.7228 Y0.5371
X0.7314 Y0.5411
X0.7319 Y0.5414
X0.7403 Y0.5455
X0.7409 Y0.5458
X0.7492 Y0.5499
X0.7497 Y0.5502
X0.758 Y0.5545
X0.7585 Y0.5548
X0.7666 Y0.559
X0.7673 Y0.5594
X0.7752 Y0.5637
X0.7759 Y0.5641
X0.7837 Y0.5685
X0.7844 Y0.5689
X0.7921 Y0.5734
X0.7929 Y0.5738
X0.8004 Y0.5783
X0.8012 Y0.5788
X0.8086 Y0.5834
X0.8094 Y0.5839
X0.8167 Y0.5886
X0.8175 Y0.5891
X0.8247 Y0.5938
X0.8255 Y0.5944
X0.8325 Y0.5992
X0.8333 Y0.5998
X0.8402 Y0.6047
X0.8411 Y0.6053
X0.8478 Y0.6103
X0.8487 Y0.611
X0.8553 Y0.616
X0.8561 Y0.6167
X0.8625 Y0.6219
X0.8635 Y0.6226
X0.8697 Y0.6278
X0.8706 Y0.6286
X0.8768 Y0.6339
X0.8776 Y0.6347
X0.8836 Y0.6401
X0.8845 Y0.6409
X0.8904 Y0.6464
X0.8912 Y0.6472
X0.8969 Y0.6528
X0.8978 Y0.6537
X0.9033 Y0.6593
X0.9042 Y0.6602
X0.9096 Y0.6659
X0.9104 Y0.6668
X0.9157 Y0.6727
X0.9165 Y0.6736
X0.9216 Y0.6795
X0.9224 Y0.6805
X0.9274 Y0.6864
X0.9281 Y0.6874
X0.9329 Y0.6934
X0.9337 Y0.6944
X0.9384 Y0.7006
X0.9391 Y0.7015
X0.9437 Y0.7078
X0.9443 Y0.7087
X0.9488 Y0.715
G3 X0.8903 Y0.8077 I-0.0486 J0.0341
X1.0601 Y0.8962 I-0.8892 J1.9131
G1 X1.0635 Y0.901 Z-0.067
X1.0708 Y0.9112 Z-0.0618
X1.0782 Y0.9217 Z-0.0566
X1.0856 Y0.9325 Z-0.0512
X1.093 Y0.9435 Z-0.0456
X1.1004 Y0.9547 Z-0.04
X1.1079 Y0.9662 Z-0.0342
X1.1154 Y0.9779 Z-0.0283
X1.1229 Y0.9899 Z-0.0223
X1.1304 Y1.0021 Z-0.0162
X1.1379 Y1.0145 Z-0.01
X1.1304 Y1.0021 Z-0.0162
X1.1229 Y0.9899 Z-0.0223
X1.1154 Y0.9779 Z-0.0283
X1.1079 Y0.9662 Z-0.0342
X1.1004 Y0.9547 Z-0.04
X1.093 Y0.9435 Z-0.0456
X1.0856 Y0.9325 Z-0.0512
X1.0782 Y0.9217 Z-0.0566
X1.0708 Y0.9112 Z-0.0618
X1.0635 Y0.901 Z-0.067
X1.0601 Y0.8962 Z-0.0694
X1.0588 Y0.8904
X1.0564 Y0.8795
X1.0538 Y0.8688
X1.0511 Y0.8582
X1.0483 Y0.8479
X1.0454 Y0.8377
X1.0423 Y0.8276
X1.0391 Y0.8178
X1.0358 Y0.8081
X1.0324 Y0.7986
X1.0289 Y0.7893
X1.0252 Y0.7801
X1.0214 Y0.7711
X1.0175 Y0.7624
X1.0135 Y0.7537
X1.0093 Y0.7453
X1.0049 Y0.737
X1.0005 Y0.7289
X0.9959 Y0.721
X0.9911 Y0.7132
X0.9862 Y0.7056
X0.9812 Y0.6981
X0.976 Y0.6908
X0.9706 Y0.6837
X0.9651 Y0.6767
X0.9594 Y0.6698
X0.9535 Y0.6631
X0.9475 Y0.6565
X0.9413 Y0.65
X0.9349 Y0.6437
X0.9283 Y0.6375
X0.9215 Y0.6313
X0.9145 Y0.6253
X0.9073 Y0.6194
X0.9 Y0.6136
X0.8924 Y0.6079
X0.8846 Y0.6023
X0.8765 Y0.5968
X0.8683 Y0.5913
X0.8599 Y0.586
X0.8513 Y0.5807
X0.8424 Y0.5755
X0.8334 Y0.5704
X0.8241 Y0.5653
X0.8146 Y0.5604
X0.805 Y0.5554
X0.7951 Y0.5506
X0.7851 Y0.5457
X0.7749 Y0.541
X0.7645 Y0.5363
X0.754 Y0.5316
X0.7433 Y0.5269
X0.7324 Y0.5223
X0.7212 Y0.5177
G3 X0.6952 Y0.4292 I0.0229 J-0.0548
G2 X0.1523 Y-0.0039 I-0.2866 J-0.1975
G3 X0.0824 Y0.0092 I-0.0437 J-0.0402
G0 Z0.2
X-0.307 Y-0.6296
Z0.19
G1 Z-0.0317 F13.333
X-0.3064 Y-0.6298 Z-0.0323 F40.
X-0.307 Y-0.63 Z-0.0317
X-0.3064 Y-0.6298 Z-0.0323
X-0.306 Z-0.0326
X-0.3062 Y-0.6293 Z-0.0321
X-0.306 Y-0.6298 Z-0.0326
X-0.3055 Y-0.63 Z-0.0329
X-0.3054 Y-0.6305 Z-0.0326
X-0.3053 Y-0.6309 Z-0.0323
X-0.3051 Y-0.6315 Z-0.0317
X-0.3053 Y-0.6309 Z-0.0323
X-0.3055 Y-0.6315 Z-0.0317
X-0.3053 Y-0.6309 Z-0.0323
X-0.3054 Y-0.6305 Z-0.0326
X-0.3049 Y-0.6307 Z-0.0321
X-0.3054 Y-0.6305 Z-0.0326
X-0.3055 Y-0.63 Z-0.0329
X-0.3053 Y-0.6298 Z-0.0327
X-0.3039 Y-0.6283 Z-0.031
X-0.2889 Y-0.6134 Z-0.01
G0 Z0.2
X-0.3559 Y-0.7787
Z0.19
G1 Z-0.01 F13.333
X-0.3414 Y-0.7903 Z-0.0263 F40.
X-0.3171 Y-0.7625 Z-0.01
X-0.3414 Y-0.7903 Z-0.0263
X-0.3665 Y-0.9032 Z-0.0216
X-0.3692 Y-0.9169 Z-0.0214
X-0.3712 Y-0.9305 Z-0.0216
X-0.3721 Y-0.9377 Z-0.022
X-0.3727 Y-0.945
X-0.3728 Y-0.9514 Z-0.0225
X-0.3727 Y-0.9553 Z-0.0229
X-0.3726 Y-0.9567
X-0.3723 Y-0.9587 Z-0.0231
X-0.3718 Y-0.9619 Z-0.0234
X-0.371 Y-0.9652 Z-0.0237
X-0.3702 Y-0.9679 Z-0.024
X-0.3687 Y-0.9717
X-0.3679 Y-0.9734 Z-0.0243
X-0.3656 Y-0.9773 Z-0.0246
X-0.3646 Y-0.9786 Z-0.0248
X-0.3613 Y-0.9821 Z-0.0249
X-0.3601 Y-0.9829 Z-0.0248
X-0.3591 Y-0.9834 Z-0.0246
X-0.3563 Y-0.9843 Z-0.0242
X-0.3541 Y-0.9845 Z-0.0236
X-0.3526 Y-0.9846 Z-0.023
X-0.351 Y-0.9845 Z-0.0226
X-0.3471 Y-0.9839 Z-0.0211
X-0.3449 Y-0.9833 Z-0.0203
X-0.3429 Y-0.9825 Z-0.0196
X-0.3412 Y-0.9814 Z-0.0192
X-0.3301 Y-0.9738 Z-0.0165
X-0.3247 Y-0.9697 Z-0.0156
X-0.3233 Y-0.9684 Z-0.0154
X-0.3198 Y-0.9652 Z-0.0149
X-0.3152 Y-0.9606 Z-0.0144
X-0.3108 Y-0.9559 Z-0.0142
X-0.3052 Y-0.9496
X-0.3055 Y-0.9437 Z-0.01
X-0.3052 Y-0.9496 Z-0.0142
X-0.2992 Y-0.9492 Z-0.01
G0 Z0.2
X-0.2596 Y-0.9444
Z0.19
G1 Z-0.0262 F13.333
X-0.2594 Y-0.9453 Z-0.0261 F40.
X-0.2579 Y-0.9512 Z-0.0253
X-0.2555 Y-0.9578 Z-0.0242
X-0.2524 Y-0.9643 Z-0.0232
X-0.2493 Y-0.9701 Z-0.0226
X-0.2415 Y-0.9799 Z-0.02
X-0.2401 Y-0.9812 Z-0.0196
X-0.2361 Y-0.9847 Z-0.0191
X-0.2315 Y-0.988 Z-0.0182
X-0.2266 Y-0.9908 Z-0.0172
X-0.2257 Y-0.9912 Z-0.017
X-0.2213 Y-0.9929 Z-0.0163
X-0.2203 Y-0.9932 Z-0.0161
X-0.2158 Y-0.9943 Z-0.0156
X-0.2104 Y-0.9953 Z-0.0153
X-0.2045 Y-0.9959 Z-0.0152
X-0.2002 Z-0.0147
X-0.1991 Y-0.9958 Z-0.0146
X-0.1886 Y-0.9938 Z-0.0153
X-0.181 Y-0.9919 Z-0.0157
X-0.1782 Y-0.991
X-0.1738 Y-0.9893 Z-0.016
X-0.1684 Y-0.987
X-0.1677 Y-0.9866
X-0.1635 Y-0.9842 Z-0.0162
X-0.1601 Y-0.982 Z-0.0165
X-0.159 Y-0.9812 Z-0.0166
X-0.1506 Y-0.9745 Z-0.0177
X-0.1476 Y-0.9718 Z-0.0184
X-0.1427 Y-0.9666 Z-0.0191
X-0.1353 Y-0.9581 Z-0.0207
X-0.1295 Y-0.9508 Z-0.022
X-0.1285 Y-0.9494 Z-0.0222
X-0.1245 Y-0.9436 Z-0.0232
X-0.1199 Y-0.9362 Z-0.024
X-0.1156 Y-0.9284 Z-0.0249
X-0.1125 Y-0.9225 Z-0.0253
X-0.1076 Y-0.9122 Z-0.0265
X-0.1059 Y-0.9078 Z-0.0267
X-0.1014 Y-0.8955 Z-0.0276
X-0.1006 Y-0.8932 Z-0.0277
X-0.0988 Y-0.8874 Z-0.0281
X-0.0967 Y-0.8795 Z-0.0284
X-0.0951 Y-0.8716 Z-0.0285
X-0.0938 Y-0.8633 Z-0.0284
X-0.0936 Y-0.8617 Z-0.0283
X-0.0923 Y-0.847 Z-0.0282
X-0.0924 Y-0.8327 Z-0.0273
X-0.0925 Y-0.8319 Z-0.0272
X-0.0931 Y-0.8267 Z-0.0268
X-0.094 Y-0.8212 Z-0.0263
X-0.0945 Y-0.8194 Z-0.026
X-0.0955 Y-0.8157 Z-0.0254
X-0.0963 Y-0.8133 Z-0.0249
X-0.0976 Y-0.8099 Z-0.0244
X-0.0989 Y-0.8072 Z-0.0238
X-0.1019 Y-0.8012 Z-0.0228
X-0.1038 Y-0.798 Z-0.0225
X-0.1061 Y-0.795 Z-0.0217
X-0.1131 Y-0.7869 Z-0.0197
X-0.1139 Y-0.7861 Z-0.0195
X-0.1148 Y-0.7853 Z-0.0194
X-0.1169 Y-0.7835 Z-0.019
X-0.1226 Y-0.7794 Z-0.0178
X-0.1275 Y-0.7768 Z-0.0168
X-0.1322 Y-0.7749 Z-0.0159
X-0.1339 Y-0.7744 Z-0.0157
X-0.137 Y-0.7736 Z-0.0153
X-0.1418 Y-0.7728 Z-0.0149
X-0.1481 Y-0.772 Z-0.0148
X-0.1517 Z-0.0143
X-0.1608 Y-0.7731
X-0.1642 Y-0.7737 Z-0.0145
X-0.17 Y-0.775 Z-0.0146
X-0.1719 Y-0.7756 Z-0.0148
X-0.1792 Y-0.7783 Z-0.0154
X-0.1872 Y-0.7825 Z-0.0159
X-0.1927 Y-0.7862 Z-0.0166
X-0.1964 Y-0.7889 Z-0.017
X-0.2054 Y-0.7962 Z-0.0183
X-0.2132 Y-0.8043 Z-0.0195
X-0.2181 Y-0.8098 Z-0.0205
X-0.2209 Y-0.8132 Z-0.021
X-0.2237 Y-0.8168 Z-0.0218
X-0.2298 Y-0.8255 Z-0.0231
X-0.2334 Y-0.8313 Z-0.0239
X-0.2385 Y-0.8401 Z-0.0247
X-0.2459 Y-0.8551 Z-0.0263
X-0.2522 Y-0.8711 Z-0.0274
X-0.2547 Y-0.8788 Z-0.0279
X-0.2568 Y-0.8864 Z-0.0281
X-0.2584 Y-0.8939 Z-0.0282
X-0.2594 Y-0.8996 Z-0.0281
X-0.2597 Y-0.9019
X-0.261 Y-0.9147 Z-0.0279
X-0.2613 Y-0.9184 Z-0.028
X-0.2612 Y-0.9309 Z-0.0271
X-0.2611 Y-0.9327
X-0.2604 Y-0.9392 Z-0.0267
X-0.2596 Y-0.9444 Z-0.0262
G0 Z0.2
X-0.591 Y-0.969
Z0.19
G1 Z-0.01 F13.333
X-0.5712 Y-0.9686 Z-0.0249 F40.
X-0.571 Y-0.9664 Z-0.0235
X-0.5701 Y-0.9545 Z-0.0166
X-0.5688 Y-0.9429 Z-0.01
X-0.5701 Y-0.9545 Z-0.0166
X-0.571 Y-0.9664 Z-0.0235
X-0.5712 Y-0.9686 Z-0.0249
X-0.5686 Y-0.9718 Z-0.0247
X-0.5642 Y-0.9764 Z-0.0241
X-0.5637 Y-0.9769
X-0.5598 Y-0.9802 Z-0.0235
X-0.5587 Y-0.981 Z-0.0234
X-0.5549 Y-0.9834 Z-0.0228
X-0.5532 Y-0.9843 Z-0.0227
X-0.5497 Y-0.9859 Z-0.0221
X-0.5456 Y-0.9875 Z-0.0216
X-0.5442 Y-0.9879 Z-0.0214
X-0.5355 Y-0.9902 Z-0.0206
X-0.5342 Y-0.9905 Z-0.0205
X-0.5312 Y-0.9911 Z-0.0204
X-0.5244 Y-0.9916 Z-0.0194
X-0.5217 Y-0.9918 Z-0.019
X-0.5136 Y-0.9917 Z-0.0176
X-0.5117 Y-0.9915 Z-0.0175
X-0.5019 Y-0.9893 Z-0.0165
X-0.4978 Y-0.988 Z-0.016
X-0.4929 Y-0.9862 Z-0.0156
X-0.4922 Y-0.9859
X-0.4884 Y-0.9838 Z-0.0154
X-0.4834 Y-0.9807
X-0.4757 Y-0.975 Z-0.0153
X-0.4754 Y-0.9747
X-0.4686 Y-0.9673 Z-0.0155
X-0.4664 Y-0.9643 Z-0.0156
X-0.4636 Y-0.9601 Z-0.016
X-0.463 Y-0.9589 Z-0.0161
X-0.4614 Y-0.9556 Z-0.0164
X-0.4593 Y-0.95 Z-0.0172
X-0.458 Y-0.9455 Z-0.0179
X-0.457 Y-0.9413 Z-0.0184
X-0.4566 Y-0.937 Z-0.0191
X-0.4565 Y-0.9337 Z-0.0195
Y-0.9325 Z-0.0197
X-0.4569 Y-0.927 Z-0.0205
X-0.4573 Y-0.9242 Z-0.0212
X-0.4585 Y-0.9204 Z-0.0216
X-0.4612 Y-0.9137 Z-0.0227
X-0.4618 Y-0.9124 Z-0.0229
X-0.4625 Y-0.9111 Z-0.0233
X-0.4659 Y-0.9056 Z-0.0246
X-0.469 Y-0.9013 Z-0.0253
X-0.4733 Y-0.8965 Z-0.0259
X-0.4772 Y-0.8926 Z-0.026
X-0.4901 Y-0.8815 Z-0.0262
X-0.51 Y-0.8651 Z-0.026
X-0.5173 Y-0.8584 Z-0.0256
X-0.5204 Y-0.8553 Z-0.0254
X-0.5235 Y-0.8521 Z-0.0253
X-0.5256 Y-0.8492 Z-0.0249
X-0.5282 Y-0.8449 Z-0.0243
X-0.5298 Y-0.8406 Z-0.0235
X-0.5305 Y-0.8383 Z-0.023
X-0.531 Y-0.8365 Z-0.0227
X-0.5317 Y-0.8315 Z-0.0216
X-0.532 Y-0.8283 Z-0.0211
X-0.5321 Y-0.8205 Z-0.0194
X-0.5319 Y-0.818 Z-0.0186
X-0.5317 Y-0.8171 Z-0.0184
X-0.5305 Y-0.8128 Z-0.0179
X-0.5294 Y-0.8096 Z-0.0173
X-0.5278 Y-0.8057 Z-0.0168
X-0.5257 Y-0.802 Z-0.0162
X-0.5232 Y-0.7985 Z-0.0158
X-0.5206 Y-0.7953 Z-0.0156
X-0.5164 Y-0.791 Z-0.0155
X-0.5152 Y-0.79 Z-0.0154
X-0.5091 Y-0.7856 Z-0.0155
X-0.5043 Y-0.7826 Z-0.0154
X-0.5011 Y-0.7809 Z-0.0157
X-0.5004 Y-0.7806
X-0.4961 Y-0.779 Z-0.0159
X-0.4922 Y-0.7777 Z-0.0164
X-0.4836 Y-0.7758 Z-0.0174
X-0.4743 Y-0.7753 Z-0.0185
X-0.4691 Y-0.7755 Z-0.0191
X-0.4653 Y-0.7758 Z-0.0198
X-0.4642 Y-0.776 Z-0.0199
X-0.459 Y-0.7772 Z-0.0207
X-0.454 Y-0.779 Z-0.0216
X-0.4531 Y-0.7794 Z-0.0217
X-0.448 Y-0.7822 Z-0.0224
X-0.4459 Y-0.7836 Z-0.0225
X-0.4446 Y-0.7844 Z-0.0226
X-0.4434 Y-0.7854 Z-0.0228
X-0.4398 Y-0.789 Z-0.0231
X-0.4387 Y-0.7902
X-0.438 Y-0.7912 Z-0.023
X-0.4378 Y-0.7915
X-0.4372 Y-0.7925 Z-0.0228
X-0.4355 Y-0.7964 Z-0.0219
X-0.435 Y-0.7978 Z-0.0216
X-0.434 Y-0.8031 Z-0.0199
X-0.4339 Y-0.8038 Z-0.0197
X-0.4338 Y-0.8064 Z-0.0189
X-0.4339 Y-0.8086 Z-0.018
X-0.4343 Y-0.811 Z-0.0169
X-0.4353 Y-0.8141 Z-0.0152
X-0.4387 Y-0.8227 Z-0.01
G0 Z0.2
X-1.1208 Y-1.0115
Z0.19
G1 Z-0.01 F13.333
X-1.1086 Y-1.0044 Z-0.0185 F40.
X-1.0983 Y-0.9979 Z-0.0255
X-1.1081 Y-0.9814 Z-0.01
X-1.0983 Y-0.9979 Z-0.0255
X-1.0979
X-1.093 Y-0.998 Z-0.0251
X-1.0771 Z-0.0243
X-1.0748 Y-0.9978 Z-0.0242
X-1.0692 Y-0.9972 Z-0.0243
X-1.06 Y-0.9961 Z-0.0242
X-1.0474 Y-0.994 Z-0.0236
X-1.0413 Y-0.9929 Z-0.0233
X-1.0223 Y-0.9888 Z-0.0222
X-1.0196 Y-0.9881 Z-0.0219
X-1.0061 Y-0.9842 Z-0.0209
X-1.0022 Y-0.983 Z-0.0207
X-0.9928 Y-0.9798 Z-0.0199
X-0.9825 Y-0.9759 Z-0.0194
X-0.9798 Y-0.9748 Z-0.0192
X-0.9673 Y-0.969 Z-0.0185
X-0.9635 Y-0.967 Z-0.0184
X-0.9551 Y-0.9625 Z-0.0181
X-0.9433 Y-0.9556 Z-0.0179
X-0.9318 Y-0.9479 Z-0.0178
X-0.9265 Y-0.9442
X-0.9205 Y-0.9398
X-0.9087 Y-0.9307 Z-0.018
X-0.8989 Y-0.9226 Z-0.0177
X-0.8916 Y-0.9163
X-0.8776 Y-0.9038 Z-0.0172
X-0.875 Y-0.9012 Z-0.0174
X-0.8588 Y-0.8838 Z-0.0173
X-0.8435 Y-0.8656 Z-0.0175
X-0.8416 Y-0.8632 Z-0.0174
X-0.8293 Y-0.8467 Z-0.0175
X-0.822 Y-0.8365 Z-0.0172
X-0.815 Y-0.8262 Z-0.0173
X-0.8139 Y-0.8249 Z-0.0175
X-0.8126 Y-0.8237 Z-0.018
X-0.8111 Y-0.8226 Z-0.0186
X-0.8103 Y-0.8221 Z-0.019
X-0.8089 Y-0.823 Z-0.0181
X-0.8078 Y-0.8236 Z-0.0176
X-0.8063 Y-0.8245 Z-0.0172
X-0.8048 Y-0.8256
X-0.7889 Y-0.8383 Z-0.0171
X-0.7847 Y-0.8418 Z-0.017
X-0.7735 Y-0.8514
X-0.765 Y-0.8595 Z-0.0169
X-0.759 Y-0.8656 Z-0.0171
X-0.7558 Y-0.869
X-0.7454 Y-0.8805 Z-0.0176
X-0.7302 Y-0.8993 Z-0.0177
X-0.7201 Y-0.9133 Z-0.0182
X-0.7151 Y-0.9206 Z-0.0183
X-0.7079 Y-0.9317 Z-0.0186
X-0.7011 Y-0.9431 Z-0.0189
X-0.6974 Y-0.9496 Z-0.0194
X-0.6969 Y-0.9505 Z-0.0196
X-0.6962 Y-0.9514 Z-0.0198
X-0.6955 Y-0.9522 Z-0.0201
X-0.6938 Y-0.9538 Z-0.0208
X-0.6923 Y-0.9551 Z-0.0217
X-0.6912 Y-0.956 Z-0.0224
X-0.6899 Y-0.9569 Z-0.0232
X-0.6886 Y-0.9577 Z-0.0241
X-0.6857 Y-0.9592 Z-0.0262
X-0.6825 Y-0.9606 Z-0.0286
X-0.6789 Y-0.9619 Z-0.0314
X-0.6788 Y-0.9628 Z-0.0311
X-0.6777 Y-0.9775 Z-0.0269
X-0.6894 Y-0.9944 Z-0.01
X-0.6777 Y-0.9775 Z-0.0269
X-0.664 Y-0.9944 Z-0.01
X-0.6777 Y-0.9775 Z-0.0269
X-0.6788 Y-0.9628 Z-0.0311
X-0.6789 Y-0.9619 Z-0.0314
X-0.678 Y-0.9605 Z-0.0308
X-0.6771 Y-0.9591 Z-0.0302
X-0.6763 Y-0.9577 Z-0.0297
X-0.6755 Y-0.9563 Z-0.0293
X-0.6749 Y-0.9548 Z-0.0289
X-0.6743 Y-0.9534 Z-0.0286
X-0.6737 Y-0.9519 Z-0.0284
X-0.6732 Y-0.9505 Z-0.0282
X-0.6728 Y-0.949 Z-0.0281
X-0.6458 Y-0.8225 Z-0.0282
X-0.6454 Y-0.8203 Z-0.0283
X-0.6451 Y-0.8179 Z-0.0285
X-0.645 Y-0.8156 Z-0.0289
X-0.644 Y-0.8132 Z-0.0286
X-0.6431 Y-0.8108
X-0.6422 Y-0.8085 Z-0.0289
X-0.6364 Y-0.8097 Z-0.0236
X-0.6323 Y-0.8105 Z-0.0202
X-0.6306 Y-0.8109 Z-0.019
X-0.6291 Y-0.8112 Z-0.0181
X-0.6277 Y-0.8115 Z-0.0174
X-0.6263 Y-0.8117 Z-0.017
X-0.6249 Y-0.8119 Z-0.0168
X-0.6235 Y-0.812 Z-0.0167
X-0.6037
X-0.5982 Y-0.8187 Z-0.01
X-0.6037 Y-0.812 Z-0.0167
X-0.5954 Y-0.8053 Z-0.01
X-0.6037 Y-0.812 Z-0.0167
X-0.6235
X-0.6249 Y-0.8119 Z-0.0168
X-0.6263 Y-0.8117 Z-0.017
X-0.6277 Y-0.8115 Z-0.0174
X-0.6291 Y-0.8112 Z-0.0181
X-0.6306 Y-0.8109 Z-0.019
X-0.6323 Y-0.8105 Z-0.0202
X-0.6364 Y-0.8097 Z-0.0236
X-0.6422 Y-0.8085 Z-0.0289
X-0.6421 Y-0.8061 Z-0.0285
X-0.6418 Y-0.8038 Z-0.0283
X-0.6414 Y-0.8015 Z-0.0282
X-0.5862 Y-0.5395 Z-0.0288
X-0.5834 Y-0.5263
X-0.5819 Y-0.5195 Z-0.0287
X-0.5814 Y-0.5168 Z-0.0288
X-0.5805 Y-0.5096 Z-0.029
X-0.5803 Y-0.5074 Z-0.0291
X-0.5801 Y-0.5017 Z-0.0299
X-0.5802 Y-0.4995 Z-0.0302
Y-0.4978 Z-0.0306
X-0.5805 Y-0.494 Z-0.0315
X-0.5809 Y-0.4923 Z-0.0319
X-0.5816 Y-0.4889 Z-0.033
X-0.5823 Y-0.4869 Z-0.0335
X-0.5826 Y-0.4863 Z-0.0336
X-0.5824 Y-0.4858 Z-0.0332
X-0.5818 Y-0.4851 Z-0.0322
X-0.5824 Y-0.4858 Z-0.0332
X-0.5823 Y-0.4844 Z-0.0318
X-0.5824 Y-0.4858 Z-0.0332
X-0.5826 Y-0.4863 Z-0.0336
X-0.5853 Y-0.4854 Z-0.0321
X-0.5898 Y-0.4843 Z-0.0299
X-0.5923 Y-0.4838 Z-0.0288
X-0.5954 Y-0.4836 Z-0.0275
X-0.5975 Z-0.0267
X-0.5991 Y-0.4837 Z-0.026
X-0.6025 Y-0.4841 Z-0.0247
X-0.6065 Y-0.4851 Z-0.023
X-0.6081 Y-0.4856 Z-0.0224
X-0.6104 Y-0.4866 Z-0.0216
X-0.6114 Y-0.4872 Z-0.0212
X-0.6136 Y-0.4886 Z-0.0208
X-0.6207 Y-0.4939 Z-0.0188
X-0.625 Y-0.4975 Z-0.0179
X-0.6285 Y-0.5014 Z-0.0172
X-0.6316 Y-0.5054 Z-0.0168
X-0.6345 Y-0.5093 Z-0.0167
X-0.6396 Y-0.5171 Z-0.0168
X-0.6439 Y-0.5238 Z-0.017
X-0.6539 Y-0.5398 Z-0.0172
X-0.661 Y-0.5518 Z-0.0173
X-0.6673 Y-0.563 Z-0.0172
X-0.677 Y-0.5806 Z-0.0174
X-0.6926 Y-0.61 Z-0.0172
X-0.7151 Y-0.6532 Z-0.0171
X-0.7303 Y-0.6819 Z-0.0168
X-0.7478 Y-0.714 Z-0.0167
X-0.7657 Y-0.7462 Z-0.0169
X-0.7841 Y-0.7781 Z-0.0176
X-0.7985 Y-0.8021 Z-0.0179
X-0.799 Y-0.803 Z-0.0181
X-0.7993 Y-0.8039 Z-0.0182
X-0.7997 Y-0.8048 Z-0.0184
X-0.8002 Y-0.8068 Z-0.019
X-0.8005 Y-0.8089 Z-0.0199
X-0.8035 Y-0.8106 Z-0.0183
X-0.8049 Y-0.8117 Z-0.0177
X-0.8062 Y-0.8129 Z-0.0172
X-0.8073 Y-0.8142 Z-0.017
X-0.8078 Y-0.8149
X-0.8083 Y-0.8157
X-0.8088 Y-0.8165 Z-0.0172
X-0.8091 Y-0.8173 Z-0.0173
X-0.8095 Y-0.8182 Z-0.0175
X-0.81 Y-0.8201 Z-0.0181
X-0.8103 Y-0.8221 Z-0.019
X-0.81 Y-0.8201 Z-0.0181
X-0.8095 Y-0.8182 Z-0.0175
X-0.8091 Y-0.8173 Z-0.0173
X-0.8088 Y-0.8165 Z-0.0172
X-0.8083 Y-0.8157 Z-0.017
X-0.8078 Y-0.8149
X-0.8073 Y-0.8142
X-0.8062 Y-0.8129 Z-0.0172
X-0.8049 Y-0.8117 Z-0.0177
X-0.8035 Y-0.8106 Z-0.0183
X-0.8005 Y-0.8089 Z-0.0199
X-0.7987 Y-0.81 Z-0.0188
X-0.7968 Y-0.8109 Z-0.0179
X-0.795 Y-0.8115 Z-0.0172
X-0.794 Y-0.8117 Z-0.017
X-0.7931 Y-0.8119 Z-0.0169
X-0.7922 Y-0.812 Z-0.0167
X-0.7913
X-0.6622 Y-0.8121 Z-0.0168
X-0.6608 Y-0.8123 Z-0.017
X-0.6595 Y-0.8126 Z-0.0174
X-0.6581 Y-0.8129 Z-0.0181
X-0.6566 Y-0.8132 Z-0.019
X-0.6549 Y-0.8135 Z-0.0202
X-0.653 Y-0.8139 Z-0.0217
X-0.6507 Y-0.8144 Z-0.0236
X-0.645 Y-0.8156 Z-0.0289
G0 Z0.2
X0.5899 Y-0.7826
Z0.19
G1 Z-0.01 F13.333
X0.5981 Y-0.7759 Z-0.0167 F40.
X0.5926 Y-0.7692 Z-0.01
X0.5981 Y-0.7759 Z-0.0167
X0.6293 Y-0.776 Z-0.0168
X0.6307 Y-0.7762 Z-0.017
X0.6318 Y-0.7765 Z-0.0174
X0.633 Y-0.7767 Z-0.0179
X0.6343 Y-0.777 Z-0.0186
X0.6357 Y-0.7773 Z-0.0195
X0.6393 Y-0.778 Z-0.0223
X0.6442 Y-0.779 Z-0.0267
X0.645 Y-0.7772 Z-0.0264
X0.6456 Y-0.7759 Z-0.0263
X0.6461 Y-0.7746 Z-0.0264
X0.6469 Y-0.7729 Z-0.0267
Y-0.7726 Z-0.0266
X0.647 Y-0.7703 Z-0.0262
X0.6472 Y-0.7681 Z-0.026
X0.6477 Y-0.7657 Z-0.0259
X0.6675 Y-0.6744 Z-0.0268
X0.6529 Y-0.6622 Z-0.01
X0.6675 Y-0.6744 Z-0.0268
X0.6909 Y-0.6471 Z-0.01
X0.6675 Y-0.6744 Z-0.0268
X0.6477 Y-0.7657 Z-0.0259
X0.6472 Y-0.7681 Z-0.026
X0.647 Y-0.7703 Z-0.0262
X0.6469 Y-0.7726 Z-0.0266
Y-0.7729 Z-0.0267
X0.6519 Y-0.7739 Z-0.0223
X0.6554 Y-0.7746 Z-0.0195
X0.6568 Y-0.7749 Z-0.0186
X0.6581 Y-0.7752 Z-0.0179
X0.6593 Y-0.7754 Z-0.0174
X0.6604 Y-0.7756 Z-0.017
X0.6618 Y-0.7759 Z-0.0168
X0.7192 Z-0.0167
X0.7246 Y-0.7826 Z-0.01
X0.7192 Y-0.7759 Z-0.0167
X0.7274 Y-0.7692 Z-0.01
X0.7192 Y-0.7759 Z-0.0167
X0.6618 Z-0.0168
X0.6604 Y-0.7756 Z-0.017
X0.6593 Y-0.7754 Z-0.0174
X0.6581 Y-0.7752 Z-0.0179
X0.6568 Y-0.7749 Z-0.0186
X0.6554 Y-0.7746 Z-0.0195
X0.6519 Y-0.7739 Z-0.0223
X0.6469 Y-0.7729 Z-0.0267
X0.6461 Y-0.7746 Z-0.0264
X0.6456 Y-0.7759 Z-0.0263
X0.645 Y-0.7772 Z-0.0264
X0.6442 Y-0.779 Z-0.0267
X0.6441 Y-0.7813 Z-0.0262
X0.6438 Y-0.7836 Z-0.026
X0.6436 Y-0.7847 Z-0.0259
X0.6164 Y-0.9115 Z-0.0243
X0.6133 Y-0.9273 Z-0.0242
X0.6124 Y-0.9337 Z-0.0244
X0.6113 Y-0.9438
X0.6112 Y-0.9447
X0.6111 Y-0.9527 Z-0.0248
X0.612 Y-0.9604 Z-0.0252
X0.6124 Y-0.9621 Z-0.0253
X0.6127 Y-0.9635 Z-0.0254
X0.6135 Y-0.9662 Z-0.0256
X0.6145 Y-0.9685
X0.6155 Y-0.9706 Z-0.0255
X0.6188 Y-0.976 Z-0.0254
X0.6204 Y-0.9778 Z-0.025
X0.6226 Y-0.9799 Z-0.0248
X0.6246 Y-0.9815 Z-0.0245
X0.6264 Y-0.9827 Z-0.0241
X0.6285 Y-0.9838 Z-0.0237
X0.6311 Y-0.9849 Z-0.0231
X0.6347 Y-0.9862 Z-0.0222
X0.6376 Y-0.9868 Z-0.0219
X0.6416 Y-0.9872 Z-0.021
X0.6443 Y-0.9873 Z-0.0206
X0.6489 Y-0.987 Z-0.0197
X0.6509 Y-0.9866 Z-0.0193
X0.6573 Y-0.9848 Z-0.0181
X0.663 Y-0.9824 Z-0.017
X0.6642 Y-0.9818 Z-0.0169
X0.668 Y-0.9794 Z-0.0162
X0.6732 Y-0.9756 Z-0.0156
X0.6752 Y-0.9739
X0.6854 Y-0.9646 Z-0.0152
X0.6874 Y-0.9626 Z-0.015
X0.6949 Y-0.9545 Z-0.0148
X0.7017 Y-0.9471 Z-0.0144
X0.7076 Y-0.9468 Z-0.01
X0.7017 Y-0.9471 Z-0.0144
Y-0.9409 Z-0.01
G0 Z0.2
X0.7723 Y-0.7787
Z0.19
G1 Z-0.01 F13.333
X0.7867 Y-0.7904 Z-0.0264 F40.
X0.8107 Y-0.7625 Z-0.01
X0.7867 Y-0.7904 Z-0.0264
X0.7596 Y-0.9133 Z-0.0229
X0.758 Y-0.9214
X0.756 Y-0.9318 Z-0.0227
X0.755 Y-0.9389 Z-0.0229
X0.7548 Y-0.9412 Z-0.0228
X0.7542 Y-0.95 Z-0.0229
Y-0.952 Z-0.023
Y-0.9558 Z-0.0233
X0.7547 Y-0.9602
X0.7551 Y-0.9628 Z-0.0235
X0.756 Y-0.9667 Z-0.0236
X0.7567 Y-0.9685 Z-0.0237
X0.7575 Y-0.9703
X0.7589 Y-0.9727 Z-0.0236
X0.7613 Y-0.9762 Z-0.0234
X0.7623 Y-0.9775
X0.7668 Y-0.9817 Z-0.0225
X0.7686 Y-0.983 Z-0.0223
X0.7694 Y-0.9835
X0.7718 Y-0.9849 Z-0.022
X0.7745 Y-0.9862 Z-0.0214
X0.7777 Y-0.9873 Z-0.0209
X0.7829 Y-0.9886 Z-0.0198
X0.7846 Y-0.989 Z-0.0197
X0.7903 Y-0.9889 Z-0.0184
X0.7959 Y-0.9886 Z-0.0174
X0.7978 Y-0.9884 Z-0.0171
X0.7991 Y-0.9882 Z-0.0169
X0.8078 Y-0.9856
X0.8116 Y-0.9843 Z-0.0167
X0.8188 Y-0.9815 Z-0.0165
X0.8226 Y-0.9798 Z-0.0162
X0.8288 Y-0.9763 Z-0.0159
X0.833 Y-0.9737 Z-0.0154
X0.838 Y-0.97 Z-0.0149
X0.8425 Y-0.966 Z-0.0145
X0.8473 Y-0.9612 Z-0.0144
X0.8507 Y-0.9576 Z-0.0142
X0.8557 Y-0.9517
X0.8583 Y-0.9484
X0.8636 Y-0.9414 Z-0.0144
X0.8642 Y-0.9407
X0.8647 Y-0.9401 Z-0.0145
X0.8654 Y-0.9396 Z-0.0147
X0.8663 Y-0.939 Z-0.0151
X0.8678 Y-0.9382 Z-0.0159
X0.8695 Y-0.9375 Z-0.017
X0.8714 Y-0.937 Z-0.0183
X0.8735 Y-0.9366 Z-0.0199
X0.8759 Y-0.9364 Z-0.0217
X0.8784 Y-0.9363 Z-0.0238
X0.8789 Y-0.9387 Z-0.0231
X0.8793 Y-0.9411 Z-0.0226
Y-0.9423 Z-0.0224
Y-0.945 Z-0.0223
Y-0.9514 Z-0.0226
X0.8795 Y-0.955 Z-0.0229
X0.8797 Y-0.9567
X0.8799 Y-0.9587 Z-0.0231
X0.8805 Y-0.9619 Z-0.0234
X0.8813 Y-0.9652 Z-0.0237
X0.882 Y-0.9679 Z-0.024
X0.8836 Y-0.9717
X0.8844 Y-0.9734 Z-0.0243
X0.8867 Y-0.9773 Z-0.0246
X0.8876 Y-0.9786 Z-0.0248
X0.8904 Y-0.9815 Z-0.0249
X0.8916 Y-0.9825
X0.8921 Y-0.9829 Z-0.0248
X0.8932 Y-0.9834 Z-0.0246
X0.896 Y-0.9843 Z-0.0242
X0.8981 Y-0.9845 Z-0.0236
X0.8996 Y-0.9846 Z-0.0231
X0.9013 Y-0.9845 Z-0.0226
X0.9051 Y-0.9839 Z-0.0211
X0.9073 Y-0.9833 Z-0.0203
X0.9094 Y-0.9825 Z-0.0196
X0.9111 Y-0.9814 Z-0.0192
X0.9221 Y-0.9738 Z-0.0165
X0.9276 Y-0.9697 Z-0.0156
X0.929 Y-0.9684 Z-0.0154
X0.9325 Y-0.9652 Z-0.0149
X0.9371 Y-0.9606 Z-0.0144
X0.9415 Y-0.9559 Z-0.0142
X0.9471 Y-0.9496
X0.9467 Y-0.9437 Z-0.01
X0.9471 Y-0.9496 Z-0.0142
X0.953 Y-0.9492 Z-0.01
X0.9471 Y-0.9496 Z-0.0142
X0.9415 Y-0.9559
X0.9371 Y-0.9606 Z-0.0144
X0.9325 Y-0.9652 Z-0.0149
X0.929 Y-0.9684 Z-0.0154
X0.9276 Y-0.9697 Z-0.0156
X0.9221 Y-0.9738 Z-0.0165
X0.9111 Y-0.9814 Z-0.0192
X0.9094 Y-0.9825 Z-0.0196
X0.9073 Y-0.9833 Z-0.0203
X0.9051 Y-0.9839 Z-0.0211
X0.9013 Y-0.9845 Z-0.0226
X0.8996 Y-0.9846 Z-0.0231
X0.8981 Y-0.9845 Z-0.0236
X0.896 Y-0.9843 Z-0.0242
X0.8932 Y-0.9834 Z-0.0246
X0.8921 Y-0.9829 Z-0.0248
X0.8916 Y-0.9825 Z-0.0249
X0.8904 Y-0.9815
X0.8876 Y-0.9786 Z-0.0248
X0.8867 Y-0.9773 Z-0.0246
X0.8844 Y-0.9734 Z-0.0243
X0.8836 Y-0.9717 Z-0.024
X0.882 Y-0.9679
X0.8813 Y-0.9652 Z-0.0237
X0.8805 Y-0.9619 Z-0.0234
X0.8799 Y-0.9587 Z-0.0231
X0.8797 Y-0.9567 Z-0.0229
X0.8795 Y-0.955
X0.8793 Y-0.9514 Z-0.0226
Y-0.945 Z-0.0223
Y-0.9423 Z-0.0224
Y-0.9411 Z-0.0226
X0.8789 Y-0.9387 Z-0.0231
X0.8784 Y-0.9363 Z-0.0238
X0.8804 Y-0.9306 Z-0.0223
X0.8812 Y-0.9279 Z-0.0218
X0.8814 Y-0.9269 Z-0.0217
X0.8831 Y-0.9169 Z-0.0214
X0.8857 Y-0.9032 Z-0.0216
X0.9109 Y-0.7903 Z-0.0263
X0.8964 Y-0.7787 Z-0.01
X0.9109 Y-0.7903 Z-0.0263
X0.9352 Y-0.7625 Z-0.01
G0 Z0.2
X0.9531 Y-0.969
Z0.19
G1 Z-0.01 F13.333
X0.9729 Y-0.9686 Z-0.0249 F40.
X0.974 Y-0.9549 Z-0.0168
X0.9753 Y-0.9429 Z-0.01
X0.974 Y-0.9549 Z-0.0168
X0.9729 Y-0.9686 Z-0.0249
X0.9755 Y-0.9717 Z-0.0247
X0.9787 Y-0.9752 Z-0.0242
X0.9799 Y-0.9764 Z-0.0241
X0.9832 Y-0.9793 Z-0.0236
X0.9854 Y-0.981 Z-0.0234
X0.9879 Y-0.9826 Z-0.023
X0.9909 Y-0.9843 Z-0.0227
X0.9931 Y-0.9853 Z-0.0223
X0.9976 Y-0.9872 Z-0.0218
X0.9985 Y-0.9875 Z-0.0216
X1.0054 Y-0.9894 Z-0.021
X1.0086 Y-0.9902 Z-0.0206
X1.0129 Y-0.9911 Z-0.0204
X1.0192 Y-0.9916 Z-0.0194
X1.0224 Y-0.9918 Z-0.019
X1.0294 Z-0.0178
X1.0305 Y-0.9917 Z-0.0176
X1.0315 Y-0.9916
X1.0407 Y-0.9897 Z-0.0166
X1.0457 Y-0.9882 Z-0.016
X1.0505 Y-0.9865 Z-0.0157
X1.0512 Y-0.9862 Z-0.0156
X1.0552 Y-0.9841 Z-0.0154
X1.0596 Y-0.9814 Z-0.0153
X1.0675 Y-0.9757 Z-0.0152
X1.0684 Y-0.975 Z-0.0153
X1.0744 Y-0.9686 Z-0.0154
X1.0747 Y-0.9682 Z-0.0155
X1.0773 Y-0.9648 Z-0.0156
X1.08 Y-0.9608 Z-0.0159
X1.0811 Y-0.9589 Z-0.0161
X1.0824 Y-0.9563 Z-0.0163
X1.0842 Y-0.9516 Z-0.0169
X1.0861 Y-0.9455 Z-0.0179
X1.0869 Y-0.9425 Z-0.0182
X1.0871 Y-0.9413 Z-0.0184
X1.0875 Y-0.937 Z-0.0191
X1.0876 Y-0.9337 Z-0.0195
X1.0873 Y-0.9281 Z-0.0204
X1.0872 Y-0.927 Z-0.0205
X1.0868 Y-0.9242 Z-0.0212
X1.085 Y-0.919 Z-0.0218
X1.0823 Y-0.9124 Z-0.0229
X1.0816 Y-0.911 Z-0.0233
X1.0782 Y-0.9056 Z-0.0246
X1.0748 Y-0.9009 Z-0.0254
X1.0708 Y-0.8965 Z-0.0259
X1.0661 Y-0.8918 Z-0.0261
X1.054 Y-0.8815 Z-0.0262
X1.0503 Y-0.8785
X1.0341 Y-0.865 Z-0.026
X1.0311 Y-0.8624 Z-0.0258
X1.0268 Y-0.8584 Z-0.0256
X1.0227 Y-0.8544 Z-0.0253
X1.0206 Y-0.8521
X1.0185 Y-0.8492 Z-0.0249
X1.0181 Y-0.8487 Z-0.0248
X1.0159 Y-0.8449 Z-0.0243
X1.0151 Y-0.843 Z-0.0239
X1.0143 Y-0.8406 Z-0.0235
X1.0131 Y-0.8365 Z-0.0227
X1.0129 Y-0.8358 Z-0.0226
X1.0122 Y-0.8301 Z-0.0214
X1.0121 Y-0.8283 Z-0.0211
X1.012 Y-0.8197 Z-0.0191
X1.0122 Y-0.818 Z-0.0186
X1.0126 Y-0.8163 Z-0.0183
X1.0136 Y-0.8128 Z-0.0179
X1.015 Y-0.8088 Z-0.0172
X1.0167 Y-0.8049 Z-0.0167
X1.0189 Y-0.8012 Z-0.0161
X1.0215 Y-0.7976 Z-0.0158
X1.0239 Y-0.795 Z-0.0156
X1.0277 Y-0.791 Z-0.0155
X1.0297 Y-0.7894 Z-0.0154
X1.0361 Y-0.7848
X1.0365 Y-0.7846
X1.0403 Y-0.7823 Z-0.0155
X1.0437 Y-0.7806 Z-0.0157
X1.0444 Y-0.7803
X1.0486 Y-0.7788 Z-0.016
X1.0528 Y-0.7775 Z-0.0165
X1.0608 Y-0.7757 Z-0.0174
X1.062 Y-0.7756 Z-0.0175
X1.0709 Y-0.7753 Z-0.0186
X1.0759 Y-0.7755 Z-0.0193
X1.0788 Y-0.7758 Z-0.0198
X1.0812 Y-0.7763 Z-0.0201
X1.0863 Y-0.7776 Z-0.0209
X1.0911 Y-0.7795 Z-0.0218
X1.0961 Y-0.7822 Z-0.0224
X1.0995 Y-0.7844 Z-0.0226
X1.1009 Y-0.7855 Z-0.0228
X1.1043 Y-0.789 Z-0.0231
X1.1054 Y-0.7902
X1.1063 Y-0.7915 Z-0.023
X1.1069 Y-0.7925 Z-0.0228
X1.1074 Y-0.7937 Z-0.0226
X1.1091 Y-0.7978 Z-0.0216
X1.1101 Y-0.8031 Z-0.0199
X1.1102 Y-0.8038 Z-0.0197
X1.1103 Y-0.8064 Z-0.0189
X1.1102 Y-0.8086 Z-0.018
X1.1098 Y-0.811 Z-0.0169
X1.1088 Y-0.8141 Z-0.0152
X1.1054 Y-0.8227 Z-0.01
G0 Z0.6
(2D CHAMFER1)
G0 X-1.4401 Y0.
Z0.6
Z0.2
G1 Z0.08 F13.333
Z-0.05
X-1.4276 F20.
Y1.2008
G2 X-1.2008 Y1.4276 I0.2269 J0.
G1 X1.2008
G2 X1.4276 Y1.2008 I0. J-0.2269
G1 Y-1.2008
G2 X1.2008 Y-1.4276 I-0.2269 J0.
G1 X-1.2008
G2 X-1.4276 Y-1.2008 I0. J0.2269
G1 Y0.
X-1.4401
G0 Z0.2
X-1.1821 Y1.208
G1 Z0.08 F13.333
Z-0.05
X-1.1705 Y1.2125 F20.
G3 X-1.2311 Y1.189 I-0.0303 J-0.0117
X-1.1705 Y1.2125 I0.0303 J0.0117
G1 X-1.1821 Y1.208
G0 Z0.2
X1.2208 Y1.2008
G1 Z0.08 F13.333
Z-0.05
X1.2333 F20.
G3 X1.1683 I-0.0325 J0.
X1.2333 I0.0325 J0.
G1 X1.2208
G0 Z0.2
Y-1.2008
G1 Z0.08 F13.333
Z-0.05
X1.2333 F20.
G3 X1.1683 I-0.0325 J0.
X1.2333 I0.0325 J0.
G1 X1.2208
G0 Z0.2
X-1.1821 Y-1.1936
G1 Z0.08 F13.333
Z-0.05
X-1.1705 Y-1.189 F20.
G3 X-1.2311 Y-1.2125 I-0.0303 J-0.0117
X-1.1705 Y-1.189 I0.0303 J0.0117
G1 X-1.1821 Y-1.1936
G0 Z0.6
(2D CHAMFER2)
G0 X-1.4401 Y0.
Z0.6
Z0.2
G1 Z0.08 F13.333
Z-0.06
X-1.4276 F20.
Y1.2008
G2 X-1.2008 Y1.4276 I0.2269 J0.
G1 X1.2008
G2 X1.4276 Y1.2008 I0. J-0.2269
G1 Y-1.2008
G2 X1.2008 Y-1.4276 I-0.2269 J0.
G1 X-1.2008
G2 X-1.4276 Y-1.2008 I0. J0.2269
G1 Y0.
X-1.4401
G0 Z0.6
(DRILL1)
G0 X-1.2008 Y1.2008
Z0.6
Z0.2
Z0.19
Z0.07
G1 Z-0.0412 F13.333
G0 Z0.19
Z0.0388
G1 Z-0.0725 F13.333
G0 Z0.19
Z0.0075
G1 Z-0.1037 F13.333
G0 Z0.19
Z-0.0237
G1 Z-0.135 F13.333
G0 Z0.19
Z-0.055
G1 Z-0.1662 F13.333
G0 Z0.19
Z-0.0862
G1 Z-0.1872 F13.333
G4 P0.05
G0 Z0.2
X1.2008
Z0.19
Z0.07
G1 Z-0.0412 F13.333
G0 Z0.19
Z0.0388
G1 Z-0.0725 F13.333
G0 Z0.19
Z0.0075
G1 Z-0.1037 F13.333
G0 Z0.19
Z-0.0237
G1 Z-0.135 F13.333
G0 Z0.19
Z-0.055
G1 Z-0.1662 F13.333
G0 Z0.19
Z-0.0862
G1 Z-0.1872 F13.333
G4 P0.05
G0 Z0.2
Y-1.2008
Z0.19
Z0.07
G1 Z-0.0412 F13.333
G0 Z0.19
Z0.0388
G1 Z-0.0725 F13.333
G0 Z0.19
Z0.0075
G1 Z-0.1037 F13.333
G0 Z0.19
Z-0.0237
G1 Z-0.135 F13.333
G0 Z0.19
Z-0.055
G1 Z-0.1662 F13.333
G0 Z0.19
Z-0.0862
G1 Z-0.1872 F13.333
G4 P0.05
G0 Z0.2
X-1.2008
Z0.19
Z0.07
G1 Z-0.0412 F13.333
G0 Z0.19
Z0.0388
G1 Z-0.0725 F13.333
G0 Z0.19
Z0.0075
G1 Z-0.1037 F13.333
G0 Z0.19
Z-0.0237
G1 Z-0.135 F13.333
G0 Z0.19
Z-0.055
G1 Z-0.1662 F13.333
G0 Z0.19
Z-0.0862
G1 Z-0.1872 F13.333
G4 P0.05
G0 Z0.2
Z0.6
M5
M9
G53 G0 Z0.
M30
%
