%
(OP2 - FLIPPED, X ZERO RIGHT SIDE, BOTH VISES)
(MACHINE)
(  VENDOR CALLUM)
(  MODEL MILL R1)
(  DESCRIPTION 14X8X14 MILL)
(T12 D=0.2362 CR=0. TAPER=45DEG - ZMIN=0.16 - CHAMFER MILL)
(T32 D=0.1875 CR=0. - ZMIN=-0.3436 - FLAT END MILL)
G90 G94 G17 G91.1
G20
G53 G0 Z-0.6
(ADAPTIVE3 2)
T32 M6
T12
S7500 M3
G17 G90 G94
G54
G64 P0.0004 Q0.0004
M8
G0 X-2.47 Y-0.6611
G43 Z0.6 H32
G0 Z0.2875
G1 Z0.2688 F50.
X-2.4699 Y-0.6608 Z0.2655
X-2.4697 Y-0.66 Z0.2623
X-2.4694 Y-0.6587 Z0.2594
X-2.4689 Y-0.6569 Z0.2567
X-2.4683 Y-0.6546 Z0.2544
X-2.4677 Y-0.652 Z0.2525
X-2.4669 Y-0.6492 Z0.2511
X-2.4662 Y-0.6461 Z0.2503
X-2.4654 Y-0.6429 Z0.25
G3 X-2.4507 Y-0.5409 I-0.4637 J0.1188
G1 Y-0.5403
X-2.456 Y-0.5318
X-2.4608 Y-0.5232
X-2.4652 Y-0.5142
X-2.4692 Y-0.5051
X-2.4727 Y-0.4958
X-2.4759 Y-0.4864
X-2.4788 Y-0.4769
G2 X-2.4874 Y-0.4381 I0.3671 J0.1023
X-2.4946 Y-0.3789 I0.6412 J0.1079
X-2.4986 Y-0.2994 I1.4497 J0.1131
X-2.5003 Y-0.1901 I4.5442 J0.1234
X-2.5008 Y-0.021 I22.8243 J0.1456
G1 X-2.4998 Y-0.0111
X-2.4974 Y-0.0015
X-2.4937 Y0.0077
X-2.4889 Y0.0164
X-2.4833 Y0.0246
X-2.4769 Y0.0322
X-2.4699 Y0.0393
X-2.4623 Y0.0458
X-2.4544 Y0.0517
X-2.4461 Y0.0572
X-2.4374 Y0.0621
X-2.4286 Y0.0666
X-2.4195 Y0.0707
X-2.4102 Y0.0743
X-2.4008 Y0.0776
X-2.3913 Y0.0805
G2 X-2.3526 Y0.0894 I0.1025 J-0.3572
X-2.3033 Y0.096 I0.1035 J-0.5921
X-2.2239 Y0.1007 I0.1144 J-1.2598
X-2.1245 Y0.1025 I0.1186 J-3.6614
X-1.9555 Y0.1031 I0.148 J-17.9507
G1 X-1.9157 Y0.1032
X-1.866
X-1.7864
X-1.5975
X-1.1103
X-1.1003
G2 X-1.001 Y0.1059 I0.1211 J-2.671
X-0.8617 Y0.1067 I0.1327 J-11.1927
G1 X-0.8419
X-0.812
X-0.7723 Y0.1068
X-0.7225
X-0.643
X-0.4342
X-0.0265
X-0.0166 Y0.1066
X-0.0068 Y0.1049
X0.0027 Y0.1018
X0.0117 Y0.0975
X0.0201 Y0.0924
X0.0281 Y0.0864
X0.0355 Y0.0797
X0.0423 Y0.0725
X0.0486 Y0.0648
X0.0543 Y0.0566
X0.0596 Y0.0482
X0.0643 Y0.0395
X0.0686 Y0.0305
X0.0725 Y0.0213
X0.076 Y0.012
X0.0791 Y0.0026
X0.0819 Y-0.0069
G2 X0.0903 Y-0.0458 I-0.3707 J-0.1005
X0.0972 Y-0.105 I-0.653 J-0.1058
X0.1009 Y-0.1845 I-1.5069 J-0.1107
X0.1024 Y-0.2939 I-4.8876 J-0.1208
X0.1027 Y-0.3734 I-12.8973 J-0.0884
G1 X0.1021 Y-0.3833
X0.1 Y-0.3931
X0.0966 Y-0.4024
X0.0921 Y-0.4113
X0.0868 Y-0.4196
X0.0806 Y-0.4275
X0.0738 Y-0.4347
X0.0665 Y-0.4414
X0.0587 Y-0.4476
X0.0505 Y-0.4532
X0.042 Y-0.4583
X0.0332 Y-0.463
X0.0242 Y-0.4672
X0.015 Y-0.471
X0.0056 Y-0.4744
X-0.0038 Y-0.4774
X-0.0134 Y-0.4802
G2 X-0.0523 Y-0.4883 I-0.1004 J0.3805
X-0.1116 Y-0.495 I-0.1057 J0.6711
X-0.191 Y-0.4987 I-0.1107 J1.5513
X-0.3004 Y-0.5001 I-0.121 J5.0377
X-0.4694 Y-0.5005 I-0.1514 J28.6789
G1 X-0.5192
X-0.5987
X-0.8075
X-2.1598
X-2.3189
X-2.3288 Y-0.4997
X-2.3386 Y-0.4977
X-2.348 Y-0.4947
X-2.3571 Y-0.4906
X-2.3658 Y-0.4857
X-2.3739 Y-0.4801
X-2.3816 Y-0.4738
X-2.3889 Y-0.4669
X-2.3956 Y-0.4596
X-2.4018 Y-0.4518
X-2.4075 Y-0.4437
X-2.4128 Y-0.4353
X-2.4176 Y-0.4266
X-2.422 Y-0.4177
X-2.4261 Y-0.4086
X-2.4297 Y-0.3993
X-2.433 Y-0.39
X-2.436 Y-0.3805
G2 X-2.4453 Y-0.3418 I0.3702 J0.109
X-2.4533 Y-0.2827 I0.6172 J0.1139
X-2.458 Y-0.2033 I1.3134 J0.1183
X-2.46 Y-0.1039 I3.6211 J0.1226
G1 X-2.4598 Y-0.094
X-2.4588 Y-0.0841
X-2.4568 Y-0.0743
X-2.454 Y-0.0648
X-2.4503 Y-0.0556
X-2.4459 Y-0.0466
X-2.4408 Y-0.0381
X-2.4351 Y-0.03
X-2.4288 Y-0.0223
X-2.422 Y-0.015
X-2.4148 Y-0.0082
X-2.4071 Y-0.0019
X-2.3991 Y0.004
X-2.3908 Y0.0095
X-2.3823 Y0.0146
X-2.3735 Y0.0192
X-2.3645 Y0.0235
X-2.3554 Y0.0274
X-2.3461 Y0.031
X-2.3367 Y0.0343
G2 X-2.2983 Y0.0446 I0.1155 J-0.3541
X-2.2493 Y0.0527 I0.1151 J-0.5432
X-2.17 Y0.0591 I0.1242 J-1.0395
X-2.0805 Y0.0618 I0.1216 J-2.5267
X-1.9513 Y0.0629 I0.1373 J-8.6645
G1 X-1.7922 Y0.0632
X-1.7325
X-1.6331
X-1.295
X-1.1856
G3 X-1.116 Y0.0639 I0.0085 J2.8395
G2 X-0.8575 Y0.0665 I0.2689 J-13.5081
X-0.7183 Y0.0668 I0.1352 J-39.3682
G1 X-0.6686
X-0.5891
X-0.43
X-0.1018
X-0.0919 Y0.0664
X-0.082 Y0.0651
X-0.0723 Y0.0629
X-0.0629 Y0.0599
X-0.0537 Y0.0561
X-0.0448 Y0.0516
X-0.0364 Y0.0463
X-0.0283 Y0.0405
X-0.0207 Y0.0341
X-0.0136 Y0.0272
X-0.0069 Y0.0198
X-0.0006 Y0.0121
X0.0052 Y0.004
X0.0106 Y-0.0043
X0.0156 Y-0.0129
X0.0201 Y-0.0218
X0.0243 Y-0.0308
X0.0282 Y-0.0399
X0.0317 Y-0.0492
X0.0349 Y-0.0587
G2 X0.0449 Y-0.0971 I-0.3603 J-0.1146
X0.0539 Y-0.1561 I-0.5796 J-0.1185
X0.0594 Y-0.2354 I-1.1778 J-0.1218
X0.0612 Y-0.2951 I-2.3929 J-0.102
G1 X0.061 Y-0.305
X0.0598 Y-0.3149
X0.0578 Y-0.3246
X0.0548 Y-0.3341
X0.0511 Y-0.3433
X0.0467 Y-0.3522
X0.0415 Y-0.3607
X0.0357 Y-0.3688
X0.0294 Y-0.3764
X0.0225 Y-0.3836
X0.0152 Y-0.3904
X0.0075 Y-0.3967
X-0.0005 Y-0.4025
X-0.0089 Y-0.408
X-0.0175 Y-0.413
X-0.0263 Y-0.4176
X-0.0353 Y-0.4218
X-0.0444 Y-0.4257
X-0.0537 Y-0.4292
X-0.0632 Y-0.4324
G2 X-0.1016 Y-0.4425 I-0.1145 J0.3578
X-0.1606 Y-0.4515 I-0.1185 J0.5758
X-0.2399 Y-0.4571 I-0.1217 J1.1704
X-0.3095 Y-0.4591 I-0.1084 J2.5661
X-0.4586 Y-0.4603 I-0.1483 J9.2549
X-0.5978 Y-0.4605 I-0.128 J37.4804
G1 X-0.6575
X-0.7569
X-1.1049
X-2.2385
X-2.2484
X-2.2583 Y-0.4598
X-2.2682 Y-0.4584
X-2.2779 Y-0.4562
X-2.2874 Y-0.4532
X-2.2966 Y-0.4495
X-2.3055 Y-0.4451
X-2.3141 Y-0.44
X-2.3222 Y-0.4344
X-2.33 Y-0.4282
X-2.3373 Y-0.4215
X-2.3443 Y-0.4143
X-2.3508 Y-0.4068
X-2.3568 Y-0.3989
X-2.3625 Y-0.3908
X-2.3677 Y-0.3823
X-2.3726 Y-0.3736
X-2.3771 Y-0.3648
X-2.3812 Y-0.3557
X-2.385 Y-0.3465
X-2.3885 Y-0.3372
G2 X-2.3996 Y-0.299 I0.3424 J0.1202
X-2.4085 Y-0.2501 I0.5151 J0.1196
X-2.4153 Y-0.1809 I0.9124 J0.1237
G1 X-2.4159 Y-0.171
X-2.4161 Y-0.161
X-2.4158 Y-0.1511
X-2.4148 Y-0.1412
X-2.413 Y-0.1314
X-2.4106 Y-0.1218
X-2.4073 Y-0.1124
X-2.4034 Y-0.1032
X-2.3989 Y-0.0944
X-2.3937 Y-0.0859
X-2.388 Y-0.0778
X-2.3817 Y-0.07
X-2.375 Y-0.0627
X-2.3678 Y-0.0558
X-2.3603 Y-0.0493
X-2.3525 Y-0.0432
X-2.3443 Y-0.0375
X-2.3359 Y-0.0322
X-2.3272 Y-0.0273
X-2.3184 Y-0.0228
X-2.3094 Y-0.0186
X-2.3002 Y-0.0147
X-2.2909 Y-0.0111
G2 X-2.2529 Y0.0003 I0.1239 J-0.3425
X-2.2041 Y0.0097 I0.123 J-0.507
X-2.1349 Y0.017 I0.1269 J-0.8797
X-2.0455 Y0.021 I0.1302 J-1.9139
X-1.9162 Y0.0227 I0.1438 J-5.892
X-1.7174 Y0.0232 I0.1774 J-32.6723
G1 X-1.6676
X-1.5881
X-1.4191
X-1.2301
G3 X-1.1108 Y0.0242 I-0.0073 J7.8917
G2 X-0.8821 Y0.0264 I0.3209 J-21.9981
G1 X-0.7032 Y0.0267
X-0.6534 Y0.0268
X-0.5938
X-0.4943
X-0.2656
X-0.1762
X-0.1662
X-0.1563 Y0.0264
X-0.1464 Y0.0255
X-0.1366 Y0.0238
X-0.1269 Y0.0216
X-0.1174 Y0.0186
X-0.1082 Y0.0149
X-0.0992 Y0.0106
X-0.0906 Y0.0057
X-0.0823 Y0.0002
X-0.0744 Y-0.0059
X-0.0669 Y-0.0124
X-0.0598 Y-0.0193
X-0.0531 Y-0.0267
X-0.0468 Y-0.0344
X-0.0409 Y-0.0424
X-0.0354 Y-0.0507
X-0.0303 Y-0.0592
X-0.0255 Y-0.068
X-0.0211 Y-0.0769
X-0.0171 Y-0.086
X-0.0134 Y-0.0952
X-0.01 Y-0.1045
G2 X0.001 Y-0.1427 I-0.3575 J-0.1236
X0.0114 Y-0.2015 I-0.5502 J-0.1269
G1 X0.0126 Y-0.2113
X0.0136 Y-0.2212
X0.0145 Y-0.2311
X0.0148 Y-0.2411
X0.0144 Y-0.251
X0.0132 Y-0.2609
X0.0113 Y-0.2706
X0.0086 Y-0.2802
X0.0051 Y-0.2895
X0.001 Y-0.2986
X-0.0038 Y-0.3073
X-0.0092 Y-0.3156
X-0.0151 Y-0.3236
X-0.0216 Y-0.3312
X-0.0285 Y-0.3383
X-0.0358 Y-0.3451
X-0.0435 Y-0.3514
X-0.0515 Y-0.3573
X-0.0597 Y-0.3628
X-0.0683 Y-0.3679
X-0.077 Y-0.3727
X-0.0859 Y-0.377
X-0.095 Y-0.3811
X-0.1042 Y-0.3848
X-0.1136 Y-0.3882
G2 X-0.1518 Y-0.3991 I-0.1224 J0.3562
X-0.2106 Y-0.4093 I-0.126 J0.5524
X-0.2898 Y-0.4159 I-0.1288 J1.0607
X-0.3793 Y-0.4189 I-0.1263 J2.4627
X-0.5185 Y-0.4202 I-0.1471 J8.3301
X-0.6775 Y-0.4205 I-0.1504 J38.812
G1 X-0.7273
X-0.7969
X-0.956
X-2.1691
X-2.179
X-2.1889 Y-0.4203
X-2.1989 Y-0.4197
X-2.2087 Y-0.4185
X-2.2185 Y-0.4167
X-2.2281 Y-0.4142
X-2.2376 Y-0.4111
X-2.2468 Y-0.4073
X-2.2557 Y-0.403
X-2.2643 Y-0.398
X-2.2726 Y-0.3925
X-2.2805 Y-0.3864
X-2.288 Y-0.3799
X-2.2952 Y-0.373
X-2.3019 Y-0.3657
X-2.3082 Y-0.358
X-2.3142 Y-0.3501
X-2.3198 Y-0.3418
X-2.3249 Y-0.3333
X-2.3298 Y-0.3246
X-2.3342 Y-0.3158
X-2.3384 Y-0.3067
X-2.3422 Y-0.2975
X-2.3457 Y-0.2883
G2 X-2.3572 Y-0.2502 I0.3545 J0.1272
G1 X-2.3594 Y-0.2405
X-2.3614 Y-0.2307
X-2.3629 Y-0.2209
X-2.3638 Y-0.211
X-2.3641 Y-0.2011
X-2.3636 Y-0.1911
X-2.3623 Y-0.1813
X-2.3603 Y-0.1715
X-2.3576 Y-0.162
X-2.3541 Y-0.1527
X-2.35 Y-0.1436
X-2.3452 Y-0.1349
X-2.3399 Y-0.1265
X-2.334 Y-0.1185
X-2.3276 Y-0.1109
X-2.3208 Y-0.1037
X-2.3135 Y-0.0969
X-2.3059 Y-0.0904
X-2.298 Y-0.0844
X-2.2898 Y-0.0788
X-2.2814 Y-0.0735
X-2.2727 Y-0.0687
X-2.2638 Y-0.0641
X-2.2548 Y-0.0599
X-2.2457 Y-0.0561
X-2.2364 Y-0.0525
G2 X-2.1984 Y-0.0409 I0.1274 J-0.3507
G1 X-2.1887 Y-0.0386
X-2.179 Y-0.0365
G2 X-2.1101 Y-0.0263 I0.134 J-0.6677
X-2.0308 Y-0.0208 I0.131 J-1.3106
X-1.9215 Y-0.018 I0.1403 J-3.3046
X-1.7723 Y-0.017 I0.1517 J-11.8254
X-1.653 Y-0.0168 I0.1207 J-38.3877
G1 X-1.6033
X-1.5337
X-1.4044
X-1.2851
G3 X-1.126 Y-0.0158 I0.0004 J13.166
G1 X-1.0663 Y-0.0152
G2 X-0.7183 Y-0.0133 I0.3367 J-31.2886
G1 X-0.6786
X-0.6288 Y-0.0132
X-0.5692
X-0.4797
X-0.3106
X-0.241
X-0.2311
X-0.2212 Y-0.0134
X-0.2112 Y-0.0138
X-0.2013 Y-0.0147
X-0.1915 Y-0.0162
X-0.1818 Y-0.0182
X-0.1722 Y-0.0208
X-0.1628 Y-0.0241
X-0.1536 Y-0.028
X-0.1447 Y-0.0324
X-0.1362 Y-0.0375
X-0.1279 Y-0.043
X-0.12 Y-0.0491
X-0.1125 Y-0.0556
X-0.1053 Y-0.0625
X-0.0986 Y-0.0698
X-0.0922 Y-0.0774
X-0.0862 Y-0.0853
X-0.0806 Y-0.0935
X-0.0753 Y-0.1019
X-0.0704 Y-0.1106
X-0.0658 Y-0.1194
X-0.0616 Y-0.1284
X-0.0577 Y-0.1376
X-0.0541 Y-0.1468
X-0.0508 Y-0.1562
X-0.0478 Y-0.1657
X-0.0454 Y-0.1754
X-0.0437 Y-0.1852
X-0.0427 Y-0.1951
X-0.0426 Y-0.205
X-0.0433 Y-0.2149
X-0.0448 Y-0.2247
X-0.0472 Y-0.2344
X-0.0503 Y-0.2438
X-0.0542 Y-0.253
X-0.0587 Y-0.2619
X-0.0638 Y-0.2704
X-0.0696 Y-0.2785
X-0.0758 Y-0.2862
X-0.0826 Y-0.2935
X-0.0897 Y-0.3004
X-0.0972 Y-0.3069
X-0.1051 Y-0.313
X-0.1133 Y-0.3187
X-0.1217 Y-0.324
X-0.1303 Y-0.3289
X-0.1391 Y-0.3335
X-0.1481 Y-0.3377
X-0.1573 Y-0.3416
X-0.1666 Y-0.3452
G2 X-0.2046 Y-0.3567 I-0.1257 J0.3452
X-0.2534 Y-0.3663 I-0.1254 J0.5097
X-0.3226 Y-0.3738 I-0.1295 J0.875
X-0.4119 Y-0.378 I-0.133 J1.8665
X-0.5412 Y-0.3799 I-0.1467 J5.5629
X-0.75 Y-0.3805 I-0.186 J30.8306
G1 X-0.7997
X-0.8793
X-1.0284
X-1.6549
X-2.1023
X-2.1122
X-2.1222
X-2.1321 Y-0.3803
X-2.1421 Y-0.3798
X-2.152 Y-0.3788
X-2.1618 Y-0.3774
X-2.1715 Y-0.3754
X-2.1811 Y-0.3728
X-2.1906 Y-0.3696
X-2.1998 Y-0.3658
X-2.2087 Y-0.3615
X-2.2173 Y-0.3565
X-2.2257 Y-0.3511
X-2.2337 Y-0.3452
X-2.2413 Y-0.3388
X-2.2485 Y-0.332
X-2.2554 Y-0.3249
X-2.262 Y-0.3173
X-2.2681 Y-0.3095
X-2.2739 Y-0.3014
X-2.2792 Y-0.293
X-2.2841 Y-0.2844
X-2.2884 Y-0.2754
X-2.2919 Y-0.2661
X-2.2946 Y-0.2565
X-2.2964 Y-0.2468
X-2.2973 Y-0.2369
X-2.2972 Y-0.2269
X-2.2962 Y-0.217
X-2.2944 Y-0.2073
X-2.2917 Y-0.1977
X-2.2882 Y-0.1884
X-2.284 Y-0.1794
X-2.2791 Y-0.1707
X-2.2736 Y-0.1624
X-2.2675 Y-0.1545
X-2.261 Y-0.1471
X-2.254 Y-0.14
X-2.2466 Y-0.1333
X-2.2389 Y-0.1271
X-2.2308 Y-0.1213
X-2.2225 Y-0.1158
X-2.2139 Y-0.1108
X-2.2052 Y-0.1061
X-2.1962 Y-0.1017
X-2.1871 Y-0.0977
X-2.1779 Y-0.094
G2 X-2.14 Y-0.0821 I0.1272 J-0.3366
X-2.0913 Y-0.0721 I0.1272 J-0.4964
X-2.0221 Y-0.0642 I0.1317 J-0.8462
X-1.9328 Y-0.0596 I0.1356 J-1.7808
X-1.8135 Y-0.0576 I0.1444 J-4.9214
X-1.6246 Y-0.0569 I0.1699 J-21.4163
G1 X-1.5848 Y-0.0568
X-1.5351
X-1.4655
X-1.3362
G3 X-1.1274 Y-0.0557 I0.0089 J18.8804
G1 X-1.0677 Y-0.0552
G2 X-0.6998 Y-0.0534 I0.3713 J-38.2991
G1 X-0.6601 Y-0.0533
X-0.6103 Y-0.0532
X-0.5507
X-0.4711
X-0.3419
X-0.3021
X-0.2922
X-0.2822 Y-0.0533
X-0.2723 Y-0.0535
X-0.2623 Y-0.054
X-0.2524 Y-0.0549
X-0.2426 Y-0.0562
X-0.2328 Y-0.0581
X-0.2232 Y-0.0605
X-0.2137 Y-0.0635
X-0.2044 Y-0.0671
X-0.1954 Y-0.0713
X-0.1866 Y-0.076
X-0.1782 Y-0.0812
X-0.17 Y-0.0869
X-0.1622 Y-0.0931
X-0.1548 Y-0.0996
X-0.1477 Y-0.1066
X-0.1411 Y-0.114
X-0.135 Y-0.1219
X-0.1298 Y-0.1304
X-0.1255 Y-0.1394
X-0.1223 Y-0.1488
X-0.1201 Y-0.1585
X-0.119 Y-0.1684
Y-0.1783
X-0.12 Y-0.1882
X-0.122 Y-0.1979
X-0.1249 Y-0.2075
X-0.1286 Y-0.2167
X-0.133 Y-0.2256
X-0.1382 Y-0.2341
X-0.1439 Y-0.2422
X-0.1502 Y-0.2499
X-0.1571 Y-0.2571
X-0.1643 Y-0.2639
X-0.1719 Y-0.2703
X-0.1799 Y-0.2763
X-0.1881 Y-0.2818
X-0.1966 Y-0.287
X-0.2054 Y-0.2917
X-0.2143 Y-0.2961
X-0.2234 Y-0.3002
X-0.2326 Y-0.3039
X-0.2419 Y-0.3073
G2 X-0.2801 Y-0.3183 I-0.1232 J0.357
X-0.3389 Y-0.3286 I-0.1278 J0.5561
X-0.4181 Y-0.3355 I-0.1319 J1.0642
X-0.5075 Y-0.3386 I-0.1305 J2.4172
X-0.6567 Y-0.3401 I-0.1572 J8.1548
X-0.8158 Y-0.3405 I-0.1528 J35.4704
G1 X-0.8655
X-0.9351
X-0.945
X-0.955
G3 X-1.0569 Y-0.3379 I-0.123 J-2.7614
X-1.1961 Y-0.3371 I-0.1337 J-11.62
G1 X-1.216 Y-0.337
X-1.2458
X-1.2856
X-1.3353 Y-0.3369
X-1.4149
X-1.6038
X-2.0413
G2 X-2.0811 Y-0.3365 I-0.0078 J1.1261
G1 X-2.091 Y-0.3359
X-2.1009 Y-0.335
X-2.1107 Y-0.3336
X-2.1205 Y-0.3316
X-2.1301 Y-0.3291
X-2.1396 Y-0.3261
X-2.1488 Y-0.3225
X-2.1578 Y-0.3183
X-2.1665 Y-0.3135
X-2.1747 Y-0.3077
X-2.1819 Y-0.3009
X-2.188 Y-0.293
X-2.1929 Y-0.2844
X-2.1964 Y-0.2751
X-2.1985 Y-0.2654
X-2.1992 Y-0.2554
X-2.1991 Y-0.2542
X-2.1981 Y-0.2443
X-2.196 Y-0.2346
X-2.1929 Y-0.2251
X-2.189 Y-0.216
X-2.1842 Y-0.2073
X-2.1787 Y-0.199
X-2.1727 Y-0.1911
X-2.166 Y-0.1837
X-2.1589 Y-0.1768
X-2.1514 Y-0.1703
X-2.1435 Y-0.1642
X-2.1353 Y-0.1586
X-2.1268 Y-0.1534
X-2.1181 Y-0.1487
X-2.1091 Y-0.1442
X-2.1001 Y-0.1402
X-2.0908 Y-0.1365
X-2.0815 Y-0.1331
G2 X-2.0433 Y-0.1222 I0.121 J-0.3532
X-1.9845 Y-0.1121 I0.1267 J-0.5593
X-1.9052 Y-0.1054 I0.1315 J-1.0837
X-1.8158 Y-0.1023 I0.1308 J-2.4796
X-1.6667 Y-0.1008 I0.1583 J-8.3456
X-1.5871 Y-0.1005 I0.0914 J-16.9241
G1 X-1.5573
X-1.5275
X-1.4877 Y-0.1004
X-1.428
X-1.3684
G3 X-1.1297 Y-0.0993 I0.0009 J25.4432
G1 X-1.0601 Y-0.0987
X-0.9176 Y-0.0977
X-0.7751 Y-0.0971
X-0.6326 Y-0.0969
X-0.5829
X-0.5232 Y-0.0968
X-0.4436
X-0.3641
G2 X-0.3243 Y-0.0972 I0.0071 J-1.3207
G1 X-0.3144 Y-0.0977
X-0.3045 Y-0.0985
X-0.2946 Y-0.0997
X-0.2848 Y-0.1014
X-0.2751 Y-0.1037
X-0.2656 Y-0.1065
X-0.2566 Y-0.1106
X-0.2483 Y-0.1161
X-0.2408 Y-0.1227
X-0.2345 Y-0.1304
X-0.2293 Y-0.1389
X-0.2255 Y-0.1481
X-0.2231 Y-0.1577
X-0.2221 Y-0.1676
X-0.2226 Y-0.1775
X-0.2245 Y-0.1873
X-0.2279 Y-0.1966
X-0.2326 Y-0.2054
X-0.2386 Y-0.2133
X-0.2456 Y-0.2203
X-0.2532 Y-0.2268
X-0.2611 Y-0.2328
X-0.2693 Y-0.2385
X-0.2778 Y-0.2437
X-0.2865 Y-0.2485
X-0.2954 Y-0.2529
X-0.3045 Y-0.2569
X-0.3137 Y-0.2607
X-0.323 Y-0.2641
G2 X-0.3612 Y-0.275 I-0.1213 J0.3522
X-0.42 Y-0.2852 I-0.1268 J0.5563
X-0.4992 Y-0.2919 I-0.1314 J1.0761
X-0.5887 Y-0.295 I-0.1304 J2.4616
X-0.7378 Y-0.2965 I-0.1577 J8.3201
X-0.8969 Y-0.2968 I-0.1228 J25.4268
X-1.0063 Y-0.295 I0.3331 J24.0995
G3 X-1.235 Y-0.2935 I-0.2292 J-17.2791
G1 X-1.2648 Y-0.2934
X-1.2946
X-1.3344
X-1.3841
X-1.4537 Y-0.2933
X-1.583
X-1.9804
G2 X-2.0124 Y-0.2932 I-0.0058 J3.055
G1 X-2.0246 Y-0.298 Z0.2536
X-2.0308 Y-0.312 Z0.2577
X-2.0304 Y-0.3129 Z0.258
X-2.0302 Y-0.3133
X-2.0245 Y-0.326 F200.
X-1.9206 Y-0.4046
G3 X-1.9123 Y-0.4103 I0.0593 J0.0785
G1 X-1.9122
G3 X-1.8615 Y-0.4245 I0.0509 J0.0842
G1 X-0.478 Y-0.3934
G3 X-0.3992 Y-0.3542 I0.0001 J0.0984
G1 X-0.3991 Y-0.3541
G3 X-0.3804 Y-0.3088 I-0.0787 J0.0591
G1 X-0.3803 Y-0.3084 F50.
G3 X-0.3807 Y-0.2791 Z0.25 I-0.0975 J0.0134
G1 X-0.3813 Y-0.2761
G3 X-0.3964 Y-0.2688 I-0.0373 J-0.0585
X-0.4193 Y-0.2625 I-0.052 J-0.1433
X-0.4549 Y-0.2572 I-0.0635 J-0.3075
X-0.4996 Y-0.2542 I-0.067 J-0.6652
X-0.5763 Y-0.2528 I-0.0753 J-1.9444
X-0.6559 Y-0.2527 I-0.0426 J-8.7673
G1 X-0.7354 Y-0.253
G2 X-0.8647 Y-0.2531 I-0.0766 J18.1411
X-1.0238 Y-0.2512 I0.2995 J33.0975
G3 X-1.322 Y-0.2499 I-0.285 J-29.561
G1 X-1.3618 Y-0.2498
X-1.4115
X-1.4811 Y-0.2497
X-1.5806
X-1.8192
X-1.832
G3 X-1.8499 Y-0.2706 I0.0007 J-0.0187
G1 X-1.8496 Y-0.2738 Z0.2503
X-1.8492 Y-0.277 Z0.2511
X-1.8489 Y-0.2799 Z0.2525
X-1.8486 Y-0.2826 Z0.2544
X-1.8483 Y-0.2849 Z0.2567
X-1.8481 Y-0.2867 Z0.2594
X-1.8479 Y-0.2881 Z0.2623
X-1.8478 Y-0.2889 Z0.2655
Y-0.2892 Z0.2688
G0 Z0.6
(ADAPTIVE3 3)
S5000 M3
G64 P0.004 Q0.004
G0 Z1.
X-2.1554 Y-0.1969
Z0.3088
G1 Z0.29 F40.
Z0.15 F13.333
X-2.1551 Y-0.1938 F40.
X-2.1563 Y-0.1929
X-2.1578 Y-0.1932
X-2.159 Y-0.1941
X-2.1601 Y-0.1951
X-2.1606 Y-0.1965
X-2.1605 Y-0.198
X-2.1599 Y-0.1993
X-2.1578 Y-0.2015
X-2.1564 Y-0.202
X-2.1534 Y-0.2015
X-2.1511 Y-0.1995
X-2.1504 Y-0.1982
X-2.1502 Y-0.1967
X-2.1505 Y-0.1953
X-2.1521 Y-0.1927
X-2.1534 Y-0.1919
X-2.1548 Y-0.1914
X-2.1578 Y-0.1911
X-2.1605 Y-0.1923
X-2.1623 Y-0.1947
X-2.1628 Y-0.1977
X-2.1619 Y-0.2005
X-2.16 Y-0.2028
X-2.1572 Y-0.204
X-2.1542 Y-0.2041
X-2.1514 Y-0.203
X-2.1492 Y-0.201
X-2.148 Y-0.1982
X-2.1481 Y-0.1952
X-2.1492 Y-0.1925
X-2.1513 Y-0.1903
X-2.154 Y-0.1889
X-2.1569 Y-0.1885
X-2.1599 Y-0.1891
X-2.1625 Y-0.1906
X-2.1643 Y-0.193
X-2.1652 Y-0.1959
Y-0.1989
X-2.1643 Y-0.2017
X-2.1625 Y-0.2041
X-2.16 Y-0.2058
X-2.1572 Y-0.2068
X-2.1542 Y-0.2069
X-2.1513 Y-0.2061
X-2.1487 Y-0.2045
X-2.1468 Y-0.2023
X-2.1455 Y-0.1995
X-2.1452 Y-0.1966
X-2.1457 Y-0.1936
X-2.1469 Y-0.1909
X-2.1488 Y-0.1886
X-2.1512 Y-0.1868
X-2.1541 Y-0.1858
X-2.157 Y-0.1855
X-2.16 Y-0.1859
X-2.1628 Y-0.1872
X-2.1651 Y-0.1891
X-2.1668 Y-0.1915
X-2.168 Y-0.1943
X-2.1684 Y-0.1973
X-2.1681 Y-0.2002
X-2.166 Y-0.2059
X-2.1614 Y-0.2098
X-2.1556 Y-0.2112
X-2.1497 Y-0.2102
X-2.1448 Y-0.2068
X-2.1416 Y-0.2017
X-2.1408 Y-0.1957
X-2.1423 Y-0.1899
X-2.1458 Y-0.1851
X-2.1509 Y-0.1819
X-2.1569 Y-0.1809
X-2.1627 Y-0.1821
X-2.1678 Y-0.1853
X-2.1714 Y-0.1901
X-2.173 Y-0.1959
X-2.1728 Y-0.2019
X-2.1706 Y-0.2074
X-2.1666 Y-0.2119
X-2.1614 Y-0.215
X-2.1555 Y-0.2161
X-2.1496 Y-0.2153
G3 X-2.1374 Y-0.1884 I-0.0066 J0.0192
X-2.1649 Y-0.1777 I-0.0188 J-0.0077
X-2.152 Y-0.2211 I0.0092 J-0.0209
X-2.157 Y-0.1703 I-0.0037 J0.0253
X-2.1764 Y-0.2183 I0.0003 J-0.028
X-2.1258 Y-0.1858 I0.022 J0.0214
X-2.1905 Y-0.1929 I-0.0316 J-0.0109
X-2.1224 Y-0.2157 I0.0361 J-0.0054
X-2.1797 Y-0.1634 I-0.0342 J0.0201
X-2.1513 Y-0.2417 I0.0239 J-0.0356
X-2.129 Y-0.1576 I-0.0035 J0.046
X-2.2036 Y-0.2154 I-0.0285 J-0.0403
X-2.1021 Y-0.2076 I0.0497 J0.0176
X-2.1919 Y-0.1516 I-0.0549 J0.0119
X-2.1489 Y-0.2588 I0.0362 J-0.0477
X-2.119 Y-0.143 I-0.0057 J0.0632
X-2.1924 Y-0.1404 I-0.0385 J-0.0523
X-2.119 Y-0.2583 I0.0376 J-0.0584
X-2.1443 Y-0.1229 I-0.0365 J0.0632
X-2.2299 Y-0.2206 I-0.0133 J-0.0747
X-2.0819 Y-0.2317 I0.0761 J0.0225
X-2.2015 Y-0.1247 I-0.075 J0.0365
X-2.1482 Y-0.2865 I0.046 J-0.0745
X-2.0906 Y-0.1302 I-0.0061 J0.091
X-2.2515 Y-0.1832 I-0.0673 J-0.0664
X-2.0903 Y-0.2739 I0.0973 J-0.0156
X-2.0576 Y-0.1658 I-0.063 J0.0781
X-2.257 Y-0.1629 I-0.1002 J-0.0306
X-2.1007 Y-0.2936 I0.1025 J-0.0362
X-2.1163 Y-0.0889 I-0.0544 J0.0988
X-2.2712 Y-0.2241 I-0.0415 J-0.1088
X-2.0601 Y-0.274 I0.1175 J0.0256
G1 X-2.0568 Y-0.2698
X-2.0546 Y-0.2667
X-2.0536 Y-0.2653
G3 X-2.0434 Y-0.247 I-0.0784 J0.0557
G1 X-2.0425 Y-0.2439 Z0.1509
X-2.0422 Y-0.2406 Z0.1518
X-2.0425 Y-0.2374 Z0.1527
X-2.0434 Y-0.2342 Z0.1536
X-2.0447 Y-0.2312 Z0.1544
X-2.0466 Y-0.2285 Z0.1553
X-2.0489 Y-0.2262 Z0.1562
X-2.0516 Y-0.2244 Z0.1571
X-2.0546 Y-0.223 Z0.158
X-2.0549 Y-0.2228
G3 X-2.0774 Y-0.2315 I-0.0061 J-0.0177 F110.
G1 X-2.0848 Y-0.2447
G3 X-2.0802 Y-0.2684 I0.0164 J-0.0091
G1 X-2.0799 Y-0.2686 F40.
G3 X-2.0536 Y-0.2653 Z0.15 I0.0115 J0.0148
X-2.0417 Y-0.2429 I-0.0496 J0.0406
G1 X-2.0402 Y-0.239
X-2.0396 Y-0.2373
X-2.039 Y-0.2358
G3 X-2.0341 Y-0.2156 I-0.0988 J0.0348
X-2.0509 Y-0.1952 Z0.158 I-0.0187 J0.0018
G1 X-2.0514 Y-0.1951
G3 X-2.071 Y-0.2095 I-0.0014 J-0.0187 F110.
G1 X-2.0745 Y-0.2241
G3 X-2.064 Y-0.2456 I0.0182 J-0.0044
G1 X-2.0636 Y-0.2458 F40.
G3 X-2.039 Y-0.2358 Z0.15 I0.0073 J0.0173
X-2.0332 Y-0.2075 I-0.0829 J0.0319
G1 X-2.0329 Y-0.2036
X-2.0327 Y-0.2018
G3 X-2.0329 Y-0.1868 I-0.0783 J0.0064
X-2.0543 Y-0.1711 Z0.158 I-0.0185 J-0.0028
G1 X-2.0547 Y-0.1712
G3 X-2.0702 Y-0.1899 I0.0032 J-0.0185 F110.
G1 X-2.0701 Y-0.1999
G3 X-2.0539 Y-0.2183 I0.0187 J0.0002
G1 X-2.0535 F40.
G3 X-2.0327 Y-0.2018 Z0.15 I0.0021 J0.0186
X-2.0354 Y-0.1721 I-0.0932 J0.0067
X-2.0417 Y-0.1508 I-0.0531 J-0.0043
X-2.0578 Y-0.1224 I-0.0854 J-0.0295
X-2.0784 Y-0.1011 I-0.0754 J-0.0523
X-2.1064 Y-0.0836 I-0.0776 J-0.0929
G1 X-2.1207 Y-0.0789
X-2.1278 Y-0.0766
G3 X-2.1634 Y-0.0738 I-0.0325 J-0.1804
X-2.199 Y-0.0816 I0.017 J-0.1624
X-2.2479 Y-0.1153 I0.0479 J-0.1219
X-2.2762 Y-0.172 I0.0982 J-0.0845
X-2.2782 Y-0.2075 I0.1553 J-0.0266
X-2.2559 Y-0.2681 I0.1259 J0.012
X-2.2061 Y-0.3092 I0.1043 J0.0757
X-2.0597 Y-0.2743 I0.0503 J0.1133
G1 X-2.0583 Y-0.2717
X-2.0573 Y-0.269
X-2.0568 Y-0.2662
X-2.0566 Y-0.2633
Y-0.2626
X-2.0573 Y-0.2601 Z0.1502
X-2.0579 Y-0.2576 Z0.1507
X-2.0585 Y-0.2552 Z0.1516
X-2.0602 Y-0.2529 Z0.1533
X-2.0618 Y-0.2509 Z0.1554
X-2.0631 Y-0.2492 Z0.1579
X-2.0643 Y-0.2483 Z0.1604
X-2.0652 Y-0.2477 Z0.1631
X-2.0657 Y-0.2473 Z0.1659
X-2.0659 Y-0.2472 Z0.1687
G0 Z0.2088
X-2.1554 Y-0.1969
G1 Z0.19 F40.
Z0.05 F13.333
X-2.158 Y-0.199 F40.
X-2.1575 Y-0.2004
X-2.1561 Y-0.2011
X-2.1546 Y-0.2013
X-2.1532 Y-0.2009
X-2.1521 Y-0.1999
X-2.151 Y-0.1989
X-2.1503 Y-0.196
X-2.1507 Y-0.1945
X-2.1516 Y-0.1933
X-2.1541 Y-0.1917
X-2.1556 Y-0.1915
X-2.1585 Y-0.1922
X-2.1596 Y-0.1932
X-2.1608 Y-0.1959
X-2.1607 Y-0.1989
X-2.1593 Y-0.2016
X-2.1568 Y-0.2032
X-2.1538 Y-0.2034
X-2.151 Y-0.2022
X-2.149 Y-0.2
X-2.1481 Y-0.1971
X-2.1484 Y-0.1942
X-2.15 Y-0.1916
X-2.1524 Y-0.1898
X-2.1553 Y-0.1891
X-2.1583 Y-0.1895
X-2.1608 Y-0.1912
X-2.1625 Y-0.1936
X-2.1634 Y-0.1965
X-2.1632 Y-0.1994
X-2.162 Y-0.2022
X-2.1599 Y-0.2044
X-2.1572 Y-0.2057
X-2.1542 Y-0.206
X-2.1513 Y-0.2053
X-2.1487 Y-0.2037
X-2.1468 Y-0.2015
X-2.1456 Y-0.1987
X-2.1454 Y-0.1957
X-2.1461 Y-0.1928
X-2.1476 Y-0.1902
X-2.1498 Y-0.1881
X-2.1525 Y-0.1868
X-2.1554 Y-0.1863
X-2.1584 Y-0.1867
X-2.1611 Y-0.1879
X-2.1634 Y-0.1899
X-2.1651 Y-0.1923
X-2.1661 Y-0.1951
X-2.1664 Y-0.1981
X-2.1658 Y-0.2011
X-2.1645 Y-0.2038
X-2.1625 Y-0.2061
X-2.16 Y-0.2077
X-2.1572 Y-0.2087
X-2.1542 Y-0.209
X-2.1512 Y-0.2085
X-2.1485 Y-0.2073
X-2.1461 Y-0.2055
X-2.1423 Y-0.2008
X-2.1413 Y-0.1949
X-2.1431 Y-0.1892
X-2.1471 Y-0.1847
X-2.1526 Y-0.1823
X-2.1586 Y-0.1822
X-2.1641 Y-0.1846
X-2.1683 Y-0.1888
X-2.1706 Y-0.1944
X-2.1707 Y-0.2004
X-2.1685 Y-0.206
X-2.1644 Y-0.2104
X-2.1591 Y-0.213
X-2.1531 Y-0.2136
X-2.1473 Y-0.212
X-2.1422 Y-0.2088
X-2.1386 Y-0.204
X-2.1368 Y-0.1983
X-2.1369 Y-0.1923
X-2.139 Y-0.1866
G3 X-2.1679 Y-0.1811 I-0.0171 J-0.0107
X-2.1713 Y-0.2103 I0.0119 J-0.0162
X-2.1317 Y-0.1918 I0.0176 J0.0141
X-2.18 Y-0.1886 I-0.0245 J-0.0045
X-2.1319 Y-0.2139 I0.0259 J-0.009
X-2.1656 Y-0.1669 I-0.0233 J0.0188
X-2.1524 Y-0.2311 I0.0103 J-0.0313
X-2.1446 Y-0.1602 I-0.0017 J0.036
X-2.1769 Y-0.2315 I-0.0116 J-0.0377
X-2.112 Y-0.1861 I0.0236 J0.0353
X-2.2019 Y-0.1881 I-0.0448 J-0.01
X-2.1284 Y-0.2398 I0.0478 J-0.0101
X-2.1502 Y-0.1427 I-0.0263 J0.0451
X-2.1861 Y-0.2453 I-0.0061 J-0.0555
X-2.0957 Y-0.1807 I0.0331 J0.0493
X-2.2143 Y-0.1699 I-0.0611 J-0.0151
X-2.185 Y-0.2571 I0.0587 J-0.0288
X-2.1164 Y-0.1368 I0.0309 J0.0621
X-2.2266 Y-0.2191 I-0.0407 J-0.0605
X-2.1012 Y-0.2525 I0.0728 J0.0211
X-2.1573 Y-0.1152 I-0.0539 J0.0581
X-2.1939 Y-0.2729 I0.001 J-0.0833
X-2.0791 Y-0.1494 I0.0404 J0.0776
X-2.246 Y-0.175 I-0.0782 J-0.0468
X-2.118 Y-0.2859 I0.0915 J-0.0237
X-2.1227 Y-0.1011 I-0.0364 J0.0915
X-2.2324 Y-0.1284 I-0.0348 J-0.0941
X-2.1327 Y-0.3011 I0.0776 J-0.0704
X-2.1004 Y-0.0999 I-0.0214 J0.1066
X-2.2683 Y-0.2182 I-0.057 J-0.0973
X-2.0729 Y-0.282 I0.1147 J0.0201
X-2.1105 Y-0.0827 I-0.0818 J0.0878
G1 X-2.1136 Y-0.0814
X-2.1159 Y-0.0806
X-2.117 Y-0.0802
G3 X-2.1381 Y-0.0754 I-0.0325 J-0.0942
X-2.158 Y-0.0929 Z0.058 I-0.0012 J-0.0187
G1 Y-0.0933
G3 X-2.1434 Y-0.1124 I0.0187 J-0.0008 F110.
G1 X-2.1281 Y-0.1159
G3 X-2.1067 Y-0.105 I0.0041 J0.0183
G1 X-2.1065 Y-0.1046 F40.
G3 X-2.117 Y-0.0802 Z0.05 I-0.0174 J0.007
X-2.1459 Y-0.0747 I-0.0296 J-0.0769
G1 X-2.1477 Y-0.0745
X-2.1491 Y-0.0743
G3 X-2.1688 Y-0.0747 I-0.0081 J-0.0971
X-2.1842 Y-0.0963 Z0.058 I0.0031 J-0.0185
G1 Y-0.0967
G3 X-2.1654 Y-0.1119 I0.0184 J0.0035 F110.
G1 X-2.1513 Y-0.1117
G3 X-2.1331 Y-0.0958 I-0.0004 J0.0187
G1 Y-0.0954 F40.
G3 X-2.1491 Y-0.0743 Z0.05 I-0.0186 J0.0025
X-2.1814 Y-0.077 I-0.0094 J-0.0834
G1 X-2.1832 Y-0.0771
X-2.1847 Y-0.0774
X-2.1938 Y-0.0799
X-2.1957 Y-0.0805
X-2.1966 Y-0.0809
G3 X-2.2059 Y-0.1057 Z0.058 I0.0078 J-0.0171
G1 X-2.2057 Y-0.1061
G3 X-2.1834 Y-0.1159 I0.0169 J0.0081 F110.
G1 X-2.1766 Y-0.1139
G3 X-2.1634 Y-0.0937 I-0.0054 J0.018
G1 Y-0.0932 F40.
G3 X-2.1847 Y-0.0774 Z0.05 I-0.0186 J-0.0027
X-2.2103 Y-0.0871 I0.0198 J-0.0906
G1 X-2.2118 Y-0.0877
X-2.2131 Y-0.0882
G3 X-2.2251 Y-0.0954 I0.0342 J-0.071
X-2.2276 Y-0.1218 Z0.058 I0.0119 J-0.0145
G1 X-2.2273 Y-0.1221
G3 X-2.2036 Y-0.126 I0.0142 J0.0122 F110.
G1 X-2.1963 Y-0.1217
G3 X-2.1884 Y-0.0988 I-0.0096 J0.0161
G1 X-2.1886 Y-0.0984 F40.
G3 X-2.2131 Y-0.0882 Z0.05 I-0.0173 J-0.0072
X-2.2408 Y-0.1083 I0.0505 J-0.0988
X-2.2721 Y-0.1578 I0.0803 J-0.0854
X-2.2663 Y-0.2501 I0.1144 J-0.0391
X-2.2472 Y-0.2783 I0.0859 J0.0375
X-2.2272 Y-0.2963 I0.0579 J0.0442
X-2.1633 Y-0.3193 I0.0676 J0.0876
X-2.1279 Y-0.3164 I0.0106 J0.0905
X-2.1006 Y-0.3066 I-0.0123 J0.0768
X-2.0672 Y-0.2826 I-0.0459 J0.0993
X-2.1065 Y-0.0839 I-0.0885 J0.0857
G1 X-2.1104 Y-0.0826
G3 X-2.1224 Y-0.0827 I-0.0059 J-0.0178
G1 X-2.1246 Y-0.084 Z0.0502
X-2.1268 Y-0.0853 Z0.0507
X-2.1289 Y-0.0865 Z0.0516
X-2.1306 Y-0.0889 Z0.0533
X-2.1321 Y-0.0909 Z0.0554
X-2.1334 Y-0.0927 Z0.0579
X-2.1339 Y-0.0941 Z0.0604
X-2.1342 Y-0.0951 Z0.0631
X-2.1344 Y-0.0957 Z0.0659
X-2.1345 Y-0.0959 Z0.0687
G0 Z0.1088
X-2.1555 Y-0.1969
G1 Z0.09 F40.
Z-0.05 F13.333
X-2.1519 Y-0.1941 F40.
X-2.1528 Y-0.1929
X-2.154 Y-0.1921
X-2.1555 Y-0.1919
X-2.1585 Y-0.1925
X-2.1596 Y-0.1935
X-2.1607 Y-0.1963
X-2.1606 Y-0.1978
X-2.16 Y-0.1991
X-2.1579 Y-0.2013
X-2.1566 Y-0.2019
X-2.1551 Y-0.202
X-2.1522 Y-0.2011
X-2.1511 Y-0.2001
X-2.1497 Y-0.1974
X-2.1496 Y-0.1944
X-2.1509 Y-0.1918
X-2.1534 Y-0.1901
X-2.1564 Y-0.1896
X-2.1593 Y-0.1903
X-2.1615 Y-0.1923
X-2.1629 Y-0.195
Y-0.198
X-2.1618 Y-0.2008
X-2.1598 Y-0.203
X-2.1571 Y-0.2042
X-2.1541 Y-0.2044
X-2.1512 Y-0.2033
X-2.1489 Y-0.2014
X-2.1474 Y-0.1988
X-2.1469 Y-0.1959
X-2.1474 Y-0.1929
X-2.1489 Y-0.1903
X-2.1512 Y-0.1883
X-2.154 Y-0.1872
X-2.1569 Y-0.187
X-2.1598 Y-0.1877
X-2.1624 Y-0.1893
X-2.1643 Y-0.1916
X-2.1655 Y-0.1944
X-2.1658 Y-0.1974
X-2.1651 Y-0.2003
X-2.1637 Y-0.2029
X-2.1617 Y-0.2051
X-2.159 Y-0.2066
X-2.1561 Y-0.2072
X-2.1531 Y-0.207
X-2.1503 Y-0.2061
X-2.1478 Y-0.2044
X-2.1458 Y-0.2021
X-2.1446 Y-0.1994
X-2.144 Y-0.1965
X-2.1442 Y-0.1935
X-2.1451 Y-0.1906
X-2.1468 Y-0.1882
X-2.149 Y-0.1861
X-2.1517 Y-0.1847
X-2.1546 Y-0.1839
X-2.1606 Y-0.184
X-2.1658 Y-0.1869
X-2.1691 Y-0.1919
X-2.1701 Y-0.1978
X-2.1685 Y-0.2036
X-2.1648 Y-0.2083
X-2.1594 Y-0.2111
X-2.1535 Y-0.2116
X-2.1477 Y-0.2098
X-2.1431 Y-0.2061
X-2.1402 Y-0.2008
X-2.1394 Y-0.1949
X-2.1408 Y-0.189
X-2.1442 Y-0.1841
X-2.1491 Y-0.1807
X-2.1549 Y-0.1789
X-2.1608 Y-0.1792
X-2.1664 Y-0.1815
X-2.1709 Y-0.1855
X-2.1739 Y-0.1907
G3 X-2.1593 Y-0.2163 I0.0191 J-0.0061
X-2.1349 Y-0.1998 I0.0046 J0.0195
X-2.178 Y-0.1871 I-0.0222 J0.004
X-2.1323 Y-0.2089 I0.0232 J-0.0102
X-2.1642 Y-0.1685 I-0.0241 J0.0138
X-2.1599 Y-0.2281 I0.0079 J-0.0294
X-2.1365 Y-0.1676 I0.0051 J0.0328
X-2.187 Y-0.2182 I-0.021 J-0.0295
X-2.1154 Y-0.1893 I0.0328 J0.0218
X-2.1981 Y-0.1822 I-0.0422 J-0.0064
X-2.1257 Y-0.2335 I0.0432 J-0.0157
X-2.1537 Y-0.1455 I-0.0302 J0.0389
X-2.1862 Y-0.2418 I-0.0035 J-0.0525
X-2.102 Y-0.1749 I0.0322 J0.0459
X-2.2109 Y-0.1688 I-0.0558 J-0.0207
X-2.1243 Y-0.2535 I0.0559 J-0.0294
X-2.093 Y-0.1717 I-0.0297 J0.0583
X-2.2232 Y-0.2203 I-0.0647 J-0.0254
X-2.0879 Y-0.2285 I0.0693 J0.0229
X-2.1634 Y-0.119 I-0.0681 J0.0338
X-2.2098 Y-0.2577 I0.0061 J-0.0791
X-2.0753 Y-0.1673 I0.0561 J0.0618
X-2.2437 Y-0.1787 I-0.0826 J-0.029
X-2.1047 Y-0.2748 I0.0891 J-0.0196
X-2.1211 Y-0.1061 I-0.0502 J0.0802
X-2.2453 Y-0.2432 I-0.0367 J-0.0915
X-2.1472 Y-0.2993 I0.0902 J0.044
X-2.0907 Y-0.1118 I-0.0074 J0.1045
G1 X-2.0923 Y-0.1103
X-2.0938 Y-0.1092
X-2.0949 Y-0.1083
G3 X-2.1109 Y-0.0993 I-0.0435 J-0.0588
X-2.135 Y-0.1103 Z-0.042 I-0.0066 J-0.0176
G1 X-2.1352 Y-0.1107
G3 X-2.1266 Y-0.1332 I0.0177 J-0.0062 F110.
G1 X-2.116 Y-0.1391
G3 X-2.0927 Y-0.135 I0.0091 J0.0164
G1 X-2.0924 Y-0.1346 F40.
G3 X-2.0949 Y-0.1083 Z-0.05 I-0.0145 J0.0119
G1 X-2.0994 Y-0.1048
X-2.1029 Y-0.1027
X-2.1065 Y-0.1011
X-2.1175 Y-0.0965
X-2.1193 Y-0.0958
X-2.1207 Y-0.0952
G3 X-2.1323 Y-0.0919 I-0.018 J-0.0416
X-2.153 Y-0.1085 Z-0.042 I-0.002 J-0.0186
G1 Y-0.1089
G3 X-2.1396 Y-0.1286 I0.0187 J-0.0016 F110.
G1 X-2.1337 Y-0.1303
G3 X-2.1116 Y-0.1204 I0.0052 J0.018
G1 X-2.1114 Y-0.12 F40.
G3 X-2.1207 Y-0.0952 Z-0.05 I-0.0171 J0.0078
G1 X-2.1235 Y-0.0941
X-2.1278 Y-0.0926
X-2.1349 Y-0.0916
X-2.1459 Y-0.0901
X-2.1477 Y-0.0899
X-2.1491 Y-0.0897
X-2.1574 Y-0.0894
X-2.1593
X-2.1602 Y-0.0895
G3 X-2.176 Y-0.1109 Z-0.042 I0.0028 J-0.0185
G1 X-2.1759 Y-0.1113
G3 X-2.1579 Y-0.1268 I0.0185 J0.0032 F110.
G1 X-2.1527 Y-0.1269
G3 X-2.1338 Y-0.1117 I0.0005 J0.0187
G1 X-2.1337 Y-0.1113 F40.
G3 X-2.1491 Y-0.0897 Z-0.05 I-0.0185 J0.0031
G1 X-2.1562 Y-0.0891
X-2.1633 Y-0.0899
X-2.1744 Y-0.0913
X-2.1761 Y-0.0916
X-2.1776 Y-0.0918
X-2.1866 Y-0.0938
X-2.1877 Y-0.0942
X-2.1883 Y-0.0944
G3 X-2.1976 Y-0.1192 Z-0.042 I0.0078 J-0.0171
G1 X-2.1974 Y-0.1196
G3 X-2.1766 Y-0.1298 I0.0169 J0.0081 F110.
G1 X-2.1718 Y-0.1287
G3 X-2.1571 Y-0.109 I-0.0039 J0.0183
G1 Y-0.1086 F40.
G3 X-2.1776 Y-0.0918 Z-0.05 I-0.0187 J-0.0018
G1 X-2.1847 Y-0.093
X-2.1876 Y-0.0941
X-2.2047 Y-0.1012
X-2.206 Y-0.1017
X-2.2095 Y-0.1034
G3 X-2.2333 Y-0.1223 I0.0829 J-0.1288
G1 X-2.2441 Y-0.1366
X-2.2486 Y-0.1425
G3 X-2.2605 Y-0.172 I0.1487 J-0.0774
G1 X-2.2632 Y-0.1933
X-2.2634 Y-0.1968
X-2.263 Y-0.2004
X-2.2602 Y-0.2217
G3 X-2.2486 Y-0.2514 I0.1514 J0.0421
X-2.2305 Y-0.2745 I0.166 J0.1111
G1 X-2.2131 Y-0.2877
X-2.2095 Y-0.2902
X-2.206 Y-0.2918
X-2.1847 Y-0.3006
G3 X-2.1562 Y-0.3047 I0.0385 J0.1666
X-2.124 Y-0.2998 I-0.0052 J0.1434
G1 X-2.103 Y-0.2909
X-2.1012 Y-0.29
X-2.0994 Y-0.2888
X-2.0817 Y-0.2752
X-2.0799 Y-0.2738
X-2.0781 Y-0.272
X-2.0775 Y-0.2713
X-2.0639 Y-0.2536
G3 X-2.0515 Y-0.2252 I-0.1596 J0.0864
G1 X-2.0508 Y-0.2217
X-2.048 Y-0.2004
X-2.0477 Y-0.1968
X-2.0478 Y-0.1933
X-2.0506 Y-0.172
G3 X-2.0638 Y-0.1405 I-0.1352 J-0.0376
G1 X-2.0781 Y-0.122
X-2.0797 Y-0.1202
X-2.0817 Y-0.1185
X-2.0906 Y-0.1116
G3 X-2.102 Y-0.1081 I-0.0109 J-0.0153
G1 X-2.1046 Y-0.1087 Z-0.0498
X-2.107 Y-0.1093 Z-0.0493
X-2.1094 Y-0.1099 Z-0.0484
X-2.1117 Y-0.1116 Z-0.0467
X-2.1138 Y-0.1131 Z-0.0446
X-2.1155 Y-0.1144 Z-0.0421
X-2.1164 Y-0.1156 Z-0.0396
X-2.117 Y-0.1165 Z-0.0369
X-2.1174 Y-0.117 Z-0.0341
X-2.1176 Y-0.1172 Z-0.0313
G0 Z0.0088
X-2.1555 Y-0.1969
G1 Z-0.01 F40.
Z-0.15 F13.333
X-2.1567 Y-0.1999 F40.
X-2.1557 Y-0.201
X-2.1542 Y-0.2012
X-2.1517 Y-0.1994
X-2.1509 Y-0.1982
X-2.1504 Y-0.1952
X-2.152 Y-0.1927
X-2.1533 Y-0.1919
X-2.1548 Y-0.1917
X-2.1577 Y-0.1922
X-2.1589 Y-0.1932
X-2.16 Y-0.1941
X-2.1605 Y-0.1956
Y-0.1986
X-2.1591 Y-0.2012
X-2.1579 Y-0.2021
X-2.1565 Y-0.2027
X-2.1535 Y-0.2028
X-2.1508 Y-0.2016
X-2.1489 Y-0.1992
X-2.1481 Y-0.1963
X-2.1487 Y-0.1934
X-2.1505 Y-0.191
X-2.1532 Y-0.1897
X-2.1561 Y-0.1893
X-2.159 Y-0.1902
X-2.1614 Y-0.192
X-2.1628 Y-0.1947
X-2.1631 Y-0.1977
X-2.1624 Y-0.2006
X-2.1607 Y-0.2031
X-2.1582 Y-0.2047
X-2.1552 Y-0.2054
X-2.1523 Y-0.2051
X-2.1495 Y-0.2038
X-2.1474 Y-0.2018
X-2.146 Y-0.1991
X-2.1455 Y-0.1962
X-2.1459 Y-0.1932
X-2.1474 Y-0.1906
X-2.1495 Y-0.1885
X-2.1522 Y-0.1871
X-2.1551 Y-0.1865
X-2.1581 Y-0.1869
X-2.1609 Y-0.188
X-2.1632 Y-0.1899
X-2.1649 Y-0.1924
X-2.1658 Y-0.1953
X-2.166 Y-0.1983
X-2.1653 Y-0.2012
X-2.1638 Y-0.2038
X-2.1617 Y-0.2059
X-2.1591 Y-0.2075
X-2.1562 Y-0.2083
X-2.1532 Y-0.2084
X-2.1503 Y-0.2076
X-2.1451 Y-0.2048
X-2.1419 Y-0.1997
X-2.1416 Y-0.1937
X-2.1438 Y-0.1882
X-2.1483 Y-0.1841
X-2.154 Y-0.1822
X-2.16 Y-0.1828
X-2.1652 Y-0.1857
X-2.1689 Y-0.1905
X-2.1705 Y-0.1963
X-2.1697 Y-0.2022
X-2.1667 Y-0.2074
X-2.162 Y-0.2112
X-2.1563 Y-0.2129
X-2.1503 Y-0.2126
X-2.1447 Y-0.2104
X-2.1402 Y-0.2064
X-2.1375 Y-0.2011
X-2.1368 Y-0.1951
X-2.138 Y-0.1892
X-2.141 Y-0.184
X-2.1455 Y-0.1801
G3 X-2.1655 Y-0.2151 I-0.01 J-0.0175
X-2.1572 Y-0.2177 I0.01 J0.0175
X-2.1363 Y-0.1815 I0.0037 J0.022
X-2.1735 Y-0.1788 I-0.0199 J-0.0157
X-2.1729 Y-0.2161 I0.0174 J-0.0184
X-2.1278 Y-0.1842 I0.0196 J0.0201
X-2.1858 Y-0.2072 I-0.0286 J-0.0124
X-2.1198 Y-0.2037 I0.0326 J0.0103
X-2.1862 Y-0.1736 I-0.0363 J0.0082
X-2.1365 Y-0.2342 I0.032 J-0.0244
X-2.1505 Y-0.1515 I-0.0179 J0.0395
X-2.1812 Y-0.2373 I-0.0056 J-0.0464
X-2.1057 Y-0.1791 I0.0283 J0.0413
X-2.2099 Y-0.1884 I-0.051 J-0.0169
X-2.1133 Y-0.2388 I0.0565 J-0.0095
X-2.1537 Y-0.1338 I-0.0415 J0.0443
X-2.2001 Y-0.2448 I-0.0025 J-0.0641
X-2.1574 Y-0.264 I0.0455 J0.044
X-2.144 Y-0.1261 I0.0026 J0.0694
X-2.2111 Y-0.2462 I-0.0125 J-0.0718
X-2.1835 Y-0.2667 I0.0499 J0.0383
G1 X-2.1817 Y-0.2675
X-2.1805 Y-0.268
X-2.1789 Y-0.2687
G3 X-2.1655 Y-0.2721 I0.0178 J0.0424
G1 X-2.1622 Z-0.1491
X-2.159 Y-0.2716 Z-0.1482
X-2.1559 Y-0.2705 Z-0.1473
X-2.1531 Y-0.2689 Z-0.1464
X-2.1505 Y-0.2668 Z-0.1456
X-2.1484 Y-0.2643 Z-0.1447
X-2.1468 Y-0.2615 Z-0.1438
X-2.1456 Y-0.2585 Z-0.1429
X-2.145 Y-0.2553 Z-0.142
Y-0.2548
G3 X-2.1592 Y-0.2352 I-0.0187 J0.0014 F110.
G1 X-2.1667 Y-0.2334
G3 X-2.188 Y-0.2435 I-0.0044 J-0.0182
G1 X-2.1882 Y-0.2439 F40.
G3 X-2.1789 Y-0.2687 Z-0.15 I0.0171 J-0.0077
X-2.1648 Y-0.2722 I0.016 J0.0344
G1 X-2.1633 Y-0.2724
X-2.1612 Y-0.2726
X-2.1552 Y-0.2728
X-2.1515 Y-0.2727
X-2.1502 Y-0.2726
G3 X-2.1333 Y-0.2522 Z-0.142 I-0.0018 J0.0187
G1 X-2.1334 Y-0.2518
G3 X-2.152 Y-0.2352 I-0.0186 J-0.0022 F110.
G1 X-2.1589
G3 X-2.1775 Y-0.2513 I0. J-0.0188
G1 Y-0.2517 F40.
G3 X-2.1612 Y-0.2726 Z-0.15 I0.0186 J-0.0023
G1 X-2.1562 Y-0.273
X-2.1491 Y-0.2726
X-2.1452 Y-0.2721
X-2.1435 Y-0.2718
X-2.1391 Y-0.2709
X-2.1349 Y-0.2696
X-2.1307 Y-0.2681
G3 X-2.1213 Y-0.2433 Z-0.142 I-0.0077 J0.0171
G1 X-2.1215 Y-0.243
G3 X-2.144 Y-0.2331 I-0.0169 J-0.008 F110.
G1 X-2.1509 Y-0.2353
G3 X-2.164 Y-0.2546 I0.0056 J-0.0179
G1 X-2.1639 Y-0.255 F40.
G3 X-2.1435 Y-0.2718 Z-0.15 I0.0187 J0.0018
G1 X-2.1396 Y-0.2713
X-2.1349 Y-0.2698
X-2.1225 Y-0.2647
X-2.1212 Y-0.2642
X-2.1207 Y-0.264
X-2.1153 Y-0.2613
X-2.1142 Y-0.2606
G3 X-2.1051 Y-0.2343 Z-0.142 I-0.0155 J0.0201
G1 X-2.1052 Y-0.2339
X-2.106 Y-0.2312 F110.
X-2.1072 Y-0.2287
G3 X-2.1441 Y-0.2197 I-0.0224 J-0.0117
X-2.1481 Y-0.2575 I0.0145 J-0.0206
G1 X-2.1478 Y-0.2578 F40.
G3 X-2.1207 Y-0.264 Z-0.15 I0.0183 J0.0174
X-2.1036 Y-0.2521 I-0.0208 J0.0483
X-2.0818 Y-0.2146 I-0.0474 J0.0526
G1 X-2.0799 Y-0.2004
G3 X-2.0906 Y-0.1578 I-0.0671 J0.0057
G1 X-2.1015 Y-0.1437
G3 X-2.1633 Y-0.1217 I-0.0524 J-0.0494
X-2.2096 Y-0.1437 I0.0047 J-0.0695
G1 X-2.2204 Y-0.1579
G3 X-2.2312 Y-0.2004 I0.0575 J-0.0373
X-2.1836 Y-0.267 I0.0739 J0.0025
G1 X-2.1806 Y-0.2678
X-2.1776 Y-0.2681
X-2.1745 Y-0.2678
X-2.1716 Y-0.2672
X-2.1693 Y-0.2659 Z-0.1498
X-2.167 Y-0.2647 Z-0.1493
X-2.1649 Y-0.2635 Z-0.1484
X-2.1631 Y-0.2613 Z-0.1467
X-2.1615 Y-0.2592 Z-0.1446
X-2.1602 Y-0.2576 Z-0.1421
X-2.1597 Y-0.2562 Z-0.1396
X-2.1593 Y-0.2552 Z-0.1369
X-2.159 Y-0.2545 Z-0.1341
Y-0.2543 Z-0.1313
G0 Z-0.0912
X-2.1555 Y-0.1969
G1 Z-0.11 F40.
Z-0.25 F13.333
X-2.1567 Y-0.2001 F40.
X-2.1554 Y-0.2008
X-2.1539 Y-0.201
X-2.1515 Y-0.1992
X-2.1508 Y-0.1979
X-2.1505 Y-0.1965
X-2.1508 Y-0.195
X-2.1517 Y-0.1937
X-2.1541 Y-0.192
X-2.1556 Y-0.1918
X-2.1585 Y-0.1925
X-2.1597 Y-0.1934
X-2.1608 Y-0.1962
X-2.1607 Y-0.1977
X-2.1595 Y-0.2005
X-2.1572 Y-0.2024
X-2.1558 Y-0.2028
X-2.1528 Y-0.2025
X-2.1502 Y-0.201
X-2.1486 Y-0.1985
X-2.1484 Y-0.1955
X-2.1496 Y-0.1927
X-2.1518 Y-0.1906
X-2.1546 Y-0.1896
X-2.1576
X-2.1603 Y-0.1909
X-2.1623 Y-0.1932
X-2.1631 Y-0.196
X-2.1629 Y-0.199
X-2.1617 Y-0.2018
X-2.1596 Y-0.2039
X-2.1568 Y-0.2051
X-2.1538 Y-0.2053
X-2.1509 Y-0.2045
X-2.1484 Y-0.2029
X-2.1467 Y-0.2004
X-2.1459 Y-0.1975
X-2.146 Y-0.1945
X-2.1471 Y-0.1917
X-2.149 Y-0.1894
X-2.1515 Y-0.1877
X-2.1543 Y-0.1868
X-2.1573
X-2.1602 Y-0.1877
X-2.1627 Y-0.1894
X-2.1646 Y-0.1917
X-2.1657 Y-0.1945
X-2.166 Y-0.1975
X-2.1655 Y-0.2004
X-2.1643 Y-0.2032
X-2.1623 Y-0.2054
X-2.1598 Y-0.2071
X-2.157 Y-0.208
X-2.154 Y-0.2083
X-2.151 Y-0.2078
X-2.1483 Y-0.2065
X-2.146 Y-0.2046
X-2.1442 Y-0.2022
X-2.1431 Y-0.1994
X-2.1428 Y-0.1964
X-2.1435 Y-0.1904
X-2.1471 Y-0.1856
X-2.1524 Y-0.1828
X-2.1584 Y-0.1826
X-2.164 Y-0.1848
X-2.1682 Y-0.1891
X-2.1703 Y-0.1947
X-2.1701 Y-0.2007
X-2.1676 Y-0.2062
X-2.1633 Y-0.2103
X-2.1577 Y-0.2126
X-2.1517 Y-0.2127
X-2.1461 Y-0.2106
X-2.1416 Y-0.2066
X-2.1388 Y-0.2013
X-2.1378 Y-0.1954
X-2.1389 Y-0.1895
X-2.1419 Y-0.1843
X-2.1464 Y-0.1803
X-2.1519 Y-0.178
X-2.1579 Y-0.1776
G3 X-2.1751 Y-0.2017 I0.0027 J-0.0201
X-2.15 Y-0.2173 I0.0199 J0.004
X-2.149 Y-0.1733 I-0.005 J0.0221
X-2.1645 Y-0.2215 I-0.007 J-0.0243
X-2.1288 Y-0.1845 I0.0104 J0.0257
X-2.1872 Y-0.1969 I-0.028 J-0.0118
X-2.1241 Y-0.2117 I0.0332 J-0.0005
X-2.1813 Y-0.1688 I-0.0322 J0.0167
X-2.1425 Y-0.2356 I0.0263 J-0.0294
X-2.1218 Y-0.1697 I-0.0109 J0.0397
G1 X-2.1228 Y-0.1682
X-2.1236 Y-0.1672
X-2.1245 Y-0.166
X-2.1262 Y-0.1641
X-2.1266 Y-0.1637
G3 X-2.1414 Y-0.1641 I-0.0072 J-0.0091
X-2.1441 Y-0.1776 I0.0076 J-0.0086
G1 X-2.1429 Y-0.1796 F110.
X-2.1413 Y-0.1813
X-2.1394 Y-0.1826
G3 X-2.1245 Y-0.166 I0.0056 J0.01 F40.
G1 X-2.1253 Y-0.165
X-2.1266 Y-0.1637
X-2.1278 Y-0.1626
X-2.1317 Y-0.1601
X-2.1327 Y-0.1595
G3 X-2.1454 Y-0.1543 I-0.0182 J-0.0266
G1 X-2.1482 Y-0.1541 Z-0.2492
G3 X-2.1668 Y-0.17 Z-0.242 I0. J-0.0187
G1 Y-0.1704
G3 X-2.1555 Y-0.1901 I0.0186 J-0.0024 F110.
G1 X-2.1506 Y-0.1922
G3 X-2.1281 Y-0.1859 I0.0073 J0.0173
G1 X-2.1279 Y-0.1855 F40.
G3 X-2.1327 Y-0.1595 Z-0.25 I-0.0155 J0.0106
X-2.1477 Y-0.1539 I-0.0171 J-0.0231
G1 X-2.1491 Y-0.1536
X-2.1511 Y-0.1533
X-2.153 Y-0.1531
X-2.1546 Y-0.1529
X-2.1562 Y-0.1528
G3 X-2.1679 Y-0.1657 I0.0027 J-0.0142
X-2.1639 Y-0.1768 I0.0139 J-0.0013
X-2.1448 Y-0.1775 I0.0099 J0.0099 F110.
X-2.1511 Y-0.1533 I-0.0092 J0.0105 F40.
G1 X-2.1527 Y-0.153
X-2.1562 Y-0.1528
X-2.1633 Y-0.1539
X-2.1655 Y-0.1543
X-2.167 Y-0.1547
X-2.1719 Y-0.1559
G3 X-2.1858 Y-0.1797 Z-0.242 I0.009 J-0.0211
G1 X-2.1857 Y-0.1801
X-2.1852 Y-0.1829 F110.
G3 X-2.1554 Y-0.1986 I0.0221 J0.0058
X-2.1424 Y-0.1676 I-0.0077 J0.0215
G1 X-2.1426 Y-0.1672 F40.
G3 X-2.167 Y-0.1547 Z-0.25 I-0.0205 J-0.0099
G1 X-2.1705 Y-0.1554
X-2.1731 Y-0.1564
G3 X-2.1924 Y-0.1738 I0.0167 J-0.038
G1 X-2.1934 Y-0.175
X-2.1949 Y-0.1773
G3 X-2.1856 Y-0.1935 I0.0094 J-0.0054
G1 X-2.1855
X-2.1835 Y-0.1933
X-2.1815 Y-0.1927
X-2.1796 Y-0.1918
X-2.178 Y-0.1905
X-2.1765 Y-0.1886 F110.
X-2.1759 Y-0.1878
X-2.1749 Y-0.1859
G3 X-2.1934 Y-0.175 I-0.01 J0.0041 F40.
G1 X-2.1941 Y-0.176
X-2.1951 Y-0.1776
G3 X-2.1989 Y-0.2014 I0.0348 J-0.0179
X-2.1633 Y-0.2398 I0.0422 J0.0033
X-2.1214 Y-0.1694 I0.0082 J0.0428
G1 X-2.1237 Y-0.1672
X-2.1262 Y-0.1653
X-2.129 Y-0.164
X-2.132 Y-0.1631
X-2.1351 Y-0.1627
X-2.1382 Y-0.1628
X-2.1413 Y-0.1634
X-2.1442 Y-0.1645
X-2.1468 Y-0.1661
X-2.1492 Y-0.1681
X-2.1515 Y-0.1703 Z-0.2497
X-2.1538 Y-0.1725 Z-0.2489
X-2.1559 Y-0.1746 Z-0.2475
X-2.1579 Y-0.1765 Z-0.2456
X-2.1595 Y-0.1781 Z-0.2433
X-2.1609 Y-0.1794 Z-0.2406
X-2.1619 Y-0.1803 Z-0.2377
X-2.1625 Y-0.1809 Z-0.2345
X-2.1627 Y-0.1811 Z-0.2312
G0 Z1.
(RADIAL2 2)
S7500 M3
G64 P0.0004 Q0.0004
G0 X-2.029 Y-0.1969
Z1.
Z0.331
G1 Z0.0009 F80.
X-2.1371 Z-0.3391 F60.
X-2.1373 Z-0.3436
Y-0.1953
X-2.1372 Y-0.1952 Z-0.3391
X-2.0295 Y-0.1858 Z0.0009
X-2.0309 Y-0.1749
X-2.1374 Y-0.1937 Z-0.3393
X-2.1375 Z-0.3436
X-2.1379 Y-0.1921
X-2.1378 Z-0.3393
X-2.0333 Y-0.1641 Z0.0009
X-2.0366 Y-0.1536
X-2.1382 Y-0.1906 Z-0.3391
X-2.1384 Z-0.3436
X-2.139 Y-0.1891
X-2.1389 Z-0.3393
X-2.0409 Y-0.1434 Z0.0009
X-2.046 Y-0.1336
X-2.1396 Y-0.1877 Z-0.3393
X-2.1397 Z-0.3436
X-2.1405 Y-0.1864
X-2.1404 Y-0.1863 Z-0.3391
X-2.0519 Y-0.1243 Z0.0009
X-2.0586 Y-0.1155
X-2.1415 Y-0.1851 Z-0.3393
Z-0.3436
X-2.1426 Y-0.1839
X-2.1425 Z-0.3393
X-2.0661 Y-0.1074 Z0.0008
X-2.0742 Y-0.0999
X-2.1437 Y-0.1828 Z-0.3393
X-2.1438 Z-0.3436
X-2.145 Y-0.1819
Y-0.1818 Z-0.3393
X-2.083 Y-0.0932 Z0.0008
X-2.0923 Y-0.0873
X-2.1463 Y-0.1809 Z-0.3391
X-2.1464 Y-0.181 Z-0.3436
X-2.1478 Y-0.1803
Y-0.1802 Z-0.3393
X-2.1021 Y-0.0822 Z0.0007
X-2.1122 Y-0.078
X-2.1492 Y-0.1796 Z-0.3393
X-2.1493 Y-0.1797 Z-0.3436
X-2.1508 Y-0.1792
Y-0.1791 Z-0.3393
X-2.1228 Y-0.0747 Z0.0007
X-2.1335 Y-0.0723 Z0.0006
X-2.1523 Y-0.1787 Z-0.3391
Y-0.1789 Z-0.3436
X-2.1539 Y-0.1787
Y-0.1786 Z-0.3393
X-2.1445 Y-0.0708 Z0.0006
X-2.1555 Y-0.0704
Y-0.1785 Z-0.3393
Y-0.1786 Z-0.3436
X-2.1571 Y-0.1787
Y-0.1785 Z-0.3391
X-2.1665 Y-0.0708 Z0.0006
X-2.1775 Y-0.0723
X-2.1587 Y-0.1788 Z-0.3393
Y-0.1789 Z-0.3436
X-2.1602 Y-0.1792
X-2.1603 Y-0.1791 Z-0.3391
X-2.1883 Y-0.0747 Z0.0007
X-2.1988 Y-0.078
X-2.1618 Y-0.1795 Z-0.3391
Y-0.1797 Z-0.3436
X-2.1632 Y-0.1803
X-2.1633 Y-0.1802 Z-0.3393
X-2.209 Y-0.0822 Z0.0007
X-2.2188 Y-0.0873 Z0.0008
X-2.1647 Y-0.1809 Z-0.3391
X-2.1646 Y-0.181 Z-0.3436
X-2.166 Y-0.1819
Y-0.1818 Z-0.3393
X-2.2281 Y-0.0932 Z0.0008
X-2.2368 Y-0.0999
X-2.1673 Y-0.1828 Z-0.3393
Z-0.3436
X-2.1684 Y-0.1839
X-2.1685 Z-0.3393
X-2.245 Y-0.1074 Z0.0008
X-2.2524 Y-0.1155 Z0.0009
X-2.1696 Y-0.185 Z-0.3391
X-2.1695 Y-0.1851 Z-0.3436
X-2.1705 Y-0.1864
Y-0.1863 Z-0.3393
X-2.2591 Y-0.1243 Z0.0009
X-2.2651 Y-0.1336
X-2.1715 Y-0.1876 Z-0.3391
X-2.1713 Y-0.1877 Z-0.3436
X-2.1721 Y-0.1891
X-2.1722 Z-0.3391
X-2.2702 Y-0.1434 Z0.0009
X-2.2744 Y-0.1536
X-2.1728 Y-0.1906 Z-0.3393
X-2.1727 Z-0.3436
X-2.1732 Y-0.1921
Z-0.3393
X-2.2777 Y-0.1641 Z0.0009
X-2.2801 Y-0.1749
X-2.1736 Y-0.1937 Z-0.3393
X-2.1735 Z-0.3436
X-2.1737 Y-0.1953
X-2.1738 Z-0.3393
X-2.2815 Y-0.1858 Z0.0009
X-2.282 Y-0.1969
X-2.1739 Z-0.3391
X-2.1738 Z-0.3436
X-2.1737 Y-0.1984
X-2.1738 Y-0.1985 Z-0.3393
X-2.2815 Y-0.2079 Z0.0009
X-2.2801 Y-0.2188
X-2.1736 Y-0.2 Z-0.3393
X-2.1735 Z-0.3436
X-2.1731 Y-0.2016
X-2.1732 Z-0.3393
X-2.2777 Y-0.2296 Z0.0009
X-2.2744 Y-0.2401
X-2.1728 Y-0.2031 Z-0.3391
X-2.1727 Z-0.3436
X-2.1721 Y-0.2046
X-2.1722 Z-0.3391
X-2.2702 Y-0.2503 Z0.0009
X-2.2651 Y-0.2601
X-2.1715 Y-0.2061 Z-0.3391
X-2.1713 Y-0.206 Z-0.3436
X-2.1705 Y-0.2073
Y-0.2074 Z-0.3393
X-2.2591 Y-0.2694 Z0.0009
X-2.2524 Y-0.2782
X-2.1696 Y-0.2086 Z-0.3393
X-2.1695 Z-0.3436
X-2.1684 Y-0.2098
X-2.1685 Z-0.3393
X-2.245 Y-0.2863 Z0.0008
X-2.2368 Y-0.2938
X-2.1673 Y-0.2109 Z-0.3393
X-2.1672 Y-0.2108 Z-0.3436
X-2.166 Y-0.2118
X-2.1661 Y-0.2119 Z-0.3391
X-2.2281 Y-0.3005 Z0.0008
X-2.2188 Y-0.3064
X-2.1647 Y-0.2127 Z-0.3393
Z-0.3436
X-2.1632 Y-0.2134
X-2.1633 Y-0.2135 Z-0.3393
X-2.209 Y-0.3115 Z0.0007
X-2.1988 Y-0.3157
X-2.1618 Y-0.2141 Z-0.3393
Y-0.214 Z-0.3436
X-2.1602 Y-0.2145
X-2.1603 Y-0.2146 Z-0.3393
X-2.1883 Y-0.319 Z0.0007
X-2.1775 Y-0.3214 Z0.0006
X-2.1587 Y-0.2149 Z-0.3393
Z-0.3436
X-2.1571 Y-0.215
Y-0.2151 Z-0.3393
X-2.1665 Y-0.3229 Z0.0006
X-2.1555 Y-0.3234
Y-0.2152 Z-0.3393
Y-0.2151 Z-0.3436
X-2.1539 Y-0.215
Y-0.2151 Z-0.3393
X-2.1445 Y-0.3229 Z0.0006
X-2.1335 Y-0.3214
X-2.1523 Y-0.2149 Z-0.3393
Z-0.3436
X-2.1508 Y-0.2145
X-2.1507 Y-0.2146 Z-0.3391
X-2.1228 Y-0.319 Z0.0007
X-2.1122 Y-0.3157
X-2.1492 Y-0.2141 Z-0.3391
X-2.1493 Y-0.214 Z-0.3436
X-2.1478 Y-0.2134
Y-0.2135 Z-0.3393
X-2.1021 Y-0.3115 Z0.0007
X-2.0923 Y-0.3064 Z0.0008
X-2.1463 Y-0.2127 Z-0.3393
X-2.1464 Z-0.3436
X-2.145 Y-0.2118
Y-0.2119 Z-0.3391
X-2.083 Y-0.3005 Z0.0008
X-2.0742 Y-0.2938
X-2.1437 Y-0.2109 Z-0.3393
X-2.1438 Y-0.2108 Z-0.3436
X-2.1426 Y-0.2098
X-2.1425 Z-0.3393
X-2.0661 Y-0.2863 Z0.0008
X-2.0586 Y-0.2782 Z0.0009
X-2.1415 Y-0.2086 Z-0.3393
Z-0.3436
X-2.1406 Y-0.2073
X-2.1405 Y-0.2074 Z-0.3393
X-2.0519 Y-0.2694 Z0.0009
X-2.046 Y-0.2601
X-2.1396 Y-0.206 Z-0.3393
X-2.1397 Z-0.3436
X-2.1389 Y-0.2046
Z-0.3393
X-2.0409 Y-0.2503 Z0.0009
X-2.0366 Y-0.2401
X-2.1383 Y-0.2031 Z-0.3393
Z-0.3436
X-2.1379 Y-0.2016
X-2.1378 Z-0.3393
X-2.0333 Y-0.2296 Z0.0009
X-2.0309 Y-0.2188
X-2.1374 Y-0.2 Z-0.3393
X-2.1375 Z-0.3436
X-2.1373 Y-0.1984
X-2.1372 Y-0.1985 Z-0.3391
X-2.0295 Y-0.2079 Z0.0009
G0 Z1.
G53 G0 Z-0.6
(ADAPTIVE3 2)
G55
G0 X-2.47 Y-0.6611
G43 Z0.6 H32
G0 Z0.2875
G1 Z0.2688 F50.
X-2.4699 Y-0.6608 Z0.2655
X-2.4697 Y-0.66 Z0.2623
X-2.4694 Y-0.6587 Z0.2594
X-2.4689 Y-0.6569 Z0.2567
X-2.4683 Y-0.6546 Z0.2544
X-2.4677 Y-0.652 Z0.2525
X-2.4669 Y-0.6492 Z0.2511
X-2.4662 Y-0.6461 Z0.2503
X-2.4654 Y-0.6429 Z0.25
G3 X-2.4507 Y-0.5409 I-0.4637 J0.1188
G1 Y-0.5403
X-2.456 Y-0.5318
X-2.4608 Y-0.5232
X-2.4652 Y-0.5142
X-2.4692 Y-0.5051
X-2.4727 Y-0.4958
X-2.4759 Y-0.4864
X-2.4788 Y-0.4769
G2 X-2.4874 Y-0.4381 I0.3671 J0.1023
X-2.4946 Y-0.3789 I0.6412 J0.1079
X-2.4986 Y-0.2994 I1.4497 J0.1131
X-2.5003 Y-0.1901 I4.5442 J0.1234
X-2.5008 Y-0.021 I22.8243 J0.1456
G1 X-2.4998 Y-0.0111
X-2.4974 Y-0.0015
X-2.4937 Y0.0077
X-2.4889 Y0.0164
X-2.4833 Y0.0246
X-2.4769 Y0.0322
X-2.4699 Y0.0393
X-2.4623 Y0.0458
X-2.4544 Y0.0517
X-2.4461 Y0.0572
X-2.4374 Y0.0621
X-2.4286 Y0.0666
X-2.4195 Y0.0707
X-2.4102 Y0.0743
X-2.4008 Y0.0776
X-2.3913 Y0.0805
G2 X-2.3526 Y0.0894 I0.1025 J-0.3572
X-2.3033 Y0.096 I0.1035 J-0.5921
X-2.2239 Y0.1007 I0.1144 J-1.2598
X-2.1245 Y0.1025 I0.1186 J-3.6614
X-1.9555 Y0.1031 I0.148 J-17.9507
G1 X-1.9157 Y0.1032
X-1.866
X-1.7864
X-1.5975
X-1.1103
X-1.1003
G2 X-1.001 Y0.1059 I0.1211 J-2.671
X-0.8617 Y0.1067 I0.1327 J-11.1927
G1 X-0.8419
X-0.812
X-0.7723 Y0.1068
X-0.7225
X-0.643
X-0.4342
X-0.0265
X-0.0166 Y0.1066
X-0.0068 Y0.1049
X0.0027 Y0.1018
X0.0117 Y0.0975
X0.0201 Y0.0924
X0.0281 Y0.0864
X0.0355 Y0.0797
X0.0423 Y0.0725
X0.0486 Y0.0648
X0.0543 Y0.0566
X0.0596 Y0.0482
X0.0643 Y0.0395
X0.0686 Y0.0305
X0.0725 Y0.0213
X0.076 Y0.012
X0.0791 Y0.0026
X0.0819 Y-0.0069
G2 X0.0903 Y-0.0458 I-0.3707 J-0.1005
X0.0972 Y-0.105 I-0.653 J-0.1058
X0.1009 Y-0.1845 I-1.5069 J-0.1107
X0.1024 Y-0.2939 I-4.8876 J-0.1208
X0.1027 Y-0.3734 I-12.8973 J-0.0884
G1 X0.1021 Y-0.3833
X0.1 Y-0.3931
X0.0966 Y-0.4024
X0.0921 Y-0.4113
X0.0868 Y-0.4196
X0.0806 Y-0.4275
X0.0738 Y-0.4347
X0.0665 Y-0.4414
X0.0587 Y-0.4476
X0.0505 Y-0.4532
X0.042 Y-0.4583
X0.0332 Y-0.463
X0.0242 Y-0.4672
X0.015 Y-0.471
X0.0056 Y-0.4744
X-0.0038 Y-0.4774
X-0.0134 Y-0.4802
G2 X-0.0523 Y-0.4883 I-0.1004 J0.3805
X-0.1116 Y-0.495 I-0.1057 J0.6711
X-0.191 Y-0.4987 I-0.1107 J1.5513
X-0.3004 Y-0.5001 I-0.121 J5.0377
X-0.4694 Y-0.5005 I-0.1514 J28.6789
G1 X-0.5192
X-0.5987
X-0.8075
X-2.1598
X-2.3189
X-2.3288 Y-0.4997
X-2.3386 Y-0.4977
X-2.348 Y-0.4947
X-2.3571 Y-0.4906
X-2.3658 Y-0.4857
X-2.3739 Y-0.4801
X-2.3816 Y-0.4738
X-2.3889 Y-0.4669
X-2.3956 Y-0.4596
X-2.4018 Y-0.4518
X-2.4075 Y-0.4437
X-2.4128 Y-0.4353
X-2.4176 Y-0.4266
X-2.422 Y-0.4177
X-2.4261 Y-0.4086
X-2.4297 Y-0.3993
X-2.433 Y-0.39
X-2.436 Y-0.3805
G2 X-2.4453 Y-0.3418 I0.3702 J0.109
X-2.4533 Y-0.2827 I0.6172 J0.1139
X-2.458 Y-0.2033 I1.3134 J0.1183
X-2.46 Y-0.1039 I3.6211 J0.1226
G1 X-2.4598 Y-0.094
X-2.4588 Y-0.0841
X-2.4568 Y-0.0743
X-2.454 Y-0.0648
X-2.4503 Y-0.0556
X-2.4459 Y-0.0466
X-2.4408 Y-0.0381
X-2.4351 Y-0.03
X-2.4288 Y-0.0223
X-2.422 Y-0.015
X-2.4148 Y-0.0082
X-2.4071 Y-0.0019
X-2.3991 Y0.004
X-2.3908 Y0.0095
X-2.3823 Y0.0146
X-2.3735 Y0.0192
X-2.3645 Y0.0235
X-2.3554 Y0.0274
X-2.3461 Y0.031
X-2.3367 Y0.0343
G2 X-2.2983 Y0.0446 I0.1155 J-0.3541
X-2.2493 Y0.0527 I0.1151 J-0.5432
X-2.17 Y0.0591 I0.1242 J-1.0395
X-2.0805 Y0.0618 I0.1216 J-2.5267
X-1.9513 Y0.0629 I0.1373 J-8.6645
G1 X-1.7922 Y0.0632
X-1.7325
X-1.6331
X-1.295
X-1.1856
G3 X-1.116 Y0.0639 I0.0085 J2.8395
G2 X-0.8575 Y0.0665 I0.2689 J-13.5081
X-0.7183 Y0.0668 I0.1352 J-39.3682
G1 X-0.6686
X-0.5891
X-0.43
X-0.1018
X-0.0919 Y0.0664
X-0.082 Y0.0651
X-0.0723 Y0.0629
X-0.0629 Y0.0599
X-0.0537 Y0.0561
X-0.0448 Y0.0516
X-0.0364 Y0.0463
X-0.0283 Y0.0405
X-0.0207 Y0.0341
X-0.0136 Y0.0272
X-0.0069 Y0.0198
X-0.0006 Y0.0121
X0.0052 Y0.004
X0.0106 Y-0.0043
X0.0156 Y-0.0129
X0.0201 Y-0.0218
X0.0243 Y-0.0308
X0.0282 Y-0.0399
X0.0317 Y-0.0492
X0.0349 Y-0.0587
G2 X0.0449 Y-0.0971 I-0.3603 J-0.1146
X0.0539 Y-0.1561 I-0.5796 J-0.1185
X0.0594 Y-0.2354 I-1.1778 J-0.1218
X0.0612 Y-0.2951 I-2.3929 J-0.102
G1 X0.061 Y-0.305
X0.0598 Y-0.3149
X0.0578 Y-0.3246
X0.0548 Y-0.3341
X0.0511 Y-0.3433
X0.0467 Y-0.3522
X0.0415 Y-0.3607
X0.0357 Y-0.3688
X0.0294 Y-0.3764
X0.0225 Y-0.3836
X0.0152 Y-0.3904
X0.0075 Y-0.3967
X-0.0005 Y-0.4025
X-0.0089 Y-0.408
X-0.0175 Y-0.413
X-0.0263 Y-0.4176
X-0.0353 Y-0.4218
X-0.0444 Y-0.4257
X-0.0537 Y-0.4292
X-0.0632 Y-0.4324
G2 X-0.1016 Y-0.4425 I-0.1145 J0.3578
X-0.1606 Y-0.4515 I-0.1185 J0.5758
X-0.2399 Y-0.4571 I-0.1217 J1.1704
X-0.3095 Y-0.4591 I-0.1084 J2.5661
X-0.4586 Y-0.4603 I-0.1483 J9.2549
X-0.5978 Y-0.4605 I-0.128 J37.4804
G1 X-0.6575
X-0.7569
X-1.1049
X-2.2385
X-2.2484
X-2.2583 Y-0.4598
X-2.2682 Y-0.4584
X-2.2779 Y-0.4562
X-2.2874 Y-0.4532
X-2.2966 Y-0.4495
X-2.3055 Y-0.4451
X-2.3141 Y-0.44
X-2.3222 Y-0.4344
X-2.33 Y-0.4282
X-2.3373 Y-0.4215
X-2.3443 Y-0.4143
X-2.3508 Y-0.4068
X-2.3568 Y-0.3989
X-2.3625 Y-0.3908
X-2.3677 Y-0.3823
X-2.3726 Y-0.3736
X-2.3771 Y-0.3648
X-2.3812 Y-0.3557
X-2.385 Y-0.3465
X-2.3885 Y-0.3372
G2 X-2.3996 Y-0.299 I0.3424 J0.1202
X-2.4085 Y-0.2501 I0.5151 J0.1196
X-2.4153 Y-0.1809 I0.9124 J0.1237
G1 X-2.4159 Y-0.171
X-2.4161 Y-0.161
X-2.4158 Y-0.1511
X-2.4148 Y-0.1412
X-2.413 Y-0.1314
X-2.4106 Y-0.1218
X-2.4073 Y-0.1124
X-2.4034 Y-0.1032
X-2.3989 Y-0.0944
X-2.3937 Y-0.0859
X-2.388 Y-0.0778
X-2.3817 Y-0.07
X-2.375 Y-0.0627
X-2.3678 Y-0.0558
X-2.3603 Y-0.0493
X-2.3525 Y-0.0432
X-2.3443 Y-0.0375
X-2.3359 Y-0.0322
X-2.3272 Y-0.0273
X-2.3184 Y-0.0228
X-2.3094 Y-0.0186
X-2.3002 Y-0.0147
X-2.2909 Y-0.0111
G2 X-2.2529 Y0.0003 I0.1239 J-0.3425
X-2.2041 Y0.0097 I0.123 J-0.507
X-2.1349 Y0.017 I0.1269 J-0.8797
X-2.0455 Y0.021 I0.1302 J-1.9139
X-1.9162 Y0.0227 I0.1438 J-5.892
X-1.7174 Y0.0232 I0.1774 J-32.6723
G1 X-1.6676
X-1.5881
X-1.4191
X-1.2301
G3 X-1.1108 Y0.0242 I-0.0073 J7.8917
G2 X-0.8821 Y0.0264 I0.3209 J-21.9981
G1 X-0.7032 Y0.0267
X-0.6534 Y0.0268
X-0.5938
X-0.4943
X-0.2656
X-0.1762
X-0.1662
X-0.1563 Y0.0264
X-0.1464 Y0.0255
X-0.1366 Y0.0238
X-0.1269 Y0.0216
X-0.1174 Y0.0186
X-0.1082 Y0.0149
X-0.0992 Y0.0106
X-0.0906 Y0.0057
X-0.0823 Y0.0002
X-0.0744 Y-0.0059
X-0.0669 Y-0.0124
X-0.0598 Y-0.0193
X-0.0531 Y-0.0267
X-0.0468 Y-0.0344
X-0.0409 Y-0.0424
X-0.0354 Y-0.0507
X-0.0303 Y-0.0592
X-0.0255 Y-0.068
X-0.0211 Y-0.0769
X-0.0171 Y-0.086
X-0.0134 Y-0.0952
X-0.01 Y-0.1045
G2 X0.001 Y-0.1427 I-0.3575 J-0.1236
X0.0114 Y-0.2015 I-0.5502 J-0.1269
G1 X0.0126 Y-0.2113
X0.0136 Y-0.2212
X0.0145 Y-0.2311
X0.0148 Y-0.2411
X0.0144 Y-0.251
X0.0132 Y-0.2609
X0.0113 Y-0.2706
X0.0086 Y-0.2802
X0.0051 Y-0.2895
X0.001 Y-0.2986
X-0.0038 Y-0.3073
X-0.0092 Y-0.3156
X-0.0151 Y-0.3236
X-0.0216 Y-0.3312
X-0.0285 Y-0.3383
X-0.0358 Y-0.3451
X-0.0435 Y-0.3514
X-0.0515 Y-0.3573
X-0.0597 Y-0.3628
X-0.0683 Y-0.3679
X-0.077 Y-0.3727
X-0.0859 Y-0.377
X-0.095 Y-0.3811
X-0.1042 Y-0.3848
X-0.1136 Y-0.3882
G2 X-0.1518 Y-0.3991 I-0.1224 J0.3562
X-0.2106 Y-0.4093 I-0.126 J0.5524
X-0.2898 Y-0.4159 I-0.1288 J1.0607
X-0.3793 Y-0.4189 I-0.1263 J2.4627
X-0.5185 Y-0.4202 I-0.1471 J8.3301
X-0.6775 Y-0.4205 I-0.1504 J38.812
G1 X-0.7273
X-0.7969
X-0.956
X-2.1691
X-2.179
X-2.1889 Y-0.4203
X-2.1989 Y-0.4197
X-2.2087 Y-0.4185
X-2.2185 Y-0.4167
X-2.2281 Y-0.4142
X-2.2376 Y-0.4111
X-2.2468 Y-0.4073
X-2.2557 Y-0.403
X-2.2643 Y-0.398
X-2.2726 Y-0.3925
X-2.2805 Y-0.3864
X-2.288 Y-0.3799
X-2.2952 Y-0.373
X-2.3019 Y-0.3657
X-2.3082 Y-0.358
X-2.3142 Y-0.3501
X-2.3198 Y-0.3418
X-2.3249 Y-0.3333
X-2.3298 Y-0.3246
X-2.3342 Y-0.3158
X-2.3384 Y-0.3067
X-2.3422 Y-0.2975
X-2.3457 Y-0.2883
G2 X-2.3572 Y-0.2502 I0.3545 J0.1272
G1 X-2.3594 Y-0.2405
X-2.3614 Y-0.2307
X-2.3629 Y-0.2209
X-2.3638 Y-0.211
X-2.3641 Y-0.2011
X-2.3636 Y-0.1911
X-2.3623 Y-0.1813
X-2.3603 Y-0.1715
X-2.3576 Y-0.162
X-2.3541 Y-0.1527
X-2.35 Y-0.1436
X-2.3452 Y-0.1349
X-2.3399 Y-0.1265
X-2.334 Y-0.1185
X-2.3276 Y-0.1109
X-2.3208 Y-0.1037
X-2.3135 Y-0.0969
X-2.3059 Y-0.0904
X-2.298 Y-0.0844
X-2.2898 Y-0.0788
X-2.2814 Y-0.0735
X-2.2727 Y-0.0687
X-2.2638 Y-0.0641
X-2.2548 Y-0.0599
X-2.2457 Y-0.0561
X-2.2364 Y-0.0525
G2 X-2.1984 Y-0.0409 I0.1274 J-0.3507
G1 X-2.1887 Y-0.0386
X-2.179 Y-0.0365
G2 X-2.1101 Y-0.0263 I0.134 J-0.6677
X-2.0308 Y-0.0208 I0.131 J-1.3106
X-1.9215 Y-0.018 I0.1403 J-3.3046
X-1.7723 Y-0.017 I0.1517 J-11.8254
X-1.653 Y-0.0168 I0.1207 J-38.3877
G1 X-1.6033
X-1.5337
X-1.4044
X-1.2851
G3 X-1.126 Y-0.0158 I0.0004 J13.166
G1 X-1.0663 Y-0.0152
G2 X-0.7183 Y-0.0133 I0.3367 J-31.2886
G1 X-0.6786
X-0.6288 Y-0.0132
X-0.5692
X-0.4797
X-0.3106
X-0.241
X-0.2311
X-0.2212 Y-0.0134
X-0.2112 Y-0.0138
X-0.2013 Y-0.0147
X-0.1915 Y-0.0162
X-0.1818 Y-0.0182
X-0.1722 Y-0.0208
X-0.1628 Y-0.0241
X-0.1536 Y-0.028
X-0.1447 Y-0.0324
X-0.1362 Y-0.0375
X-0.1279 Y-0.043
X-0.12 Y-0.0491
X-0.1125 Y-0.0556
X-0.1053 Y-0.0625
X-0.0986 Y-0.0698
X-0.0922 Y-0.0774
X-0.0862 Y-0.0853
X-0.0806 Y-0.0935
X-0.0753 Y-0.1019
X-0.0704 Y-0.1106
X-0.0658 Y-0.1194
X-0.0616 Y-0.1284
X-0.0577 Y-0.1376
X-0.0541 Y-0.1468
X-0.0508 Y-0.1562
X-0.0478 Y-0.1657
X-0.0454 Y-0.1754
X-0.0437 Y-0.1852
X-0.0427 Y-0.1951
X-0.0426 Y-0.205
X-0.0433 Y-0.2149
X-0.0448 Y-0.2247
X-0.0472 Y-0.2344
X-0.0503 Y-0.2438
X-0.0542 Y-0.253
X-0.0587 Y-0.2619
X-0.0638 Y-0.2704
X-0.0696 Y-0.2785
X-0.0758 Y-0.2862
X-0.0826 Y-0.2935
X-0.0897 Y-0.3004
X-0.0972 Y-0.3069
X-0.1051 Y-0.313
X-0.1133 Y-0.3187
X-0.1217 Y-0.324
X-0.1303 Y-0.3289
X-0.1391 Y-0.3335
X-0.1481 Y-0.3377
X-0.1573 Y-0.3416
X-0.1666 Y-0.3452
G2 X-0.2046 Y-0.3567 I-0.1257 J0.3452
X-0.2534 Y-0.3663 I-0.1254 J0.5097
X-0.3226 Y-0.3738 I-0.1295 J0.875
X-0.4119 Y-0.378 I-0.133 J1.8665
X-0.5412 Y-0.3799 I-0.1467 J5.5629
X-0.75 Y-0.3805 I-0.186 J30.8306
G1 X-0.7997
X-0.8793
X-1.0284
X-1.6549
X-2.1023
X-2.1122
X-2.1222
X-2.1321 Y-0.3803
X-2.1421 Y-0.3798
X-2.152 Y-0.3788
X-2.1618 Y-0.3774
X-2.1715 Y-0.3754
X-2.1811 Y-0.3728
X-2.1906 Y-0.3696
X-2.1998 Y-0.3658
X-2.2087 Y-0.3615
X-2.2173 Y-0.3565
X-2.2257 Y-0.3511
X-2.2337 Y-0.3452
X-2.2413 Y-0.3388
X-2.2485 Y-0.332
X-2.2554 Y-0.3249
X-2.262 Y-0.3173
X-2.2681 Y-0.3095
X-2.2739 Y-0.3014
X-2.2792 Y-0.293
X-2.2841 Y-0.2844
X-2.2884 Y-0.2754
X-2.2919 Y-0.2661
X-2.2946 Y-0.2565
X-2.2964 Y-0.2468
X-2.2973 Y-0.2369
X-2.2972 Y-0.2269
X-2.2962 Y-0.217
X-2.2944 Y-0.2073
X-2.2917 Y-0.1977
X-2.2882 Y-0.1884
X-2.284 Y-0.1794
X-2.2791 Y-0.1707
X-2.2736 Y-0.1624
X-2.2675 Y-0.1545
X-2.261 Y-0.1471
X-2.254 Y-0.14
X-2.2466 Y-0.1333
X-2.2389 Y-0.1271
X-2.2308 Y-0.1213
X-2.2225 Y-0.1158
X-2.2139 Y-0.1108
X-2.2052 Y-0.1061
X-2.1962 Y-0.1017
X-2.1871 Y-0.0977
X-2.1779 Y-0.094
G2 X-2.14 Y-0.0821 I0.1272 J-0.3366
X-2.0913 Y-0.0721 I0.1272 J-0.4964
X-2.0221 Y-0.0642 I0.1317 J-0.8462
X-1.9328 Y-0.0596 I0.1356 J-1.7808
X-1.8135 Y-0.0576 I0.1444 J-4.9214
X-1.6246 Y-0.0569 I0.1699 J-21.4163
G1 X-1.5848 Y-0.0568
X-1.5351
X-1.4655
X-1.3362
G3 X-1.1274 Y-0.0557 I0.0089 J18.8804
G1 X-1.0677 Y-0.0552
G2 X-0.6998 Y-0.0534 I0.3713 J-38.2991
G1 X-0.6601 Y-0.0533
X-0.6103 Y-0.0532
X-0.5507
X-0.4711
X-0.3419
X-0.3021
X-0.2922
X-0.2822 Y-0.0533
X-0.2723 Y-0.0535
X-0.2623 Y-0.054
X-0.2524 Y-0.0549
X-0.2426 Y-0.0562
X-0.2328 Y-0.0581
X-0.2232 Y-0.0605
X-0.2137 Y-0.0635
X-0.2044 Y-0.0671
X-0.1954 Y-0.0713
X-0.1866 Y-0.076
X-0.1782 Y-0.0812
X-0.17 Y-0.0869
X-0.1622 Y-0.0931
X-0.1548 Y-0.0996
X-0.1477 Y-0.1066
X-0.1411 Y-0.114
X-0.135 Y-0.1219
X-0.1298 Y-0.1304
X-0.1255 Y-0.1394
X-0.1223 Y-0.1488
X-0.1201 Y-0.1585
X-0.119 Y-0.1684
Y-0.1783
X-0.12 Y-0.1882
X-0.122 Y-0.1979
X-0.1249 Y-0.2075
X-0.1286 Y-0.2167
X-0.133 Y-0.2256
X-0.1382 Y-0.2341
X-0.1439 Y-0.2422
X-0.1502 Y-0.2499
X-0.1571 Y-0.2571
X-0.1643 Y-0.2639
X-0.1719 Y-0.2703
X-0.1799 Y-0.2763
X-0.1881 Y-0.2818
X-0.1966 Y-0.287
X-0.2054 Y-0.2917
X-0.2143 Y-0.2961
X-0.2234 Y-0.3002
X-0.2326 Y-0.3039
X-0.2419 Y-0.3073
G2 X-0.2801 Y-0.3183 I-0.1232 J0.357
X-0.3389 Y-0.3286 I-0.1278 J0.5561
X-0.4181 Y-0.3355 I-0.1319 J1.0642
X-0.5075 Y-0.3386 I-0.1305 J2.4172
X-0.6567 Y-0.3401 I-0.1572 J8.1548
X-0.8158 Y-0.3405 I-0.1528 J35.4704
G1 X-0.8655
X-0.9351
X-0.945
X-0.955
G3 X-1.0569 Y-0.3379 I-0.123 J-2.7614
X-1.1961 Y-0.3371 I-0.1337 J-11.62
G1 X-1.216 Y-0.337
X-1.2458
X-1.2856
X-1.3353 Y-0.3369
X-1.4149
X-1.6038
X-2.0413
G2 X-2.0811 Y-0.3365 I-0.0078 J1.1261
G1 X-2.091 Y-0.3359
X-2.1009 Y-0.335
X-2.1107 Y-0.3336
X-2.1205 Y-0.3316
X-2.1301 Y-0.3291
X-2.1396 Y-0.3261
X-2.1488 Y-0.3225
X-2.1578 Y-0.3183
X-2.1665 Y-0.3135
X-2.1747 Y-0.3077
X-2.1819 Y-0.3009
X-2.188 Y-0.293
X-2.1929 Y-0.2844
X-2.1964 Y-0.2751
X-2.1985 Y-0.2654
X-2.1992 Y-0.2554
X-2.1991 Y-0.2542
X-2.1981 Y-0.2443
X-2.196 Y-0.2346
X-2.1929 Y-0.2251
X-2.189 Y-0.216
X-2.1842 Y-0.2073
X-2.1787 Y-0.199
X-2.1727 Y-0.1911
X-2.166 Y-0.1837
X-2.1589 Y-0.1768
X-2.1514 Y-0.1703
X-2.1435 Y-0.1642
X-2.1353 Y-0.1586
X-2.1268 Y-0.1534
X-2.1181 Y-0.1487
X-2.1091 Y-0.1442
X-2.1001 Y-0.1402
X-2.0908 Y-0.1365
X-2.0815 Y-0.1331
G2 X-2.0433 Y-0.1222 I0.121 J-0.3532
X-1.9845 Y-0.1121 I0.1267 J-0.5593
X-1.9052 Y-0.1054 I0.1315 J-1.0837
X-1.8158 Y-0.1023 I0.1308 J-2.4796
X-1.6667 Y-0.1008 I0.1583 J-8.3456
X-1.5871 Y-0.1005 I0.0914 J-16.9241
G1 X-1.5573
X-1.5275
X-1.4877 Y-0.1004
X-1.428
X-1.3684
G3 X-1.1297 Y-0.0993 I0.0009 J25.4432
G1 X-1.0601 Y-0.0987
X-0.9176 Y-0.0977
X-0.7751 Y-0.0971
X-0.6326 Y-0.0969
X-0.5829
X-0.5232 Y-0.0968
X-0.4436
X-0.3641
G2 X-0.3243 Y-0.0972 I0.0071 J-1.3207
G1 X-0.3144 Y-0.0977
X-0.3045 Y-0.0985
X-0.2946 Y-0.0997
X-0.2848 Y-0.1014
X-0.2751 Y-0.1037
X-0.2656 Y-0.1065
X-0.2566 Y-0.1106
X-0.2483 Y-0.1161
X-0.2408 Y-0.1227
X-0.2345 Y-0.1304
X-0.2293 Y-0.1389
X-0.2255 Y-0.1481
X-0.2231 Y-0.1577
X-0.2221 Y-0.1676
X-0.2226 Y-0.1775
X-0.2245 Y-0.1873
X-0.2279 Y-0.1966
X-0.2326 Y-0.2054
X-0.2386 Y-0.2133
X-0.2456 Y-0.2203
X-0.2532 Y-0.2268
X-0.2611 Y-0.2328
X-0.2693 Y-0.2385
X-0.2778 Y-0.2437
X-0.2865 Y-0.2485
X-0.2954 Y-0.2529
X-0.3045 Y-0.2569
X-0.3137 Y-0.2607
X-0.323 Y-0.2641
G2 X-0.3612 Y-0.275 I-0.1213 J0.3522
X-0.42 Y-0.2852 I-0.1268 J0.5563
X-0.4992 Y-0.2919 I-0.1314 J1.0761
X-0.5887 Y-0.295 I-0.1304 J2.4616
X-0.7378 Y-0.2965 I-0.1577 J8.3201
X-0.8969 Y-0.2968 I-0.1228 J25.4268
X-1.0063 Y-0.295 I0.3331 J24.0995
G3 X-1.235 Y-0.2935 I-0.2292 J-17.2791
G1 X-1.2648 Y-0.2934
X-1.2946
X-1.3344
X-1.3841
X-1.4537 Y-0.2933
X-1.583
X-1.9804
G2 X-2.0124 Y-0.2932 I-0.0058 J3.055
G1 X-2.0246 Y-0.298 Z0.2536
X-2.0308 Y-0.312 Z0.2577
X-2.0304 Y-0.3129 Z0.258
X-2.0302 Y-0.3133
X-2.0245 Y-0.326 F200.
X-1.9206 Y-0.4046
G3 X-1.9123 Y-0.4103 I0.0593 J0.0785
G1 X-1.9122
G3 X-1.8615 Y-0.4245 I0.0509 J0.0842
G1 X-0.478 Y-0.3934
G3 X-0.3992 Y-0.3542 I0.0001 J0.0984
G1 X-0.3991 Y-0.3541
G3 X-0.3804 Y-0.3088 I-0.0787 J0.0591
G1 X-0.3803 Y-0.3084 F50.
G3 X-0.3807 Y-0.2791 Z0.25 I-0.0975 J0.0134
G1 X-0.3813 Y-0.2761
G3 X-0.3964 Y-0.2688 I-0.0373 J-0.0585
X-0.4193 Y-0.2625 I-0.052 J-0.1433
X-0.4549 Y-0.2572 I-0.0635 J-0.3075
X-0.4996 Y-0.2542 I-0.067 J-0.6652
X-0.5763 Y-0.2528 I-0.0753 J-1.9444
X-0.6559 Y-0.2527 I-0.0426 J-8.7673
G1 X-0.7354 Y-0.253
G2 X-0.8647 Y-0.2531 I-0.0766 J18.1411
X-1.0238 Y-0.2512 I0.2995 J33.0975
G3 X-1.322 Y-0.2499 I-0.285 J-29.561
G1 X-1.3618 Y-0.2498
X-1.4115
X-1.4811 Y-0.2497
X-1.5806
X-1.8192
X-1.832
G3 X-1.8499 Y-0.2706 I0.0007 J-0.0187
G1 X-1.8496 Y-0.2738 Z0.2503
X-1.8492 Y-0.277 Z0.2511
X-1.8489 Y-0.2799 Z0.2525
X-1.8486 Y-0.2826 Z0.2544
X-1.8483 Y-0.2849 Z0.2567
X-1.8481 Y-0.2867 Z0.2594
X-1.8479 Y-0.2881 Z0.2623
X-1.8478 Y-0.2889 Z0.2655
Y-0.2892 Z0.2688
G0 Z0.6
(ADAPTIVE3 3)
S5000 M3
G64 P0.004 Q0.004
G0 Z1.
X-2.1554 Y-0.1969
Z0.3088
G1 Z0.29 F40.
Z0.15 F13.333
X-2.1551 Y-0.1938 F40.
X-2.1563 Y-0.1929
X-2.1578 Y-0.1932
X-2.159 Y-0.1941
X-2.1601 Y-0.1951
X-2.1606 Y-0.1965
X-2.1605 Y-0.198
X-2.1599 Y-0.1993
X-2.1578 Y-0.2015
X-2.1564 Y-0.202
X-2.1534 Y-0.2015
X-2.1511 Y-0.1995
X-2.1504 Y-0.1982
X-2.1502 Y-0.1967
X-2.1505 Y-0.1953
X-2.1521 Y-0.1927
X-2.1534 Y-0.1919
X-2.1548 Y-0.1914
X-2.1578 Y-0.1911
X-2.1605 Y-0.1923
X-2.1623 Y-0.1947
X-2.1628 Y-0.1977
X-2.1619 Y-0.2005
X-2.16 Y-0.2028
X-2.1572 Y-0.204
X-2.1542 Y-0.2041
X-2.1514 Y-0.203
X-2.1492 Y-0.201
X-2.148 Y-0.1982
X-2.1481 Y-0.1952
X-2.1492 Y-0.1925
X-2.1513 Y-0.1903
X-2.154 Y-0.1889
X-2.1569 Y-0.1885
X-2.1599 Y-0.1891
X-2.1625 Y-0.1906
X-2.1643 Y-0.193
X-2.1652 Y-0.1959
Y-0.1989
X-2.1643 Y-0.2017
X-2.1625 Y-0.2041
X-2.16 Y-0.2058
X-2.1572 Y-0.2068
X-2.1542 Y-0.2069
X-2.1513 Y-0.2061
X-2.1487 Y-0.2045
X-2.1468 Y-0.2023
X-2.1455 Y-0.1995
X-2.1452 Y-0.1966
X-2.1457 Y-0.1936
X-2.1469 Y-0.1909
X-2.1488 Y-0.1886
X-2.1512 Y-0.1868
X-2.1541 Y-0.1858
X-2.157 Y-0.1855
X-2.16 Y-0.1859
X-2.1628 Y-0.1872
X-2.1651 Y-0.1891
X-2.1668 Y-0.1915
X-2.168 Y-0.1943
X-2.1684 Y-0.1973
X-2.1681 Y-0.2002
X-2.166 Y-0.2059
X-2.1614 Y-0.2098
X-2.1556 Y-0.2112
X-2.1497 Y-0.2102
X-2.1448 Y-0.2068
X-2.1416 Y-0.2017
X-2.1408 Y-0.1957
X-2.1423 Y-0.1899
X-2.1458 Y-0.1851
X-2.1509 Y-0.1819
X-2.1569 Y-0.1809
X-2.1627 Y-0.1821
X-2.1678 Y-0.1853
X-2.1714 Y-0.1901
X-2.173 Y-0.1959
X-2.1728 Y-0.2019
X-2.1706 Y-0.2074
X-2.1666 Y-0.2119
X-2.1614 Y-0.215
X-2.1555 Y-0.2161
X-2.1496 Y-0.2153
G3 X-2.1374 Y-0.1884 I-0.0066 J0.0192
X-2.1649 Y-0.1777 I-0.0188 J-0.0077
X-2.152 Y-0.2211 I0.0092 J-0.0209
X-2.157 Y-0.1703 I-0.0037 J0.0253
X-2.1764 Y-0.2183 I0.0003 J-0.028
X-2.1258 Y-0.1858 I0.022 J0.0214
X-2.1905 Y-0.1929 I-0.0316 J-0.0109
X-2.1224 Y-0.2157 I0.0361 J-0.0054
X-2.1797 Y-0.1634 I-0.0342 J0.0201
X-2.1513 Y-0.2417 I0.0239 J-0.0356
X-2.129 Y-0.1576 I-0.0035 J0.046
X-2.2036 Y-0.2154 I-0.0285 J-0.0403
X-2.1021 Y-0.2076 I0.0497 J0.0176
X-2.1919 Y-0.1516 I-0.0549 J0.0119
X-2.1489 Y-0.2588 I0.0362 J-0.0477
X-2.119 Y-0.143 I-0.0057 J0.0632
X-2.1924 Y-0.1404 I-0.0385 J-0.0523
X-2.119 Y-0.2583 I0.0376 J-0.0584
X-2.1443 Y-0.1229 I-0.0365 J0.0632
X-2.2299 Y-0.2206 I-0.0133 J-0.0747
X-2.0819 Y-0.2317 I0.0761 J0.0225
X-2.2015 Y-0.1247 I-0.075 J0.0365
X-2.1482 Y-0.2865 I0.046 J-0.0745
X-2.0906 Y-0.1302 I-0.0061 J0.091
X-2.2515 Y-0.1832 I-0.0673 J-0.0664
X-2.0903 Y-0.2739 I0.0973 J-0.0156
X-2.0576 Y-0.1658 I-0.063 J0.0781
X-2.257 Y-0.1629 I-0.1002 J-0.0306
X-2.1007 Y-0.2936 I0.1025 J-0.0362
X-2.1163 Y-0.0889 I-0.0544 J0.0988
X-2.2712 Y-0.2241 I-0.0415 J-0.1088
X-2.0601 Y-0.274 I0.1175 J0.0256
G1 X-2.0568 Y-0.2698
X-2.0546 Y-0.2667
X-2.0536 Y-0.2653
G3 X-2.0434 Y-0.247 I-0.0784 J0.0557
G1 X-2.0425 Y-0.2439 Z0.1509
X-2.0422 Y-0.2406 Z0.1518
X-2.0425 Y-0.2374 Z0.1527
X-2.0434 Y-0.2342 Z0.1536
X-2.0447 Y-0.2312 Z0.1544
X-2.0466 Y-0.2285 Z0.1553
X-2.0489 Y-0.2262 Z0.1562
X-2.0516 Y-0.2244 Z0.1571
X-2.0546 Y-0.223 Z0.158
X-2.0549 Y-0.2228
G3 X-2.0774 Y-0.2315 I-0.0061 J-0.0177 F110.
G1 X-2.0848 Y-0.2447
G3 X-2.0802 Y-0.2684 I0.0164 J-0.0091
G1 X-2.0799 Y-0.2686 F40.
G3 X-2.0536 Y-0.2653 Z0.15 I0.0115 J0.0148
X-2.0417 Y-0.2429 I-0.0496 J0.0406
G1 X-2.0402 Y-0.239
X-2.0396 Y-0.2373
X-2.039 Y-0.2358
G3 X-2.0341 Y-0.2156 I-0.0988 J0.0348
X-2.0509 Y-0.1952 Z0.158 I-0.0187 J0.0018
G1 X-2.0514 Y-0.1951
G3 X-2.071 Y-0.2095 I-0.0014 J-0.0187 F110.
G1 X-2.0745 Y-0.2241
G3 X-2.064 Y-0.2456 I0.0182 J-0.0044
G1 X-2.0636 Y-0.2458 F40.
G3 X-2.039 Y-0.2358 Z0.15 I0.0073 J0.0173
X-2.0332 Y-0.2075 I-0.0829 J0.0319
G1 X-2.0329 Y-0.2036
X-2.0327 Y-0.2018
G3 X-2.0329 Y-0.1868 I-0.0783 J0.0064
X-2.0543 Y-0.1711 Z0.158 I-0.0185 J-0.0028
G1 X-2.0547 Y-0.1712
G3 X-2.0702 Y-0.1899 I0.0032 J-0.0185 F110.
G1 X-2.0701 Y-0.1999
G3 X-2.0539 Y-0.2183 I0.0187 J0.0002
G1 X-2.0535 F40.
G3 X-2.0327 Y-0.2018 Z0.15 I0.0021 J0.0186
X-2.0354 Y-0.1721 I-0.0932 J0.0067
X-2.0417 Y-0.1508 I-0.0531 J-0.0043
X-2.0578 Y-0.1224 I-0.0854 J-0.0295
X-2.0784 Y-0.1011 I-0.0754 J-0.0523
X-2.1064 Y-0.0836 I-0.0776 J-0.0929
G1 X-2.1207 Y-0.0789
X-2.1278 Y-0.0766
G3 X-2.1634 Y-0.0738 I-0.0325 J-0.1804
X-2.199 Y-0.0816 I0.017 J-0.1624
X-2.2479 Y-0.1153 I0.0479 J-0.1219
X-2.2762 Y-0.172 I0.0982 J-0.0845
X-2.2782 Y-0.2075 I0.1553 J-0.0266
X-2.2559 Y-0.2681 I0.1259 J0.012
X-2.2061 Y-0.3092 I0.1043 J0.0757
X-2.0597 Y-0.2743 I0.0503 J0.1133
G1 X-2.0583 Y-0.2717
X-2.0573 Y-0.269
X-2.0568 Y-0.2662
X-2.0566 Y-0.2633
Y-0.2626
X-2.0573 Y-0.2601 Z0.1502
X-2.0579 Y-0.2576 Z0.1507
X-2.0585 Y-0.2552 Z0.1516
X-2.0602 Y-0.2529 Z0.1533
X-2.0618 Y-0.2509 Z0.1554
X-2.0631 Y-0.2492 Z0.1579
X-2.0643 Y-0.2483 Z0.1604
X-2.0652 Y-0.2477 Z0.1631
X-2.0657 Y-0.2473 Z0.1659
X-2.0659 Y-0.2472 Z0.1687
G0 Z0.2088
X-2.1554 Y-0.1969
G1 Z0.19 F40.
Z0.05 F13.333
X-2.158 Y-0.199 F40.
X-2.1575 Y-0.2004
X-2.1561 Y-0.2011
X-2.1546 Y-0.2013
X-2.1532 Y-0.2009
X-2.1521 Y-0.1999
X-2.151 Y-0.1989
X-2.1503 Y-0.196
X-2.1507 Y-0.1945
X-2.1516 Y-0.1933
X-2.1541 Y-0.1917
X-2.1556 Y-0.1915
X-2.1585 Y-0.1922
X-2.1596 Y-0.1932
X-2.1608 Y-0.1959
X-2.1607 Y-0.1989
X-2.1593 Y-0.2016
X-2.1568 Y-0.2032
X-2.1538 Y-0.2034
X-2.151 Y-0.2022
X-2.149 Y-0.2
X-2.1481 Y-0.1971
X-2.1484 Y-0.1942
X-2.15 Y-0.1916
X-2.1524 Y-0.1898
X-2.1553 Y-0.1891
X-2.1583 Y-0.1895
X-2.1608 Y-0.1912
X-2.1625 Y-0.1936
X-2.1634 Y-0.1965
X-2.1632 Y-0.1994
X-2.162 Y-0.2022
X-2.1599 Y-0.2044
X-2.1572 Y-0.2057
X-2.1542 Y-0.206
X-2.1513 Y-0.2053
X-2.1487 Y-0.2037
X-2.1468 Y-0.2015
X-2.1456 Y-0.1987
X-2.1454 Y-0.1957
X-2.1461 Y-0.1928
X-2.1476 Y-0.1902
X-2.1498 Y-0.1881
X-2.1525 Y-0.1868
X-2.1554 Y-0.1863
X-2.1584 Y-0.1867
X-2.1611 Y-0.1879
X-2.1634 Y-0.1899
X-2.1651 Y-0.1923
X-2.1661 Y-0.1951
X-2.1664 Y-0.1981
X-2.1658 Y-0.2011
X-2.1645 Y-0.2038
X-2.1625 Y-0.2061
X-2.16 Y-0.2077
X-2.1572 Y-0.2087
X-2.1542 Y-0.209
X-2.1512 Y-0.2085
X-2.1485 Y-0.2073
X-2.1461 Y-0.2055
X-2.1423 Y-0.2008
X-2.1413 Y-0.1949
X-2.1431 Y-0.1892
X-2.1471 Y-0.1847
X-2.1526 Y-0.1823
X-2.1586 Y-0.1822
X-2.1641 Y-0.1846
X-2.1683 Y-0.1888
X-2.1706 Y-0.1944
X-2.1707 Y-0.2004
X-2.1685 Y-0.206
X-2.1644 Y-0.2104
X-2.1591 Y-0.213
X-2.1531 Y-0.2136
X-2.1473 Y-0.212
X-2.1422 Y-0.2088
X-2.1386 Y-0.204
X-2.1368 Y-0.1983
X-2.1369 Y-0.1923
X-2.139 Y-0.1866
G3 X-2.1679 Y-0.1811 I-0.0171 J-0.0107
X-2.1713 Y-0.2103 I0.0119 J-0.0162
X-2.1317 Y-0.1918 I0.0176 J0.0141
X-2.18 Y-0.1886 I-0.0245 J-0.0045
X-2.1319 Y-0.2139 I0.0259 J-0.009
X-2.1656 Y-0.1669 I-0.0233 J0.0188
X-2.1524 Y-0.2311 I0.0103 J-0.0313
X-2.1446 Y-0.1602 I-0.0017 J0.036
X-2.1769 Y-0.2315 I-0.0116 J-0.0377
X-2.112 Y-0.1861 I0.0236 J0.0353
X-2.2019 Y-0.1881 I-0.0448 J-0.01
X-2.1284 Y-0.2398 I0.0478 J-0.0101
X-2.1502 Y-0.1427 I-0.0263 J0.0451
X-2.1861 Y-0.2453 I-0.0061 J-0.0555
X-2.0957 Y-0.1807 I0.0331 J0.0493
X-2.2143 Y-0.1699 I-0.0611 J-0.0151
X-2.185 Y-0.2571 I0.0587 J-0.0288
X-2.1164 Y-0.1368 I0.0309 J0.0621
X-2.2266 Y-0.2191 I-0.0407 J-0.0605
X-2.1012 Y-0.2525 I0.0728 J0.0211
X-2.1573 Y-0.1152 I-0.0539 J0.0581
X-2.1939 Y-0.2729 I0.001 J-0.0833
X-2.0791 Y-0.1494 I0.0404 J0.0776
X-2.246 Y-0.175 I-0.0782 J-0.0468
X-2.118 Y-0.2859 I0.0915 J-0.0237
X-2.1227 Y-0.1011 I-0.0364 J0.0915
X-2.2324 Y-0.1284 I-0.0348 J-0.0941
X-2.1327 Y-0.3011 I0.0776 J-0.0704
X-2.1004 Y-0.0999 I-0.0214 J0.1066
X-2.2683 Y-0.2182 I-0.057 J-0.0973
X-2.0729 Y-0.282 I0.1147 J0.0201
X-2.1105 Y-0.0827 I-0.0818 J0.0878
G1 X-2.1136 Y-0.0814
X-2.1159 Y-0.0806
X-2.117 Y-0.0802
G3 X-2.1381 Y-0.0754 I-0.0325 J-0.0942
X-2.158 Y-0.0929 Z0.058 I-0.0012 J-0.0187
G1 Y-0.0933
G3 X-2.1434 Y-0.1124 I0.0187 J-0.0008 F110.
G1 X-2.1281 Y-0.1159
G3 X-2.1067 Y-0.105 I0.0041 J0.0183
G1 X-2.1065 Y-0.1046 F40.
G3 X-2.117 Y-0.0802 Z0.05 I-0.0174 J0.007
X-2.1459 Y-0.0747 I-0.0296 J-0.0769
G1 X-2.1477 Y-0.0745
X-2.1491 Y-0.0743
G3 X-2.1688 Y-0.0747 I-0.0081 J-0.0971
X-2.1842 Y-0.0963 Z0.058 I0.0031 J-0.0185
G1 Y-0.0967
G3 X-2.1654 Y-0.1119 I0.0184 J0.0035 F110.
G1 X-2.1513 Y-0.1117
G3 X-2.1331 Y-0.0958 I-0.0004 J0.0187
G1 Y-0.0954 F40.
G3 X-2.1491 Y-0.0743 Z0.05 I-0.0186 J0.0025
X-2.1814 Y-0.077 I-0.0094 J-0.0834
G1 X-2.1832 Y-0.0771
X-2.1847 Y-0.0774
X-2.1938 Y-0.0799
X-2.1957 Y-0.0805
X-2.1966 Y-0.0809
G3 X-2.2059 Y-0.1057 Z0.058 I0.0078 J-0.0171
G1 X-2.2057 Y-0.1061
G3 X-2.1834 Y-0.1159 I0.0169 J0.0081 F110.
G1 X-2.1766 Y-0.1139
G3 X-2.1634 Y-0.0937 I-0.0054 J0.018
G1 Y-0.0932 F40.
G3 X-2.1847 Y-0.0774 Z0.05 I-0.0186 J-0.0027
X-2.2103 Y-0.0871 I0.0198 J-0.0906
G1 X-2.2118 Y-0.0877
X-2.2131 Y-0.0882
G3 X-2.2251 Y-0.0954 I0.0342 J-0.071
X-2.2276 Y-0.1218 Z0.058 I0.0119 J-0.0145
G1 X-2.2273 Y-0.1221
G3 X-2.2036 Y-0.126 I0.0142 J0.0122 F110.
G1 X-2.1963 Y-0.1217
G3 X-2.1884 Y-0.0988 I-0.0096 J0.0161
G1 X-2.1886 Y-0.0984 F40.
G3 X-2.2131 Y-0.0882 Z0.05 I-0.0173 J-0.0072
X-2.2408 Y-0.1083 I0.0505 J-0.0988
X-2.2721 Y-0.1578 I0.0803 J-0.0854
X-2.2663 Y-0.2501 I0.1144 J-0.0391
X-2.2472 Y-0.2783 I0.0859 J0.0375
X-2.2272 Y-0.2963 I0.0579 J0.0442
X-2.1633 Y-0.3193 I0.0676 J0.0876
X-2.1279 Y-0.3164 I0.0106 J0.0905
X-2.1006 Y-0.3066 I-0.0123 J0.0768
X-2.0672 Y-0.2826 I-0.0459 J0.0993
X-2.1065 Y-0.0839 I-0.0885 J0.0857
G1 X-2.1104 Y-0.0826
G3 X-2.1224 Y-0.0827 I-0.0059 J-0.0178
G1 X-2.1246 Y-0.084 Z0.0502
X-2.1268 Y-0.0853 Z0.0507
X-2.1289 Y-0.0865 Z0.0516
X-2.1306 Y-0.0889 Z0.0533
X-2.1321 Y-0.0909 Z0.0554
X-2.1334 Y-0.0927 Z0.0579
X-2.1339 Y-0.0941 Z0.0604
X-2.1342 Y-0.0951 Z0.0631
X-2.1344 Y-0.0957 Z0.0659
X-2.1345 Y-0.0959 Z0.0687
G0 Z0.1088
X-2.1555 Y-0.1969
G1 Z0.09 F40.
Z-0.05 F13.333
X-2.1519 Y-0.1941 F40.
X-2.1528 Y-0.1929
X-2.154 Y-0.1921
X-2.1555 Y-0.1919
X-2.1585 Y-0.1925
X-2.1596 Y-0.1935
X-2.1607 Y-0.1963
X-2.1606 Y-0.1978
X-2.16 Y-0.1991
X-2.1579 Y-0.2013
X-2.1566 Y-0.2019
X-2.1551 Y-0.202
X-2.1522 Y-0.2011
X-2.1511 Y-0.2001
X-2.1497 Y-0.1974
X-2.1496 Y-0.1944
X-2.1509 Y-0.1918
X-2.1534 Y-0.1901
X-2.1564 Y-0.1896
X-2.1593 Y-0.1903
X-2.1615 Y-0.1923
X-2.1629 Y-0.195
Y-0.198
X-2.1618 Y-0.2008
X-2.1598 Y-0.203
X-2.1571 Y-0.2042
X-2.1541 Y-0.2044
X-2.1512 Y-0.2033
X-2.1489 Y-0.2014
X-2.1474 Y-0.1988
X-2.1469 Y-0.1959
X-2.1474 Y-0.1929
X-2.1489 Y-0.1903
X-2.1512 Y-0.1883
X-2.154 Y-0.1872
X-2.1569 Y-0.187
X-2.1598 Y-0.1877
X-2.1624 Y-0.1893
X-2.1643 Y-0.1916
X-2.1655 Y-0.1944
X-2.1658 Y-0.1974
X-2.1651 Y-0.2003
X-2.1637 Y-0.2029
X-2.1617 Y-0.2051
X-2.159 Y-0.2066
X-2.1561 Y-0.2072
X-2.1531 Y-0.207
X-2.1503 Y-0.2061
X-2.1478 Y-0.2044
X-2.1458 Y-0.2021
X-2.1446 Y-0.1994
X-2.144 Y-0.1965
X-2.1442 Y-0.1935
X-2.1451 Y-0.1906
X-2.1468 Y-0.1882
X-2.149 Y-0.1861
X-2.1517 Y-0.1847
X-2.1546 Y-0.1839
X-2.1606 Y-0.184
X-2.1658 Y-0.1869
X-2.1691 Y-0.1919
X-2.1701 Y-0.1978
X-2.1685 Y-0.2036
X-2.1648 Y-0.2083
X-2.1594 Y-0.2111
X-2.1535 Y-0.2116
X-2.1477 Y-0.2098
X-2.1431 Y-0.2061
X-2.1402 Y-0.2008
X-2.1394 Y-0.1949
X-2.1408 Y-0.189
X-2.1442 Y-0.1841
X-2.1491 Y-0.1807
X-2.1549 Y-0.1789
X-2.1608 Y-0.1792
X-2.1664 Y-0.1815
X-2.1709 Y-0.1855
X-2.1739 Y-0.1907
G3 X-2.1593 Y-0.2163 I0.0191 J-0.0061
X-2.1349 Y-0.1998 I0.0046 J0.0195
X-2.178 Y-0.1871 I-0.0222 J0.004
X-2.1323 Y-0.2089 I0.0232 J-0.0102
X-2.1642 Y-0.1685 I-0.0241 J0.0138
X-2.1599 Y-0.2281 I0.0079 J-0.0294
X-2.1365 Y-0.1676 I0.0051 J0.0328
X-2.187 Y-0.2182 I-0.021 J-0.0295
X-2.1154 Y-0.1893 I0.0328 J0.0218
X-2.1981 Y-0.1822 I-0.0422 J-0.0064
X-2.1257 Y-0.2335 I0.0432 J-0.0157
X-2.1537 Y-0.1455 I-0.0302 J0.0389
X-2.1862 Y-0.2418 I-0.0035 J-0.0525
X-2.102 Y-0.1749 I0.0322 J0.0459
X-2.2109 Y-0.1688 I-0.0558 J-0.0207
X-2.1243 Y-0.2535 I0.0559 J-0.0294
X-2.093 Y-0.1717 I-0.0297 J0.0583
X-2.2232 Y-0.2203 I-0.0647 J-0.0254
X-2.0879 Y-0.2285 I0.0693 J0.0229
X-2.1634 Y-0.119 I-0.0681 J0.0338
X-2.2098 Y-0.2577 I0.0061 J-0.0791
X-2.0753 Y-0.1673 I0.0561 J0.0618
X-2.2437 Y-0.1787 I-0.0826 J-0.029
X-2.1047 Y-0.2748 I0.0891 J-0.0196
X-2.1211 Y-0.1061 I-0.0502 J0.0802
X-2.2453 Y-0.2432 I-0.0367 J-0.0915
X-2.1472 Y-0.2993 I0.0902 J0.044
X-2.0907 Y-0.1118 I-0.0074 J0.1045
G1 X-2.0923 Y-0.1103
X-2.0938 Y-0.1092
X-2.0949 Y-0.1083
G3 X-2.1109 Y-0.0993 I-0.0435 J-0.0588
X-2.135 Y-0.1103 Z-0.042 I-0.0066 J-0.0176
G1 X-2.1352 Y-0.1107
G3 X-2.1266 Y-0.1332 I0.0177 J-0.0062 F110.
G1 X-2.116 Y-0.1391
G3 X-2.0927 Y-0.135 I0.0091 J0.0164
G1 X-2.0924 Y-0.1346 F40.
G3 X-2.0949 Y-0.1083 Z-0.05 I-0.0145 J0.0119
G1 X-2.0994 Y-0.1048
X-2.1029 Y-0.1027
X-2.1065 Y-0.1011
X-2.1175 Y-0.0965
X-2.1193 Y-0.0958
X-2.1207 Y-0.0952
G3 X-2.1323 Y-0.0919 I-0.018 J-0.0416
X-2.153 Y-0.1085 Z-0.042 I-0.002 J-0.0186
G1 Y-0.1089
G3 X-2.1396 Y-0.1286 I0.0187 J-0.0016 F110.
G1 X-2.1337 Y-0.1303
G3 X-2.1116 Y-0.1204 I0.0052 J0.018
G1 X-2.1114 Y-0.12 F40.
G3 X-2.1207 Y-0.0952 Z-0.05 I-0.0171 J0.0078
G1 X-2.1235 Y-0.0941
X-2.1278 Y-0.0926
X-2.1349 Y-0.0916
X-2.1459 Y-0.0901
X-2.1477 Y-0.0899
X-2.1491 Y-0.0897
X-2.1574 Y-0.0894
X-2.1593
X-2.1602 Y-0.0895
G3 X-2.176 Y-0.1109 Z-0.042 I0.0028 J-0.0185
G1 X-2.1759 Y-0.1113
G3 X-2.1579 Y-0.1268 I0.0185 J0.0032 F110.
G1 X-2.1527 Y-0.1269
G3 X-2.1338 Y-0.1117 I0.0005 J0.0187
G1 X-2.1337 Y-0.1113 F40.
G3 X-2.1491 Y-0.0897 Z-0.05 I-0.0185 J0.0031
G1 X-2.1562 Y-0.0891
X-2.1633 Y-0.0899
X-2.1744 Y-0.0913
X-2.1761 Y-0.0916
X-2.1776 Y-0.0918
X-2.1866 Y-0.0938
X-2.1877 Y-0.0942
X-2.1883 Y-0.0944
G3 X-2.1976 Y-0.1192 Z-0.042 I0.0078 J-0.0171
G1 X-2.1974 Y-0.1196
G3 X-2.1766 Y-0.1298 I0.0169 J0.0081 F110.
G1 X-2.1718 Y-0.1287
G3 X-2.1571 Y-0.109 I-0.0039 J0.0183
G1 Y-0.1086 F40.
G3 X-2.1776 Y-0.0918 Z-0.05 I-0.0187 J-0.0018
G1 X-2.1847 Y-0.093
X-2.1876 Y-0.0941
X-2.2047 Y-0.1012
X-2.206 Y-0.1017
X-2.2095 Y-0.1034
G3 X-2.2333 Y-0.1223 I0.0829 J-0.1288
G1 X-2.2441 Y-0.1366
X-2.2486 Y-0.1425
G3 X-2.2605 Y-0.172 I0.1487 J-0.0774
G1 X-2.2632 Y-0.1933
X-2.2634 Y-0.1968
X-2.263 Y-0.2004
X-2.2602 Y-0.2217
G3 X-2.2486 Y-0.2514 I0.1514 J0.0421
X-2.2305 Y-0.2745 I0.166 J0.1111
G1 X-2.2131 Y-0.2877
X-2.2095 Y-0.2902
X-2.206 Y-0.2918
X-2.1847 Y-0.3006
G3 X-2.1562 Y-0.3047 I0.0385 J0.1666
X-2.124 Y-0.2998 I-0.0052 J0.1434
G1 X-2.103 Y-0.2909
X-2.1012 Y-0.29
X-2.0994 Y-0.2888
X-2.0817 Y-0.2752
X-2.0799 Y-0.2738
X-2.0781 Y-0.272
X-2.0775 Y-0.2713
X-2.0639 Y-0.2536
G3 X-2.0515 Y-0.2252 I-0.1596 J0.0864
G1 X-2.0508 Y-0.2217
X-2.048 Y-0.2004
X-2.0477 Y-0.1968
X-2.0478 Y-0.1933
X-2.0506 Y-0.172
G3 X-2.0638 Y-0.1405 I-0.1352 J-0.0376
G1 X-2.0781 Y-0.122
X-2.0797 Y-0.1202
X-2.0817 Y-0.1185
X-2.0906 Y-0.1116
G3 X-2.102 Y-0.1081 I-0.0109 J-0.0153
G1 X-2.1046 Y-0.1087 Z-0.0498
X-2.107 Y-0.1093 Z-0.0493
X-2.1094 Y-0.1099 Z-0.0484
X-2.1117 Y-0.1116 Z-0.0467
X-2.1138 Y-0.1131 Z-0.0446
X-2.1155 Y-0.1144 Z-0.0421
X-2.1164 Y-0.1156 Z-0.0396
X-2.117 Y-0.1165 Z-0.0369
X-2.1174 Y-0.117 Z-0.0341
X-2.1176 Y-0.1172 Z-0.0313
G0 Z0.0088
X-2.1555 Y-0.1969
G1 Z-0.01 F40.
Z-0.15 F13.333
X-2.1567 Y-0.1999 F40.
X-2.1557 Y-0.201
X-2.1542 Y-0.2012
X-2.1517 Y-0.1994
X-2.1509 Y-0.1982
X-2.1504 Y-0.1952
X-2.152 Y-0.1927
X-2.1533 Y-0.1919
X-2.1548 Y-0.1917
X-2.1577 Y-0.1922
X-2.1589 Y-0.1932
X-2.16 Y-0.1941
X-2.1605 Y-0.1956
Y-0.1986
X-2.1591 Y-0.2012
X-2.1579 Y-0.2021
X-2.1565 Y-0.2027
X-2.1535 Y-0.2028
X-2.1508 Y-0.2016
X-2.1489 Y-0.1992
X-2.1481 Y-0.1963
X-2.1487 Y-0.1934
X-2.1505 Y-0.191
X-2.1532 Y-0.1897
X-2.1561 Y-0.1893
X-2.159 Y-0.1902
X-2.1614 Y-0.192
X-2.1628 Y-0.1947
X-2.1631 Y-0.1977
X-2.1624 Y-0.2006
X-2.1607 Y-0.2031
X-2.1582 Y-0.2047
X-2.1552 Y-0.2054
X-2.1523 Y-0.2051
X-2.1495 Y-0.2038
X-2.1474 Y-0.2018
X-2.146 Y-0.1991
X-2.1455 Y-0.1962
X-2.1459 Y-0.1932
X-2.1474 Y-0.1906
X-2.1495 Y-0.1885
X-2.1522 Y-0.1871
X-2.1551 Y-0.1865
X-2.1581 Y-0.1869
X-2.1609 Y-0.188
X-2.1632 Y-0.1899
X-2.1649 Y-0.1924
X-2.1658 Y-0.1953
X-2.166 Y-0.1983
X-2.1653 Y-0.2012
X-2.1638 Y-0.2038
X-2.1617 Y-0.2059
X-2.1591 Y-0.2075
X-2.1562 Y-0.2083
X-2.1532 Y-0.2084
X-2.1503 Y-0.2076
X-2.1451 Y-0.2048
X-2.1419 Y-0.1997
X-2.1416 Y-0.1937
X-2.1438 Y-0.1882
X-2.1483 Y-0.1841
X-2.154 Y-0.1822
X-2.16 Y-0.1828
X-2.1652 Y-0.1857
X-2.1689 Y-0.1905
X-2.1705 Y-0.1963
X-2.1697 Y-0.2022
X-2.1667 Y-0.2074
X-2.162 Y-0.2112
X-2.1563 Y-0.2129
X-2.1503 Y-0.2126
X-2.1447 Y-0.2104
X-2.1402 Y-0.2064
X-2.1375 Y-0.2011
X-2.1368 Y-0.1951
X-2.138 Y-0.1892
X-2.141 Y-0.184
X-2.1455 Y-0.1801
G3 X-2.1655 Y-0.2151 I-0.01 J-0.0175
X-2.1572 Y-0.2177 I0.01 J0.0175
X-2.1363 Y-0.1815 I0.0037 J0.022
X-2.1735 Y-0.1788 I-0.0199 J-0.0157
X-2.1729 Y-0.2161 I0.0174 J-0.0184
X-2.1278 Y-0.1842 I0.0196 J0.0201
X-2.1858 Y-0.2072 I-0.0286 J-0.0124
X-2.1198 Y-0.2037 I0.0326 J0.0103
X-2.1862 Y-0.1736 I-0.0363 J0.0082
X-2.1365 Y-0.2342 I0.032 J-0.0244
X-2.1505 Y-0.1515 I-0.0179 J0.0395
X-2.1812 Y-0.2373 I-0.0056 J-0.0464
X-2.1057 Y-0.1791 I0.0283 J0.0413
X-2.2099 Y-0.1884 I-0.051 J-0.0169
X-2.1133 Y-0.2388 I0.0565 J-0.0095
X-2.1537 Y-0.1338 I-0.0415 J0.0443
X-2.2001 Y-0.2448 I-0.0025 J-0.0641
X-2.1574 Y-0.264 I0.0455 J0.044
X-2.144 Y-0.1261 I0.0026 J0.0694
X-2.2111 Y-0.2462 I-0.0125 J-0.0718
X-2.1835 Y-0.2667 I0.0499 J0.0383
G1 X-2.1817 Y-0.2675
X-2.1805 Y-0.268
X-2.1789 Y-0.2687
G3 X-2.1655 Y-0.2721 I0.0178 J0.0424
G1 X-2.1622 Z-0.1491
X-2.159 Y-0.2716 Z-0.1482
X-2.1559 Y-0.2705 Z-0.1473
X-2.1531 Y-0.2689 Z-0.1464
X-2.1505 Y-0.2668 Z-0.1456
X-2.1484 Y-0.2643 Z-0.1447
X-2.1468 Y-0.2615 Z-0.1438
X-2.1456 Y-0.2585 Z-0.1429
X-2.145 Y-0.2553 Z-0.142
Y-0.2548
G3 X-2.1592 Y-0.2352 I-0.0187 J0.0014 F110.
G1 X-2.1667 Y-0.2334
G3 X-2.188 Y-0.2435 I-0.0044 J-0.0182
G1 X-2.1882 Y-0.2439 F40.
G3 X-2.1789 Y-0.2687 Z-0.15 I0.0171 J-0.0077
X-2.1648 Y-0.2722 I0.016 J0.0344
G1 X-2.1633 Y-0.2724
X-2.1612 Y-0.2726
X-2.1552 Y-0.2728
X-2.1515 Y-0.2727
X-2.1502 Y-0.2726
G3 X-2.1333 Y-0.2522 Z-0.142 I-0.0018 J0.0187
G1 X-2.1334 Y-0.2518
G3 X-2.152 Y-0.2352 I-0.0186 J-0.0022 F110.
G1 X-2.1589
G3 X-2.1775 Y-0.2513 I0. J-0.0188
G1 Y-0.2517 F40.
G3 X-2.1612 Y-0.2726 Z-0.15 I0.0186 J-0.0023
G1 X-2.1562 Y-0.273
X-2.1491 Y-0.2726
X-2.1452 Y-0.2721
X-2.1435 Y-0.2718
X-2.1391 Y-0.2709
X-2.1349 Y-0.2696
X-2.1307 Y-0.2681
G3 X-2.1213 Y-0.2433 Z-0.142 I-0.0077 J0.0171
G1 X-2.1215 Y-0.243
G3 X-2.144 Y-0.2331 I-0.0169 J-0.008 F110.
G1 X-2.1509 Y-0.2353
G3 X-2.164 Y-0.2546 I0.0056 J-0.0179
G1 X-2.1639 Y-0.255 F40.
G3 X-2.1435 Y-0.2718 Z-0.15 I0.0187 J0.0018
G1 X-2.1396 Y-0.2713
X-2.1349 Y-0.2698
X-2.1225 Y-0.2647
X-2.1212 Y-0.2642
X-2.1207 Y-0.264
X-2.1153 Y-0.2613
X-2.1142 Y-0.2606
G3 X-2.1051 Y-0.2343 Z-0.142 I-0.0155 J0.0201
G1 X-2.1052 Y-0.2339
X-2.106 Y-0.2312 F110.
X-2.1072 Y-0.2287
G3 X-2.1441 Y-0.2197 I-0.0224 J-0.0117
X-2.1481 Y-0.2575 I0.0145 J-0.0206
G1 X-2.1478 Y-0.2578 F40.
G3 X-2.1207 Y-0.264 Z-0.15 I0.0183 J0.0174
X-2.1036 Y-0.2521 I-0.0208 J0.0483
X-2.0818 Y-0.2146 I-0.0474 J0.0526
G1 X-2.0799 Y-0.2004
G3 X-2.0906 Y-0.1578 I-0.0671 J0.0057
G1 X-2.1015 Y-0.1437
G3 X-2.1633 Y-0.1217 I-0.0524 J-0.0494
X-2.2096 Y-0.1437 I0.0047 J-0.0695
G1 X-2.2204 Y-0.1579
G3 X-2.2312 Y-0.2004 I0.0575 J-0.0373
X-2.1836 Y-0.267 I0.0739 J0.0025
G1 X-2.1806 Y-0.2678
X-2.1776 Y-0.2681
X-2.1745 Y-0.2678
X-2.1716 Y-0.2672
X-2.1693 Y-0.2659 Z-0.1498
X-2.167 Y-0.2647 Z-0.1493
X-2.1649 Y-0.2635 Z-0.1484
X-2.1631 Y-0.2613 Z-0.1467
X-2.1615 Y-0.2592 Z-0.1446
X-2.1602 Y-0.2576 Z-0.1421
X-2.1597 Y-0.2562 Z-0.1396
X-2.1593 Y-0.2552 Z-0.1369
X-2.159 Y-0.2545 Z-0.1341
Y-0.2543 Z-0.1313
G0 Z-0.0912
X-2.1555 Y-0.1969
G1 Z-0.11 F40.
Z-0.25 F13.333
X-2.1567 Y-0.2001 F40.
X-2.1554 Y-0.2008
X-2.1539 Y-0.201
X-2.1515 Y-0.1992
X-2.1508 Y-0.1979
X-2.1505 Y-0.1965
X-2.1508 Y-0.195
X-2.1517 Y-0.1937
X-2.1541 Y-0.192
X-2.1556 Y-0.1918
X-2.1585 Y-0.1925
X-2.1597 Y-0.1934
X-2.1608 Y-0.1962
X-2.1607 Y-0.1977
X-2.1595 Y-0.2005
X-2.1572 Y-0.2024
X-2.1558 Y-0.2028
X-2.1528 Y-0.2025
X-2.1502 Y-0.201
X-2.1486 Y-0.1985
X-2.1484 Y-0.1955
X-2.1496 Y-0.1927
X-2.1518 Y-0.1906
X-2.1546 Y-0.1896
X-2.1576
X-2.1603 Y-0.1909
X-2.1623 Y-0.1932
X-2.1631 Y-0.196
X-2.1629 Y-0.199
X-2.1617 Y-0.2018
X-2.1596 Y-0.2039
X-2.1568 Y-0.2051
X-2.1538 Y-0.2053
X-2.1509 Y-0.2045
X-2.1484 Y-0.2029
X-2.1467 Y-0.2004
X-2.1459 Y-0.1975
X-2.146 Y-0.1945
X-2.1471 Y-0.1917
X-2.149 Y-0.1894
X-2.1515 Y-0.1877
X-2.1543 Y-0.1868
X-2.1573
X-2.1602 Y-0.1877
X-2.1627 Y-0.1894
X-2.1646 Y-0.1917
X-2.1657 Y-0.1945
X-2.166 Y-0.1975
X-2.1655 Y-0.2004
X-2.1643 Y-0.2032
X-2.1623 Y-0.2054
X-2.1598 Y-0.2071
X-2.157 Y-0.208
X-2.154 Y-0.2083
X-2.151 Y-0.2078
X-2.1483 Y-0.2065
X-2.146 Y-0.2046
X-2.1442 Y-0.2022
X-2.1431 Y-0.1994
X-2.1428 Y-0.1964
X-2.1435 Y-0.1904
X-2.1471 Y-0.1856
X-2.1524 Y-0.1828
X-2.1584 Y-0.1826
X-2.164 Y-0.1848
X-2.1682 Y-0.1891
X-2.1703 Y-0.1947
X-2.1701 Y-0.2007
X-2.1676 Y-0.2062
X-2.1633 Y-0.2103
X-2.1577 Y-0.2126
X-2.1517 Y-0.2127
X-2.1461 Y-0.2106
X-2.1416 Y-0.2066
X-2.1388 Y-0.2013
X-2.1378 Y-0.1954
X-2.1389 Y-0.1895
X-2.1419 Y-0.1843
X-2.1464 Y-0.1803
X-2.1519 Y-0.178
X-2.1579 Y-0.1776
G3 X-2.1751 Y-0.2017 I0.0027 J-0.0201
X-2.15 Y-0.2173 I0.0199 J0.004
X-2.149 Y-0.1733 I-0.005 J0.0221
X-2.1645 Y-0.2215 I-0.007 J-0.0243
X-2.1288 Y-0.1845 I0.0104 J0.0257
X-2.1872 Y-0.1969 I-0.028 J-0.0118
X-2.1241 Y-0.2117 I0.0332 J-0.0005
X-2.1813 Y-0.1688 I-0.0322 J0.0167
X-2.1425 Y-0.2356 I0.0263 J-0.0294
X-2.1218 Y-0.1697 I-0.0109 J0.0397
G1 X-2.1228 Y-0.1682
X-2.1236 Y-0.1672
X-2.1245 Y-0.166
X-2.1262 Y-0.1641
X-2.1266 Y-0.1637
G3 X-2.1414 Y-0.1641 I-0.0072 J-0.0091
X-2.1441 Y-0.1776 I0.0076 J-0.0086
G1 X-2.1429 Y-0.1796 F110.
X-2.1413 Y-0.1813
X-2.1394 Y-0.1826
G3 X-2.1245 Y-0.166 I0.0056 J0.01 F40.
G1 X-2.1253 Y-0.165
X-2.1266 Y-0.1637
X-2.1278 Y-0.1626
X-2.1317 Y-0.1601
X-2.1327 Y-0.1595
G3 X-2.1454 Y-0.1543 I-0.0182 J-0.0266
G1 X-2.1482 Y-0.1541 Z-0.2492
G3 X-2.1668 Y-0.17 Z-0.242 I0. J-0.0187
G1 Y-0.1704
G3 X-2.1555 Y-0.1901 I0.0186 J-0.0024 F110.
G1 X-2.1506 Y-0.1922
G3 X-2.1281 Y-0.1859 I0.0073 J0.0173
G1 X-2.1279 Y-0.1855 F40.
G3 X-2.1327 Y-0.1595 Z-0.25 I-0.0155 J0.0106
X-2.1477 Y-0.1539 I-0.0171 J-0.0231
G1 X-2.1491 Y-0.1536
X-2.1511 Y-0.1533
X-2.153 Y-0.1531
X-2.1546 Y-0.1529
X-2.1562 Y-0.1528
G3 X-2.1679 Y-0.1657 I0.0027 J-0.0142
X-2.1639 Y-0.1768 I0.0139 J-0.0013
X-2.1448 Y-0.1775 I0.0099 J0.0099 F110.
X-2.1511 Y-0.1533 I-0.0092 J0.0105 F40.
G1 X-2.1527 Y-0.153
X-2.1562 Y-0.1528
X-2.1633 Y-0.1539
X-2.1655 Y-0.1543
X-2.167 Y-0.1547
X-2.1719 Y-0.1559
G3 X-2.1858 Y-0.1797 Z-0.242 I0.009 J-0.0211
G1 X-2.1857 Y-0.1801
X-2.1852 Y-0.1829 F110.
G3 X-2.1554 Y-0.1986 I0.0221 J0.0058
X-2.1424 Y-0.1676 I-0.0077 J0.0215
G1 X-2.1426 Y-0.1672 F40.
G3 X-2.167 Y-0.1547 Z-0.25 I-0.0205 J-0.0099
G1 X-2.1705 Y-0.1554
X-2.1731 Y-0.1564
G3 X-2.1924 Y-0.1738 I0.0167 J-0.038
G1 X-2.1934 Y-0.175
X-2.1949 Y-0.1773
G3 X-2.1856 Y-0.1935 I0.0094 J-0.0054
G1 X-2.1855
X-2.1835 Y-0.1933
X-2.1815 Y-0.1927
X-2.1796 Y-0.1918
X-2.178 Y-0.1905
X-2.1765 Y-0.1886 F110.
X-2.1759 Y-0.1878
X-2.1749 Y-0.1859
G3 X-2.1934 Y-0.175 I-0.01 J0.0041 F40.
G1 X-2.1941 Y-0.176
X-2.1951 Y-0.1776
G3 X-2.1989 Y-0.2014 I0.0348 J-0.0179
X-2.1633 Y-0.2398 I0.0422 J0.0033
X-2.1214 Y-0.1694 I0.0082 J0.0428
G1 X-2.1237 Y-0.1672
X-2.1262 Y-0.1653
X-2.129 Y-0.164
X-2.132 Y-0.1631
X-2.1351 Y-0.1627
X-2.1382 Y-0.1628
X-2.1413 Y-0.1634
X-2.1442 Y-0.1645
X-2.1468 Y-0.1661
X-2.1492 Y-0.1681
X-2.1515 Y-0.1703 Z-0.2497
X-2.1538 Y-0.1725 Z-0.2489
X-2.1559 Y-0.1746 Z-0.2475
X-2.1579 Y-0.1765 Z-0.2456
X-2.1595 Y-0.1781 Z-0.2433
X-2.1609 Y-0.1794 Z-0.2406
X-2.1619 Y-0.1803 Z-0.2377
X-2.1625 Y-0.1809 Z-0.2345
X-2.1627 Y-0.1811 Z-0.2312
G0 Z1.
(RADIAL2 2)
S7500 M3
G64 P0.0004 Q0.0004
G0 X-2.029 Y-0.1969
Z1.
Z0.331
G1 Z0.0009 F80.
X-2.1371 Z-0.3391 F60.
X-2.1373 Z-0.3436
Y-0.1953
X-2.1372 Y-0.1952 Z-0.3391
X-2.0295 Y-0.1858 Z0.0009
X-2.0309 Y-0.1749
X-2.1374 Y-0.1937 Z-0.3393
X-2.1375 Z-0.3436
X-2.1379 Y-0.1921
X-2.1378 Z-0.3393
X-2.0333 Y-0.1641 Z0.0009
X-2.0366 Y-0.1536
X-2.1382 Y-0.1906 Z-0.3391
X-2.1384 Z-0.3436
X-2.139 Y-0.1891
X-2.1389 Z-0.3393
X-2.0409 Y-0.1434 Z0.0009
X-2.046 Y-0.1336
X-2.1396 Y-0.1877 Z-0.3393
X-2.1397 Z-0.3436
X-2.1405 Y-0.1864
X-2.1404 Y-0.1863 Z-0.3391
X-2.0519 Y-0.1243 Z0.0009
X-2.0586 Y-0.1155
X-2.1415 Y-0.1851 Z-0.3393
Z-0.3436
X-2.1426 Y-0.1839
X-2.1425 Z-0.3393
X-2.0661 Y-0.1074 Z0.0008
X-2.0742 Y-0.0999
X-2.1437 Y-0.1828 Z-0.3393
X-2.1438 Z-0.3436
X-2.145 Y-0.1819
Y-0.1818 Z-0.3393
X-2.083 Y-0.0932 Z0.0008
X-2.0923 Y-0.0873
X-2.1463 Y-0.1809 Z-0.3391
X-2.1464 Y-0.181 Z-0.3436
X-2.1478 Y-0.1803
Y-0.1802 Z-0.3393
X-2.1021 Y-0.0822 Z0.0007
X-2.1122 Y-0.078
X-2.1492 Y-0.1796 Z-0.3393
X-2.1493 Y-0.1797 Z-0.3436
X-2.1508 Y-0.1792
Y-0.1791 Z-0.3393
X-2.1228 Y-0.0747 Z0.0007
X-2.1335 Y-0.0723 Z0.0006
X-2.1523 Y-0.1787 Z-0.3391
Y-0.1789 Z-0.3436
X-2.1539 Y-0.1787
Y-0.1786 Z-0.3393
X-2.1445 Y-0.0708 Z0.0006
X-2.1555 Y-0.0704
Y-0.1785 Z-0.3393
Y-0.1786 Z-0.3436
X-2.1571 Y-0.1787
Y-0.1785 Z-0.3391
X-2.1665 Y-0.0708 Z0.0006
X-2.1775 Y-0.0723
X-2.1587 Y-0.1788 Z-0.3393
Y-0.1789 Z-0.3436
X-2.1602 Y-0.1792
X-2.1603 Y-0.1791 Z-0.3391
X-2.1883 Y-0.0747 Z0.0007
X-2.1988 Y-0.078
X-2.1618 Y-0.1795 Z-0.3391
Y-0.1797 Z-0.3436
X-2.1632 Y-0.1803
X-2.1633 Y-0.1802 Z-0.3393
X-2.209 Y-0.0822 Z0.0007
X-2.2188 Y-0.0873 Z0.0008
X-2.1647 Y-0.1809 Z-0.3391
X-2.1646 Y-0.181 Z-0.3436
X-2.166 Y-0.1819
Y-0.1818 Z-0.3393
X-2.2281 Y-0.0932 Z0.0008
X-2.2368 Y-0.0999
X-2.1673 Y-0.1828 Z-0.3393
Z-0.3436
X-2.1684 Y-0.1839
X-2.1685 Z-0.3393
X-2.245 Y-0.1074 Z0.0008
X-2.2524 Y-0.1155 Z0.0009
X-2.1696 Y-0.185 Z-0.3391
X-2.1695 Y-0.1851 Z-0.3436
X-2.1705 Y-0.1864
Y-0.1863 Z-0.3393
X-2.2591 Y-0.1243 Z0.0009
X-2.2651 Y-0.1336
X-2.1715 Y-0.1876 Z-0.3391
X-2.1713 Y-0.1877 Z-0.3436
X-2.1721 Y-0.1891
X-2.1722 Z-0.3391
X-2.2702 Y-0.1434 Z0.0009
X-2.2744 Y-0.1536
X-2.1728 Y-0.1906 Z-0.3393
X-2.1727 Z-0.3436
X-2.1732 Y-0.1921
Z-0.3393
X-2.2777 Y-0.1641 Z0.0009
X-2.2801 Y-0.1749
X-2.1736 Y-0.1937 Z-0.3393
X-2.1735 Z-0.3436
X-2.1737 Y-0.1953
X-2.1738 Z-0.3393
X-2.2815 Y-0.1858 Z0.0009
X-2.282 Y-0.1969
X-2.1739 Z-0.3391
X-2.1738 Z-0.3436
X-2.1737 Y-0.1984
X-2.1738 Y-0.1985 Z-0.3393
X-2.2815 Y-0.2079 Z0.0009
X-2.2801 Y-0.2188
X-2.1736 Y-0.2 Z-0.3393
X-2.1735 Z-0.3436
X-2.1731 Y-0.2016
X-2.1732 Z-0.3393
X-2.2777 Y-0.2296 Z0.0009
X-2.2744 Y-0.2401
X-2.1728 Y-0.2031 Z-0.3391
X-2.1727 Z-0.3436
X-2.1721 Y-0.2046
X-2.1722 Z-0.3391
X-2.2702 Y-0.2503 Z0.0009
X-2.2651 Y-0.2601
X-2.1715 Y-0.2061 Z-0.3391
X-2.1713 Y-0.206 Z-0.3436
X-2.1705 Y-0.2073
Y-0.2074 Z-0.3393
X-2.2591 Y-0.2694 Z0.0009
X-2.2524 Y-0.2782
X-2.1696 Y-0.2086 Z-0.3393
X-2.1695 Z-0.3436
X-2.1684 Y-0.2098
X-2.1685 Z-0.3393
X-2.245 Y-0.2863 Z0.0008
X-2.2368 Y-0.2938
X-2.1673 Y-0.2109 Z-0.3393
X-2.1672 Y-0.2108 Z-0.3436
X-2.166 Y-0.2118
X-2.1661 Y-0.2119 Z-0.3391
X-2.2281 Y-0.3005 Z0.0008
X-2.2188 Y-0.3064
X-2.1647 Y-0.2127 Z-0.3393
Z-0.3436
X-2.1632 Y-0.2134
X-2.1633 Y-0.2135 Z-0.3393
X-2.209 Y-0.3115 Z0.0007
X-2.1988 Y-0.3157
X-2.1618 Y-0.2141 Z-0.3393
Y-0.214 Z-0.3436
X-2.1602 Y-0.2145
X-2.1603 Y-0.2146 Z-0.3393
X-2.1883 Y-0.319 Z0.0007
X-2.1775 Y-0.3214 Z0.0006
X-2.1587 Y-0.2149 Z-0.3393
Z-0.3436
X-2.1571 Y-0.215
Y-0.2151 Z-0.3393
X-2.1665 Y-0.3229 Z0.0006
X-2.1555 Y-0.3234
Y-0.2152 Z-0.3393
Y-0.2151 Z-0.3436
X-2.1539 Y-0.215
Y-0.2151 Z-0.3393
X-2.1445 Y-0.3229 Z0.0006
X-2.1335 Y-0.3214
X-2.1523 Y-0.2149 Z-0.3393
Z-0.3436
X-2.1508 Y-0.2145
X-2.1507 Y-0.2146 Z-0.3391
X-2.1228 Y-0.319 Z0.0007
X-2.1122 Y-0.3157
X-2.1492 Y-0.2141 Z-0.3391
X-2.1493 Y-0.214 Z-0.3436
X-2.1478 Y-0.2134
Y-0.2135 Z-0.3393
X-2.1021 Y-0.3115 Z0.0007
X-2.0923 Y-0.3064 Z0.0008
X-2.1463 Y-0.2127 Z-0.3393
X-2.1464 Z-0.3436
X-2.145 Y-0.2118
Y-0.2119 Z-0.3391
X-2.083 Y-0.3005 Z0.0008
X-2.0742 Y-0.2938
X-2.1437 Y-0.2109 Z-0.3393
X-2.1438 Y-0.2108 Z-0.3436
X-2.1426 Y-0.2098
X-2.1425 Z-0.3393
X-2.0661 Y-0.2863 Z0.0008
X-2.0586 Y-0.2782 Z0.0009
X-2.1415 Y-0.2086 Z-0.3393
Z-0.3436
X-2.1406 Y-0.2073
X-2.1405 Y-0.2074 Z-0.3393
X-2.0519 Y-0.2694 Z0.0009
X-2.046 Y-0.2601
X-2.1396 Y-0.206 Z-0.3393
X-2.1397 Z-0.3436
X-2.1389 Y-0.2046
Z-0.3393
X-2.0409 Y-0.2503 Z0.0009
X-2.0366 Y-0.2401
X-2.1383 Y-0.2031 Z-0.3393
Z-0.3436
X-2.1379 Y-0.2016
X-2.1378 Z-0.3393
X-2.0333 Y-0.2296 Z0.0009
X-2.0309 Y-0.2188
X-2.1374 Y-0.2 Z-0.3393
X-2.1375 Z-0.3436
X-2.1373 Y-0.1984
X-2.1372 Y-0.1985 Z-0.3391
X-2.0295 Y-0.2079 Z0.0009
G0 Z1.
M5
G53 G0 Z-0.6
(2D CHAMFER2 2)
M9
M1
T12 M6
T32
S7500 M3
G17 G90 G94
G54
M8
G0 X-0.9275 Y-0.1969
G43 Z0.4 H12
G0 Z0.3
G1 Z0.16 F80.
X-0.9039 F40.
G3 X-1.0449 I-0.0705 J0.
X-0.9039 I0.0705 J0.
G1 X-0.9275
G0 Z0.3
X-0.5942 Y-0.1856
G1 Z0.16 F80.
X-0.5713 Y-0.18 F40.
G3 X-0.7082 Y-0.2137 I-0.0685 J-0.0169
X-0.5713 Y-0.18 I0.0685 J0.0169
G1 X-0.5942 Y-0.1856
G0 Z0.3
X-0.2596
G1 Z0.16 F80.
X-0.2367 Y-0.18 F40.
G3 X-0.3736 Y-0.2137 I-0.0685 J-0.0169
X-0.2367 Y-0.18 I0.0685 J0.0169
G1 X-0.2596 Y-0.1856
G0 Z0.3
X-1.2622 Y-0.1969
G1 Z0.16 F80.
X-1.2386 F40.
G3 X-1.3796 I-0.0705 J0.
X-1.2386 I0.0705 J0.
G1 X-1.2622
G0 Z0.3
X-1.5968
G1 Z0.16 F80.
X-1.5732 F40.
G3 X-1.7142 I-0.0705 J0.
X-1.5732 I0.0705 J0.
G1 X-1.5968
G0 Z0.3
X-1.9094 Y0.0936
G1 Z0.16 F80.
Y0.07 F40.
X-0.1181
G2 X0.07 Y-0.1181 I0. J-0.1881
G1 Y-0.2756
G2 X-0.1181 Y-0.4637 I-0.1881 J0.
G1 X-1.9094
Y-0.4873
G0 Z0.4
(2D CHAMFER1 2)
G0 Z0.85
X-2.0155 Y-0.2675
Z0.33
G1 Z0.202 F80.
X-1.9944 Y-0.2781 F40.
G3 X-2.3166 Y-0.1156 I-0.1611 J0.0813
X-1.9944 Y-0.2781 I0.1611 J-0.0813
G1 X-2.0155 Y-0.2675
G0 Z0.45
X-1.9094 Y-0.4573
Z0.33
G1 Z0.202 F80.
Y-0.4337 F40.
G3 X-2.0455 Y-0.4609 I0. J-0.3537
G2 X-2.2655 Y0.0672 I-0.11 J0.2641
X-2.0455 I0.11 J-0.2641
G3 X-1.9094 Y0.04 I0.136 J0.3265
G1 Y0.0636
G0 Z0.85
G53 G0 Z-0.6
(2D CHAMFER2 2)
G55
G0 X-0.9275 Y-0.1969
G43 Z0.4 H12
G0 Z0.3
G1 Z0.16 F80.
X-0.9039 F40.
G3 X-1.0449 I-0.0705 J0.
X-0.9039 I0.0705 J0.
G1 X-0.9275
G0 Z0.3
X-0.5942 Y-0.1856
G1 Z0.16 F80.
X-0.5713 Y-0.18 F40.
G3 X-0.7082 Y-0.2137 I-0.0685 J-0.0169
X-0.5713 Y-0.18 I0.0685 J0.0169
G1 X-0.5942 Y-0.1856
G0 Z0.3
X-0.2596
G1 Z0.16 F80.
X-0.2367 Y-0.18 F40.
G3 X-0.3736 Y-0.2137 I-0.0685 J-0.0169
X-0.2367 Y-0.18 I0.0685 J0.0169
G1 X-0.2596 Y-0.1856
G0 Z0.3
X-1.2622 Y-0.1969
G1 Z0.16 F80.
X-1.2386 F40.
G3 X-1.3796 I-0.0705 J0.
X-1.2386 I0.0705 J0.
G1 X-1.2622
G0 Z0.3
X-1.5968
G1 Z0.16 F80.
X-1.5732 F40.
G3 X-1.7142 I-0.0705 J0.
X-1.5732 I0.0705 J0.
G1 X-1.5968
G0 Z0.3
X-1.9094 Y0.0936
G1 Z0.16 F80.
Y0.07 F40.
X-0.1181
G2 X0.07 Y-0.1181 I0. J-0.1881
G1 Y-0.2756
G2 X-0.1181 Y-0.4637 I-0.1881 J0.
G1 X-1.9094
Y-0.4873
G0 Z0.4
(2D CHAMFER1 2)
G0 Z0.85
X-2.0155 Y-0.2675
Z0.33
G1 Z0.202 F80.
X-1.9944 Y-0.2781 F40.
G3 X-2.3166 Y-0.1156 I-0.1611 J0.0813
X-1.9944 Y-0.2781 I0.1611 J-0.0813
G1 X-2.0155 Y-0.2675
G0 Z0.45
X-1.9094 Y-0.4573
Z0.33
G1 Z0.202 F80.
Y-0.4337 F40.
G3 X-2.0455 Y-0.4609 I0. J-0.3537
G2 X-2.2655 Y0.0672 I-0.11 J0.2641
X-2.0455 I0.11 J-0.2641
G3 X-1.9094 Y0.04 I0.136 J0.3265
G1 Y0.0636
G0 Z0.85
M5
M9
G53 G0 Z-0.6
M30
%
