%
(OP2 - FLIPPED, X ZERO RIGHT SIDE)
(MACHINE)
(  VENDOR CALLUM)
(  MODEL MILL R1)
(  DESCRIPTION 14X8X14 MILL)
(T12 D=0.2362 CR=0. TAPER=45DEG - ZMIN=0.16 - CHAMFER MILL)
(T32 D=0.1875 CR=0. - ZMIN=-0.3436 - FLAT END MILL)
G90 G94 G17 G91.1
G20
G53 G0 Z-0.6
(ADAPTIVE3 2)
T32 M6
T12
S5000 M3
G17 G90 G94
G55
G64 P0.0004 Q0.0004
M8
G0 X-2.47 Y-0.6611
G43 Z0.6 H32
G0 Z0.2875
G1 Z0.2688 F40.
X-2.4699 Y-0.6608 Z0.2655
X-2.4697 Y-0.66 Z0.2623
X-2.4694 Y-0.6587 Z0.2594
X-2.4689 Y-0.6569 Z0.2567
X-2.4683 Y-0.6546 Z0.2544
X-2.4677 Y-0.652 Z0.2525
X-2.4669 Y-0.6492 Z0.2511
X-2.4662 Y-0.6461 Z0.2503
X-2.4654 Y-0.6429 Z0.25
G3 X-2.4507 Y-0.5409 I-0.4637 J0.1188
G1 Y-0.5403
X-2.4572 Y-0.5327
X-2.4631 Y-0.5247
X-2.4685 Y-0.5164
X-2.4734 Y-0.5078
X-2.4779 Y-0.4989
X-2.4819 Y-0.4898
X-2.4855 Y-0.4805
X-2.4887 Y-0.4711
X-2.4916 Y-0.4616
X-2.4941 Y-0.4519
G2 X-2.5016 Y-0.4129 I0.3928 J0.0956
X-2.5074 Y-0.3535 I0.7126 J0.1002
X-2.5104 Y-0.2741 I1.7501 J0.1049
X-2.5115 Y-0.1547 I6.653 J0.1204
X-2.5117 Y-0.0155 I32.8801 J0.1194
G1 X-2.5113 Y-0.0056
X-2.5096 Y0.0042
X-2.5065 Y0.0137
X-2.5024 Y0.0227
X-2.4974 Y0.0313
X-2.4915 Y0.0393
X-2.485 Y0.0468
X-2.4779 Y0.0538
X-2.4703 Y0.0602
X-2.4623 Y0.0661
X-2.4539 Y0.0715
X-2.4452 Y0.0763
X-2.4363 Y0.0807
X-2.4272 Y0.0847
X-2.4179 Y0.0882
X-2.4085 Y0.0914
X-2.399 Y0.0942
X-2.3893 Y0.0967
G2 X-2.3503 Y0.1041 I0.0955 J-0.3979
X-2.2909 Y0.1099 I0.1001 J-0.7227
X-2.2114 Y0.1128 I0.1049 J-1.7768
X-2.0921 Y0.1139 I0.1203 J-6.7594
X-1.9827 Y0.1141 I0.1044 J-26.9595
G1 X-1.933
X-1.8535
X-1.6447
X-1.1375
X-1.1276
G2 X-1.0282 Y0.1162 I0.1131 J-3.0126
X-0.879 Y0.1167 I0.1291 J-15.4762
G1 X-0.8393 Y0.1168
X-0.7896
X-0.7001
X-0.2228
X-0.014
X-0.0041 Y0.116
X0.0056 Y0.1138
X0.015 Y0.1105
X0.024 Y0.1061
X0.0324 Y0.1009
X0.0404 Y0.095
X0.0478 Y0.0883
X0.0547 Y0.0811
X0.061 Y0.0735
X0.0668 Y0.0654
X0.072 Y0.0569
X0.0768 Y0.0482
X0.0811 Y0.0393
X0.085 Y0.0301
X0.0884 Y0.0208
X0.0915 Y0.0113
X0.0942 Y0.0018
X0.0967 Y-0.0079
G2 X0.1037 Y-0.047 I-0.4046 J-0.0932
X0.1091 Y-0.1064 I-0.7466 J-0.0977
X0.1117 Y-0.1859 I-1.8933 J-0.1023
X0.1127 Y-0.3052 I-7.5517 J-0.1176
X0.1128 Y-0.3848 I-20.6775 J-0.0767
G1 X0.1118 Y-0.3947
X0.1095 Y-0.4043
X0.1061 Y-0.4137
X0.1016 Y-0.4226
X0.0963 Y-0.431
X0.0903 Y-0.4389
X0.0836 Y-0.4462
X0.0763 Y-0.453
X0.0686 Y-0.4593
X0.0605 Y-0.465
X0.052 Y-0.4702
X0.0433 Y-0.475
X0.0343 Y-0.4792
X0.0251 Y-0.483
X0.0158 Y-0.4865
X0.0063 Y-0.4895
X-0.0033 Y-0.4922
G2 X-0.0422 Y-0.5001 I-0.0943 J0.3632
X-0.0916 Y-0.5056 I-0.0939 J0.6266
G1 X-0.1016 Y-0.5063
X-0.1115 Y-0.5069
X-0.1214 Y-0.5074
G2 X-0.2208 Y-0.5098 I-0.1134 J2.5964
X-0.3501 Y-0.5104 I-0.119 J11.7778
G1 X-0.3799 Y-0.5105
X-0.4197
X-0.4694
X-0.5589
X-1.0362
X-2.0902
X-2.3388
X-2.3486 Y-0.5095
X-2.3584 Y-0.5073
X-2.3678 Y-0.5043
X-2.3769 Y-0.5003
X-2.3857 Y-0.4956
X-2.394 Y-0.4901
X-2.4018 Y-0.484
X-2.4092 Y-0.4773
X-2.4161 Y-0.4701
X-2.4225 Y-0.4625
X-2.4284 Y-0.4545
X-2.4339 Y-0.4462
X-2.4389 Y-0.4376
X-2.4434 Y-0.4288
X-2.4476 Y-0.4198
X-2.4514 Y-0.4106
X-2.4548 Y-0.4012
X-2.4579 Y-0.3918
X-2.4606 Y-0.3822
G2 X-2.469 Y-0.3434 I0.3836 J0.1033
X-2.476 Y-0.2841 I0.6548 J0.107
X-2.4798 Y-0.2047 I1.4791 J0.1107
X-2.4813 Y-0.0953 I4.7912 J0.1198
G1 X-2.4814 Y-0.0854
X-2.4812 Y-0.0754
X-2.4803 Y-0.0655
X-2.4786 Y-0.0558
X-2.4761 Y-0.0461
X-2.4727 Y-0.0368
X-2.4687 Y-0.0277
X-2.4639 Y-0.019
X-2.4585 Y-0.0106
X-2.4525 Y-0.0027
X-2.446 Y0.0048
X-2.439 Y0.0119
X-2.4316 Y0.0185
X-2.4238 Y0.0247
X-2.4157 Y0.0304
X-2.4072 Y0.0357
X-2.3986 Y0.0406
X-2.3897 Y0.045
X-2.3806 Y0.0491
X-2.3714 Y0.0529
X-2.3621 Y0.0563
X-2.3526 Y0.0593
G2 X-2.314 Y0.0688 I0.1087 J-0.3587
X-2.2648 Y0.076 I0.1072 J-0.562
X-2.1855 Y0.0813 I0.1155 J-1.1352
X-2.096 Y0.0833 I0.1124 J-3.0339
X-1.917 Y0.084 I0.1527 J-15.4483
G1 X-1.8773 Y0.0841
X-1.8275
X-1.748
X-1.5193
X-1.3304
X-1.1912
G3 X-1.1116 Y0.0851 I-0.0201 J4.9997
G2 X-0.8929 Y0.0866 I0.2148 J-14.7267
G1 X-0.863 Y0.0867
X-0.8332
X-0.7934 Y0.0868
X-0.7437
X-0.6642
X-0.4653
X-0.0875
X-0.0775 Y0.0867
X-0.0676 Y0.0859
X-0.0578 Y0.0843
X-0.0482 Y0.0818
X-0.0387 Y0.0786
X-0.0296 Y0.0746
X-0.0209 Y0.07
X-0.0124 Y0.0647
X-0.0045 Y0.0587
X0.0031 Y0.0523
X0.0102 Y0.0454
X0.0169 Y0.038
X0.0231 Y0.0302
X0.0289 Y0.0221
X0.0343 Y0.0138
X0.0392 Y0.0051
X0.0437 Y-0.0037
X0.0478 Y-0.0128
X0.0516 Y-0.022
X0.055 Y-0.0313
X0.0581 Y-0.0408
G2 X0.0677 Y-0.0794 I-0.3536 J-0.1081
X0.0749 Y-0.1285 I-0.5543 J-0.1063
X0.0801 Y-0.2079 I-1.1286 J-0.1145
X0.0821 Y-0.2974 I-3.0499 J-0.1112
G1 X0.0822 Y-0.3073
X0.0823 Y-0.3172
X0.0817 Y-0.3272
X0.0803 Y-0.337
X0.0782 Y-0.3467
X0.0752 Y-0.3562
X0.0715 Y-0.3654
X0.067 Y-0.3743
X0.0619 Y-0.3828
X0.0561 Y-0.391
X0.0498 Y-0.3987
X0.043 Y-0.4059
X0.0358 Y-0.4127
X0.0281 Y-0.4191
X0.0202 Y-0.425
X0.0118 Y-0.4305
X0.0033 Y-0.4355
X-0.0055 Y-0.4401
X-0.0145 Y-0.4444
X-0.0237 Y-0.4482
X-0.033 Y-0.4518
X-0.0424 Y-0.4549
X-0.0519 Y-0.4578
X-0.0615 Y-0.4604
X-0.0712 Y-0.4627
X-0.0809 Y-0.4648
G2 X-0.13 Y-0.4722 I-0.1071 J0.5416
X-0.1995 Y-0.4773 I-0.1101 J1.0372
X-0.2989 Y-0.4797 I-0.1186 J2.8288
X-0.448 Y-0.4804 I-0.1356 J12.779
G1 X-0.4778 Y-0.4805
X-0.5176
X-0.5673
X-0.6568
X-0.9651
X-2.0489
X-2.2676
X-2.2776 Y-0.4804
X-2.2875 Y-0.4797
X-2.2974 Y-0.4783
X-2.3071 Y-0.4762
X-2.3166 Y-0.4734
X-2.3259 Y-0.4699
X-2.3349 Y-0.4657
X-2.3436 Y-0.4608
X-2.3519 Y-0.4554
X-2.3599 Y-0.4494
X-2.3674 Y-0.443
X-2.3746 Y-0.436
X-2.3813 Y-0.4287
X-2.3875 Y-0.421
X-2.3934 Y-0.413
X-2.3989 Y-0.4046
X-2.4039 Y-0.3961
X-2.4086 Y-0.3873
X-2.4128 Y-0.3783
X-2.4168 Y-0.3692
X-2.4204 Y-0.3599
X-2.4236 Y-0.3505
G2 X-2.4339 Y-0.3121 I0.3495 J0.1143
X-2.442 Y-0.2631 I0.5319 J0.1123
X-2.4477 Y-0.1937 I0.9804 J0.1155
X-2.4496 Y-0.144 I1.7992 J0.0952
G1 X-2.4497 Y-0.1341
X-2.4494 Y-0.1241
X-2.4485 Y-0.1142
X-2.4469 Y-0.1044
X-2.4447 Y-0.0947
X-2.4418 Y-0.0852
X-2.4382 Y-0.0759
X-2.434 Y-0.0669
X-2.4292 Y-0.0582
X-2.4238 Y-0.0499
X-2.4179 Y-0.0419
X-2.4115 Y-0.0343
X-2.4047 Y-0.027
X-2.3974 Y-0.0202
X-2.3898 Y-0.0138
X-2.3819 Y-0.0078
X-2.3736 Y-0.0023
X-2.3652 Y0.0029
X-2.3565 Y0.0078
X-2.3476 Y0.0122
X-2.3385 Y0.0163
X-2.3293 Y0.02
X-2.32 Y0.0235
G2 X-2.2817 Y0.0344 I0.118 J-0.3406
X-2.2328 Y0.0431 I0.1157 J-0.509
X-2.1635 Y0.0494 I0.1184 J-0.915
X-2.0741 Y0.0526 I0.121 J-2.1395
X-1.9448 Y0.0538 I0.1344 J-7.4274
X-1.8056 Y0.0541 I0.1311 J-33.2735
G1 X-1.7559
X-1.6763
X-1.4874
X-1.2488
X-1.2388
X-1.2289
G3 X-1.0996 Y0.0553 I-0.0476 J12.3913
G2 X-0.8113 Y0.0567 I0.2672 J-25.6062
G1 X-0.7715 Y0.0568
X-0.7218
X-0.6522
X-0.5229
X-0.1451
X-0.1351 Y0.0567
X-0.1252 Y0.0562
X-0.1153 Y0.0552
X-0.1055 Y0.0536
X-0.0958 Y0.0513
X-0.0863 Y0.0483
X-0.0771 Y0.0447
X-0.0681 Y0.0405
X-0.0594 Y0.0357
X-0.051 Y0.0303
X-0.043 Y0.0244
X-0.0354 Y0.018
X-0.0282 Y0.0111
X-0.0214 Y0.0039
X-0.015 Y-0.0037
X-0.009 Y-0.0116
X-0.0034 Y-0.0199
X0.0018 Y-0.0283
X0.0066 Y-0.037
X0.0111 Y-0.0459
X0.0151 Y-0.055
X0.0189 Y-0.0642
X0.0223 Y-0.0735
G2 X0.0333 Y-0.1118 I-0.3398 J-0.1178
X0.0419 Y-0.1607 I-0.5079 J-0.1153
X0.0482 Y-0.23 I-0.9144 J-0.1179
G1 X0.0488 Y-0.2399
X0.0493 Y-0.2499
X0.0496 Y-0.2598
X0.0495 Y-0.2697
X0.0489 Y-0.2797
X0.0476 Y-0.2895
X0.0456 Y-0.2993
X0.043 Y-0.3089
X0.0396 Y-0.3182
X0.0357 Y-0.3273
X0.0311 Y-0.3361
X0.0259 Y-0.3446
X0.0201 Y-0.3527
X0.0139 Y-0.3605
X0.0072 Y-0.3678
X0. Y-0.3747
X-0.0075 Y-0.3813
X-0.0153 Y-0.3874
X-0.0235 Y-0.3931
X-0.0319 Y-0.3984
X-0.0405 Y-0.4033
X-0.0494 Y-0.4078
X-0.0584 Y-0.412
X-0.0676 Y-0.4158
X-0.0769 Y-0.4193
X-0.0863 Y-0.4225
G2 X-0.1247 Y-0.4327 I-0.1161 J0.3629
X-0.1837 Y-0.4418 I-0.1182 J0.5706
X-0.263 Y-0.4473 I-0.12 J1.1513
X-0.3226 Y-0.449 I-0.0995 J2.3634
X-0.4618 Y-0.4503 I-0.1417 J8.198
X-0.5911 Y-0.4505 I-0.1223 J33.7055
G1 X-0.6408
X-0.7204
X-0.9292
X-2.2019
X-2.2119
X-2.2218 Y-0.4504
X-2.2318 Y-0.45
X-2.2417 Y-0.4492
X-2.2515 Y-0.4478
X-2.2613 Y-0.4458
X-2.2709 Y-0.4432
X-2.2803 Y-0.44
X-2.2895 Y-0.4362
X-2.2984 Y-0.4318
X-2.307 Y-0.4269
X-2.3153 Y-0.4214
X-2.3232 Y-0.4154
X-2.3308 Y-0.4089
X-2.338 Y-0.4021
X-2.3448 Y-0.3948
X-2.3512 Y-0.3872
X-2.3572 Y-0.3793
X-2.3628 Y-0.3711
X-2.368 Y-0.3626
X-2.3729 Y-0.354
X-2.3774 Y-0.3451
X-2.3816 Y-0.3361
X-2.3854 Y-0.3269
X-2.389 Y-0.3176
G2 X-2.4003 Y-0.2795 I0.341 J0.1221
X-2.4095 Y-0.2307 I0.5012 J0.1195
X-2.4139 Y-0.1911 I0.6219 J0.0903
G1 X-2.4145 Y-0.1812
X-2.4146 Y-0.1713
X-2.4142 Y-0.1613
X-2.4132 Y-0.1514
X-2.4115 Y-0.1416
X-2.4093 Y-0.132
X-2.4064 Y-0.1224
X-2.4028 Y-0.1131
X-2.3987 Y-0.1041
X-2.394 Y-0.0953
X-2.3887 Y-0.0869
X-2.3829 Y-0.0788
X-2.3767 Y-0.0711
X-2.37 Y-0.0637
X-2.3629 Y-0.0568
X-2.3555 Y-0.0502
X-2.3477 Y-0.044
X-2.3396 Y-0.0382
X-2.3313 Y-0.0328
X-2.3227 Y-0.0277
X-2.3139 Y-0.023
X-2.305 Y-0.0187
X-2.2959 Y-0.0147
X-2.2866 Y-0.011
G2 X-2.2487 Y0.0009 I0.1243 J-0.3291
X-2.2 Y0.0107 I0.1217 J-0.4804
X-2.1308 Y0.0181 I0.1241 J-0.8313
X-2.0414 Y0.0221 I0.1261 J-1.8405
X-1.9221 Y0.0236 I0.1336 J-5.6355
X-1.7232 Y0.0241 I0.1742 J-33.432
G1 X-1.6636
X-1.5641
X-1.2957
G3 X-1.1565 Y0.0248 I0.0048 J13.6237
G1 X-1.0968 Y0.0253
G2 X-0.8482 Y0.0266 I0.2805 J-30.1658
G1 X-0.8184 Y0.0267
X-0.7886
X-0.7488 Y0.0268
X-0.6991
X-0.6295
X-0.5102
X-0.2119
X-0.2019
X-0.192
X-0.182 Y0.0266
X-0.1721 Y0.0261
X-0.1622 Y0.0252
X-0.1524 Y0.0238
X-0.1426 Y0.0218
X-0.133 Y0.0193
X-0.1235 Y0.0161
X-0.1143 Y0.0124
X-0.1054 Y0.0081
X-0.0967 Y0.0033
X-0.0883 Y-0.0021
X-0.0802 Y-0.0079
X-0.0726 Y-0.0142
X-0.0652 Y-0.0209
X-0.0583 Y-0.0281
X-0.0517 Y-0.0355
X-0.0456 Y-0.0433
X-0.0398 Y-0.0514
X-0.0343 Y-0.0597
X-0.0293 Y-0.0683
X-0.0246 Y-0.0771
X-0.0203 Y-0.086
X-0.0162 Y-0.0951
X-0.0125 Y-0.1043
G2 X-0.0006 Y-0.1422 I-0.3291 J-0.1249
X0.0107 Y-0.2008 I-0.4804 J-0.1225
G1 X0.0118 Y-0.2107
X0.0124 Y-0.2206
X0.0125 Y-0.2306
X0.012 Y-0.2405
X0.0109 Y-0.2504
X0.0091 Y-0.2601
X0.0066 Y-0.2698
X0.0035 Y-0.2792
X-0.0003 Y-0.2884
X-0.0047 Y-0.2974
X-0.0096 Y-0.306
X-0.0151 Y-0.3143
X-0.0211 Y-0.3222
X-0.0276 Y-0.3298
X-0.0344 Y-0.3369
X-0.0417 Y-0.3437
X-0.0493 Y-0.3501
X-0.0573 Y-0.3561
X-0.0655 Y-0.3617
X-0.074 Y-0.3669
X-0.0826 Y-0.3718
X-0.0915 Y-0.3762
X-0.1005 Y-0.3804
X-0.1097 Y-0.3842
X-0.119 Y-0.3877
G2 X-0.1571 Y-0.399 I-0.1225 J0.3436
X-0.206 Y-0.4082 I-0.1201 J0.5051
X-0.2752 Y-0.4151 I-0.1227 J0.8831
X-0.3646 Y-0.4187 I-0.125 J1.9808
X-0.4939 Y-0.4201 I-0.138 J6.4988
X-0.6729 Y-0.4205 I-0.1601 J36.1287
G1 X-0.7325
X-0.832
X-0.8419
X-1.359
X-2.1445
X-2.1544
X-2.1644
X-2.1743 Y-0.4204
X-2.1843 Y-0.42
X-2.1942 Y-0.4193
X-2.2041 Y-0.4182
X-2.2139 Y-0.4166
X-2.2236 Y-0.4145
X-2.2332 Y-0.4119
X-2.2426 Y-0.4086
X-2.2518 Y-0.4048
X-2.2607 Y-0.4005
X-2.2694 Y-0.3956
X-2.2778 Y-0.3902
X-2.2858 Y-0.3844
X-2.2935 Y-0.3781
X-2.3008 Y-0.3714
X-2.3078 Y-0.3643
X-2.3144 Y-0.3568
X-2.3206 Y-0.3491
X-2.3265 Y-0.341
X-2.3319 Y-0.3327
X-2.3371 Y-0.3242
X-2.3418 Y-0.3155
X-2.3463 Y-0.3066
X-2.3504 Y-0.2976
X-2.3542 Y-0.2884
G2 X-2.3665 Y-0.2506 I0.3116 J0.1225
G1 X-2.3688 Y-0.2409
X-2.3708 Y-0.2311
X-2.3722 Y-0.2213
X-2.3732 Y-0.2114
X-2.3735 Y-0.2015
X-2.3732 Y-0.1915
X-2.3722 Y-0.1816
X-2.3706 Y-0.1718
X-2.3682 Y-0.1622
X-2.3653 Y-0.1527
X-2.3616 Y-0.1434
X-2.3574 Y-0.1344
X-2.3526 Y-0.1257
X-2.3472 Y-0.1173
X-2.3414 Y-0.1093
X-2.335 Y-0.1016
X-2.3283 Y-0.0943
X-2.3211 Y-0.0874
X-2.3136 Y-0.0809
X-2.3058 Y-0.0748
X-2.2977 Y-0.069
X-2.2894 Y-0.0636
X-2.2808 Y-0.0586
X-2.272 Y-0.0539
X-2.263 Y-0.0496
X-2.2539 Y-0.0456
X-2.2447 Y-0.0419
G2 X-2.2068 Y-0.03 I0.1267 J-0.3355
X-2.1581 Y-0.0201 I0.1245 J-0.4869
X-2.0889 Y-0.0124 I0.1271 J-0.8314
X-1.9995 Y-0.0082 I0.1293 J-1.7957
X-1.8802 Y-0.0064 I0.1368 J-5.2922
X-1.6714 Y-0.0059 I0.1827 J-31.0474
G1 X-1.6118
X-1.5223
X-1.3334
G3 X-1.0947 Y-0.0046 I-0.0025 J22.5607
G1 X-0.9688 Y-0.0038
X-0.8428 Y-0.0034
X-0.7169 Y-0.0032
X-0.6672
X-0.5975
X-0.4782
X-0.2595
G2 X-0.2197 Y-0.0038 I0.007 J-0.8723
G1 X-0.2098 Y-0.0045
X-0.1999 Y-0.0055
X-0.1901 Y-0.0071
X-0.1803 Y-0.0091
X-0.1707 Y-0.0117
X-0.1613 Y-0.0148
X-0.152 Y-0.0184
X-0.143 Y-0.0226
X-0.1343 Y-0.0273
X-0.1258 Y-0.0326
X-0.1177 Y-0.0383
X-0.1098 Y-0.0444
X-0.1024 Y-0.051
X-0.0952 Y-0.0579
X-0.0885 Y-0.0652
X-0.0821 Y-0.0728
X-0.0761 Y-0.0807
X-0.0704 Y-0.0889
X-0.0651 Y-0.0973
X-0.0602 Y-0.1059
X-0.0556 Y-0.1148
X-0.0513 Y-0.1237
X-0.0473 Y-0.1328
X-0.0437 Y-0.1421
X-0.0404 Y-0.1515
X-0.0376 Y-0.161
X-0.0352 Y-0.1707
X-0.0335 Y-0.1805
X-0.0323 Y-0.1903
X-0.0319 Y-0.2003
X-0.0322 Y-0.2102
X-0.0332 Y-0.2201
X-0.0349 Y-0.2299
X-0.0373 Y-0.2395
X-0.0404 Y-0.249
X-0.0442 Y-0.2582
X-0.0486 Y-0.2671
X-0.0536 Y-0.2757
X-0.0592 Y-0.284
X-0.0652 Y-0.2919
X-0.0717 Y-0.2994
X-0.0786 Y-0.3065
X-0.086 Y-0.3132
X-0.0936 Y-0.3196
X-0.1016 Y-0.3255
X-0.1098 Y-0.3311
X-0.1183 Y-0.3363
X-0.127 Y-0.3411
X-0.1359 Y-0.3456
X-0.1449 Y-0.3497
X-0.1541 Y-0.3535
X-0.1634 Y-0.357
G2 X-0.2015 Y-0.3683 I-0.1243 J0.3495
X-0.2504 Y-0.3776 I-0.1225 J0.5123
X-0.3196 Y-0.3846 I-0.1253 J0.8852
X-0.409 Y-0.3885 I-0.1279 J1.9438
X-0.5382 Y-0.3901 I-0.141 J6.1415
X-0.7272 Y-0.3905 I-0.1687 J34.0739
G1 X-0.7868
X-0.8863
X-1.1945
X-1.642
X-2.0894
G2 X-2.1292 Y-0.3903 I-0.0083 J2.4608
G1 X-2.1391 Y-0.39
X-2.1491 Y-0.3895
X-2.159 Y-0.3886
X-2.1688 Y-0.3873
X-2.1786 Y-0.3856
X-2.1883 Y-0.3833
X-2.1978 Y-0.3806
X-2.2072 Y-0.3773
X-2.2164 Y-0.3734
X-2.2253 Y-0.3691
X-2.234 Y-0.3643
X-2.2424 Y-0.3589
X-2.2505 Y-0.3531
X-2.2583 Y-0.3469
X-2.2657 Y-0.3403
X-2.2728 Y-0.3333
X-2.2795 Y-0.326
X-2.2858 Y-0.3183
X-2.2918 Y-0.3104
X-2.2974 Y-0.3022
X-2.3026 Y-0.2937
X-2.3074 Y-0.285
X-2.3116 Y-0.276
X-2.3154 Y-0.2668
X-2.3184 Y-0.2573
X-2.3208 Y-0.2476
X-2.3224 Y-0.2378
X-2.3233 Y-0.2279
Y-0.218
X-2.3226 Y-0.2081
X-2.3211 Y-0.1982
X-2.3189 Y-0.1885
X-2.3159 Y-0.1791
X-2.3123 Y-0.1698
X-2.308 Y-0.1608
X-2.3031 Y-0.1522
X-2.2976 Y-0.1439
X-2.2916 Y-0.1359
X-2.2852 Y-0.1284
X-2.2783 Y-0.1212
X-2.271 Y-0.1144
X-2.2634 Y-0.1081
X-2.2554 Y-0.1021
X-2.2472 Y-0.0965
X-2.2387 Y-0.0913
X-2.2301 Y-0.0864
X-2.2212 Y-0.0819
X-2.2122 Y-0.0777
X-2.203 Y-0.0739
X-2.1937 Y-0.0704
G2 X-2.1556 Y-0.0589 I0.1256 J-0.3488
X-2.1068 Y-0.0495 I0.1241 J-0.511
X-2.0376 Y-0.0422 I0.1275 J-0.8781
X-1.9483 Y-0.0382 I0.1304 J-1.8975
X-1.819 Y-0.0364 I0.1437 J-5.8202
X-1.6201 Y-0.0359 I0.1769 J-32.3355
G1 X-1.5704
X-1.4909
X-1.3716
G3 X-1.2125 Y-0.0355 I0.0098 J26.0539
G1 X-1.1926 Y-0.0353
X-1.1727 Y-0.0352
X-1.1429 Y-0.035
X-1.0931 Y-0.0346
X-0.9639 Y-0.0338
X-0.8346 Y-0.0334
X-0.7054 Y-0.0333
X-0.6556 Y-0.0332
X-0.586
X-0.4767
X-0.3176
G2 X-0.2678 Y-0.0336 I0.0102 J-1.8788
G1 X-0.2579 Y-0.034
X-0.248 Y-0.0348
X-0.2381 Y-0.0359
X-0.2283 Y-0.0374
X-0.2185 Y-0.0394
X-0.2089 Y-0.0418
X-0.1994 Y-0.0448
X-0.1901 Y-0.0483
X-0.181 Y-0.0524
X-0.1722 Y-0.0569
X-0.1636 Y-0.0619
X-0.1553 Y-0.0674
X-0.1473 Y-0.0733
X-0.1396 Y-0.0796
X-0.1323 Y-0.0864
X-0.1254 Y-0.0935
X-0.1188 Y-0.1009
X-0.1126 Y-0.1087
X-0.107 Y-0.1169
X-0.1018 Y-0.1254
X-0.0974 Y-0.1343
X-0.0937 Y-0.1435
X-0.0908 Y-0.153
X-0.0887 Y-0.1628
X-0.0875 Y-0.1726
X-0.0871 Y-0.1826
X-0.0876 Y-0.1925
X-0.089 Y-0.2024
X-0.0912 Y-0.2121
X-0.0941 Y-0.2216
X-0.0977 Y-0.2308
X-0.1021 Y-0.2398
X-0.107 Y-0.2484
X-0.1126 Y-0.2566
X-0.1187 Y-0.2645
X-0.1252 Y-0.272
X-0.1322 Y-0.279
X-0.1396 Y-0.2857
X-0.1473 Y-0.292
X-0.1554 Y-0.2978
X-0.1637 Y-0.3033
X-0.1722 Y-0.3083
X-0.181 Y-0.313
X-0.1899 Y-0.3174
X-0.199 Y-0.3214
X-0.2083 Y-0.3251
X-0.2176 Y-0.3285
G2 X-0.2559 Y-0.3393 I-0.1225 J0.359
X-0.3146 Y-0.3494 I-0.1257 J0.554
X-0.3939 Y-0.356 I-0.1283 J1.0654
X-0.4833 Y-0.3589 I-0.1259 J2.4847
X-0.6225 Y-0.3602 I-0.1466 J8.4553
X-0.7717 Y-0.3605 I-0.1369 J34.7694
G1 X-0.8214
X-0.901
X-1.06
X-2.0444
G2 X-2.0942 Y-0.3601 I-0.0094 J2.0031
G1 X-2.1041 Y-0.3597
X-2.114 Y-0.359
X-2.1239 Y-0.358
X-2.1338 Y-0.3567
X-2.1435 Y-0.3548
X-2.1532 Y-0.3525
X-2.1627 Y-0.3498
X-2.1721 Y-0.3465
X-2.1813 Y-0.3427
X-2.1903 Y-0.3384
X-2.199 Y-0.3336
X-2.2074 Y-0.3283
X-2.2155 Y-0.3225
X-2.2232 Y-0.3163
X-2.2305 Y-0.3094
X-2.2371 Y-0.302
X-2.2431 Y-0.2941
X-2.2482 Y-0.2855
X-2.2524 Y-0.2765
X-2.2557 Y-0.2671
X-2.258 Y-0.2575
X-2.2593 Y-0.2476
X-2.2597 Y-0.2377
X-2.2591 Y-0.2278
X-2.2577 Y-0.2179
X-2.2554 Y-0.2083
X-2.2522 Y-0.1988
X-2.2483 Y-0.1897
X-2.2438 Y-0.1808
X-2.2386 Y-0.1724
X-2.2328 Y-0.1643
X-2.2265 Y-0.1566
X-2.2197 Y-0.1493
X-2.2125 Y-0.1425
X-2.2049 Y-0.1361
X-2.1969 Y-0.1301
X-2.1887 Y-0.1245
X-2.1803 Y-0.1192
X-2.1716 Y-0.1144
X-2.1627 Y-0.11
X-2.1536 Y-0.1059
X-2.1444 Y-0.1021
X-2.1351 Y-0.0986
G2 X-2.0969 Y-0.0875 I0.1214 J-0.347
X-2.048 Y-0.0785 I0.121 J-0.5197
X-1.9788 Y-0.0717 I0.1253 J-0.915
X-1.9192 Y-0.0688 I0.1133 J-1.7212
X-1.79 Y-0.0666 I0.1475 J-4.7518
X-1.611 Y-0.066 I0.1579 J-21.1407
G1 X-1.5712 Y-0.0659
X-1.5215
X-1.432
G3 X-1.1337 Y-0.0649 I0.0271 J35.9685
G1 X-1.084 Y-0.0645
X-0.8951 Y-0.0636
X-0.7061 Y-0.0633
X-0.6564 Y-0.0632
X-0.5968
X-0.5073
X-0.3681
G2 X-0.3084 Y-0.0636 I0.0126 J-2.5095
G1 X-0.2985 Y-0.064
X-0.2886 Y-0.0647
X-0.2787 Y-0.0657
X-0.2688 Y-0.067
X-0.259 Y-0.0688
X-0.2493 Y-0.071
X-0.2398 Y-0.0737
X-0.2303 Y-0.0769
X-0.2211 Y-0.0806
X-0.2121 Y-0.0848
X-0.2034 Y-0.0896
X-0.1951 Y-0.0951
X-0.1874 Y-0.1013
X-0.1804 Y-0.1084
X-0.1743 Y-0.1163
X-0.1692 Y-0.1248
X-0.1652 Y-0.1339
X-0.1622 Y-0.1434
X-0.1604 Y-0.1532
X-0.1596 Y-0.1631
X-0.1598 Y-0.173
X-0.1611 Y-0.1829
X-0.1632 Y-0.1926
X-0.1663 Y-0.2021
X-0.1701 Y-0.2112
X-0.1747 Y-0.2201
X-0.1799 Y-0.2285
X-0.1857 Y-0.2366
X-0.1921 Y-0.2442
X-0.199 Y-0.2514
X-0.2063 Y-0.2581
X-0.214 Y-0.2645
X-0.222 Y-0.2703
X-0.2303 Y-0.2758
X-0.2389 Y-0.2809
X-0.2476 Y-0.2855
X-0.2566 Y-0.2898
X-0.2657 Y-0.2938
X-0.275 Y-0.2974
X-0.2844 Y-0.3006
G2 X-0.3228 Y-0.3111 I-0.1173 J0.3559
X-0.3718 Y-0.3194 I-0.1171 J0.5428
X-0.451 Y-0.326 I-0.1265 J1.0268
X-0.5404 Y-0.329 I-0.1244 J2.4509
X-0.6796 Y-0.3302 I-0.1461 J8.5334
G1 X-0.7592 Y-0.3304
X-0.8387 Y-0.3305
X-0.8984
X-0.9879
X-1.2166
X-1.9922
G2 X-2.0518 Y-0.3302 I-0.0121 J3.1155
G1 X-2.0618 Y-0.3298
X-2.0717 Y-0.3293
X-2.0816 Y-0.3285
X-2.0915 Y-0.3273
X-2.1013 Y-0.3258
X-2.1111 Y-0.3238
X-2.1207 Y-0.3214
X-2.1301 Y-0.3183
X-2.1391 Y-0.3139
X-2.1473 Y-0.3084
X-2.1548 Y-0.3018
X-2.1613 Y-0.2943
X-2.1667 Y-0.2859
X-2.171 Y-0.2769
X-2.174 Y-0.2675
X-2.1757 Y-0.2577
X-2.1761 Y-0.2477
X-2.1751 Y-0.2378
X-2.1728 Y-0.2282
X-2.1693 Y-0.2189
X-2.1651 Y-0.2099
X-2.1601 Y-0.2013
X-2.1544 Y-0.1931
X-2.1482 Y-0.1854
X-2.1414 Y-0.1781
X-2.1342 Y-0.1712
X-2.1266 Y-0.1648
X-2.1186 Y-0.1589
X-2.1104 Y-0.1533
X-2.1018 Y-0.1482
X-2.0931 Y-0.1435
X-2.0841 Y-0.1392
X-2.075 Y-0.1353
X-2.0657 Y-0.1316
X-2.0563 Y-0.1283
G2 X-2.018 Y-0.1179 I0.1163 J-0.3521
X-1.969 Y-0.1097 I0.1163 J-0.5403
X-1.8897 Y-0.103 I0.1262 J-1.0321
X-1.8003 Y-0.1001 I0.1245 J-2.4754
X-1.6611 Y-0.0989 I0.1466 J-8.6207
G1 X-1.502 Y-0.0986
X-1.4125
X-1.2882 Y-0.0984
X-1.1639 Y-0.0977
X-1.0844 Y-0.0972
X-0.8954 Y-0.0963
X-0.7065 Y-0.096
X-0.6568
X-0.5971 Y-0.0959
X-0.5176
X-0.4182
G2 X-0.3585 Y-0.0961 I0.013 J-4.1791
G1 X-0.3486 Y-0.0964
X-0.3386 Y-0.0968
X-0.3287 Y-0.0974
X-0.3188 Y-0.0983
X-0.3089 Y-0.0996
X-0.2993 Y-0.1021
X-0.2902 Y-0.106
X-0.2816 Y-0.111
X-0.2738 Y-0.1172
X-0.2668 Y-0.1243
X-0.2609 Y-0.1323
X-0.2562 Y-0.141
X-0.2526 Y-0.1503
X-0.2504 Y-0.16
X-0.2494 Y-0.1699
X-0.2498 Y-0.1798
X-0.2515 Y-0.1896
X-0.2546 Y-0.1991
X-0.2588 Y-0.2081
X-0.2643 Y-0.2164
X-0.2708 Y-0.2239
X-0.2783 Y-0.2305
X-0.2862 Y-0.2365
X-0.2944 Y-0.242
X-0.3029 Y-0.2472
X-0.3116 Y-0.252
X-0.3206 Y-0.2563
X-0.3297 Y-0.2604
X-0.3389 Y-0.264
X-0.3483 Y-0.2674
G2 X-0.3866 Y-0.278 I-0.117 J0.3469
X-0.4355 Y-0.2865 I-0.1168 J0.53
X-0.5049 Y-0.2927 I-0.1215 J0.9595
X-0.6042 Y-0.2962 I-0.1311 J2.3216
X-0.7335 Y-0.2975 I-0.1391 J7.804
G1 X-0.818 Y-0.2977
X-0.9025 Y-0.2978
X-0.9622
X-1.0517
X-1.2704
X-1.9466
G2 X-1.9947 Y-0.2977 I-0.0085 J5.9804
G3 X-2.0131 Y-0.3168 Z0.258 I0.0004 J-0.0187
G1 X-2.013 Y-0.3173
G3 X-2.0053 Y-0.3316 I0.0187 J0.0008 F200.
G1 X-1.9021 Y-0.4103
G3 X-1.839 Y-0.4289 I0.0579 J0.0796
G1 X-0.4723 Y-0.3958
G3 X-0.3748 Y-0.3054 I-0.0006 J0.0984
G1 Y-0.305 F40.
G3 X-0.3769 Y-0.2758 Z0.25 I-0.0981 J0.0076
G1 X-0.3779 Y-0.2719
G3 X-0.3973 Y-0.267 I-0.0349 J-0.0972
X-0.4242 Y-0.2638 I-0.042 J-0.2437
X-0.4664 Y-0.2623 I-0.0437 J-0.6188
X-0.5331 Y-0.2626 I-0.0227 J-2.2945
G2 X-0.6922 Y-0.2644 I-0.3236 J20.9226
G1 X-0.8065 Y-0.2649
X-0.9209 Y-0.2651
X-0.9706
X-1.0402
X-1.1595
X-1.6567
X-1.8966
G3 X-1.9146 Y-0.286 I0.0007 J-0.0187
G1 X-1.9142 Y-0.2892 Z0.2503
X-1.9138 Y-0.2923 Z0.2511
X-1.9135 Y-0.2953 Z0.2525
X-1.9132 Y-0.298 Z0.2544
X-1.9129 Y-0.3002 Z0.2567
X-1.9127 Y-0.3021 Z0.2594
X-1.9126 Y-0.3035 Z0.2623
X-1.9125 Y-0.3043 Z0.2655
X-1.9124 Y-0.3046 Z0.2688
G0 Z0.6
(ADAPTIVE3 3)
G64 P0.004 Q0.004
G0 Z1.
X-2.1555 Y-0.1969
Z0.3088
G1 Z0.29 F40.
Z0.15 F13.333
X-2.1581 Y-0.199 F40.
X-2.1575 Y-0.2004
X-2.1562 Y-0.2011
X-2.1547 Y-0.2013
X-2.1533 Y-0.2009
X-2.1521 Y-0.1999
X-2.151 Y-0.1989
X-2.1504 Y-0.196
X-2.1507 Y-0.1945
X-2.1516 Y-0.1933
X-2.1541 Y-0.1917
X-2.1556 Y-0.1915
X-2.1585 Y-0.1922
X-2.1596 Y-0.1932
X-2.1608 Y-0.196
Y-0.199
X-2.1593 Y-0.2016
X-2.1568 Y-0.2032
X-2.1538 Y-0.2033
X-2.151 Y-0.2022
X-2.149 Y-0.2
X-2.1481 Y-0.1971
X-2.1485 Y-0.1941
X-2.15 Y-0.1916
X-2.1524 Y-0.1898
X-2.1554 Y-0.1891
X-2.1583 Y-0.1895
X-2.1608 Y-0.1912
X-2.1626 Y-0.1936
X-2.1634 Y-0.1965
X-2.1632 Y-0.1995
X-2.1619 Y-0.2022
X-2.1599 Y-0.2044
X-2.1572 Y-0.2057
X-2.1542 Y-0.206
X-2.1513 Y-0.2052
X-2.1487 Y-0.2037
X-2.1468 Y-0.2014
X-2.1457 Y-0.1986
X-2.1455 Y-0.1956
X-2.1462 Y-0.1927
X-2.1477 Y-0.1901
X-2.1499 Y-0.1881
X-2.1526 Y-0.1868
X-2.1556 Y-0.1863
X-2.1585 Y-0.1867
X-2.1612 Y-0.188
X-2.1635 Y-0.19
X-2.1652 Y-0.1924
X-2.1662 Y-0.1953
X-2.1664 Y-0.1983
X-2.1657 Y-0.2012
X-2.1644 Y-0.2039
X-2.1624 Y-0.2061
X-2.1599 Y-0.2078
X-2.1571 Y-0.2087
X-2.1541 Y-0.2089
X-2.1511 Y-0.2084
X-2.1484 Y-0.2072
X-2.146 Y-0.2054
X-2.1423 Y-0.2007
X-2.1414 Y-0.1947
X-2.1432 Y-0.189
X-2.1473 Y-0.1846
X-2.1528 Y-0.1822
X-2.1588 Y-0.1823
X-2.1643 Y-0.1847
X-2.1685 Y-0.189
X-2.1707 Y-0.1946
X-2.1706 Y-0.2006
X-2.1684 Y-0.2062
X-2.1643 Y-0.2105
X-2.1589 Y-0.2131
X-2.1529 Y-0.2135
X-2.1471 Y-0.2119
X-2.1421 Y-0.2086
X-2.1386 Y-0.2037
X-2.1368 Y-0.198
X-2.137 Y-0.192
X-2.1392 Y-0.1864
G3 X-2.1682 Y-0.1813 I-0.0169 J-0.0109
X-2.1712 Y-0.2106 I0.0121 J-0.016
X-2.1318 Y-0.1914 I0.0173 J0.0144
X-2.1801 Y-0.189 I-0.0244 J-0.0049
X-2.1317 Y-0.2135 I0.0261 J-0.0086
X-2.1661 Y-0.1671 I-0.0236 J0.0184
X-2.1519 Y-0.231 I0.0108 J-0.0311
X-2.1453 Y-0.1601 I-0.0024 J0.036
X-2.1763 Y-0.2318 I-0.011 J-0.0379
X-2.1122 Y-0.1854 I0.023 J0.0357
X-2.2021 Y-0.1889 I-0.0446 J-0.0108
X-2.1277 Y-0.2393 I0.048 J-0.0092
X-2.1512 Y-0.1426 I-0.0271 J0.0446
X-2.1853 Y-0.2459 I-0.0051 J-0.0556
X-2.0961 Y-0.1796 I0.0322 J0.0499
X-2.2148 Y-0.171 I-0.0608 J-0.0163
X-2.1839 Y-0.2576 I0.0592 J-0.0277
X-2.1175 Y-0.1361 I0.0297 J0.0627
X-2.2263 Y-0.2204 I-0.0396 J-0.0613
X-2.1002 Y-0.2515 I0.0724 J0.0224
X-2.1589 Y-0.1153 I-0.055 J0.0571
X-2.1925 Y-0.2737 I0.0026 J-0.0833
X-2.08 Y-0.1479 I0.039 J0.0783
X-2.2464 Y-0.1767 I-0.0773 J-0.0483
X-2.1164 Y-0.2852 I0.0919 J-0.022
X-2.1246 Y-0.1006 I-0.0381 J0.0908
X-2.2337 Y-0.1298 I-0.033 J-0.0947
X-2.1307 Y-0.3006 I0.0789 J-0.0689
X-2.1023 Y-0.0989 I-0.0235 J0.1062
X-2.2679 Y-0.2203 I-0.0551 J-0.0984
X-2.0713 Y-0.2804 I0.1143 J0.0222
X-2.0449 Y-0.2429 I-0.0707 J0.0777
G1 X-2.0436 Y-0.2396
X-2.0431 Y-0.2382
X-2.0426 Y-0.237
G3 X-2.0367 Y-0.2125 I-0.121 J0.042
G1 X-2.0368 Y-0.2092 Z0.1509
X-2.0374 Y-0.206 Z0.1518
X-2.0385 Y-0.203 Z0.1527
X-2.0402 Y-0.2002 Z0.1536
X-2.0423 Y-0.1977 Z0.1544
X-2.0449 Y-0.1956 Z0.1553
X-2.0477 Y-0.194 Z0.1562
X-2.0508 Y-0.1929 Z0.1571
X-2.054 Y-0.1924 Z0.158
X-2.0544
G3 X-2.0737 Y-0.2068 I-0.001 J-0.0187 F110.
G1 X-2.0781 Y-0.2252
G3 X-2.0676 Y-0.2466 I0.0182 J-0.0043
G1 X-2.0672 Y-0.2468 F40.
G3 X-2.0426 Y-0.237 Z0.15 I0.0074 J0.0172
X-2.0363 Y-0.2075 I-0.0771 J0.0319
G1 X-2.0359 Y-0.2036
X-2.0357 Y-0.2018
G3 X-2.0363 Y-0.1844 I-0.0794 J0.0061
X-2.0581 Y-0.1693 Z0.158 I-0.0184 J-0.0034
G1 X-2.0585 Y-0.1694
G3 X-2.0735 Y-0.1884 I0.0038 J-0.0184 F110.
G1 X-2.0731 Y-0.2003
G3 X-2.0569 Y-0.2182 I0.0187 J0.0006
G1 X-2.0565 Y-0.2183 F40.
G3 X-2.0357 Y-0.2018 Z0.15 I0.0022 J0.0186
X-2.0383 Y-0.172 I-0.0862 J0.0076
X-2.0712 Y-0.1115 I-0.1136 J-0.0226
X-2.1029 Y-0.0882 I-0.0952 J-0.0965
G1 X-2.1207 Y-0.0821
X-2.1271 Y-0.0799
G3 X-2.1598 Y-0.0765 I-0.0436 J-0.2625
X-2.2202 Y-0.0954 I0.0075 J-0.1298
G1 X-2.2276 Y-0.1012
G3 X-2.2629 Y-0.2502 I0.071 J-0.0955
X-2.1634 Y-0.3165 I0.1066 J0.0522
X-2.0995 Y-0.3027 I0.0087 J0.1149
G1 X-2.0929 Y-0.2996
G3 X-2.0498 Y-0.2541 I-0.0705 J0.11
G1 X-2.0478 Y-0.25
X-2.0449 Y-0.2429
G3 X-2.0446 Y-0.231 I-0.0176 J0.0065
G1 X-2.0458 Y-0.2287 Z0.1502
X-2.047 Y-0.2265 Z0.1507
X-2.0482 Y-0.2243 Z0.1516
X-2.0505 Y-0.2225 Z0.1533
X-2.0525 Y-0.221 Z0.1554
X-2.0542 Y-0.2196 Z0.1579
X-2.0555 Y-0.2191 Z0.1604
X-2.0566 Y-0.2187 Z0.1631
X-2.0572 Y-0.2185 Z0.1659
X-2.0574 Y-0.2184 Z0.1687
G0 Z0.2088
X-2.1555 Y-0.1969
G1 Z0.19 F40.
Z0.05 F13.333
X-2.1581 Y-0.199 F40.
X-2.1575 Y-0.2004
X-2.1562 Y-0.2011
X-2.1547 Y-0.2013
X-2.1533 Y-0.2009
X-2.1521 Y-0.1999
X-2.151 Y-0.1989
X-2.1504 Y-0.196
X-2.1507 Y-0.1945
X-2.1516 Y-0.1933
X-2.1541 Y-0.1917
X-2.1556 Y-0.1915
X-2.1585 Y-0.1922
X-2.1596 Y-0.1932
X-2.1608 Y-0.196
Y-0.199
X-2.1593 Y-0.2016
X-2.1568 Y-0.2032
X-2.1538 Y-0.2033
X-2.151 Y-0.2022
X-2.149 Y-0.2
X-2.1481 Y-0.1971
X-2.1485 Y-0.1941
X-2.15 Y-0.1916
X-2.1524 Y-0.1898
X-2.1554 Y-0.1891
X-2.1583 Y-0.1895
X-2.1608 Y-0.1912
X-2.1625 Y-0.1936
X-2.1634 Y-0.1965
X-2.1632 Y-0.1995
X-2.1619 Y-0.2022
X-2.1599 Y-0.2044
X-2.1572 Y-0.2057
X-2.1542 Y-0.206
X-2.1513 Y-0.2052
X-2.1487 Y-0.2037
X-2.1468 Y-0.2014
X-2.1457 Y-0.1986
X-2.1455 Y-0.1956
X-2.1462 Y-0.1927
X-2.1477 Y-0.1901
X-2.1499 Y-0.1881
X-2.1526 Y-0.1868
X-2.1556 Y-0.1863
X-2.1585 Y-0.1867
X-2.1612 Y-0.188
X-2.1635 Y-0.19
X-2.1652 Y-0.1924
X-2.1662 Y-0.1953
X-2.1664 Y-0.1983
X-2.1657 Y-0.2012
X-2.1644 Y-0.2039
X-2.1624 Y-0.2061
X-2.1599 Y-0.2078
X-2.1571 Y-0.2087
X-2.1541 Y-0.2089
X-2.1511 Y-0.2084
X-2.1484 Y-0.2072
X-2.146 Y-0.2054
X-2.1423 Y-0.2007
X-2.1414 Y-0.1947
X-2.1432 Y-0.189
X-2.1473 Y-0.1846
X-2.1528 Y-0.1822
X-2.1588 Y-0.1823
X-2.1643 Y-0.1847
X-2.1685 Y-0.189
X-2.1707 Y-0.1946
X-2.1706 Y-0.2006
X-2.1684 Y-0.2062
X-2.1643 Y-0.2105
X-2.1589 Y-0.2131
X-2.1529 Y-0.2135
X-2.1471 Y-0.2119
X-2.1421 Y-0.2086
X-2.1386 Y-0.2037
X-2.1368 Y-0.198
X-2.137 Y-0.192
X-2.1392 Y-0.1864
G3 X-2.1682 Y-0.1813 I-0.0169 J-0.0109
X-2.1712 Y-0.2106 I0.0121 J-0.0161
X-2.1318 Y-0.1914 I0.0173 J0.0144
X-2.1801 Y-0.189 I-0.0244 J-0.0049
X-2.1317 Y-0.2135 I0.0261 J-0.0086
X-2.1661 Y-0.1671 I-0.0236 J0.0184
X-2.1519 Y-0.231 I0.0108 J-0.0311
X-2.1453 Y-0.1601 I-0.0023 J0.036
X-2.1764 Y-0.2318 I-0.011 J-0.0378
X-2.1122 Y-0.1854 I0.023 J0.0357
X-2.2021 Y-0.1889 I-0.0446 J-0.0108
X-2.1277 Y-0.2393 I0.048 J-0.0093
X-2.1512 Y-0.1426 I-0.0271 J0.0446
X-2.1853 Y-0.2459 I-0.0051 J-0.0556
X-2.0961 Y-0.1796 I0.0322 J0.0498
X-2.2148 Y-0.171 I-0.0609 J-0.0162
X-2.184 Y-0.2576 I0.0592 J-0.0277
X-2.1175 Y-0.1361 I0.0297 J0.0627
X-2.2263 Y-0.2204 I-0.0396 J-0.0612
X-2.1002 Y-0.2515 I0.0724 J0.0224
X-2.1589 Y-0.1152 I-0.055 J0.0571
X-2.1925 Y-0.2736 I0.0025 J-0.0833
X-2.08 Y-0.148 I0.039 J0.0783
X-2.2464 Y-0.1766 I-0.0774 J-0.0483
X-2.1164 Y-0.2852 I0.0919 J-0.0221
X-2.1245 Y-0.1006 I-0.0381 J0.0908
X-2.2336 Y-0.1298 I-0.0331 J-0.0947
X-2.1308 Y-0.3007 I0.0789 J-0.0689
X-2.1023 Y-0.099 I-0.0234 J0.1062
X-2.2679 Y-0.2202 I-0.0552 J-0.0984
X-2.0713 Y-0.2805 I0.1143 J0.0222
X-2.045 Y-0.243 I-0.0706 J0.0777
G1 X-2.0426 Y-0.237
X-2.0422 Y-0.2358
X-2.0414 Y-0.2337
G3 X-2.0371 Y-0.2153 I-0.0941 J0.0321
X-2.0539 Y-0.1948 Z0.058 I-0.0187 J0.0018
G1 X-2.0543
G3 X-2.074 Y-0.2092 I-0.0014 J-0.0187 F110.
G1 X-2.0772 Y-0.2226
G3 X-2.0661 Y-0.2442 I0.0182 J-0.0043
G1 X-2.0657 Y-0.2444 F40.
G3 X-2.0414 Y-0.2337 Z0.05 I0.0068 J0.0175
X-2.0363 Y-0.2075 I-0.0725 J0.0279
G1 X-2.0359 Y-0.2036
X-2.0357 Y-0.2018
G3 X-2.0363 Y-0.1844 I-0.0793 J0.0061
X-2.0581 Y-0.1693 Z0.058 I-0.0184 J-0.0034
G1 X-2.0585 Y-0.1694
G3 X-2.0735 Y-0.1884 I0.0038 J-0.0184 F110.
G1 X-2.0731 Y-0.2003
G3 X-2.0569 Y-0.2182 I0.0187 J0.0006
G1 X-2.0565 Y-0.2183 F40.
G3 X-2.0357 Y-0.2018 Z0.05 I0.0022 J0.0186
X-2.0383 Y-0.172 I-0.0862 J0.0076
X-2.0712 Y-0.1115 I-0.1136 J-0.0226
X-2.1349 Y-0.0786 I-0.0835 J-0.0834
X-2.1918 Y-0.0822 I-0.0208 J-0.1218
X-2.2277 Y-0.1009 I0.0415 J-0.1236
X-2.0833 Y-0.2927 I0.0722 J-0.0959
X-2.0447 Y-0.2431 I-0.0722 J0.0959
G1 X-2.0439 Y-0.2401
X-2.0437 Y-0.237
X-2.0439 Y-0.234
X-2.0446 Y-0.231
X-2.0458 Y-0.2287 Z0.0502
X-2.047 Y-0.2265 Z0.0507
X-2.0482 Y-0.2244 Z0.0516
X-2.0505 Y-0.2226 Z0.0533
X-2.0525 Y-0.221 Z0.0554
X-2.0542 Y-0.2197 Z0.0579
X-2.0556 Y-0.2191 Z0.0604
X-2.0566 Y-0.2187 Z0.0631
X-2.0572 Y-0.2185 Z0.0659
X-2.0574 Y-0.2184 Z0.0687
G0 Z0.1088
X-2.1555 Y-0.1969
G1 Z0.09 F40.
Z-0.05 F13.333
X-2.1519 Y-0.1941 F40.
X-2.1528 Y-0.1929
X-2.1541 Y-0.1921
X-2.1555 Y-0.1919
X-2.1585 Y-0.1925
X-2.1596 Y-0.1935
X-2.1608 Y-0.1963
X-2.1607 Y-0.1978
X-2.16 Y-0.1991
X-2.1579 Y-0.2013
X-2.1566 Y-0.2019
X-2.1551 Y-0.202
X-2.1522 Y-0.2011
X-2.1511 Y-0.2001
X-2.1497 Y-0.1974
X-2.1496 Y-0.1944
X-2.1509 Y-0.1918
X-2.1534 Y-0.1901
X-2.1564 Y-0.1896
X-2.1593 Y-0.1903
X-2.1615 Y-0.1923
X-2.1629 Y-0.195
Y-0.198
X-2.1619 Y-0.2008
X-2.1598 Y-0.203
X-2.1571 Y-0.2042
X-2.1541 Y-0.2044
X-2.1513 Y-0.2033
X-2.149 Y-0.2014
X-2.1475 Y-0.1988
X-2.1469 Y-0.1959
X-2.1474 Y-0.1929
X-2.1489 Y-0.1903
X-2.1511 Y-0.1884
X-2.1539 Y-0.1872
X-2.1569 Y-0.1869
X-2.1598 Y-0.1877
X-2.1623 Y-0.1893
X-2.1643 Y-0.1916
X-2.1655 Y-0.1943
X-2.1658 Y-0.1973
X-2.1652 Y-0.2002
X-2.1638 Y-0.2029
X-2.1617 Y-0.2051
X-2.1591 Y-0.2065
X-2.1562 Y-0.2072
X-2.1532 Y-0.207
X-2.1503 Y-0.2061
X-2.1478 Y-0.2044
X-2.1459 Y-0.2022
X-2.1446 Y-0.1995
X-2.144 Y-0.1965
X-2.1441 Y-0.1935
X-2.1451 Y-0.1907
X-2.1468 Y-0.1882
X-2.149 Y-0.1861
X-2.1516 Y-0.1847
X-2.1545 Y-0.1839
X-2.1605
X-2.1658 Y-0.1868
X-2.1691 Y-0.1918
X-2.1701 Y-0.1977
X-2.1685 Y-0.2035
X-2.1648 Y-0.2082
X-2.1595 Y-0.211
X-2.1536 Y-0.2116
X-2.1478 Y-0.2099
X-2.1432 Y-0.2061
X-2.1402 Y-0.2009
X-2.1394 Y-0.195
X-2.1408 Y-0.1891
X-2.1441 Y-0.1842
X-2.149 Y-0.1807
X-2.1548 Y-0.1789
X-2.1607 Y-0.1792
X-2.1663 Y-0.1814
X-2.1708 Y-0.1854
X-2.1738 Y-0.1906
G3 X-2.1595 Y-0.2163 I0.0191 J-0.0062
X-2.1349 Y-0.2 I0.0047 J0.0195
X-2.1779 Y-0.1869 I-0.0222 J0.0041
X-2.1324 Y-0.2091 I0.0231 J-0.0104
X-2.164 Y-0.1684 I-0.024 J0.014
X-2.1601 Y-0.228 I0.0077 J-0.0294
X-2.1363 Y-0.1678 I0.0053 J0.0328
X-2.1871 Y-0.218 I-0.0213 J-0.0294
X-2.1153 Y-0.1896 I0.033 J0.0216
X-2.198 Y-0.1819 I-0.0423 J-0.0061
X-2.126 Y-0.2337 I0.0431 J-0.016
X-2.1533 Y-0.1455 I-0.0299 J0.0391
X-2.1865 Y-0.2415 I-0.0038 J-0.0525
X-2.1019 Y-0.1753 I0.0325 J0.0457
X-2.2107 Y-0.1683 I-0.0559 J-0.0203
X-2.1248 Y-0.2538 I0.0557 J-0.0299
X-2.0928 Y-0.1722 I-0.0293 J0.0585
X-2.2234 Y-0.2197 I-0.0649 J-0.0249
X-2.0881 Y-0.229 I0.0695 J0.0224
X-2.1628 Y-0.1189 I-0.0678 J0.0343
X-2.2103 Y-0.2573 I0.0055 J-0.0792
X-2.0751 Y-0.1679 I0.0566 J0.0614
X-2.2435 Y-0.178 I-0.0828 J-0.0283
X-2.1053 Y-0.2752 I0.089 J-0.0203
X-2.1204 Y-0.1064 I-0.0496 J0.0806
X-2.2456 Y-0.2425 I-0.0374 J-0.0912
X-2.148 Y-0.2994 I0.0906 J0.0433
X-2.0728 Y-0.2603 I-0.0054 J0.1023
G1 X-2.0718 Y-0.259
X-2.071 Y-0.2579
X-2.0704 Y-0.2571
G3 X-2.0605 Y-0.2394 I-0.0715 J0.0517
X-2.0714 Y-0.2153 Z-0.042 I-0.0176 J0.0066
G1 X-2.0718 Y-0.2152
G3 X-2.0944 Y-0.2238 I-0.0062 J-0.0177 F110.
G1 X-2.1012 Y-0.2361
G3 X-2.0971 Y-0.2594 I0.0164 J-0.0091
G1 X-2.0968 Y-0.2596 F40.
G3 X-2.0704 Y-0.2571 Z-0.05 I0.0119 J0.0145
G1 X-2.0651 Y-0.25
X-2.0639 Y-0.2477
X-2.0578 Y-0.2329
X-2.0572 Y-0.2316
X-2.0568 Y-0.2306
G3 X-2.0534 Y-0.2182 I-0.0427 J0.0184
X-2.0702 Y-0.1977 Z-0.042 I-0.0187 J0.0018
G1 X-2.0706
G3 X-2.0901 Y-0.2113 I-0.0014 J-0.0187 F110.
G1 X-2.0919 Y-0.2177
G3 X-2.082 Y-0.2397 I0.018 J-0.0051
G1 X-2.0816 Y-0.2399 F40.
G3 X-2.0568 Y-0.2306 Z-0.05 I0.0078 J0.0171
G1 X-2.056 Y-0.2287
X-2.0546 Y-0.2252
X-2.0538 Y-0.2217
X-2.0517 Y-0.2053
X-2.0515 Y-0.2038
X-2.0512 Y-0.2019
X-2.0508 Y-0.196
Y-0.1955
G3 X-2.0711 Y-0.1785 Z-0.042 I-0.0187 J-0.0017
G1 X-2.0715
G3 X-2.0879 Y-0.1938 I0.0021 J-0.0186 F110.
G1 X-2.0882 Y-0.1956
G3 X-2.0732 Y-0.2173 I0.0185 J-0.0033
G1 X-2.0728 F40.
G3 X-2.0512 Y-0.2019 Z-0.05 I0.0031 J0.0185
G1 X-2.051 Y-0.2004
X-2.0507 Y-0.1968
X-2.0509 Y-0.1933
X-2.0527 Y-0.1791
X-2.053 Y-0.177
X-2.0532 Y-0.1755
X-2.0543 Y-0.1696
X-2.0547 Y-0.1682
X-2.055 Y-0.1675
G3 X-2.0796 Y-0.1577 Z-0.042 I-0.0172 J-0.0075
G1 X-2.08 Y-0.1579
G3 X-2.0908 Y-0.1772 I0.0078 J-0.017 F110.
G1 X-2.0905 Y-0.1796
G3 X-2.0705 Y-0.196 I0.0186 J0.0023
G1 X-2.0701 F40.
G3 X-2.0532 Y-0.1755 Z-0.05 I-0.0018 J0.0187
G1 X-2.0537 Y-0.172
X-2.0546 Y-0.1685
X-2.056 Y-0.165
X-2.0618 Y-0.1508
X-2.0639 Y-0.146
X-2.0653 Y-0.1437
X-2.0781 Y-0.127
X-2.0818 Y-0.1224
X-2.0852 Y-0.1195
X-2.0999 Y-0.1083
X-2.1032 Y-0.1059
X-2.1065 Y-0.1043
X-2.1207 Y-0.0985
X-2.1278 Y-0.0957
X-2.1349 Y-0.0946
X-2.1491 Y-0.0927
X-2.1562 Y-0.0921
X-2.1633 Y-0.0929
X-2.1811 Y-0.0953
G3 X-2.2113 Y-0.1081 I0.0376 J-0.1304
G1 X-2.2273 Y-0.1206
G3 X-2.2475 Y-0.1465 I0.1616 J-0.1472
X-2.2575 Y-0.172 I0.1994 J-0.0928
G1 X-2.2601 Y-0.1933
X-2.2603 Y-0.1968
X-2.26 Y-0.2004
X-2.2572 Y-0.2217
X-2.2566 Y-0.2243
X-2.2557 Y-0.227
X-2.2486 Y-0.2442
X-2.2459 Y-0.25
G3 X-2.2274 Y-0.2732 I0.1703 J0.1172
G1 X-2.2111 Y-0.2854
X-2.2085 Y-0.2872
X-2.206 Y-0.2885
X-2.1847 Y-0.2973
G3 X-2.1562 Y-0.3016 I0.0347 J0.134
G1 X-2.1491 Y-0.3011
X-2.1314 Y-0.2988
G3 X-2.1032 Y-0.2876 I-0.0708 J0.2196
X-2.0796 Y-0.2693 I-0.0857 J0.1346
G1 X-2.0728 Y-0.2603
G3 X-2.0694 Y-0.2489 I-0.0153 J0.0109
G1 X-2.07 Y-0.2463 Z-0.0498
X-2.0706 Y-0.2439 Z-0.0493
X-2.0711 Y-0.2415 Z-0.0484
X-2.0728 Y-0.2392 Z-0.0467
X-2.0744 Y-0.2371 Z-0.0446
X-2.0757 Y-0.2354 Z-0.0421
X-2.0769 Y-0.2345 Z-0.0396
X-2.0777 Y-0.2339 Z-0.0369
X-2.0783 Y-0.2335 Z-0.0341
X-2.0784 Y-0.2333 Z-0.0313
G0 Z0.0088
X-2.1555 Y-0.1969
G1 Z-0.01 F40.
Z-0.15 F13.333
X-2.1519 Y-0.1942 F40.
X-2.1528 Y-0.1929
X-2.1541 Y-0.1922
X-2.1555 Y-0.1919
X-2.1585 Y-0.1926
X-2.1596 Y-0.1935
X-2.1607 Y-0.1963
X-2.1606 Y-0.1978
X-2.16 Y-0.1992
X-2.1579 Y-0.2013
X-2.1565 Y-0.2019
X-2.1551 Y-0.202
X-2.1522 Y-0.2011
X-2.1511 Y-0.2001
X-2.1497 Y-0.1975
X-2.1496 Y-0.1945
X-2.151 Y-0.1918
X-2.1534 Y-0.1901
X-2.1564 Y-0.1896
X-2.1593 Y-0.1904
X-2.1616 Y-0.1924
X-2.1629 Y-0.1951
Y-0.1981
X-2.1618 Y-0.2008
X-2.1598 Y-0.203
X-2.157 Y-0.2042
X-2.154 Y-0.2044
X-2.1512 Y-0.2033
X-2.1489 Y-0.2014
X-2.1474 Y-0.1988
X-2.147 Y-0.1958
X-2.1474 Y-0.1929
X-2.1489 Y-0.1903
X-2.1512 Y-0.1883
X-2.154 Y-0.1872
X-2.157 Y-0.187
X-2.1599 Y-0.1878
X-2.1624 Y-0.1894
X-2.1644 Y-0.1917
X-2.1655 Y-0.1945
X-2.1658 Y-0.1975
X-2.1651 Y-0.2004
X-2.1637 Y-0.203
X-2.1616 Y-0.2052
X-2.159 Y-0.2066
X-2.156 Y-0.2072
X-2.153 Y-0.207
X-2.1502 Y-0.2061
X-2.1477 Y-0.2044
X-2.1458 Y-0.2021
X-2.1445 Y-0.1993
X-2.144 Y-0.1964
X-2.1442 Y-0.1934
X-2.1452 Y-0.1906
X-2.1469 Y-0.1881
X-2.1491 Y-0.1861
X-2.1518 Y-0.1847
X-2.1547 Y-0.184
X-2.1607
X-2.1659 Y-0.187
X-2.1692 Y-0.192
X-2.1701 Y-0.198
X-2.1684 Y-0.2037
X-2.1647 Y-0.2084
X-2.1593 Y-0.2111
X-2.1533 Y-0.2116
X-2.1476 Y-0.2098
X-2.143 Y-0.206
X-2.1401 Y-0.2007
X-2.1394 Y-0.1947
X-2.1409 Y-0.1889
X-2.1443 Y-0.184
X-2.1493 Y-0.1806
X-2.155 Y-0.1789
X-2.161 Y-0.1793
X-2.1665 Y-0.1817
X-2.171 Y-0.1856
X-2.1739 Y-0.1909
G3 X-2.1591 Y-0.2164 I0.0192 J-0.0059
X-2.1349 Y-0.1996 I0.0044 J0.0196
X-2.1781 Y-0.1874 I-0.0223 J0.0038
X-2.1322 Y-0.2087 I0.0233 J-0.01
X-2.1645 Y-0.1686 I-0.0242 J0.0135
X-2.1596 Y-0.2281 I0.0082 J-0.0293
X-2.1368 Y-0.1674 I0.0047 J0.0328
X-2.1867 Y-0.2186 I-0.0207 J-0.0297
X-2.1155 Y-0.1888 I0.0326 J0.0222
X-2.1983 Y-0.1827 I-0.0421 J-0.0069
X-2.1253 Y-0.2332 I0.0434 J-0.0152
X-2.1543 Y-0.1455 I-0.0306 J0.0385
X-2.1857 Y-0.2422 I-0.0028 J-0.0525
X-2.1023 Y-0.1743 I0.0317 J0.0463
X-2.2112 Y-0.1694 I-0.0555 J-0.0214
X-2.1237 Y-0.2532 I0.0563 J-0.0288
X-2.0933 Y-0.171 I-0.0304 J0.0579
X-2.223 Y-0.2211 I-0.0644 J-0.0262
X-2.1906 Y-0.2605 I0.0647 J0.0201
G1 X-2.182 Y-0.2642
X-2.1806 Y-0.2647
X-2.1789 Y-0.2654
G3 X-2.1639 Y-0.2692 I0.021 J0.0514
G1 X-2.1607 Y-0.2693 Z-0.1491
X-2.1575 Y-0.2688 Z-0.1482
X-2.1544 Y-0.2677 Z-0.1473
X-2.1515 Y-0.2661 Z-0.1464
X-2.149 Y-0.2641 Z-0.1456
X-2.1469 Y-0.2616 Z-0.1447
X-2.1452 Y-0.2588 Z-0.1438
X-2.144 Y-0.2557 Z-0.1429
X-2.1434 Y-0.2525 Z-0.142
Y-0.2521
G3 X-2.1576 Y-0.2324 I-0.0187 J0.0015 F110.
G1 X-2.1667 Y-0.2302
G3 X-2.1881 Y-0.2402 I-0.0045 J-0.0182
G1 X-2.1882 Y-0.2406 F40.
G3 X-2.1789 Y-0.2654 Z-0.15 I0.0171 J-0.0078
X-2.1633 Y-0.2694 I0.0175 J0.0368
G1 X-2.1612 Y-0.2696
X-2.1597 Y-0.2697
X-2.1549 Y-0.2698
X-2.1501 Y-0.2695
X-2.1455 Y-0.2691
G3 X-2.1301 Y-0.2475 Z-0.142 I-0.0031 J0.0185
G1 Y-0.2471
G3 X-2.1497 Y-0.2319 I-0.0184 J-0.0035 F110.
G1 X-2.1584 Y-0.2324
G3 X-2.1759 Y-0.2483 I0.0011 J-0.0187
G1 Y-0.2487 F40.
G3 X-2.1597 Y-0.2697 Z-0.15 I0.0186 J-0.0023
X-2.1452 Y-0.269 I0.005 J0.0475
X-2.1239 Y-0.262 I-0.0073 J0.0585
G1 X-2.1222 Y-0.2613
X-2.1175 Y-0.2591
G3 X-2.1114 Y-0.2347 Z-0.1426 I-0.0118 J0.0159
G1 X-2.1124 Y-0.2328 Z-0.142
X-2.1126 Y-0.2324
G3 X-2.147 Y-0.2506 I-0.0164 J-0.0106 F110.
G1 X-2.1468 Y-0.251 F40.
G3 X-2.1222 Y-0.2613 Z-0.15 I0.0178 J0.0079
X-2.108 Y-0.252 I-0.0154 J0.0389
X-2.083 Y-0.2004 I-0.0443 J0.0533
X-2.0998 Y-0.1508 I-0.0638 J0.006
X-2.1562 Y-0.1242 I-0.0534 J-0.0403
X-2.2165 Y-0.1579 I-0.001 J-0.069
X-2.2282 Y-0.2004 I0.0496 J-0.0365
X-2.1907 Y-0.2607 I0.0713 J0.0026
G1 X-2.1877 Y-0.2615
X-2.1847 Y-0.2618
X-2.1816 Y-0.2617
X-2.1786 Y-0.261
X-2.1764 Y-0.2598 Z-0.1498
X-2.1741 Y-0.2586 Z-0.1493
X-2.172 Y-0.2574 Z-0.1484
X-2.1702 Y-0.2552 Z-0.1467
X-2.1686 Y-0.2532 Z-0.1446
X-2.1672 Y-0.2515 Z-0.1421
X-2.1667 Y-0.2501 Z-0.1396
X-2.1663 Y-0.2491 Z-0.1369
X-2.166 Y-0.2485 Z-0.1341
Y-0.2483 Z-0.1313
G0 Z-0.0912
X-2.1555 Y-0.1969
G1 Z-0.11 F40.
Z-0.25 F13.333
X-2.1579 Y-0.1951 F40.
X-2.1592 Y-0.1959
X-2.1598 Y-0.1973
X-2.1597 Y-0.1988
X-2.1577 Y-0.2011
X-2.1563 Y-0.2017
X-2.1548 Y-0.2018
X-2.152 Y-0.2009
X-2.1509 Y-0.1999
X-2.1501 Y-0.197
X-2.1504 Y-0.1955
X-2.152 Y-0.1929
X-2.1533 Y-0.1921
X-2.1562 Y-0.1916
X-2.1591 Y-0.1924
X-2.1602 Y-0.1934
X-2.1617 Y-0.196
Y-0.199
X-2.1604 Y-0.2017
X-2.158 Y-0.2035
X-2.155 Y-0.2041
X-2.1521 Y-0.2036
X-2.1497 Y-0.2018
X-2.1481 Y-0.1992
X-2.1479 Y-0.1962
X-2.1487 Y-0.1933
X-2.1506 Y-0.191
X-2.1532 Y-0.1895
X-2.1562 Y-0.1891
X-2.1591 Y-0.1897
X-2.1617 Y-0.1913
X-2.1634 Y-0.1937
X-2.1643 Y-0.1966
X-2.1642 Y-0.1996
X-2.163 Y-0.2023
X-2.161 Y-0.2046
X-2.1585 Y-0.2061
X-2.1555 Y-0.2068
X-2.1525 Y-0.2065
X-2.1498 Y-0.2053
X-2.1475 Y-0.2034
X-2.1459 Y-0.2008
X-2.1452 Y-0.1979
X-2.1453 Y-0.1949
X-2.1462 Y-0.1921
X-2.148 Y-0.1896
X-2.1503 Y-0.1878
X-2.1531 Y-0.1866
X-2.156 Y-0.1862
X-2.159 Y-0.1866
X-2.1618 Y-0.1878
X-2.1641 Y-0.1896
X-2.1659 Y-0.192
X-2.167 Y-0.1948
X-2.1674 Y-0.1978
X-2.1669 Y-0.2007
X-2.1658 Y-0.2035
X-2.1641 Y-0.206
X-2.1618 Y-0.2079
X-2.1564 Y-0.2105
X-2.1504 Y-0.2101
X-2.1452 Y-0.2071
X-2.1418 Y-0.2022
X-2.1408 Y-0.1962
X-2.1421 Y-0.1904
X-2.1457 Y-0.1856
X-2.1509 Y-0.1825
X-2.1568 Y-0.1817
X-2.1627 Y-0.1831
X-2.1675 Y-0.1866
X-2.1708 Y-0.1916
X-2.172 Y-0.1975
X-2.171 Y-0.2034
X-2.168 Y-0.2086
X-2.1636 Y-0.2127
X-2.158 Y-0.215
X-2.152 Y-0.2152
X-2.1462 Y-0.2135
X-2.1413 Y-0.2101
G3 X-2.1437 Y-0.1807 I-0.0148 J0.0136
X-2.1728 Y-0.1854 I-0.0124 J-0.0158
X-2.139 Y-0.215 I0.0186 J-0.0129
X-2.1715 Y-0.1761 I-0.0168 J0.0189
X-2.1592 Y-0.2261 I0.0162 J-0.0225
X-2.1385 Y-0.1701 I0.0049 J0.03
X-2.1847 Y-0.2155 I-0.0181 J-0.0277
X-2.1179 Y-0.1901 I0.0313 J0.0182
X-2.1895 Y-0.1752 I-0.0386 J-0.0061
G1 X-2.1908 Y-0.1767
X-2.1918 Y-0.178
X-2.1925 Y-0.1791
X-2.1939 Y-0.1827
G3 X-2.18 Y-0.2044 Z-0.242 I0.016 J-0.0051
G1 X-2.1796
G3 X-2.1666 Y-0.1754 I0.0016 J0.0167 F110.
G1 X-2.1669 Y-0.1751 F40.
G3 X-2.1883 Y-0.1746 Z-0.2483 I-0.0111 J-0.0126
G1 X-2.1906 Y-0.1767 Z-0.2492
X-2.1925 Y-0.1791 Z-0.25
X-2.1933 Y-0.1809
X-2.1939 Y-0.1827
X-2.1945 Y-0.1846
X-2.1949 Y-0.1862
X-2.1962 Y-0.1921
X-2.1963 Y-0.1931
Y-0.1942
Y-0.1952
G3 X-2.1781 Y-0.2159 Z-0.242 I0.0234 J0.0022
G1 X-2.1777 Y-0.216
X-2.1763 Y-0.2163 F110.
G3 X-2.1498 Y-0.1954 I0.0034 J0.0229
X-2.1722 Y-0.1702 I-0.0231 J0.002
G1 X-2.1726 F40.
G3 X-2.1949 Y-0.1862 Z-0.25 I-0.0003 J-0.0232
X-2.196 Y-0.199 I0.0232 J-0.0084
G1 X-2.1959 Y-0.2004
X-2.1958 Y-0.2016
G3 X-2.1918 Y-0.2154 I0.0389 J0.0039
X-2.1663 Y-0.223 Z-0.242 I0.0165 J0.0089
G1 X-2.166 Y-0.2228
G3 X-2.1572 Y-0.2014 I-0.0093 J0.0163 F110.
G1 X-2.1591 Y-0.1949
G3 X-2.1783 Y-0.1813 I-0.018 J-0.0051
G1 X-2.1787 F40.
G3 X-2.1958 Y-0.2016 Z-0.25 I0.0016 J-0.0187
X-2.1909 Y-0.2171 I0.0295 J0.0007
G1 X-2.1902 Y-0.2185
X-2.1894 Y-0.2201
X-2.1874 Y-0.2227
G3 X-2.165 Y-0.2139 I0.0095 J0.0088
X-2.1738 Y-0.2016 I-0.0129 J0. F110.
X-2.1908 Y-0.2151 I-0.0041 J-0.0123 F40.
G1 X-2.1903 Y-0.2177
X-2.1894 Y-0.2201
G3 X-2.1633 Y-0.2369 I0.0343 J0.0244
X-2.1186 Y-0.1791 I0.0079 J0.0401
X-2.1429 Y-0.1577 I-0.0394 J-0.0202
X-2.1848 Y-0.1683 I-0.0123 J-0.0396
G1 X-2.1887 Y-0.1737
X-2.1897 Y-0.1751
G3 X-2.1836 Y-0.202 I0.0155 J-0.0106
G1 X-2.1808 Y-0.2036 Z-0.2497
X-2.178 Y-0.2052 Z-0.2489
X-2.1754 Y-0.2067 Z-0.2475
X-2.1731 Y-0.208 Z-0.2456
X-2.1711 Y-0.2092 Z-0.2433
X-2.1695 Y-0.2101 Z-0.2406
X-2.1683 Y-0.2108 Z-0.2377
X-2.1676 Y-0.2112 Z-0.2345
X-2.1673 Y-0.2113 Z-0.2312
G0 Z1.
(RADIAL2 2)
S7500 M3
G64 P0.0004 Q0.0004
G0 X-2.029 Y-0.1969
Z1.
Z0.331
G1 Z0.0009 F80.
X-2.1371 Z-0.3391 F60.
X-2.1373 Z-0.3436
Y-0.1953
X-2.1372 Y-0.1952 Z-0.3391
X-2.0295 Y-0.1858 Z0.0009
X-2.0309 Y-0.1749
X-2.1374 Y-0.1937 Z-0.3393
X-2.1375 Z-0.3436
X-2.1379 Y-0.1921
X-2.1378 Z-0.3393
X-2.0333 Y-0.1641 Z0.0009
X-2.0366 Y-0.1536
X-2.1382 Y-0.1906 Z-0.3391
X-2.1384 Z-0.3436
X-2.139 Y-0.1891
X-2.1389 Z-0.3393
X-2.0409 Y-0.1434 Z0.0009
X-2.046 Y-0.1336
X-2.1396 Y-0.1877 Z-0.3393
X-2.1397 Z-0.3436
X-2.1405 Y-0.1864
X-2.1404 Y-0.1863 Z-0.3391
X-2.0519 Y-0.1243 Z0.0009
X-2.0586 Y-0.1155
X-2.1415 Y-0.1851 Z-0.3393
Z-0.3436
X-2.1426 Y-0.1839
X-2.1425 Z-0.3393
X-2.0661 Y-0.1074 Z0.0008
X-2.0742 Y-0.0999
X-2.1437 Y-0.1828 Z-0.3393
X-2.1438 Z-0.3436
X-2.145 Y-0.1819
Y-0.1818 Z-0.3393
X-2.083 Y-0.0932 Z0.0008
X-2.0923 Y-0.0873
X-2.1463 Y-0.1809 Z-0.3391
X-2.1464 Y-0.181 Z-0.3436
X-2.1478 Y-0.1803
Y-0.1802 Z-0.3393
X-2.1021 Y-0.0822 Z0.0007
X-2.1122 Y-0.078
X-2.1492 Y-0.1796 Z-0.3393
X-2.1493 Y-0.1797 Z-0.3436
X-2.1508 Y-0.1792
Y-0.1791 Z-0.3393
X-2.1228 Y-0.0747 Z0.0007
X-2.1335 Y-0.0723 Z0.0006
X-2.1523 Y-0.1787 Z-0.3391
Y-0.1789 Z-0.3436
X-2.1539 Y-0.1787
Y-0.1786 Z-0.3393
X-2.1445 Y-0.0708 Z0.0006
X-2.1555 Y-0.0704
Y-0.1785 Z-0.3393
Y-0.1786 Z-0.3436
X-2.1571 Y-0.1787
Y-0.1785 Z-0.3391
X-2.1665 Y-0.0708 Z0.0006
X-2.1775 Y-0.0723
X-2.1587 Y-0.1788 Z-0.3393
Y-0.1789 Z-0.3436
X-2.1602 Y-0.1792
X-2.1603 Y-0.1791 Z-0.3391
X-2.1883 Y-0.0747 Z0.0007
X-2.1988 Y-0.078
X-2.1618 Y-0.1795 Z-0.3391
Y-0.1797 Z-0.3436
X-2.1632 Y-0.1803
X-2.1633 Y-0.1802 Z-0.3393
X-2.209 Y-0.0822 Z0.0007
X-2.2188 Y-0.0873 Z0.0008
X-2.1647 Y-0.1809 Z-0.3391
X-2.1646 Y-0.181 Z-0.3436
X-2.166 Y-0.1819
Y-0.1818 Z-0.3393
X-2.2281 Y-0.0932 Z0.0008
X-2.2368 Y-0.0999
X-2.1673 Y-0.1828 Z-0.3393
Z-0.3436
X-2.1684 Y-0.1839
X-2.1685 Z-0.3393
X-2.245 Y-0.1074 Z0.0008
X-2.2524 Y-0.1155 Z0.0009
X-2.1696 Y-0.185 Z-0.3391
X-2.1695 Y-0.1851 Z-0.3436
X-2.1705 Y-0.1864
Y-0.1863 Z-0.3393
X-2.2591 Y-0.1243 Z0.0009
X-2.2651 Y-0.1336
X-2.1715 Y-0.1876 Z-0.3391
X-2.1713 Y-0.1877 Z-0.3436
X-2.1721 Y-0.1891
X-2.1722 Z-0.3391
X-2.2702 Y-0.1434 Z0.0009
X-2.2744 Y-0.1536
X-2.1728 Y-0.1906 Z-0.3393
X-2.1727 Z-0.3436
X-2.1732 Y-0.1921
Z-0.3393
X-2.2777 Y-0.1641 Z0.0009
X-2.2801 Y-0.1749
X-2.1736 Y-0.1937 Z-0.3393
X-2.1735 Z-0.3436
X-2.1737 Y-0.1953
X-2.1738 Z-0.3393
X-2.2815 Y-0.1858 Z0.0009
X-2.282 Y-0.1969
X-2.1739 Z-0.3391
X-2.1738 Z-0.3436
X-2.1737 Y-0.1984
X-2.1738 Y-0.1985 Z-0.3393
X-2.2815 Y-0.2079 Z0.0009
X-2.2801 Y-0.2188
X-2.1736 Y-0.2 Z-0.3393
X-2.1735 Z-0.3436
X-2.1731 Y-0.2016
X-2.1732 Z-0.3393
X-2.2777 Y-0.2296 Z0.0009
X-2.2744 Y-0.2401
X-2.1728 Y-0.2031 Z-0.3391
X-2.1727 Z-0.3436
X-2.1721 Y-0.2046
X-2.1722 Z-0.3391
X-2.2702 Y-0.2503 Z0.0009
X-2.2651 Y-0.2601
X-2.1715 Y-0.2061 Z-0.3391
X-2.1713 Y-0.206 Z-0.3436
X-2.1705 Y-0.2073
Y-0.2074 Z-0.3393
X-2.2591 Y-0.2694 Z0.0009
X-2.2524 Y-0.2782
X-2.1696 Y-0.2086 Z-0.3393
X-2.1695 Z-0.3436
X-2.1684 Y-0.2098
X-2.1685 Z-0.3393
X-2.245 Y-0.2863 Z0.0008
X-2.2368 Y-0.2938
X-2.1673 Y-0.2109 Z-0.3393
X-2.1672 Y-0.2108 Z-0.3436
X-2.166 Y-0.2118
X-2.1661 Y-0.2119 Z-0.3391
X-2.2281 Y-0.3005 Z0.0008
X-2.2188 Y-0.3064
X-2.1647 Y-0.2127 Z-0.3393
Z-0.3436
X-2.1632 Y-0.2134
X-2.1633 Y-0.2135 Z-0.3393
X-2.209 Y-0.3115 Z0.0007
X-2.1988 Y-0.3157
X-2.1618 Y-0.2141 Z-0.3393
Y-0.214 Z-0.3436
X-2.1602 Y-0.2145
X-2.1603 Y-0.2146 Z-0.3393
X-2.1883 Y-0.319 Z0.0007
X-2.1775 Y-0.3214 Z0.0006
X-2.1587 Y-0.2149 Z-0.3393
Z-0.3436
X-2.1571 Y-0.215
Y-0.2151 Z-0.3393
X-2.1665 Y-0.3229 Z0.0006
X-2.1555 Y-0.3234
Y-0.2152 Z-0.3393
Y-0.2151 Z-0.3436
X-2.1539 Y-0.215
Y-0.2151 Z-0.3393
X-2.1445 Y-0.3229 Z0.0006
X-2.1335 Y-0.3214
X-2.1523 Y-0.2149 Z-0.3393
Z-0.3436
X-2.1508 Y-0.2145
X-2.1507 Y-0.2146 Z-0.3391
X-2.1228 Y-0.319 Z0.0007
X-2.1122 Y-0.3157
X-2.1492 Y-0.2141 Z-0.3391
X-2.1493 Y-0.214 Z-0.3436
X-2.1478 Y-0.2134
Y-0.2135 Z-0.3393
X-2.1021 Y-0.3115 Z0.0007
X-2.0923 Y-0.3064 Z0.0008
X-2.1463 Y-0.2127 Z-0.3393
X-2.1464 Z-0.3436
X-2.145 Y-0.2118
Y-0.2119 Z-0.3391
X-2.083 Y-0.3005 Z0.0008
X-2.0742 Y-0.2938
X-2.1437 Y-0.2109 Z-0.3393
X-2.1438 Y-0.2108 Z-0.3436
X-2.1426 Y-0.2098
X-2.1425 Z-0.3393
X-2.0661 Y-0.2863 Z0.0008
X-2.0586 Y-0.2782 Z0.0009
X-2.1415 Y-0.2086 Z-0.3393
Z-0.3436
X-2.1406 Y-0.2073
X-2.1405 Y-0.2074 Z-0.3393
X-2.0519 Y-0.2694 Z0.0009
X-2.046 Y-0.2601
X-2.1396 Y-0.206 Z-0.3393
X-2.1397 Z-0.3436
X-2.1389 Y-0.2046
Z-0.3393
X-2.0409 Y-0.2503 Z0.0009
X-2.0366 Y-0.2401
X-2.1383 Y-0.2031 Z-0.3393
Z-0.3436
X-2.1379 Y-0.2016
X-2.1378 Z-0.3393
X-2.0333 Y-0.2296 Z0.0009
X-2.0309 Y-0.2188
X-2.1374 Y-0.2 Z-0.3393
X-2.1375 Z-0.3436
X-2.1373 Y-0.1984
X-2.1372 Y-0.1985 Z-0.3391
X-2.0295 Y-0.2079 Z0.0009
G0 Z1.
M5
G53 G0 Z-0.6
(2D CHAMFER2 2)
M9
M1
T12 M6
T32
S7500 M3
G17 G90 G94
G55
M8
G0 X-0.9275 Y-0.1969
G43 Z0.4 H12
G0 Z0.3
G1 Z0.16 F80.
X-0.9039 F40.
G3 X-1.0449 I-0.0705 J0.
X-0.9039 I0.0705 J0.
G1 X-0.9275
G0 Z0.3
X-0.5942 Y-0.1856
G1 Z0.16 F80.
X-0.5713 Y-0.18 F40.
G3 X-0.7082 Y-0.2137 I-0.0685 J-0.0169
X-0.5713 Y-0.18 I0.0685 J0.0169
G1 X-0.5942 Y-0.1856
G0 Z0.3
X-0.2596
G1 Z0.16 F80.
X-0.2367 Y-0.18 F40.
G3 X-0.3736 Y-0.2137 I-0.0685 J-0.0169
X-0.2367 Y-0.18 I0.0685 J0.0169
G1 X-0.2596 Y-0.1856
G0 Z0.3
X-1.2622 Y-0.1969
G1 Z0.16 F80.
X-1.2386 F40.
G3 X-1.3796 I-0.0705 J0.
X-1.2386 I0.0705 J0.
G1 X-1.2622
G0 Z0.3
X-1.5968
G1 Z0.16 F80.
X-1.5732 F40.
G3 X-1.7142 I-0.0705 J0.
X-1.5732 I0.0705 J0.
G1 X-1.5968
G0 Z0.3
X-1.9094 Y0.0936
G1 Z0.16 F80.
Y0.07 F40.
X-0.1181
G2 X0.07 Y-0.1181 I0. J-0.1881
G1 Y-0.2756
G2 X-0.1181 Y-0.4637 I-0.1881 J0.
G1 X-1.9094
Y-0.4873
G0 Z0.4
(2D CHAMFER1 2)
G0 Z0.85
X-2.0155 Y-0.2675
Z0.33
G1 Z0.202 F80.
X-1.9944 Y-0.2781 F40.
G3 X-2.3166 Y-0.1156 I-0.1611 J0.0813
X-1.9944 Y-0.2781 I0.1611 J-0.0813
G1 X-2.0155 Y-0.2675
G0 Z0.45
X-1.9094 Y-0.4573
Z0.33
G1 Z0.202 F80.
Y-0.4337 F40.
G3 X-2.0455 Y-0.4609 I0. J-0.3537
G2 X-2.2655 Y0.0672 I-0.11 J0.2641
X-2.0455 I0.11 J-0.2641
G3 X-1.9094 Y0.04 I0.136 J0.3265
G1 Y0.0636
G0 Z0.85
M5
M9
G53 G0 Z-0.6
M30
%
