%
(6 MM SPACERS, 35 MM TALL)
(T36 D=0.375 CR=0. - ZMIN=-1.439 - FLAT END MILL)
(T50 D=0.25 CR=0. TAPER=140DEG - ZMIN=-0.086 - DRILL)
(T102 D=0.2 CR=0. TAPER=135DEG - ZMIN=-0.939 - DRILL)
G90 G94 G17 G91.1
G20
G53 G0 Z0.
(FACE2)
T36 M6
T50
S5000 M3
G17 G90 G94
G54
G64 P0.0004 Q0.0004
M8
G0 X0.4075 Y-0.2669
G43 Z0.6 H36
G0 Z0.2
G1 Z-0.0235 F80.
G18 G3 X0.37 Z-0.061 I-0.0375 K0. F50.
G1 X0.337
X-0.337
G3 X-0.3745 Z-0.0235 I0. K0.0375
G0 Z0.2
X0.4829 Y-0.0987
G1 Z-0.0235 F80.
G3 X0.4454 Z-0.061 I-0.0375 K0. F50.
G1 X0.35
X-0.35
G3 X-0.3875 Z-0.0235 I0. K0.0375
G0 Z0.2
X0.4883 Y0.0694
G1 Z-0.0235 F80.
G3 X0.4508 Z-0.061 I-0.0375 K0. F50.
G1 X0.35
X-0.35
G3 X-0.3875 Z-0.0235 I0. K0.0375
G0 Z0.6
G17
(2D CONTOUR2)
G0 X-0.0375 Y0.5362
Z0.6
Z0.2
G1 Z-1.4015 F80.
G19 G2 Y0.4987 Z-1.439 J-0.0375 K0. F50.
G1 Y0.4612
G17 G3 X0. Y0.4237 I0.0375 J0.
G2 Y-0.4237 I0. J-0.4237
Y0.4237 I0. J0.4237
Y-0.4237 I0. J-0.4237
Y0.4237 I0. J0.4237
G3 X0.0375 Y0.4612 I0. J0.0375
G1 Y0.4987
G19 G3 Y0.5362 Z-1.4015 J0. K0.0375
G0 Z0.6
G17
M5
G53 G0 Z0.
(DRILL2)
M9
M1
T50 M6
T102
S4000 M3
G17 G90 G94
G54
M8
G0 X0. Y0.
G43 Z0.6 H50
G0 Z0.2
G98 G81 X0. Y0. Z-0.086 R0.139 F11.2
G80
G0 Z0.6
M5
G53 G0 Z0.
(DRILL3)
M9
M1
T102 M6
T36
S3000 M3
G17 G90 G94
G54
M8
G0 X0. Y0.
G43 Z0.6 H102
G0 Z0.2
Z0.139
G1 Z-0.361 F9.
G0 Z0.139
Z-0.281
G1 Z-0.661 F9.
G0 Z0.139
Z-0.581
G1 Z-0.939 F9.
G4 P0.05
G0 Z0.2
Z0.6
M5
M9
G53 G0 Z0.
M30
%
