%
(ENLARGE 12MM)
(T33 D=0.25 CR=0. - ZMIN=-0.3254 - FLAT END MILL)
G90 G94 G17 G91.1
G20
G53 G0 Z0.
(2D CONTOUR23 3)
T33 M6
S7500 M3
G17 G90 G94
G54
G64 P0.0004 Q0.0004
M8
G0 X0.0372 Y-0.025
G43 Z0.7378 H33
G0 Z0.3378
G1 Z0.1772 F80.
Z-0.3004
G18 G2 X0.0622 Z-0.3254 I0.025 K0. F10.
G1 X0.0872
G17 G3 X0.1122 Y0. I0. J0.025
X-0.1122 I-0.1122 J0.
X0.1122 I0.1122 J0.
X-0.1122 I-0.1122 J0.
X0.1122 I0.1122 J0.
X0.0872 Y0.025 I-0.025 J0.
G1 X0.0622
G18 G3 X0.0372 Z-0.3004 I0. K0.025
G0 Z0.7378
G17
M5
M9
G53 G0 Z0.
M30
%
