%
(ENLARGE 19MM)
(T33 D=0.25 CR=0. - ZMIN=-0.2362 - FLAT END MILL)
G90 G94 G17 G91.1
G20
G53 G0 Z0.
(2D CONTOUR23 2)
T33 M6
S7500 M3
G17 G90 G94
G54
G64 P0.0004 Q0.0004
M8
G0 X0.174 Y-0.025
G43 Z0.8067 H33
G0 Z0.4067
G1 Z0.2461 F80.
Z-0.2112
G18 G2 X0.199 Z-0.2362 I0.025 K0. F10.
G1 X0.224
G17 G3 X0.249 Y0. I0. J0.025
X-0.249 I-0.249 J0.
X0.249 I0.249 J0.
X-0.249 I-0.249 J0.
X0.249 I0.249 J0.
X0.224 Y0.025 I-0.025 J0.
G1 X0.199
G18 G3 X0.174 Z-0.2112 I0. K0.025
G0 Z0.8067
G17
M5
M9
G53 G0 Z0.
M30
%
