%
(ENLARGE 20MM)
(T33 D=0.25 CR=0. - ZMIN=-0.5124 - FLAT END MILL)
G90 G94 G17 G91.1
G20
G53 G0 Z0.
(2D CONTOUR23)
T33 M6
S7500 M3
G17 G90 G94
G54
G64 P0.0004 Q0.0004
M8
G0 X0.1937 Y-0.025
G43 Z1.0134 H33
G0 Z0.6134
G1 Z0.4528 F80.
Z-0.4874
G18 G2 X0.2187 Z-0.5124 I0.025 K0. F10.
G1 X0.2437
G17 G3 X0.2687 Y0. I0. J0.025
X-0.2687 I-0.2687 J0.
X0.2687 I0.2687 J0.
X-0.2687 I-0.2687 J0.
X0.2687 I0.2687 J0.
X0.2437 Y0.025 I-0.025 J0.
G1 X0.2187
G18 G3 X0.1937 Z-0.4874 I0. K0.025
G0 Z1.0134
G17
M5
M9
G53 G0 Z0.
M30
%
