%
(BASH GUARD FIXTURE PLATE SETUP)
(T32 D=0.1875 CR=0. - ZMIN=-0.55 - FLAT END MILL)
(T51 D=0.201 CR=0. TAPER=118DEG - ZMIN=-0.6104 - DRILL)
G90 G94 G17 G91.1
G20
G53 G0 Z0.
(DRILL4)
T51 M6
T32
S5000 M3
G17 G90 G94
G54
M8
G0 X0.3089 Y-0.3937
G43 Z1.07 H51
G0 Z0.67
G98 G81 X0.3089 Y-0.3937 Z-0.6104 R0.4165 F25.
X1.8961 Y-2.0859
X3.4585 Y-0.3937
G80
G0 Z1.07
M5
G53 G0 Z0.
(2D CONTOUR3)
M9
M1
T32 M6
T51
S7500 M3
G17 G90 G94
G54
G64 P0.0004 Q0.0004
M8
G0 X1.906 Y-2.0981
G43 Z1.07 H32
G0 Z0.67
G1 Z0.5075 F20.
Z-0.547
X1.9062 Y-2.0982 Z-0.5481 F2.
X1.9067 Y-2.0986 Z-0.5491
X1.9074 Y-2.0992 Z-0.5498
X1.9083 Y-2.1 Z-0.55
X1.9106 Y-2.1019
X1.9116 Y-2.1025
X1.9128 Y-2.1026
X1.9139 Y-2.1023
X1.9148 Y-2.1015
G3 X1.8774 Y-2.0703 I-0.0187 J0.0156
X1.9148 Y-2.1015 I0.0187 J-0.0156
X1.8774 Y-2.0703 I-0.0187 J0.0156
X1.9148 Y-2.1015 I0.0187 J-0.0156
G1 X1.9154 Y-2.1005
X1.9155 Y-2.0993
X1.9152 Y-2.0982
X1.9144 Y-2.0973
X1.9121 Y-2.0954
X1.9113 Y-2.0946 Z-0.5498
X1.9105 Y-2.094 Z-0.5491
X1.91 Y-2.0936 Z-0.5481
X1.9098 Y-2.0935 Z-0.547
G0 Z0.67
X3.4738 Y-0.3967
G1 Z0.5075 F20.
Z-0.547
X3.4741 Z-0.5481 F2.
X3.4747 Z-0.5491
X3.4757 Z-0.5498
X3.4768 Z-0.55
X3.4798
X3.481 Y-0.3965
X3.482 Y-0.3958
X3.4826 Y-0.3948
X3.4828 Y-0.3937
G3 X3.4341 I-0.0244 J0.
X3.4828 I0.0244 J0.
X3.4341 I-0.0244 J0.
X3.4828 I0.0244 J0.
G1 X3.4826 Y-0.3926
X3.482 Y-0.3916
X3.481 Y-0.3909
X3.4798 Y-0.3907
X3.4768
X3.4757 Z-0.5498
X3.4747 Z-0.5491
X3.4741 Z-0.5481
X3.4738 Z-0.547
G0 Z0.67
X0.3187 Y-0.4059
G1 Z0.5075 F20.
Z-0.547
X0.3189 Y-0.406 Z-0.5481 F2.
X0.3194 Y-0.4064 Z-0.5491
X0.3202 Y-0.407 Z-0.5498
X0.321 Y-0.4078 Z-0.55
X0.3233 Y-0.4097
X0.3244 Y-0.4103
X0.3255 Y-0.4104
X0.3267 Y-0.4101
X0.3276 Y-0.4093
G3 X0.2902 Y-0.3781 I-0.0187 J0.0156
X0.3276 Y-0.4093 I0.0187 J-0.0156
X0.2902 Y-0.3781 I-0.0187 J0.0156
X0.3276 Y-0.4093 I0.0187 J-0.0156
G1 X0.3281 Y-0.4083
X0.3283 Y-0.4071
X0.3279 Y-0.406
X0.3272 Y-0.4051
X0.3249 Y-0.4032
X0.324 Y-0.4024 Z-0.5498
X0.3233 Y-0.4018 Z-0.5491
X0.3228 Y-0.4014 Z-0.5481
X0.3226 Y-0.4013 Z-0.547
G0 Z1.07
M5
M9
G53 G0 Z0.
M30
%
