%
(MILLING PRESSURE GAUGE)
(T13 D=0.375 CR=0. TAPER=45DEG - ZMIN=-0.12 - CHAMFER MILL)
(T33 D=0.25 CR=0. - ZMIN=-0.315 - FLAT END MILL)
G90 G94 G17 G91.1
G20
G53 G0 Z0.
(2D CONTOUR1)
T33 M6
T13
S7500 M3
G17 G90 G94
G54
G64 P0.0004 Q0.0004
M8
G0 X-0.025 Y0.3575
G43 Z0.6 H33
G0 Z0.2
G1 Z-0.29 F80.
G19 G2 Y0.3325 Z-0.315 J-0.025 K0. F20.
G1 Y0.3075
G17 G3 X0. Y0.2825 I0.025 J0.
G2 Y-0.2825 I0. J-0.2825
Y0.2825 I0. J0.2825
Y-0.2825 I0. J-0.2825
Y0.2825 I0. J0.2825
G3 X0.025 Y0.3075 I0. J0.025
G1 Y0.3325
G19 G3 Y0.3575 Z-0.29 J0. K0.025
G0 Z0.6
G17
M5
G53 G0 Z0.
(2D CHAMFER2)
M9
M1
T13 M6
T33
S7500 M3
G17 G90 G94
G54
M8
G0 X0. Y0.254
G43 Z0.6 H13
G0 Z0.2
G1 Z0.08 F80.
Z-0.12
G2 Y-0.254 I0. J-0.254 F20.
Y0.254 I0. J0.254
G0 Z0.6
M5
M9
G53 G0 Z0.
M30
%
