%
(OP2)
(MACHINE)
(  VENDOR CALLUM)
(  MODEL MILL R1)
(  DESCRIPTION 14X8X14 MILL)
(T12 D=0.2362 CR=0. TAPER=45DEG - ZMIN=0.145 - CHAMFER MILL)
(T32 D=0.1875 CR=0. - ZMIN=0.2 - FLAT END MILL)
G90 G94 G17 G91.1
G20
G53 G0 Z-0.6
(SCALLOP1 2)
T32 M6
T12
S7500 M3
G17 G90 G94
G54
G64 P0.0004 Q0.0004
M8
G0 X-0.211 Y-0.9943
G43 Z0.83 H32
G0 Z0.2188
G1 X-0.2111 Y-0.994 Z0.2155 F40.
X-0.2112 Y-0.9932 Z0.2123
X-0.2114 Y-0.9918 Z0.2094
X-0.2116 Y-0.99 Z0.2067
X-0.2119 Y-0.9877 Z0.2044
X-0.2123 Y-0.985 Z0.2025
X-0.2126 Y-0.9821 Z0.2011
X-0.213 Y-0.9789 Z0.2003
X-0.2135 Y-0.9757 Z0.2
X-0.2153 Y-0.9618
X-0.216 Y-0.9541
X-0.2188 Y-0.8922
X-0.2181 Y-0.2583
G2 X-0.2108 Y-0.1887 I0.4638 J-0.014
G1 X-0.198 Y-0.1341
G2 X-0.1418 Y-0.0109 I0.5036 J-0.1554
G1 X-0.1129 Y0.0293
X-0.1083 Y0.0354
X-0.0736 Y0.0741
X-0.0588 Y0.0879
X-0.0487 Y0.0973
X-0.0124 Y0.1258
X-0.0091 Y0.1282
X0.0417 Y0.1599
X0.0726 Y0.175
X0.0804 Y0.178
X0.1345 Y0.1979
G2 X0.2118 Y0.214 I0.1172 J-0.3687
G1 X0.2582 Y0.2182
X0.266 Y0.2184
X2.6863
X2.694 Y0.2183
X2.7558 Y0.2124
G2 X2.8177 Y0.1981 I-0.0778 J-0.4747
G1 X2.8718 Y0.1782
X2.8796 Y0.1753
X2.9105 Y0.1602
X2.9619 Y0.1282
X2.9646 Y0.1262
X3.0014 Y0.0973
X3.0188 Y0.0812
X3.0265 Y0.0739
X3.061 Y0.0354
X3.0652 Y0.03
X3.0945 Y-0.011
G2 X3.165 Y-0.1965 I-0.4188 J-0.2653
G1 X3.1704 Y-0.2506
X3.171 Y-0.2583
Y-0.9231
X3.1704 Y-0.9309
X3.1649 Y-0.985
G2 X3.1237 Y-1.1164 I-0.4682 J0.0746
X3.0942 Y-1.1705 I-0.397 J0.1811
G1 X3.0652 Y-1.2112
X3.0607 Y-1.2169
X3.026 Y-1.2556
X3.0033 Y-1.2766
X3.001 Y-1.2787
X2.9646 Y-1.3073
X2.9613 Y-1.3097
X2.9117 Y-1.3406
X2.9105 Y-1.3413
X2.8796 Y-1.3561
X2.8641 Y-1.362
X2.8177 Y-1.3793
X2.81 Y-1.3815
X2.7868 Y-1.3875
X2.7249 Y-1.3973
X2.7172 Y-1.3977
X2.6631 Y-1.3998
X2.6553
X0.266 Y-1.3992
X0.2582
X0.235 Y-1.3978
X0.2273 Y-1.3972
X0.1732 Y-1.3887
X0.1654 Y-1.3874
X0.1422 Y-1.3814
X0.1345 Y-1.3791
X0.0804 Y-1.3589
X0.0726 Y-1.3559
X0.0417 Y-1.341
X-0.0085 Y-1.3097
X-0.0124 Y-1.3069
X-0.0482 Y-1.2787
X-0.0665 Y-1.2618
X-0.0733 Y-1.2556
X-0.1079 Y-1.2169
X-0.1129 Y-1.2104
X-0.1415 Y-1.1705
G2 X-0.1981 Y-1.0468 I0.4369 J0.2746
G1 X-0.2106 Y-0.9927
X-0.2122 Y-0.985
X-0.2135 Y-0.9757
G2 X-0.1998 Y-0.8938 I0.1606 J0.0152
X-0.1753 Y-0.8422 I0.3291 J-0.1239
G3 X-0.1319 Y-0.756 I-0.6616 J0.3878
X-0.1184 Y-0.6911 I-0.1846 J0.0723
G1 X-0.1182 Y-0.2661
G2 X-0.1133 Y-0.212 I0.3681 J-0.0055
G1 X-0.1026 Y-0.1656
G2 X-0.0575 Y-0.0651 I0.3782 J-0.1095
G1 X-0.0354 Y-0.0342
X-0.0294 Y-0.0264
X-0.0016 Y0.0045
G2 X0.0495 Y0.0469 I0.2802 J-0.286
G1 X0.0881 Y0.071
X0.0938 Y0.0741
X0.1113 Y0.0826
X0.119 Y0.0857
X0.1654 Y0.1027
G2 X0.2118 Y0.1134 I0.099 J-0.3232
G1 X0.2582 Y0.1178
X0.266 Y0.1184
X2.6863
X2.694 Y0.1178
X2.7404 Y0.1135
G2 X2.7868 Y0.1029 I-0.0501 J-0.3262
G1 X2.8332 Y0.0859
X2.8409 Y0.0829
X2.859 Y0.0741
X2.8641 Y0.0713
X2.9028 Y0.0472
G2 X2.9544 Y0.0045 I-0.2256 J-0.3253
G1 X2.9646 Y-0.0069
X2.9822 Y-0.0264
X2.9881 Y-0.0342
X3.011 Y-0.0662
G2 X3.0661 Y-0.2119 I-0.3369 J-0.2107
G1 X3.0707 Y-0.2583
X3.071 Y-0.2661
Y-0.9154
X3.0707 Y-0.9231
X3.066 Y-0.9695
G2 X3.0109 Y-1.1149 I-0.387 J0.0635
G1 X2.9878 Y-1.1474
X2.9818 Y-1.1551
X2.9569 Y-1.1829
G2 X2.9028 Y-1.2283 I-0.2614 J0.2565
G1 X2.8641 Y-1.2524
X2.858 Y-1.2556
X2.8409 Y-1.2638
X2.8332 Y-1.2668
X2.7868 Y-1.2841
X2.7783 Y-1.2865
X2.7713 Y-1.2883
X2.7636 Y-1.29
X2.7172 Y-1.2973
X2.7095 Y-1.2979
X2.6631 Y-1.2997
X2.6553 Y-1.2998
X0.266 Y-1.2992
X0.2582 Y-1.299
X0.2428 Y-1.2981
X0.235 Y-1.2972
X0.1886 Y-1.2899
X0.1809 Y-1.2881
X0.1732 Y-1.2861
X0.1654 Y-1.2839
X0.119 Y-1.2666
X0.1108 Y-1.2633
X0.0948 Y-1.2556
X0.0881 Y-1.2521
X0.0494 Y-1.228
G2 X-0.029 Y-1.155 I0.215 J0.3097
G1 X-0.0356 Y-1.1466
X-0.0573 Y-1.1164
G2 X-0.1027 Y-1.016 I0.3459 J0.2171
G1 X-0.1133 Y-0.9695
X-0.1144 Y-0.9618
X-0.1154 Y-0.9541
X-0.1163 Y-0.9463
X-0.1187 Y-0.8922
Y-0.8768
X-0.1186 Y-0.6911
G2 X-0.0966 Y-0.6051 I0.2034 J-0.0061
X-0.0524 Y-0.5204 I0.924 J-0.4285
G3 X-0.0207 Y-0.4364 I-0.2869 J0.1564
X-0.0182 Y-0.4084 I-0.2355 J0.0344
G1 Y-0.2661
G2 X-0.0144 Y-0.2274 I0.2518 J-0.0052
G1 X-0.0053 Y-0.1888
G2 X0.065 Y-0.0711 I0.2788 J-0.0867
X0.1085 Y-0.0341 I0.1783 J-0.1662
G1 X0.1345 Y-0.0179
X0.1422 Y-0.0136
X0.15 Y-0.0098
X0.1577 Y-0.0066
X0.1964 Y0.0075
G2 X0.2273 Y0.0144 I0.0635 J-0.212
G1 X0.266 Y0.0181
X0.2737 Y0.0184
X2.6785
X2.6863 Y0.0181
X2.7249 Y0.0145
G2 X2.7558 Y0.0077 I-0.0305 J-0.2124
G1 X2.7945 Y-0.0064
X2.8022 Y-0.0095
X2.81 Y-0.0133
X2.8177 Y-0.0176
X2.8442 Y-0.0342
G2 X2.9094 Y-0.096 I-0.1525 J-0.2259
X2.9672 Y-0.2274 I-0.2245 J-0.1771
G1 X2.9702 Y-0.2583
X2.9709 Y-0.2661
X2.971 Y-0.2815
Y-0.9077
X2.9709 Y-0.9154
X2.967 Y-0.9541
G2 X2.9027 Y-1.0934 I-0.2824 J0.0458
X2.841 Y-1.1491 I-0.2022 J0.1621
G1 X2.8177 Y-1.1635
X2.81 Y-1.1677
X2.8022 Y-1.1714
X2.7945 Y-1.1745
X2.7558 Y-1.1889
X2.7481 Y-1.191
X2.7404 Y-1.1924
X2.7095 Y-1.1973
X2.7017 Y-1.1981
X2.6631 Y-1.1996
X2.6553 Y-1.1998
X2.4388
X0.2737 Y-1.1992
G2 X0.2273 Y-1.1948 I-0.0032 J0.2093
G1 X0.2118 Y-1.1923
X0.2041 Y-1.1908
X0.1964 Y-1.1887
X0.1577 Y-1.1743
X0.15 Y-1.1711
G2 X0.0708 Y-1.1164 I0.1356 J0.2809
X0.0177 Y-1.0469 I0.2399 J0.2382
X-0.0054 Y-0.9928 I0.3487 J0.1805
G1 X-0.0142 Y-0.9541
X-0.0156 Y-0.9463
X-0.0165 Y-0.9386
X-0.0186 Y-0.8922
X-0.0187 Y-0.8845
X-0.0183 Y-0.4084
G2 X0.0098 Y-0.3053 I0.224 J-0.0056
X0.0755 Y-0.2103 I0.4039 J-0.2093
G1 X0.088 Y-0.1953
X0.1042 Y-0.1769
X0.1304 Y-0.1478
G2 X0.1654 Y-0.1165 I0.1225 J-0.1018
G1 X0.1859 Y-0.1037
X0.1886 Y-0.1022
X0.1964 Y-0.099
X0.2256 Y-0.0883
X0.2273 Y-0.0877
G2 X0.2892 Y-0.0816 I0.0554 J-0.2467
G1 X2.6708
G2 X2.725 Y-0.0874 I-0.0004 J-0.262
G1 X2.7272 Y-0.0883
X2.7558 Y-0.0988
X2.7636 Y-0.1019
G2 X2.8104 Y-0.1346 I-0.1116 J-0.2094
X2.8653 Y-0.2274 I-0.1403 J-0.1457
X2.871 Y-0.2738 I-0.2498 J-0.0543
G1 Y-0.9077
G2 X2.8651 Y-0.9541 I-0.2518 J0.0082
X2.7559 Y-1.0824 I-0.1897 J0.0508
G1 X2.7263 Y-1.0932
X2.7249 Y-1.0936
X2.7017 Y-1.0973
X2.694 Y-1.0984
X2.6553 Y-1.0998
X2.6399
X0.2737 Y-1.0993
G2 X0.2264 Y-1.0932 I0.0076 J0.2456
G1 X0.1964 Y-1.082
G2 X0.0901 Y-0.9618 I0.0782 J0.1762
G1 X0.0848 Y-0.9386
X0.0833 Y-0.9309
X0.0815 Y-0.8922
X0.0813 Y-0.8845
X0.0816 Y-0.5366
X0.0818 Y-0.2738
G2 X0.0847 Y-0.2429 I0.1331 J0.0032
X0.1063 Y-0.1811 I0.1902 J-0.0319
X0.1303 Y-0.1478 I0.174 J-0.1003
X0.1895 Y-0.1247 I0.0571 J-0.0591
X0.2719 Y-0.1388 I0.0077 J-0.2028
X0.3416 Y-0.1642 I-0.8251 J-2.3755
G3 X0.4284 Y-0.1819 I0.0993 J0.2648
G1 X2.6708 Y-0.1816
X2.6785 Y-0.182
X2.694 Y-0.1835
G2 X2.7403 Y-0.2064 I-0.0193 J-0.0974
X2.7695 Y-0.2583 I-0.0649 J-0.0705
G1 X2.7707 Y-0.2738
X2.771 Y-0.2815
Y-0.9
X2.7707 Y-0.9077
G2 X2.694 Y-0.9972 I-0.0926 J0.0017
X2.6476 Y-0.9998 I-0.0395 J0.2872
G1 X0.2814 Y-0.9993
G2 X0.1954 Y-0.9541 I-0.0041 J0.0967
X0.1827 Y-0.9154 I0.0811 J0.048
G1 X0.1816 Y-0.8922
X0.1813 Y-0.8845
Y-0.869
X0.1818 Y-0.2738
G2 X0.2195 Y-0.2006 I0.0945 J-0.0024
X0.2582 Y-0.1834 I0.0607 J-0.0847
G1 X0.2737 Y-0.1821
X0.2814 Y-0.1816
X0.4284
G2 X0.5145 Y-0.2035 I-0.0061 J-0.2037
X0.5992 Y-0.2477 I-0.4288 J-0.9269
G3 X0.6832 Y-0.2793 I0.1561 J0.2872
X0.7113 Y-0.2817 I0.0342 J0.2356
G1 X2.6631 Y-0.2816
X2.6708 Y-0.2818
X2.671 Y-0.2893
Y-0.8922
X2.6708 Y-0.8991
X2.6553 Y-0.8997
X2.6476 Y-0.8998
X1.6037 Y-0.8996
X0.2831 Y-0.8993
X0.282 Y-0.8986
X0.2814 Y-0.8845
X0.2813 Y-0.8768
X0.2818 Y-0.2831
X0.2824 Y-0.2818
X0.2853 Y-0.2816
X0.7113
G2 X0.7973 Y-0.3035 I-0.0061 J-0.2037
X0.8821 Y-0.3477 I-0.4288 J-0.9269
G3 X0.9661 Y-0.3793 I0.1561 J0.2872
X0.9941 Y-0.3817 I0.0342 J0.2356
G1 X2.5703 Y-0.3816
X2.571 Y-0.382
Y-0.7995
X2.5703 Y-0.7999
X0.3819 Y-0.7993
X0.3813 Y-0.7991
X0.3817 Y-0.382
X0.3819 Y-0.3816
X0.9941
G2 X1.0802 Y-0.4035 I-0.0061 J-0.2037
X1.1649 Y-0.4477 I-0.4288 J-0.9269
G3 X1.2489 Y-0.4793 I0.1561 J0.2872
X1.277 Y-0.4817 I0.0342 J0.2356
G1 X2.4704 Y-0.4816
X2.471 Y-0.4825
Y-0.699
X2.4704 Y-0.6998
X0.4825 Y-0.6993
X0.4814 Y-0.699
X0.4816 Y-0.4821
X0.4825 Y-0.4816
X1.277
G2 X1.363 Y-0.5035 I-0.0061 J-0.2037
X1.4477 Y-0.5477 I-0.4288 J-0.9269
G3 X1.5318 Y-0.5793 I0.1561 J0.2872
X1.5598 Y-0.5817 I0.0342 J0.2356
G1 X2.3701 Y-0.5816
X2.371 Y-0.582
Y-0.5994
X2.3701 Y-0.5998
X2.0986 Y-0.5997
X0.5821 Y-0.5994
X0.5815 Y-0.5985
Y-0.583
X0.5821 Y-0.5816
X1.5598
G18 G2 X1.5786 Z0.2188 I0. K0.0188
G0 Z0.83
G17
M5
G53 G0 Z-0.6
(2D CHAMFER1 2)
M9
M1
T12 M6
T32
S7500 M3
G17 G90 G94
G54
M8
G0 X0.2756 Y0.0636
G43 Z0.83 H12
G0 Z0.43
G1 Z0.145 F80.
Y0.04 F30.
X2.6772
G2 X2.9928 Y-0.2756 I0. J-0.3156
G1 Y-0.9055
G2 X2.6772 Y-1.2211 I-0.3156 J0.
G1 X0.2756
G2 X-0.04 Y-0.9055 I0. J0.3156
G1 Y-0.2756
G2 X0.2756 Y0.04 I0.3156 J0.
G1 Y0.0636
G0 Z0.83
(ENGRAVE3)
G0 X0.2166 Y-0.1081
Z0.83
Z0.4
G1 Z0.2 F10.
X0.2178 Y-0.108 Z0.1991
Y-0.1093 Z0.2
Y-0.108 Z0.1991
X0.2209 Y-0.1048 Z0.199
X0.2231 Y-0.1029 Z0.1987
X0.2256 Y-0.1012 Z0.198
X0.2265 Y-0.1008 Z0.1978
X0.2276 Y-0.1006 Z0.1973
X0.2287 Z0.197
X0.2288 Y-0.0975 Z0.2
X0.2287 Y-0.1006 Z0.197
X0.2297 Y-0.101 Z0.1968
X0.2313 Y-0.0983 Z0.2
X0.2297 Y-0.101 Z0.1968
X0.2306 Y-0.102
X0.2314 Y-0.1034 Z0.197
X0.2317 Y-0.1041
X0.2321 Y-0.1059 Z0.1972
X0.2322 Y-0.1065
Y-0.1088 Z0.1974
X0.2314 Y-0.1145
X0.2309 Y-0.1172 Z0.1975
X0.2279 Y-0.1313 Z0.1969
X0.2272 Y-0.135 Z0.1968
X0.2266 Y-0.1392
Y-0.1402 Z0.1967
X0.2269 Y-0.1421
X0.2275 Y-0.1433
X0.2251 Y-0.1456 Z0.2
X0.2275 Y-0.1433 Z0.1967
X0.2284 Y-0.1442 Z0.1969
X0.2273 Y-0.1471 Z0.2
X0.2284 Y-0.1442 Z0.1969
X0.2299 Y-0.1448 Z0.1973
X0.2311 Y-0.1449 Z0.1978
X0.2316 Y-0.145
X0.233 Y-0.1449 Z0.1981
X0.2337 Y-0.1447 Z0.1983
X0.2355 Y-0.1442 Z0.1984
X0.2358 Y-0.144 Z0.1985
X0.238 Y-0.1425 Z0.1987
X0.2404 Y-0.1403 Z0.1989
X0.2429 Y-0.1372 Z0.1991
X0.248 Y-0.1297 Z0.199
X0.2524 Y-0.122 Z0.1991
X0.2543 Y-0.1182 Z0.1989
X0.2545 Y-0.1179
X0.2548 Y-0.1176 Z0.1988
X0.2556 Y-0.117 Z0.1983
X0.2567 Y-0.1166 Z0.1974
X0.2581 Y-0.1164 Z0.1963
X0.2582 Y-0.1159
X0.2604 Y-0.1079 Z0.197
X0.262 Y-0.1015 Z0.1973
X0.2599 Y-0.0994 Z0.2
X0.262 Y-0.1015 Z0.1973
X0.2654 Y-0.0976 Z0.2
X0.262 Y-0.1015 Z0.1973
X0.2604 Y-0.1079 Z0.197
X0.2582 Y-0.1159 Z0.1963
X0.2581 Y-0.1164
X0.2582 Y-0.1174 Z0.1967
X0.2583 Y-0.1184 Z0.1969
X0.2582 Y-0.1194 Z0.197
X0.2555 Y-0.132 Z0.1968
X0.2551 Y-0.1347 Z0.1969
X0.2545 Y-0.1395 Z0.1968
X0.2544 Y-0.1402 Z0.1967
X0.2547 Y-0.1419
X0.2548 Y-0.1421 Z0.1966
X0.2552 Y-0.1431 Z0.1967
X0.2526 Y-0.1454 Z0.2
X0.2552 Y-0.1431 Z0.1967
X0.2559 Y-0.1438 Z0.1969
X0.2574 Y-0.1446 Z0.1973
X0.2575 Y-0.1473 Z0.2
X0.2574 Y-0.1446 Z0.1973
X0.2578 Z0.1975
X0.2601 Y-0.1447 Z0.1982
X0.2608 Z0.1983
X0.2641 Y-0.1433 Z0.1985
X0.2648 Y-0.1429 Z0.1987
X0.2671 Y-0.141 Z0.1988
X0.2682 Y-0.14 Z0.1989
X0.2698 Y-0.1381 Z0.1988
X0.2727 Y-0.1346 Z0.1991
X0.2767 Y-0.1288 Z0.199
X0.2816 Y-0.1198 Z0.1992
X0.2829 Y-0.1169 Z0.1991
X0.2832 Y-0.1166
X0.2834 Y-0.1163 Z0.1989
X0.2838 Y-0.116 Z0.1987
X0.2851 Y-0.1154 Z0.1976
X0.2865 Y-0.1151 Z0.1965
X0.2875 Y-0.1115 Z0.1969
X0.29 Y-0.1013 Z0.1975
X0.288 Y-0.0994 Z0.2
X0.29 Y-0.1013 Z0.1975
X0.2932 Y-0.0976 Z0.2
X0.29 Y-0.1013 Z0.1975
X0.2875 Y-0.1115 Z0.1969
X0.2865 Y-0.1151 Z0.1965
X0.2866 Y-0.1158 Z0.1968
X0.2867 Y-0.1165 Z0.197
X0.2866 Y-0.1171 Z0.1971
X0.2865 Y-0.118
X0.2814 Y-0.1422 Z0.1965
X0.2845 Y-0.1446 Z0.2
X0.2814 Y-0.1422 Z0.1965
X0.2764 Y-0.1481 Z0.2
G0 Z0.43
X0.2988 Y-0.1081
Z0.4
G1 Z0.2 F10.
X0.3001 Y-0.108 Z0.1991
Y-0.1093 Z0.2
Y-0.108 Z0.1991
X0.3032 Y-0.1048 Z0.199
X0.3054 Y-0.1029 Z0.1987
X0.3078 Y-0.1012 Z0.198
X0.3087 Y-0.1008 Z0.1978
X0.3099 Y-0.1006 Z0.1973
X0.311 Z0.197
Y-0.0975 Z0.2
Y-0.1006 Z0.197
X0.312 Y-0.101 Z0.1969
X0.3136 Y-0.0983 Z0.2
X0.312 Y-0.101 Z0.1969
X0.3129 Y-0.1019 Z0.1968
X0.3138 Y-0.1035 Z0.197
X0.314 Y-0.1041
X0.3144 Y-0.1059 Z0.1972
X0.3145 Y-0.1065
X0.3146 Y-0.1089 Z0.1974
Y-0.1101 Z0.1972
X0.3148 Y-0.1109 Z0.197
X0.3142 Y-0.1126 Z0.1975
X0.3141 Y-0.1131
X0.3137 Y-0.1153 Z0.1976
X0.3126 Y-0.1208 Z0.1974
X0.3078 Y-0.1422 Z0.1965
X0.3109 Y-0.1446 Z0.2
X0.3078 Y-0.1422 Z0.1965
X0.3026 Y-0.1481 Z0.2
X0.3078 Y-0.1422 Z0.1965
X0.3126 Y-0.1208 Z0.1974
X0.3137 Y-0.1153 Z0.1976
X0.3141 Y-0.1131 Z0.1975
X0.3142 Y-0.1126
X0.3148 Y-0.1109 Z0.197
X0.3159 Y-0.1108 Z0.1979
X0.3168 Y-0.1106 Z0.1985
X0.3175 Y-0.1103 Z0.1989
X0.3177 Y-0.1101 Z0.199
X0.3191 Y-0.1084 Z0.1991
X0.3215 Y-0.1056 Z0.199
X0.3224 Y-0.1046 Z0.1991
X0.3255 Y-0.1023 Z0.1987
X0.3268 Y-0.1016
X0.3299 Y-0.1003 Z0.1985
X0.3316 Y-0.0998 Z0.1986
X0.3349 Y-0.0996 Z0.1979
X0.3357 Y-0.0998 Z0.1978
X0.3376 Y-0.1005 Z0.1974
X0.3386 Y-0.1012
X0.3396 Y-0.1021 Z0.1971
X0.3417 Y-0.1 Z0.2
X0.3396 Y-0.1021 Z0.1971
X0.3409 Y-0.1041
X0.341 Y-0.1047
X0.3414 Y-0.1067
Y-0.1073 Z0.1972
X0.341 Y-0.1118 Z0.1973
X0.3406 Y-0.1141 Z0.1972
X0.3344 Y-0.1421 Z0.1965
X0.3375 Y-0.1446 Z0.2
X0.3344 Y-0.1421 Z0.1965
X0.3293 Y-0.1481 Z0.2
G0 Z0.43
X0.3398 Y-0.2181
Z0.4
G1 Z0.2 F10.
X0.3453 Y-0.2112 Z0.1962
X0.3486 Y-0.2138 Z0.2
X0.3453 Y-0.2112 Z0.1962
X0.3646 Y-0.1207 Z0.1975
X0.3658 Y-0.1145
X0.3665 Y-0.1092 Z0.1974
X0.3666 Y-0.1068 Z0.1972
X0.3665 Y-0.1065
X0.3661 Y-0.1043 Z0.197
X0.3657 Y-0.1034 Z0.1971
X0.3649 Y-0.1021 Z0.1969
X0.3639 Y-0.101
X0.3656 Y-0.0983 Z0.2
X0.3639 Y-0.101 Z0.1969
X0.3629 Y-0.1006 Z0.197
X0.363 Y-0.0975 Z0.2
X0.3629 Y-0.1006 Z0.197
X0.3619 Z0.1973
X0.3607 Y-0.1008 Z0.1978
X0.3598 Y-0.1012 Z0.198
X0.3574 Y-0.1029 Z0.1987
X0.3552 Y-0.1048 Z0.199
X0.3521 Y-0.108 Z0.1991
Y-0.1093 Z0.2
Y-0.108 Z0.1991
X0.3508 Y-0.1081 Z0.2
G0 Z0.43
X0.3648 Y-0.2181
Z0.4
G1 Z0.2 F10.
X0.3703 Y-0.2112 Z0.1962
X0.3737 Y-0.2138 Z0.2
X0.3703 Y-0.2112 Z0.1962
X0.3911 Y-0.1133 Z0.1976
X0.3916 Y-0.1092 Z0.1974
Y-0.1087
Y-0.1068 Z0.1972
Y-0.1065
X0.3911 Y-0.1043 Z0.197
X0.3908 Y-0.1034 Z0.1971
X0.39 Y-0.1021 Z0.1969
X0.389 Y-0.101
X0.3907 Y-0.0983 Z0.2
X0.389 Y-0.101 Z0.1969
X0.388 Y-0.1006 Z0.197
X0.3881 Y-0.0975 Z0.2
X0.388 Y-0.1006 Z0.197
X0.387 Z0.1973
X0.3858 Y-0.1008 Z0.1978
X0.3849 Y-0.1012 Z0.198
X0.3825 Y-0.1029 Z0.1987
X0.3803 Y-0.1048 Z0.199
X0.3772 Y-0.108 Z0.1991
Y-0.1093 Z0.2
Y-0.108 Z0.1991
X0.3759 Y-0.1081 Z0.2
G0 Z0.43
X0.4015
Z0.4
G1 Z0.2 F10.
X0.4026 Z0.1991
Y-0.1093 Z0.2
Y-0.1081 Z0.1991
X0.4056 Y-0.105
X0.4077 Y-0.1032 Z0.1987
X0.4101 Y-0.1016 Z0.1982
X0.4107 Y-0.1012 Z0.198
X0.4125 Y-0.1009 Z0.1972
X0.4135 Z0.1969
Y-0.0977 Z0.2
Y-0.1009 Z0.1969
X0.4145 Y-0.1014 Z0.1967
X0.4162 Y-0.0985 Z0.2
X0.4145 Y-0.1014 Z0.1967
X0.4155 Y-0.1024
X0.4163 Y-0.1038 Z0.1969
X0.4167 Y-0.1045 Z0.1968
X0.4173 Y-0.1071 Z0.1971
X0.4172 Y-0.1098 Z0.1974
X0.4167 Y-0.1141 Z0.1975
X0.4148 Y-0.1226 Z0.1973
Y-0.1236 Z0.1971
Y-0.1241 Z0.1969
X0.415 Y-0.1252 Z0.1965
X0.4164 Y-0.1248 Z0.1976
X0.4174 Y-0.1242 Z0.1984
X0.418 Y-0.1236 Z0.1989
X0.4184 Y-0.1231 Z0.199
X0.4201 Y-0.1195 Z0.1991
X0.4223 Y-0.1155 Z0.199
X0.4267 Y-0.1092
X0.4309 Y-0.1047 Z0.1989
X0.434 Y-0.1023 Z0.1986
X0.4345 Y-0.102
X0.4384 Y-0.1005 Z0.1982
X0.4397 Y-0.1002
X0.4429 Y-0.1001 Z0.1974
X0.4428 Y-0.0974 Z0.2
X0.4429 Y-0.1001 Z0.1974
X0.4436 Y-0.1003
X0.4457 Y-0.1013 Z0.1968
X0.447 Y-0.0983 Z0.2
X0.4457 Y-0.1013 Z0.1968
X0.4472 Y-0.1026 Z0.1967
X0.4477 Y-0.1032 Z0.1965
X0.4504 Y-0.1009 Z0.2
X0.4477 Y-0.1032 Z0.1965
X0.4491 Y-0.1064 Z0.1963
X0.4496 Y-0.1103 Z0.1964
Y-0.1109
X0.4493 Y-0.1141
X0.4489 Y-0.1165 Z0.1965
X0.4487 Y-0.1179
X0.4474 Y-0.1218 Z0.1968
X0.4459 Y-0.1255
X0.445 Y-0.1274 Z0.1971
X0.442 Y-0.1328 Z0.1974
X0.438 Y-0.1379 Z0.198
X0.4361 Y-0.1398
X0.4335 Y-0.1421 Z0.1983
X0.4307 Y-0.1439 Z0.1984
X0.4291 Y-0.1447 Z0.1987
X0.4276 Y-0.1451
X0.4244 Y-0.1458 Z0.1988
X0.4243
X0.4216 Y-0.1455
X0.421 Y-0.1454
X0.4192 Y-0.1447 Z0.1986
X0.418 Y-0.1439 Z0.1987
X0.4177 Y-0.1437
X0.4155 Y-0.1415
X0.4149 Y-0.1408 Z0.1986
X0.4139 Y-0.1401 Z0.1979
X0.4129 Y-0.1397 Z0.1972
X0.4117 Y-0.1393 Z0.1962
X0.4116 Y-0.1381 Z0.1965
X0.4118 Y-0.1369 Z0.1966
X0.415 Y-0.1252 Z0.1965
X0.4118 Y-0.1369 Z0.1966
X0.4116 Y-0.1381 Z0.1965
X0.4117 Y-0.1393 Z0.1962
X0.4112 Y-0.1402 Z0.1964
X0.4105 Y-0.1428 Z0.1965
X0.4133 Y-0.1453 Z0.2
X0.4105 Y-0.1428 Z0.1965
X0.4054 Y-0.1486 Z0.2
G0 Z0.43
X0.4598 Y-0.1163
Z0.4
G1 Z0.2 F10.
X0.4611 Y-0.1165 Z0.1989
X0.4608 Y-0.1181 Z0.2
X0.4611 Y-0.1165 Z0.1989
X0.4698 Y-0.1093 Z0.1987
X0.4754 Y-0.1057 Z0.1985
X0.4791 Y-0.1035
X0.4809 Y-0.1027 Z0.1984
X0.4857 Y-0.1008 Z0.1982
X0.487 Y-0.1004
X0.4906 Y-0.0996 Z0.1979
X0.4954 Y-0.0989 Z0.1978
X0.5007 Y-0.099 Z0.1973
X0.5018 Y-0.0991 Z0.1972
X0.5047 Y-0.0996 Z0.1969
X0.5077 Y-0.1003 Z0.1968
X0.5085 Y-0.1005 Z0.1967
X0.5119 Y-0.1022 Z0.1962
X0.5136 Y-0.1032 Z0.1961
X0.5152 Y-0.1042 Z0.1958
X0.5179 Y-0.1066 Z0.1956
X0.5191 Y-0.1077
X0.5203 Y-0.1092 Z0.1953
X0.5223 Y-0.1122 Z0.1951
X0.5232 Y-0.1138
X0.524 Y-0.1153 Z0.195
X0.5255 Y-0.1192
X0.526 Y-0.1205 Z0.1951
X0.5266 Y-0.1232 Z0.195
X0.5273 Y-0.1281 Z0.1952
X0.5276 Y-0.132 Z0.1951
Y-0.1354 Z0.1954
X0.5273 Y-0.1396
X0.5266 Y-0.145 Z0.1958
X0.5262 Y-0.1472 Z0.1959
X0.5244 Y-0.1543 Z0.1964
X0.5242 Y-0.1547
X0.521 Y-0.1633 Z0.197
X0.5168 Y-0.1718 Z0.1975
X0.5116 Y-0.1802 Z0.1979
X0.5056 Y-0.188 Z0.1983
X0.5044 Y-0.1893 Z0.1982
X0.4996 Y-0.1943 Z0.1985
X0.4971 Y-0.1967
X0.4931 Y-0.2 Z0.1987
X0.4897 Y-0.2026 Z0.1986
X0.4869 Y-0.2043 Z0.1988
X0.4815 Y-0.2073 Z0.1987
X0.4802 Y-0.2079 Z0.1988
X0.4747 Y-0.2099 Z0.1987
X0.468 Y-0.2109 Z0.1988
X0.4676 Z0.1987
X0.4639 Y-0.2104
X0.4629 Y-0.2101 Z0.1986
X0.4609 Y-0.209
X0.4601 Y-0.2085
X0.4591 Y-0.2076 Z0.1985
X0.4573 Y-0.2051 Z0.1984
X0.4568 Y-0.2039 Z0.1983
X0.4563 Y-0.2004 Z0.1982
Y-0.1995 Z0.1981
X0.4574 Y-0.1938 Z0.198
X0.4577 Y-0.193 Z0.1978
X0.4601 Y-0.1882 Z0.1977
X0.4608 Y-0.1871 Z0.1975
X0.4651 Y-0.1818 Z0.1973
X0.4654 Y-0.1814
X0.4712 Y-0.1764 Z0.1969
X0.4716 Y-0.1761
X0.4787 Y-0.1718 Z0.1966
X0.4837 Y-0.1698
X0.4881 Y-0.1717 Z0.2
X0.4837 Y-0.1698 Z0.1966
X0.4857 Y-0.1653 Z0.2
G0 Z0.83
(ENGRAVE3 2)
G0 X0.2166 Y-0.1081
Z0.83
Z0.4
G1 Z0.2 F10.
X0.2178 Y-0.108 Z0.1991
Y-0.1093 Z0.2
Y-0.108 Z0.1991
X0.2209 Y-0.1048 Z0.199
X0.2231 Y-0.1029 Z0.1987
X0.2256 Y-0.1012 Z0.198
X0.2265 Y-0.1008 Z0.1978
X0.2276 Y-0.1006 Z0.1973
X0.2287 Z0.197
X0.2288 Y-0.0975 Z0.2
X0.2287 Y-0.1006 Z0.197
X0.2297 Y-0.101 Z0.1968
X0.2313 Y-0.0983 Z0.2
X0.2297 Y-0.101 Z0.1968
X0.2306 Y-0.102
X0.2314 Y-0.1034 Z0.197
X0.2317 Y-0.1041
X0.2321 Y-0.1059 Z0.1972
X0.2322 Y-0.1065
Y-0.1088 Z0.1974
X0.2314 Y-0.1145
X0.2309 Y-0.1172 Z0.1975
X0.2279 Y-0.1313 Z0.1969
X0.2272 Y-0.135 Z0.1968
X0.2266 Y-0.1392
Y-0.1402 Z0.1967
X0.2269 Y-0.1421
X0.2275 Y-0.1433
X0.2251 Y-0.1456 Z0.2
X0.2275 Y-0.1433 Z0.1967
X0.2284 Y-0.1442 Z0.1969
X0.2273 Y-0.1471 Z0.2
X0.2284 Y-0.1442 Z0.1969
X0.2299 Y-0.1448 Z0.1973
X0.2311 Y-0.1449 Z0.1978
X0.2316 Y-0.145
X0.233 Y-0.1449 Z0.1981
X0.2337 Y-0.1447 Z0.1983
X0.2355 Y-0.1442 Z0.1984
X0.2358 Y-0.144 Z0.1985
X0.238 Y-0.1425 Z0.1987
X0.2404 Y-0.1403 Z0.1989
X0.2429 Y-0.1372 Z0.1991
X0.248 Y-0.1297 Z0.199
X0.2524 Y-0.122 Z0.1991
X0.2543 Y-0.1182 Z0.1989
X0.2545 Y-0.1179
X0.2548 Y-0.1176 Z0.1988
X0.2556 Y-0.117 Z0.1983
X0.2567 Y-0.1166 Z0.1974
X0.2581 Y-0.1164 Z0.1963
X0.2582 Y-0.1159
X0.2604 Y-0.1079 Z0.197
X0.262 Y-0.1015 Z0.1973
X0.2599 Y-0.0994 Z0.2
X0.262 Y-0.1015 Z0.1973
X0.2654 Y-0.0976 Z0.2
X0.262 Y-0.1015 Z0.1973
X0.2604 Y-0.1079 Z0.197
X0.2582 Y-0.1159 Z0.1963
X0.2581 Y-0.1164
X0.2582 Y-0.1174 Z0.1967
X0.2583 Y-0.1184 Z0.1969
X0.2582 Y-0.1194 Z0.197
X0.2555 Y-0.132 Z0.1968
X0.2551 Y-0.1347 Z0.1969
X0.2545 Y-0.1395 Z0.1968
X0.2544 Y-0.1402 Z0.1967
X0.2547 Y-0.1419
X0.2548 Y-0.1421 Z0.1966
X0.2552 Y-0.1431 Z0.1967
X0.2526 Y-0.1454 Z0.2
X0.2552 Y-0.1431 Z0.1967
X0.2559 Y-0.1438 Z0.1969
X0.2574 Y-0.1446 Z0.1973
X0.2575 Y-0.1473 Z0.2
X0.2574 Y-0.1446 Z0.1973
X0.2578 Z0.1975
X0.2601 Y-0.1447 Z0.1982
X0.2608 Z0.1983
X0.2641 Y-0.1433 Z0.1985
X0.2648 Y-0.1429 Z0.1987
X0.2671 Y-0.141 Z0.1988
X0.2682 Y-0.14 Z0.1989
X0.2698 Y-0.1381 Z0.1988
X0.2727 Y-0.1346 Z0.1991
X0.2767 Y-0.1288 Z0.199
X0.2816 Y-0.1198 Z0.1992
X0.2829 Y-0.1169 Z0.1991
X0.2832 Y-0.1166
X0.2834 Y-0.1163 Z0.1989
X0.2838 Y-0.116 Z0.1987
X0.2851 Y-0.1154 Z0.1976
X0.2865 Y-0.1151 Z0.1965
X0.2875 Y-0.1115 Z0.1969
X0.29 Y-0.1013 Z0.1975
X0.288 Y-0.0994 Z0.2
X0.29 Y-0.1013 Z0.1975
X0.2932 Y-0.0976 Z0.2
X0.29 Y-0.1013 Z0.1975
X0.2875 Y-0.1115 Z0.1969
X0.2865 Y-0.1151 Z0.1965
X0.2866 Y-0.1158 Z0.1968
X0.2867 Y-0.1165 Z0.197
X0.2866 Y-0.1171 Z0.1971
X0.2865 Y-0.118
X0.2814 Y-0.1422 Z0.1965
X0.2845 Y-0.1446 Z0.2
X0.2814 Y-0.1422 Z0.1965
X0.2764 Y-0.1481 Z0.2
G0 Z0.43
X0.2988 Y-0.1081
Z0.4
G1 Z0.2 F10.
X0.3001 Y-0.108 Z0.1991
Y-0.1093 Z0.2
Y-0.108 Z0.1991
X0.3032 Y-0.1048 Z0.199
X0.3054 Y-0.1029 Z0.1987
X0.3078 Y-0.1012 Z0.198
X0.3087 Y-0.1008 Z0.1978
X0.3099 Y-0.1006 Z0.1973
X0.311 Z0.197
Y-0.0975 Z0.2
Y-0.1006 Z0.197
X0.312 Y-0.101 Z0.1969
X0.3136 Y-0.0983 Z0.2
X0.312 Y-0.101 Z0.1969
X0.3129 Y-0.1019 Z0.1968
X0.3138 Y-0.1035 Z0.197
X0.314 Y-0.1041
X0.3144 Y-0.1059 Z0.1972
X0.3145 Y-0.1065
X0.3146 Y-0.1089 Z0.1974
Y-0.1101 Z0.1972
X0.3148 Y-0.1109 Z0.197
X0.3142 Y-0.1126 Z0.1975
X0.3141 Y-0.1131
X0.3137 Y-0.1153 Z0.1976
X0.3126 Y-0.1208 Z0.1974
X0.3078 Y-0.1422 Z0.1965
X0.3109 Y-0.1446 Z0.2
X0.3078 Y-0.1422 Z0.1965
X0.3026 Y-0.1481 Z0.2
X0.3078 Y-0.1422 Z0.1965
X0.3126 Y-0.1208 Z0.1974
X0.3137 Y-0.1153 Z0.1976
X0.3141 Y-0.1131 Z0.1975
X0.3142 Y-0.1126
X0.3148 Y-0.1109 Z0.197
X0.3159 Y-0.1108 Z0.1979
X0.3168 Y-0.1106 Z0.1985
X0.3175 Y-0.1103 Z0.1989
X0.3177 Y-0.1101 Z0.199
X0.3191 Y-0.1084 Z0.1991
X0.3215 Y-0.1056 Z0.199
X0.3224 Y-0.1046 Z0.1991
X0.3255 Y-0.1023 Z0.1987
X0.3268 Y-0.1016
X0.3299 Y-0.1003 Z0.1985
X0.3316 Y-0.0998 Z0.1986
X0.3349 Y-0.0996 Z0.1979
X0.3357 Y-0.0998 Z0.1978
X0.3376 Y-0.1005 Z0.1974
X0.3386 Y-0.1012
X0.3396 Y-0.1021 Z0.1971
X0.3417 Y-0.1 Z0.2
X0.3396 Y-0.1021 Z0.1971
X0.3409 Y-0.1041
X0.341 Y-0.1047
X0.3414 Y-0.1067
Y-0.1073 Z0.1972
X0.341 Y-0.1118 Z0.1973
X0.3406 Y-0.1141 Z0.1972
X0.3344 Y-0.1421 Z0.1965
X0.3375 Y-0.1446 Z0.2
X0.3344 Y-0.1421 Z0.1965
X0.3293 Y-0.1481 Z0.2
G0 Z0.43
X0.3398 Y-0.2181
Z0.4
G1 Z0.2 F10.
X0.3453 Y-0.2112 Z0.1962
X0.3486 Y-0.2138 Z0.2
X0.3453 Y-0.2112 Z0.1962
X0.3646 Y-0.1207 Z0.1975
X0.3658 Y-0.1145
X0.3665 Y-0.1092 Z0.1974
X0.3666 Y-0.1068 Z0.1972
X0.3665 Y-0.1065
X0.3661 Y-0.1043 Z0.197
X0.3657 Y-0.1034 Z0.1971
X0.3649 Y-0.1021 Z0.1969
X0.3639 Y-0.101
X0.3656 Y-0.0983 Z0.2
X0.3639 Y-0.101 Z0.1969
X0.3629 Y-0.1006 Z0.197
X0.363 Y-0.0975 Z0.2
X0.3629 Y-0.1006 Z0.197
X0.3619 Z0.1973
X0.3607 Y-0.1008 Z0.1978
X0.3598 Y-0.1012 Z0.198
X0.3574 Y-0.1029 Z0.1987
X0.3552 Y-0.1048 Z0.199
X0.3521 Y-0.108 Z0.1991
Y-0.1093 Z0.2
Y-0.108 Z0.1991
X0.3508 Y-0.1081 Z0.2
G0 Z0.43
X0.3648 Y-0.2181
Z0.4
G1 Z0.2 F10.
X0.3703 Y-0.2112 Z0.1962
X0.3737 Y-0.2138 Z0.2
X0.3703 Y-0.2112 Z0.1962
X0.3911 Y-0.1133 Z0.1976
X0.3916 Y-0.1092 Z0.1974
Y-0.1087
Y-0.1068 Z0.1972
Y-0.1065
X0.3911 Y-0.1043 Z0.197
X0.3908 Y-0.1034 Z0.1971
X0.39 Y-0.1021 Z0.1969
X0.389 Y-0.101
X0.3907 Y-0.0983 Z0.2
X0.389 Y-0.101 Z0.1969
X0.388 Y-0.1006 Z0.197
X0.3881 Y-0.0975 Z0.2
X0.388 Y-0.1006 Z0.197
X0.387 Z0.1973
X0.3858 Y-0.1008 Z0.1978
X0.3849 Y-0.1012 Z0.198
X0.3825 Y-0.1029 Z0.1987
X0.3803 Y-0.1048 Z0.199
X0.3772 Y-0.108 Z0.1991
Y-0.1093 Z0.2
Y-0.108 Z0.1991
X0.3759 Y-0.1081 Z0.2
G0 Z0.43
X0.4015
Z0.4
G1 Z0.2 F10.
X0.4026 Z0.1991
Y-0.1093 Z0.2
Y-0.1081 Z0.1991
X0.4056 Y-0.105
X0.4077 Y-0.1032 Z0.1987
X0.4101 Y-0.1016 Z0.1982
X0.4107 Y-0.1012 Z0.198
X0.4125 Y-0.1009 Z0.1972
X0.4135 Z0.1969
Y-0.0977 Z0.2
Y-0.1009 Z0.1969
X0.4145 Y-0.1014 Z0.1967
X0.4162 Y-0.0985 Z0.2
X0.4145 Y-0.1014 Z0.1967
X0.4155 Y-0.1024
X0.4163 Y-0.1038 Z0.1969
X0.4167 Y-0.1045 Z0.1968
X0.4173 Y-0.1071 Z0.1971
X0.4172 Y-0.1098 Z0.1974
X0.4167 Y-0.1141 Z0.1975
X0.4148 Y-0.1226 Z0.1973
Y-0.1236 Z0.1971
Y-0.1241 Z0.1969
X0.415 Y-0.1252 Z0.1965
X0.4164 Y-0.1248 Z0.1976
X0.4174 Y-0.1242 Z0.1984
X0.418 Y-0.1236 Z0.1989
X0.4184 Y-0.1231 Z0.199
X0.4201 Y-0.1195 Z0.1991
X0.4223 Y-0.1155 Z0.199
X0.4267 Y-0.1092
X0.4309 Y-0.1047 Z0.1989
X0.434 Y-0.1023 Z0.1986
X0.4345 Y-0.102
X0.4384 Y-0.1005 Z0.1982
X0.4397 Y-0.1002
X0.4429 Y-0.1001 Z0.1974
X0.4428 Y-0.0974 Z0.2
X0.4429 Y-0.1001 Z0.1974
X0.4436 Y-0.1003
X0.4457 Y-0.1013 Z0.1968
X0.447 Y-0.0983 Z0.2
X0.4457 Y-0.1013 Z0.1968
X0.4472 Y-0.1026 Z0.1967
X0.4477 Y-0.1032 Z0.1965
X0.4504 Y-0.1009 Z0.2
X0.4477 Y-0.1032 Z0.1965
X0.4491 Y-0.1064 Z0.1963
X0.4496 Y-0.1103 Z0.1964
Y-0.1109
X0.4493 Y-0.1141
X0.4489 Y-0.1165 Z0.1965
X0.4487 Y-0.1179
X0.4474 Y-0.1218 Z0.1968
X0.4459 Y-0.1255
X0.445 Y-0.1274 Z0.1971
X0.442 Y-0.1328 Z0.1974
X0.438 Y-0.1379 Z0.198
X0.4361 Y-0.1398
X0.4335 Y-0.1421 Z0.1983
X0.4307 Y-0.1439 Z0.1984
X0.4291 Y-0.1447 Z0.1987
X0.4276 Y-0.1451
X0.4244 Y-0.1458 Z0.1988
X0.4243
X0.4216 Y-0.1455
X0.421 Y-0.1454
X0.4192 Y-0.1447 Z0.1986
X0.418 Y-0.1439 Z0.1987
X0.4177 Y-0.1437
X0.4155 Y-0.1415
X0.4149 Y-0.1408 Z0.1986
X0.4139 Y-0.1401 Z0.1979
X0.4129 Y-0.1397 Z0.1972
X0.4117 Y-0.1393 Z0.1962
X0.4116 Y-0.1381 Z0.1965
X0.4118 Y-0.1369 Z0.1966
X0.415 Y-0.1252 Z0.1965
X0.4118 Y-0.1369 Z0.1966
X0.4116 Y-0.1381 Z0.1965
X0.4117 Y-0.1393 Z0.1962
X0.4112 Y-0.1402 Z0.1964
X0.4105 Y-0.1428 Z0.1965
X0.4133 Y-0.1453 Z0.2
X0.4105 Y-0.1428 Z0.1965
X0.4054 Y-0.1486 Z0.2
G0 Z0.43
X0.4598 Y-0.1163
Z0.4
G1 Z0.2 F10.
X0.4611 Y-0.1165 Z0.1989
X0.4608 Y-0.1181 Z0.2
X0.4611 Y-0.1165 Z0.1989
X0.4698 Y-0.1093 Z0.1987
X0.4754 Y-0.1057 Z0.1985
X0.4791 Y-0.1035
X0.4809 Y-0.1027 Z0.1984
X0.4857 Y-0.1008 Z0.1982
X0.487 Y-0.1004
X0.4906 Y-0.0996 Z0.1979
X0.4954 Y-0.0989 Z0.1978
X0.5007 Y-0.099 Z0.1973
X0.5018 Y-0.0991 Z0.1972
X0.5047 Y-0.0996 Z0.1969
X0.5077 Y-0.1003 Z0.1968
X0.5085 Y-0.1005 Z0.1967
X0.5119 Y-0.1022 Z0.1962
X0.5136 Y-0.1032 Z0.1961
X0.5152 Y-0.1042 Z0.1958
X0.5179 Y-0.1066 Z0.1956
X0.5191 Y-0.1077
X0.5203 Y-0.1092 Z0.1953
X0.5223 Y-0.1122 Z0.1951
X0.5232 Y-0.1138
X0.524 Y-0.1153 Z0.195
X0.5255 Y-0.1192
X0.526 Y-0.1205 Z0.1951
X0.5266 Y-0.1232 Z0.195
X0.5273 Y-0.1281 Z0.1952
X0.5276 Y-0.132 Z0.1951
Y-0.1354 Z0.1954
X0.5273 Y-0.1396
X0.5266 Y-0.145 Z0.1958
X0.5262 Y-0.1472 Z0.1959
X0.5244 Y-0.1543 Z0.1964
X0.5242 Y-0.1547
X0.521 Y-0.1633 Z0.197
X0.5168 Y-0.1718 Z0.1975
X0.5116 Y-0.1802 Z0.1979
X0.5056 Y-0.188 Z0.1983
X0.5044 Y-0.1893 Z0.1982
X0.4996 Y-0.1943 Z0.1985
X0.4971 Y-0.1967
X0.4931 Y-0.2 Z0.1987
X0.4897 Y-0.2026 Z0.1986
X0.4869 Y-0.2043 Z0.1988
X0.4815 Y-0.2073 Z0.1987
X0.4802 Y-0.2079 Z0.1988
X0.4747 Y-0.2099 Z0.1987
X0.468 Y-0.2109 Z0.1988
X0.4676 Z0.1987
X0.4639 Y-0.2104
X0.4629 Y-0.2101 Z0.1986
X0.4609 Y-0.209
X0.4601 Y-0.2085
X0.4591 Y-0.2076 Z0.1985
X0.4573 Y-0.2051 Z0.1984
X0.4568 Y-0.2039 Z0.1983
X0.4563 Y-0.2004 Z0.1982
Y-0.1995 Z0.1981
X0.4574 Y-0.1938 Z0.198
X0.4577 Y-0.193 Z0.1978
X0.4601 Y-0.1882 Z0.1977
X0.4608 Y-0.1871 Z0.1975
X0.4651 Y-0.1818 Z0.1973
X0.4654 Y-0.1814
X0.4712 Y-0.1764 Z0.1969
X0.4716 Y-0.1761
X0.4787 Y-0.1718 Z0.1966
X0.4837 Y-0.1698
X0.4881 Y-0.1717 Z0.2
X0.4837 Y-0.1698 Z0.1966
X0.4857 Y-0.1653 Z0.2
G0 Z0.83
M5
M9
G53 G0 Z-0.6
M30
%
