%
(FIXTURE PLATE SETUP)
(T13 D=0.375 CR=0. TAPER=45DEG - ZMIN=0.1756 - CHAMFER MILL)
(T33 D=0.25 CR=0. - ZMIN=0.1281 - FLAT END MILL)
G90 G94 G17 G91.1
G20
G53 G0 Z0.
(FACE1)
T33 M6
T13
S7500 M3
G17 G90 G94
G54
G64 P0.0004 Q0.0004
M8
G0 X3.7058 Y-1.5548
G43 Z1.1124 H33
G0 Z0.7124
G1 Z0.4974 F80.
G18 G3 X3.6808 Z0.4724 I-0.025 K0. F50.
G1 X3.6433
X-0.1
G17 G2 Y-1.4114 I0. J0.0717
G1 X3.6433
G3 Y-1.2679 I0. J0.0717
G1 X-0.1
G2 Y-1.1245 I0. J0.0717
G1 X3.6433
G3 Y-0.981 I0. J0.0717
G1 X-0.1
G2 Y-0.8375 I0. J0.0717
G1 X3.6433
G3 Y-0.6941 I0. J0.0717
G1 X-0.1
G2 Y-0.5506 I0. J0.0717
G1 X3.6433
G3 Y-0.4072 I0. J0.0717
G1 X-0.1
G2 Y-0.2637 I0. J0.0717
G1 X3.6433
G3 Y-0.1202 I0. J0.0717
G1 X-0.1
G18 G3 X-0.125 Z0.4974 I0. K0.025
G0 Z1.1124
G17
(2D ADAPTIVE ROUGHING1)
G64 P0.004 Q0.004
G0 X1.005 Y-0.7443
Z1.1124
Z0.6124
G3 X0.8066 Y-0.6882 Z0.5914 I-0.1193 J-0.0431 F20.
X0.8171 Y-0.8935 Z0.5703 I0.0789 J-0.0989
X1.0077 Y-0.818 Z0.5493 I0.0682 J0.1061
X0.8754 Y-0.6622 Z0.5282 I-0.122 J0.0305
X0.7705 Y-0.8369 Z0.5072 I0.0102 J-0.125
X0.9691 Y-0.8801 Z0.4861 I0.1148 J0.0496
X0.9464 Y-0.6788 Z0.465 I-0.0835 J0.0925
X0.7635 Y-0.7646 Z0.444 I-0.0607 J-0.1085
X0.903 Y-0.9098 Z0.4229 I0.1218 J-0.0226
X0.9956 Y-0.7317 Z0.4019 I-0.0176 J0.1223
X0.7977 Y-0.7012 Z0.3808 I-0.1099 J-0.0557
X0.8322 Y-0.8978 Z0.3597 I0.0877 J-0.086
X1.0068 Y-0.8024 Z0.3387 I0.0531 J0.1103
X0.8609 Y-0.6679 Z0.3176 I-0.1212 J0.0149
X0.7806 Y-0.8487 Z0.2966 I0.0247 J-0.1192
X0.977 Y-0.8668 Z0.2755 I0.1047 J0.0614
X0.9313 Y-0.6756 Z0.2545 I-0.0914 J0.0792
X0.7653 Y-0.7798 Z0.2334 I-0.0456 J-0.1117
X0.9168 Y-0.9032 Z0.2123 I0.12 J-0.0074
X0.9849 Y-0.7207 Z0.1913 I-0.0314 J0.1157
X0.7908 Y-0.7148 Z0.1702 I-0.0992 J-0.0667
X0.8472 Y-0.9 Z0.1492 I0.0947 J-0.0724
X1.0041 Y-0.7875 Z0.1281 I0.0381 J0.1125
X0.7665 I-0.1188 J0.
X1.0041 I0.1188 J0.
G1 X1.0047 Y-0.7513 F50.
G3 X0.9917 Y-0.6959 I-0.0707 J0.0126
X0.8896 Y-0.6402 I-0.1043 J-0.0699
X0.7499 Y-0.8488 I-0.0064 J-0.1467
X1.0241 Y-0.8413 I0.1355 J0.0609
X1.0408 Y-0.7447 I-0.1891 J0.0824
X0.9145 Y-0.6117 I-0.153 J-0.0188
X0.7153 Y-0.7245 I-0.034 J-0.1721
X1.0338 Y-0.892 I0.1699 J-0.0634
X1.0562 Y-0.8542 I-0.1524 J0.1157
X1.0445 Y-0.6598 I-0.1786 J0.0868
X0.7929 Y-0.5933 I-0.1649 J-0.1147
X0.7601 Y-0.9641 I0.0903 J-0.1948
X1.05 Y-0.9287 I0.1256 J0.176
X1.0859 Y-0.6598 I-0.1752 J0.1603
X0.7888 Y-0.5555 I-0.2068 J-0.1138
X0.7171 Y-0.5991 I0.082 J-0.2154
X1.0074 Y-1.0096 I0.1677 J-0.1893
X1.1132 Y-0.6318 I-0.1315 J0.2406
X0.75 Y-0.5313 I-0.235 J-0.1428
X0.6004 Y-0.8507 I0.1307 J-0.256
X1.0512 Y-1.0282 I0.285 J0.0628
X1.1019 Y-0.5537 I-0.1728 J0.2584
X0.6555 Y-0.5505 I-0.2248 J-0.2247
X0.5697 Y-0.8894 I0.2254 J-0.2374
X1.0592 Y-1.0706 I0.3159 J0.1016
X1.1852 Y-0.9399 I-0.174 J0.2939
X1.2183 Y-0.8408 I-0.3574 J0.1745
X1.2216 Y-0.7751 I-0.4769 J0.0571
X1.2169 Y-0.7258 I-0.6242 J-0.0347
G1 X1.208 Y-0.6929
G3 X1.1601 Y-0.5939 I-0.3081 J-0.088
G1 X1.1489 Y-0.5779
X1.1437 Y-0.5707
G3 X1.1015 Y-0.5286 I-1.2014 J-1.163
X1.037 Y-0.4873 I-0.3264 J-0.4386
X0.9795 Y-0.465 I-0.1593 J-0.3248
G1 X0.9466 Y-0.4562
X0.9425 Y-0.4554
X0.8974 Y-0.4515
G3 X0.8235 Y-0.4564 I-0.0031 J-0.5131
G1 X0.7825 Y-0.4676
G3 X0.7176 Y-0.4958 I0.1633 J-0.4642
X0.6674 Y-0.5309 I0.7973 J-1.1932
G1 X0.6289 Y-0.5697
X0.6265 Y-0.5726
X0.6019 Y-0.6078
X0.5999 Y-0.6108
X0.5937 Y-0.6212
X0.5902 Y-0.6272
X0.5749 Y-0.6601
G3 X0.5609 Y-0.7035 I0.2025 J-0.0892
G1 X0.5549 Y-0.7258
G3 X0.5536 Y-0.8408 I0.3964 J-0.0618
G1 X0.554 Y-0.8449
G3 X0.5711 Y-0.9065 I0.7601 J0.1776
G1 X0.5772 Y-0.9198
X0.5902 Y-0.9476
X0.5937 Y-0.9536
X0.5999 Y-0.964
X0.6019 Y-0.967
X0.6265 Y-1.0022
X0.6289 Y-1.0051
X0.6675 Y-1.0438
G3 X0.7176 Y-1.079 I0.7283 J0.9822
X0.7824 Y-1.1073 I0.2411 J0.464
G1 X0.8235 Y-1.1182
G3 X0.8974 Y-1.1233 I0.0692 J0.4663
G1 X0.9425 Y-1.1194
G3 X1.0195 Y-1.0955 I-0.0873 J0.4174
X1.078 Y-1.0625 I-0.118 J0.2777
G1 X1.1014 Y-1.0462
G3 X1.1437 Y-1.0041 I-0.9866 J1.0346
X1.1854 Y-0.94 I-0.4509 J0.3387
G1 X1.1862 Y-0.9371
X1.1867 Y-0.9342
X1.1869 Y-0.9321 Z0.1282
X1.1871 Y-0.9301 Z0.1285
X1.1865 Y-0.927 Z0.1292
X1.186 Y-0.9241 Z0.1303
X1.1855 Y-0.9214 Z0.1317
X1.1842 Y-0.9191 Z0.1336
X1.183 Y-0.9171 Z0.1357
X1.182 Y-0.9153 Z0.1382
X1.1811 Y-0.9138 Z0.1409
X1.1801 Y-0.9128 Z0.1437
X1.1794 Y-0.9121 Z0.1468
X1.179 Y-0.9117 Z0.1499
X1.1788 Y-0.9115 Z0.1531
G0 Z0.7124
X2.7769 Y-0.7442
Z0.6124
G3 X2.5785 Y-0.6882 Z0.5914 I-0.1193 J-0.0431 F20.
X2.589 Y-0.8935 Z0.5703 I0.0789 J-0.0989
X2.7796 Y-0.818 Z0.5493 I0.0682 J0.1061
X2.6473 Y-0.6621 Z0.5282 I-0.122 J0.0305
X2.5424 Y-0.8369 Z0.5072 I0.0102 J-0.125
X2.741 Y-0.8801 Z0.4861 I0.1148 J0.0496
X2.7183 Y-0.6787 Z0.465 I-0.0835 J0.0925
X2.5354 Y-0.7645 Z0.444 I-0.0607 J-0.1085
X2.6749 Y-0.9098 Z0.4229 I0.1218 J-0.0226
X2.7675 Y-0.7316 Z0.4019 I-0.0176 J0.1223
X2.5696 Y-0.7011 Z0.3808 I-0.1099 J-0.0557
X2.6041 Y-0.8978 Z0.3597 I0.0877 J-0.086
X2.7787 Y-0.8024 Z0.3387 I0.0531 J0.1103
X2.6328 Y-0.6679 Z0.3176 I-0.1212 J0.0149
X2.5525 Y-0.8487 Z0.2966 I0.0247 J-0.1192
X2.7489 Y-0.8668 Z0.2755 I0.1047 J0.0614
X2.7032 Y-0.6755 Z0.2545 I-0.0914 J0.0792
X2.5372 Y-0.7798 Z0.2334 I-0.0456 J-0.1117
X2.6887 Y-0.9032 Z0.2123 I0.12 J-0.0074
X2.7568 Y-0.7207 Z0.1913 I-0.0314 J0.1157
X2.5627 Y-0.7147 Z0.1702 I-0.0992 J-0.0667
X2.6191 Y-0.9 Z0.1492 I0.0947 J-0.0724
X2.776 Y-0.7874 Z0.1281 I0.0381 J0.1125
X2.5384 I-0.1188 J0.
X2.776 I0.1188 J0.
G1 X2.7766 Y-0.7513 F50.
G3 X2.7636 Y-0.6959 I-0.0707 J0.0126
X2.6615 Y-0.6402 I-0.1043 J-0.0699
X2.5218 Y-0.8488 I-0.0064 J-0.1467
X2.796 Y-0.8413 I0.1355 J0.0609
X2.8127 Y-0.7447 I-0.1891 J0.0824
X2.6864 Y-0.6116 I-0.153 J-0.0188
X2.4872 Y-0.7245 I-0.034 J-0.1721
X2.8057 Y-0.892 I0.1699 J-0.0634
X2.8281 Y-0.8541 I-0.1524 J0.1156
X2.8164 Y-0.6597 I-0.1786 J0.0868
X2.5648 Y-0.5933 I-0.1649 J-0.1147
X2.532 Y-0.9641 I0.0903 J-0.1948
X2.8219 Y-0.9286 I0.1256 J0.176
X2.8578 Y-0.6597 I-0.1752 J0.1603
X2.5607 Y-0.5554 I-0.2068 J-0.1138
X2.489 Y-0.5991 I0.082 J-0.2154
X2.7793 Y-1.0096 I0.1677 J-0.1893
X2.8851 Y-0.6318 I-0.1315 J0.2406
X2.5219 Y-0.5313 I-0.235 J-0.1428
X2.3723 Y-0.8507 I0.1307 J-0.256
X2.8231 Y-1.0281 I0.285 J0.0628
X2.8738 Y-0.5536 I-0.1728 J0.2584
X2.4274 Y-0.5505 I-0.2248 J-0.2247
X2.3416 Y-0.8894 I0.2254 J-0.2374
X2.8311 Y-1.0706 I0.3159 J0.1016
X2.9558 Y-0.9422 I-0.1736 J0.2935
G1 X2.9684 Y-0.9147
G3 X2.9824 Y-0.8713 I-0.2025 J0.0892
G1 X2.9885 Y-0.849
G3 X2.9897 Y-0.734 I-0.3964 J0.0618
G1 X2.9893 Y-0.7299
G3 X2.9723 Y-0.6683 I-0.7602 J-0.1776
G1 X2.9661 Y-0.655
X2.9531 Y-0.6272
X2.9497 Y-0.6212
X2.9434 Y-0.6108
X2.9414 Y-0.6078
X2.9168 Y-0.5726
X2.9145 Y-0.5697
X2.8758 Y-0.531
G3 X2.8257 Y-0.4958 I-0.7283 J-0.9821
X2.7609 Y-0.4675 I-0.2411 J-0.4639
G1 X2.7198 Y-0.4566
G3 X2.6459 Y-0.4515 I-0.0692 J-0.4663
G1 X2.6008 Y-0.4554
G3 X2.5239 Y-0.4793 I0.0873 J-0.4174
X2.4654 Y-0.5123 I0.118 J-0.2777
G1 X2.4419 Y-0.5286
G3 X2.3996 Y-0.5707 I0.9862 J-1.0342
X2.3618 Y-0.6272 I0.6349 J-0.4651
X2.325 Y-0.734 I0.359 J-0.1837
X2.3217 Y-0.7997 I0.4788 J-0.0571
X2.3264 Y-0.849 I0.6244 J0.0347
G1 X2.3353 Y-0.8819
G3 X2.3833 Y-0.9809 I0.3081 J0.088
G1 X2.3944 Y-0.9969
X2.3996 Y-1.0041
G3 X2.4418 Y-1.0462 I1.2009 J1.1625
X2.5063 Y-1.0875 I0.3264 J0.4386
X2.5638 Y-1.1098 I0.1593 J0.3248
G1 X2.5967 Y-1.1186
X2.6008 Y-1.1194
X2.6459 Y-1.1233
G3 X2.7198 Y-1.1184 I0.0031 J0.5131
G1 X2.7608 Y-1.1072
G3 X2.8257 Y-1.079 I-0.1633 J0.4643
X2.8759 Y-1.0439 I-0.7971 J1.193
G1 X2.9145 Y-1.0051
X2.9168 Y-1.0022
X2.9414 Y-0.967
G3 X2.9557 Y-0.9422 I-0.1905 J0.126
G1 X2.957 Y-0.9385
X2.9576 Y-0.9347
X2.9577 Y-0.9308
X2.9571 Y-0.927
X2.956 Y-0.9233
X2.9543 Y-0.9198
X2.9521 Y-0.9166
X2.9494 Y-0.9138
X2.9465 Y-0.9112 Z0.1284
X2.9437 Y-0.9087 Z0.1293
X2.941 Y-0.9062 Z0.1308
X2.9385 Y-0.904 Z0.1329
X2.9363 Y-0.902 Z0.1354
X2.9344 Y-0.9003 Z0.1384
X2.9329 Y-0.8989 Z0.1418
X2.9318 Y-0.8979 Z0.1454
X2.9311 Y-0.8973 Z0.1492
X2.9309 Y-0.8971 Z0.1531
G0 Z1.1124
(2D ADAPTIVE ROUGHING2)
G0 X1.0105 Y-0.6471
Z1.1124
Z0.3356
G1 Z0.3106 F50.
X1.0107 Y-0.6469 Z0.3067
X1.0116 Y-0.6465 Z0.3029
X1.0129 Y-0.6459 Z0.2992
X1.0147 Y-0.645 Z0.2959
X1.017 Y-0.6438 Z0.2929
X1.0197 Y-0.6425 Z0.2904
X1.0227 Y-0.641 Z0.2883
X1.026 Y-0.6395 Z0.2868
X1.0294 Y-0.6378 Z0.2859
X1.0329 Y-0.6361 Z0.2856
G3 X1.1491 Y-0.5625 I-0.2811 J0.573
G1 X1.1499 Y-0.5619
G3 X1.1379 Y-0.5217 I-0.0673 J0.0018
X1.0748 Y-0.4569 I-0.1693 J-0.1017
X0.8892 Y-0.4007 I-0.1859 J-0.2793
X0.5228 Y-0.9225 I-0.0048 J-0.3862
X1.2351 Y-0.9552 I0.3631 J0.1348
X1.2316 Y-0.6119 I-0.35 J0.1681
X1.1892 Y-0.5216 I-0.5816 J-0.2183
X0.9962 Y-0.3761 I-0.284 J-0.176
X0.6844 Y-0.4083 I-0.1171 J-0.3916
X0.7123 Y-1.1804 I0.2007 J-0.3793
X1.3013 Y-0.6778 I0.1737 J0.3928
X1.2468 Y-0.5334 I-0.653 J-0.1637
X0.9265 Y-0.3194 I-0.3571 J-0.1878
X0.5567 Y-0.4487 I-0.0478 J-0.4566
G1 X0.5404 Y-0.4649
X0.5251 Y-0.4821
G3 X1.2466 Y-1.0928 I0.3607 J-0.3053
X1.3527 Y-0.7137 I-0.3607 J0.3053
G1 X1.348 Y-0.6856
X1.3413 Y-0.6557
X1.3327 Y-0.6246
G3 X1.2575 Y-0.4675 I-0.5124 J-0.1486
G1 X1.2348 Y-0.4415
G3 X1.1738 Y-0.3891 I-1.7113 J-1.9305
G1 X1.1199 Y-0.3561
G3 X1.0295 Y-0.3179 I-0.2939 J-0.5701
G1 X0.9803 Y-0.3061
X0.972 Y-0.3042
G3 X0.8817 Y-0.296 I-0.1144 J-0.7614
G1 X0.8325 Y-0.3001
X0.8242 Y-0.3009
X0.7996 Y-0.3042
X0.7914 Y-0.3061
X0.7421 Y-0.318
G3 X0.6518 Y-0.3561 I0.2022 J-0.6053
G1 X0.5979 Y-0.3891
X0.5943 Y-0.392
X0.545 Y-0.434
X0.5399 Y-0.4384
G3 X0.4875 Y-0.4994 I1.9298 J-1.7107
G1 X0.4545 Y-0.5534
G3 X0.4164 Y-0.6437 I0.5701 J-0.2939
G1 X0.4045 Y-0.693
X0.4026 Y-0.7012
G3 X0.3945 Y-0.7915 I0.7613 J-0.1144
G1 X0.3985 Y-0.8408
X0.3993 Y-0.849
X0.4026 Y-0.8736
X0.4045 Y-0.8818
X0.4164 Y-0.9311
G3 X0.4545 Y-1.0214 I0.6053 J0.2022
G1 X0.4876 Y-1.0753
X0.4904 Y-1.0789
X0.5324 Y-1.1282
X0.5368 Y-1.1333
G3 X0.5979 Y-1.1857 I1.711 J1.9302
G1 X0.6518 Y-1.2187
G3 X0.7421 Y-1.2569 I0.2939 J0.57
G1 X0.7914 Y-1.2687
X0.7996 Y-1.2706
G3 X0.8899 Y-1.2788 I0.1144 J0.7615
G1 X0.9392 Y-1.2748
X0.9474 Y-1.2739
X0.972 Y-1.2706
X0.9803 Y-1.2687
X1.0295 Y-1.2568
G3 X1.1199 Y-1.2187 I-0.2021 J0.6051
G1 X1.1737 Y-1.1857
X1.1773 Y-1.1828
X1.2266 Y-1.1408
X1.2317 Y-1.1364
G3 X1.2841 Y-1.0754 I-1.9302 J1.711
G1 X1.3171 Y-1.0214
G3 X1.3553 Y-0.9311 I-0.57 J0.2939
G1 X1.3671 Y-0.8818
X1.369 Y-0.8736
G3 X1.3772 Y-0.7833 I-0.7615 J0.1144
G1 X1.3732 Y-0.734
X1.3723 Y-0.7258
X1.369 Y-0.7012
X1.3671 Y-0.693
X1.3553 Y-0.6437
G3 X1.3172 Y-0.5534 I-0.6052 J-0.2021
G1 X1.2841 Y-0.4995
X1.2813 Y-0.4959
X1.2572 Y-0.4677
G3 X1.2289 Y-0.4616 I-0.0184 J-0.0169
G1 X1.2253 Y-0.4632 Z0.2859
X1.2218 Y-0.4647 Z0.2868
X1.2184 Y-0.4661 Z0.2883
X1.2154 Y-0.4674 Z0.2904
X1.2126 Y-0.4686 Z0.2929
X1.2103 Y-0.4696 Z0.2959
X1.2084 Y-0.4705 Z0.2992
X1.207 Y-0.471 Z0.3029
X1.2062 Y-0.4714 Z0.3067
X1.2059 Y-0.4715 Z0.3106
G0 Z1.1124
X2.8271 Y-0.7202
Z0.3356
G1 Z0.3106 F50.
X2.8274 Z0.3067
X2.8283 Z0.3029
X2.8298 Z0.2992
X2.8318 Y-0.7203 Z0.2959
X2.8344 Z0.2929
X2.8374 Z0.2904
X2.8407 Y-0.7204 Z0.2883
X2.8443 Z0.2868
X2.8481 Y-0.7205 Z0.2859
X2.8521 Y-0.7206 Z0.2856
G3 X2.989 Y-0.7078 I0.0097 J0.6382
G1 X2.9941 Y-0.7066
G3 X3.0026 Y-0.672 I-0.0444 J0.0293
X2.9869 Y-0.6017 I-0.1671 J-0.0004
X2.9001 Y-0.4875 I-0.2771 J-0.1206
X2.4764 Y-0.4451 I-0.2433 J-0.2934
X2.6023 Y-1.1709 I0.1807 J-0.3425
X2.894 Y-1.0944 I0.0556 J0.3824
X3.0429 Y-0.8278 I-0.2359 J0.3066
X3.0494 Y-0.707 I-1.6345 J0.148
X2.9424 Y-0.4711 I-0.3332 J-0.0088
X2.672 Y-0.3584 I-0.2808 J-0.2933
X2.3238 Y-1.0579 I-0.0152 J-0.4288
X3.0773 Y-0.8787 I0.3338 J0.2703
X3.0944 Y-0.7266 I-0.6552 J0.1507
X2.9073 Y-0.3896 I-0.4036 J-0.0036
X2.5195 Y-0.3358 I-0.251 J-0.3842
G1 X2.4975 Y-0.3428
X2.4761 Y-0.351
G3 X2.8388 Y-1.2239 I0.1813 J-0.4364
X3.1063 Y-0.9355 I-0.1813 J0.4364
G1 X3.1149 Y-0.9084
X3.1226 Y-0.879
X3.1291 Y-0.8476
G3 X3.1337 Y-0.6704 I-0.5247 J0.1023
X3.1181 Y-0.6191 I-0.3022 J-0.0639
X3.0888 Y-0.5534 I-0.6117 J-0.2333
G1 X3.0557 Y-0.4995
X3.0529 Y-0.4959
X3.0109 Y-0.4466
X3.0065 Y-0.4415
G3 X2.9454 Y-0.3891 I-1.7114 J-1.9307
G1 X2.8915 Y-0.3561
G3 X2.8012 Y-0.3179 I-0.2939 J-0.5701
G1 X2.7519 Y-0.3061
X2.7437 Y-0.3042
G3 X2.6534 Y-0.296 I-0.1144 J-0.7613
G1 X2.6041 Y-0.3001
X2.5959 Y-0.3009
X2.5713 Y-0.3042
X2.563 Y-0.3061
X2.5138 Y-0.318
G3 X2.4234 Y-0.3561 I0.2022 J-0.6053
G1 X2.3696 Y-0.3891
X2.366 Y-0.392
X2.3167 Y-0.434
X2.3116 Y-0.4384
G3 X2.2592 Y-0.4994 I1.9301 J-1.711
G1 X2.2262 Y-0.5534
G3 X2.188 Y-0.6437 I0.57 J-0.2939
G1 X2.1762 Y-0.693
X2.1743 Y-0.7012
G3 X2.1661 Y-0.7915 I0.7615 J-0.1144
G1 X2.1701 Y-0.8408
X2.171 Y-0.849
X2.1743 Y-0.8736
X2.1762 Y-0.8818
X2.188 Y-0.9311
G3 X2.2262 Y-1.0214 I0.6052 J0.2021
G1 X2.2592 Y-1.0753
X2.2621 Y-1.0789
X2.3041 Y-1.1282
X2.3085 Y-1.1333
G3 X2.3695 Y-1.1857 I1.7111 J1.9303
G1 X2.4234 Y-1.2187
G3 X2.5138 Y-1.2569 I0.2939 J0.57
G1 X2.563 Y-1.2687
X2.5713 Y-1.2706
G3 X2.6616 Y-1.2788 I0.1144 J0.7615
G1 X2.7109 Y-1.2748
X2.7191 Y-1.2739
X2.7437 Y-1.2706
X2.7519 Y-1.2687
X2.8012 Y-1.2568
G3 X2.8915 Y-1.2187 I-0.2021 J0.6052
G1 X2.9454 Y-1.1857
X2.949 Y-1.1828
X2.9983 Y-1.1408
X3.0034 Y-1.1364
G3 X3.0558 Y-1.0754 I-1.93 J1.7108
G1 X3.0888 Y-1.0214
G3 X3.1269 Y-0.9311 I-0.57 J0.2939
G1 X3.1388 Y-0.8818
X3.1407 Y-0.8736
G3 X3.1488 Y-0.7833 I-0.7615 J0.1144
G1 X3.1448 Y-0.734
G3 X3.1333 Y-0.6704 I-0.3298 J-0.0267
X3.1108 Y-0.6521 I-0.0241 J-0.0067
G1 X3.1069 Y-0.6519 Z0.2859
X3.1031 Y-0.6516 Z0.2868
X3.0995 Y-0.6514 Z0.2883
X3.0962 Y-0.6512 Z0.2904
X3.0932 Y-0.651 Z0.2929
X3.0907 Y-0.6509 Z0.2959
X3.0886 Y-0.6507 Z0.2992
X3.0871 Y-0.6506 Z0.3029
X3.0862 Z0.3067
X3.0859 Z0.3106
G0 Z1.1124
(2D CONTOUR2)
G64 P0.0004 Q0.0004
G0 X3.0844 Y-0.8124
Z1.1124
Z0.7124
G1 Z0.5518 F80.
Z0.3006
G18 G2 X3.1094 Z0.2756 I0.025 K0. F10.
G1 X3.1344
G17 G3 X3.1594 Y-0.7874 I0. J0.025
X2.1555 I-0.502 J0.
X3.1594 I0.502 J0.
X2.1555 I-0.502 J0.
X3.1594 I0.502 J0.
X3.1344 Y-0.7624 I-0.025 J0.
G1 X3.1094
G18 G3 X3.0844 Z0.3006 I0. K0.025
G0 Z0.7124
X1.3128 Y-0.8124
G1 Z0.5518 F80.
Z0.3006
G2 X1.3378 Z0.2756 I0.025 K0. F10.
G1 X1.3628
G17 G3 X1.3878 Y-0.7874 I0. J0.025
X0.3839 I-0.502 J0.
X1.3878 I0.502 J0.
X0.3839 I-0.502 J0.
X1.3878 I0.502 J0.
X1.3628 Y-0.7624 I-0.025 J0.
G1 X1.3378
G18 G3 X1.3128 Z0.3006 I0. K0.025
G0 Z1.1124
G17
M5
G53 G0 Z0.
(2D CHAMFER1)
M9
M1
T13 M6
T33
S7500 M3
G17 G90 G94
G54
M8
G0 X3.1879 Y-0.7874
G43 Z1.1124 H13
G0 Z0.7124
G1 Z0.5924 F80.
Z0.3724
G3 X2.127 I-0.5305 J0. F50.
X3.1879 I0.5305 J0.
G0 Z0.7124
X1.4163
G1 Z0.5924 F80.
Z0.3724
G3 X0.3554 I-0.5305 J0. F50.
X1.4163 I0.5305 J0.
G0 Z1.1124
X1.2618
Z0.7124
G1 Z0.5924 F80.
Z0.1756
G3 X0.5099 I-0.3759 J0. F50.
X1.2618 I0.3759 J0.
G0 Z0.7124
X3.0328 Y-0.7655
G1 Z0.5924 F80.
Z0.1756
G3 X2.2822 Y-0.8093 I-0.3753 J-0.0219 F50.
X3.0328 Y-0.7655 I0.3753 J0.0219
G0 Z1.1124
M5
M9
G53 G0 Z0.
M30
%
