%
(OP1 - IN VISE)
(T11 D=0.125 CR=0. TAPER=45DEG - ZMIN=0.1667 - CHAMFER MILL)
(T13 D=0.375 CR=0. TAPER=45DEG - ZMIN=0.3903 - CHAMFER MILL)
(T33 D=0.25 CR=0. - ZMIN=0. - FLAT END MILL)
(T52 D=0.5 CR=0. TAPER=135DEG - ZMIN=-0.1036 - DRILL)
G90 G94 G17 G91.1
G20
G53 G0 Z0.
(DRILL1)
T52 M6
T33
S1600 M3
G17 G90 G94
G54
M8
G0 X0.7475 Y-0.7475
G43 Z1.1003 H52
G0 Z0.7003
G98 G81 X0.7475 Y-0.7475 Z-0.1036 R0.7003 F12.
X2.5192
G80
G0 Z1.1003
M5
G53 G0 Z0.
(2D ADAPTIVE ROUGHING3)
M9
M1
T33 M6
T13
S7500 M3
G17 G90 G94
G54
G64 P0.004 Q0.004
M8
G0 X-0.2171 Y-1.6825
G43 Z1.1003 H33
G0 Z0.2747
G1 Z0.2497 F50.
X-0.2168 Y-1.6823 Z0.2458
X-0.216 Y-1.6818 Z0.242
X-0.2148 Y-1.681 Z0.2384
X-0.213 Y-1.6799 Z0.235
X-0.2109 Y-1.6786 Z0.2321
X-0.2084 Y-1.677 Z0.2295
X-0.2055 Y-1.6752 Z0.2275
X-0.2025 Y-1.6733 Z0.226
X-0.1992 Y-1.6712 Z0.225
X-0.1959 Y-1.6691 Z0.2247
G3 X-0.0883 Y-1.5835 I-0.3412 J0.5394
G1 X-0.0852 Y-1.5803
G3 X-0.0762 Y-1.3997 I-1.5609 J0.1682
X-0.075 Y-1.074 I-21.4272 J0.2422
G1 Y-0.0971
X-0.0747 Y-0.0881
X-0.0722 Y-0.0702
X-0.0604 Y-0.036
X-0.039 Y-0.0068
X-0.0112 Y0.0164
X0.0203 Y0.0341
X0.0541 Y0.0471
X0.0891 Y0.0563
G2 X0.2328 Y0.0715 I0.1613 J-0.8384
G1 X0.269 Y0.0728
X0.3052 Y0.0736
X0.3413 Y0.0741
G2 X0.667 Y0.075 I0.2528 J-33.5025
G1 X2.3313
X3.1816
X3.2172 Y0.0686
X3.2486 Y0.0506
X3.2743 Y0.025
X3.2942 Y-0.0052
X3.309 Y-0.0382
X3.3196 Y-0.0728
G2 X3.3375 Y-0.2162 I-0.7171 J-0.1622
X3.3413 Y-0.5056 I-6.3084 J-0.2288
G1 X3.3416 Y-0.6503
X3.3417 Y-0.9759
Y-1.4101
X3.3352 Y-1.4457
X3.3171 Y-1.4771
X3.2916 Y-1.5027
X3.2614 Y-1.5226
X3.2283 Y-1.5374
X3.1937 Y-1.548
G2 X3.0503 Y-1.5658 I-0.1622 J0.7182
X2.7609 Y-1.5697 I-0.2287 J6.3194
G1 X2.6162 Y-1.57
X1.8564
X0.1197
X0.0852 Y-1.5589
X0.056 Y-1.5376
X0.0326 Y-1.51
X0.0149 Y-1.4784
X0.002 Y-1.4446
X-0.007 Y-1.4096
X-0.0132 Y-1.3739
G2 X-0.0236 Y-1.1934 I1.4794 J0.1751
G3 X-0.0254 Y-1.0319 I-20.5815 J-0.1492
G1 X-0.0274 Y-1.0211
X-0.0307 Y-1.0107
G2 X-0.0464 Y-0.957 I0.246 J0.101
G1 X-0.0632 Y-0.8831
G2 X-0.0676 Y-0.8502 I0.2031 J0.044
G1 X-0.0732 Y-0.7763
G2 Y-0.7187 I0.2795 J0.0285
G1 X-0.0677 Y-0.6448
G2 X-0.0633 Y-0.6119 I0.2282 J-0.0138
G1 X-0.046 Y-0.5365
X-0.0444 Y-0.5298
G3 X-0.0277 Y-0.368 I-0.8718 J0.1718
X-0.0253 Y-0.1871 I-5.6197 J0.1651
G1 X-0.0234 Y-0.151
X-0.0127 Y-0.1164
X0.006 Y-0.0854
X0.0307 Y-0.059
X0.0597 Y-0.0374
X0.0916 Y-0.0204
X0.1254 Y-0.0074
X0.1603 Y0.0022
G2 X0.3038 Y0.0199 I0.1736 J-0.8162
X0.4607 Y0.0243 I0.1888 J-3.9062
G1 X0.4694 Y0.0259
X0.478 Y0.0281
X0.5452 Y0.0488
X0.5699 Y0.0553
X0.5781 Y0.0568
X0.6191 Y0.063
X0.6766 Y0.0716
X0.6848 Y0.0722
X0.7013 Y0.073
G2 X0.808 Y0.0726 I0.0443 J-2.5344
G1 X0.8162 Y0.0718
X0.8244 Y0.0707
X0.9148 Y0.0571
G2 X0.9522 Y0.0481 I-0.0609 J-0.335
G3 X1.0555 Y0.0312 I0.1371 J0.5135
X1.2725 Y0.0256 I0.188 J3.0637
G1 X1.3087 Y0.0253
X1.381 Y0.0251
X1.5258 Y0.025
X2.2258
X2.2349 Y0.0255
X2.244 Y0.0268
X2.2528 Y0.0291
X2.319 Y0.0495
X2.3272 Y0.0517
X2.3437 Y0.0555
X2.3519 Y0.0571
X2.4422 Y0.0707
G2 X2.4833 Y0.073 I0.0333 J-0.2335
G1 X2.5572 Y0.0731
X2.5654 Y0.073
X2.5818 Y0.0722
X2.59 Y0.0716
X2.6557 Y0.0618
X2.6886 Y0.0568
X2.6968 Y0.0553
X2.7214 Y0.0488
X2.7259 Y0.0474
G3 X2.8267 Y0.0312 I0.135 J0.5173
X3.0437 Y0.0256 I0.188 J3.068
G1 X3.0799 Y0.0253
X3.116 Y0.0237
X3.1506 Y0.013
X3.1817 Y-0.0055
X3.2081 Y-0.0302
X3.2297 Y-0.0593
X3.2466 Y-0.0913
X3.2595 Y-0.1251
X3.269 Y-0.16
G2 X3.2866 Y-0.3035 I-0.8243 J-0.1738
X3.2911 Y-0.4615 I-4.3893 J-0.2049
G1 X3.2934 Y-0.472
X3.2965 Y-0.4822
G2 X3.313 Y-0.538 I-0.2549 J-0.1056
G1 X3.3299 Y-0.6119
G2 X3.3343 Y-0.6448 I-0.2031 J-0.044
G1 X3.3399 Y-0.7187
G2 X3.3398 Y-0.7763 I-0.2795 J-0.0285
G1 X3.3343 Y-0.8502
G2 X3.3299 Y-0.8831 I-0.2283 J0.0138
G1 X3.3127 Y-0.9585
X3.3111 Y-0.9652
G3 X3.2944 Y-1.127 I0.8717 J-0.1718
X3.292 Y-1.3079 I5.619 J-0.1651
G1 X3.2904 Y-1.344
X3.2799 Y-1.3786
X3.2614 Y-1.4097
X3.2367 Y-1.4362
X3.2077 Y-1.4578
X3.1757 Y-1.4748
X3.1419 Y-1.4877
X3.107 Y-1.4973
G2 X2.9636 Y-1.5149 I-0.1738 J0.8214
X2.806 Y-1.5193 I-0.1889 J3.925
G1 X2.7972 Y-1.5209
X2.7886 Y-1.5231
X2.7214 Y-1.5438
X2.6968 Y-1.5503
X2.6886 Y-1.5518
X2.6475 Y-1.558
X2.59 Y-1.5666
X2.5818 Y-1.5672
X2.5654 Y-1.568
G2 X2.4586 Y-1.5676 I-0.0443 J2.5343
G1 X2.4504 Y-1.5668
X2.4422 Y-1.5658
X2.3519 Y-1.5521
G2 X2.3145 Y-1.5431 I0.0609 J0.335
G3 X2.2111 Y-1.5262 I-0.1371 J-0.5134
X1.9942 Y-1.5206 I-0.188 J-3.0637
G1 X1.958 Y-1.5203
X1.8856 Y-1.5201
X1.7409 Y-1.52
X1.0409
X1.0317 Y-1.5205
X1.0227 Y-1.5218
X1.0138 Y-1.5241
X0.9476 Y-1.5445
X0.9394 Y-1.5467
X0.923 Y-1.5505
X0.9148 Y-1.5521
X0.8244 Y-1.5658
G2 X0.7834 Y-1.568 I-0.0333 J0.2335
G1 X0.7095 Y-1.5681
X0.7013 Y-1.568
X0.6848 Y-1.5672
X0.6766 Y-1.5666
X0.6109 Y-1.5568
X0.5781 Y-1.5518
X0.5699 Y-1.5503
X0.5452 Y-1.5438
X0.5407 Y-1.5424
G3 X0.4399 Y-1.5262 I-0.135 J-0.5173
X0.223 Y-1.5206 I-0.188 J-3.068
G1 X0.1871 Y-1.5159
X0.1535 Y-1.5024
X0.124 Y-1.4815
X0.0993 Y-1.455
X0.0796 Y-1.4247
X0.0643 Y-1.3919
X0.0528 Y-1.3576
G2 X0.0313 Y-1.2147 I0.6742 J0.1746
G1 X0.0291 Y-1.1786
X0.0286 Y-1.1647
X0.0268 Y-1.15
X0.0227 Y-1.1357
X0.0164 Y-1.1223
G2 X-0.0002 Y-1.0885 I0.3199 J0.1774
G1 X-0.0296 Y-1.0135
X-0.0307 Y-1.0107
G3 X-0.0442 Y-0.9972 I-0.0231 J-0.0096
G1 X-0.0546 Y-0.9926
G2 X-0.146 Y-0.9194 I0.1046 J0.2242 F300.
X-0.1512 Y-0.9049 I0.0198 J0.0153
G1 X-0.1589 Y-0.6442
G2 X-0.1546 Y-0.6294 I0.025 J0.0007
X-0.0662 Y-0.55 I0.2047 J-0.139
G1 X-0.0577 Y-0.5457 F50.
G3 X-0.0444 Y-0.5298 I-0.0109 J0.0225
G2 X-0.0291 Y-0.4805 I0.2381 J-0.0471
G1 X-0.0066 Y-0.4229
G3 X0.0121 Y-0.3472 I-0.3615 J0.1294
G1 X0.0167 Y-0.3113
X0.0197 Y-0.2753
X0.0218 Y-0.2391
X0.0281 Y-0.2035
X0.0416 Y-0.17
X0.0617 Y-0.1398
X0.087 Y-0.1139
X0.1161 Y-0.0925
X0.1479 Y-0.0753
X0.1815 Y-0.0619
X0.2162 Y-0.0517
X0.2516 Y-0.0441
X0.2874 Y-0.0385
X0.3233 Y-0.0345
X0.3345 Y-0.0328
X0.3453 Y-0.0298
X0.3557 Y-0.0254
X0.3663 Y-0.0203
X0.4385 Y0.0144
X0.4467 Y0.018
X0.4631 Y0.0235
X0.478 Y0.0281
G3 X0.4923 Y0.0408 I-0.0082 J0.0236
G1 X0.4974 Y0.0509
G2 X0.597 Y0.1517 I0.223 J-0.1206 F300.
X0.6081 Y0.1548 I0.0122 J-0.0218
G1 X0.8141 Y0.1632
G2 X0.8254 Y0.161 I0.001 J-0.025
X0.9317 Y0.0703 I-0.105 J-0.2307
G1 X0.9388 Y0.059 F50.
G3 X0.9521 Y0.0481 I0.0215 J0.0127
G1 X1.0215 Y0.0267
G2 X1.0601 Y0.0126 I-0.0659 J-0.2403
G3 X1.1407 Y-0.0106 I0.1268 J0.2887
X1.2809 Y-0.0223 I0.1511 J0.9657
X1.6427 Y-0.025 I0.2793 J13.2695
G1 X2.1073
X2.1209 Y-0.024
X2.1343 Y-0.0209
X2.1471 Y-0.0159
X2.1891 Y0.0043
G2 X2.2528 Y0.0289 I0.1411 J-0.2709
G1 X2.2564 Y0.0305
X2.2597 Y0.0326
X2.2626 Y0.0352
X2.265 Y0.0382
X2.267 Y0.0415
X2.2685 Y0.0451
X2.2693 Y0.0488
X2.2696 Y0.0527
G3 X2.2442 Y0.0777 I-0.025 J0. F300.
G1 X1.071 Y0.0598
G3 X1.0467 Y0.0383 I0.0004 J-0.025
X1.06 Y0.0126 I0.0248 J-0.0035 F50.
G2 X1.1543 Y-0.0329 I-1.8708 J-3.9981
G3 X1.2288 Y-0.057 I0.1207 J0.2459
X1.3641 Y-0.0711 I0.1538 J0.8166
X1.6535 Y-0.0747 I0.2343 J7.3178
G1 X1.762 Y-0.075
X2.0208
G3 X2.0722 Y-0.0591 I-0.0002 J0.0917
G2 X2.1471 Y-0.016 I0.2271 J-0.308
G1 X2.1504 Y-0.0139
X2.1533 Y-0.0114
X2.1558 Y-0.0084
X2.1578 Y-0.0051
X2.1592 Y-0.0015
X2.1601 Y0.0022
X2.1604 Y0.0061
X2.1601 Y0.0099
G3 X2.135 Y0.0312 I-0.0247 J-0.0037 F300.
G1 X1.1669 Y0.0133
G3 X1.143 Y-0.0062 I0.0005 J-0.025
X1.1543 Y-0.0329 I0.0244 J-0.0054 F50.
G2 X1.2099 Y-0.0696 I-0.5308 J-0.8657
G3 X1.2924 Y-0.1025 I0.1304 J0.2069
X1.4203 Y-0.1194 I0.1558 J0.6881
X1.6735 Y-0.1244 I0.2186 J4.6145
X1.9497 Y-0.1249 I0.2015 J36.0223
X2.007 Y-0.1042 I-0.0001 J0.0896
G1 X2.0234 Y-0.0925
X2.0327 Y-0.086
X2.0722 Y-0.0591
G3 X2.0813 Y-0.0315 I-0.0148 J0.0202
X2.0571 Y-0.0139 I-0.0239 J-0.0074 F300.
G1 X1.2244 Y-0.0245
G3 X1.2008 Y-0.0421 I0.0003 J-0.025
X1.2099 Y-0.0696 I0.0239 J-0.0074 F50.
G2 X1.2676 Y-0.1106 I-0.4975 J-0.7619
G3 X1.3368 Y-0.1447 I0.116 J0.1478
X1.4423 Y-0.1649 I0.1513 J0.5036
X1.6229 Y-0.1733 I0.1851 J2.0357
X1.9004 Y-0.1745 I0.1883 J11.8418
X1.9566 Y-0.1501 I-0.0069 J0.0928
G1 X1.9905 Y-0.1186
X1.9992 Y-0.1107
X2.007 Y-0.1042
G3 X2.0134 Y-0.0759 I-0.0166 J0.0187
X1.9901 Y-0.0606 I-0.0231 J-0.0096 F300.
G1 X1.2844 Y-0.0676
G3 X1.2619 Y-0.0822 I0.0002 J-0.025
X1.2675 Y-0.1107 I0.0228 J-0.0103 F50.
G1 X1.2765 Y-0.1189
X1.3119 Y-0.1518
G3 X1.3808 Y-0.1894 I0.1252 J0.1473
X1.4775 Y-0.2114 I0.1543 J0.456
X1.658 Y-0.2226 I0.1895 J1.5932
X1.8553 Y-0.2239 I0.1287 J4.6496
X1.912 Y-0.1929 I-0.0098 J0.0854
G1 X1.9199 Y-0.1846
X1.9249 Y-0.1795
X1.9566 Y-0.1501
G3 X1.9614 Y-0.1215 I-0.0176 J0.0177
X1.9389 Y-0.1074 I-0.0225 J-0.0109 F300.
G1 X1.3295 Y-0.1091
G3 X1.307 Y-0.1232 I0.0001 J-0.025
X1.3119 Y-0.1518 I0.0225 J-0.0109 F50.
G1 X1.3418 Y-0.1795
X1.35 Y-0.188
X1.3547 Y-0.1929
G3 X1.4201 Y-0.2335 I0.1194 J0.1193
X1.5022 Y-0.256 I0.1462 J0.372
X1.6823 Y-0.2714 I0.192 J1.1817
X1.8128 Y-0.2724 I0.0758 J1.4801
X1.876 Y-0.238 I-0.01 J0.0937
G1 X1.9002 Y-0.2075
X1.912 Y-0.1929
G3 X1.9127 Y-0.1639 I-0.02 J0.015
X1.892 Y-0.1529 I-0.0207 J-0.014 F300.
G1 X1.3747
G3 X1.354 Y-0.1639 I0. J-0.025
X1.3547 Y-0.1929 I0.0207 J-0.014 F50.
G1 X1.3679 Y-0.2093
X1.3854 Y-0.2313
G3 X1.447 Y-0.2752 I0.1223 J0.1064
X1.5446 Y-0.3045 I0.1615 J0.361
X1.7666 Y-0.3206 I0.1943 J1.1383
G1 X1.7752 Y-0.3197
G3 X1.8427 Y-0.2803 I-0.0085 J0.0922
G1 X1.8464 Y-0.275
X1.8759 Y-0.2379
G3 X1.8765 Y-0.209 I-0.0201 J0.0149
X1.8562 Y-0.1981 I-0.0207 J-0.0141 F300.
G1 X1.4059 Y-0.1914
G3 X1.3848 Y-0.2023 I-0.0004 J-0.025
X1.3854 Y-0.2313 I0.0207 J-0.0141 F50.
G1 X1.4203 Y-0.275
X1.4214 Y-0.2766
G3 X1.4789 Y-0.32 I0.1178 J0.0965
X1.57 Y-0.3503 I0.1604 J0.3301
X1.7346 Y-0.3664 I0.1487 J0.6711
X1.7837 Y-0.3539 I-0.0049 J0.1222
G1 X1.7974 Y-0.3445
X1.8093 Y-0.3329
X1.8188 Y-0.3193
X1.8302 Y-0.2997
X1.8354 Y-0.2915
X1.8427 Y-0.2803
G3 X1.8406 Y-0.2514 I-0.0214 J0.0129
X1.8216 Y-0.2424 I-0.0192 J-0.016 F300.
G1 X1.4427 Y-0.2381
G3 X1.4227 Y-0.2477 I-0.0003 J-0.025
X1.4214 Y-0.2766 I0.0197 J-0.0154 F50.
G2 X1.4438 Y-0.3124 I-0.3439 J-0.2408
G3 X1.5013 Y-0.3621 I0.1188 J0.0793
X1.6065 Y-0.399 I0.1708 J0.3183
X1.7288 Y-0.4076 I0.0872 J0.3664
X1.7845 Y-0.376 I-0.0161 J0.0932
G1 X1.7938 Y-0.3626
X1.8188 Y-0.3193
G3 X1.8151 Y-0.2906 I-0.0221 J0.0117
X1.7973 Y-0.2826 I-0.0183 J-0.017 F300.
G1 X1.4664 Y-0.2757
G3 X1.4476 Y-0.2837 I-0.0005 J-0.025
X1.4438 Y-0.3124 I0.0183 J-0.017 F50.
G1 X1.4697 Y-0.3572
G3 X1.5291 Y-0.4088 I0.1256 J0.0845
X1.7026 Y-0.4486 I0.1561 J0.283
X1.7681 Y-0.4102 I-0.011 J0.0937
G1 X1.7759 Y-0.3967
X1.7831 Y-0.3818
X1.7852 Y-0.3775
X1.7938 Y-0.3626
G3 X1.7901 Y-0.3339 I-0.0221 J0.0117
X1.7722 Y-0.3259 I-0.0183 J-0.017 F300.
G1 X1.4922 Y-0.3205
G3 X1.4734 Y-0.3285 I-0.0005 J-0.025
X1.4697 Y-0.3572 I0.0183 J-0.017 F50.
G1 X1.4814 Y-0.3775
X1.4836 Y-0.3818
X1.4896 Y-0.3944
G3 X1.5482 Y-0.4512 I0.1205 J0.0656
X1.6898 Y-0.4852 I0.1247 J0.2076
X1.7462 Y-0.4552 I-0.0134 J0.0933
G1 X1.7559 Y-0.4421
X1.7632 Y-0.4276
X1.7715 Y-0.4065
X1.7752 Y-0.3983
X1.7759 Y-0.3967
G3 X1.77 Y-0.3683 I-0.0229 J0.01
X1.7533 Y-0.3617 I-0.017 J-0.0183 F300.
G1 X1.5128 Y-0.3594
G3 X1.4955 Y-0.3661 I-0.0002 J-0.025
X1.4896 Y-0.3944 I0.017 J-0.0183 F50.
G1 X1.4915 Y-0.3983
X1.4952 Y-0.4065
X1.5049 Y-0.4311
G3 X1.5544 Y-0.4863 I0.1102 J0.0491
X1.6712 Y-0.52 I0.1102 J0.163
X1.7497 Y-0.462 I-0.0072 J0.0919
G1 X1.7632 Y-0.4276
G3 X1.7552 Y-0.3997 I-0.0236 J0.0083
X1.7392 Y-0.3943 I-0.0156 J-0.0195 F300.
G1 X1.528 Y-0.3978
G3 X1.5128 Y-0.4033 I0.0004 J-0.025
X1.5049 Y-0.4311 I0.0156 J-0.0195 F50.
G1 X1.521 Y-0.4722
G3 X1.5745 Y-0.5287 I0.1063 J0.0471
X1.6565 Y-0.5516 I0.0818 J0.1346
X1.7382 Y-0.4916 I-0.0032 J0.09
G1 X1.7392 Y-0.4887
X1.7497 Y-0.462
G3 X1.7417 Y-0.4341 I-0.0236 J0.0083
X1.7247 Y-0.4287 I-0.0156 J-0.0195 F300.
G1 X1.5431 Y-0.439
G3 X1.529 Y-0.4444 I0.0014 J-0.025
X1.521 Y-0.4722 I0.0156 J-0.0195 F50.
G1 X1.5274 Y-0.4887
X1.5332 Y-0.5051
X1.5339 Y-0.5076
G3 X1.5817 Y-0.5614 I0.0918 J0.0335
X1.6662 Y-0.5787 I0.0653 J0.1036
G1 X1.6813 Y-0.5735
G3 X1.7308 Y-0.5143 I-0.034 J0.0787
X1.7189 Y-0.4878 I-0.0245 J0.0048
X1.7077 Y-0.4845 I-0.0126 J-0.0216 F300.
G1 X1.5595 Y-0.4764
G3 X1.5443 Y-0.4805 I-0.0014 J-0.025
X1.5339 Y-0.5076 I0.0138 J-0.0208 F50.
G1 X1.5356 Y-0.5133
X1.5414 Y-0.538
G3 X1.5813 Y-0.5883 I0.0814 J0.0236
X1.665 Y-0.6054 I0.0624 J0.0923
X1.7192 Y-0.5588 I-0.0215 J0.0797
G1 X1.7237 Y-0.5448
X1.7278 Y-0.5273
X1.7308 Y-0.5143
G3 X1.7189 Y-0.4878 I-0.0245 J0.0048
X1.7021 Y-0.4848 I-0.0126 J-0.0216 F300.
G1 X1.5617 Y-0.5086
X1.5588 Y-0.5093
X1.5561 Y-0.5103
X1.5534 Y-0.5116
G3 X1.5414 Y-0.538 I0.0125 J-0.0217 F50.
G1 X1.5485 Y-0.5693
G3 X1.5946 Y-0.6215 I0.0782 J0.0225
X1.6757 Y-0.6251 I0.0441 J0.0767
X1.7178 Y-0.5712 I-0.0375 J0.0726
G1 X1.7237 Y-0.5448
G3 X1.7117 Y-0.5184 I-0.0246 J0.0047
X1.6944 Y-0.5156 I-0.0125 J-0.0217 F300.
G1 X1.5683 Y-0.54
X1.5656 Y-0.5407
X1.563 Y-0.5417
X1.5606 Y-0.5429
G3 X1.5485 Y-0.5693 I0.0125 J-0.0217 F50.
G1 X1.5553 Y-0.5991
G3 X1.5972 Y-0.6473 I0.0714 J0.0198
X1.7012 Y-0.623 I0.039 J0.0681
G1 X1.7074 Y-0.611
X1.7116 Y-0.5981
X1.7177 Y-0.5711
G3 X1.7057 Y-0.5448 I-0.0246 J0.0047
X1.6872 Y-0.5422 I-0.0125 J-0.0217 F300.
G1 X1.5739 Y-0.5702
X1.5705 Y-0.5712
X1.5674 Y-0.5728
G3 X1.5553 Y-0.5991 I0.0125 J-0.0217 F50.
G1 X1.5582 Y-0.6119
X1.5597 Y-0.6201
X1.56 Y-0.6226
G3 X1.5946 Y-0.6689 I0.0626 J0.0108
X1.6676 Y-0.6746 I0.042 J0.0676
X1.707 Y-0.6201 I-0.031 J0.064
G1 X1.7084 Y-0.6119
X1.7116 Y-0.5981
G3 X1.6995 Y-0.5717 I-0.0246 J0.0047
X1.6807 Y-0.5692 I-0.0125 J-0.0217 F300.
G1 X1.5785 Y-0.5961
X1.5765 Y-0.5967
X1.5745 Y-0.5975
G3 X1.56 Y-0.6226 I0.0104 J-0.0227 F50.
G1 X1.5618 Y-0.6366
X1.5627 Y-0.6448
X1.5628 Y-0.6462
G3 X1.5868 Y-0.686 I0.0551 J0.0061
X1.666 Y-0.696 I0.0475 J0.0568
X1.7045 Y-0.6403 I-0.0326 J0.0636
G1 X1.7048 Y-0.6366
X1.707 Y-0.6201
G3 X1.6925 Y-0.595 I-0.0249 J0.0023
X1.6751 Y-0.5938 I-0.0104 J-0.0227 F300.
G1 X1.5808 Y-0.6211
X1.5801 Y-0.6214
X1.5793 Y-0.6216
X1.5786 Y-0.6219
G3 X1.5628 Y-0.6462 I0.0091 J-0.0233 F50.
G1 X1.5645 Y-0.6694
G3 X1.5987 Y-0.7156 I0.0583 J0.0075
X1.7027 Y-0.6608 I0.035 J0.0598
G1 X1.704 Y-0.6448
X1.7045 Y-0.6403
G3 X1.6894 Y-0.6155 I-0.0249 J0.0018
X1.6716 Y-0.6148 I-0.0098 J-0.023 F300.
G1 X1.5816 Y-0.6447
X1.581 Y-0.6449
X1.5804 Y-0.6452
G3 X1.5645 Y-0.6694 I0.0091 J-0.0233 F50.
G1 X1.5663 Y-0.6924
G3 X1.6008 Y-0.738 I0.0565 J0.0069
X1.6512 Y-0.7436 I0.0317 J0.0565
X1.7012 Y-0.6822 I-0.019 J0.0665
G1 X1.7028 Y-0.6608
G3 X1.6869 Y-0.6365 I-0.025 J0.001
X1.6692 Y-0.6363 I-0.0091 J-0.0233 F300.
G1 X1.5827 Y-0.6679
X1.5821 Y-0.6682
G3 X1.5663 Y-0.6924 I0.0091 J-0.0233 F50.
G1 X1.5679 Y-0.715
G3 X1.5927 Y-0.7542 I0.0517 J0.0052
X1.6483 Y-0.7646 I0.0388 J0.0532
X1.6996 Y-0.7032 I-0.0172 J0.0666
G1 X1.7012 Y-0.6822
G3 X1.6853 Y-0.6579 I-0.025 J0.001
X1.667 I-0.0091 J-0.0233 F300.
G1 X1.5838 Y-0.6908
X1.5837 F50.
G3 X1.5679 Y-0.715 I0.0092 J-0.0233
G1 X1.5682 Y-0.7187
X1.5688 Y-0.727
X1.5693 Y-0.7365
G3 X1.5942 Y-0.7755 I0.0498 J0.0044
X1.6619 Y-0.7797 I0.0374 J0.0536
X1.6981 Y-0.7245 I-0.0307 J0.0595
G1 X1.6984 Y-0.7187
X1.6996 Y-0.7032
G3 X1.6837 Y-0.679 I-0.025 J0.001
X1.6649 Y-0.6792 I-0.0091 J-0.0233 F300.
G1 X1.5856 Y-0.7125
X1.5846 Y-0.7129 F50.
G3 X1.5693 Y-0.7365 I0.0097 J-0.0231
G1 X1.5697 Y-0.7434
Y-0.7516
X1.5696 Y-0.7541
G3 X1.5919 Y-0.7941 I0.0464 J-0.0004
X1.6859 Y-0.7798 I0.0402 J0.0519
G1 X1.6919 Y-0.7684
X1.6957 Y-0.7562
X1.6969 Y-0.7434
X1.6981 Y-0.7245
G3 X1.682 Y-0.7004 I-0.025 J0.0007
X1.6635 Y-0.7007 I-0.0089 J-0.0234 F300.
G1 X1.5884 Y-0.7319
X1.5849 Y-0.7333 F50.
G3 X1.5696 Y-0.7541 I0.0096 J-0.0231
G1 X1.5688 Y-0.768
X1.5685 Y-0.7726
G3 X1.5896 Y-0.8133 I0.0472 J-0.0014
X1.6974 Y-0.7593 I0.0422 J0.0503
G1 X1.6969 Y-0.7516
Y-0.7434
G3 X1.6793 Y-0.7204 I-0.025 J-0.0009
X1.6628 Y-0.721 I-0.0074 J-0.0239 F300.
G1 X1.5875 Y-0.7505
X1.5842 Y-0.7518 F50.
G3 X1.5685 Y-0.7726 I0.0091 J-0.0233
G1 X1.5682 Y-0.7763
X1.567 Y-0.7927
G3 X1.5881 Y-0.8336 I0.0481 J-0.0011
X1.6984 Y-0.7771 I0.0435 J0.0511
G1 X1.6979 Y-0.768
X1.6974 Y-0.7593
G3 X1.6785 Y-0.7373 I-0.0249 J-0.0023
X1.6628 Y-0.7386 I-0.006 J-0.0243 F300.
G1 X1.5862 Y-0.7707
X1.5822 Y-0.7724 F50.
G3 X1.567 Y-0.7927 I0.0097 J-0.0231
G1 X1.5656 Y-0.8116
G3 X1.5854 Y-0.8532 I0.0487 J-0.0023
X1.6615 Y-0.8647 I0.047 J0.0535
X1.7001 Y-0.7981 I-0.0297 J0.0618
G1 X1.6985 Y-0.7771
G3 X1.6792 Y-0.7554 I-0.0248 J-0.0027
X1.6641 Y-0.7567 I-0.0056 J-0.0244 F300.
G1 X1.5847 Y-0.7896
X1.5808 Y-0.7913 F50.
G3 X1.5656 Y-0.8116 I0.0096 J-0.0231
G1 X1.564 Y-0.8321
G3 X1.5838 Y-0.8738 I0.0491 J-0.0023
X1.6607 Y-0.887 I0.0489 J0.054
X1.7012 Y-0.8325 I-0.029 J0.0639
G1 X1.7016 Y-0.8183
X1.7001 Y-0.7981
G3 X1.6808 Y-0.7764 I-0.0248 J-0.0027
X1.666 Y-0.7775 I-0.0056 J-0.0244 F300.
G1 X1.5832 Y-0.8102
X1.5797 Y-0.8116 F50.
G3 X1.564 Y-0.8321 I0.0092 J-0.0233
G1 X1.5627 Y-0.8502
X1.5624 Y-0.8527
G3 X1.5817 Y-0.8946 I0.0492 J-0.0027
X1.6636 Y-0.9083 I0.0514 J0.0552
X1.7032 Y-0.8399 I-0.0308 J0.0635
G1 X1.7016 Y-0.8183
G3 X1.6823 Y-0.7967 I-0.0248 J-0.0027
X1.6676 Y-0.7978 I-0.0056 J-0.0244 F300.
G1 X1.5822 Y-0.8313
X1.578 Y-0.8329 F50.
G3 X1.5624 Y-0.8527 I0.0091 J-0.0233
G1 X1.5618 Y-0.8584
X1.5602 Y-0.8712
G3 X1.5775 Y-0.9139 I0.0496 J-0.0048
X1.6666 Y-0.9304 I0.0565 J0.056
X1.7026 Y-0.8871 I-0.0327 J0.0638
G1 X1.7052 Y-0.8729
X1.7048 Y-0.8584
X1.704 Y-0.8502
X1.7032 Y-0.8399
G3 X1.6839 Y-0.8182 I-0.0248 J-0.0027
X1.6701 Y-0.819 I-0.0056 J-0.0244 F300.
G1 X1.5805 Y-0.8503
X1.5766 Y-0.8516 F50.
G3 X1.5602 Y-0.8712 I0.0082 J-0.0236
G1 X1.5597 Y-0.8749
X1.5582 Y-0.8831
X1.5569 Y-0.8887
G3 X1.5715 Y-0.9324 I0.048 J-0.0083
X1.6611 Y-0.9569 I0.0637 J0.0567
X1.7073 Y-0.8769 I-0.0246 J0.0676
G1 X1.707 Y-0.8749
X1.7048 Y-0.8584
G3 X1.6844 Y-0.8379 I-0.0247 J-0.0041
X1.6724 Y-0.8388 I-0.0042 J-0.0246 F300.
G1 X1.5791 Y-0.8695
X1.5733 Y-0.8714 F50.
G3 X1.5569 Y-0.8887 I0.0078 J-0.0237
G1 X1.5526 Y-0.9077
G3 X1.5656 Y-0.9521 I0.05 J-0.0094
X1.6756 Y-0.9764 I0.0707 J0.0584
X1.7115 Y-0.8966 I-0.0354 J0.0639
G1 X1.7084 Y-0.8831
X1.7073 Y-0.8769
G3 X1.686 Y-0.8573 I-0.0245 J-0.0052
X1.6757 Y-0.8582 I-0.0031 J-0.0248 F300.
G1 X1.5748 Y-0.8886
X1.5695 Y-0.8902 F50.
G3 X1.5526 Y-0.9077 I0.0072 J-0.0239
G1 X1.5479 Y-0.9284
G3 X1.5602 Y-0.9731 I0.0519 J-0.0098
X1.6806 Y-1.0011 I0.0777 J0.0614
X1.7168 Y-0.9196 I-0.037 J0.0652
G1 X1.7115 Y-0.8966
G3 X1.6892 Y-0.8781 I-0.0242 J-0.0064
G1 X1.6864 Y-0.878 F300.
X1.6835 Y-0.8783
X1.6807 Y-0.8789
X1.5701 Y-0.9094
X1.5654 Y-0.9107 F50.
G3 X1.5479 Y-0.9284 I0.0066 J-0.0241
G1 X1.5429 Y-0.9502
G3 X1.5547 Y-0.9951 I0.0537 J-0.0099
X1.6554 Y-1.0358 I0.0843 J0.0638
X1.722 Y-0.9429 I-0.0075 J0.0757
G1 X1.7168 Y-0.9196
G3 X1.6945 Y-0.9011 I-0.0242 J-0.0064
G1 X1.6905 F300.
X1.6867 Y-0.9017
X1.5652 Y-0.9313
X1.5612 Y-0.9323 F50.
G3 X1.5429 Y-0.9502 I0.0059 J-0.0243
G1 X1.5381 Y-0.9708
X1.5378 Y-0.9723
G3 X1.5489 Y-1.0175 I0.0554 J-0.0104
X1.6419 Y-1.064 I0.0903 J0.0643
X1.7146 Y-1.032 I0.0048 J0.0879
X1.7279 Y-0.968 I-0.064 J0.0466
G1 X1.7234 Y-0.9488
X1.7221 Y-0.9429
G3 X1.6998 Y-0.9243 I-0.0242 J-0.0064
G1 X1.6962 F300.
X1.6926 Y-0.9248
X1.5602 Y-0.9536
X1.5566 Y-0.9544 F50.
G3 X1.5378 Y-0.9723 I0.0053 J-0.0244
G1 X1.5356 Y-0.9817
X1.5332 Y-0.9899
X1.5328 Y-0.9911
G3 X1.5402 Y-1.0369 I0.052 J-0.0151
X1.6188 Y-1.0897 I0.0962 J0.0584
X1.7024 Y-1.0769 I0.0255 J0.1134
X1.7335 Y-0.9899 I-0.0387 J0.0629
G1 X1.731 Y-0.9817
X1.7278 Y-0.968
G3 X1.7054 Y-0.9496 I-0.0241 J-0.0065
G1 X1.7024 F300.
X1.6994 Y-0.9499
X1.5569 Y-0.9746
X1.5518 Y-0.9755 F50.
G3 X1.5328 Y-0.9911 I0.0043 J-0.0246
G1 X1.5274 Y-1.0063
X1.5257 Y-1.0109
G3 X1.5308 Y-1.057 I0.0527 J-0.0175
X1.6017 Y-1.1144 I0.1025 J0.0541
X1.7095 Y-1.1054 I0.0438 J0.1251
X1.7409 Y-1.0104 I-0.0418 J0.0665
G1 X1.7392 Y-1.0063
X1.7335 Y-0.9899
G3 X1.7093 Y-0.9739 I-0.0233 J-0.009
G1 X1.7068 Y-0.9741 F300.
X1.5504 Y-0.9953
X1.5452 Y-0.996 F50.
G3 X1.5257 Y-1.0109 I0.0034 J-0.0248
G1 X1.5178 Y-1.031
G3 X1.5234 Y-1.0829 I0.0577 J-0.02
X1.5972 Y-1.1434 I0.11 J0.0589
X1.7234 Y-1.1306 I0.0502 J0.1337
X1.7551 Y-1.0807 I-0.0496 J0.0665
G1 X1.7565 Y-1.0658
X1.7551 Y-1.0508
X1.751 Y-1.0363
X1.7408 Y-1.0105
G3 X1.716 Y-0.9955 I-0.0229 J-0.0099
G1 X1.715 Y-0.9956 F300.
X1.5425 Y-1.0155
X1.5378 Y-1.0161 F50.
G3 X1.5178 Y-1.031 I0.0029 J-0.0248
G1 X1.5087 Y-1.054
G3 X1.5135 Y-1.1061 I0.0603 J-0.0208
X1.5808 Y-1.1688 I0.1163 J0.0574
X1.7267 Y-1.1638 I0.0682 J0.144
X1.7661 Y-1.107 I-0.0437 J0.0723
G1 X1.7673 Y-1.0923
X1.7658 Y-1.0776
X1.7616 Y-1.0634
X1.751 Y-1.0363
G3 X1.7262 Y-1.0213 I-0.0229 J-0.0099
G1 X1.7258 F300.
X1.5335 Y-1.0386
X1.5294 Y-1.039 F50.
G3 X1.5087 Y-1.054 I0.0022 J-0.0249
G1 X1.4991 Y-1.0786
G3 X1.5036 Y-1.1309 I0.0631 J-0.0209
X1.5722 Y-1.1981 I0.1242 J0.0582
X1.7317 Y-1.1972 I0.0788 J0.1561
X1.7747 Y-1.148 I-0.0445 J0.0823
X1.7715 Y-1.0885 I-0.0794 J0.0255
G1 X1.7616 Y-1.0634
G3 X1.737 Y-1.0484 I-0.0229 J-0.0099
G1 X1.7368 Y-1.0485
X1.5239 Y-1.0634 F300.
X1.5203 Y-1.0636 F50.
G3 X1.4991 Y-1.0786 I0.0017 J-0.0249
G1 X1.4952 Y-1.0885
X1.4915 Y-1.0967
X1.4904 Y-1.0988
G3 X1.4909 Y-1.1513 I0.0596 J-0.0257
X1.5488 Y-1.2199 I0.1276 J0.049
X1.7385 Y-1.2306 I0.1042 J0.1607
X1.7762 Y-1.1992 I-0.0597 J0.1101
X1.7831 Y-1.1131 I-0.0684 J0.0488
G1 X1.7752 Y-1.0967
X1.7715 Y-1.0885
G3 X1.7479 Y-1.0746 I-0.0224 J-0.0111
G1 X1.7459 Y-1.0747
X1.5163 Y-1.0852 F300.
X1.5114 Y-1.0855 F50.
G3 X1.4904 Y-1.0988 I0.0011 J-0.025
G1 X1.4836 Y-1.1132
X1.4814 Y-1.1175
X1.4802 Y-1.1196
G3 X1.4776 Y-1.1776 I0.0594 J-0.0316
X1.5265 Y-1.2443 I0.13 J0.044
X1.758 Y-1.2613 I0.1285 J0.1656
X1.7935 Y-1.229 I-0.0736 J0.1167
X1.8075 Y-1.1679 I-0.0719 J0.0486
G1 X1.8036 Y-1.1524
X1.797 Y-1.1378
X1.7852 Y-1.1175
X1.7831 Y-1.1132
G3 X1.7604 Y-1.1001 I-0.022 J-0.0119
G1 X1.757 Y-1.1002
X1.507 Y-1.1077 F300.
X1.5006 Y-1.1079 F50.
G3 X1.4802 Y-1.1196 I0.0007 J-0.025
G1 X1.4659 Y-1.1443
G3 X1.4622 Y-1.2024 I0.0637 J-0.0333
X1.5122 Y-1.2755 I0.1392 J0.0417
G2 X1.5052 Y-1.4179 I-0.0621 J-0.0683
G1 X1.4749 Y-1.4378
G2 X1.3638 Y-1.4575 I-0.1553 J0.5521
X1.1696 Y-1.4645 I-0.1843 J2.4017
G1 X1.156 Y-1.4658
X1.1428 Y-1.4689
X1.1301 Y-1.474
X1.0775 Y-1.4993
G2 X1.0138 Y-1.5239 I-0.1411 J0.2709
G1 X1.0103 Y-1.5255
X1.007 Y-1.5276
X1.0041 Y-1.5302
X1.0016 Y-1.5332
X0.9996 Y-1.5365
X0.9982 Y-1.5401
X0.9973 Y-1.5438
X0.997 Y-1.5477
G3 X1.0215 Y-1.5727 I0.025 J0. F300.
G1 X2.2855 Y-1.6637
G3 X2.3026 I0.0086 J0.0617
X2.3401 Y-1.5599 I-0.0086 J0.0617
X2.3145 Y-1.5431 I-0.046 J-0.042 F50.
G1 X2.2451 Y-1.5217
G2 X2.2066 Y-1.5076 I0.0659 J0.2403
G3 X2.0915 Y-1.4782 I-0.1458 J-0.33
X1.9541 Y-1.4688 I-0.153 J-1.2348
X1.859 Y-1.4667 I-0.1104 J-2.782
G2 X1.779 Y-1.3423 I0.0057 J0.0916
G1 X1.7937 Y-1.3092
G3 X1.8282 Y-1.2525 I-0.1729 J0.1443
X1.8203 Y-1.1781 I-0.0895 J0.028
G1 X1.797 Y-1.1378
G3 X1.7752 Y-1.1261 I-0.0212 J-0.0132
G1 X1.7702 Y-1.1262
X1.4927 Y-1.1324 F300.
X1.4866 Y-1.1325 F50.
G3 X1.4659 Y-1.1443 I0.0006 J-0.025
G1 X1.4517 Y-1.169
G3 X1.4467 Y-1.2244 I0.0654 J-0.0338
G1 X1.4471 Y-1.2335
X1.4469 Y-1.2425
X1.4427 Y-1.2785
X1.4266 Y-1.3109
X1.4027 Y-1.338
X1.3736 Y-1.3596
X1.3414 Y-1.3761
X1.3073 Y-1.3882
X1.2722 Y-1.3969
G3 X1.2283 Y-1.4128 I0.011 J-0.099
G1 X1.2253 Y-1.4154
X1.2228 Y-1.4183
X1.2208 Y-1.4217
X1.2193 Y-1.4253
X1.2184 Y-1.4291
X1.2181 Y-1.433
X1.2209 Y-1.4399
X1.2248 Y-1.45 F300.
X1.235 Y-1.4566
X1.3746 Y-1.478
G3 X1.4272 Y-1.4665 I0.0105 J0.0776
G1 X1.483 Y-1.4263
X1.5143 Y-1.392
X1.5406 Y-1.3514
X1.5527 Y-1.2939
X1.566 Y-1.2118
G3 X1.4738 Y-1.1478 I-0.0615 J0.0097
X1.4517 Y-1.169 I0.0307 J-0.0542 F50.
G2 X1.4203 Y-1.22 I-0.4713 J0.2551
G1 X1.3664 Y-1.2875
X1.3547 Y-1.3021
X1.3468 Y-1.3104
X1.3418 Y-1.3155
X1.2761 Y-1.3764
G2 X1.2339 Y-1.4088 I-0.1847 J0.1966
X1.153 Y-1.463 I-0.8844 J1.235
G1 X1.1301 Y-1.474
G3 X1.1163 Y-1.4995 I0.011 J-0.0225
X1.1401 Y-1.5214 I0.0248 J0.003 F300.
G1 X2.208 Y-1.5671
G3 X2.2298 Y-1.528 I0.0011 J0.025
G1 X2.2296 Y-1.5278
G3 X2.2066 Y-1.5076 I-0.0514 J-0.0353 F50.
G2 X2.1113 Y-1.4615 I1.696 J3.6326
G3 X2.0313 Y-1.4348 I-0.127 J-0.2474
G1 X1.9957 Y-1.4283
X1.9875 Y-1.4246
X1.9718 Y-1.4155
X1.9446 Y-1.3917
X1.9249 Y-1.3614
X1.9112 Y-1.3278
X1.9051 Y-1.3055
X1.901 Y-1.2938
X1.8954 Y-1.2828
X1.8884 Y-1.2726
G3 X1.8694 Y-1.2639 I-0.019 J-0.0163
G1 X1.8606 Y-1.267
X1.8539 Y-1.2693 F300.
X1.8446 Y-1.2857
X1.836 Y-1.409
G3 X1.859 Y-1.4665 I0.0692 J-0.0057
G1 X1.9031 Y-1.5076
X2.0562 Y-1.5726
G3 X2.1383 Y-1.5322 I0.0223 J0.0582
G1 X2.1401 Y-1.524
G3 X2.1326 Y-1.4834 I-0.0616 J0.0096
X2.1113 Y-1.4614 I-0.054 J-0.031 F50.
G2 X1.9986 Y-1.3841 I0.8126 J1.3057
G1 X1.9902 Y-1.3761
X1.9249 Y-1.3155
X1.9166 Y-1.307
X1.912 Y-1.3021
X1.8988 Y-1.2857
X1.8464 Y-1.22
G2 X1.8202 Y-1.1781 I0.3713 J0.261
G1 X1.8099 Y-1.1688
X1.7935 Y-1.167
X1.7931 Y-1.1673
X1.2186 Y-1.5753 F300.
X1.1119 Y-1.6276
X1.1078 Y-1.6296
X1.1037 Y-1.6313
X0.9558 Y-1.6755
X0.8491 Y-1.692
X0.7177 Y-1.6991
G2 X0.6308 Y-1.6555 I-0.005 J0.0983
G1 X0.5654 Y-1.5602
X0.5617 Y-1.5547 F50.
X0.5407 Y-1.5424
X0.4713 Y-1.521
G2 X0.4346 Y-1.5076 I0.0584 J0.2171
G3 X0.3594 Y-1.4853 I-0.1218 J-0.2725
G1 X0.3298 Y-1.4806
X0.2939 Y-1.4768
X0.2581 Y-1.4711
X0.2242 Y-1.4585
X0.1936 Y-1.4393
X0.1671 Y-1.4147
X0.145 Y-1.386
X0.1273 Y-1.3544
X0.1134 Y-1.321
X0.1027 Y-1.2864
X0.0976 Y-1.2634
X0.0935 Y-1.2502
X0.0876 Y-1.2377
X0.0798 Y-1.2263
G2 X0.0585 Y-1.1953 I0.1648 J0.1357
G1 X0.0164 Y-1.1223
G3 X-0.0104 Y-1.1112 I-0.0212 J-0.0132
X-0.0297 Y-1.1378 I0.0056 J-0.0244 F300.
G1 X-0.0132 Y-1.3521
X0.0279 Y-1.4422
X0.07 Y-1.5007
X0.1182 Y-1.5448
X0.1808 Y-1.5815
X0.3974 Y-1.6245
G3 X0.4574 Y-1.528 I0.0082 J0.0618
X0.4467 Y-1.5159 I-0.0517 J-0.0347 F50.
G1 X0.4346 Y-1.5076
G2 X0.3336 Y-1.4583 I1.2479 J2.6874
G1 X0.3019 Y-1.441
X0.271 Y-1.4221
X0.2429 Y-1.3993
G3 X0.2276 Y-1.3843 I-0.0845 J-0.0707
G1 X0.2243 Y-1.3822
X0.2208 Y-1.3807
X0.217 Y-1.3797
X0.2132 Y-1.3793
X0.2093 Y-1.3795
X0.2055 Y-1.3803
X0.2019 Y-1.3817
X0.1986 Y-1.3836
G3 X0.1983 Y-1.4248 I0.014 J-0.0207 F300.
G1 X0.3048 Y-1.4991
G3 X0.3431 Y-1.4857 I0.0143 J0.0205
X0.3337 Y-1.4583 I-0.024 J0.0071 F50.
G2 X0.2275 Y-1.3844 I1.0566 J1.6337
X0.1428 Y-1.305 I2.1794 J2.4093
G1 X0.1404 Y-1.3021
X0.114 Y-1.2693
X0.0798 Y-1.2263
G3 X0.0666 Y-1.2183 I-0.019 J-0.0163
G1 X0.0519 Y-1.2145
G2 X-0.1237 Y-1.1152 I0.1118 J0.4028 F300.
X-0.1314 Y-1.0998 I0.0172 J0.0182
G1 X-0.1865 Y-0.5938
G2 X-0.1823 Y-0.5771 I0.0249 J0.0027
X-0.0304 Y-0.4414 I0.346 J-0.2346
G1 X-0.0187 Y-0.4355 F50.
G3 X-0.0066 Y-0.4229 I-0.0109 J0.0225
G2 X0.0279 Y-0.3528 I0.3626 J-0.1349
G1 X0.0351 Y-0.3386
X0.039 Y-0.3301
X0.0443 Y-0.3167
X0.0559 Y-0.2824
X0.069 Y-0.2487
X0.0867 Y-0.2171
X0.1093 Y-0.1889
X0.136 Y-0.1645
X0.1659 Y-0.1441
X0.198 Y-0.1274
G3 X0.2276 Y-0.1107 I-0.0287 J0.0852
G1 X0.2302 Y-0.1082
X0.2324 Y-0.1053
X0.2342 Y-0.1021
X0.2355 Y-0.0987
X0.2363 Y-0.0951
X0.2366 Y-0.0915
X0.234 Y-0.0828
X0.2325 Y-0.0778 F300.
X0.2168 Y-0.067
X0.0936 Y-0.0676
G3 X0.0361 Y-0.0933 I-0.0012 J-0.0743
G1 X0.0085 Y-0.1271
X-0.0805 Y-0.2915
G3 X-0.0871 Y-0.3243 I0.0555 J-0.0283
G1 Y-0.3244
G3 X0.0058 Y-0.3739 I0.0621 J0.0047
X0.0279 Y-0.3528 I-0.0307 J0.0542 F50.
G1 X0.0585 Y-0.2997
G2 X0.0772 Y-0.272 I0.183 J-0.103
G1 X0.1264 Y-0.2102
G2 X0.1675 Y-0.1663 I0.2053 J-0.1507
G1 X0.225 Y-0.1129
X0.2276 Y-0.1107
X0.2496 Y-0.094
G2 X0.3398 Y-0.0331 I1.2979 J-1.8258
G1 X0.3557 Y-0.0254
X0.3673 Y-0.0121
X0.3727 Y0.
X0.4221 Y0.1104 F300.
G2 X0.4878 Y0.167 I0.0905 J-0.0387
G1 X0.6274 Y0.1955
X0.7177 Y0.2041
X2.5572 Y0.2042
G2 X2.6475 Y0.1524 I0.0036 J-0.0984
G1 X2.6907 Y0.0783
G3 X2.7004 Y0.0643 I0.0557 J0.028
X2.7259 Y0.0474 I0.046 J0.042 F50.
G1 X2.7953 Y0.026
G2 X2.8321 Y0.0126 I-0.0584 J-0.2172
G3 X2.9072 Y-0.0097 I0.1218 J0.2726
G1 X2.9368 Y-0.0144
X2.9728 Y-0.0182
X3.0089 Y-0.0206
X3.045 Y-0.0236
X3.0798 Y-0.0334
X3.1119 Y-0.0501
X3.14 Y-0.0729
X3.1637 Y-0.1002
X3.1831 Y-0.1308
X3.1984 Y-0.1635
X3.2102 Y-0.1978
G2 X3.2322 Y-0.3249 I-0.6213 J-0.1734
G1 X3.2345 Y-0.3379
X3.2385 Y-0.3503
X3.2442 Y-0.3621
G2 X3.2668 Y-0.4065 I-0.3053 J-0.1836
G1 X3.2965 Y-0.4822
G3 X3.3101 Y-0.4957 I0.0231 J0.0096
G1 X3.3204 Y-0.5003
G2 X3.4124 Y-0.5739 I-0.1051 J-0.2254 F300.
X3.4176 Y-0.5884 I-0.0198 J-0.0153
G1 X3.4258 Y-0.8501
G2 X3.4215 Y-0.8649 I-0.025 J-0.0008
X3.3328 Y-0.9449 I-0.2062 J0.1392
G1 X3.3243 Y-0.9493 F50.
G3 X3.3111 Y-0.9652 I0.011 J-0.0225
G2 X3.2958 Y-1.0145 I-0.2381 J0.047
G1 X3.2733 Y-1.0721
G3 X3.2546 Y-1.1478 I0.3615 J-0.1294
G1 X3.2499 Y-1.1837
X3.247 Y-1.2198
X3.245 Y-1.2559
X3.2388 Y-1.2915
X3.2253 Y-1.3251
X3.2053 Y-1.3553
X3.1801 Y-1.3812
X3.1509 Y-1.4026
X3.1191 Y-1.4198
X3.0855 Y-1.4332
X3.0508 Y-1.4434
X3.0154 Y-1.451
X2.9796 Y-1.4566
X2.9437 Y-1.4606
X2.9322 Y-1.4622
X2.921 Y-1.4653
X2.9103 Y-1.4699
X2.8939 Y-1.4778
X2.8282 Y-1.5094
X2.82 Y-1.513
X2.8035 Y-1.5185
X2.7886 Y-1.5231
G3 X2.7718 Y-1.5467 I0.0082 J-0.0236
X2.7953 Y-1.5717 I0.025 J0. F300.
G1 X3.0499 Y-1.5763
X3.1338 Y-1.5542
X3.2141 Y-1.5156
X3.2634 Y-1.4801
X3.3202 Y-1.4172
X3.3559 Y-1.3514
X3.3922 Y-1.1049
G3 X3.292 Y-1.0478 I-0.0618 J0.0081
X3.2733 Y-1.0721 I0.0385 J-0.049 F50.
G2 X3.2388 Y-1.1422 I-0.3626 J0.1349
G1 X3.2315 Y-1.1564
X3.2277 Y-1.1649
X3.2226 Y-1.1778
X3.2109 Y-1.212
X3.1981 Y-1.2458
X3.1805 Y-1.2775
X3.158 Y-1.3058
X3.1313 Y-1.3302
G2 X3.0541 Y-1.3739 I-0.1984 J0.2608
G1 X3.0463 Y-1.3787
X3.0391 Y-1.3843
G3 X3.0301 Y-1.4035 I0.016 J-0.0192
G1 X3.0327 Y-1.4122
X3.0342 Y-1.4172 F300.
X3.0499 Y-1.428
X3.1731 Y-1.4277
G3 X3.2316 Y-1.4007 I0.0013 J0.0743
G1 X3.2618 Y-1.3597
X3.3455 Y-1.2065
G3 X3.3537 Y-1.1707 I-0.0539 J0.0312
G1 Y-1.1706
G3 X3.2609 Y-1.1211 I-0.0621 J-0.0047
X3.2418 Y-1.1378 I0.0307 J-0.0542 F50.
G1 X3.2388 Y-1.1422
X3.2081 Y-1.1953
G2 X3.1895 Y-1.223 I-0.183 J0.103
G1 X3.1402 Y-1.2848
G2 X3.0992 Y-1.3287 I-0.2054 J0.1507
G1 X3.0417 Y-1.3821
X3.0391 Y-1.3843
X3.017 Y-1.401
G2 X2.9268 Y-1.4619 I-1.2979 J1.8257
G1 X2.9103 Y-1.4699
G3 X2.8976 Y-1.4959 I0.012 J-0.0219
X2.9267 Y-1.5164 I0.0247 J0.0041 F300.
G1 X3.0581 Y-1.5128
G3 X3.1142 Y-1.4911 I-0.0057 J0.0983
G1 X3.2223 Y-1.3902
X3.3127 Y-1.2754
X3.3877 Y-1.1378
X3.435 Y-1.0063
X3.4634 Y-0.8749
X3.4717 Y-0.7434
X3.4605 Y-0.6037
X3.4258 Y-0.4558
X3.3183 Y-0.1136
X3.2926 Y-0.0614
X3.247 Y0.0016
X3.211 Y0.0372
X3.1469 Y0.0783
X3.0992 Y0.0904
X2.8692 Y0.1295
G3 X2.8093 Y0.033 I-0.0082 J-0.0618
X2.82 Y0.0209 I0.0517 J0.0347 F50.
G1 X2.8321 Y0.0126
X2.9021 Y-0.0211
X2.9103 Y-0.0251
X2.9267 Y-0.0333
X2.9348 Y-0.0372
X2.9455 Y-0.0417
X3.0135 Y-0.0665
X3.0454 Y-0.0836
X3.0741 Y-0.1056
X3.0991 Y-0.1317
X3.1201 Y-0.1612
X3.1373 Y-0.1931
X3.1435 Y-0.2083
X3.1472 Y-0.2162
X3.1516 Y-0.2238
X3.1567 Y-0.2309
G3 X3.1757 Y-0.2396 I0.019 J0.0163
G1 X3.1845 Y-0.2365
X3.1916 Y-0.2339 F300.
X3.2005 Y-0.2175
X3.1987 Y-0.0943
G3 X3.1781 Y-0.044 I-0.0719 J-0.0001
G1 X3.1402 Y-0.0089
X2.9842 Y0.077
G3 X2.905 Y-0.0118 I-0.0259 J-0.0567
X2.9267 Y-0.0333 I0.0534 J0.0322 F50.
G1 X2.933 Y-0.0367
G2 X3.0392 Y-0.1106 I-1.0567 J-1.6337
X3.1239 Y-0.19 I-2.18 J-2.41
X3.198 Y-0.2832 I-2.723 J-2.2405
G1 X3.2032 Y-0.2915
X3.2059 Y-0.296
X3.2081 Y-0.2997
X3.2442 Y-0.3621
G3 X3.271 Y-0.3733 I0.0212 J0.0132
G1 X3.2748 Y-0.3724 Z0.225
X3.2785 Y-0.3715 Z0.226
X3.282 Y-0.3707 Z0.2275
X3.2853 Y-0.37 Z0.2295
X3.2882 Y-0.3693 Z0.2321
X3.2907 Y-0.3688 Z0.235
X3.2927 Y-0.3683 Z0.2384
X3.2941 Y-0.368 Z0.242
X3.295 Y-0.3678 Z0.2458
X3.2953 Y-0.3677 Z0.2497
G0 Z1.1003
(2D ADAPTIVE ROUGHING4)
G0 X1.8674 Y-1.3241
Z1.1003
Z0.5403
G1 Z0.5153 F50.
X1.8675 Y-1.3238 Z0.5114
X1.8677 Y-1.323 Z0.5076
X1.8681 Y-1.3215 Z0.504
X1.8686 Y-1.3195 Z0.5006
X1.8692 Y-1.317 Z0.4977
X1.87 Y-1.3142 Z0.4951
X1.8708 Y-1.3109 Z0.4931
X1.8717 Y-1.3074 Z0.4916
X1.8726 Y-1.3037 Z0.4906
X1.8736 Y-1.2999 Z0.4903
G3 X1.8932 Y-1.1638 I-0.6183 J0.1584
G1 Y-1.1593
X1.894 Y-1.1549
X1.9068 Y-1.121
X1.9163 Y-1.1056
X1.9236 Y-1.0885
X1.9298 Y-1.0667
X1.9355 Y-1.031
X1.937 Y-0.9948
X1.9357 Y-0.9587
G2 X1.9244 Y-0.8144 I5.0257 J0.4652
X1.9314 Y-0.67 I0.771 J0.0351
X2.0599 Y-0.375 I0.602 J-0.0866
G1 X2.0837 Y-0.3478
G2 X2.6789 Y-0.1784 I0.4352 J-0.3988
X3.0375 Y-0.4634 I-0.1585 J-0.5675
X2.6219 Y-1.3297 I-0.5181 J-0.2843
X2.1326 Y-1.1946 I-0.1029 J0.5813
G1 X2.1148 Y-1.1631
X2.1054 Y-1.1281
X2.0997 Y-1.0924
G2 X2.0793 Y-0.8627 I5.4575 J0.6001
G1 X2.078 Y-0.8265
G2 X2.0994 Y-0.6834 I1.2534 J-0.114
G1 X2.1088 Y-0.6485
G2 X2.1699 Y-0.5179 I0.453 J-0.132
X2.2692 Y-0.4135 I0.3566 J-0.2401
X2.3979 Y-0.3487 I0.2507 J-0.3373
X2.5769 Y-0.3347 I0.1212 J-0.3993
G1 X2.6125 Y-0.3412
G2 X2.7747 Y-0.4182 I-0.0938 J-0.4072
G1 X2.8023 Y-0.4416
X2.8278 Y-0.4673
X2.8509 Y-0.4951
X2.8715 Y-0.5248
X2.8895 Y-0.5562
X2.9046 Y-0.5891
X2.917 Y-0.6231
X2.9263 Y-0.6581
X2.9326 Y-0.6937
X2.9356 Y-0.7297
Y-0.7659
X2.9324 Y-0.802
X2.9261 Y-0.8376
X2.9168 Y-0.8726
X2.9044 Y-0.9066
X2.8892 Y-0.9394
G2 X2.7742 Y-1.0772 I-0.3719 J0.1934
G1 X2.7446 Y-1.0981
X2.7134 Y-1.1164
X2.6806 Y-1.1318
X2.6467 Y-1.1443
X2.6118 Y-1.1539
G2 X2.3972 Y-1.1461 I-0.0926 J0.4065
G1 X2.3631 Y-1.134
X2.3467 Y-1.1265
X2.3316 Y-1.1165
X2.3066 Y-1.0904
X2.3044 Y-1.0864
X2.3024 Y-1.0824
G3 X2.2762 Y-1.07 I-0.0218 J-0.0122
G1 X2.2723 Y-1.0707 Z0.4906
X2.2686 Y-1.0713 Z0.4916
X2.265 Y-1.072 Z0.4931
X2.2617 Y-1.0726 Z0.4951
X2.2588 Y-1.0731 Z0.4977
X2.2563 Y-1.0735 Z0.5006
X2.2542 Y-1.0739 Z0.504
X2.2528 Y-1.0742 Z0.5076
X2.2519 Y-1.0743 Z0.5114
X2.2516 Y-1.0744 Z0.5153
G0 Z1.1003
X0.0957 Y-1.3241
Z0.5403
G1 Z0.5153 F50.
X0.0958 Y-1.3238 Z0.5114
X0.096 Y-1.323 Z0.5076
X0.0964 Y-1.3215 Z0.504
X0.0969 Y-1.3195 Z0.5006
X0.0976 Y-1.317 Z0.4977
X0.0983 Y-1.3142 Z0.4951
X0.0991 Y-1.3109 Z0.4931
X0.1 Y-1.3074 Z0.4916
X0.101 Y-1.3037 Z0.4906
X0.1019 Y-1.2999 Z0.4903
G3 X0.1215 Y-1.1638 I-0.6183 J0.1584
G1 Y-1.1593
X0.1223 Y-1.1549
X0.1352 Y-1.121
X0.1446 Y-1.1056
X0.1519 Y-1.0885
X0.1582 Y-1.0667
X0.1638 Y-1.031
X0.1654 Y-0.9948
X0.1641 Y-0.9587
G2 X0.1528 Y-0.8144 I5.0196 J0.4647
X0.1598 Y-0.67 I0.7712 J0.0351
X0.2882 Y-0.375 I0.602 J-0.0866
G1 X0.3121 Y-0.3478
G2 X0.9072 Y-0.1784 I0.4352 J-0.3988
X1.2658 Y-0.4634 I-0.1585 J-0.5675
X0.8503 Y-1.3297 I-0.5181 J-0.2843
X0.3609 Y-1.1946 I-0.1029 J0.5813
G1 X0.3431 Y-1.1631
X0.3337 Y-1.1281
X0.328 Y-1.0924
G2 X0.3076 Y-0.8627 I5.4571 J0.6001
G1 X0.3064 Y-0.8265
G2 X0.3277 Y-0.6834 I1.2533 J-0.1139
G1 X0.3372 Y-0.6485
G2 X0.3982 Y-0.5179 I0.453 J-0.132
X0.4976 Y-0.4135 I0.3566 J-0.2401
X0.6262 Y-0.3487 I0.2507 J-0.3373
X0.8052 Y-0.3347 I0.1212 J-0.3993
G1 X0.8408 Y-0.3412
G2 X1.003 Y-0.4182 I-0.0938 J-0.4072
G1 X1.0306 Y-0.4416
X1.0561 Y-0.4673
X1.0792 Y-0.4951
X1.0999 Y-0.5248
X1.1178 Y-0.5562
X1.133 Y-0.5891
X1.1454 Y-0.6231
X1.1546 Y-0.6581
X1.1609 Y-0.6937
X1.164 Y-0.7297
X1.1639 Y-0.7659
X1.1608 Y-0.802
X1.1545 Y-0.8376
X1.1452 Y-0.8726
X1.1328 Y-0.9066
X1.1176 Y-0.9394
G2 X1.0025 Y-1.0772 I-0.3719 J0.1934
G1 X0.9729 Y-1.0981
X0.9417 Y-1.1164
X0.909 Y-1.1318
X0.8751 Y-1.1443
X0.8402 Y-1.1539
G2 X0.6256 Y-1.1461 I-0.0926 J0.4065
G1 X0.5915 Y-1.134
X0.575 Y-1.1265
X0.5599 Y-1.1165
X0.5349 Y-1.0904
X0.5328 Y-1.0864
X0.5307 Y-1.0824
G3 X0.5045 Y-1.07 I-0.0218 J-0.0122
G1 X0.5007 Y-1.0707 Z0.4906
X0.4969 Y-1.0713 Z0.4916
X0.4933 Y-1.072 Z0.4931
X0.49 Y-1.0726 Z0.4951
X0.4871 Y-1.0731 Z0.4977
X0.4846 Y-1.0735 Z0.5006
X0.4826 Y-1.0739 Z0.504
X0.4811 Y-1.0742 Z0.5076
X0.4802 Y-1.0743 Z0.5114
X0.4799 Y-1.0744 Z0.5153
G0 Z1.1003
(2D ADAPTIVE ROUGHING5)
G0 X0.6204 Y-0.7689
Z1.1003
Z0.7003
Z0.6003
G3 X0.809 Y-0.8608 Z0.5789 I0.1271 J0.0214 F40.
X0.8346 Y-0.6532 Z0.5574 I-0.0613 J0.1129
X0.6305 Y-0.6963 Z0.536 I-0.0866 J-0.0944
X0.7372 Y-0.8747 Z0.5146 I0.1171 J-0.0512
X0.871 Y-0.7163 Z0.4931 I0.0103 J0.127
X0.6783 Y-0.6414 Z0.4717 I-0.1231 J-0.0313
X0.6701 Y-0.8474 Z0.4502 I0.0694 J-0.1059
X0.867 Y-0.7885 Z0.4288 I0.0774 J0.0997
X0.7477 Y-0.6219 Z0.4074 I-0.1191 J0.0407
X0.6292 Y-0.7883 Z0.3859 I0.0001 J-0.1255
X0.8245 Y-0.8462 Z0.3645 I0.1183 J0.0408
X0.8159 Y-0.6433 Z0.343 I-0.0767 J0.0984
X0.6273 Y-0.7171 Z0.3216 I-0.0679 J-0.1042
X0.7579 Y-0.871 Z0.3002 I0.1203 J-0.0303
X0.8608 Y-0.698 Z0.2787 I-0.0103 J0.1232
X0.6644 Y-0.657 Z0.2573 I-0.1129 J-0.0496
X0.6893 Y-0.8555 Z0.2358 I0.0833 J-0.0904
X0.8684 Y-0.7678 Z0.2144 I0.0582 J0.1078
X0.7277 Y-0.6273 Z0.193 I-0.1205 J0.02
X0.6407 Y-0.8054 Z0.1715 I0.0201 J-0.1201
X0.8368 Y-0.8298 Z0.1501 I0.1067 J0.0578
X0.7963 Y-0.637 Z0.1286 I-0.0891 J0.0819
X0.6277 Y-0.7376 Z0.1072 I-0.0484 J-0.1105
X0.7771 Y-0.864 Z0.0858 I0.1199 J-0.0099
X0.848 Y-0.6822 Z0.0643 I-0.0295 J0.1162
X0.6536 Y-0.6742 Z0.0429 I-0.1001 J-0.0654
X0.709 Y-0.8601 Z0.0214 I0.094 J-0.0732
X0.8663 Y-0.7477 Z0. I0.0386 J0.1123
X0.6287 I-0.1188 J0.
X0.8663 I0.1188 J0.
G1 X0.8669 Y-0.7116 F50.
X0.8678 Y-0.7071
X0.8683 Y-0.7011
X0.8682 Y-0.6951
X0.8675 Y-0.6892
X0.8663 Y-0.6833
X0.8646 Y-0.6776
X0.8625 Y-0.6719
X0.8601 Y-0.6664
X0.8573 Y-0.6611
X0.8542 Y-0.656
X0.8508 Y-0.6511
X0.8471 Y-0.6463
X0.8432 Y-0.6418
X0.839 Y-0.6374
X0.8347 Y-0.6333
X0.8301 Y-0.6294
X0.8253 Y-0.6257
X0.8202 Y-0.6222
X0.8149 Y-0.6189
X0.8094 Y-0.6157
X0.8036 Y-0.6129
X0.7976 Y-0.6103
X0.7915 Y-0.6079
X0.7852 Y-0.6059
X0.7787 Y-0.6041
X0.7721 Y-0.6026
X0.7655 Y-0.6015
X0.7587 Y-0.6006
X0.7518 Y-0.6001
X0.7449 Y-0.6
X0.738 Y-0.6001
X0.731 Y-0.6007
X0.7241 Y-0.6015
X0.7171 Y-0.6027
X0.7103 Y-0.6042
X0.7035 Y-0.6061
X0.6967 Y-0.6083
X0.6901 Y-0.6108
X0.6836 Y-0.6137
X0.6772 Y-0.6169
X0.671 Y-0.6204
X0.6649 Y-0.6242
X0.659 Y-0.6283
X0.6534 Y-0.6327
X0.6479 Y-0.6373
X0.6427 Y-0.6422
X0.6377 Y-0.6474
X0.6329 Y-0.6528
X0.6285 Y-0.6585
X0.6243 Y-0.6643
X0.6204 Y-0.6704
X0.6167 Y-0.6767
X0.6134 Y-0.6831
X0.6105 Y-0.6896
X0.6078 Y-0.6964
X0.6055 Y-0.7032
X0.6034 Y-0.7102
X0.6018 Y-0.7172
X0.6005 Y-0.7243
X0.5995 Y-0.7315
X0.5989 Y-0.7387
X0.5986 Y-0.7459
X0.5987 Y-0.7532
X0.5991 Y-0.7604
X0.5999 Y-0.7676
X0.6011 Y-0.7747
X0.6025 Y-0.7818
X0.6044 Y-0.7888
X0.6065 Y-0.7958
X0.609 Y-0.8026
X0.6119 Y-0.8092
X0.615 Y-0.8158
X0.6185 Y-0.8221
X0.6222 Y-0.8283
X0.6263 Y-0.8343
X0.6307 Y-0.8401
X0.6353 Y-0.8457
X0.6402 Y-0.851
X0.6453 Y-0.8561
X0.6507 Y-0.861
X0.6564 Y-0.8655
X0.6622 Y-0.8698
X0.6682 Y-0.8738
X0.6745 Y-0.8776
X0.6809 Y-0.881
X0.6874 Y-0.884
X0.6941 Y-0.8868
X0.701 Y-0.8892
X0.7079 Y-0.8913
X0.7149 Y-0.8931
X0.7221 Y-0.8945
X0.7292 Y-0.8956
X0.7364 Y-0.8963
X0.7437 Y-0.8967
X0.7509
X0.7582 Y-0.8963
X0.7654 Y-0.8956
X0.7726 Y-0.8946
X0.7797 Y-0.8932
X0.7867 Y-0.8915
X0.7937 Y-0.8894
X0.8005 Y-0.887
X0.8072 Y-0.8842
X0.8138 Y-0.8812
X0.8202 Y-0.8778
X0.8264 Y-0.8741
X0.8325 Y-0.8701
X0.8384 Y-0.8658
X0.844 Y-0.8612
X0.8494 Y-0.8564
X0.8546 Y-0.8513
X0.8595 Y-0.846
X0.8641 Y-0.8404
X0.8685 Y-0.8347
X0.8726 Y-0.8287
X0.8764 Y-0.8225
X0.8799 Y-0.8161
X0.8831 Y-0.8095
X0.8865 Y-0.8016
X0.8907 Y-0.7902
X0.8953 Y-0.7757
X0.8984 Y-0.764
X0.9005 Y-0.7539
X0.902 Y-0.7447
X0.903 Y-0.7361
X0.9035 Y-0.7279
X0.9036 Y-0.7201
X0.9033 Y-0.7124
X0.9027 Y-0.705
X0.9017 Y-0.6977
X0.9004 Y-0.6905
X0.8988 Y-0.6835
X0.8969 Y-0.6766
X0.8946 Y-0.6699
X0.892 Y-0.6633
X0.889 Y-0.6567
X0.8858 Y-0.6503
X0.8822 Y-0.6441
X0.8782 Y-0.638
X0.874 Y-0.632
X0.8694 Y-0.6262
X0.8646 Y-0.6206
X0.8594 Y-0.6152
X0.8539 Y-0.61
X0.8481 Y-0.605
X0.842 Y-0.6003
X0.8357 Y-0.5958
X0.829 Y-0.5917
X0.8222 Y-0.5878
X0.8151 Y-0.5842
X0.8078 Y-0.581
X0.8003 Y-0.5781
X0.7926 Y-0.5755
X0.7847 Y-0.5734
X0.7767 Y-0.5716
X0.7686 Y-0.5701
X0.7604 Y-0.5691
X0.7521 Y-0.5685
X0.7438 Y-0.5682
X0.7354 Y-0.5684
X0.727 Y-0.569
X0.7186 Y-0.57
X0.7102 Y-0.5714
X0.7019 Y-0.5733
X0.6936 Y-0.5755
X0.6855 Y-0.5781
X0.6775 Y-0.5812
X0.6696 Y-0.5846
X0.6618 Y-0.5884
X0.6543 Y-0.5926
X0.6469 Y-0.5972
X0.6398 Y-0.6022
X0.6329 Y-0.6074
X0.6262 Y-0.6131
X0.6199 Y-0.619
X0.6138 Y-0.6253
X0.608 Y-0.6319
X0.6025 Y-0.6387
X0.5974 Y-0.6458
X0.5926 Y-0.6532
X0.5882 Y-0.6607
X0.5842 Y-0.6685
X0.5805 Y-0.6765
X0.5772 Y-0.6847
X0.5744 Y-0.693
X0.5719 Y-0.7015
X0.5699 Y-0.71
X0.5682 Y-0.7187
X0.567 Y-0.7274
X0.5662 Y-0.7362
X0.5659 Y-0.745
Y-0.7538
X0.5664 Y-0.7626
X0.5674 Y-0.7714
X0.5687 Y-0.7802
X0.5705 Y-0.7888
X0.5727 Y-0.7974
X0.5753 Y-0.8058
X0.5783 Y-0.8141
X0.5818 Y-0.8222
X0.5856 Y-0.8302
X0.5898 Y-0.838
X0.5943 Y-0.8456
X0.5993 Y-0.8529
X0.6046 Y-0.86
X0.6102 Y-0.8668
X0.6161 Y-0.8733
X0.6224 Y-0.8796
X0.629 Y-0.8855
X0.6358 Y-0.8911
X0.6429 Y-0.8964
X0.6503 Y-0.9013
X0.6579 Y-0.9059
X0.6657 Y-0.91
X0.6737 Y-0.9138
X0.6818 Y-0.9172
X0.6901 Y-0.9202
X0.6986 Y-0.9228
X0.7072 Y-0.925
X0.7158 Y-0.9267
X0.7246 Y-0.9281
X0.7334 Y-0.929
X0.7422 Y-0.9294
X0.7511 Y-0.9295
X0.7599 Y-0.9291
X0.7687 Y-0.9283
X0.7775 Y-0.927
X0.7862 Y-0.9254
X0.7948 Y-0.9233
X0.8033 Y-0.9208
X0.8116 Y-0.9178
X0.8198 Y-0.9145
X0.8278 Y-0.9108
X0.8357 Y-0.9067
X0.8433 Y-0.9022
X0.8507 Y-0.8974
X0.8579 Y-0.8922
X0.8648 Y-0.8866
X0.8714 Y-0.8808
X0.8777 Y-0.8746
X0.8839 Y-0.868
X0.8901 Y-0.8606
X0.8963 Y-0.8524
X0.9023 Y-0.8437
X0.9081 Y-0.8343
X0.9135 Y-0.8245
X0.9185 Y-0.8144
X0.9228 Y-0.8043
X0.9267 Y-0.7941
X0.9299 Y-0.7839
X0.9326 Y-0.7738
X0.9348 Y-0.7638
X0.9364 Y-0.7539
X0.9376 Y-0.7441
X0.9382 Y-0.7344
X0.9384 Y-0.7248
X0.9381 Y-0.7153
X0.9373 Y-0.7059
X0.9361 Y-0.6966
X0.9345 Y-0.6875
X0.9324 Y-0.6785
X0.93 Y-0.6697
X0.927 Y-0.661
X0.9237 Y-0.6524
X0.92 Y-0.6441
X0.9159 Y-0.6359
X0.9113 Y-0.628
X0.9064 Y-0.6202
X0.9011 Y-0.6127
X0.8954 Y-0.6054
X0.8893 Y-0.5984
X0.8829 Y-0.5917
X0.8761 Y-0.5852
X0.869 Y-0.5791
X0.8616 Y-0.5733
X0.8539 Y-0.5678
X0.8458 Y-0.5627
X0.8375 Y-0.558
X0.8289 Y-0.5536
X0.8201 Y-0.5497
X0.8111 Y-0.5462
X0.8018 Y-0.5431
X0.7924 Y-0.5404
X0.7828 Y-0.5382
X0.7731 Y-0.5365
X0.7633 Y-0.5352
X0.7534 Y-0.5344
X0.7434 Y-0.5341
X0.7334 Y-0.5343
X0.7234 Y-0.535
X0.7133 Y-0.5361
X0.7034 Y-0.5378
X0.6935 Y-0.5399
X0.6836 Y-0.5425
X0.6739 Y-0.5456
X0.6643 Y-0.5492
X0.6549 Y-0.5533
X0.6457 Y-0.5578
X0.6367 Y-0.5628
X0.6279 Y-0.5682
X0.6194 Y-0.574
X0.6112 Y-0.5803
X0.6033 Y-0.587
X0.5957 Y-0.594
X0.5884 Y-0.6015
X0.5815 Y-0.6093
X0.575 Y-0.6174
X0.5689 Y-0.6258
X0.5631 Y-0.6346
X0.5579 Y-0.6436
X0.553 Y-0.6528
X0.5486 Y-0.6623
X0.5447 Y-0.672
X0.5412 Y-0.6819
X0.5383 Y-0.692
X0.5358 Y-0.7022
X0.5338 Y-0.7125
X0.5323 Y-0.7229
X0.5313 Y-0.7333
X0.5309 Y-0.7439
Y-0.7544
X0.5315 Y-0.7649
X0.5326 Y-0.7753
X0.5342 Y-0.7857
X0.5362 Y-0.7961
X0.5388 Y-0.8063
X0.5419 Y-0.8163
X0.5455 Y-0.8263
X0.5495 Y-0.836
X0.554 Y-0.8455
X0.559 Y-0.8548
X0.5644 Y-0.8638
X0.5703 Y-0.8726
X0.5766 Y-0.8811
X0.5833 Y-0.8892
X0.5903 Y-0.8971
X0.5978 Y-0.9045
X0.6056 Y-0.9116
X0.6137 Y-0.9183
X0.6222 Y-0.9246
X0.6309 Y-0.9305
X0.6399 Y-0.936
X0.6492 Y-0.941
X0.6587 Y-0.9456
X0.6685 Y-0.9496
X0.6784 Y-0.9533
X0.6885 Y-0.9564
X0.6987 Y-0.959
X0.709 Y-0.9611
X0.7195 Y-0.9628
X0.7299 Y-0.9639
X0.7405 Y-0.9645
X0.751 Y-0.9646
X0.7616 Y-0.9641
X0.7721 Y-0.9632
X0.7825 Y-0.9617
X0.7929 Y-0.9598
X0.8032 Y-0.9573
X0.8133 Y-0.9544
X0.8233 Y-0.9509
X0.8331 Y-0.947
X0.8427 Y-0.9426
X0.8521 Y-0.9377
X0.8612 Y-0.9324
X0.8702 Y-0.9266
X0.879 Y-0.9202
X0.8877 Y-0.9133
X0.8962 Y-0.9058
X0.9045 Y-0.8978
X0.9125 Y-0.8892
X0.9202 Y-0.8801
X0.9275 Y-0.8705
X0.9344 Y-0.8606
X0.9408 Y-0.8503
X0.9467 Y-0.8397
X0.952 Y-0.8289
X0.9568 Y-0.8179
X0.961 Y-0.8068
X0.9647 Y-0.7955
X0.9678 Y-0.7841
X0.9703 Y-0.7727
X0.9722 Y-0.7613
X0.9736 Y-0.7498
X0.9744 Y-0.7384
X0.9746 Y-0.7271
X0.9743 Y-0.7158
X0.9734 Y-0.7046
X0.9721 Y-0.6935
X0.9701 Y-0.6825
X0.9677 Y-0.6716
X0.9647 Y-0.661
X0.9612 Y-0.6504
X0.9573 Y-0.6401
X0.9528 Y-0.63
X0.9478 Y-0.6202
X0.9424 Y-0.6106
X0.9365 Y-0.6012
X0.9301 Y-0.5921
X0.9233 Y-0.5834
X0.9161 Y-0.5749
X0.9084 Y-0.5668
X0.9004 Y-0.5591
X0.8919 Y-0.5518
X0.8831 Y-0.5448
X0.8739 Y-0.5383
X0.8644 Y-0.5322
X0.8545 Y-0.5265
X0.8444 Y-0.5213
X0.834 Y-0.5166
X0.8233 Y-0.5124
X0.8124 Y-0.5087
X0.8013 Y-0.5056
X0.79 Y-0.503
X0.7786 Y-0.5009
X0.767 Y-0.4993
X0.7554 Y-0.4984
X0.7437 Y-0.498
X0.7319 Y-0.4981
X0.7201 Y-0.4989
X0.7084 Y-0.5002
X0.6967 Y-0.5021
X0.685 Y-0.5046
X0.6735 Y-0.5076
X0.6621 Y-0.5112
X0.6509 Y-0.5154
X0.6399 Y-0.5201
X0.6291 Y-0.5253
X0.6185 Y-0.5311
X0.6082 Y-0.5374
X0.5983 Y-0.5442
X0.5886 Y-0.5515
X0.5793 Y-0.5593
X0.5704 Y-0.5675
X0.5619 Y-0.5762
X0.5538 Y-0.5853
X0.5461 Y-0.5947
X0.5389 Y-0.6046
X0.5322 Y-0.6148
X0.526 Y-0.6253
X0.5203 Y-0.6361
X0.5151 Y-0.6472
X0.5105 Y-0.6585
X0.5064 Y-0.6701
X0.5029 Y-0.6818
X0.4999 Y-0.6937
X0.4976 Y-0.7058
X0.4958 Y-0.7179
X0.4946 Y-0.7301
X0.4941 Y-0.7424
Y-0.7547
X0.4947 Y-0.767
X0.4959 Y-0.7793
X0.4977 Y-0.7914
X0.5001 Y-0.8035
X0.5031 Y-0.8155
X0.5067 Y-0.8273
X0.5108 Y-0.8389
X0.5155 Y-0.8503
X0.5207 Y-0.8614
X0.5265 Y-0.8723
X0.5328 Y-0.8829
X0.5397 Y-0.8932
X0.547 Y-0.9031
X0.5547 Y-0.9127
X0.563 Y-0.9219
X0.5717 Y-0.9306
X0.5808 Y-0.939
X0.5903 Y-0.9469
X0.6001 Y-0.9543
X0.6104 Y-0.9612
X0.6209 Y-0.9676
X0.6317 Y-0.9735
X0.6429 Y-0.9789
X0.6542 Y-0.9837
X0.6658 Y-0.988
X0.6776 Y-0.9917
X0.6895 Y-0.9948
X0.7016 Y-0.9973
X0.7138 Y-0.9993
X0.7261 Y-1.0006
X0.7384 Y-1.0013
X0.7508 Y-1.0015
X0.7631 Y-1.001
X0.7754 Y-1.
X0.7877 Y-0.9983
X0.7998 Y-0.9961
X0.8118 Y-0.9932
X0.8237 Y-0.9898
X0.8355 Y-0.9858
X0.8471 Y-0.9812
X0.8585 Y-0.976
X0.8698 Y-0.9702
X0.8808 Y-0.9638
X0.8917 Y-0.9568
X0.9022 Y-0.9492
X0.9125 Y-0.9411
X0.9225 Y-0.9324
X0.9321 Y-0.9231
X0.9414 Y-0.9133
X0.9502 Y-0.903
X0.9585 Y-0.8922
X0.9662 Y-0.881
X0.9718 Y-0.8722
X0.9729 Y-0.8704
X0.9739 Y-0.8686
X0.9749 Y-0.8668
X0.9794 Y-0.8585
X0.9838 Y-0.8503
X0.9858 Y-0.8462
X0.9872 Y-0.8421
X0.9996 Y-0.8009
X1.0006 Y-0.7968
X1.0011 Y-0.7927
X1.0051 Y-0.7516
X1.0054 Y-0.7475
X1.0051 Y-0.7434
X1.0011 Y-0.7023
X1.0006 Y-0.6982
X0.9996 Y-0.6941
X0.9872 Y-0.6529
X0.9858 Y-0.6488
X0.9838 Y-0.6447
X0.9639 Y-0.6076
X0.9615 Y-0.6036
X0.9549 Y-0.5954
X0.9346 Y-0.5707
X0.931 Y-0.5664
X0.9269 Y-0.5625
X0.8968 Y-0.5378
X0.89 Y-0.5325
X0.8846 Y-0.5296
X0.8489 Y-0.5105
X0.8448 Y-0.5087
X0.8407 Y-0.5074
X0.7996 Y-0.495
X0.7914 Y-0.4938
X0.7503 Y-0.4897
X0.7462 Y-0.4896
X0.7339 Y-0.4908
X0.7011 Y-0.494
X0.6969 Y-0.4946
X0.6928 Y-0.4957
X0.6518 Y-0.5082
X0.6477 Y-0.5097
X0.6411 Y-0.5132
X0.6104 Y-0.5296
X0.6025 Y-0.5343
X0.5681 Y-0.5625
X0.5643 Y-0.566
X0.5604 Y-0.5707
X0.5368 Y-0.5995
X0.5335 Y-0.6036
X0.5286 Y-0.6123
X0.5112 Y-0.6447
X0.5092 Y-0.6488
X0.5078 Y-0.6529
X0.4954 Y-0.6941
X0.4944 Y-0.6982
X0.4939 Y-0.7023
X0.4899 Y-0.7434
X0.4896 Y-0.7475
X0.4899 Y-0.7516
X0.4939 Y-0.7927
X0.4944 Y-0.7968
X0.4954 Y-0.8009
X0.5078 Y-0.8421
X0.5092 Y-0.8462
X0.5112 Y-0.8503
X0.5288 Y-0.8832
X0.5335 Y-0.8914
X0.5368 Y-0.8955
X0.5614 Y-0.9256
X0.5643 Y-0.929
X0.5681 Y-0.9325
X0.6025 Y-0.9607
X0.6107 Y-0.9656
X0.6436 Y-0.9831
X0.6477 Y-0.9853
X0.6518 Y-0.9868
X0.6928 Y-0.9993
X0.6969 Y-1.0004
X0.7011 Y-1.001
X0.7421 Y-1.005
X0.7462 Y-1.0054
X0.7503 Y-1.0053
X0.7914 Y-1.0012
X0.7996 Y-1.
X0.8407 Y-0.9876
X0.8448 Y-0.9863
X0.8489 Y-0.9845
X0.8846 Y-0.9654
X0.89 Y-0.9625
X0.8968 Y-0.9572
X0.9269 Y-0.9325
X0.931 Y-0.9286
X0.9346 Y-0.9243
X0.9557 Y-0.8986
X0.9615 Y-0.8914
X0.9639 Y-0.8874
X0.9749 Y-0.8668
X0.9761 Y-0.864
X0.9769 Y-0.8612
X0.9772 Y-0.8585 Z0.0002
X0.9775 Y-0.8558 Z0.0006
X0.977 Y-0.8527 Z0.0015
X0.9764 Y-0.8498 Z0.0028
X0.976 Y-0.8471 Z0.0045
X0.9745 Y-0.8447 Z0.0068
X0.9733 Y-0.8426 Z0.0094
X0.9723 Y-0.8409 Z0.0124
X0.9715 Y-0.8395 Z0.0156
X0.9708 Y-0.8388 Z0.0186
X0.9704 Y-0.8383 Z0.0218
X0.9703 Y-0.8382 Z0.025
G0 Z0.7003
X2.392 Y-0.7689
Z0.6003
G3 X2.5807 Y-0.8608 Z0.5789 I0.1271 J0.0214 F40.
X2.6062 Y-0.6532 Z0.5574 I-0.0613 J0.1129
X2.4021 Y-0.6962 Z0.536 I-0.0866 J-0.0944
X2.5088 Y-0.8747 Z0.5146 I0.1171 J-0.0512
X2.6426 Y-0.7163 Z0.4931 I0.0103 J0.127
X2.45 Y-0.6414 Z0.4717 I-0.1231 J-0.0313
X2.4417 Y-0.8474 Z0.4502 I0.0694 J-0.1059
X2.6386 Y-0.7885 Z0.4288 I0.0774 J0.0997
X2.5193 Y-0.6219 Z0.4074 I-0.1191 J0.0407
X2.4008 Y-0.7883 Z0.3859 I0.0001 J-0.1255
X2.5961 Y-0.8462 Z0.3645 I0.1183 J0.0408
X2.5875 Y-0.6433 Z0.343 I-0.0767 J0.0984
X2.3989 Y-0.7171 Z0.3216 I-0.0679 J-0.1042
X2.5295 Y-0.871 Z0.3002 I0.1203 J-0.0303
X2.6324 Y-0.698 Z0.2787 I-0.0103 J0.1232
X2.436 Y-0.657 Z0.2573 I-0.1129 J-0.0496
X2.4609 Y-0.8555 Z0.2358 I0.0833 J-0.0904
X2.64 Y-0.7678 Z0.2144 I0.0582 J0.1078
X2.4993 Y-0.6273 Z0.193 I-0.1205 J0.02
X2.4124 Y-0.8054 Z0.1715 I0.0201 J-0.1201
X2.6085 Y-0.8298 Z0.1501 I0.1067 J0.0578
X2.568 Y-0.637 Z0.1286 I-0.0891 J0.0819
X2.3993 Y-0.7376 Z0.1072 I-0.0484 J-0.1105
X2.5487 Y-0.864 Z0.0858 I0.1199 J-0.0099
X2.6196 Y-0.6822 Z0.0643 I-0.0295 J0.1162
X2.4252 Y-0.6742 Z0.0429 I-0.1001 J-0.0654
X2.4806 Y-0.8601 Z0.0214 I0.094 J-0.0732
X2.6379 Y-0.7477 Z0. I0.0386 J0.1123
X2.4004 I-0.1188 J0.
X2.6379 I0.1188 J0.
G1 X2.6385 Y-0.7116 F50.
X2.6394 Y-0.7071
X2.64 Y-0.7011
X2.6398 Y-0.6951
X2.6391 Y-0.6892
X2.6379 Y-0.6833
X2.6362 Y-0.6776
X2.6341 Y-0.6719
X2.6317 Y-0.6664
X2.6289 Y-0.6611
X2.6258 Y-0.656
X2.6224 Y-0.6511
X2.6187 Y-0.6463
X2.6148 Y-0.6418
X2.6107 Y-0.6374
X2.6063 Y-0.6333
X2.6017 Y-0.6294
X2.5969 Y-0.6257
X2.5918 Y-0.6222
X2.5865 Y-0.6189
X2.581 Y-0.6157
X2.5752 Y-0.6129
X2.5693 Y-0.6103
X2.5631 Y-0.6079
X2.5568 Y-0.6059
X2.5504 Y-0.6041
X2.5438 Y-0.6026
X2.5371 Y-0.6015
X2.5303 Y-0.6006
X2.5234 Y-0.6001
X2.5165 Y-0.6
X2.5096 Y-0.6001
X2.5026 Y-0.6007
X2.4957 Y-0.6015
X2.4888 Y-0.6027
X2.4819 Y-0.6042
X2.4751 Y-0.6061
X2.4684 Y-0.6083
X2.4617 Y-0.6108
X2.4552 Y-0.6137
X2.4488 Y-0.6169
X2.4426 Y-0.6204
X2.4365 Y-0.6242
X2.4307 Y-0.6283
X2.425 Y-0.6327
X2.4195 Y-0.6373
X2.4143 Y-0.6422
X2.4093 Y-0.6474
X2.4046 Y-0.6528
X2.4001 Y-0.6585
X2.3959 Y-0.6643
X2.392 Y-0.6704
X2.3884 Y-0.6767
X2.3851 Y-0.6831
X2.3821 Y-0.6896
X2.3794 Y-0.6964
X2.3771 Y-0.7032
X2.3751 Y-0.7102
X2.3734 Y-0.7172
X2.3721 Y-0.7243
X2.3711 Y-0.7315
X2.3705 Y-0.7387
X2.3702 Y-0.7459
X2.3703 Y-0.7532
X2.3708 Y-0.7604
X2.3715 Y-0.7676
X2.3727 Y-0.7747
X2.3742 Y-0.7818
X2.376 Y-0.7888
X2.3782 Y-0.7958
X2.3807 Y-0.8026
X2.3835 Y-0.8092
X2.3866 Y-0.8158
X2.3901 Y-0.8221
X2.3939 Y-0.8283
X2.3979 Y-0.8343
X2.4023 Y-0.8401
X2.4069 Y-0.8457
X2.4118 Y-0.851
X2.417 Y-0.8561
X2.4224 Y-0.861
X2.428 Y-0.8655
X2.4338 Y-0.8698
X2.4399 Y-0.8738
X2.4461 Y-0.8776
X2.4525 Y-0.881
X2.4591 Y-0.884
X2.4658 Y-0.8868
X2.4726 Y-0.8892
X2.4795 Y-0.8913
X2.4866 Y-0.8931
X2.4937 Y-0.8945
X2.5009 Y-0.8956
X2.5081 Y-0.8963
X2.5153 Y-0.8966
X2.5226 Y-0.8967
X2.5298 Y-0.8963
X2.537 Y-0.8956
X2.5442 Y-0.8946
X2.5513 Y-0.8932
X2.5584 Y-0.8914
X2.5653 Y-0.8894
X2.5721 Y-0.887
X2.5789 Y-0.8842
X2.5854 Y-0.8811
X2.5918 Y-0.8778
X2.5981 Y-0.8741
X2.6041 Y-0.8701
X2.61 Y-0.8658
X2.6156 Y-0.8612
X2.621 Y-0.8564
X2.6262 Y-0.8513
X2.6311 Y-0.846
X2.6358 Y-0.8404
X2.6401 Y-0.8346
X2.6442 Y-0.8287
X2.648 Y-0.8225
X2.6515 Y-0.8161
X2.6547 Y-0.8095
X2.6581 Y-0.8016
X2.6623 Y-0.7902
X2.6669 Y-0.7757
X2.67 Y-0.764
X2.6721 Y-0.7539
X2.6736 Y-0.7447
X2.6746 Y-0.7361
X2.6751 Y-0.7279
X2.6752 Y-0.7201
X2.675 Y-0.7124
X2.6743 Y-0.705
X2.6734 Y-0.6976
X2.6721 Y-0.6905
X2.6704 Y-0.6835
X2.6685 Y-0.6766
X2.6662 Y-0.6699
X2.6636 Y-0.6632
X2.6606 Y-0.6567
X2.6574 Y-0.6503
X2.6538 Y-0.6441
X2.6499 Y-0.638
X2.6456 Y-0.632
X2.6411 Y-0.6262
X2.6362 Y-0.6206
X2.631 Y-0.6152
X2.6255 Y-0.61
X2.6197 Y-0.605
X2.6136 Y-0.6003
X2.6073 Y-0.5958
X2.6007 Y-0.5917
X2.5938 Y-0.5878
X2.5867 Y-0.5842
X2.5794 Y-0.581
X2.5719 Y-0.5781
X2.5642 Y-0.5755
X2.5564 Y-0.5734
X2.5484 Y-0.5716
X2.5403 Y-0.5701
X2.532 Y-0.5691
X2.5237 Y-0.5685
X2.5154 Y-0.5682
X2.507 Y-0.5684
X2.4986 Y-0.569
X2.4902 Y-0.57
X2.4818 Y-0.5714
X2.4735 Y-0.5732
X2.4653 Y-0.5755
X2.4571 Y-0.5781
X2.4491 Y-0.5812
X2.4412 Y-0.5846
X2.4335 Y-0.5884
X2.4259 Y-0.5926
X2.4185 Y-0.5972
X2.4114 Y-0.6022
X2.4045 Y-0.6074
X2.3979 Y-0.6131
X2.3915 Y-0.619
X2.3854 Y-0.6253
X2.3796 Y-0.6319
X2.3742 Y-0.6387
X2.369 Y-0.6458
X2.3643 Y-0.6532
X2.3599 Y-0.6607
X2.3558 Y-0.6685
X2.3521 Y-0.6765
X2.3489 Y-0.6847
X2.346 Y-0.693
X2.3435 Y-0.7015
X2.3415 Y-0.71
X2.3398 Y-0.7187
X2.3386 Y-0.7274
X2.3378 Y-0.7362
X2.3375 Y-0.745
X2.3376 Y-0.7538
X2.3381 Y-0.7626
X2.339 Y-0.7714
X2.3404 Y-0.7801
X2.3421 Y-0.7888
X2.3443 Y-0.7974
X2.3469 Y-0.8058
X2.35 Y-0.8141
X2.3534 Y-0.8222
X2.3572 Y-0.8302
X2.3614 Y-0.838
X2.366 Y-0.8456
X2.3709 Y-0.8529
X2.3762 Y-0.86
X2.3818 Y-0.8668
X2.3878 Y-0.8733
X2.394 Y-0.8796
X2.4006 Y-0.8855
X2.4074 Y-0.8911
X2.4145 Y-0.8964
X2.4219 Y-0.9013
X2.4295 Y-0.9059
X2.4373 Y-0.91
X2.4453 Y-0.9138
X2.4534 Y-0.9172
X2.4618 Y-0.9202
X2.4702 Y-0.9228
X2.4788 Y-0.925
X2.4875 Y-0.9267
X2.4962 Y-0.9281
X2.505 Y-0.929
X2.5139 Y-0.9294
X2.5227 Y-0.9295
X2.5315 Y-0.9291
X2.5404 Y-0.9283
X2.5491 Y-0.927
X2.5578 Y-0.9254
X2.5664 Y-0.9233
X2.5749 Y-0.9208
X2.5832 Y-0.9178
X2.5914 Y-0.9145
X2.5995 Y-0.9108
X2.6073 Y-0.9067
X2.6149 Y-0.9022
X2.6223 Y-0.8974
X2.6295 Y-0.8922
X2.6364 Y-0.8866
X2.643 Y-0.8808
X2.6494 Y-0.8746
X2.6555 Y-0.868
X2.6617 Y-0.8606
X2.6679 Y-0.8524
X2.6739 Y-0.8437
X2.6797 Y-0.8343
X2.6852 Y-0.8245
X2.6901 Y-0.8144
X2.6945 Y-0.8043
X2.6983 Y-0.7941
X2.7015 Y-0.7839
X2.7042 Y-0.7738
X2.7064 Y-0.7638
X2.708 Y-0.7539
X2.7092 Y-0.7441
X2.7098 Y-0.7344
X2.71 Y-0.7248
X2.7097 Y-0.7153
X2.709 Y-0.7059
X2.7078 Y-0.6966
X2.7061 Y-0.6875
X2.7041 Y-0.6785
X2.7016 Y-0.6697
X2.6987 Y-0.661
X2.6954 Y-0.6524
X2.6916 Y-0.6441
X2.6875 Y-0.6359
X2.683 Y-0.628
X2.678 Y-0.6202
X2.6727 Y-0.6127
X2.667 Y-0.6054
X2.661 Y-0.5984
X2.6545 Y-0.5917
X2.6478 Y-0.5852
X2.6407 Y-0.5791
X2.6332 Y-0.5733
X2.6255 Y-0.5678
X2.6175 Y-0.5627
X2.6091 Y-0.558
X2.6006 Y-0.5536
X2.5918 Y-0.5497
X2.5827 Y-0.5462
X2.5735 Y-0.5431
X2.564 Y-0.5404
X2.5545 Y-0.5382
X2.5448 Y-0.5365
X2.5349 Y-0.5352
X2.525 Y-0.5344
X2.515 Y-0.5341
X2.505 Y-0.5343
X2.495 Y-0.535
X2.485 Y-0.5361
X2.475 Y-0.5378
X2.4651 Y-0.5399
X2.4553 Y-0.5425
X2.4455 Y-0.5456
X2.436 Y-0.5492
X2.4266 Y-0.5533
X2.4174 Y-0.5578
X2.4083 Y-0.5628
X2.3996 Y-0.5682
X2.3911 Y-0.574
X2.3828 Y-0.5803
X2.3749 Y-0.587
X2.3673 Y-0.594
X2.36 Y-0.6015
X2.3531 Y-0.6093
X2.3466 Y-0.6174
X2.3405 Y-0.6258
X2.3348 Y-0.6345
X2.3295 Y-0.6436
X2.3246 Y-0.6528
X2.3202 Y-0.6623
X2.3163 Y-0.672
X2.3129 Y-0.6819
X2.3099 Y-0.692
X2.3074 Y-0.7022
X2.3054 Y-0.7125
X2.3039 Y-0.7229
X2.303 Y-0.7333
X2.3025 Y-0.7438
X2.3026 Y-0.7544
X2.3031 Y-0.7649
X2.3042 Y-0.7753
X2.3058 Y-0.7857
X2.3079 Y-0.7961
X2.3105 Y-0.8063
X2.3135 Y-0.8163
X2.3171 Y-0.8263
X2.3212 Y-0.836
X2.3257 Y-0.8455
X2.3306 Y-0.8548
X2.3361 Y-0.8638
X2.3419 Y-0.8726
X2.3482 Y-0.8811
X2.3549 Y-0.8892
X2.362 Y-0.8971
X2.3694 Y-0.9045
X2.3772 Y-0.9116
X2.3853 Y-0.9183
X2.3938 Y-0.9246
X2.4025 Y-0.9305
X2.4116 Y-0.936
X2.4209 Y-0.941
X2.4304 Y-0.9456
X2.4401 Y-0.9496
X2.45 Y-0.9533
X2.4601 Y-0.9564
X2.4703 Y-0.959
X2.4807 Y-0.9611
X2.4911 Y-0.9628
X2.5016 Y-0.9639
X2.5121 Y-0.9645
X2.5227
X2.5332 Y-0.9641
X2.5437 Y-0.9632
X2.5542 Y-0.9617
X2.5645 Y-0.9598
X2.5748 Y-0.9573
X2.5849 Y-0.9544
X2.5949 Y-0.9509
X2.6047 Y-0.947
X2.6143 Y-0.9426
X2.6237 Y-0.9377
X2.6328 Y-0.9324
X2.6418 Y-0.9266
X2.6506 Y-0.9202
X2.6593 Y-0.9133
X2.6678 Y-0.9058
X2.6761 Y-0.8978
X2.6841 Y-0.8892
X2.6918 Y-0.8801
X2.6991 Y-0.8705
X2.706 Y-0.8606
X2.7124 Y-0.8503
X2.7183 Y-0.8397
X2.7237 Y-0.8289
X2.7284 Y-0.8179
X2.7327 Y-0.8068
X2.7363 Y-0.7955
X2.7394 Y-0.7841
X2.7419 Y-0.7727
X2.7438 Y-0.7613
X2.7452 Y-0.7498
X2.746 Y-0.7384
X2.7462 Y-0.7271
X2.7459 Y-0.7158
X2.7451 Y-0.7046
X2.7437 Y-0.6934
X2.7418 Y-0.6825
X2.7393 Y-0.6716
X2.7363 Y-0.6609
X2.7329 Y-0.6504
X2.7289 Y-0.6401
X2.7244 Y-0.63
X2.7195 Y-0.6202
X2.714 Y-0.6106
X2.7081 Y-0.6012
X2.7018 Y-0.5921
X2.695 Y-0.5834
X2.6877 Y-0.5749
X2.6801 Y-0.5668
X2.672 Y-0.5591
X2.6635 Y-0.5518
X2.6547 Y-0.5448
X2.6455 Y-0.5383
X2.636 Y-0.5322
X2.6262 Y-0.5265
X2.616 Y-0.5213
X2.6056 Y-0.5166
X2.5949 Y-0.5124
X2.584 Y-0.5087
X2.5729 Y-0.5056
X2.5616 Y-0.503
X2.5502 Y-0.5009
X2.5387 Y-0.4993
X2.527 Y-0.4984
X2.5153 Y-0.498
X2.5035 Y-0.4981
X2.4918 Y-0.4989
X2.48 Y-0.5002
X2.4683 Y-0.5021
X2.4567 Y-0.5046
X2.4452 Y-0.5076
X2.4338 Y-0.5112
X2.4225 Y-0.5154
X2.4115 Y-0.5201
X2.4007 Y-0.5253
X2.3902 Y-0.5311
X2.3799 Y-0.5374
X2.3699 Y-0.5442
X2.3602 Y-0.5515
X2.3509 Y-0.5593
X2.342 Y-0.5675
X2.3335 Y-0.5762
X2.3254 Y-0.5853
X2.3177 Y-0.5947
X2.3105 Y-0.6046
X2.3038 Y-0.6148
X2.2976 Y-0.6253
X2.2919 Y-0.6361
X2.2867 Y-0.6472
X2.2821 Y-0.6585
X2.278 Y-0.6701
X2.2745 Y-0.6818
X2.2716 Y-0.6937
X2.2692 Y-0.7058
X2.2674 Y-0.7179
X2.2663 Y-0.7301
X2.2657 Y-0.7424
Y-0.7547
X2.2663 Y-0.767
X2.2675 Y-0.7793
X2.2693 Y-0.7914
X2.2717 Y-0.8035
X2.2747 Y-0.8155
X2.2783 Y-0.8273
X2.2824 Y-0.8389
X2.2871 Y-0.8503
X2.2924 Y-0.8614
X2.2982 Y-0.8723
X2.3045 Y-0.8829
X2.3113 Y-0.8932
X2.3186 Y-0.9031
X2.3264 Y-0.9127
X2.3346 Y-0.9219
X2.3433 Y-0.9306
X2.3524 Y-0.939
X2.3619 Y-0.9469
X2.3718 Y-0.9543
X2.382 Y-0.9612
X2.3925 Y-0.9676
X2.4034 Y-0.9735
X2.4145 Y-0.9789
X2.4259 Y-0.9837
X2.4374 Y-0.988
X2.4492 Y-0.9917
X2.4612 Y-0.9948
X2.4733 Y-0.9973
X2.4855 Y-0.9993
X2.4977 Y-1.0006
X2.5101 Y-1.0013
X2.5224 Y-1.0015
X2.5348 Y-1.001
X2.5471 Y-1.
X2.5593 Y-0.9983
X2.5714 Y-0.9961
X2.5835 Y-0.9932
X2.5954 Y-0.9898
X2.6071 Y-0.9858
X2.6187 Y-0.9812
X2.6301 Y-0.976
X2.6414 Y-0.9702
X2.6525 Y-0.9638
X2.6633 Y-0.9568
X2.6739 Y-0.9492
X2.6842 Y-0.9411
X2.6941 Y-0.9324
X2.7038 Y-0.9231
X2.713 Y-0.9133
X2.7218 Y-0.903
X2.7301 Y-0.8922
X2.7379 Y-0.881
X2.7436 Y-0.872
X2.7447 Y-0.8702
X2.7457 Y-0.8683
X2.7467 Y-0.8665
X2.751 Y-0.8585
X2.7554 Y-0.8503
X2.7574 Y-0.8462
X2.7588 Y-0.8421
X2.7713 Y-0.8009
X2.7723 Y-0.7968
X2.7727 Y-0.7927
X2.7768 Y-0.7516
X2.7771 Y-0.7475
X2.7768 Y-0.7434
X2.7727 Y-0.7023
X2.7723 Y-0.6982
X2.7713 Y-0.6941
X2.7588 Y-0.6529
X2.7574 Y-0.6488
X2.7554 Y-0.6447
X2.7378 Y-0.6118
X2.7332 Y-0.6036
X2.7299 Y-0.5995
X2.7052 Y-0.5694
X2.7023 Y-0.566
X2.6985 Y-0.5625
X2.6642 Y-0.5343
X2.6559 Y-0.5294
X2.6231 Y-0.5119
X2.619 Y-0.5097
X2.6149 Y-0.5082
X2.5738 Y-0.4957
X2.5697 Y-0.4946
X2.5656 Y-0.494
X2.5245 Y-0.49
X2.5204 Y-0.4896
X2.5163 Y-0.4897
X2.4752 Y-0.4938
X2.467 Y-0.495
X2.426 Y-0.5074
X2.4219 Y-0.5087
X2.4177 Y-0.5105
X2.382 Y-0.5296
X2.3767 Y-0.5325
X2.3698 Y-0.5378
X2.3398 Y-0.5625
X2.3356 Y-0.5664
X2.332 Y-0.5707
X2.311 Y-0.5964
X2.3051 Y-0.6036
X2.3028 Y-0.6076
X2.2829 Y-0.6447
X2.2809 Y-0.6488
X2.2795 Y-0.6529
X2.267 Y-0.6941
X2.266 Y-0.6982
X2.2656 Y-0.7023
X2.2615 Y-0.7434
X2.2612 Y-0.7475
X2.2615 Y-0.7516
X2.2656 Y-0.7927
X2.266 Y-0.7968
X2.267 Y-0.8009
X2.2795 Y-0.8421
X2.2809 Y-0.8462
X2.2829 Y-0.8503
X2.3028 Y-0.8874
X2.3051 Y-0.8914
X2.3118 Y-0.8996
X2.332 Y-0.9243
X2.3356 Y-0.9286
X2.3398 Y-0.9325
X2.3698 Y-0.9572
X2.3767 Y-0.9625
X2.382 Y-0.9654
X2.4177 Y-0.9845
X2.4219 Y-0.9863
X2.426 Y-0.9876
X2.467 Y-1.
X2.4752 Y-1.0012
X2.5163 Y-1.0053
X2.5204 Y-1.0054
X2.5327 Y-1.0042
X2.5656 Y-1.001
X2.5697 Y-1.0004
X2.5738 Y-0.9993
X2.6149 Y-0.9868
X2.619 Y-0.9853
X2.6255 Y-0.9818
X2.6563 Y-0.9654
X2.6642 Y-0.9607
X2.6985 Y-0.9325
X2.7023 Y-0.929
X2.7063 Y-0.9243
X2.7299 Y-0.8955
X2.7332 Y-0.8914
X2.7381 Y-0.8827
X2.7467 Y-0.8665
G3 X2.7421 Y-0.8379 I-0.0224 J0.011
G1 X2.7393 Y-0.8351 Z0.0003
X2.7366 Y-0.8324 Z0.0012
X2.7341 Y-0.8298 Z0.0027
X2.7317 Y-0.8274 Z0.0048
X2.7296 Y-0.8253 Z0.0073
X2.7278 Y-0.8235 Z0.0103
X2.7264 Y-0.822 Z0.0137
X2.7253 Y-0.821 Z0.0173
X2.7247 Y-0.8203 Z0.0211
X2.7245 Y-0.8201 Z0.025
G0 Z1.1003
(2D CONTOUR4)
G64 P0.0004 Q0.0004
G0 X0.7444 Y0.1463
Z1.1003
Z0.7003
G1 Z0.167 F80.
Y0.146 Z0.1631 F30.
Y0.1451 Z0.1593
Y0.1436 Z0.1557
X0.7443 Y0.1416 Z0.1523
Y0.139 Z0.1493
X0.7442 Y0.136 Z0.1468
X0.7441 Y0.1327 Z0.1447
X0.744 Y0.1291 Z0.1432
X0.7439 Y0.1253 Z0.1423
X0.7438 Y0.1214 Z0.142
X0.7432 Y0.0964
G3 X0.7676 Y0.0708 I0.025 J-0.0006
G2 X0.7274 Y-1.5658 I-0.0201 J-0.8183
X0.7676 Y0.0708 I0.0201 J0.8183
G3 X0.7932 Y0.0951 I0.0006 J0.025
G1 X0.7938 Y0.1201
X0.7939 Y0.124 Z0.1423
X0.794 Y0.1278 Z0.1432
X0.7941 Y0.1315 Z0.1447
X0.7942 Y0.1348 Z0.1468
Y0.1378 Z0.1493
X0.7943 Y0.1403 Z0.1523
X0.7944 Y0.1424 Z0.1557
Y0.1439 Z0.1593
Y0.1448 Z0.1631
Y0.1451 Z0.167
G0 Z0.7003
X2.5222 Y-1.6413
G1 Z0.167 F80.
Y-1.641 Z0.1631 F30.
Y-1.6401 Z0.1593
X2.5223 Y-1.6386 Z0.1557
Y-1.6366 Z0.1523
X2.5224 Y-1.634 Z0.1493
X2.5225 Y-1.631 Z0.1468
X2.5226 Y-1.6277 Z0.1447
Y-1.6241 Z0.1432
X2.5227 Y-1.6203 Z0.1423
X2.5228 Y-1.6164 Z0.142
X2.5234 Y-1.5914
G3 X2.4991 Y-1.5658 I-0.025 J0.0006
G2 X2.5392 Y0.0708 I0.0201 J0.8183
X2.4991 Y-1.5658 I-0.0201 J-0.8183
G3 X2.4735 Y-1.5901 I-0.0006 J-0.025
G1 X2.4728 Y-1.6151
Y-1.619 Z0.1423
X2.4727 Y-1.6228 Z0.1432
X2.4726 Y-1.6265 Z0.1447
X2.4725 Y-1.6298 Z0.1468
X2.4724 Y-1.6328 Z0.1493
Y-1.6353 Z0.1523
X2.4723 Y-1.6374 Z0.1557
Y-1.6389 Z0.1593
X2.4722 Y-1.6398 Z0.1631
Y-1.6401 Z0.167
G0 Z1.1003
(2D CONTOUR3)
G0 X2.7142 Y-0.7581
Z1.1003
Z0.7003
G1 Z0.5397 F80.
Z0.4366
X2.7145 Z0.4327 F20.
X2.7154 Y-0.758 Z0.4289
X2.7169 Y-0.7579 Z0.4252
X2.7189 Y-0.7578 Z0.4219
X2.7215 Y-0.7576 Z0.4189
X2.7244 Y-0.7574 Z0.4164
X2.7278 Y-0.7571 Z0.4143
X2.7314 Y-0.7569 Z0.4128
X2.7352 Y-0.7566 Z0.4119
X2.7391 Y-0.7563 Z0.4116
X2.764 Y-0.7544
G3 X2.7871 Y-0.7277 I-0.0018 J0.0249
X2.2512 Y-0.7673 I-0.268 J-0.0198
X2.7871 Y-0.7277 I0.268 J0.0198
X2.2512 Y-0.7673 I-0.268 J-0.0198
X2.7871 Y-0.7277 I0.268 J0.0198
X2.7603 Y-0.7046 I-0.0249 J-0.0018
G1 X2.7354 Y-0.7064
X2.7315 Y-0.7067 Z0.4119
X2.7277 Y-0.707 Z0.4128
X2.7241 Y-0.7073 Z0.4143
X2.7208 Y-0.7075 Z0.4164
X2.7178 Y-0.7077 Z0.4189
X2.7152 Y-0.7079 Z0.4219
X2.7132 Y-0.7081 Z0.4252
X2.7117 Y-0.7082 Z0.4289
X2.7108 Z0.4327
X2.7105 Y-0.7083 Z0.4366
G0 Z0.7003
X0.9412 Y-0.7725
G1 Z0.5397 F80.
Z0.4366
G18 G2 X0.9662 Z0.4116 I0.025 K0. F20.
G1 X0.9912
G17 G3 X1.0162 Y-0.7475 I0. J0.025
X0.4788 I-0.2687 J0.
X1.0162 I0.2687 J0.
X0.4788 I-0.2687 J0.
X1.0162 I0.2687 J0.
X0.9912 Y-0.7225 I-0.025 J0.
G1 X0.9662
G18 G3 X0.9412 Z0.4366 I0. K0.025
G0 Z1.1003
X0.7444 Y0.0789
Z0.7003
G1 Z0.5397 F80.
Z0.2397
Y0.0785 Z0.2358 F20.
Y0.0776 Z0.232
X0.7443 Y0.0761 Z0.2284
Y0.0741 Z0.225
X0.7442 Y0.0715 Z0.2221
X0.7441 Y0.0686 Z0.2195
X0.744 Y0.0652 Z0.2175
X0.7439 Y0.0616 Z0.216
X0.7438 Y0.0578 Z0.215
X0.7437 Y0.0539 Z0.2147
X0.7431 Y0.0289
G17 G3 X0.7674 Y0.0032 I0.025 J-0.0007
G2 X0.7276 Y-1.4982 I-0.0199 J-0.7507
X0.7674 Y0.0032 I0.0199 J0.7507
X0.7276 Y-1.4982 I-0.0199 J-0.7507
X0.7674 Y0.0032 I0.0199 J0.7507
G3 X0.7931 Y0.0275 I0.0007 J0.025
G1 X0.7937 Y0.0525
X0.7938 Y0.0564 Z0.215
X0.7939 Y0.0603 Z0.216
X0.794 Y0.0639 Z0.2175
X0.7941 Y0.0672 Z0.2195
X0.7942 Y0.0702 Z0.2221
X0.7943 Y0.0728 Z0.225
Y0.0748 Z0.2284
X0.7944 Y0.0763 Z0.232
Y0.0772 Z0.2358
Y0.0775 Z0.2397
G0 Z0.7003
X2.5222 Y-1.5739
G1 Z0.5397 F80.
Z0.2397
X2.5223 Y-1.5735 Z0.2358 F20.
Y-1.5726 Z0.232
Y-1.5711 Z0.2284
X2.5224 Y-1.5691 Z0.225
Y-1.5665 Z0.2221
X2.5225 Y-1.5636 Z0.2195
X2.5226 Y-1.5602 Z0.2175
X2.5227 Y-1.5566 Z0.216
X2.5228 Y-1.5528 Z0.215
X2.5229 Y-1.5489 Z0.2147
X2.5236 Y-1.5239
G3 X2.4992 Y-1.4982 I-0.025 J0.0007
G2 X2.5391 Y0.0032 I0.0199 J0.7507
X2.4992 Y-1.4982 I-0.0199 J-0.7507
X2.5391 Y0.0032 I0.0199 J0.7507
X2.4992 Y-1.4982 I-0.0199 J-0.7507
G3 X2.4736 Y-1.5225 I-0.0007 J-0.025
G1 X2.4729 Y-1.5475
X2.4728 Y-1.5514 Z0.215
X2.4727 Y-1.5553 Z0.216
X2.4726 Y-1.5589 Z0.2175
X2.4725 Y-1.5622 Z0.2195
Y-1.5652 Z0.2221
X2.4724 Y-1.5678 Z0.225
X2.4723 Y-1.5698 Z0.2284
Y-1.5713 Z0.232
Y-1.5722 Z0.2358
Y-1.5725 Z0.2397
G0 Z1.1003
M5
G53 G0 Z0.
(2D CHAMFER2)
M9
M1
T13 M6
T11
S7500 M3
G17 G90 G94
G54
M8
G0 X2.5192 Y-1.47
G43 Z1.1003 H13
G0 Z0.7003
G1 Z0.5803 F80.
Z0.3903
G2 Y-0.025 I0. J0.7225 F50.
Y-1.47 I0. J-0.7225
G0 Z0.7003
X2.8164 Y-0.7475
G1 Z0.5803 F80.
Z0.3903
G3 X2.222 I-0.2972 J0. F50.
X2.8164 I0.2972 J0.
G0 Z0.7003
X0.7475 Y-0.025
G1 Z0.5803 F80.
Z0.3903
G2 Y-1.47 I0. J-0.7225 F50.
Y-0.025 I0. J0.7225
G0 Z0.7003
X1.0447 Y-0.7475
G1 Z0.5803 F80.
Z0.3903
G3 X0.4503 I-0.2972 J0. F50.
X1.0447 I0.2972 J0.
G0 Z1.1003
M5
G53 G0 Z0.
(2D CONTOUR5)
M9
M1
T11 M6
T52
S7500 M3
G17 G90 G94
G54
M8
G0 X0.7538 Y0.0176
G43 Z1.1003 H11
G0 Z0.7003
G1 Z0.1792 F80.
Y0.0173 Z0.1765 F20.
X0.7537 Y0.0163 Z0.1738
Y0.0149 Z0.1714
Y0.0129 Z0.1695
X0.7536 Y0.0105 Z0.168
X0.7535 Y0.0079 Z0.1671
Y0.0051 Z0.1667
X0.7532 Y-0.0074
G3 X0.7654 Y-0.0202 I0.0125 J-0.0003
G2 X0.7296 Y-1.4748 I-0.0179 J-0.7273
X0.7654 Y-0.0202 I0.0179 J0.7273
G3 X0.7782 Y-0.008 I0.0003 J0.0125
G1 X0.7785 Y0.0045
Y0.0072 Z0.1671
X0.7786 Y0.0099 Z0.168
X0.7787 Y0.0123 Z0.1695
Y0.0142 Z0.1714
Y0.0157 Z0.1738
X0.7788 Y0.0166 Z0.1765
Y0.017 Z0.1792
G0 Z0.7003
X2.5129 Y-1.5126
G1 Z0.1792 F80.
Y-1.5123 Z0.1765 F20.
Y-1.5113 Z0.1738
Y-1.5099 Z0.1714
X2.513 Y-1.5079 Z0.1695
Y-1.5055 Z0.168
X2.5131 Y-1.5029 Z0.1671
X2.5132 Y-1.5001 Z0.1667
X2.5135 Y-1.4876
G3 X2.5013 Y-1.4748 I-0.0125 J0.0003
G2 X2.537 Y-0.0202 I0.0179 J0.7273
X2.5013 Y-1.4748 I-0.0179 J-0.7273
G3 X2.4885 Y-1.487 I-0.0003 J-0.0125
G1 X2.4882 Y-1.4995
X2.4881 Y-1.5022 Z0.1671
Y-1.5049 Z0.168
X2.488 Y-1.5073 Z0.1695
Y-1.5092 Z0.1714
X2.4879 Y-1.5107 Z0.1738
Y-1.5116 Z0.1765
Y-1.512 Z0.1792
G0 Z1.1003
M5
M9
G53 G0 Z0.
M30
%
