%
(OP2 - ON PLATE)
(T13 D=0.375 CR=0. TAPER=45DEG - ZMIN=0.2743 - CHAMFER MILL)
(T33 D=0.25 CR=0. - ZMIN=0.3543 - FLAT END MILL)
G90 G94 G17 G91.1
G20
G53 G0 Z0.
(FACE2)
T33 M6
T13
S7500 M3
G17 G90 G94
G54
G64 P0.0004 Q0.0004
M8
G0 X3.5675 Y-1.5086
G43 Z1.3659 H33
G0 Z0.9659
G1 Z0.6649 F80.
G18 G3 X3.5425 Z0.6399 I-0.025 K0. F50.
G1 X3.505
X0.0383
G3 X0.0133 Z0.6649 I0. K0.025
G0 Z0.9659
X3.5675 Y-1.3588
G1 Z0.6649 F80.
G3 X3.5425 Z0.6399 I-0.025 K0. F50.
G1 X3.505
X0.0383
G3 X0.0133 Z0.6649 I0. K0.025
G0 Z0.9659
X3.5675 Y-1.2089
G1 Z0.6649 F80.
G3 X3.5425 Z0.6399 I-0.025 K0. F50.
G1 X3.505
X0.0383
G3 X0.0133 Z0.6649 I0. K0.025
G0 Z0.9659
X3.5675 Y-1.0591
G1 Z0.6649 F80.
G3 X3.5425 Z0.6399 I-0.025 K0. F50.
G1 X3.505
X0.0383
G3 X0.0133 Z0.6649 I0. K0.025
G0 Z0.9659
X3.5675 Y-0.9093
G1 Z0.6649 F80.
G3 X3.5425 Z0.6399 I-0.025 K0. F50.
G1 X3.505
X0.0383
G3 X0.0133 Z0.6649 I0. K0.025
G0 Z0.9659
X3.5675 Y-0.7595
G1 Z0.6649 F80.
G3 X3.5425 Z0.6399 I-0.025 K0. F50.
G1 X3.505
X0.0383
G3 X0.0133 Z0.6649 I0. K0.025
G0 Z0.9659
X3.5675 Y-0.6096
G1 Z0.6649 F80.
G3 X3.5425 Z0.6399 I-0.025 K0. F50.
G1 X3.505
X0.0383
G3 X0.0133 Z0.6649 I0. K0.025
G0 Z0.9659
X3.5675 Y-0.4598
G1 Z0.6649 F80.
G3 X3.5425 Z0.6399 I-0.025 K0. F50.
G1 X3.505
X0.0383
G3 X0.0133 Z0.6649 I0. K0.025
G0 Z0.9659
X3.5675 Y-0.31
G1 Z0.6649 F80.
G3 X3.5425 Z0.6399 I-0.025 K0. F50.
G1 X3.505
X0.0383
G3 X0.0133 Z0.6649 I0. K0.025
G0 Z0.9659
X3.5675 Y-0.1602
G1 Z0.6649 F80.
G3 X3.5425 Z0.6399 I-0.025 K0. F50.
G1 X3.505
X0.0383
G3 X0.0133 Z0.6649 I0. K0.025
G0 Z1.3659
G17
(2D ADAPTIVE ROUGHING6)
G64 P0.004 Q0.004
G0 X0.9818 Y-0.8346
Z1.3659
Z0.9659
Z0.4143
G1 Z0.3893 F50.
X0.982 Y-0.8348 Z0.3854
X0.9825 Y-0.8356 Z0.3816
X0.9834 Y-0.8368 Z0.378
X0.9846 Y-0.8384 Z0.3746
X0.986 Y-0.8405 Z0.3717
X0.9878 Y-0.843 Z0.3691
X0.9897 Y-0.8457 Z0.3671
X0.9918 Y-0.8486 Z0.3656
X0.994 Y-0.8517 Z0.3646
X0.9963 Y-0.8549 Z0.3643
G3 X1.0878 Y-0.9576 I0.5196 J0.3707
G1 X1.0912 Y-0.9605
X1.0971 Y-0.9597
X1.1029 Y-0.9582
X1.1083 Y-0.9556
X1.1135 Y-0.9526
X1.1185 Y-0.9492
X1.1242 Y-0.945
X1.1288 Y-0.9412
X1.1331 Y-0.9371
X1.1375 Y-0.9324
X1.1426 Y-0.9265
X1.1484 Y-0.919
X1.1551 Y-0.9095
X1.1586 Y-0.9038
X1.1624 Y-0.8971
X1.1666 Y-0.8887
X1.1713 Y-0.8782
X1.1764 Y-0.8647
X1.1797 Y-0.8547
X1.1822 Y-0.8457
X1.1847 Y-0.8345
X1.1872 Y-0.8204
X1.1893 Y-0.8033
X1.19 Y-0.7941
X1.1903 Y-0.7827
X1.19 Y-0.7685
X1.1887 Y-0.7503
X1.1872 Y-0.7382
X1.1853 Y-0.727
X1.1823 Y-0.7132
X1.1775 Y-0.6958
X1.173 Y-0.682
X1.169 Y-0.6715
X1.1634 Y-0.6586
X1.1554 Y-0.6426
X1.1477 Y-0.6288
X1.1418 Y-0.6193
X1.1339 Y-0.6079
X1.1231 Y-0.5938
X1.1124 Y-0.5812
X1.1048 Y-0.5731
X1.0949 Y-0.5635
X1.0816 Y-0.5519
X1.0682 Y-0.5412
X1.0593 Y-0.5348
X1.0478 Y-0.5274
X1.0327 Y-0.5186
X1.0171 Y-0.5105
X1.0072 Y-0.506
X0.9946 Y-0.5009
X0.9782 Y-0.4953
X0.9609 Y-0.4903
X0.9504 Y-0.4878
X0.9371 Y-0.4853
X0.9201 Y-0.483
X0.9019 Y-0.4814
X0.8912 Y-0.4809
X0.8778 Y-0.4811
X0.8608 Y-0.4821
X0.8423 Y-0.484
X0.8317 Y-0.4857
X0.8187 Y-0.4884
X0.8023 Y-0.4926
X0.7842 Y-0.4983
X0.7743 Y-0.5019
X0.7621 Y-0.507
X0.747 Y-0.5143
X0.7301 Y-0.5234
X0.7211 Y-0.5289
X0.7102 Y-0.5362
X0.6969 Y-0.5462
X0.6818 Y-0.5587
X0.6741 Y-0.5657
X0.665 Y-0.5749
X0.6539 Y-0.5871
X0.6413 Y-0.6026
X0.6352 Y-0.6109
X0.628 Y-0.6216
X0.6196 Y-0.6357
X0.6101 Y-0.6535
X0.6057 Y-0.6628
X0.6008 Y-0.6746
X0.5953 Y-0.6899
X0.5894 Y-0.7095
X0.5869 Y-0.7194
X0.5844 Y-0.7319
X0.582 Y-0.7478
X0.5799 Y-0.7685
X0.5793 Y-0.7786
Y-0.7912
X0.58 Y-0.8071
X0.582 Y-0.8279
X0.5834 Y-0.8382
X0.5858 Y-0.8505
X0.5896 Y-0.8658
X0.5954 Y-0.8856
X0.5991 Y-0.8959
X0.6037 Y-0.9074
X0.6103 Y-0.9216
X0.6198 Y-0.9397
X0.6256 Y-0.9495
X0.6323 Y-0.9598
X0.6415 Y-0.9723
X0.6542 Y-0.9881
X0.662 Y-0.9969
X0.6705 Y-1.0056
X0.6819 Y-1.0161
X0.6972 Y-1.029
X0.7069 Y-1.0363
X0.7169 Y-1.0432
X0.7299 Y-1.0512
X0.7473 Y-1.0608
X0.7586 Y-1.0663
X0.7697 Y-1.0711
X0.7839 Y-1.0764
X0.8026 Y-1.0823
X0.8152 Y-1.0857
X0.8269 Y-1.0882
X0.8417 Y-1.0906
X0.8611 Y-1.0928
X0.8744 Y-1.0937
X0.8863 Y-1.0939
X0.9012 Y-1.0934
X0.9204 Y-1.0919
X0.934 Y-1.0901
X0.9457 Y-1.088
X0.9601 Y-1.0847
X0.9785 Y-1.0795
X0.9919 Y-1.075
X1.0028 Y-1.0707
X1.0162 Y-1.0647
X1.0331 Y-1.0561
X1.0645 Y-1.0382
X1.0904 Y-1.0231
X1.1061 Y-1.0129
X1.1187 Y-1.0038
X1.1302 Y-0.9946
X1.1411 Y-0.9851
X1.1506 Y-0.9759
X1.1592 Y-0.9666
X1.1675 Y-0.9569
X1.1754 Y-0.9465
X1.183 Y-0.9356
X1.1898 Y-0.9247
X1.1961 Y-0.9134
X1.2019 Y-0.9016
X1.2073 Y-0.8893
X1.2124 Y-0.8758
X1.2167 Y-0.8627
X1.2203 Y-0.8495
X1.2233 Y-0.8357
X1.2258 Y-0.8207
X1.2276 Y-0.8059
X1.2286 Y-0.7912
X1.2289 Y-0.7763
X1.2285 Y-0.7606
X1.2273 Y-0.7447
X1.2254 Y-0.7294
X1.2227 Y-0.7141
X1.2192 Y-0.6983
X1.2148 Y-0.6824
X1.2098 Y-0.6673
X1.204 Y-0.6524
X1.1974 Y-0.6373
X1.1898 Y-0.6223
X1.1818 Y-0.608
X1.1731 Y-0.5944
X1.1636 Y-0.5808
X1.1532 Y-0.5674
X1.1423 Y-0.5546
X1.1311 Y-0.5428
X1.1191 Y-0.5313
X1.1063 Y-0.5201
X1.0929 Y-0.5096
X1.0796 Y-0.5001
X1.0655 Y-0.4911
X1.0508 Y-0.4826
X1.0355 Y-0.4748
X1.0206 Y-0.468
X1.005 Y-0.4619
X0.9889 Y-0.4565
X0.9723 Y-0.4517
X0.9563 Y-0.448
X0.9399 Y-0.445
X0.9231 Y-0.4427
X0.9058 Y-0.4413
X0.8894 Y-0.4407
X0.8727 Y-0.441
X0.8557 Y-0.442
X0.8385 Y-0.444
X0.8222 Y-0.4466
X0.8059 Y-0.45
X0.7895 Y-0.4544
X0.7729 Y-0.4596
X0.7575 Y-0.4653
X0.7422 Y-0.4719
X0.7269 Y-0.4793
X0.7116 Y-0.4877
X0.6976 Y-0.4962
X0.6838 Y-0.5056
X0.6703 Y-0.5158
X0.6569 Y-0.527
X0.6448 Y-0.5382
X0.6331 Y-0.55
X0.6218 Y-0.5626
X0.6108 Y-0.5763
X0.6011 Y-0.5895
X0.5919 Y-0.6034
X0.5833 Y-0.6179
X0.5751 Y-0.6335
X0.5682 Y-0.6484
X0.5619 Y-0.6637
X0.5562 Y-0.6796
X0.5512 Y-0.6965
X0.5472 Y-0.7125
X0.5441 Y-0.7287
X0.5416 Y-0.7454
X0.5399 Y-0.763
X0.5391 Y-0.7794
X0.5392 Y-0.796
X0.54 Y-0.8128
X0.5417 Y-0.8303
X0.5441 Y-0.8466
X0.5473 Y-0.8628
X0.5514 Y-0.8792
X0.5565 Y-0.896
X0.562 Y-0.9116
X0.5683 Y-0.9269
X0.5755 Y-0.9422
X0.5837 Y-0.9577
X0.5922 Y-0.9719
X0.6013 Y-0.9857
X0.6113 Y-0.9993
X0.6224 Y-1.0129
X0.6335 Y-1.0252
X0.6451 Y-1.037
X0.6575 Y-1.0484
X0.671 Y-1.0596
X0.6843 Y-1.0696
X0.6979 Y-1.0788
X0.7123 Y-1.0876
X0.7277 Y-1.096
X0.7427 Y-1.1032
X0.7579 Y-1.1097
X0.7737 Y-1.1155
X0.7903 Y-1.1207
X0.8065 Y-1.1249
X0.8227 Y-1.1283
X0.8393 Y-1.131
X0.8566 Y-1.1329
X0.8733 Y-1.1339
X0.8898 Y-1.1341
X0.9067 Y-1.1335
X0.924 Y-1.132
X0.9406 Y-1.1298
X0.9569 Y-1.1268
X0.9733 Y-1.1229
X0.9899 Y-1.1181
X1.0108 Y-1.111
X1.037 Y-1.1006
X1.061 Y-1.0897
X1.0825 Y-1.0787
X1.1017 Y-1.0676
X1.1185 Y-1.0568
X1.1338 Y-1.0458
X1.1479 Y-1.0347
X1.161 Y-1.0232
X1.1732 Y-1.0114
X1.1845 Y-0.9994
X1.195 Y-0.9871
X1.2047 Y-0.9745
X1.2139 Y-0.9614
X1.2224 Y-0.9479
X1.2302 Y-0.934
X1.2373 Y-0.9198
X1.2437 Y-0.9051
X1.2495 Y-0.89
X1.2546 Y-0.8745
X1.2589 Y-0.8587
X1.2625 Y-0.8426
X1.2654 Y-0.8262
X1.2674 Y-0.8094
X1.2687 Y-0.7925
X1.2691 Y-0.7754
X1.2687 Y-0.758
X1.2674 Y-0.7406
X1.2653 Y-0.7231
X1.2623 Y-0.7056
X1.2585 Y-0.6882
X1.2537 Y-0.6709
X1.2481 Y-0.6536
X1.2416 Y-0.6367
X1.2343 Y-0.6201
X1.2262 Y-0.6036
X1.2172 Y-0.5876
X1.2074 Y-0.572
X1.1969 Y-0.5568
X1.1855 Y-0.5421
X1.1734 Y-0.5279
X1.1607 Y-0.5143
X1.1473 Y-0.5014
X1.1333 Y-0.4891
X1.1185 Y-0.4774
X1.1033 Y-0.4665
X1.0876 Y-0.4563
X1.0714 Y-0.4469
X1.0546 Y-0.4383
X1.0375 Y-0.4305
X1.0201 Y-0.4236
X1.0023 Y-0.4175
X0.9841 Y-0.4122
X0.9658 Y-0.4079
X0.9473 Y-0.4044
X0.9287 Y-0.4019
X0.9098 Y-0.4003
X0.891 Y-0.3995
X0.8721 Y-0.3997
X0.8533 Y-0.4009
X0.8345 Y-0.4029
X0.8159 Y-0.4058
X0.7974 Y-0.4097
X0.7792 Y-0.4144
X0.7611 Y-0.4201
X0.7434 Y-0.4266
X0.726 Y-0.4339
X0.709 Y-0.4421
X0.6924 Y-0.4511
X0.6762 Y-0.4609
X0.6606 Y-0.4715
X0.6456 Y-0.4828
X0.631 Y-0.4949
X0.617 Y-0.5077
X0.6038 Y-0.521
X0.5912 Y-0.535
X0.5792 Y-0.5497
X0.568 Y-0.5649
X0.5575 Y-0.5806
X0.5479 Y-0.5968
X0.539 Y-0.6136
X0.5309 Y-0.6307
X0.5237 Y-0.6481
X0.5174 Y-0.6658
X0.5119 Y-0.684
X0.5073 Y-0.7023
X0.5036 Y-0.7207
X0.5008 Y-0.7394
X0.4989 Y-0.7583
X0.4979 Y-0.7771
Y-0.7959
X0.4988 Y-0.8147
X0.5006 Y-0.8336
X0.5033 Y-0.8523
X0.5069 Y-0.8708
X0.5114 Y-0.8891
X0.5168 Y-0.9073
X0.5231 Y-0.9251
X0.5302 Y-0.9425
X0.5381 Y-0.9596
X0.547 Y-0.9764
X0.5566 Y-0.9927
X0.5669 Y-1.0084
X0.578 Y-1.0236
X0.5899 Y-1.0384
X0.6025 Y-1.0525
X0.6157 Y-1.0659
X0.6295 Y-1.0787
X0.6441 Y-1.0909
X0.6592 Y-1.1023
X0.6747 Y-1.1129
X0.6908 Y-1.1228
X0.7074 Y-1.1319
X0.7244 Y-1.1402
X0.7417 Y-1.1476
X0.7593 Y-1.1542
X0.7774 Y-1.1599
X0.7957 Y-1.1648
X0.8141 Y-1.1687
X0.8327 Y-1.1717
X0.8515 Y-1.1738
X0.8704 Y-1.1751
X0.8893 Y-1.1753
X0.9081 Y-1.1747
X0.927 Y-1.1732
X0.9467 Y-1.1706
X0.9676 Y-1.1668
X0.9892 Y-1.1618
X1.012 Y-1.1553
X1.0351 Y-1.1475
X1.0578 Y-1.1386
X1.0795 Y-1.1288
X1.1 Y-1.1184
X1.1194 Y-1.1073
X1.1374 Y-1.0957
X1.1543 Y-1.0838
X1.1701 Y-1.0714
X1.1849 Y-1.0585
X1.1989 Y-1.0451
X1.212 Y-1.0313
X1.2242 Y-1.017
X1.2357 Y-1.0023
X1.2463 Y-0.9872
X1.2562 Y-0.9716
X1.2594 Y-0.9659
X1.2609 Y-0.9631
X1.2623 Y-0.9604
X1.2636 Y-0.9575
X1.2753 Y-0.931
X1.2769 Y-0.927
X1.2797 Y-0.9188
X1.282 Y-0.9106
X1.2945 Y-0.8613
X1.2956 Y-0.8531
X1.2973 Y-0.8367
X1.2981 Y-0.8285
X1.3002 Y-0.8038
X1.3003 Y-0.7956
Y-0.7792
X1.3002 Y-0.771
X1.2981 Y-0.7463
X1.2973 Y-0.7381
X1.2956 Y-0.7217
X1.2945 Y-0.7135
X1.282 Y-0.6642
X1.2797 Y-0.656
X1.2769 Y-0.6478
X1.2753 Y-0.6439
X1.2589 Y-0.6065
X1.2553 Y-0.5985
X1.2507 Y-0.5895
X1.2465 Y-0.5821
X1.2197 Y-0.541
X1.2179 Y-0.5386
X1.1991 Y-0.5163
X1.1933 Y-0.5097
X1.1767 Y-0.4917
X1.169 Y-0.4835
X1.1605 Y-0.4762
X1.1359 Y-0.457
X1.1271 Y-0.4506
X1.1035 Y-0.4342
X1.1031 Y-0.4339
X1.0867 Y-0.425
X1.0785 Y-0.4206
X1.0732 Y-0.4178
X1.0457 Y-0.4043
X1.0372 Y-0.4013
X1.0129 Y-0.393
X0.9883 Y-0.3847
X0.9801 Y-0.3831
X0.9309 Y-0.3749
X0.9227 Y-0.3743
X0.9063 Y-0.3734
X0.8981 Y-0.3731
X0.8735
X0.8653 Y-0.3734
X0.8489 Y-0.3743
X0.8407 Y-0.3749
X0.7915 Y-0.3831
X0.7833 Y-0.3847
X0.7505 Y-0.3958
X0.7342 Y-0.4014
X0.726 Y-0.4043
X0.6985 Y-0.4178
X0.6932 Y-0.4206
X0.6768 Y-0.4295
X0.6686 Y-0.4339
X0.6681 Y-0.4342
X0.644 Y-0.451
X0.6358 Y-0.457
X0.6112 Y-0.4762
X0.6026 Y-0.4835
X0.5948 Y-0.4919
X0.5784 Y-0.5097
X0.5725 Y-0.5163
X0.5538 Y-0.5386
X0.5519 Y-0.541
X0.5251 Y-0.5821
X0.521 Y-0.5895
X0.5164 Y-0.5985
X0.5127 Y-0.6067
X0.4964 Y-0.6438
X0.4947 Y-0.6478
X0.4919 Y-0.656
X0.4897 Y-0.6642
X0.4772 Y-0.7135
X0.4761 Y-0.7217
X0.4743 Y-0.7381
X0.4735 Y-0.7463
X0.4715 Y-0.771
X0.4713 Y-0.7792
Y-0.7956
X0.4715 Y-0.8038
X0.4735 Y-0.8285
X0.4743 Y-0.8367
X0.4761 Y-0.8531
X0.4772 Y-0.8613
X0.4897 Y-0.9106
X0.4919 Y-0.9188
X0.4947 Y-0.927
X0.4964 Y-0.931
X0.5128 Y-0.9683
X0.5164 Y-0.9763
X0.521 Y-0.9853
X0.5251 Y-0.9928
X0.5519 Y-1.0338
X0.5538 Y-1.0362
X0.5725 Y-1.0585
X0.5784 Y-1.0651
X0.5949 Y-1.0831
X0.6026 Y-1.0913
X0.6112 Y-1.0986
X0.6358 Y-1.1178
X0.6445 Y-1.1242
X0.6682 Y-1.1406
X0.6686 Y-1.1409
X0.685 Y-1.1498
X0.6932 Y-1.1542
X0.6985 Y-1.157
X0.726 Y-1.1705
X0.7344 Y-1.1735
X0.7587 Y-1.1818
X0.7833 Y-1.1901
X0.7915 Y-1.1917
X0.8407 Y-1.1999
X0.8489 Y-1.2005
X0.8653 Y-1.2014
X0.8735 Y-1.2017
X0.8981
X0.9063 Y-1.2014
X0.9227 Y-1.2005
X0.9309 Y-1.1999
X0.9801 Y-1.1917
X0.9883 Y-1.1901
X1.0211 Y-1.179
X1.0375 Y-1.1734
X1.0457 Y-1.1705
X1.0732 Y-1.157
X1.0785 Y-1.1542
X1.0949 Y-1.1453
X1.1031 Y-1.1409
X1.1035 Y-1.1406
X1.1277 Y-1.1238
X1.1359 Y-1.1178
X1.1605 Y-1.0986
X1.169 Y-1.0913
X1.1769 Y-1.0829
X1.1933 Y-1.0651
X1.1991 Y-1.0585
X1.2179 Y-1.0362
X1.2197 Y-1.0338
X1.2465 Y-0.9928
X1.2507 Y-0.9853
X1.2553 Y-0.9763
X1.259 Y-0.9681
X1.2636 Y-0.9575
X1.2646 Y-0.9545
X1.2652 Y-0.9514
X1.2654 Y-0.9483
G3 X1.2567 Y-0.9294 I-0.025 J0.
G1 X1.2538 Y-0.9268 Z0.3646
X1.2509 Y-0.9243 Z0.3656
X1.2481 Y-0.922 Z0.3671
X1.2456 Y-0.9198 Z0.3691
X1.2433 Y-0.9178 Z0.3717
X1.2414 Y-0.9162 Z0.3746
X1.2399 Y-0.9148 Z0.378
X1.2387 Y-0.9138 Z0.3816
X1.238 Y-0.9132 Z0.3854
X1.2378 Y-0.913 Z0.3893
G0 Z1.3659
X2.5948 Y-0.874
Z0.9659
Z0.4143
G1 Z0.3893 F50.
X2.5945 Y-0.8741 Z0.3854
X2.5936 Y-0.8745 Z0.3816
X2.5923 Y-0.8752 Z0.378
X2.5905 Y-0.8761 Z0.3746
X2.5882 Y-0.8772 Z0.3717
X2.5855 Y-0.8785 Z0.3691
X2.5825 Y-0.8799 Z0.3671
X2.5792 Y-0.8815 Z0.3656
X2.5758 Y-0.8831 Z0.3646
X2.5722 Y-0.8848 Z0.3643
G3 X2.4556 Y-0.9576 I0.2774 J-0.5748
G1 X2.4521 Y-0.9605
X2.4517 Y-0.9665
X2.4525 Y-0.9724
X2.4542 Y-0.9782
X2.4562 Y-0.9838
X2.4587 Y-0.9895
X2.4614 Y-0.9949
X2.4644 Y-1.
X2.4677 Y-1.005
X2.4719 Y-1.0107
X2.4773 Y-1.0172
X2.4843 Y-1.0249
X2.4899 Y-1.0305
X2.4951 Y-1.0352
X2.5016 Y-1.0406
X2.5099 Y-1.0467
X2.5206 Y-1.0538
X2.5318 Y-1.0606
X2.5392 Y-1.0645
X2.5485 Y-1.0689
X2.5602 Y-1.0738
X2.5753 Y-1.0793
X2.5874 Y-1.083
X2.5973 Y-1.0855
X2.6096 Y-1.088
X2.6254 Y-1.0904
X2.6422 Y-1.0921
X2.6523 Y-1.0927
X2.6648
X2.6806 Y-1.092
X2.6998 Y-1.0903
X2.7098 Y-1.0889
X2.7219 Y-1.0865
X2.7372 Y-1.0828
X2.7567 Y-1.077
X2.7664 Y-1.0737
X2.7778 Y-1.0691
X2.7919 Y-1.0626
X2.8098 Y-1.0532
X2.8195 Y-1.0475
X2.8298 Y-1.0408
X2.8422 Y-1.0318
X2.8579 Y-1.0192
X2.8668 Y-1.0113
X2.8755 Y-1.0028
X2.8859 Y-0.9916
X2.8987 Y-0.9764
X2.9062 Y-0.9665
X2.9131 Y-0.9566
X2.921 Y-0.9437
X2.9305 Y-0.9265
X2.9362 Y-0.9149
X2.941 Y-0.9039
X2.9463 Y-0.8898
X2.9522 Y-0.8713
X2.9557 Y-0.8584
X2.9582 Y-0.8468
X2.9606 Y-0.832
X2.9628 Y-0.8129
X2.9638 Y-0.7992
X2.964 Y-0.7874
X2.9635 Y-0.7726
X2.962 Y-0.7535
X2.9602 Y-0.7395
X2.9582 Y-0.728
X2.9549 Y-0.7137
X2.9498 Y-0.6954
X2.9452 Y-0.6817
X2.9409 Y-0.6709
X2.935 Y-0.6576
X2.9265 Y-0.6408
X2.9192 Y-0.6279
X2.913 Y-0.6181
X2.9047 Y-0.6063
X2.8932 Y-0.5917
X2.8832 Y-0.5801
X2.8753 Y-0.5718
X2.865 Y-0.562
X2.851 Y-0.5499
X2.8387 Y-0.5403
X2.8294 Y-0.5337
X2.8174 Y-0.5261
X2.8016 Y-0.517
X2.7873 Y-0.5098
X2.777 Y-0.5052
X2.7639 Y-0.5001
X2.7467 Y-0.4943
X2.731 Y-0.4899
X2.7201 Y-0.4874
X2.7063 Y-0.4849
X2.6885 Y-0.4826
X2.6719 Y-0.4813
X2.6608 Y-0.4809
X2.6469 Y-0.4812
X2.6291 Y-0.4824
X2.6123 Y-0.4843
X2.6013 Y-0.4861
X2.5879 Y-0.489
X2.5708 Y-0.4936
X2.5543 Y-0.4988
X2.544 Y-0.5027
X2.5315 Y-0.5081
X2.5158 Y-0.5158
X2.5003 Y-0.5243
X2.491 Y-0.5301
X2.4798 Y-0.5377
X2.466 Y-0.5482
X2.4522 Y-0.5598
X2.4443 Y-0.5672
X2.4349 Y-0.5768
X2.4235 Y-0.5897
X2.412 Y-0.6039
X2.4057 Y-0.6126
X2.3983 Y-0.6238
X2.3897 Y-0.6385
X2.3811 Y-0.6551
X2.3766 Y-0.6647
X2.3716 Y-0.677
X2.366 Y-0.693
X2.3606 Y-0.7112
X2.3581 Y-0.7215
X2.3556 Y-0.7344
X2.3533 Y-0.751
X2.3515 Y-0.7702
X2.351 Y-0.7807
X2.3511 Y-0.7938
X2.3519 Y-0.8104
X2.3539 Y-0.8299
X2.3555 Y-0.8402
X2.3581 Y-0.8529
X2.3621 Y-0.8689
X2.3679 Y-0.888
X2.3802 Y-0.922
X2.3906 Y-0.9496
X2.398 Y-0.9667
X2.405 Y-0.9809
X2.4124 Y-0.9942
X2.4198 Y-1.0061
X2.4271 Y-1.0168
X2.4349 Y-1.0269
X2.4433 Y-1.0369
X2.4524 Y-1.0467
X2.4616 Y-1.0557
X2.4712 Y-1.0641
X2.4814 Y-1.0723
X2.4924 Y-1.0802
X2.504 Y-1.0878
X2.5159 Y-1.0947
X2.528 Y-1.1011
X2.5406 Y-1.1068
X2.554 Y-1.1122
X2.5683 Y-1.1172
X2.5824 Y-1.1214
X2.5966 Y-1.1248
X2.6115 Y-1.1276
X2.6275 Y-1.1299
X2.6429 Y-1.1313
X2.6582 Y-1.1319
X2.6738 Y-1.1318
X2.6906 Y-1.1309
X2.7066 Y-1.1292
X2.7221 Y-1.1268
X2.7378 Y-1.1236
X2.7543 Y-1.1194
X2.77 Y-1.1146
X2.7851 Y-1.1091
X2.8001 Y-1.1028
X2.8156 Y-1.0954
X2.8304 Y-1.0875
X2.8443 Y-1.0791
X2.8579 Y-1.07
X2.8717 Y-1.0597
X2.8848 Y-1.0489
X2.8969 Y-1.038
X2.9085 Y-1.0263
X2.9201 Y-1.0135
X2.931 Y-1.0004
X2.9408 Y-0.9872
X2.9499 Y-0.9735
X2.9589 Y-0.9587
X2.967 Y-0.9436
X2.974 Y-0.9287
X2.9804 Y-0.9135
X2.9863 Y-0.8973
X2.9913 Y-0.8809
X2.9954 Y-0.8649
X2.9987 Y-0.8487
X3.0013 Y-0.8316
X3.0031 Y-0.8146
X3.004 Y-0.798
X3.0041 Y-0.7815
X3.0034 Y-0.7643
X3.0018 Y-0.7472
X2.9995 Y-0.7308
X2.9964 Y-0.7146
X2.9924 Y-0.6979
X2.9875 Y-0.6813
X2.9821 Y-0.6657
X2.9759 Y-0.6504
X2.9687 Y-0.6348
X2.9608 Y-0.6195
X2.9524 Y-0.6051
X2.9434 Y-0.5913
X2.9333 Y-0.5774
X2.9226 Y-0.564
X2.9115 Y-0.5515
X2.9 Y-0.5397
X2.8875 Y-0.528
X2.8743 Y-0.5169
X2.8611 Y-0.5068
X2.8475 Y-0.4975
X2.833 Y-0.4884
X2.8179 Y-0.4801
X2.8029 Y-0.4727
X2.7878 Y-0.4662
X2.7718 Y-0.4601
X2.7554 Y-0.4549
X2.7392 Y-0.4505
X2.7232 Y-0.447
X2.7064 Y-0.4442
X2.6892 Y-0.4422
X2.6725 Y-0.4411
X2.656 Y-0.4407
X2.639 Y-0.4412
X2.6218 Y-0.4426
X2.6052 Y-0.4447
X2.589 Y-0.4476
X2.5724 Y-0.4513
X2.5557 Y-0.456
X2.5398 Y-0.4613
X2.5245 Y-0.4673
X2.509 Y-0.4741
X2.4935 Y-0.4819
X2.4789 Y-0.4902
X2.465 Y-0.499
X2.4512 Y-0.5088
X2.4375 Y-0.5194
X2.4248 Y-0.5304
X2.4129 Y-0.5417
X2.4012 Y-0.5539
X2.3898 Y-0.5671
X2.3794 Y-0.5803
X2.3699 Y-0.5937
X2.3609 Y-0.6079
X2.3523 Y-0.623
X2.3446 Y-0.6381
X2.3379 Y-0.653
X2.3318 Y-0.6687
X2.3262 Y-0.6852
X2.3216 Y-0.7014
X2.3179 Y-0.7174
X2.3149 Y-0.7339
X2.3127 Y-0.7512
X2.3113 Y-0.7681
X2.3108 Y-0.7845
X2.3111 Y-0.8012
X2.3122 Y-0.8186
X2.3142 Y-0.8362
X2.3179 Y-0.8586
X2.3236 Y-0.8856
X2.3303 Y-0.9106
X2.3376 Y-0.9335
X2.3452 Y-0.954
X2.353 Y-0.9722
X2.3613 Y-0.989
X2.3699 Y-1.0048
X2.3791 Y-1.0196
X2.3886 Y-1.0336
X2.3986 Y-1.0467
X2.409 Y-1.0591
X2.4199 Y-1.0709
X2.4313 Y-1.0821
X2.4432 Y-1.0926
X2.4556 Y-1.1026
X2.4685 Y-1.112
X2.4819 Y-1.1208
X2.4959 Y-1.1291
X2.5103 Y-1.1366
X2.5251 Y-1.1435
X2.5404 Y-1.1497
X2.5562 Y-1.1553
X2.5725 Y-1.1601
X2.5889 Y-1.1641
X2.6057 Y-1.1674
X2.623 Y-1.1699
X2.6405 Y-1.1715
X2.658 Y-1.1723
X2.6757
X2.6936 Y-1.1713
X2.7116 Y-1.1695
X2.7294 Y-1.1669
X2.7471 Y-1.1633
X2.7648 Y-1.1588
X2.7824 Y-1.1535
X2.7997 Y-1.1473
X2.8167 Y-1.1403
X2.8334 Y-1.1324
X2.8498 Y-1.1236
X2.8658 Y-1.1141
X2.8812 Y-1.1038
X2.8962 Y-1.0927
X2.9108 Y-1.0808
X2.9246 Y-1.0683
X2.9379 Y-1.0552
X2.9505 Y-1.0413
X2.9625 Y-1.0268
X2.9738 Y-1.0118
X2.9843 Y-0.9962
X2.994 Y-0.9801
X3.003 Y-0.9635
X3.0112 Y-0.9466
X3.0185 Y-0.9293
X3.025 Y-0.9116
X3.0306 Y-0.8935
X3.0353 Y-0.8752
X3.0391 Y-0.8569
X3.042 Y-0.8382
X3.0441 Y-0.8194
X3.0452 Y-0.8005
X3.0454 Y-0.7818
X3.0446 Y-0.7629
X3.043 Y-0.744
X3.0404 Y-0.7253
X3.0369 Y-0.7068
X3.0326 Y-0.6885
X3.0273 Y-0.6703
X3.0212 Y-0.6524
X3.0142 Y-0.6349
X3.0063 Y-0.6178
X2.9976 Y-0.6009
X2.9882 Y-0.5846
X2.9779 Y-0.5688
X2.9669 Y-0.5535
X2.9551 Y-0.5386
X2.9427 Y-0.5244
X2.9296 Y-0.5109
X2.9158 Y-0.498
X2.9014 Y-0.4858
X2.8864 Y-0.4742
X2.8709 Y-0.4635
X2.8549 Y-0.4535
X2.8384 Y-0.4443
X2.8215 Y-0.4359
X2.8042 Y-0.4283
X2.7866 Y-0.4216
X2.7686 Y-0.4157
X2.7503 Y-0.4108
X2.732 Y-0.4067
X2.7134 Y-0.4035
X2.6946 Y-0.4013
X2.6757 Y-0.3999
X2.6569 Y-0.3995
X2.638 Y-0.4
X2.6191 Y-0.4014
X2.6004 Y-0.4037
X2.5818 Y-0.4069
X2.5634 Y-0.4111
X2.5452 Y-0.4161
X2.5272 Y-0.422
X2.5096 Y-0.4288
X2.4924 Y-0.4364
X2.4755 Y-0.4449
X2.459 Y-0.4541
X2.443 Y-0.4642
X2.4276 Y-0.475
X2.4126 Y-0.4865
X2.3982 Y-0.4989
X2.3845 Y-0.5118
X2.3715 Y-0.5253
X2.359 Y-0.5396
X2.3473 Y-0.5545
X2.3363 Y-0.5698
X2.3262 Y-0.5856
X2.3167 Y-0.6021
X2.3081 Y-0.6189
X2.3003 Y-0.6361
X2.2934 Y-0.6536
X2.2873 Y-0.6715
X2.2821 Y-0.6897
X2.2777 Y-0.708
X2.2743 Y-0.7265
X2.2718 Y-0.7453
X2.2702 Y-0.7644
X2.2695 Y-0.7846
X2.2698 Y-0.8057
X2.2711 Y-0.828
X2.2738 Y-0.8516
X2.2776 Y-0.8756
X2.2826 Y-0.8993
X2.2886 Y-0.9222
X2.2955 Y-0.9441
X2.3032 Y-0.9649
X2.3115 Y-0.9845
X2.3205 Y-1.0031
X2.3301 Y-1.0206
X2.3403 Y-1.0374
X2.3512 Y-1.0534
X2.3627 Y-1.0686
X2.3747 Y-1.083
X2.3873 Y-1.0968
X2.4005 Y-1.1098
X2.4143 Y-1.1221
X2.4198 Y-1.1266
X2.4216 Y-1.1279
X2.4234 Y-1.1292
X2.4398 Y-1.1406
X2.4402 Y-1.1409
X2.4566 Y-1.1498
X2.4648 Y-1.1542
X2.4701 Y-1.157
X2.4976 Y-1.1705
X2.5061 Y-1.1735
X2.5304 Y-1.1818
X2.555 Y-1.1901
X2.5632 Y-1.1917
X2.6124 Y-1.1999
X2.6206 Y-1.2005
X2.637 Y-1.2014
X2.6452 Y-1.2017
X2.6698
X2.678 Y-1.2014
X2.6944 Y-1.2005
X2.7026 Y-1.1999
X2.7518 Y-1.1917
X2.76 Y-1.1901
X2.7928 Y-1.179
X2.8092 Y-1.1734
X2.8174 Y-1.1705
X2.8448 Y-1.157
X2.8501 Y-1.1542
X2.8665 Y-1.1453
X2.8747 Y-1.1409
X2.8752 Y-1.1406
X2.8993 Y-1.1238
X2.9075 Y-1.1178
X2.9321 Y-1.0986
X2.9407 Y-1.0913
X2.9485 Y-1.0829
X2.9649 Y-1.0651
X2.9708 Y-1.0585
X2.9895 Y-1.0362
X2.9914 Y-1.0338
X3.0182 Y-0.9928
X3.0223 Y-0.9853
X3.0269 Y-0.9763
X3.0306 Y-0.9681
X3.0469 Y-0.931
X3.0486 Y-0.927
X3.0514 Y-0.9188
X3.0537 Y-0.9106
X3.0661 Y-0.8613
X3.0672 Y-0.8531
X3.069 Y-0.8367
X3.0698 Y-0.8285
X3.0718 Y-0.8038
X3.072 Y-0.7956
Y-0.7792
X3.0718 Y-0.771
X3.0698 Y-0.7463
X3.069 Y-0.7381
X3.0672 Y-0.7217
X3.0661 Y-0.7135
X3.0537 Y-0.6642
X3.0514 Y-0.656
X3.0486 Y-0.6478
X3.0469 Y-0.6439
X3.0305 Y-0.6065
X3.0269 Y-0.5985
X3.0223 Y-0.5895
X3.0182 Y-0.5821
X2.9914 Y-0.541
X2.9895 Y-0.5386
X2.9708 Y-0.5163
X2.9649 Y-0.5097
X2.9484 Y-0.4917
X2.9407 Y-0.4835
X2.9321 Y-0.4762
X2.9075 Y-0.457
X2.8988 Y-0.4506
X2.8752 Y-0.4342
X2.8747 Y-0.4339
X2.8583 Y-0.425
X2.8501 Y-0.4206
X2.8448 Y-0.4178
X2.8174 Y-0.4043
X2.8089 Y-0.4013
X2.7846 Y-0.393
X2.76 Y-0.3847
X2.7518 Y-0.3831
X2.7026 Y-0.3749
X2.6944 Y-0.3743
X2.678 Y-0.3734
X2.6698 Y-0.3731
X2.6452
X2.637 Y-0.3734
X2.6206 Y-0.3743
X2.6124 Y-0.3749
X2.5632 Y-0.3831
X2.555 Y-0.3847
X2.5222 Y-0.3958
X2.5058 Y-0.4014
X2.4976 Y-0.4043
X2.4701 Y-0.4178
X2.4648 Y-0.4206
X2.4484 Y-0.4295
X2.4402 Y-0.4339
X2.4398 Y-0.4342
X2.4156 Y-0.451
X2.4074 Y-0.457
X2.3828 Y-0.4762
X2.3743 Y-0.4835
X2.3664 Y-0.4919
X2.35 Y-0.5097
X2.3442 Y-0.5163
X2.3254 Y-0.5386
X2.3236 Y-0.541
X2.2968 Y-0.5821
X2.2926 Y-0.5895
X2.2881 Y-0.5985
X2.2843 Y-0.6067
X2.268 Y-0.6439
X2.2664 Y-0.6478
X2.2636 Y-0.656
X2.2613 Y-0.6642
X2.2488 Y-0.7135
X2.2477 Y-0.7217
X2.246 Y-0.7381
X2.2452 Y-0.7463
X2.2431 Y-0.771
X2.243 Y-0.7792
Y-0.7956
X2.2431 Y-0.8038
X2.2452 Y-0.8285
X2.246 Y-0.8367
X2.2477 Y-0.8531
X2.2488 Y-0.8613
X2.2613 Y-0.9106
X2.2636 Y-0.9188
X2.2664 Y-0.927
X2.268 Y-0.931
X2.2844 Y-0.9683
X2.2881 Y-0.9763
X2.2926 Y-0.9853
X2.2968 Y-0.9928
X2.3236 Y-1.0338
X2.3254 Y-1.0362
X2.3442 Y-1.0585
X2.35 Y-1.0651
X2.3666 Y-1.0831
X2.3743 Y-1.0913
X2.3828 Y-1.0986
X2.4074 Y-1.1178
X2.4162 Y-1.1242
X2.4234 Y-1.1292
G3 X2.4524 Y-1.1279 I0.0136 J0.021
G1 X2.4555 Y-1.1255 Z0.3646
X2.4585 Y-1.1232 Z0.3656
X2.4613 Y-1.1209 Z0.3671
X2.464 Y-1.1189 Z0.3691
X2.4663 Y-1.117 Z0.3717
X2.4683 Y-1.1155 Z0.3746
X2.47 Y-1.1142 Z0.378
X2.4711 Y-1.1133 Z0.3816
X2.4719 Y-1.1127 Z0.3854
X2.4721 Y-1.1125 Z0.3893
G0 Z1.3659
(2D CONTOUR6)
G64 P0.0004 Q0.0004
G0 X3.0087 Y-0.8124
Z1.3659
Z0.9659
G1 Z0.8053 F80.
Z0.3793
G18 G2 X3.0337 Z0.3543 I0.025 K0. F10.
G1 X3.0587
G17 G3 X3.0837 Y-0.7874 I0. J0.025
X2.2313 I-0.4262 J0.
X3.0837 I0.4262 J0.
X2.2313 I-0.4262 J0.
X3.0837 I0.4262 J0.
X3.0587 Y-0.7624 I-0.025 J0.
G1 X3.0337
G18 G3 X3.0087 Z0.3793 I0. K0.025
G0 Z0.9659
X1.237 Y-0.8124
G1 Z0.8053 F80.
Z0.3793
G2 X1.262 Z0.3543 I0.025 K0. F10.
G1 X1.287
G17 G3 X1.312 Y-0.7874 I0. J0.025
X0.4596 I-0.4262 J0.
X1.312 I0.4262 J0.
X0.4596 I-0.4262 J0.
X1.312 I0.4262 J0.
X1.287 Y-0.7624 I-0.025 J0.
G1 X1.262
G18 G3 X1.237 Z0.3793 I0. K0.025
G0 Z1.3659
G17
(2D ADAPTIVE ROUGHING7)
G64 P0.004 Q0.004
G0 X0.1726 Y-1.3788
Z1.3659
Z0.9659
Z0.6799
G1 Z0.6549 F50.
Y-1.3785 Z0.651
X0.1729 Y-1.3776 Z0.6472
X0.1732 Y-1.3762 Z0.6436
X0.1737 Y-1.3742 Z0.6402
X0.1744 Y-1.3717 Z0.6372
X0.1751 Y-1.3688 Z0.6347
X0.1759 Y-1.3656 Z0.6326
X0.1768 Y-1.3621 Z0.6311
X0.1778 Y-1.3584 Z0.6302
X0.1788 Y-1.3546 Z0.6299
G3 X0.1983 Y-1.2185 I-0.6183 J0.1584
G1 Y-1.214
X0.1991 Y-1.2095
X0.212 Y-1.1757
X0.2157 Y-1.171
X0.2192 Y-1.1661
X0.2224 Y-1.161
X0.2254 Y-1.1558
X0.2281 Y-1.1505
X0.2306 Y-1.145
X0.2329 Y-1.1395
X0.235 Y-1.1339
X0.2369 Y-1.1282
X0.2387 Y-1.1224
X0.2402 Y-1.1166
X0.2415 Y-1.1108
X0.2428 Y-1.1049
X0.2439 Y-1.099
X0.2449 Y-1.0931
X0.2457 Y-1.0872
X0.2465 Y-1.0812
X0.2472 Y-1.0753
X0.2478 Y-1.0693
X0.2483 Y-1.0633
X0.2487 Y-1.0573
X0.249 Y-1.0513
X0.2493 Y-1.0453
X0.2494 Y-1.0393
X0.2495 Y-1.0333
Y-1.027
Y-1.0204
X0.2493 Y-1.0133
X0.249 Y-1.002
X0.2475 Y-0.9658
X0.2457 Y-0.9297
X0.2435 Y-0.8935
X0.2417 Y-0.8574
X0.2413 Y-0.8212
X0.2419 Y-0.7851
X0.2441 Y-0.7489
X0.2482 Y-0.713
X0.2536 Y-0.6772
X0.2613 Y-0.6419
X0.2708 Y-0.607
X0.2819 Y-0.5725
X0.2953 Y-0.5389
X0.3103 Y-0.506
X0.3271 Y-0.4739
X0.3459 Y-0.443
X0.3659 Y-0.4129
X0.3881 Y-0.3843
X0.4117 Y-0.3568
X0.4366 Y-0.3306
X0.4633 Y-0.3062
X0.491 Y-0.283
X0.5202 Y-0.2615
X0.5505 Y-0.2418
X0.5817 Y-0.2234
X0.6141 Y-0.2074
X0.6473 Y-0.193
X0.6812 Y-0.1803
X0.7159 Y-0.17
X0.751 Y-0.1612
X0.7866 Y-0.1546
X0.8225 Y-0.1502
X0.8585 Y-0.1472
X0.8947 Y-0.1469
X0.9308 Y-0.1485
X0.9669 Y-0.1519
X1.0026 Y-0.1577
X1.038 Y-0.1651
X1.0729 Y-0.1748
X1.1071 Y-0.1865
X1.1408 Y-0.1996
X1.1735 Y-0.2151
X1.2054 Y-0.2323
X1.2362 Y-0.2512
X1.2658 Y-0.272
X1.2945 Y-0.294
X1.3216 Y-0.318
X1.3473 Y-0.3434
X1.3719 Y-0.37
X1.3945 Y-0.3983
X1.4157 Y-0.4276
X1.4352 Y-0.458
X1.4528 Y-0.4897
X1.469 Y-0.522
X1.4829 Y-0.5555
X1.4949 Y-0.5896
X1.5054 Y-0.6242
X1.5134 Y-0.6595
X1.5197 Y-0.6951
X1.5239 Y-0.7311
X1.5258 Y-0.7672
X1.5263 Y-0.8034
X1.5242 Y-0.8395
X1.5202 Y-0.8754
X1.5144 Y-0.9112
X1.5062 Y-0.9464
X1.4964 Y-0.9812
X1.4844 Y-1.0154
X1.4704 Y-1.0487
X1.4551 Y-1.0815
X1.4374 Y-1.1131
X1.4181 Y-1.1437
X1.3972 Y-1.1732
X1.3745 Y-1.2013
X1.3504 Y-1.2284
X1.3247 Y-1.2539
X1.2976 Y-1.2778
X1.2695 Y-1.3006
X1.2398 Y-1.3213
X1.2091 Y-1.3404
X1.1774 Y-1.3578
X1.1446 Y-1.3732
X1.1112 Y-1.3871
X1.077 Y-1.3987
X1.0421 Y-1.4084
X1.0069 Y-1.4166
X0.9711 Y-1.4222
X0.9351 Y-1.426
X0.899 Y-1.4279
X0.8628 Y-1.4274
X0.8267 Y-1.4253
X0.7908 Y-1.4208
X0.7552 Y-1.4143
X0.7199 Y-1.4063
X0.6853 Y-1.3957
X0.6513 Y-1.3834
X0.618 Y-1.3693
X0.5856 Y-1.353
X0.554 Y-1.3355
X0.5237 Y-1.3157
X0.4945 Y-1.2943
X0.4663 Y-1.2717
X0.4531 Y-1.2593
X0.4467 Y-1.2529
X0.4293 Y-1.2212
X0.4223 Y-1.1857
X0.415 Y-1.1503
X0.4103 Y-1.1144
X0.4095 Y-1.1054
G3 X0.3898 Y-1.0841 I-0.0248 J-0.0032
G1 X0.386 Y-1.0833 Z0.6302
X0.3822 Y-1.0825 Z0.6311
X0.3787 Y-1.0818 Z0.6326
X0.3754 Y-1.0811 Z0.6347
X0.3725 Y-1.0805 Z0.6372
X0.37 Y-1.08 Z0.6402
X0.368 Y-1.0795 Z0.6436
X0.3665 Y-1.0792 Z0.6472
X0.3656 Y-1.0791 Z0.651
X0.3653 Y-1.079 Z0.6549
G0 Z1.3659
X1.9442 Y-1.3788
Z0.9659
Z0.6799
G1 Z0.6549 F50.
X1.9443 Y-1.3785 Z0.651
X1.9445 Y-1.3776 Z0.6472
X1.9449 Y-1.3762 Z0.6436
X1.9454 Y-1.3742 Z0.6402
X1.946 Y-1.3717 Z0.6372
X1.9468 Y-1.3688 Z0.6347
X1.9476 Y-1.3656 Z0.6326
X1.9485 Y-1.3621 Z0.6311
X1.9494 Y-1.3584 Z0.6302
X1.9504 Y-1.3546 Z0.6299
G3 X1.97 Y-1.2185 I-0.6183 J0.1584
G1 Y-1.214
X1.9708 Y-1.2095
X1.9836 Y-1.1757
X1.9874 Y-1.171
X1.9908 Y-1.1661
X1.994 Y-1.161
X1.997 Y-1.1558
X1.9998 Y-1.1505
X2.0023 Y-1.145
X2.0046 Y-1.1395
X2.0067 Y-1.1339
X2.0086 Y-1.1282
X2.0103 Y-1.1224
X2.0118 Y-1.1166
X2.0132 Y-1.1108
X2.0144 Y-1.1049
X2.0155 Y-1.099
X2.0165 Y-1.0931
X2.0174 Y-1.0872
X2.0182 Y-1.0812
X2.0189 Y-1.0753
X2.0194 Y-1.0693
X2.0199 Y-1.0633
X2.0203 Y-1.0573
X2.0207 Y-1.0513
X2.0209 Y-1.0453
X2.0211 Y-1.0393
X2.0212 Y-1.0333
Y-1.027
Y-1.0204
X2.021 Y-1.0133
X2.0207 Y-1.002
X2.0192 Y-0.9658
X2.0173 Y-0.9297
X2.0152 Y-0.8935
X2.0134 Y-0.8574
X2.013 Y-0.8212
X2.0136 Y-0.7851
X2.0158 Y-0.7489
X2.0199 Y-0.713
X2.0252 Y-0.6772
X2.033 Y-0.6419
X2.0425 Y-0.607
X2.0536 Y-0.5725
X2.067 Y-0.5389
X2.0819 Y-0.506
X2.0988 Y-0.4739
X2.1176 Y-0.443
X2.1376 Y-0.4129
X2.1597 Y-0.3843
X2.1833 Y-0.3568
X2.2083 Y-0.3306
X2.2349 Y-0.3062
X2.2627 Y-0.283
X2.2918 Y-0.2615
X2.3222 Y-0.2418
X2.3533 Y-0.2234
X2.3858 Y-0.2074
X2.419 Y-0.193
X2.4529 Y-0.1803
X2.4875 Y-0.17
X2.5226 Y-0.1612
X2.5582 Y-0.1546
X2.5941 Y-0.1502
X2.6302 Y-0.1472
X2.6664 Y-0.1469
X2.7025 Y-0.1485
X2.7385 Y-0.1519
X2.7742 Y-0.1577
X2.8097 Y-0.1651
X2.8445 Y-0.1748
X2.8788 Y-0.1865
X2.9125 Y-0.1996
X2.9452 Y-0.2151
X2.977 Y-0.2323
X3.0079 Y-0.2512
X3.0375 Y-0.272
X3.0662 Y-0.294
X3.0933 Y-0.318
X3.119 Y-0.3434
X3.1436 Y-0.37
X3.1662 Y-0.3983
X3.1874 Y-0.4276
X3.2069 Y-0.458
X3.2244 Y-0.4897
X3.2406 Y-0.522
X3.2545 Y-0.5555
X3.2666 Y-0.5896
X3.277 Y-0.6242
X3.285 Y-0.6595
X3.2913 Y-0.6951
X3.2955 Y-0.7311
X3.2975 Y-0.7672
X3.298 Y-0.8034
X3.2959 Y-0.8395
X3.2918 Y-0.8754
X3.2861 Y-0.9112
X3.2778 Y-0.9464
X3.268 Y-0.9812
X3.2561 Y-1.0154
X3.2421 Y-1.0487
X3.2268 Y-1.0815
X3.209 Y-1.1131
X3.1897 Y-1.1436
X3.1689 Y-1.1732
X3.1461 Y-1.2013
X3.1221 Y-1.2284
X3.0964 Y-1.2539
X3.0692 Y-1.2778
X3.0412 Y-1.3006
X3.0115 Y-1.3213
X2.9807 Y-1.3404
X2.949 Y-1.3578
X2.9163 Y-1.3732
X2.8829 Y-1.3871
X2.8486 Y-1.3987
X2.8138 Y-1.4084
X2.7785 Y-1.4166
X2.7428 Y-1.4222
X2.7068 Y-1.426
X2.6707 Y-1.4279
X2.6345 Y-1.4274
X2.5984 Y-1.4253
X2.5624 Y-1.4208
X2.5269 Y-1.4143
X2.4916 Y-1.4063
X2.457 Y-1.3957
X2.4229 Y-1.3834
X2.3896 Y-1.3693
X2.3573 Y-1.353
X2.3257 Y-1.3355
X2.2954 Y-1.3157
X2.2662 Y-1.2943
X2.238 Y-1.2717
X2.2247 Y-1.2593
X2.2184 Y-1.2529
X2.2009 Y-1.2212
X2.1939 Y-1.1857
X2.1866 Y-1.1503
X2.182 Y-1.1144
X2.1811 Y-1.1054
G3 X2.1615 Y-1.0841 I-0.0248 J-0.0032
G1 X2.1576 Y-1.0833 Z0.6302
X2.1539 Y-1.0825 Z0.6311
X2.1503 Y-1.0818 Z0.6326
X2.1471 Y-1.0811 Z0.6347
X2.1442 Y-1.0805 Z0.6372
X2.1417 Y-1.08 Z0.6402
X2.1397 Y-1.0795 Z0.6436
X2.1382 Y-1.0792 Z0.6472
X2.1373 Y-1.0791 Z0.651
X2.137 Y-1.079 Z0.6549
G0 Z1.3659
(2D CONTOUR7)
G64 P0.0004 Q0.0004
G0 X0.8826 Y0.1004
Z1.3659
Z0.9659
G1 Z0.8053 F80.
Z0.5762
Y0.1001 Z0.5723 F50.
Y0.0992 Z0.5685
X0.8825 Y0.0977 Z0.5648
Y0.0957 Z0.5615
X0.8824 Y0.0931 Z0.5585
Y0.0901 Z0.556
X0.8823 Y0.0868 Z0.5539
X0.8822 Y0.0832 Z0.5524
X0.8821 Y0.0794 Z0.5515
X0.882 Y0.0755 Z0.5512
X0.8814 Y0.0505
G3 X0.9058 Y0.0249 I0.025 J-0.0006
G2 X0.8659 Y-1.5997 I-0.0199 J-0.8123
X0.9058 Y0.0249 I0.0199 J0.8123
X0.8659 Y-1.5997 I-0.0199 J-0.8123
X0.9058 Y0.0249 I0.0199 J0.8123
G3 X0.9314 Y0.0492 I0.0006 J0.025
G1 X0.932 Y0.0742
X0.9321 Y0.0781 Z0.5515
X0.9322 Y0.0819 Z0.5524
X0.9323 Y0.0856 Z0.5539
Y0.0889 Z0.556
X0.9324 Y0.0919 Z0.5585
X0.9325 Y0.0944 Z0.5615
Y0.0965 Z0.5648
X0.9326 Y0.098 Z0.5685
Y0.0989 Z0.5723
Y0.0992 Z0.5762
G0 Z0.9659
X2.6825 Y-1.6749
G1 Z0.8053 F80.
Z0.5762
G19 G3 Y-1.6499 Z0.5512 J0.025 K0. F50.
G1 Y-1.6249
G17 G3 X2.6575 Y-1.5999 I-0.025 J0.
G2 Y0.0251 I0. J0.8125
Y-1.5999 I0. J-0.8125
Y0.0251 I0. J0.8125
Y-1.5999 I0. J-0.8125
G3 X2.6325 Y-1.6249 I0. J-0.025
G1 Y-1.6499
G19 G2 Y-1.6749 Z0.5762 J0. K0.025
G0 Z1.3659
G17
M5
G53 G0 Z0.
(2D CHAMFER4)
M9
M1
T13 M6
T33
S7500 M3
G17 G90 G94
G54
M8
G0 X0.9076 Y-0.0137
G43 Z1.3659 H13
G0 Z0.9659
G1 Z0.8459 F80.
Z0.5299
G2 X0.864 Y-1.5611 I-0.0218 J-0.7737 F50.
X0.9076 Y-0.0137 I0.0218 J0.7737
G0 Z0.9659
X2.6575 Y-1.5614
G1 Z0.8459 F80.
Z0.5299
G2 Y-0.0134 I0. J0.774 F50.
Y-1.5614 I0. J-0.774
G0 Z1.3659
(2D CHAMFER5)
G0 X3.1222 Y-0.7874
Z1.3659
Z0.9659
G1 Z0.8459 F80.
Z0.5499
G3 X2.1928 I-0.4647 J0. F50.
X3.1222 I0.4647 J0.
G0 Z0.9659
X1.3505
G1 Z0.8459 F80.
Z0.5499
G3 X0.4211 I-0.4647 J0. F50.
X1.3505 I0.4647 J0.
G0 Z1.3659
X2.9639 Y-0.7657
Z0.9659
G1 Z0.8459 F80.
Z0.2743
G3 X2.351 Y-0.8091 I-0.3064 J-0.0217 F50.
X2.9639 Y-0.7657 I0.3064 J0.0217
G0 Z0.9659
X1.193 Y-0.7874
G1 Z0.8459 F80.
Z0.2743
G3 X0.5786 I-0.3072 J0. F50.
X1.193 I0.3072 J0.
G0 Z1.3659
M5
M9
G53 G0 Z0.
M30
%
