%
(FIXTURE PLATE SETUP)
(T32 D=0.1875 CR=0. - ZMIN=-0.55 - FLAT END MILL)
(T51 D=0.201 CR=0. TAPER=118DEG - ZMIN=-0.6104 - DRILL)
G90 G94 G17 G91.1
G20
G53 G0 Z0.
(DRILL4)
T51 M6
T32
S5000 M3
G17 G90 G94
G54
M8
G0 X1.2945 Y-3.1798
G43 Z1.0903 H51
G0 Z0.6903
G98 G81 X1.2945 Y-3.1798 Z-0.6104 R0.2 F25.
X4.7142 Y-4.0722
X4.4791 Y-1.0363
X8.0005 Y-0.7364
G80
G0 Z1.0903
M5
G53 G0 Z0.
(2D CONTOUR8)
M9
M1
T32 M6
T51
S7500 M3
G17 G90 G94
G54
G64 P0.0004 Q0.0004
M8
G0 X4.5034 Y-1.0371
G43 Z1.0903 H32
G0 Z0.2
G1 Z0.0375 F80.
Z-0.0917
G3 X4.4548 Y-1.0355 I-0.0243 J0.0008 F10.
X4.5034 Y-1.0371 I0.0243 J-0.0008
X4.4548 Y-1.0355 I-0.0243 J0.0008
X4.5034 Y-1.0371 I0.0243 J-0.0008
G1 Z-0.1833 F80.
G3 X4.4548 Y-1.0355 I-0.0243 J0.0008 F10.
X4.5034 Y-1.0371 I0.0243 J-0.0008
X4.4548 Y-1.0355 I-0.0243 J0.0008
X4.5034 Y-1.0371 I0.0243 J-0.0008
G1 Z-0.275 F80.
G3 X4.4548 Y-1.0355 I-0.0243 J0.0008 F10.
X4.5034 Y-1.0371 I0.0243 J-0.0008
X4.4548 Y-1.0355 I-0.0243 J0.0008
X4.5034 Y-1.0371 I0.0243 J-0.0008
G1 Z-0.3667 F80.
G3 X4.4548 Y-1.0355 I-0.0243 J0.0008 F10.
X4.5034 Y-1.0371 I0.0243 J-0.0008
X4.4548 Y-1.0355 I-0.0243 J0.0008
X4.5034 Y-1.0371 I0.0243 J-0.0008
G1 Z-0.4583 F80.
G3 X4.4548 Y-1.0355 I-0.0243 J0.0008 F10.
X4.5034 Y-1.0371 I0.0243 J-0.0008
X4.4548 Y-1.0355 I-0.0243 J0.0008
X4.5034 Y-1.0371 I0.0243 J-0.0008
G1 Z-0.55 F80.
G3 X4.4548 Y-1.0355 I-0.0243 J0.0008 F10.
X4.5034 Y-1.0371 I0.0243 J-0.0008
X4.4548 Y-1.0355 I-0.0243 J0.0008
X4.5034 Y-1.0371 I0.0243 J-0.0008
G0 Z0.6903
X4.7383 Y-4.0755
Z0.2
G1 Z0.0375 F80.
Z-0.0917
G3 X4.6901 Y-4.0689 I-0.0241 J0.0033 F10.
X4.7383 Y-4.0755 I0.0241 J-0.0033
X4.6901 Y-4.0689 I-0.0241 J0.0033
X4.7383 Y-4.0755 I0.0241 J-0.0033
G1 Z-0.1833 F80.
G3 X4.6901 Y-4.0689 I-0.0241 J0.0033 F10.
X4.7383 Y-4.0755 I0.0241 J-0.0033
X4.6901 Y-4.0689 I-0.0241 J0.0033
X4.7383 Y-4.0755 I0.0241 J-0.0033
G1 Z-0.275 F80.
G3 X4.6901 Y-4.0689 I-0.0241 J0.0033 F10.
X4.7383 Y-4.0755 I0.0241 J-0.0033
X4.6901 Y-4.0689 I-0.0241 J0.0033
X4.7383 Y-4.0755 I0.0241 J-0.0033
G1 Z-0.3667 F80.
G3 X4.6901 Y-4.0689 I-0.0241 J0.0033 F10.
X4.7383 Y-4.0755 I0.0241 J-0.0033
X4.6901 Y-4.0689 I-0.0241 J0.0033
X4.7383 Y-4.0755 I0.0241 J-0.0033
G1 Z-0.4583 F80.
G3 X4.6901 Y-4.0689 I-0.0241 J0.0033 F10.
X4.7383 Y-4.0755 I0.0241 J-0.0033
X4.6901 Y-4.0689 I-0.0241 J0.0033
X4.7383 Y-4.0755 I0.0241 J-0.0033
G1 Z-0.55 F80.
G3 X4.6901 Y-4.0689 I-0.0241 J0.0033 F10.
X4.7383 Y-4.0755 I0.0241 J-0.0033
X4.6901 Y-4.0689 I-0.0241 J0.0033
X4.7383 Y-4.0755 I0.0241 J-0.0033
G0 Z0.6903
X1.3189 Y-3.1798
Z0.2
G1 Z0.0375 F80.
Z-0.0917
G3 X1.2701 I-0.0244 J0. F10.
X1.3189 I0.0244 J0.
X1.2701 I-0.0244 J0.
X1.3189 I0.0244 J0.
G1 Z-0.1833 F80.
G3 X1.2701 I-0.0244 J0. F10.
X1.3189 I0.0244 J0.
X1.2701 I-0.0244 J0.
X1.3189 I0.0244 J0.
G1 Z-0.275 F80.
G3 X1.2701 I-0.0244 J0. F10.
X1.3189 I0.0244 J0.
X1.2701 I-0.0244 J0.
X1.3189 I0.0244 J0.
G1 Z-0.3667 F80.
G3 X1.2701 I-0.0244 J0. F10.
X1.3189 I0.0244 J0.
X1.2701 I-0.0244 J0.
X1.3189 I0.0244 J0.
G1 Z-0.4583 F80.
G3 X1.2701 I-0.0244 J0. F10.
X1.3189 I0.0244 J0.
X1.2701 I-0.0244 J0.
X1.3189 I0.0244 J0.
G1 Z-0.55 F80.
G3 X1.2701 I-0.0244 J0. F10.
X1.3189 I0.0244 J0.
X1.2701 I-0.0244 J0.
X1.3189 I0.0244 J0.
G0 Z0.6903
X8.0249 Y-0.7364
Z0.2
G1 Z0.0375 F80.
Z-0.0917
G3 X7.9762 I-0.0244 J0. F10.
X8.0249 I0.0244 J0.
X7.9762 I-0.0244 J0.
X8.0249 I0.0244 J0.
G1 Z-0.1833 F80.
G3 X7.9762 I-0.0244 J0. F10.
X8.0249 I0.0244 J0.
X7.9762 I-0.0244 J0.
X8.0249 I0.0244 J0.
G1 Z-0.275 F80.
G3 X7.9762 I-0.0244 J0. F10.
X8.0249 I0.0244 J0.
X7.9762 I-0.0244 J0.
X8.0249 I0.0244 J0.
G1 Z-0.3667 F80.
G3 X7.9762 I-0.0244 J0. F10.
X8.0249 I0.0244 J0.
X7.9762 I-0.0244 J0.
X8.0249 I0.0244 J0.
G1 Z-0.4583 F80.
G3 X7.9762 I-0.0244 J0. F10.
X8.0249 I0.0244 J0.
X7.9762 I-0.0244 J0.
X8.0249 I0.0244 J0.
G1 Z-0.55 F80.
G3 X7.9762 I-0.0244 J0. F10.
X8.0249 I0.0244 J0.
X7.9762 I-0.0244 J0.
X8.0249 I0.0244 J0.
G0 Z1.0903
M5
M9
G53 G0 Z0.
M30
%
