%
(MAIN PIVOT TUBE MACHINING)
(T22 D=0.1875 CR=0.008 - ZMIN=-0.315 - BULLNOSE END MILL)
(T103 D=0.3 CR=0. TAPER=135DEG - ZMIN=-1.2771 - DRILL)
G90 G94 G17 G91.1
G20
G53 G0 Z0.
(DRILL1)
T103 M6
T22
S1000 M3
G17 G90 G94
G54
M8
G0 X0. Y0.
G43 Z0.6 H103
G0 Z0.2
G98 G81 X0. Y0. Z-1.2771 R0.2 F3.
G80
G0 Z0.6
M5
G53 G0 Z0.
(2D CONTOUR2)
M9
M1
T22 M6
T103
S7500 M3
G17 G90 G94
G54
G64 P0.0004 Q0.0004
M8
G0 X0.0037 Y-0.01
G43 Z0.6 H22
G0 Z0.2
G1 Z-0.305 F80.
G18 G2 X0.0137 Z-0.315 I0.01 K0. F5.
G1 X0.0537
G17 G3 X0.0637 Y0. I0. J0.01
X-0.0637 I-0.0637 J0.
X0.0637 I0.0637 J0.
X-0.0637 I-0.0637 J0.
X0.0637 I0.0637 J0.
X0.0537 Y0.01 I-0.01 J0.
G1 X0.0137
G18 G3 X0.0037 Z-0.305 I0. K0.01
G0 Z0.6
G17
M5
M9
G53 G0 Z0.
M30
%
