%
(1 CIRCLE SQUARE V1)
(MACHINE)
(  VENDOR CALLUM)
(  MODEL MILL R1)
(  DESCRIPTION 14X8X14 MILL)
(T21 D=0.375 CR=0. - ZMIN=0. - FLAT END MILL)
G90 G94 G17 G91.1
G20
G53 G0 Z0.
(FACE1)
T21 M6
S5000 M3
G17 G90 G94
G54
G64 P0.0004 Q0.0004
M8
G0 X1.3237 Y-1.0481
G43 Z1.39 H21
G0 Z0.99
G1 Z0.7875 F13.333
G18 G3 X1.2862 Z0.75 I-0.0375 K0. F40.
G1 X1.18
X-0.1
G3 X-0.1375 Z0.7875 I0. K0.0375
G0 Z0.99
X1.3237 Y-0.8312
G1 Z0.7875 F13.333
G3 X1.2862 Z0.75 I-0.0375 K0. F40.
G1 X1.18
X-0.1
G3 X-0.1375 Z0.7875 I0. K0.0375
G0 Z0.99
X1.3237 Y-0.6144
G1 Z0.7875 F13.333
G3 X1.2862 Z0.75 I-0.0375 K0. F40.
G1 X1.18
X-0.1
G3 X-0.1375 Z0.7875 I0. K0.0375
G0 Z0.99
X1.3237 Y-0.3976
G1 Z0.7875 F13.333
G3 X1.2862 Z0.75 I-0.0375 K0. F40.
G1 X1.18
X-0.1
G3 X-0.1375 Z0.7875 I0. K0.0375
G0 Z0.99
X1.3237 Y-0.1808
G1 Z0.7875 F13.333
G3 X1.2862 Z0.75 I-0.0375 K0. F40.
G1 X1.18
X-0.1
G3 X-0.1375 Z0.7875 I0. K0.0375
G0 Z1.39
G17
(ADAPTIVE1)
G64 P0.004 Q0.004
G0 X-0.0378 Y-1.5111
Z1.39
Z0.99
Z0.125
G1 Z0.0875 F40.
X-0.0377 Y-1.5108 Z0.083
X-0.0375 Y-1.51 Z0.0785
X-0.0372 Y-1.5087 Z0.0742
X-0.0367 Y-1.5069 Z0.0701
X-0.0361 Y-1.5046 Z0.0662
X-0.0354 Y-1.5019 Z0.0626
X-0.0346 Y-1.4988 Z0.0594
X-0.0337 Y-1.4954 Z0.0566
X-0.0328 Y-1.4916 Z0.0543
X-0.0318 Y-1.4876 Z0.0524
X-0.0307 Y-1.4834 Z0.0511
X-0.0296 Y-1.4791 Z0.0503
X-0.0285 Y-1.4747 Z0.05
G3 X0.0009 Y-1.2706 I-0.9274 J0.2376
G1 Y-1.2646
X-0.0026 Y-1.2535
X-0.0082 Y-1.2433
X-0.0157 Y-1.2344
X-0.0248 Y-1.2272
X-0.0352 Y-1.222
X-0.0429 Y-1.219
X-0.0541 Y-1.2133
X-0.0554 Y-1.2126
X-0.0653 Y-1.207
X-0.0735 Y-1.2014
X-0.0996 Y-1.1797
X-0.1214 Y-1.1535
X-0.127 Y-1.1453
X-0.1326 Y-1.1354
X-0.1333 Y-1.1341
X-0.139 Y-1.1229
X-0.1476 Y-1.1005
X-0.1507 Y-1.0893
X-0.155 Y-1.0701
X-0.1556 Y-1.0668
X-0.1568 Y-1.0556
X-0.1573 Y-1.0444
X-0.1575 Y-1.0332
Y-0.0468
X-0.1573 Y-0.0356
X-0.1568 Y-0.0244
X-0.1556 Y-0.0132
X-0.155 Y-0.0099
X-0.1507 Y0.0093
X-0.1476 Y0.0205
X-0.139 Y0.0429
X-0.1333 Y0.0541
X-0.1326 Y0.0554
X-0.127 Y0.0653
X-0.1214 Y0.0735
X-0.0997 Y0.0996
X-0.0735 Y0.1214
X-0.0653 Y0.127
X-0.0554 Y0.1326
X-0.0541 Y0.1333
X-0.0429 Y0.139
X-0.0205 Y0.1476
X-0.0093 Y0.1507
X0.0099 Y0.155
X0.0132 Y0.1556
X0.0244 Y0.1568
X0.0356 Y0.1573
X0.0468 Y0.1575
X1.0332
X1.0444 Y0.1573
X1.0556 Y0.1568
X1.0668 Y0.1556
X1.0701 Y0.155
X1.0893 Y0.1507
X1.1005 Y0.1476
X1.1229 Y0.139
X1.1341 Y0.1333
X1.1354 Y0.1326
X1.1453 Y0.127
X1.1535 Y0.1214
X1.1796 Y0.0997
X1.2014 Y0.0735
X1.207 Y0.0653
X1.2126 Y0.0554
X1.2133 Y0.0541
X1.219 Y0.0429
X1.2276 Y0.0205
X1.2307 Y0.0093
X1.235 Y-0.0099
X1.2356 Y-0.0132
X1.2368 Y-0.0244
X1.2373 Y-0.0356
X1.2375 Y-0.0468
Y-1.0332
X1.2373 Y-1.0444
X1.2368 Y-1.0556
X1.2356 Y-1.0668
X1.235 Y-1.0701
X1.2307 Y-1.0893
X1.2276 Y-1.1005
X1.219 Y-1.1229
X1.2133 Y-1.1341
X1.2126 Y-1.1354
X1.207 Y-1.1453
X1.2014 Y-1.1535
X1.1796 Y-1.1797
X1.1535 Y-1.2014
X1.1453 Y-1.207
X1.1354 Y-1.2126
X1.1341 Y-1.2133
X1.1229 Y-1.219
X1.1005 Y-1.2276
X1.0893 Y-1.2307
X1.0701 Y-1.235
X1.0668 Y-1.2356
X1.0556 Y-1.2368
X1.0444 Y-1.2373
X1.0332 Y-1.2375
X0.0468
X0.0406 Y-1.2374
X0.037 Y-1.238 Z0.0502
X0.0334 Y-1.2386 Z0.0509
X0.03 Y-1.2391 Z0.052
X0.0264 Y-1.2408 Z0.0538
X0.0232 Y-1.2424 Z0.0561
X0.0202 Y-1.2438 Z0.0589
X0.0182 Y-1.2456 Z0.0619
X0.0165 Y-1.2471 Z0.0653
X0.0151 Y-1.2483 Z0.069
X0.0141 Y-1.2492 Z0.0728
X0.0135 Y-1.2497 Z0.0768
X0.0133 Y-1.2499 Z0.0809
G0 Z0.99
X0.012 Y-1.4803
Z0.575
G1 Z0.5375 F40.
X0.0121 Y-1.48 Z0.533
X0.0123 Y-1.4792 Z0.5285
X0.0126 Y-1.4779 Z0.5242
X0.0131 Y-1.4761 Z0.5201
X0.0136 Y-1.4738 Z0.5162
X0.0143 Y-1.4711 Z0.5126
X0.0151 Y-1.468 Z0.5094
X0.016 Y-1.4646 Z0.5066
X0.017 Y-1.4608 Z0.5043
X0.018 Y-1.4568 Z0.5024
X0.0191 Y-1.4526 Z0.5011
X0.0202 Y-1.4483 Z0.5003
X0.0213 Y-1.444 Z0.5
G3 X0.0507 Y-1.2398 I-0.9274 J0.2376
G1 Y-1.2338
X0.038 Y-1.1913
X0.0273 Y-1.1482
X0.019 Y-1.1046
X0.0127 Y-1.0607
X0.0079 Y-1.0166
X0.0076 Y-1.0127
X0.0049 Y-0.9973
X-0.0005 Y-0.9826
X-0.0084 Y-0.9691