%
(PINECIL OP2 - ON PLATE)
(MACHINE)
(  VENDOR CALLUM)
(  MODEL MILL R1)
(  DESCRIPTION 14X8X14 MILL)
(T13 D=0.375 CR=0. TAPER=45DEG - ZMIN=0.46 - CHAMFER MILL)
(T32 D=0.1875 CR=0. - ZMIN=-0.0436 - FLAT END MILL)
(T35 D=0.375 CR=0. - ZMIN=0.55 - FLAT END MILL)
G90 G94 G17 G91.1
G20
G53 G0 Z-0.6
(2D CONTOUR3)
T35 M6
T32
S5000 M3
G17 G90 G94
G54
G64 P0.0004 Q0.0004
M8
G0 X1.8148 Y0.1832
G43 Z1.3 H35
G0 Z0.9
G1 Z0.5875 F200.
G18 G3 X1.7773 Z0.55 I-0.0375 K0. F25.
G1 X1.7398
G17 G3 X1.7023 Y0.1457 I0. J-0.0375
G1 Y-2.1457
G3 X1.7349 Y-2.3086 I0.4237 J0.
G2 X1.336 Y-2.4748 I-0.1994 J-0.0831
Y-2.3086 I0.1994 J0.0831
G3 X1.3686 Y-2.1457 I-0.3911 J0.163
G1 Y0.1457
G3 X1.3311 Y0.1832 I-0.0375 J0.
G1 X1.2936
G18 G3 X1.2561 Z0.5875 I0. K0.0375
G0 Z0.9
X0.7124
G1 Z0.5875 F200.
G3 X0.6749 Z0.55 I-0.0375 K0. F25.
G1 X0.6374
G17 G3 X0.5999 Y0.1457 I0. J-0.0375
G1 Y-2.1457
G3 X0.6325 Y-2.3086 I0.4237 J0.
G2 X0.2336 Y-2.4748 I-0.1994 J-0.0831
Y-2.3086 I0.1994 J0.0831
G3 X0.2662 Y-2.1457 I-0.3911 J0.163
G1 Y0.1457
G3 X0.2287 Y0.1832 I-0.0375 J0.
G1 X0.1912
G18 G3 X0.1537 Z0.5875 I0. K0.0375
G0 Z0.9
X2.9171
G1 Z0.5875 F200.
G3 X2.8796 Z0.55 I-0.0375 K0. F25.
G1 X2.8421
G17 G3 X2.8046 Y0.1457 I0. J-0.0375
G1 Y-2.1457
G3 X2.8372 Y-2.3086 I0.4237 J0.
G2 X2.4384 Y-2.4748 I-0.1994 J-0.0831
Y-2.3086 I0.1994 J0.0831
G3 X2.4709 Y-2.1457 I-0.3911 J0.163
G1 Y0.1457
G3 X2.4334 Y0.1832 I-0.0375 J0.
G1 X2.3959
G18 G3 X2.3584 Z0.5875 I0. K0.0375
G0 Z0.9
X4.0195
G1 Z0.5875 F200.
G3 X3.982 Z0.55 I-0.0375 K0. F25.
G1 X3.9445
G17 G3 X3.907 Y0.1457 I0. J-0.0375
G1 Y-2.1457
G3 X3.9396 Y-2.3086 I0.4237 J0.
G2 X3.5407 Y-2.4748 I-0.1994 J-0.0831
Y-2.3086 I0.1994 J0.0831
G3 X3.5733 Y-2.1457 I-0.3911 J0.163
G1 Y0.1457
G3 X3.5358 Y0.1832 I-0.0375 J0.
G1 X3.4983
G18 G3 X3.4608 Z0.5875 I0. K0.0375
G0 Z1.3
G17
M5
G53 G0 Z-0.6
(ADAPTIVE3 30)
M9
M1
T32 M6
T13
S7500 M3
G17 G90 G94
G54
G64 P0.004 Q0.004
M8
G0 X3.6761 Y-2.4604
G43 Z1.3 H32
G0 Z0.59
G3 X3.8241 Y-2.4337 Z0.5747 I0.064 J0.0687 F30.
X3.7567 Y-2.2997 Z0.5595 I-0.0838 J0.0418
X3.6477 Y-2.402 Z0.5442 I-0.0163 J-0.0919
X3.7764 Y-2.4774 Z0.5289 I0.0925 J0.0104
X3.812 Y-2.333 Z0.5137 I-0.0361 J0.0855
X3.6639 Y-2.3397 Z0.4984 I-0.0715 J-0.0587
X3.7122 Y-2.4795 Z0.4832 I0.0764 J-0.0518
X3.8322 Y-2.3938 Z0.4679 I0.028 J0.0877
X3.7163 Y-2.3033 Z0.4526 I-0.0917 J0.0019
X3.6626 Y-2.4397 Z0.4374 I0.0241 J-0.0883
X3.8082 Y-2.4525 Z0.4221 I0.0776 J0.048
X3.7792 Y-2.3097 Z0.4068 I-0.0678 J0.0606
X3.6509 Y-2.3777 Z0.3916 I-0.0388 J-0.082
X3.7522 Y-2.4812 Z0.3763 I0.0893 J-0.0139
X3.8225 Y-2.355 Z0.3611 I-0.012 J0.0894
X3.682 Y-2.3235 Z0.3458 I-0.082 J-0.0367
X3.6916 Y-2.4668 Z0.3305 I0.0583 J-0.0681
X3.8258 Y-2.4171 Z0.3153 I0.0486 J0.075
X3.7404 Y-2.3028 Z0.3 I-0.0854 J0.0253
Y-2.4809 I0. J-0.0891
Y-2.3028 I0. J0.0891
G1 X3.7184 Y-2.3021
G3 X3.6662 Y-2.3275 I0.0009 J-0.0682
X3.7538 Y-2.4899 I0.0734 J-0.0653
X3.7564 Y-2.294 I-0.0131 J0.0981
X3.6337 Y-2.3693 I-0.0274 J-0.093
X3.7314 Y-2.5013 I0.1069 J-0.0231
X3.8498 Y-2.3873 I0.0091 J0.1089
X3.7699 Y-2.286 I-0.1093 J-0.004
X3.6205 Y-2.3922 I-0.0388 J-0.1037
X3.8594 Y-2.4101 I0.1201 J-0.0002
X3.8206 Y-2.3019 I-0.1176 J0.019
X3.7362 Y-2.2683 I-0.0881 J-0.0986
G1 X3.7291 Y-2.2693
X3.7099 Y-2.2719
X3.7063 Y-2.2728
X3.6814 Y-2.2831
X3.6779 Y-2.2849
X3.6743 Y-2.2874
X3.6601 Y-2.2983
X3.6529 Y-2.3041
G3 X3.6325 Y-2.3307 I0.2918 J-0.2447
G1 X3.6317 Y-2.3326
X3.6214 Y-2.3574
G3 X3.6164 Y-2.3929 I0.1933 J-0.0452
G1 X3.6169 Y-2.3965
X3.6202 Y-2.4214
G3 X3.6329 Y-2.4533 I0.2149 J0.0672
G1 X3.6381 Y-2.4605
X3.649 Y-2.4747
X3.653 Y-2.4796
X3.6557 Y-2.4818
X3.6743 Y-2.4961
X3.6779 Y-2.4986
X3.6814 Y-2.5004
X3.7052 Y-2.5102
X3.7075 Y-2.5111
G3 X3.7418 Y-2.5154 I0.0562 J0.308
G1 X3.7454 Y-2.5149
X3.7702 Y-2.5117
X3.7738 Y-2.5107
X3.7751 Y-2.5102
X3.7951 Y-2.5019
X3.8022 Y-2.4988
X3.8061 Y-2.496
X3.8246 Y-2.4818
X3.8281 Y-2.4787
X3.8306 Y-2.4756
X3.8448 Y-2.4571
X3.8474 Y-2.4533
X3.8505 Y-2.4462
X3.859 Y-2.4257
X3.8593 Y-2.4249
X3.8598 Y-2.4231
X3.8602 Y-2.4214
X3.8634 Y-2.3965
X3.8638 Y-2.3929
G3 X3.8591 Y-2.3578 I-0.2596 J-0.0167
X3.845 Y-2.3262 I-0.2113 J-0.0755
G1 X3.8306 Y-2.3078
X3.8275 Y-2.3041
G3 X3.7982 Y-2.2826 I-0.1381 J-0.1576
G1 X3.7738 Y-2.2727
X3.7702 Y-2.2718
X3.7454 Y-2.2685
X3.7418 Y-2.2681
X3.7383
X3.7291 Y-2.2693
G3 X3.7186 Y-2.2749 I0.0031 J-0.0185
G1 X3.7172 Y-2.2771 Z0.3002
X3.7159 Y-2.2793 Z0.3007
X3.7146 Y-2.2814 Z0.3016
X3.7142 Y-2.2837 Z0.3029
X3.7138 Y-2.2859 Z0.3045
X3.7135 Y-2.2878 Z0.3065
X3.7137 Y-2.2897 Z0.3092
X3.7139 Y-2.2911 Z0.3122
X3.714 Y-2.292 Z0.3154
Y-2.2923 Z0.3187
G0 Z0.9
X2.5738 Y-2.4604
Z0.59
G3 X2.7218 Y-2.4337 Z0.5747 I0.064 J0.0687 F30.
X2.6544 Y-2.2997 Z0.5595 I-0.0838 J0.0418
X2.5453 Y-2.402 Z0.5442 I-0.0163 J-0.0919
X2.674 Y-2.4774 Z0.5289 I0.0925 J0.0104
X2.7097 Y-2.333 Z0.5137 I-0.0361 J0.0855
X2.5616 Y-2.3397 Z0.4984 I-0.0715 J-0.0587
X2.6099 Y-2.4795 Z0.4832 I0.0764 J-0.0518
X2.7298 Y-2.3938 Z0.4679 I0.028 J0.0877
X2.614 Y-2.3033 Z0.4526 I-0.0917 J0.0019
X2.5602 Y-2.4397 Z0.4374 I0.0241 J-0.0883
X2.7058 Y-2.4525 Z0.4221 I0.0776 J0.048
X2.6769 Y-2.3097 Z0.4068 I-0.0678 J0.0606
X2.5485 Y-2.3777 Z0.3916 I-0.0388 J-0.082
X2.6499 Y-2.4812 Z0.3763 I0.0893 J-0.0139
X2.7202 Y-2.355 Z0.3611 I-0.012 J0.0894
X2.5797 Y-2.3235 Z0.3458 I-0.082 J-0.0367
X2.5892 Y-2.4668 Z0.3305 I0.0583 J-0.0681
X2.7235 Y-2.4171 Z0.3153 I0.0486 J0.075
X2.6381 Y-2.3028 Z0.3 I-0.0854 J0.0253
Y-2.4809 I0. J-0.0891
Y-2.3028 I0. J0.0891
G1 X2.6161 Y-2.3021
G3 X2.5639 Y-2.3275 I0.0009 J-0.0682
X2.6515 Y-2.4899 I0.0734 J-0.0653
X2.6541 Y-2.294 I-0.0131 J0.0981
X2.5314 Y-2.3692 I-0.0274 J-0.093
X2.6291 Y-2.5013 I0.1069 J-0.0231
X2.7474 Y-2.3873 I0.0091 J0.1089
X2.6676 Y-2.286 I-0.1093 J-0.004
X2.5181 Y-2.3922 I-0.0388 J-0.1037
X2.757 Y-2.4101 I0.1201 J-0.0002
X2.7183 Y-2.3019 I-0.1176 J0.019
X2.6339 Y-2.2683 I-0.0881 J-0.0986
G1 X2.6268 Y-2.2693
X2.6087 Y-2.2717
X2.6052 Y-2.2724
X2.6016 Y-2.2737
X2.5799 Y-2.2828
X2.5765 Y-2.2843
X2.5732 Y-2.2864
X2.5519 Y-2.3028
G3 X2.5292 Y-2.3324 I0.1523 J-0.1401
G1 X2.5191 Y-2.3574
G3 X2.5143 Y-2.3965 I0.1675 J-0.0405
G1 X2.5178 Y-2.4214
G3 X2.5306 Y-2.4535 I0.2303 J0.0733
G1 X2.5357 Y-2.4605
X2.5489 Y-2.4777
X2.5519 Y-2.4806
X2.5732 Y-2.497
X2.575 Y-2.4983
G3 X2.6058 Y-2.5112 I0.104 J0.2047
G1 X2.6087 Y-2.5118
X2.6301 Y-2.5146
X2.6372 Y-2.5154
G3 X2.6728 Y-2.5104 I-0.01 J0.1989
G1 X2.6975 Y-2.4999
X2.7011 Y-2.4979
G3 X2.7263 Y-2.4782 I-0.15 J0.2179
G1 X2.7295 Y-2.474
X2.7437 Y-2.4554
G3 X2.7581 Y-2.4204 I-0.178 J0.0937
G1 X2.7611 Y-2.3965
X2.7615 Y-2.3929
X2.7614 Y-2.3894
X2.7579 Y-2.3632
X2.7576 Y-2.361
X2.7565 Y-2.3574
X2.7462 Y-2.3325
X2.7452 Y-2.3303
X2.7437 Y-2.328
X2.7295 Y-2.3095
X2.7251 Y-2.3041
G3 X2.6984 Y-2.2839 I-0.2231 J-0.2674
G1 X2.6957 Y-2.2828
X2.6727 Y-2.2732
X2.6691 Y-2.272
X2.6656 Y-2.2715
X2.6433 Y-2.2686
X2.6372 Y-2.268
X2.6323 Y-2.2686
X2.6268 Y-2.2693
G3 X2.6163 Y-2.2749 I0.0031 J-0.0185
G1 X2.6149 Y-2.2771 Z0.3002
X2.6136 Y-2.2793 Z0.3007
X2.6123 Y-2.2814 Z0.3016
X2.6119 Y-2.2837 Z0.3029
X2.6115 Y-2.2859 Z0.3045
X2.6112 Y-2.2878 Z0.3065
X2.6114 Y-2.2897 Z0.3092
X2.6116 Y-2.2911 Z0.3122
X2.6117 Y-2.292 Z0.3154
Y-2.2923 Z0.3187
G0 Z0.9
X1.4714 Y-2.4604
Z0.59
G3 X1.6194 Y-2.4337 Z0.5747 I0.064 J0.0687 F30.
X1.552 Y-2.2997 Z0.5595 I-0.0838 J0.0418
X1.443 Y-2.402 Z0.5442 I-0.0163 J-0.0919
X1.5717 Y-2.4774 Z0.5289 I0.0925 J0.0104
X1.6073 Y-2.333 Z0.5137 I-0.0361 J0.0855
X1.4592 Y-2.3397 Z0.4984 I-0.0715 J-0.0587
X1.5075 Y-2.4795 Z0.4832 I0.0764 J-0.0518
X1.6275 Y-2.3938 Z0.4679 I0.028 J0.0877
X1.5116 Y-2.3033 Z0.4526 I-0.0917 J0.0019
X1.4579 Y-2.4397 Z0.4374 I0.0241 J-0.0883
X1.6035 Y-2.4525 Z0.4221 I0.0776 J0.048
X1.5745 Y-2.3097 Z0.4068 I-0.0678 J0.0606
X1.4462 Y-2.3777 Z0.3916 I-0.0388 J-0.082
X1.5475 Y-2.4812 Z0.3763 I0.0893 J-0.0139
X1.6178 Y-2.355 Z0.3611 I-0.012 J0.0894
X1.4773 Y-2.3235 Z0.3458 I-0.082 J-0.0367
X1.4869 Y-2.4668 Z0.3305 I0.0583 J-0.0681
X1.6211 Y-2.4171 Z0.3153 I0.0486 J0.075
X1.5357 Y-2.3028 Z0.3 I-0.0854 J0.0253
Y-2.4809 I0. J-0.0891
Y-2.3028 I0. J0.0891
G1 X1.5137 Y-2.3021
G3 X1.4615 Y-2.3275 I0.0009 J-0.0682
X1.5491 Y-2.4899 I0.0734 J-0.0653
X1.5517 Y-2.294 I-0.0131 J0.0981
X1.429 Y-2.3693 I-0.0274 J-0.093
X1.5297 Y-2.5015 I0.1069 J-0.0231
X1.6446 Y-2.3814 I0.0061 J0.1092
X1.5652 Y-2.286 I-0.1089 J-0.0099
X1.4157 Y-2.3922 I-0.0388 J-0.1037
X1.5359 Y-2.5126 I0.1202 J-0.0002
X1.6561 Y-2.3922 I0. J0.1202
X1.6159 Y-2.3019 I-0.1184 J0.0015
X1.5315 Y-2.2683 I-0.0881 J-0.0986
G1 X1.5244 Y-2.2693
X1.5076 Y-2.2715
X1.5041 Y-2.272
X1.5005 Y-2.2732
X1.4775 Y-2.2828
X1.4748 Y-2.2839
G3 X1.4481 Y-2.3041 I0.176 J-0.2607
G1 X1.4437 Y-2.3095
X1.4295 Y-2.328
X1.4281 Y-2.3303
X1.427 Y-2.3325
X1.4167 Y-2.3574
X1.4156 Y-2.361
X1.4153 Y-2.3632
X1.4119 Y-2.3894
X1.4118 Y-2.3929
G3 X1.4162 Y-2.4249 I0.286 J0.0233
X1.4294 Y-2.4555 I0.4553 J0.1781
G1 X1.4442 Y-2.4747
X1.447 Y-2.4782
X1.4489 Y-2.4801
X1.451 Y-2.4818
X1.4695 Y-2.496
X1.4721 Y-2.4979
X1.4757 Y-2.4999
X1.5005 Y-2.5102
X1.5041 Y-2.5114
X1.5076 Y-2.512
X1.529 Y-2.5148
X1.5361 Y-2.5154
G3 X1.5704 Y-2.5104 I-0.016 J0.231
G1 X1.5929 Y-2.5009
X1.5964 Y-2.4993
X1.5982 Y-2.4983
X1.6 Y-2.497
X1.6213 Y-2.4806
G3 X1.6427 Y-2.4533 I-0.1819 J0.1645
X1.6555 Y-2.4214 I-0.1916 J0.0953
G1 X1.6587 Y-2.3965
X1.6591 Y-2.3929
G3 X1.6543 Y-2.3574 I-0.2126 J-0.0109
G1 X1.6439 Y-2.3325
G3 X1.6213 Y-2.3028 I-0.1581 J-0.0964
G1 X1.6 Y-2.2864
X1.5967 Y-2.2843
X1.5929 Y-2.2826
X1.5716 Y-2.2737
X1.568 Y-2.2724
X1.5645 Y-2.2717
X1.5409 Y-2.2686
X1.5361 Y-2.268
X1.5299 Y-2.2686
X1.5244 Y-2.2693
G3 X1.5139 Y-2.2749 I0.0031 J-0.0185
G1 X1.5125 Y-2.2771 Z0.3002
X1.5112 Y-2.2793 Z0.3007
X1.5099 Y-2.2814 Z0.3016
X1.5095 Y-2.2837 Z0.3029
X1.5091 Y-2.2859 Z0.3045
X1.5088 Y-2.2878 Z0.3065
X1.509 Y-2.2897 Z0.3092
X1.5092 Y-2.2911 Z0.3122
X1.5093 Y-2.292 Z0.3154
Y-2.2923 Z0.3187
G0 Z0.9
X0.369 Y-2.4604
Z0.59
G3 X0.5171 Y-2.4336 Z0.5747 I0.064 J0.0687 F30.
X0.4497 Y-2.2997 Z0.5595 I-0.0838 J0.0418
X0.3406 Y-2.402 Z0.5442 I-0.0163 J-0.0919
X0.4693 Y-2.4774 Z0.5289 I0.0925 J0.0104
X0.5049 Y-2.333 Z0.5137 I-0.0361 J0.0855
X0.3568 Y-2.3397 Z0.4984 I-0.0715 J-0.0587
X0.4051 Y-2.4795 Z0.4832 I0.0764 J-0.0518
X0.5251 Y-2.3937 Z0.4679 I0.028 J0.0877
X0.4092 Y-2.3033 Z0.4526 I-0.0917 J0.0019
X0.3555 Y-2.4397 Z0.4374 I0.0241 J-0.0883
X0.5011 Y-2.4525 Z0.4221 I0.0776 J0.048
X0.4722 Y-2.3096 Z0.4068 I-0.0678 J0.0606
X0.3438 Y-2.3777 Z0.3916 I-0.0388 J-0.082
X0.4451 Y-2.4812 Z0.3763 I0.0893 J-0.0139
X0.5154 Y-2.355 Z0.3611 I-0.012 J0.0894
X0.3749 Y-2.3235 Z0.3458 I-0.082 J-0.0367
X0.3845 Y-2.4667 Z0.3305 I0.0583 J-0.0681
X0.5188 Y-2.4171 Z0.3153 I0.0486 J0.075
X0.4333 Y-2.3027 Z0.3 I-0.0854 J0.0253
Y-2.4809 I0. J-0.0891
Y-2.3027 I0. J0.0891
G1 X0.4113 Y-2.302
G3 X0.3591 Y-2.3274 I0.0009 J-0.0682
X0.4467 Y-2.4898 I0.0734 J-0.0653
X0.4493 Y-2.294 I-0.0131 J0.0981
X0.3266 Y-2.3692 I-0.0274 J-0.093
X0.4274 Y-2.5015 I0.1069 J-0.0231
X0.5423 Y-2.3813 I0.0061 J0.1092
X0.4628 Y-2.286 I-0.1089 J-0.0099
X0.3134 Y-2.3922 I-0.0388 J-0.1037
X0.4335 Y-2.5125 I0.1202 J-0.0002
X0.5537 Y-2.3922 I0. J0.1202
X0.5135 Y-2.3019 I-0.1184 J0.0015
X0.4293 Y-2.2683 I-0.0879 J-0.0984
G1 X0.4222 Y-2.2693
X0.403 Y-2.2718
X0.3994 Y-2.2727
X0.3751 Y-2.2828
G3 X0.3458 Y-2.3042 I0.082 J-0.1432
G1 X0.3426 Y-2.3078
X0.3284 Y-2.3264
X0.3262 Y-2.3294
G3 X0.3132 Y-2.3609 I0.2158 J-0.1073
G1 X0.3123 Y-2.3681
X0.3095 Y-2.3894
X0.3094 Y-2.3929
X0.3098 Y-2.3965
X0.3131 Y-2.4214
X0.3134 Y-2.4231
G3 X0.3282 Y-2.4572 I0.1726 J0.0548
G1 X0.3426 Y-2.4756
X0.3451 Y-2.4787
X0.3486 Y-2.4818
X0.3672 Y-2.496
X0.371 Y-2.4988
G3 X0.403 Y-2.5118 I0.1118 J0.2285
G1 X0.4279 Y-2.5149
X0.4314 Y-2.5154
G3 X0.4657 Y-2.5111 I-0.0165 J0.2707
G1 X0.468 Y-2.5102
X0.4918 Y-2.5004
X0.4953 Y-2.4986
X0.499 Y-2.496
X0.5175 Y-2.4818
G3 X0.5416 Y-2.4509 I-0.1082 J0.1092
G1 X0.5493 Y-2.432
X0.5522 Y-2.4249
X0.5527 Y-2.4231
X0.5531 Y-2.4214
X0.5563 Y-2.3965
X0.5567 Y-2.3929
G3 X0.5519 Y-2.3574 I-0.215 J-0.0112
G1 X0.5415 Y-2.3325
G3 X0.5203 Y-2.3042 I-0.1508 J-0.0908
X0.4919 Y-2.2829 I-0.1385 J-0.1554
G1 X0.4669 Y-2.2728
G3 X0.4314 Y-2.268 I-0.0473 J-0.2176
G1 X0.4233 Y-2.2691
X0.4222 Y-2.2693
G3 X0.4071 Y-2.2923 I0.0031 J-0.0185
G1 X0.4079 Y-2.2955 Z0.3003
X0.4086 Y-2.2985 Z0.3011
X0.4093 Y-2.3014 Z0.3025
X0.41 Y-2.304 Z0.3044
X0.4106 Y-2.3062 Z0.3067
X0.411 Y-2.3081 Z0.3094
X0.4113 Y-2.3094 Z0.3123
X0.4115 Y-2.3102 Z0.3155
X0.4116 Y-2.3105 Z0.3188
G0 Z1.3
(ADAPTIVE3 31)
S5000 M3
G0 X3.6517 Y-2.3692
Z1.3
Z0.39
G3 X3.7197 Y-2.4807 Z0.3773 I0.0885 J-0.0225 F40.
X3.8293 Y-2.4104 Z0.3645 I0.0204 J0.0887
X3.7567 Y-2.3026 Z0.3518 I-0.089 J0.0184
X3.6509 Y-2.3775 Z0.3391 I-0.0163 J-0.0891
X3.7279 Y-2.4813 Z0.3264 I0.0893 J-0.0143
X3.8297 Y-2.4022 Z0.3136 I0.0122 J0.0894
X3.7485 Y-2.3024 Z0.3009 I-0.0894 J0.0102
X3.6508 Y-2.3857 Z0.2882 I-0.0081 J-0.0894
X3.7361 Y-2.4812 Z0.2755 I0.0893 J-0.0061
X3.8294 Y-2.394 Z0.2627 I0.004 J0.0892
X3.7403 Y-2.3029 Z0.25 I-0.0891 J0.002
Y-2.4811 I0. J-0.0891
Y-2.3029 I0. J0.0891
G1 X3.7184 Y-2.3022 F30.
G3 X3.6662 Y-2.3276 I0.0009 J-0.0682
X3.7538 Y-2.49 I0.0733 J-0.0652
X3.7563 Y-2.2941 I-0.0131 J0.0981
X3.6737 Y-2.3075 I-0.0274 J-0.0924
G1 X3.6712 Y-2.3098
X3.67 Y-2.3107
X3.6691 Y-2.3114
G3 X3.659 Y-2.3215 I0.0324 J-0.0427
X3.6633 Y-2.3476 Z0.258 I0.0153 J-0.0109
G1 X3.6637 Y-2.3479
G3 X3.6874 Y-2.3457 I0.0106 J0.0155 F110.
G1 X3.6932 Y-2.34
G3 X3.6955 Y-2.3161 I-0.0132 J0.0133
G1 X3.6953 Y-2.3158 F30.
G3 X3.6691 Y-2.3114 Z0.25 I-0.0153 J-0.0109
G1 X3.6641 Y-2.3153
X3.6631 Y-2.3162
X3.6624 Y-2.317
X3.6513 Y-2.3315
X3.6505 Y-2.3326
X3.6499 Y-2.3334
X3.6465 Y-2.3383
X3.646 Y-2.3391
X3.6456 Y-2.34
X3.6452 Y-2.3408
G3 X3.6562 Y-2.3649 Z0.258 I0.0176 J-0.0066
G1 X3.6566 Y-2.3651
G3 X3.6777 Y-2.3587 I0.0062 J0.0177 F110.
G1 X3.6793 Y-2.3566
G3 X3.6766 Y-2.3311 I-0.015 J0.0113
G1 X3.6762 Y-2.3308 F30.
G3 X3.6499 Y-2.3334 Z0.25 I-0.0119 J-0.0145
G1 X3.6476 Y-2.3364
X3.6463 Y-2.3382
X3.6456 Y-2.3399
X3.6388 Y-2.3563
X3.6382 Y-2.3577
X3.6378 Y-2.3588
X3.6358 Y-2.3643
G3 X3.6495 Y-2.3866 Z0.2577 I0.0208 J-0.0025
G1 X3.6506 Y-2.387 Z0.258
X3.651 Y-2.3871
G3 X3.6627 Y-2.3478 I0.0054 J0.0198 F110.
G1 X3.6623 Y-2.3477 F30.
G3 X3.6378 Y-2.3588 Z0.25 I-0.0059 J-0.0196
G1 X3.6367 Y-2.3613
X3.6361 Y-2.363
X3.6358 Y-2.3639
X3.6357 Y-2.3652
X3.6333 Y-2.383
X3.6331 Y-2.3847
X3.6329 Y-2.3862
X3.6324 Y-2.3921
Y-2.393
X3.6325 Y-2.3938
Y-2.3946
G3 X3.6541 Y-2.41 Z0.258 I0.0185 J0.0031
G1 X3.6545
G3 X3.6696 Y-2.3944 I-0.0035 J0.0184 F110.
G1 X3.6699 Y-2.3921
G3 X3.6549 Y-2.3708 I-0.0185 J0.0029
G1 X3.6545 F30.
G3 X3.6329 Y-2.3862 Z0.25 I-0.0031 J-0.0185
G1 X3.6324 Y-2.3897
X3.6323 Y-2.3915
X3.6324 Y-2.3933
X3.6347 Y-2.4114
X3.635 Y-2.4132
X3.6352 Y-2.4146
X3.6362 Y-2.4205
X3.6365 Y-2.4214
X3.6368 Y-2.4222
X3.6371 Y-2.423
G3 X3.6619 Y-2.4323 Z0.258 I0.0171 J0.0078
G1 X3.6623 Y-2.4321
G3 X3.6727 Y-2.4129 I-0.0081 J0.0169 F110.
G1 X3.6724 Y-2.4105
G3 X3.6524 Y-2.3941 I-0.0186 J-0.0023
G1 X3.652 F30.
G3 X3.6352 Y-2.4146 Z0.25 I0.0018 J-0.0187
G1 X3.6357 Y-2.4183
X3.6359 Y-2.42
X3.6365 Y-2.4217
X3.6435 Y-2.4386
X3.6441 Y-2.44
X3.6448 Y-2.4417
X3.6469 Y-2.4461
G3 X3.6727 Y-2.4554 Z0.258 I0.0191 J0.0125
G1 X3.6731 Y-2.4553
X3.6758 Y-2.4542 F110.
G3 X3.6857 Y-2.4222 I-0.0097 J0.0205
X3.653 Y-2.4151 I-0.0196 J-0.0115
G1 X3.6526 Y-2.4154 F30.
G3 X3.6448 Y-2.4417 Z0.25 I0.0134 J-0.0183
G1 X3.6461 Y-2.4448
X3.6472 Y-2.4466
X3.6591 Y-2.4621
X3.66 Y-2.4633
X3.6608 Y-2.4644
X3.6639 Y-2.468
G3 X3.6744 Y-2.4579 I0.0049 J0.0054
G1 X3.6724 Y-2.4554
G3 X3.6608 Y-2.4644 I-0.0056 J-0.0047
G1 X3.6623 Y-2.4663
X3.6631 Y-2.4672
X3.6641 Y-2.4682
X3.6822 Y-2.4821
X3.6832 Y-2.4828
X3.6844 Y-2.4838
X3.6864 Y-2.485
X3.6885 Y-2.4862
X3.6906 Y-2.4872
G3 X3.7149 Y-2.4765 Z0.258 I0.0068 J0.0175
G1 X3.715 Y-2.4761
G3 X3.7043 Y-2.4523 I-0.0176 J0.0064 F110.
G1 X3.7032 Y-2.4518
G3 X3.6821 Y-2.4571 I-0.0069 J-0.0174
G1 X3.6818 Y-2.4574 F30.
G3 X3.6844 Y-2.4838 Z0.25 I0.0145 J-0.0119
G1 X3.6854 Y-2.4845
X3.6871 Y-2.4857
X3.6925 Y-2.488
X3.7067 Y-2.4939
X3.7078 Y-2.4943
X3.7091 Y-2.4949
X3.7126 Y-2.4961
G3 X3.7301 Y-2.486 I0.0028 J0.0153
G1 X3.7308 Y-2.4831
X3.731 Y-2.4802
X3.7305 Y-2.4772
G3 X3.7055 Y-2.4692 I-0.015 J-0.0037 F110.
X3.7091 Y-2.4949 I0.0101 J-0.0117 F30.
G1 X3.7103 Y-2.4954
X3.712 Y-2.496
X3.7138 Y-2.4964
X3.7337 Y-2.499
X3.7351 Y-2.4992
X3.7371 Y-2.4995
X3.7395 Y-2.4996
G3 X3.7508 Y-2.4887 I-0.0006 J0.0119
X3.7445 Y-2.4773 I-0.0118 J0.0009
G1 X3.7422 Y-2.4764 F110.
X3.7397 Y-2.4759
X3.7372 Y-2.4761
X3.7347 Y-2.4767
G3 X3.7371 Y-2.4995 I0.0043 J-0.011 F30.
G1 X3.7387 Y-2.4997
X3.7405 Y-2.4996
X3.7422 Y-2.4994
X3.7621 Y-2.4968
X3.7636 Y-2.4966
X3.7655 Y-2.4964
X3.7686 Y-2.4958
G3 X3.7778 Y-2.48 I-0.0045 J0.0132
X3.772 Y-2.471 I-0.0137 J-0.0025
X3.7524 Y-2.4752 I-0.0078 J-0.0115 F110.
X3.7655 Y-2.4964 I0.0118 J-0.0074 F30.
G1 X3.7671 Y-2.4961
X3.768 Y-2.496
X3.7689 Y-2.4957
X3.7707 Y-2.495
X3.7888 Y-2.4875
X3.7905 Y-2.4868
X3.792 Y-2.4862
X3.7949 Y-2.4848
G3 X3.7984 Y-2.4704 I-0.0072 J0.0094
X3.7861 Y-2.4639 I-0.0105 J-0.005
G1 X3.7836 Y-2.4646 F110.
X3.7813 Y-2.4658
X3.7794 Y-2.4675
G3 X3.792 Y-2.4862 I0.0086 J-0.0078 F30.
G1 X3.7932 Y-2.4857
X3.7947 Y-2.485
X3.7961 Y-2.4839
X3.8124 Y-2.4715
X3.8133 Y-2.4708
X3.8143 Y-2.47
X3.8163 Y-2.4683
G3 X3.8165 Y-2.4522 I-0.0091 J0.0081
X3.8044 Y-2.4483 I-0.0092 J-0.0079
X3.7959 Y-2.4559 I0.0029 J-0.0118 F110.
X3.8143 Y-2.47 I0.0114 J-0.0042 F30.
G1 X3.8151 Y-2.4693
X3.8161 Y-2.4685
X3.817 Y-2.4676
X3.8304 Y-2.4501
X3.8312 Y-2.4491
X3.8322 Y-2.4478
X3.8333 Y-2.4462
G3 X3.8303 Y-2.435 I-0.0079 J0.0039
X3.8204 Y-2.4495 I-0.005 J-0.0072
X3.8322 Y-2.4478 I0.005 J0.0072
G1 X3.833 Y-2.4467
X3.8339 Y-2.445
X3.8417 Y-2.4262
X3.8423 Y-2.4248
X3.843 Y-2.4231
X3.8448 Y-2.418
G3 X3.8328 Y-2.399 Z0.2566 I-0.0182 J0.0018
G1 X3.8303 Y-2.3983 Z0.2573
X3.8277 Y-2.398 Z0.258
X3.8273 Y-2.3979
G3 X3.8177 Y-2.431 I-0.0005 J-0.0178 F110.
G1 X3.8181 Y-2.4312 F30.
G3 X3.843 Y-2.4231 Z0.25 I0.0087 J0.0155
G1 X3.8443 Y-2.4199
X3.8448 Y-2.4182
X3.8474 Y-2.3982
X3.8476 Y-2.3967
X3.8479 Y-2.3948
X3.8482 Y-2.3913
G3 X3.8362 Y-2.3799 I-0.013 J-0.0016
X3.8249 Y-2.3851 I-0.001 J-0.0128
X3.8244 Y-2.3996 I0.0103 J-0.0076 F110.
X3.8479 Y-2.3948 I0.0108 J0.0069 F30.
G1 X3.8481 Y-2.3933
X3.8482 Y-2.3915
X3.848 Y-2.3897
X3.8457 Y-2.3719
X3.8454 Y-2.3698
X3.8451 Y-2.3683
X3.8443 Y-2.3639
G3 X3.8263 Y-2.3544 Z0.256 I-0.0149 J-0.0064
G1 X3.8239 Y-2.355 Z0.2567
X3.8217 Y-2.3561 Z0.2573
X3.8196 Y-2.3574 Z0.258
X3.8193 Y-2.3577
G3 X3.8262 Y-2.3856 I0.0101 J-0.0123 F110.
G1 X3.8266 Y-2.3857 F30.
G3 X3.8451 Y-2.3683 Z0.25 I0.0027 J0.0157
G1 X3.8446 Y-2.3648
X3.8417 Y-2.3573
X3.836 Y-2.3435
X3.8352 Y-2.3417
X3.8346 Y-2.3401
X3.8334 Y-2.3378
X3.832 Y-2.3356
X3.8305 Y-2.3335
G3 X3.8041 Y-2.3309 Z0.258 I-0.0145 J-0.0119
G1 X3.8038 Y-2.3312
G3 X3.8012 Y-2.3569 I0.0122 J-0.0142 F110.
G1 X3.8023 Y-2.3582
G3 X3.8232 Y-2.3644 I0.0148 J0.0115
G1 X3.8236 Y-2.3643 F30.
G3 X3.8346 Y-2.3401 Z0.25 I-0.0066 J0.0176
G1 X3.8338 Y-2.3383
X3.8327 Y-2.3364
X3.8218 Y-2.3222
X3.8204 Y-2.3203
X3.8197 Y-2.3194
G3 X3.8128 Y-2.3123 I-0.0311 J-0.0232
X3.7866 Y-2.3167 Z0.258 I-0.0109 J-0.0153
G1 X3.7864 Y-2.317
G3 X3.788 Y-2.3402 I0.0155 J-0.0106 F110.
G1 X3.7908 Y-2.3432
G3 X3.8155 Y-2.3459 I0.0139 J0.0126
G1 X3.8159 Y-2.3457 F30.
G3 X3.8197 Y-2.3194 Z0.25 I-0.0112 J0.015
G1 X3.8162 Y-2.3151
X3.8133 Y-2.3127
X3.8005 Y-2.3029
X3.7991 Y-2.3018
X3.7978 Y-2.3008
X3.7938 Y-2.2981
G3 X3.7713 Y-2.3047 Z0.2569 I-0.0073 J-0.0168
G1 X3.7703 Y-2.3064 Z0.2575
X3.7695 Y-2.3083 Z0.258
X3.7693 Y-2.3087
G3 X3.7993 Y-2.3274 I0.017 J-0.0061 F110.
G1 X3.7996 Y-2.3271 F30.
G3 X3.7978 Y-2.3008 Z0.25 I-0.0133 J0.0123
G1 X3.7949 Y-2.2987
G3 X3.768 Y-2.2875 I-0.1135 J-0.235
X3.7387 Y-2.2838 I-0.0421 J-0.2161
G1 X3.7138 Y-2.2871
X3.712 Y-2.2875
X3.7103 Y-2.2881
X3.6889 Y-2.2969
X3.6872 Y-2.2977
X3.6854 Y-2.2989
X3.6739 Y-2.3077
G3 X3.6676 Y-2.3179 I0.0119 J-0.0145
G1 X3.6674 Y-2.3201 Z0.2501
X3.6671 Y-2.3222 Z0.2505
X3.6677 Y-2.3249 Z0.2514
X3.6682 Y-2.3274 Z0.2527
X3.6686 Y-2.3296 Z0.2543
X3.6699 Y-2.3316 Z0.2567
X3.671 Y-2.3331 Z0.2593
X3.6717 Y-2.3343 Z0.2623
X3.6722 Y-2.335 Z0.2655
X3.6724 Y-2.3352 Z0.2687
G0 Z0.9
X2.5494 Y-2.3692
Z0.39
G3 X2.6173 Y-2.4807 Z0.3773 I0.0885 J-0.0225 F40.
X2.727 Y-2.4104 Z0.3645 I0.0204 J0.0887
X2.6544 Y-2.3026 Z0.3518 I-0.089 J0.0184
X2.5485 Y-2.3775 Z0.3391 I-0.0163 J-0.0891
X2.6256 Y-2.4813 Z0.3264 I0.0893 J-0.0143
X2.7274 Y-2.4021 Z0.3136 I0.0122 J0.0894
X2.6462 Y-2.3024 Z0.3009 I-0.0894 J0.0102
X2.5485 Y-2.3857 Z0.2882 I-0.0081 J-0.0894
X2.6338 Y-2.4812 Z0.2755 I0.0893 J-0.0061
X2.7271 Y-2.394 Z0.2627 I0.004 J0.0892
X2.638 Y-2.3029 Z0.25 I-0.0891 J0.002
Y-2.481 I0. J-0.0891
Y-2.3029 I0. J0.0891
G1 X2.616 Y-2.3022 F30.
G3 X2.5638 Y-2.3276 I0.0009 J-0.0682
X2.6514 Y-2.49 I0.0733 J-0.0652
X2.6539 Y-2.2941 I-0.0131 J0.0981
X2.5714 Y-2.3075 I-0.0274 J-0.0925
G1 X2.5698 Y-2.3091
X2.5677 Y-2.3107
X2.5662 Y-2.3119
G3 X2.5575 Y-2.3204 I0.026 J-0.0353
X2.5618 Y-2.3466 Z0.258 I0.0153 J-0.0109
G1 X2.5622 Y-2.3468
G3 X2.5857 Y-2.3448 I0.0106 J0.0155 F110.
G1 X2.59 Y-2.3407
G3 X2.5925 Y-2.3166 I-0.013 J0.0135
G1 X2.5923 Y-2.3163 F30.
G3 X2.5662 Y-2.3119 Z0.25 I-0.0153 J-0.0109
G1 X2.562 Y-2.3151
X2.5611 Y-2.3159
X2.5602 Y-2.3168
X2.5495 Y-2.3308
X2.5485 Y-2.3321
X2.5475 Y-2.3334
X2.5441 Y-2.3383
X2.5436 Y-2.3391
X2.5432 Y-2.3399
X2.5429 Y-2.3408
G3 X2.5538 Y-2.3649 Z0.258 I0.0176 J-0.0066
G1 X2.5542 Y-2.365
G3 X2.5753 Y-2.3587 I0.0062 J0.0177 F110.
G1 X2.5769 Y-2.3567
G3 X2.5742 Y-2.3311 I-0.0149 J0.0114
G1 X2.5739 Y-2.3308 F30.
G3 X2.5475 Y-2.3334 Z0.25 I-0.0119 J-0.0145
G1 X2.5452 Y-2.3364
X2.544 Y-2.3382
X2.5432 Y-2.3399
X2.5372 Y-2.3545
X2.5364 Y-2.3563
X2.5358 Y-2.3577
X2.5338 Y-2.3634
X2.5335 Y-2.3645
X2.5333 Y-2.3657
X2.5331 Y-2.3669
G3 X2.5499 Y-2.3874 Z0.258 I0.0187 J-0.0018
G1 X2.5503
G3 X2.5693 Y-2.3751 I0.0014 J0.0187 F110.
G1 X2.5705 Y-2.3719
G3 X2.561 Y-2.3486 I-0.0176 J0.0064
G1 X2.5607 Y-2.3484 F30.
G3 X2.5358 Y-2.3577 Z0.25 I-0.0078 J-0.0171
G1 X2.5343 Y-2.3615
X2.5337 Y-2.3632
X2.5333 Y-2.3648
X2.5309 Y-2.383
X2.5307 Y-2.3847
X2.5305 Y-2.3862
X2.53 Y-2.3921
Y-2.393
X2.5301 Y-2.3938
X2.5302 Y-2.3946
G3 X2.5517 Y-2.41 Z0.258 I0.0185 J0.0031
G1 X2.5522
G3 X2.5672 Y-2.3944 I-0.0035 J0.0184 F110.
G1 X2.5676 Y-2.3921
X2.5678 Y-2.3893
G3 X2.5525 Y-2.3708 I-0.0187 J0.
G1 X2.5521 F30.
G3 X2.5305 Y-2.3862 Z0.25 I-0.0031 J-0.0185
G1 X2.5301 Y-2.3897
X2.5299 Y-2.3915
X2.53 Y-2.3933
X2.5324 Y-2.4114
X2.5326 Y-2.4132
X2.5328 Y-2.4146
X2.5339 Y-2.4205
X2.5341 Y-2.4214
X2.5344 Y-2.4222
X2.5347 Y-2.4231
G3 X2.5595 Y-2.4323 Z0.258 I0.0171 J0.0078
G1 X2.5599 Y-2.4322
G3 X2.5704 Y-2.4129 I-0.0081 J0.0169 F110.
G1 X2.5701 Y-2.4104
G3 X2.5501 Y-2.3941 I-0.0186 J-0.0024
G1 X2.5497 F30.
G3 X2.5328 Y-2.4146 Z0.25 I0.0018 J-0.0187
G1 X2.5333 Y-2.4182
X2.5336 Y-2.4199
X2.5343 Y-2.422
X2.5414 Y-2.4391
X2.5419 Y-2.4403
X2.5425 Y-2.4418
X2.544 Y-2.4448
X2.5458 Y-2.4477
X2.5477 Y-2.4504
G3 X2.5741 Y-2.453 Z0.258 I0.0145 J0.0119
G1 X2.5744 Y-2.4527
G3 X2.5778 Y-2.4281 I-0.0122 J0.0142 F110.
G1 X2.5756 Y-2.4248
G3 X2.5539 Y-2.4175 I-0.0156 J-0.0104
G1 X2.5535 Y-2.4177 F30.
G3 X2.5425 Y-2.4418 Z0.25 I0.0066 J-0.0176
G1 X2.5437 Y-2.4448
X2.5442 Y-2.4457
X2.5448 Y-2.4466
X2.5572 Y-2.4627
X2.5579 Y-2.4636
X2.5585 Y-2.4644
X2.5616 Y-2.468
G3 X2.5832 Y-2.4674 Z0.2563 I0.0104 J0.0137
G1 X2.5853 Y-2.4652 Z0.2572
X2.587 Y-2.4627 Z0.258
X2.5872 Y-2.4623
G3 X2.5653 Y-2.4392 I-0.015 J0.0078 F110.
G1 X2.5649 Y-2.4393 F30.
G3 X2.5585 Y-2.4644 Z0.25 I0.0073 J-0.0152
G1 X2.5602 Y-2.4666
X2.5615 Y-2.4679
X2.5627 Y-2.4689
X2.5791 Y-2.4815
X2.5806 Y-2.4826
X2.5816 Y-2.4834
X2.5852 Y-2.4859
G3 X2.6029 Y-2.4804 I0.0054 J0.014
X2.6053 Y-2.47 I-0.012 J0.0083
X2.586 Y-2.4583 I-0.0145 J-0.0021 F110.
X2.5816 Y-2.4834 I0.0048 J-0.0138 F30.
G1 X2.584 Y-2.4853
X2.5848 Y-2.4857
X2.5911 Y-2.4884
X2.6037 Y-2.4936
X2.6053 Y-2.4943
X2.6064 Y-2.4947
X2.6108 Y-2.4963
G3 X2.6281 Y-2.4854 Z0.256 I0.0018 J0.0163
G1 X2.6287 Y-2.483 Z0.2567
X2.629 Y-2.4806 Z0.2573
X2.6289 Y-2.4781 Z0.258
X2.6288 Y-2.4777
G3 X2.6009 Y-2.4696 I-0.0158 J-0.0024 F110.
G1 X2.6006 Y-2.4699 F30.
G3 X2.6064 Y-2.4947 Z0.25 I0.0124 J-0.0102
G1 X2.6089 Y-2.4957
X2.6107 Y-2.4963
X2.6195 Y-2.4975
X2.6306 Y-2.4989
X2.6338 Y-2.4993
X2.6373 Y-2.4997
X2.6409 Y-2.4993
X2.659 Y-2.4969
X2.6607 Y-2.4967
X2.6666 Y-2.4956
G3 X2.6802 Y-2.4719 Z0.258 I-0.0083 J0.0205
G1 X2.6801 Y-2.4715
X2.68 Y-2.4711 F110.
G3 X2.6535 Y-2.4539 I-0.0214 J-0.0039
X2.6378 Y-2.4813 I0.0051 J-0.0211
G1 X2.638 Y-2.4817 F30.
G3 X2.6607 Y-2.4967 Z0.25 I0.0207 J0.0067
G1 X2.6622 Y-2.4965
X2.6657 Y-2.4959
X2.6693 Y-2.4946
X2.6856 Y-2.4878
X2.6871 Y-2.4872
X2.6882 Y-2.4868
X2.6913 Y-2.4852
X2.6944 Y-2.4833
X2.6973 Y-2.4812
G3 X2.6998 Y-2.4549 Z0.258 I-0.0119 J0.0145
G1 X2.6996 Y-2.4545
G3 X2.675 Y-2.4511 I-0.0142 J-0.0122 F110.
G1 X2.6713 Y-2.4536
G3 X2.6639 Y-2.4754 I0.0103 J-0.0156
G1 X2.6641 Y-2.4758 F30.
G3 X2.6882 Y-2.4868 Z0.25 I0.0176 J0.0066
G1 X2.6908 Y-2.4857
X2.6917 Y-2.4853
X2.6926 Y-2.4848
X2.6943 Y-2.4835
X2.71 Y-2.4715
X2.7111 Y-2.4707
X2.7119 Y-2.47
X2.7144 Y-2.4678
G3 X2.714 Y-2.4519 I-0.0097 J0.0077
X2.7016 Y-2.4481 I-0.0092 J-0.0081
X2.6932 Y-2.4561 I0.0032 J-0.0119 F110.
X2.7119 Y-2.47 I0.0116 J-0.004 F30.
G1 X2.7134 Y-2.4688
X2.7142 Y-2.468
X2.7149 Y-2.4672
X2.728 Y-2.4501
X2.7288 Y-2.4491
X2.7298 Y-2.4477
X2.7308 Y-2.4461
X2.7317 Y-2.4445
X2.7325 Y-2.4428
G3 X2.7213 Y-2.4188 Z0.258 I-0.0174 J0.0065
G1 X2.7209 Y-2.4187
G3 X2.7032 Y-2.4506 I-0.0059 J-0.0176 F110.
G1 X2.7035 Y-2.4509 F30.
G3 X2.7234 Y-2.4529 Z0.2523 I0.0115 J0.0146
G1 X2.7258 Y-2.4515 Z0.2515
X2.7279 Y-2.4498 Z0.2508
X2.7298 Y-2.4477 Z0.25
X2.7307 Y-2.4466
X2.7312 Y-2.4457
X2.7316 Y-2.4448
X2.7394 Y-2.4261
X2.7399 Y-2.4248
X2.7403 Y-2.4238
X2.7424 Y-2.4181
X2.7425 Y-2.4172
G3 X2.7283 Y-2.3938 Z0.258 I-0.0227 J0.0023
G1 X2.7279 Y-2.3936
X2.7271 Y-2.3933 F110.
G3 X2.6983 Y-2.4088 I-0.0071 J-0.0212
X2.7157 Y-2.4365 I0.0216 J-0.0057
G1 X2.7161 Y-2.4366 F30.
G3 X2.7403 Y-2.4238 Z0.25 I0.0038 J0.022
G1 X2.7419 Y-2.4199
X2.7424 Y-2.4182
X2.7451 Y-2.3982
X2.7453 Y-2.3967
X2.7455 Y-2.3948
X2.7458 Y-2.3912
G3 X2.734 Y-2.38 I-0.0129 J-0.0018
X2.7225 Y-2.3855 I-0.001 J-0.0127
X2.7221 Y-2.3993 I0.0105 J-0.0072 F110.
X2.7455 Y-2.3948 I0.0109 J0.0066 F30.
G1 X2.7457 Y-2.3933
X2.7458 Y-2.3915
X2.7456 Y-2.3897
X2.7433 Y-2.3719
X2.743 Y-2.3698
X2.7428 Y-2.3683
X2.7421 Y-2.3653
X2.7413 Y-2.3625
X2.7403 Y-2.3597
G3 X2.7155 Y-2.3504 Z0.258 I-0.0171 J-0.0078
G1 X2.7151 Y-2.3506
G3 X2.7053 Y-2.3729 I0.0081 J-0.0169 F110.
G1 X2.7062 Y-2.3758
G3 X2.7258 Y-2.389 I0.0179 J0.0055
G1 X2.7262 Y-2.3889 F30.
G3 X2.7428 Y-2.3683 Z0.25 I-0.002 J0.0186
G1 X2.7423 Y-2.3648
X2.7403 Y-2.3597
X2.7336 Y-2.3435
X2.7332 Y-2.3425
X2.7325 Y-2.3408
X2.7311 Y-2.3381
X2.7295 Y-2.3354
X2.7277 Y-2.3329
G3 X2.7013 Y-2.3303 Z0.258 I-0.0145 J-0.0119
G1 X2.701 Y-2.3306
G3 X2.6977 Y-2.3554 I0.0122 J-0.0142 F110.
G1 X2.6995 Y-2.3579
G3 X2.7212 Y-2.3651 I0.0155 J0.0105
G1 X2.7215 Y-2.365 F30.
G3 X2.7325 Y-2.3408 Z0.25 I-0.0066 J0.0176
G1 X2.732 Y-2.3395
X2.7313 Y-2.3379
X2.7304 Y-2.3364
X2.7195 Y-2.3222
X2.719 Y-2.3216
X2.7175 Y-2.3196
G3 X2.7103 Y-2.3123 I-0.0311 J-0.0229
X2.6842 Y-2.3166 Z0.258 I-0.0109 J-0.0153
G1 X2.684 Y-2.317
G3 X2.6855 Y-2.3401 I0.0155 J-0.0106 F110.
G1 X2.6884 Y-2.3433
G3 X2.7131 Y-2.3461 I0.0139 J0.0126
G1 X2.7135 Y-2.3458 F30.
G3 X2.7211 Y-2.3307 Z0.2532 I-0.0111 J0.0151
X2.7175 Y-2.3196 Z0.25 I-0.0187 J0.
G1 X2.7139 Y-2.3151
X2.7119 Y-2.3135
X2.6977 Y-2.3026
X2.6965 Y-2.3016
X2.6955 Y-2.3008
X2.6912 Y-2.2979
G3 X2.6688 Y-2.3047 Z0.2569 I-0.0071 J-0.0171
G1 X2.6677 Y-2.3064 Z0.2574
X2.6669 Y-2.3083 Z0.258
X2.6667 Y-2.3087
G3 X2.6971 Y-2.3274 I0.0171 J-0.0062 F110.
G1 X2.6974 Y-2.3271 F30.
X2.6983 Y-2.326 Z0.2576
G3 X2.6955 Y-2.3008 Z0.25 I-0.0145 J0.0111
G1 X2.693 Y-2.299
X2.6918 Y-2.2982
X2.6906 Y-2.2977
X2.6693 Y-2.2888
X2.6657 Y-2.2875
X2.6622 Y-2.287
X2.6409 Y-2.2842
X2.6373 Y-2.2838
G3 X2.6089 Y-2.2876 I0.0148 J-0.2173
G1 X2.5858 Y-2.2973
X2.5849 Y-2.2977
X2.584 Y-2.2982
X2.5805 Y-2.3008
X2.5716 Y-2.3077
G3 X2.5652 Y-2.3179 I0.0119 J-0.0145
G1 X2.565 Y-2.3201 Z0.2501
X2.5647 Y-2.3222 Z0.2505
X2.5653 Y-2.3249 Z0.2514
X2.5658 Y-2.3274 Z0.2527
X2.5663 Y-2.3296 Z0.2543
X2.5676 Y-2.3316 Z0.2567
X2.5686 Y-2.3331 Z0.2593
X2.5694 Y-2.3343 Z0.2623
X2.5698 Y-2.335 Z0.2655
X2.57 Y-2.3352 Z0.2687
G0 Z0.9
X1.447 Y-2.3692
Z0.39
G3 X1.515 Y-2.4807 Z0.3773 I0.0885 J-0.0225 F40.
X1.6246 Y-2.4104 Z0.3645 I0.0204 J0.0887
X1.552 Y-2.3026 Z0.3518 I-0.089 J0.0184
X1.4462 Y-2.3774 Z0.3391 I-0.0163 J-0.0891
X1.5232 Y-2.4813 Z0.3264 I0.0893 J-0.0143
X1.625 Y-2.4021 Z0.3136 I0.0122 J0.0894
X1.5438 Y-2.3024 Z0.3009 I-0.0894 J0.0102
X1.4461 Y-2.3856 Z0.2882 I-0.0081 J-0.0894
X1.5314 Y-2.4811 Z0.2755 I0.0893 J-0.0061
X1.6247 Y-2.394 Z0.2627 I0.004 J0.0892
X1.5357 Y-2.3029 Z0.25 I-0.0891 J0.002
Y-2.481 I0. J-0.0891
Y-2.3029 I0. J0.0891
G1 X1.5137 Y-2.3022 F30.
G3 X1.4615 Y-2.3276 I0.0009 J-0.0682
X1.5491 Y-2.4899 I0.0733 J-0.0652
X1.5516 Y-2.2941 I-0.0131 J0.0981
X1.4691 Y-2.3074 I-0.0274 J-0.0924
G1 X1.4663 Y-2.31
X1.4648 Y-2.3111
X1.4637 Y-2.3119
G3 X1.4552 Y-2.3203 I0.0253 J-0.0345
X1.4596 Y-2.3464 Z0.258 I0.0153 J-0.0109
G1 X1.4599 Y-2.3467
G3 X1.4834 Y-2.3447 I0.0106 J0.0155 F110.
G1 X1.4876 Y-2.3408
G3 X1.4901 Y-2.3166 I-0.0129 J0.0136
G1 X1.4899 Y-2.3163 F30.
G3 X1.4637 Y-2.3119 Z0.25 I-0.0153 J-0.0109
G1 X1.4597 Y-2.3151
X1.4588 Y-2.3158
X1.458 Y-2.3167
X1.4471 Y-2.3308
X1.4464 Y-2.3317
X1.4453 Y-2.3331
X1.4419 Y-2.3381
X1.4413 Y-2.3392
X1.4408 Y-2.3402
X1.4403 Y-2.3414
G3 X1.4512 Y-2.3655 Z0.258 I0.0175 J-0.0066
G1 X1.4516 Y-2.3657
G3 X1.4733 Y-2.3586 I0.0062 J0.0177 F110.
G1 X1.4753 Y-2.3557
G3 X1.472 Y-2.3309 I-0.0155 J0.0106
G1 X1.4717 Y-2.3306 F30.
G3 X1.4453 Y-2.3331 Z0.25 I-0.0119 J-0.0145
G1 X1.4428 Y-2.3364
X1.4419 Y-2.3378
X1.4412 Y-2.3392
X1.4348 Y-2.3545
X1.4341 Y-2.3563
X1.4335 Y-2.3577
X1.4315 Y-2.3634
X1.4311 Y-2.3645
X1.4309 Y-2.3657
X1.4307 Y-2.3669
G3 X1.4475 Y-2.3874 Z0.258 I0.0187 J-0.0018
G1 X1.448
G3 X1.467 Y-2.3751 I0.0014 J0.0187 F110.
G1 X1.4682 Y-2.3719
G3 X1.4587 Y-2.3486 I-0.0176 J0.0064
G1 X1.4583 Y-2.3484 F30.
G3 X1.4335 Y-2.3577 Z0.25 I-0.0078 J-0.0171
G1 X1.4317 Y-2.362
X1.4312 Y-2.3634
X1.431 Y-2.3648
X1.4286 Y-2.383
X1.4284 Y-2.3847
X1.4282 Y-2.3862
X1.4277 Y-2.3921
Y-2.393
Y-2.3938
X1.4278 Y-2.3947
G3 X1.4494 Y-2.4101 Z0.258 I0.0185 J0.0031
G1 X1.4498 Y-2.41
G3 X1.4649 Y-2.3944 I-0.0035 J0.0184 F110.
G1 X1.4652 Y-2.392
G3 X1.4501 Y-2.3708 I-0.0185 J0.0028
G1 X1.4497 F30.
G3 X1.4282 Y-2.3862 Z0.25 I-0.0031 J-0.0185
G1 X1.4277 Y-2.3897
X1.4275 Y-2.3915
X1.4276 Y-2.3933
X1.43 Y-2.4114
X1.4303 Y-2.4132
X1.4304 Y-2.4146
X1.4315 Y-2.4205
X1.4318 Y-2.4214
X1.432 Y-2.4222
X1.4324 Y-2.4231
G3 X1.4572 Y-2.4324 Z0.258 I0.0171 J0.0078
G1 X1.4576 Y-2.4322
G3 X1.468 Y-2.4129 I-0.0081 J0.0169 F110.
G1 X1.4677 Y-2.4104
G3 X1.4477 Y-2.3941 I-0.0186 J-0.0024
G1 X1.4473 F30.
G3 X1.4304 Y-2.4146 Z0.25 I0.0018 J-0.0187
G1 X1.4309 Y-2.4182
X1.4312 Y-2.4199
X1.4318 Y-2.4217
X1.439 Y-2.439
X1.4395 Y-2.4404
X1.44 Y-2.4415
X1.4422 Y-2.4462
G3 X1.455 Y-2.4391 I0.0061 J0.004
G1 X1.4535 Y-2.4359
G3 X1.44 Y-2.4415 I-0.0066 J-0.0031
G1 X1.4414 Y-2.4448
X1.4425 Y-2.4466
X1.4542 Y-2.4619
X1.4552 Y-2.4633
X1.4561 Y-2.4644
X1.4591 Y-2.4678
G3 X1.4809 Y-2.4673 Z0.2564 I0.0106 J0.0133
G1 X1.4829 Y-2.4652 Z0.2572
X1.4845 Y-2.4628 Z0.258
X1.4847 Y-2.4624
G3 X1.463 Y-2.4392 I-0.0149 J0.0078 F110.
G1 X1.4626 Y-2.4394 F30.
G3 X1.4561 Y-2.4644 Z0.25 I0.0071 J-0.0152
G1 X1.4582 Y-2.467
X1.4613 Y-2.4697
X1.4755 Y-2.4806
X1.4776 Y-2.4821
X1.4791 Y-2.4832
X1.4822 Y-2.4851
X1.4853 Y-2.4868
X1.4886 Y-2.4883
G3 X1.5128 Y-2.4776 Z0.258 I0.0067 J0.0175
G1 X1.513 Y-2.4772
G3 X1.5038 Y-2.4541 I-0.0176 J0.0064 F110.
G1 X1.4992 Y-2.4518
G3 X1.4763 Y-2.4566 I-0.0084 J-0.0167
G1 X1.476 Y-2.4569 F30.
G3 X1.4791 Y-2.4832 Z0.25 I0.0147 J-0.0116
G1 X1.4825 Y-2.4857
X1.4897 Y-2.4888
X1.5019 Y-2.4938
X1.503 Y-2.4943
X1.5039 Y-2.4947
X1.5086 Y-2.4963
G3 X1.527 Y-2.4847 Z0.2564 I0.0021 J0.0171
G1 X1.5277 Y-2.4818 Z0.2572
X1.5279 Y-2.4789 Z0.258
Y-2.4784
G3 X1.4972 Y-2.4695 I-0.0169 J-0.0008 F110.
G1 X1.497 Y-2.4698 F30.
G3 X1.5039 Y-2.4947 Z0.25 I0.014 J-0.0095
G1 X1.5075 Y-2.4961
X1.5111 Y-2.4967
X1.5292 Y-2.499
X1.5324 Y-2.4995
X1.5341 Y-2.4996
X1.535 Y-2.4997
X1.5359 Y-2.4996
X1.5576 Y-2.4968
X1.5594 Y-2.4965
X1.5645 Y-2.4956
G3 X1.5746 Y-2.4764 Z0.2564 I-0.0072 J0.0161
G1 X1.5738 Y-2.4735 Z0.2572
X1.5725 Y-2.4708 Z0.258
X1.5723 Y-2.4704
G3 X1.5406 Y-2.4782 I-0.0146 J-0.0091 F110.
G1 Y-2.4786 F30.
G3 X1.5594 Y-2.4965 Z0.25 I0.0171 J-0.0008
G1 X1.5626 Y-2.4961
X1.5643 Y-2.4957
X1.584 Y-2.4875
X1.5854 Y-2.487
X1.5871 Y-2.4863
X1.5892 Y-2.4851
X1.5913 Y-2.4839
X1.5933 Y-2.4825
G3 X1.5959 Y-2.4561 Z0.258 I-0.0119 J0.0145
G1 X1.5956 Y-2.4558
G3 X1.5695 Y-2.4535 I-0.0142 J-0.0122 F110.
G1 X1.5686 Y-2.4542
G3 X1.5628 Y-2.4749 I0.0119 J-0.0145
G1 X1.563 Y-2.4753 F30.
G3 X1.5871 Y-2.4863 Z0.25 I0.0176 J0.0066
G1 X1.5892 Y-2.4854
X1.591 Y-2.4842
X1.6076 Y-2.4715
X1.6085 Y-2.4708
X1.6096 Y-2.4699
X1.6112 Y-2.4685
X1.6126 Y-2.467
X1.6139 Y-2.4654
G3 X1.6109 Y-2.4387 Z0.258 I-0.0163 J0.0117
G1 X1.6106 Y-2.4384
G3 X1.5825 Y-2.4671 I-0.013 J-0.0153 F110.
G1 X1.5828 Y-2.4674 F30.
G3 X1.6009 Y-2.4736 Z0.2526 I0.0148 J0.0136
G1 X1.604 Y-2.4728 Z0.2517
X1.6069 Y-2.4716 Z0.2509
X1.6096 Y-2.4699 Z0.25
X1.6105 Y-2.4692
X1.6112 Y-2.4687
X1.6118 Y-2.468
X1.6129 Y-2.4668
X1.6247 Y-2.4513
X1.6257 Y-2.4501
X1.6265 Y-2.4491
X1.6282 Y-2.4464
X1.6297 Y-2.4436
X1.631 Y-2.4407
G3 X1.62 Y-2.4165 Z0.258 I-0.0176 J0.0066
G1 X1.6196 Y-2.4164
G3 X1.5966 Y-2.4259 I-0.0062 J-0.0177 F110.
G1 X1.595 Y-2.4291
X1.594 Y-2.4317
X1.5933 Y-2.4345
X1.5931 Y-2.4373
G3 X1.5998 Y-2.4516 I0.0188 J0.
G1 X1.6001 Y-2.4519 F30.
G3 X1.6265 Y-2.4491 Z0.25 I0.0118 J0.0146
G1 X1.6283 Y-2.4466
X1.6289 Y-2.4457
X1.6293 Y-2.4448
X1.6375 Y-2.4249
X1.6382 Y-2.4231
X1.6388 Y-2.4217
X1.6399 Y-2.4189
G3 X1.6298 Y-2.4004 Z0.2563 I-0.0153 J0.0036
G1 X1.6278 Y-2.3998 Z0.2568
X1.6256 Y-2.3995 Z0.2574
X1.6235 Z0.258
X1.6231 Y-2.3996
G3 X1.6138 Y-2.4266 I0.0015 J-0.0156 F110.
G1 X1.6141 Y-2.4269 F30.
G3 X1.6388 Y-2.4217 Z0.25 I0.0105 J0.0117
G1 X1.6396 Y-2.4197
X1.6401 Y-2.418
X1.6427 Y-2.3982
X1.6429 Y-2.3967
X1.6431 Y-2.3948
X1.6433 Y-2.3923
X1.6432 Y-2.3897
X1.643 Y-2.3872
G3 X1.6214 Y-2.3718 Z0.258 I-0.0185 J-0.0031
G1 X1.621 Y-2.3719
G3 X1.6059 Y-2.3927 I0.0035 J-0.0184 F110.
G1 X1.6061 Y-2.3942
G3 X1.6212 Y-2.4102 I0.0186 J0.0024
G1 X1.6216 F30.
G3 X1.6431 Y-2.3948 Z0.25 I0.0031 J0.0185
G1 X1.6433 Y-2.3933
X1.6434 Y-2.3915
X1.6433 Y-2.3897
X1.6409 Y-2.3719
X1.6406 Y-2.3698
X1.6404 Y-2.3683
X1.6395 Y-2.3637
G3 X1.6182 Y-2.3519 Z0.2572 I-0.0177 J-0.0069
G1 X1.6153 Y-2.3527 Z0.258
X1.6149 Y-2.3528
G3 X1.6234 Y-2.389 I0.0068 J-0.0175 F110.
G1 X1.6238 F30.
X1.6239
G3 X1.6404 Y-2.3683 Z0.25 I-0.0022 J0.0187
G1 X1.6399 Y-2.3648
X1.639 Y-2.362
X1.6319 Y-2.3449
X1.6313 Y-2.3435
X1.6308 Y-2.3424
X1.6283 Y-2.337
X1.6275 Y-2.3357
X1.6271 Y-2.3352
G3 X1.6007 Y-2.3326 Z0.258 I-0.0145 J-0.0119
G1 X1.6004 Y-2.3329
G3 X1.5949 Y-2.3534 I0.0122 J-0.0142 F110.
G1 X1.5956 Y-2.3553
G3 X1.6195 Y-2.3667 I0.0177 J0.0063
G1 X1.6198 Y-2.3665 F30.
G3 X1.6308 Y-2.3424 Z0.25 I-0.0066 J0.0176
G1 X1.629 Y-2.3382
X1.628 Y-2.3364
X1.6171 Y-2.3222
X1.6154 Y-2.32
X1.6142 Y-2.3185
X1.6102 Y-2.314
G3 X1.5843 Y-2.3153 Z0.2576 I-0.0121 J-0.017
G1 X1.5833 Y-2.3163 Z0.258
X1.583 Y-2.3166
G3 X1.6116 Y-2.3456 I0.0148 J-0.014 F110.
G1 X1.6119 Y-2.3454 F30.
G3 X1.6142 Y-2.3185 Z0.25 I-0.0141 J0.0148
G1 X1.6115 Y-2.3151
X1.6105 Y-2.3142
X1.5963 Y-2.3033
X1.5953 Y-2.3026
X1.5941 Y-2.3016
X1.5892 Y-2.2982
X1.5882 Y-2.2977
G3 X1.5615 Y-2.3048 Z0.258 I-0.0084 J-0.022
G1 X1.5613 Y-2.3051
X1.5601 Y-2.3067 F110.
G3 X1.5684 Y-2.3398 I0.0193 J-0.0127
X1.6006 Y-2.3287 I0.011 J0.0203
G1 X1.6008 Y-2.3283 F30.
G3 X1.5941 Y-2.3016 Z0.25 I-0.0214 J0.0088
G1 X1.5912 Y-2.2993
X1.5902 Y-2.2987
X1.5892 Y-2.2981
X1.5787 Y-2.2937
X1.5679 Y-2.2892
X1.5643 Y-2.2878
G3 X1.5342 Y-2.2838 I-0.0437 J-0.2138
G1 X1.5324 Y-2.284
X1.5111 Y-2.2868
X1.5075 Y-2.2874
X1.5039 Y-2.2888
X1.4897 Y-2.2947
X1.4826 Y-2.2977
X1.4782 Y-2.3008
X1.4693 Y-2.3077
G3 X1.4629 Y-2.3178 I0.0119 J-0.0145
G1 X1.4627 Y-2.32 Z0.2501
X1.4624 Y-2.3222 Z0.2505
X1.463 Y-2.3248 Z0.2514
X1.4635 Y-2.3273 Z0.2527
X1.464 Y-2.3296 Z0.2543
X1.4653 Y-2.3315 Z0.2567
X1.4663 Y-2.3331 Z0.2593
X1.4671 Y-2.3342 Z0.2623
X1.4675 Y-2.3349 Z0.2655
X1.4677 Y-2.3352 Z0.2687
G0 Z0.9
X0.3446 Y-2.3692
Z0.39
G3 X0.4126 Y-2.4807 Z0.3773 I0.0885 J-0.0225 F40.
X0.5222 Y-2.4104 Z0.3645 I0.0204 J0.0887
X0.4496 Y-2.3026 Z0.3518 I-0.089 J0.0184
X0.3438 Y-2.3775 Z0.3391 I-0.0163 J-0.0891
X0.4208 Y-2.4813 Z0.3264 I0.0893 J-0.0143
X0.5227 Y-2.4022 Z0.3136 I0.0122 J0.0894
X0.4414 Y-2.3024 Z0.3009 I-0.0894 J0.0102
X0.3438 Y-2.3857 Z0.2882 I-0.0081 J-0.0894
X0.429 Y-2.4812 Z0.2755 I0.0893 J-0.0061
X0.5223 Y-2.394 Z0.2627 I0.004 J0.0892
X0.4333 Y-2.3029 Z0.25 I-0.0891 J0.002
Y-2.4811 I0. J-0.0891
Y-2.3029 I0. J0.0891
G1 X0.4113 Y-2.3022 F30.
G3 X0.3591 Y-2.3276 I0.0009 J-0.0682
X0.4467 Y-2.49 I0.0734 J-0.0652
X0.4492 Y-2.2941 I-0.0131 J0.0981
X0.3666 Y-2.3075 I-0.0274 J-0.0925
G1 X0.3629 Y-2.3107
X0.362 Y-2.3114
X0.3609 Y-2.3123
G3 X0.3537 Y-2.3192 I0.0193 J-0.0274
X0.3581 Y-2.3453 Z0.258 I0.0153 J-0.0109
G1 X0.3584 Y-2.3455
G3 X0.3813 Y-2.3441 I0.0106 J0.0155 F110.
G1 X0.3841 Y-2.3417
G3 X0.3873 Y-2.317 I-0.0124 J0.0141
G1 X0.387 Y-2.3167 F30.
G3 X0.3609 Y-2.3123 Z0.25 I-0.0153 J-0.0109
G1 X0.3573 Y-2.3151
X0.3559 Y-2.3164
X0.3548 Y-2.3177
X0.3457 Y-2.3295
X0.3441 Y-2.3316
X0.343 Y-2.3331
G3 X0.3378 Y-2.3417 I0.0267 J-0.0222
X0.3487 Y-2.3658 Z0.258 I0.0176 J-0.0066
G1 X0.3491 Y-2.3659
G3 X0.3709 Y-2.3586 I0.0062 J0.0177 F110.
G1 X0.3731 Y-2.3554
G3 X0.3697 Y-2.3308 I-0.0156 J0.0104
G1 X0.3694 Y-2.3305 F30.
G3 X0.343 Y-2.3331 Z0.25 I-0.0119 J-0.0145
G1 X0.3405 Y-2.3364
X0.3394 Y-2.338
X0.3386 Y-2.3396
X0.3315 Y-2.3568
X0.3311 Y-2.3577
X0.3307 Y-2.3588
X0.3287 Y-2.3643
G3 X0.3424 Y-2.3866 Z0.2577 I0.0208 J-0.0025
G1 X0.3435 Y-2.387 Z0.258
X0.3439 Y-2.3871
G3 X0.3556 Y-2.3478 I0.0054 J0.0198 F110.
G1 X0.3552 Y-2.3477 F30.
G3 X0.3307 Y-2.3588 Z0.25 I-0.0059 J-0.0196
G1 X0.3296 Y-2.3613
X0.329 Y-2.363
X0.3288 Y-2.3639
X0.3286 Y-2.3648
X0.3262 Y-2.383
X0.326 Y-2.3847
X0.3258 Y-2.3862
X0.3253 Y-2.3921
Y-2.393
X0.3254 Y-2.3938
X0.3255 Y-2.3946
G3 X0.347 Y-2.41 Z0.258 I0.0185 J0.0031
G1 X0.3474
G3 X0.3625 Y-2.3944 I-0.0035 J0.0184 F110.
G1 X0.3628 Y-2.3921
X0.363 Y-2.3893
G3 X0.3478 Y-2.3708 I-0.0187 J0.
G1 X0.3474 F30.
G3 X0.3258 Y-2.3862 Z0.25 I-0.0031 J-0.0185
G1 X0.3253 Y-2.3897
X0.3252 Y-2.3915
X0.3253 Y-2.3933
X0.3277 Y-2.4114
X0.3279 Y-2.4132
X0.3281 Y-2.4146
X0.3292 Y-2.4205
X0.3294 Y-2.4214
X0.3297 Y-2.4222
X0.33 Y-2.423
G3 X0.3548 Y-2.4323 Z0.258 I0.0171 J0.0078
G1 X0.3552 Y-2.4322
G3 X0.3657 Y-2.4129 I-0.0081 J0.0169 F110.
G1 X0.3653 Y-2.4104
G3 X0.3453 Y-2.3941 I-0.0186 J-0.0023
G1 X0.3449 F30.
G3 X0.3281 Y-2.4146 Z0.25 I0.0018 J-0.0187
G1 X0.3285 Y-2.4182
X0.3288 Y-2.4199
X0.3294 Y-2.4217
X0.3369 Y-2.4398
X0.3377 Y-2.4416
X0.3383 Y-2.443
X0.3396 Y-2.4458
G3 X0.354 Y-2.4494 I0.0094 J0.007
X0.3605 Y-2.4373 I-0.0049 J0.0104
G1 X0.3598 Y-2.4348 F110.
X0.3586 Y-2.4325
X0.357 Y-2.4305
G3 X0.3383 Y-2.443 I-0.0079 J-0.0085 F30.
G1 X0.3386 Y-2.4439
X0.3393 Y-2.4454
X0.3404 Y-2.447
X0.3528 Y-2.4632
X0.3537 Y-2.4644
X0.3545 Y-2.4654
X0.356 Y-2.467
X0.3575 Y-2.4685
X0.3592 Y-2.4699
G3 X0.3863 Y-2.4681 Z0.258 I0.0125 J0.0173
G1 X0.3866 Y-2.4678
G3 Y-2.4374 I-0.0149 J0.0152 F110.
X0.3563 Y-2.4379 I-0.0149 J-0.0152
G1 X0.356 Y-2.4382 F30.
G3 X0.3507 Y-2.4563 Z0.2527 I0.0157 J-0.0144
X0.3545 Y-2.4654 Z0.25 I0.0219 J0.0039
G1 X0.3551 Y-2.4662
X0.3559 Y-2.4671
X0.3568 Y-2.468
X0.3741 Y-2.4813
X0.3759 Y-2.4827
X0.3772 Y-2.4836
X0.38 Y-2.4853
X0.3829 Y-2.4869
X0.3859 Y-2.4882
G3 X0.4101 Y-2.4772 Z0.258 I0.0066 J0.0176
G1 X0.4102 Y-2.4768
G3 X0.4007 Y-2.4538 I-0.0177 J0.0062 F110.
G1 X0.397 Y-2.452
X0.3944 Y-2.451
X0.3917 Y-2.4503
X0.3888 Y-2.4501
G3 X0.3743 Y-2.4569 I0. J-0.0187
G1 X0.3741 Y-2.4573 F30.
G3 X0.3772 Y-2.4836 Z0.25 I0.0147 J-0.0116
G1 X0.3801 Y-2.4857
X0.3813 Y-2.4863
X0.4001 Y-2.4941
X0.4014 Y-2.4946
X0.4026 Y-2.4951
X0.4054 Y-2.4961
G3 X0.4218 Y-2.4869 I0.003 J0.0139
X0.4215 Y-2.4768 I-0.0134 J0.0047
X0.4013 Y-2.47 I-0.0131 J-0.0054 F110.
X0.4026 Y-2.4951 I0.0072 J-0.0122 F30.
G1 X0.4043 Y-2.4958
X0.4061 Y-2.4963
X0.4097 Y-2.4968
X0.426 Y-2.4989
X0.4275 Y-2.4991
X0.4294 Y-2.4994
X0.4319 Y-2.4995
X0.4344 Y-2.4994
X0.4369 Y-2.4992
G3 X0.4523 Y-2.4776 Z0.258 I-0.0031 J0.0185
G1 X0.4522 Y-2.4772
G3 X0.431 Y-2.4622 I-0.0184 J-0.0035 F110.
G1 X0.4297 Y-2.4624
G3 X0.4141 Y-2.4774 I0.0028 J-0.0185
G1 X0.414 Y-2.4778 F30.
G3 X0.4294 Y-2.4994 Z0.25 I0.0185 J-0.0031
G1 X0.431 Y-2.4996
X0.4328 Y-2.4997
X0.4345 Y-2.4995
X0.4562 Y-2.4967
X0.458 Y-2.4964
X0.4594 Y-2.4962
X0.4619 Y-2.4957
G3 X0.4672 Y-2.4854 I-0.0033 J0.0083
X0.4499 Y-2.4893 I-0.0087 J-0.0019
X0.4594 Y-2.4962 I0.0087 J0.0019
G1 X0.4612 Y-2.4959
X0.463 Y-2.4953
X0.4807 Y-2.4879
X0.4824 Y-2.4872
X0.4835 Y-2.4868
X0.4881 Y-2.4846
G3 X0.4928 Y-2.4639 Z0.2562 I-0.0109 J0.0133
G1 X0.4917 Y-2.462 Z0.2568
X0.4904 Y-2.4602 Z0.2574
X0.4889 Y-2.4586 Z0.258
X0.4886 Y-2.4584
G3 X0.461 Y-2.4736 I-0.011 J-0.0127 F110.
G1 X0.4611 Y-2.474 F30.
G3 X0.4835 Y-2.4868 Z0.25 I0.0165 J0.0029
G1 X0.4861 Y-2.4857
X0.4878 Y-2.4848
X0.496 Y-2.4786
X0.5053 Y-2.4715
X0.5064 Y-2.4705
X0.5079 Y-2.4693
X0.5089 Y-2.4684
X0.5099 Y-2.4674
X0.5107 Y-2.4664
G3 X0.5013 Y-2.4423 I-0.0122 J0.0091
X0.4836 Y-2.4603 I-0.0028 J-0.015 F110.
X0.5026 Y-2.472 I0.0149 J0.0031 F30.
G1 X0.5054 Y-2.4709
X0.5079 Y-2.4693
X0.5092 Y-2.4684
X0.5124 Y-2.4644
X0.5233 Y-2.4501
X0.5234 Y-2.45
X0.5242 Y-2.449
X0.5258 Y-2.4463
X0.5273 Y-2.4435
X0.5286 Y-2.4406
G3 X0.5177 Y-2.4165 Z0.258 I-0.0176 J0.0066
G1 X0.5173 Y-2.4164
G3 X0.4942 Y-2.4259 I-0.0062 J-0.0177 F110.
G1 X0.4926 Y-2.4291
G3 X0.4975 Y-2.4516 I0.0169 J-0.0082
G1 X0.4978 Y-2.4519 F30.
G3 X0.5242 Y-2.449 Z0.25 I0.0117 J0.0146
G1 X0.526 Y-2.4465
X0.5265 Y-2.4457
X0.5269 Y-2.4448
X0.5351 Y-2.4249
X0.5359 Y-2.4231
X0.5365 Y-2.4217
X0.5377 Y-2.4177
G3 X0.528 Y-2.4028 I-0.0138 J0.0015
X0.5168 Y-2.4042 I-0.0041 J-0.0132
X0.5116 Y-2.4222 I0.0072 J-0.0118 F110.
X0.5365 Y-2.4217 I0.0123 J0.0062 F30.
G1 X0.5376 Y-2.4187
X0.5382 Y-2.4146
X0.5403 Y-2.3982
X0.5405 Y-2.3967
X0.5408 Y-2.3948
X0.5411 Y-2.3913
G3 X0.5291 Y-2.3799 I-0.013 J-0.0016
X0.5178 Y-2.3851 I-0.001 J-0.0128
X0.5173 Y-2.3996 I0.0103 J-0.0076 F110.
X0.5408 Y-2.3948 I0.0108 J0.0069 F30.
G1 X0.541 Y-2.3933
X0.5411 Y-2.3915
X0.5409 Y-2.3897
X0.5386 Y-2.3719
X0.5383 Y-2.3698
X0.5381 Y-2.3683
X0.5372 Y-2.3639
G3 X0.5193 Y-2.3544 Z0.256 I-0.0149 J-0.0064
G1 X0.5169 Y-2.3551 Z0.2566
X0.5146 Y-2.3561 Z0.2573
X0.5125 Y-2.3575 Z0.258
X0.5122 Y-2.3578
G3 X0.5191 Y-2.3855 I0.0101 J-0.0122 F110.
G1 X0.5195 Y-2.3856 F30.
G3 X0.5381 Y-2.3683 Z0.25 I0.0028 J0.0156
G1 X0.5376 Y-2.3648
X0.5348 Y-2.3577
X0.5289 Y-2.3435
X0.5285 Y-2.3424
X0.5279 Y-2.3411
X0.5259 Y-2.3368
G3 X0.5001 Y-2.3281 Z0.258 I-0.0185 J-0.012
G1 X0.4997 Y-2.3282
X0.498 Y-2.3289 F110.
G3 X0.4882 Y-2.3594 I0.0094 J-0.0198
X0.5191 Y-2.3672 I0.0192 J0.0106
G1 X0.5195 Y-2.367 F30.
G3 X0.5279 Y-2.3411 Z0.25 I-0.0121 J0.0183
G1 X0.5267 Y-2.3382
X0.5256 Y-2.3364
X0.5147 Y-2.3222
X0.513 Y-2.32
X0.5119 Y-2.3185
X0.5094 Y-2.3158
X0.5067 Y-2.3133
X0.5039 Y-2.3109
G3 X0.4777 Y-2.3151 Z0.258 I-0.011 J-0.0152
G1 X0.4774 Y-2.3154
G3 X0.4803 Y-2.3401 I0.0154 J-0.0107 F110.
G1 X0.4842 Y-2.3436
G3 X0.5075 Y-2.345 I0.0125 J0.014
G1 X0.5078 Y-2.3447 F30.
G3 X0.5119 Y-2.3185 Z0.25 I-0.0111 J0.0151
G1 X0.5091 Y-2.3151
X0.5 Y-2.3079
X0.4926 Y-2.3023
X0.4916 Y-2.3015
X0.4907 Y-2.3008
X0.4869 Y-2.2983
G3 X0.4675 Y-2.3042 Z0.256 I-0.006 J-0.0149
G1 X0.4663 Y-2.3064 Z0.2566
X0.4654 Y-2.3088 Z0.2573
X0.465 Y-2.3112 Z0.258
X0.4649 Y-2.3117
G3 X0.4891 Y-2.3264 I0.0158 J-0.0014 F110.
G1 X0.4895 Y-2.3262 F30.
G3 X0.4907 Y-2.3008 Z0.25 I-0.0088 J0.0131
G1 X0.4878 Y-2.2987
G3 X0.4595 Y-2.2871 I-0.0877 J-0.1745
G1 X0.4345 Y-2.284
X0.4328 Y-2.2838
G3 X0.4043 Y-2.2876 I0.0209 J-0.263
G1 X0.3813 Y-2.2972
X0.3799 Y-2.2979
X0.3785 Y-2.2988
X0.3668 Y-2.3077
G3 X0.3605 Y-2.3179 I0.0119 J-0.0145
G1 X0.3603 Y-2.3201 Z0.2501
X0.36 Y-2.3222 Z0.2505
X0.3606 Y-2.3249 Z0.2514
X0.3611 Y-2.3274 Z0.2527
X0.3615 Y-2.3296 Z0.2543
X0.3628 Y-2.3316 Z0.2567
X0.3639 Y-2.3331 Z0.2593
X0.3646 Y-2.3343 Z0.2623
X0.3651 Y-2.335 Z0.2655
X0.3653 Y-2.3352 Z0.2687
G0 Z0.9
X3.6988 Y-2.3411
Z0.29
G3 X3.6976 Y-2.4414 Z0.28 I0.0415 J-0.0507 F40.
X3.7963 Y-2.4251 Z0.27 I0.0425 J0.0495
X3.7631 Y-2.331 Z0.26 I-0.056 J0.0331
X3.6765 Y-2.3799 Z0.25 I-0.0228 J-0.0608
X3.7397 Y-2.4565 Z0.24 I0.0637 J-0.0118
X3.8039 Y-2.3811 Z0.23 I0.0005 J0.0646
X3.7187 Y-2.3312 Z0.22 I-0.0635 J-0.0107
X3.6845 Y-2.4235 Z0.21 I0.0216 J-0.0605
X3.7811 Y-2.4411 Z0.2 I0.0556 J0.0317
X3.7815 Y-2.3431 Z0.19 I-0.0408 J0.0491
X3.6853 Y-2.3598 Z0.18 I-0.0411 J-0.0487
X3.7184 Y-2.4514 Z0.17 I0.0549 J-0.0319
X3.8025 Y-2.4029 Z0.16 I0.0218 J0.0595
X3.7403 Y-2.3287 Z0.15 I-0.0622 J0.011
Y-2.4551 I0. J-0.0632
Y-2.3287 I0. J0.0632
G1 X3.7237 Y-2.3282 F30.
G3 X3.6867 Y-2.3452 I0.0004 J-0.0497
X3.7939 Y-2.44 I0.0536 J-0.0474
X3.8107 Y-2.4054 I-0.0536 J0.0474
X3.7373 Y-2.32 I-0.0699 J0.0141
X3.6882 Y-2.3368 I-0.0005 J-0.0788
X3.6655 Y-2.379 I0.0432 J-0.0504
G1 X3.6641 Y-2.3909
G3 X3.6674 Y-2.4146 I0.1401 J0.0078
X3.6926 Y-2.4503 I0.0687 J0.0217
X3.7494 Y-2.4668 I0.0459 J0.0521
X3.7707 Y-2.4609 I-0.0018 J0.0482
X3.8063 Y-2.4288 I-0.0264 J0.0652
X3.8147 Y-2.4075 I-0.1643 J0.077
X3.8135 Y-2.3715 I-0.0782 J0.0154
G1 X3.8106 Y-2.3648
G3 X3.7493 Y-2.3168 I-0.0674 J-0.0229
X3.7032 Y-2.3254 I-0.0113 J-0.0681
G1 X3.6887 Y-2.3364
X3.6882 Y-2.3368
G3 X3.6819 Y-2.347 I0.012 J-0.0144
G1 X3.6816 Y-2.3491 Z0.1501
X3.6814 Y-2.3513 Z0.1505
X3.6819 Y-2.3539 Z0.1514
X3.6825 Y-2.3564 Z0.1527
X3.6829 Y-2.3587 Z0.1543
X3.6842 Y-2.3606 Z0.1566
X3.6853 Y-2.3622 Z0.1593
X3.686 Y-2.3634 Z0.1623
X3.6865 Y-2.3641 Z0.1655
X3.6867 Y-2.3643 Z0.1687
G0 Z0.9
X2.5963 Y-2.3412
Z0.29
G3 X2.5954 Y-2.4415 Z0.28 I0.0416 J-0.0505 F40.
X2.694 Y-2.425 Z0.27 I0.0424 J0.0497
X2.6606 Y-2.3309 Z0.26 I-0.0561 J0.033
X2.5741 Y-2.3801 Z0.25 I-0.0227 J-0.0609
X2.6374 Y-2.4565 Z0.24 I0.0637 J-0.0117
X2.7015 Y-2.3811 Z0.23 I0.0004 J0.0646
X2.6162 Y-2.3313 Z0.22 I-0.0635 J-0.0109
X2.5822 Y-2.4236 Z0.21 I0.0217 J-0.0605
X2.6788 Y-2.441 Z0.2 I0.0556 J0.0318
X2.6791 Y-2.3431 Z0.19 I-0.0409 J0.0491
X2.5829 Y-2.3599 Z0.18 I-0.0411 J-0.0487
X2.616 Y-2.4514 Z0.17 I0.055 J-0.0319
X2.7002 Y-2.403 Z0.16 I0.0218 J0.0595
X2.6379 Y-2.3287 Z0.15 I-0.0622 J0.011
Y-2.4551 I0. J-0.0632
Y-2.3287 I0. J0.0632
G1 X2.6213 Y-2.3283 F30.
G3 X2.5843 Y-2.3452 I0.0003 J-0.0497
X2.6915 Y-2.44 I0.0536 J-0.0474
X2.7083 Y-2.4054 I-0.0536 J0.0474
X2.635 Y-2.3201 I-0.0699 J0.0141
X2.5859 Y-2.3368 I-0.0006 J-0.0788
X2.5631 Y-2.379 I0.0425 J-0.0502
X2.5839 Y-2.4453 I0.0736 J-0.0134
G1 X2.5997 Y-2.4573
G3 X2.6409 Y-2.4676 I0.0367 J0.059
X2.6906 Y-2.4467 I-0.0029 J0.0768
X2.7041 Y-2.4289 I-0.0862 J0.0795
G1 X2.7098 Y-2.4146
G3 X2.7083 Y-2.3648 I-0.0621 J0.0231
X2.6585 Y-2.3188 I-0.0677 J-0.0234
X2.6338 Y-2.3156 I-0.0261 J-0.1049
X2.5981 Y-2.3271 I0.0043 J-0.0744
G1 X2.5859 Y-2.3367
G3 X2.5796 Y-2.3469 I0.0119 J-0.0145
G1 X2.5794 Y-2.3491 Z0.1501
X2.5791 Y-2.3512 Z0.1505
X2.5797 Y-2.3539 Z0.1514
X2.5802 Y-2.3564 Z0.1527
X2.5806 Y-2.3586 Z0.1543
X2.5819 Y-2.3606 Z0.1567
X2.583 Y-2.3621 Z0.1593
X2.5837 Y-2.3633 Z0.1623
X2.5842 Y-2.364 Z0.1655
X2.5844 Y-2.3642 Z0.1687
G0 Z0.9
X1.4941 Y-2.3411
Z0.29
G3 X1.4928 Y-2.4414 Z0.28 I0.0414 J-0.0507 F40.
X1.5916 Y-2.4252 Z0.27 I0.0426 J0.0495
X1.5585 Y-2.331 Z0.26 I-0.056 J0.0332
X1.4718 Y-2.3799 Z0.25 I-0.0228 J-0.0608
X1.5349 Y-2.4565 Z0.24 I0.0637 J-0.0119
X1.5991 Y-2.3812 Z0.23 I0.0006 J0.0646
X1.514 Y-2.3313 Z0.22 I-0.0635 J-0.0107
X1.4797 Y-2.4236 Z0.21 I0.0216 J-0.0605
X1.5763 Y-2.4411 Z0.2 I0.0557 J0.0317
X1.5768 Y-2.3432 Z0.19 I-0.0408 J0.0491
X1.4805 Y-2.3598 Z0.18 I-0.0411 J-0.0486
X1.5136 Y-2.4514 Z0.17 I0.0549 J-0.0319
X1.5978 Y-2.403 Z0.16 I0.0218 J0.0595
X1.5356 Y-2.3288 Z0.15 I-0.0622 J0.011
Y-2.4551 I0. J-0.0632
Y-2.3288 I0. J0.0632
G1 X1.519 Y-2.3283 F30.
G3 X1.482 Y-2.3452 I0.0004 J-0.0497
X1.5892 Y-2.44 I0.0536 J-0.0474
X1.606 Y-2.4054 I-0.0536 J0.0474
X1.5326 Y-2.3201 I-0.0699 J0.0141
X1.4836 Y-2.3368 I-0.0006 J-0.0787
X1.4608 Y-2.379 I0.0431 J-0.0505
X1.481 Y-2.4447 I0.0738 J-0.0133
G1 X1.4973 Y-2.4573
G3 X1.5395 Y-2.4674 I0.0361 J0.0574
X1.5742 Y-2.4571 I-0.003 J0.0738
X1.6075 Y-2.4146 I-0.039 J0.0649
X1.606 Y-2.3648 I-0.0608 J0.0231
X1.5572 Y-2.319 I-0.0684 J-0.0241
X1.5324 Y-2.3157 I-0.0264 J-0.101
X1.4986 Y-2.3252 I0.0034 J-0.0768
G1 X1.4835 Y-2.3368
G3 X1.4772 Y-2.3469 I0.0119 J-0.0145
G1 X1.477 Y-2.3491 Z0.1501
X1.4767 Y-2.3512 Z0.1505
X1.4773 Y-2.3539 Z0.1514
X1.4778 Y-2.3564 Z0.1527
X1.4782 Y-2.3587 Z0.1543
X1.4795 Y-2.3606 Z0.1567
X1.4806 Y-2.3622 Z0.1593
X1.4813 Y-2.3633 Z0.1623
X1.4818 Y-2.364 Z0.1655
X1.482 Y-2.3642 Z0.1687
G0 Z0.9
X0.3916 Y-2.3412
Z0.29
G3 X0.3906 Y-2.4415 Z0.28 I0.0416 J-0.0506 F40.
X0.4893 Y-2.425 Z0.27 I0.0424 J0.0496
X0.4559 Y-2.331 Z0.26 I-0.0561 J0.033
X0.3694 Y-2.3801 Z0.25 I-0.0227 J-0.0608
X0.4326 Y-2.4565 Z0.24 I0.0637 J-0.0117
X0.4967 Y-2.3811 Z0.23 I0.0004 J0.0646
X0.4115 Y-2.3313 Z0.22 I-0.0635 J-0.0108
X0.3774 Y-2.4236 Z0.21 I0.0217 J-0.0605
X0.474 Y-2.4411 Z0.2 I0.0556 J0.0318
X0.4744 Y-2.3431 Z0.19 I-0.0409 J0.0491
X0.3781 Y-2.3599 Z0.18 I-0.0411 J-0.0487
X0.4113 Y-2.4514 Z0.17 I0.055 J-0.0319
X0.4954 Y-2.403 Z0.16 I0.0218 J0.0595
X0.4332 Y-2.3287 Z0.15 I-0.0622 J0.011
Y-2.4551 I0. J-0.0632
Y-2.3287 I0. J0.0632
G1 X0.4166 Y-2.3283 F30.
G3 X0.3796 Y-2.3452 I0.0004 J-0.0497
X0.4868 Y-2.44 I0.0536 J-0.0474
X0.5036 Y-2.4054 I-0.0536 J0.0474
X0.4303 Y-2.3201 I-0.0699 J0.0141
X0.3812 Y-2.3368 I-0.0006 J-0.0788
X0.3574 Y-2.3897 I0.0465 J-0.0528
X0.379 Y-2.4452 I0.0741 J-0.0031
G1 X0.3955 Y-2.4576
G3 X0.4381 Y-2.4673 I0.0361 J0.0602
X0.4994 Y-2.4289 I-0.004 J0.0744
X0.5076 Y-2.4075 I-0.1743 J0.0798
X0.5065 Y-2.3719 I-0.0782 J0.0154
X0.4971 Y-2.3505 I-0.1609 J-0.0584
X0.4523 Y-2.3182 I-0.0642 J-0.0416
G1 X0.4381 Y-2.3163
G3 X0.3955 Y-2.3258 I-0.0068 J-0.0696
G1 X0.3812 Y-2.3367
G3 X0.3796 Y-2.3642 I0.0119 J-0.0145
G1 X0.3819 Y-2.3666 Z0.1503
X0.3841 Y-2.3688 Z0.1511
X0.3861 Y-2.371 Z0.1525
X0.388 Y-2.3729 Z0.1544
X0.3896 Y-2.3746 Z0.1567
X0.3909 Y-2.3759 Z0.1594
X0.3919 Y-2.3769 Z0.1623
X0.3925 Y-2.3775 Z0.1655
X0.3927 Y-2.3777 Z0.1688
G0 Z1.3
(RADIAL2 18)
S7500 M3
G64 P0.0004 Q0.0004
G0 X0.4331 Y-2.2652
Z1.3
Z0.631
G1 Z0.3009 F80.
Y-2.3734 Z-0.0393 F60.
Y-2.3735 Z-0.0436
X0.4305 Y-2.3736
Z-0.0393
X0.4155 Y-2.2665 Z0.3007
X0.3982 Y-2.2701 Z0.3008
X0.428 Y-2.3741 Z-0.0393
Y-2.3742 Z-0.0436
X0.4256 Y-2.375
Z-0.0393
X0.3816 Y-2.2762 Z0.3009
X0.366 Y-2.2845 Z0.3007
X0.4233 Y-2.3762 Z-0.0393
X0.4234 Z-0.0436
X0.4213 Y-2.3777
Z-0.0393
X0.3518 Y-2.2948 Z0.3009
X0.3391 Y-2.3071
X0.4194 Y-2.3795 Z-0.0393
X0.4195 Z-0.0436
X0.4179 Y-2.3815
Z-0.0393
X0.3282 Y-2.321 Z0.3006
X0.3194 Y-2.3363 Z0.3009
X0.4166 Y-2.3837 Z-0.0393
Z-0.0436
X0.4157 Y-2.3861
X0.4156 Z-0.0393
X0.3128 Y-2.3526 Z0.3009
X0.3085 Y-2.3698 Z0.3006
X0.4149 Y-2.3885 Z-0.0391
X0.4151 Y-2.3886 Z-0.0436
X0.4148 Y-2.3911
X0.4147 Z-0.0391
X0.3066 Y-2.3873 Z0.3009
X0.3073 Y-2.405 Z0.3008
X0.4148 Y-2.3937 Z-0.0393
X0.4149 Y-2.3936 Z-0.0436
X0.4153 Y-2.3962
Z-0.0393
X0.3103 Y-2.4223 Z0.3007
X0.3158 Y-2.4391 Z0.3009
X0.4161 Y-2.3986 Z-0.0393
Z-0.0436
X0.4173 Y-2.4009
X0.4172 Z-0.0393
X0.3235 Y-2.455 Z0.3008
X0.3334 Y-2.4696
X0.4186 Y-2.403 Z-0.0393
X0.4187 Z-0.0436
X0.4204 Y-2.4049
X0.4203 Z-0.0393
X0.3452 Y-2.4827 Z0.3009
X0.3587 Y-2.4941 Z0.3007
X0.4223 Y-2.4066 Z-0.0393
Y-2.4065 Z-0.0436
X0.4245 Y-2.4079
Z-0.0393
X0.3737 Y-2.5034 Z0.3008
X0.3898 Y-2.5106 Z0.3009
X0.4268 Y-2.409 Z-0.0393
Y-2.4089 Z-0.0436
X0.4293 Y-2.4096
Y-2.4097 Z-0.0393
X0.4068 Y-2.5155 Z0.3006
X0.4242 Y-2.5179 Z0.3009
X0.4318 Y-2.41 Z-0.0393
Y-2.4099 Z-0.0436
X0.4343 Y-2.41
X0.4344 Z-0.0393
X0.4419 Y-2.5179 Z0.3009
X0.4594 Y-2.5155 Z0.3006
X0.4369 Y-2.4097 Z-0.0391
Y-2.4096 Z-0.0436
X0.4393 Y-2.4089
Y-2.409 Z-0.0393
X0.4763 Y-2.5106 Z0.3009
X0.4925 Y-2.5034 Z0.3008
X0.4417 Y-2.4079 Z-0.0393
X0.4416 Z-0.0436
X0.4438 Y-2.4065
X0.4439 Y-2.4066 Z-0.0393
X0.5074 Y-2.4941 Z0.3007
X0.5209 Y-2.4827 Z0.3009
X0.4458 Y-2.4049 Z-0.0393
Z-0.0436
X0.4475 Y-2.403
Z-0.0393
X0.5328 Y-2.4696 Z0.3008
X0.5426 Y-2.455
X0.449 Y-2.4009 Z-0.0393
X0.4489 Z-0.0436
X0.45 Y-2.3986
X0.4501 Z-0.0391
X0.5504 Y-2.4391 Z0.3009
X0.5558 Y-2.4223 Z0.3007
X0.4509 Y-2.3962 Z-0.0393
X0.4508 Y-2.3961 Z-0.0436
X0.4512 Y-2.3936
X0.4514 Y-2.3937 Z-0.0391
X0.5589 Y-2.405 Z0.3008
X0.5595 Y-2.3873 Z0.3009
X0.4515 Y-2.3911 Z-0.0391
X0.4513 Z-0.0436
X0.4511 Y-2.3886
X0.4512 Y-2.3885 Z-0.0393
X0.5576 Y-2.3698 Z0.3006
X0.5534 Y-2.3526 Z0.3009
X0.4505 Y-2.3861 Z-0.0393
X0.4504 Z-0.0436
X0.4495 Y-2.3837
X0.4496 Z-0.0393
X0.5468 Y-2.3363 Z0.3009
X0.5379 Y-2.321 Z0.3006
X0.4483 Y-2.3814 Z-0.0391
X0.4482 Y-2.3815 Z-0.0436
X0.4466 Y-2.3795
X0.4467 Z-0.0393
X0.5271 Y-2.3071 Z0.3009
X0.5144 Y-2.2948
X0.4449 Y-2.3777 Z-0.0393
X0.4448 Z-0.0436
X0.4428 Y-2.3762
Z-0.0393
X0.5001 Y-2.2845 Z0.3007
X0.4845 Y-2.2762 Z0.3009
X0.4405 Y-2.375 Z-0.0393
Z-0.0436
X0.4381 Y-2.3742
Y-2.3741 Z-0.0393
X0.4679 Y-2.2701 Z0.3008
X0.4507 Y-2.2665 Z0.3007
X0.4356 Y-2.3736 Z-0.0393
Y-2.3737 Z-0.0436
X0.4352 Y-2.3769 Z-0.0433
X0.4347 Y-2.38 Z-0.0424
X0.4343 Y-2.3829 Z-0.041
X0.4339 Y-2.3856 Z-0.0392
X0.4336 Y-2.3879 Z-0.0369
X0.4334 Y-2.3897 Z-0.0342
X0.4332 Y-2.3911 Z-0.0312
X0.433 Y-2.3919 Z-0.0281
Y-2.3922 Z-0.0248
G0 Z1.3
(RADIAL2 21)
G0 X1.5354 Y-2.2652
Z1.3
Z0.631
G1 Z0.3009 F80.
Y-2.3734 Z-0.0393 F60.
Y-2.3735 Z-0.0436
X1.5329 Y-2.3736
Z-0.0393
X1.5178 Y-2.2665 Z0.3007
X1.5006 Y-2.2701 Z0.3008
X1.5304 Y-2.3741 Z-0.0393
Y-2.3742 Z-0.0436
X1.528 Y-2.375
Z-0.0393
X1.484 Y-2.2762 Z0.3009
X1.4684 Y-2.2845 Z0.3007
X1.5257 Y-2.3762 Z-0.0393
X1.5258 Z-0.0436
X1.5237 Y-2.3777
X1.5236 Z-0.0393
X1.4541 Y-2.2948 Z0.3009
X1.4414 Y-2.3071
X1.5218 Y-2.3795 Z-0.0393
X1.5219 Z-0.0436
X1.5203 Y-2.3815
X1.5202 Z-0.0393
X1.4306 Y-2.321 Z0.3006
X1.4217 Y-2.3363 Z0.3009
X1.5189 Y-2.3837 Z-0.0391
X1.519 Z-0.0436
X1.5181 Y-2.3861
X1.518 Z-0.0393
X1.4151 Y-2.3526 Z0.3009
X1.4109 Y-2.3698 Z0.3006
X1.5174 Y-2.3885 Z-0.0393
X1.5175 Y-2.3886 Z-0.0436
X1.5172 Y-2.3911
X1.5171 Z-0.0393
X1.409 Y-2.3873 Z0.3009
X1.4096 Y-2.405 Z0.3008
X1.5172 Y-2.3937 Z-0.0393
X1.5173 Y-2.3936 Z-0.0436
X1.5177 Y-2.3962
X1.5176 Z-0.0391
X1.4127 Y-2.4223 Z0.3007
X1.4181 Y-2.4391 Z0.3009
X1.5184 Y-2.3986 Z-0.0393
X1.5185 Z-0.0436
X1.5196 Y-2.4009
X1.5195 Z-0.0393
X1.4259 Y-2.455 Z0.3008
X1.4357 Y-2.4696
X1.521 Y-2.403 Z-0.0393
Z-0.0436
X1.5227 Y-2.4049
X1.5226 Y-2.405 Z-0.0391
X1.4476 Y-2.4827 Z0.3009
X1.4611 Y-2.4941 Z0.3007
X1.5246 Y-2.4066 Z-0.0393
X1.5247 Y-2.4065 Z-0.0436
X1.5269 Y-2.4079
X1.5268 Z-0.0393
X1.476 Y-2.5034 Z0.3008
X1.4922 Y-2.5106 Z0.3009
X1.5292 Y-2.409 Z-0.0393
Y-2.4089 Z-0.0436
X1.5316 Y-2.4096
Y-2.4097 Z-0.0393
X1.5091 Y-2.5155 Z0.3006
X1.5266 Y-2.5179 Z0.3009
X1.5342 Y-2.41 Z-0.0393
Y-2.4099 Z-0.0436
X1.5367 Y-2.41
Z-0.0393
X1.5443 Y-2.5179 Z0.3009
X1.5617 Y-2.5155 Z0.3006
X1.5393 Y-2.4097 Z-0.0391
X1.5392 Y-2.4096 Z-0.0436
X1.5417 Y-2.4089
Y-2.409 Z-0.0393
X1.5787 Y-2.5106 Z0.3009
X1.5948 Y-2.5034 Z0.3008
X1.5441 Y-2.408 Z-0.0391
X1.544 Y-2.4079 Z-0.0436
X1.5462 Y-2.4065
X1.5463 Y-2.4066 Z-0.0391
X1.6098 Y-2.4941 Z0.3007
X1.6233 Y-2.4827 Z0.3009
X1.5482 Y-2.405 Z-0.0391
X1.5481 Y-2.4049 Z-0.0436
X1.5498 Y-2.403
X1.5499 Z-0.0393
X1.6351 Y-2.4696 Z0.3008
X1.645 Y-2.455
X1.5513 Y-2.4009 Z-0.0393
Z-0.0436
X1.5524 Y-2.3986
Z-0.0393
X1.6527 Y-2.4391 Z0.3009
X1.6582 Y-2.4223 Z0.3007
X1.5533 Y-2.3962 Z-0.0391
X1.5531 Y-2.3961 Z-0.0436
X1.5536 Y-2.3936
X1.5537 Y-2.3937 Z-0.0393
X1.6612 Y-2.405 Z0.3008
X1.6619 Y-2.3873 Z0.3009
X1.5538 Y-2.3911 Z-0.0393
X1.5537 Z-0.0436
X1.5534 Y-2.3886
X1.5535 Y-2.3885 Z-0.0393
X1.66 Y-2.3698 Z0.3006
X1.6557 Y-2.3526 Z0.3009
X1.5529 Y-2.3861 Z-0.0393
X1.5528 Z-0.0436
X1.5518 Y-2.3837
X1.552 Z-0.0391
X1.6491 Y-2.3363 Z0.3009
X1.6403 Y-2.321 Z0.3006
X1.5506 Y-2.3815 Z-0.0393
Z-0.0436
X1.549 Y-2.3795
X1.5491 Y-2.3794 Z-0.0391
X1.6294 Y-2.3071 Z0.3009
X1.6167 Y-2.2948
X1.5472 Y-2.3777 Z-0.0393
Z-0.0436
X1.5451 Y-2.3762
X1.5452 Z-0.0393
X1.6025 Y-2.2845 Z0.3007
X1.5869 Y-2.2762 Z0.3009
X1.5429 Y-2.3749 Z-0.0391
Y-2.3751 Z-0.0436
X1.5405 Y-2.3742
Y-2.374 Z-0.0391
X1.5703 Y-2.2701 Z0.3008
X1.553 Y-2.2665 Z0.3007
X1.538 Y-2.3736 Z-0.0393
Y-2.3737 Z-0.0436
X1.5375 Y-2.3769 Z-0.0433
X1.5371 Y-2.38 Z-0.0424
X1.5367 Y-2.3829 Z-0.041
X1.5363 Y-2.3856 Z-0.0392
X1.536 Y-2.3879 Z-0.0369
X1.5357 Y-2.3897 Z-0.0342
X1.5355 Y-2.3911 Z-0.0312
X1.5354 Y-2.3919 Z-0.0281
Y-2.3922 Z-0.0248
G0 Z1.3
(RADIAL2 20)
G0 X2.6378 Y-2.2652
Z1.3
Z0.631
G1 Z0.3009 F80.
Y-2.3733 Z-0.0391 F60.
Y-2.3735 Z-0.0436
X2.6353 Y-2.3736
X2.6352 Z-0.0393
X2.6202 Y-2.2665 Z0.3007
X2.6029 Y-2.2701 Z0.3008
X2.6327 Y-2.3741 Z-0.0393
X2.6328 Y-2.3742 Z-0.0436
X2.6304 Y-2.375
X2.6303 Z-0.0393
X2.5863 Y-2.2762 Z0.3009
X2.5708 Y-2.2845 Z0.3007
X2.628 Y-2.3761 Z-0.0391
X2.6281 Y-2.3763 Z-0.0436
X2.6261 Y-2.3777
X2.626 Y-2.3776 Z-0.0391
X2.5565 Y-2.2948 Z0.3009
X2.5438 Y-2.3071
X2.6241 Y-2.3794 Z-0.0391
X2.6242 Y-2.3795 Z-0.0436
X2.6226 Y-2.3815
X2.6225 Y-2.3814 Z-0.0391
X2.5329 Y-2.321 Z0.3006
X2.5241 Y-2.3363 Z0.3009
X2.6212 Y-2.3837 Z-0.0391
X2.6214 Z-0.0436
X2.6204 Y-2.3861
X2.6203 Y-2.386 Z-0.0391
X2.5175 Y-2.3526 Z0.3009
X2.5132 Y-2.3698 Z0.3006
X2.6197 Y-2.3885 Z-0.0391
X2.6198 Y-2.3886 Z-0.0436
X2.6195 Y-2.3911
X2.6194 Z-0.0391
X2.5114 Y-2.3873 Z0.3009
X2.512 Y-2.405 Z0.3008
X2.6195 Y-2.3937 Z-0.0393
X2.6196 Y-2.3936 Z-0.0436
X2.6201 Y-2.3962
X2.62 Z-0.0393
X2.5151 Y-2.4223 Z0.3007
X2.5205 Y-2.4391 Z0.3009
X2.6208 Y-2.3986 Z-0.0393
X2.6209 Z-0.0436
X2.622 Y-2.4009
X2.6219 Z-0.0391
X2.5282 Y-2.455 Z0.3008
X2.5381 Y-2.4696
X2.6233 Y-2.403 Z-0.0393
X2.6234 Z-0.0436
X2.6251 Y-2.4049
X2.625 Z-0.0393
X2.5499 Y-2.4827 Z0.3009
X2.5634 Y-2.4941 Z0.3007
X2.627 Y-2.4066 Z-0.0393
Y-2.4065 Z-0.0436
X2.6292 Y-2.4079
Z-0.0393
X2.5784 Y-2.5034 Z0.3008
X2.5945 Y-2.5106 Z0.3009
X2.6315 Y-2.409 Z-0.0391
X2.6316 Y-2.4089 Z-0.0436
X2.634 Y-2.4096
Y-2.4097 Z-0.0393
X2.6115 Y-2.5155 Z0.3006
X2.629 Y-2.5179 Z0.3009
X2.6365 Y-2.41 Z-0.0393
Y-2.4099 Z-0.0436
X2.6391 Y-2.41
Z-0.0393
X2.6466 Y-2.5179 Z0.3009
X2.6641 Y-2.5155 Z0.3006
X2.6416 Y-2.4097 Z-0.0391
Y-2.4096 Z-0.0436
X2.644 Y-2.4089
X2.6441 Y-2.409 Z-0.0393
X2.6811 Y-2.5106 Z0.3009
X2.6972 Y-2.5034 Z0.3008
X2.6464 Y-2.408 Z-0.0391
Y-2.4079 Z-0.0436
X2.6485 Y-2.4065
X2.6486 Y-2.4066 Z-0.0391
X2.7122 Y-2.4941 Z0.3007
X2.7257 Y-2.4827 Z0.3009
X2.6506 Y-2.405 Z-0.0391
X2.6505 Y-2.4049 Z-0.0436
X2.6522 Y-2.403
X2.6523 Z-0.0393
X2.7375 Y-2.4696 Z0.3008
X2.7473 Y-2.455
X2.6537 Y-2.4009 Z-0.0393
X2.6536 Z-0.0436
X2.6547 Y-2.3986
X2.6548 Z-0.0393
X2.7551 Y-2.4391 Z0.3009
X2.7605 Y-2.4223 Z0.3007
X2.6556 Y-2.3962 Z-0.0393
X2.6555 Y-2.3961 Z-0.0436
X2.656 Y-2.3936
Y-2.3937 Z-0.0393
X2.7636 Y-2.405 Z0.3008
X2.7642 Y-2.3873 Z0.3009
X2.6561 Y-2.3911 Z-0.0393
Z-0.0436
X2.6558 Y-2.3886
X2.6559 Y-2.3885 Z-0.0393
X2.7624 Y-2.3698 Z0.3006
X2.7581 Y-2.3526 Z0.3009
X2.6553 Y-2.3861 Z-0.0393
X2.6552 Z-0.0436
X2.6542 Y-2.3837
X2.6543 Z-0.0391
X2.7515 Y-2.3363 Z0.3009
X2.7427 Y-2.321 Z0.3006
X2.653 Y-2.3815 Z-0.0393
X2.6529 Z-0.0436
X2.6514 Y-2.3795
Z-0.0393
X2.7318 Y-2.3071 Z0.3009
X2.7191 Y-2.2948
X2.6496 Y-2.3777 Z-0.0393
X2.6495 Z-0.0436
X2.6475 Y-2.3762
X2.6476 Y-2.3761 Z-0.0391
X2.7048 Y-2.2845 Z0.3007
X2.6892 Y-2.2762 Z0.3009
X2.6453 Y-2.3749 Z-0.0391
X2.6452 Y-2.3751 Z-0.0436
X2.6428 Y-2.3742
X2.6429 Y-2.374 Z-0.0391
X2.6727 Y-2.2701 Z0.3008
X2.6554 Y-2.2665 Z0.3007
X2.6403 Y-2.3736 Z-0.0393
Y-2.3737 Z-0.0436
X2.6399 Y-2.3769 Z-0.0433
X2.6394 Y-2.38 Z-0.0424
X2.639 Y-2.3829 Z-0.041
X2.6387 Y-2.3856 Z-0.0392
X2.6383 Y-2.3879 Z-0.0369
X2.6381 Y-2.3897 Z-0.0342
X2.6379 Y-2.3911 Z-0.0312
X2.6378 Y-2.3919 Z-0.0281
X2.6377 Y-2.3922 Z-0.0248
G0 Z1.3
(RADIAL2 19)
G0 X3.7402 Y-2.2652
Z1.3
Z0.631
G1 Z0.3009 F80.
Y-2.3734 Z-0.0393 F60.
Y-2.3735 Z-0.0436
X3.7376 Y-2.3736
Z-0.0393
X3.7226 Y-2.2665 Z0.3007
X3.7053 Y-2.2701 Z0.3008
X3.7351 Y-2.3741 Z-0.0393
Y-2.3742 Z-0.0436
X3.7327 Y-2.3751
Y-2.3749 Z-0.0391
X3.6887 Y-2.2762 Z0.3009
X3.6731 Y-2.2845 Z0.3007
X3.7304 Y-2.3761 Z-0.0391
X3.7305 Y-2.3762 Z-0.0436
X3.7284 Y-2.3777
X3.7283 Y-2.3776 Z-0.0391
X3.6588 Y-2.2948 Z0.3009
X3.6461 Y-2.3071
X3.7265 Y-2.3795 Z-0.0393
X3.7266 Z-0.0436
X3.725 Y-2.3815
X3.7249 Y-2.3814 Z-0.0391
X3.6353 Y-2.321 Z0.3006
X3.6265 Y-2.3363 Z0.3009
X3.7237 Y-2.3837 Z-0.0393
Z-0.0436
X3.7228 Y-2.3861
X3.7226 Y-2.386 Z-0.0391
X3.6198 Y-2.3526 Z0.3009
X3.6156 Y-2.3698 Z0.3006
X3.722 Y-2.3885 Z-0.0391
X3.7222 Y-2.3886 Z-0.0436
X3.7219 Y-2.3911
X3.7218 Z-0.0391
X3.6137 Y-2.3873 Z0.3009
X3.6144 Y-2.405 Z0.3008
X3.7219 Y-2.3937 Z-0.0393
X3.722 Y-2.3936 Z-0.0436
X3.7224 Y-2.3962
X3.7223 Z-0.0391
X3.6174 Y-2.4223 Z0.3007
X3.6229 Y-2.4391 Z0.3009
X3.7231 Y-2.3986 Z-0.0391
X3.7232 Z-0.0436
X3.7243 Y-2.4009
Z-0.0393
X3.6306 Y-2.455 Z0.3008
X3.6405 Y-2.4696
X3.7257 Y-2.403 Z-0.0393
X3.7258 Z-0.0436
X3.7275 Y-2.4049
X3.7274 Z-0.0393
X3.6523 Y-2.4827 Z0.3009
X3.6658 Y-2.4941 Z0.3007
X3.7293 Y-2.4066 Z-0.0391
X3.7294 Y-2.4065 Z-0.0436
X3.7316 Y-2.4079
X3.7315 Z-0.0393
X3.6808 Y-2.5034 Z0.3008
X3.6969 Y-2.5106 Z0.3009
X3.7339 Y-2.409 Z-0.0391
Y-2.4089 Z-0.0436
X3.7364 Y-2.4096
X3.7363 Y-2.4097 Z-0.0393
X3.7139 Y-2.5155 Z0.3006
X3.7313 Y-2.5179 Z0.3009
X3.7389 Y-2.41 Z-0.0393
Y-2.4099 Z-0.0436
X3.7414 Y-2.41
Z-0.0393
X3.749 Y-2.5179 Z0.3009
X3.7665 Y-2.5155 Z0.3006
X3.744 Y-2.4097 Z-0.0391
Y-2.4096 Z-0.0436
X3.7464 Y-2.4089
Y-2.409 Z-0.0393
X3.7834 Y-2.5106 Z0.3009
X3.7995 Y-2.5034 Z0.3008
X3.7488 Y-2.408 Z-0.0391
X3.7487 Y-2.4079 Z-0.0436
X3.7509 Y-2.4065
X3.751 Y-2.4066 Z-0.0391
X3.8145 Y-2.4941 Z0.3007
X3.828 Y-2.4827 Z0.3009
X3.7529 Y-2.405 Z-0.0391
X3.7528 Y-2.4049 Z-0.0436
X3.7546 Y-2.403
Z-0.0393
X3.8398 Y-2.4696 Z0.3008
X3.8497 Y-2.455
X3.7561 Y-2.4009 Z-0.0391
X3.756 Z-0.0436
X3.7571 Y-2.3986
X3.7572 Z-0.0393
X3.8574 Y-2.4391 Z0.3009
X3.8629 Y-2.4223 Z0.3007
X3.758 Y-2.3962 Z-0.0391
X3.7579 Y-2.3961 Z-0.0436
X3.7583 Y-2.3936
X3.7585 Y-2.3937 Z-0.0391
X3.866 Y-2.405 Z0.3008
X3.8666 Y-2.3873 Z0.3009
X3.7586 Y-2.3911 Z-0.0391
X3.7584 Z-0.0436
X3.7582 Y-2.3886
X3.7583 Y-2.3885 Z-0.0391
X3.8647 Y-2.3698 Z0.3006
X3.8605 Y-2.3526 Z0.3009
X3.7576 Y-2.3861 Z-0.0393
X3.7575 Z-0.0436
X3.7566 Y-2.3837
X3.7567 Z-0.0393
X3.8539 Y-2.3363 Z0.3009
X3.845 Y-2.321 Z0.3006
X3.7554 Y-2.3815 Z-0.0393
X3.7553 Z-0.0436
X3.7537 Y-2.3795
X3.7538 Y-2.3794 Z-0.0391
X3.8342 Y-2.3071 Z0.3009
X3.8215 Y-2.2948
X3.752 Y-2.3777 Z-0.0393
X3.7519 Z-0.0436
X3.7498 Y-2.3762
X3.7499 Y-2.3761 Z-0.0391
X3.8072 Y-2.2845 Z0.3007
X3.7916 Y-2.2762 Z0.3009
X3.7476 Y-2.3749 Z-0.0391
Y-2.3751 Z-0.0436
X3.7452 Y-2.3742
Y-2.374 Z-0.0391
X3.775 Y-2.2701 Z0.3008
X3.7578 Y-2.2665 Z0.3007
X3.7427 Y-2.3736 Z-0.0393
Y-2.3737 Z-0.0436
X3.7422 Y-2.3769 Z-0.0433
X3.7418 Y-2.38 Z-0.0424
X3.7414 Y-2.3829 Z-0.041
X3.741 Y-2.3856 Z-0.0392
X3.7407 Y-2.3879 Z-0.0369
X3.7404 Y-2.3897 Z-0.0342
X3.7402 Y-2.3911 Z-0.0312
X3.7401 Y-2.3919 Z-0.0281
Y-2.3922 Z-0.0248
G0 Z1.3
M5
G53 G0 Z-0.6
(2D CHAMFER2 23)
M9
M1
T13 M6
T35
S5000 M3
G17 G90 G94
G54
M8
G0 X2.2094 Y-2.3257
G43 Z0.7 H13
G0 Z0.6
G1 Z0.495 F80.
G3 X2.3894 Y-2.1457 I0. J0.18 F30.
G1 Y-0.3543
G2 X2.5591 Y-0.1847 I0.1696 J0.
G1 X2.7165
G2 X2.8861 Y-0.3543 I0. J-0.1696
G1 Y-2.1457
G3 X3.0661 Y-2.3257 I0.18 J0.
G0 Z0.6
X3.3118
G1 Z0.495 F80.
G3 X3.4918 Y-2.1457 I0. J0.18 F30.
G1 Y-0.3543
G2 X3.6614 Y-0.1847 I0.1696 J0.
G1 X3.8189
G2 X3.9885 Y-0.3543 I0. J-0.1696
G1 Y-2.1457
G3 X4.1685 Y-2.3257 I0.18 J0.
G0 Z0.6
X1.1071
G1 Z0.495 F80.
G3 X1.2871 Y-2.1457 I0. J0.18 F30.
G1 Y-0.3543
G2 X1.4567 Y-0.1847 I0.1696 J0.
G1 X1.6142
G2 X1.7838 Y-0.3543 I0. J-0.1696
G1 Y-2.1457
G3 X1.9638 Y-2.3257 I0.18 J0.
G0 Z0.6
X0.0047
G1 Z0.495 F80.
G3 X0.1847 Y-2.1457 I0. J0.18 F30.
G1 Y-0.3543
G2 X0.3543 Y-0.1847 I0.1696 J0.
G1 X0.5118
G2 X0.6814 Y-0.3543 I0. J-0.1696
G1 Y-2.1457
G3 X0.8614 Y-2.3257 I0.18 J0.
G0 Z0.7
(2D CHAMFER2 24)
G0 X2.6357 Y-1.1833
Z0.7
Z0.6
G1 Z0.47 F200.
X2.6356 Y-1.1831 Z0.4678 F30.
X2.6353 Y-1.1824 Z0.4657
X2.6348 Y-1.1814 Z0.4638
X2.6341 Y-1.1799 Z0.4622
X2.6333 Y-1.1782 Z0.461
X2.6324 Y-1.1763 Z0.4603
X2.6314 Y-1.1743 Z0.46
G3 X2.6181 Y-1.1696 I-0.009 J-0.0043
X2.6575 Y-1.2516 I0.0197 J-0.041
X2.6181 Y-1.1696 I-0.0197 J0.041
X2.6134 Y-1.183 I0.0043 J-0.009
G1 X2.6143 Y-1.185 Z0.4603
X2.6153 Y-1.1869 Z0.461
X2.6161 Y-1.1886 Z0.4622
X2.6168 Y-1.19 Z0.4638
X2.6173 Y-1.1911 Z0.4657
X2.6176 Y-1.1918 Z0.4678
X2.6177 Y-1.192 Z0.47
G0 Z0.6
X2.6478 Y-0.8505
G1 Z0.47 F200.
G19 G3 Y-0.8405 Z0.46 J0.01 K0. F30.
G17 G3 X2.6378 Y-0.8305 I-0.01 J0.
Y-0.9215 I0. J-0.0455
Y-0.8305 I0. J0.0455
X2.6278 Y-0.8405 I0. J-0.01
G19 G2 Y-0.8505 Z0.47 J0. K0.01
G0 Z0.6
X2.6478 Y-0.5158
G1 Z0.47 F200.
G3 Y-0.5058 Z0.46 J0.01 K0. F30.
G17 G3 X2.6378 Y-0.4958 I-0.01 J0.
Y-0.5868 I0. J-0.0455
Y-0.4958 I0. J0.0455
X2.6278 Y-0.5058 I0. J-0.01
G19 G2 Y-0.5158 Z0.47 J0. K0.01
G0 Z0.6
X2.6478 Y-1.5198
G1 Z0.47 F200.
G3 Y-1.5098 Z0.46 J0.01 K0. F30.
G17 G3 X2.6378 Y-1.4998 I-0.01 J0.
Y-1.5908 I0. J-0.0455
Y-1.4998 I0. J0.0455
X2.6278 Y-1.5098 I0. J-0.01
G19 G2 Y-1.5198 Z0.47 J0. K0.01
G0 Z0.6
X2.6478 Y-1.8544
G1 Z0.47 F200.
G3 Y-1.8444 Z0.46 J0.01 K0. F30.
G17 G3 X2.6378 Y-1.8344 I-0.01 J0.
Y-1.9254 I0. J-0.0455
Y-1.8344 I0. J0.0455
X2.6278 Y-1.8444 I0. J-0.01
G19 G2 Y-1.8544 Z0.47 J0. K0.01
G0 Z0.6
X1.5454
G1 Z0.47 F200.
G3 Y-1.8444 Z0.46 J0.01 K0. F30.
G17 G3 X1.5354 Y-1.8344 I-0.01 J0.
Y-1.9254 I0. J-0.0455
Y-1.8344 I0. J0.0455
X1.5254 Y-1.8444 I0. J-0.01
G19 G2 Y-1.8544 Z0.47 J0. K0.01
G0 Z0.6
X1.5454 Y-1.5198
G1 Z0.47 F200.
G3 Y-1.5098 Z0.46 J0.01 K0. F30.
G17 G3 X1.5354 Y-1.4998 I-0.01 J0.
Y-1.5908 I0. J-0.0455
Y-1.4998 I0. J0.0455
X1.5254 Y-1.5098 I0. J-0.01
G19 G2 Y-1.5198 Z0.47 J0. K0.01
G0 Z0.6
X1.5454 Y-1.1851
G1 Z0.47 F200.
G3 Y-1.1751 Z0.46 J0.01 K0. F30.
G17 G3 X1.5354 Y-1.1651 I-0.01 J0.
Y-1.2561 I0. J-0.0455
Y-1.1651 I0. J0.0455
X1.5254 Y-1.1751 I0. J-0.01
G19 G2 Y-1.1851 Z0.47 J0. K0.01
G0 Z0.6
X1.5334 Y-0.8487
G1 Z0.47 F200.
X1.5333 Y-0.8484 Z0.4678 F30.
X1.5329 Y-0.8478 Z0.4657
X1.5324 Y-0.8467 Z0.4638
X1.5317 Y-0.8453 Z0.4622
X1.5309 Y-0.8436 Z0.461
X1.53 Y-0.8417 Z0.4603
X1.529 Y-0.8397 Z0.46
G17 G3 X1.5157 Y-0.835 I-0.009 J-0.0043
X1.5552 Y-0.917 I0.0197 J-0.041
X1.5157 Y-0.835 I-0.0197 J0.041
X1.511 Y-0.8483 I0.0043 J-0.009
G1 X1.512 Y-0.8503 Z0.4603
X1.5129 Y-0.8522 Z0.461
X1.5137 Y-0.854 Z0.4622
X1.5144 Y-0.8554 Z0.4638
X1.5149 Y-0.8565 Z0.4657
X1.5153 Y-0.8571 Z0.4678
X1.5154 Y-0.8573 Z0.47
G0 Z0.6
X1.5454 Y-0.5158
G1 Z0.47 F200.
G19 G3 Y-0.5058 Z0.46 J0.01 K0. F30.
G17 G3 X1.5354 Y-0.4958 I-0.01 J0.
Y-0.5868 I0. J-0.0455
Y-0.4958 I0. J0.0455
X1.5254 Y-0.5058 I0. J-0.01
G19 G2 Y-0.5158 Z0.47 J0. K0.01
G0 Z0.6
X0.4431
G1 Z0.47 F200.
G3 Y-0.5058 Z0.46 J0.01 K0. F30.
G17 G3 X0.4331 Y-0.4958 I-0.01 J0.
Y-0.5868 I0. J-0.0455
Y-0.4958 I0. J0.0455
X0.4231 Y-0.5058 I0. J-0.01
G19 G2 Y-0.5158 Z0.47 J0. K0.01
G0 Z0.6
X0.4431 Y-0.8505
G1 Z0.47 F200.
G3 Y-0.8405 Z0.46 J0.01 K0. F30.
G17 G3 X0.4331 Y-0.8305 I-0.01 J0.
Y-0.9215 I0. J-0.0455
Y-0.8305 I0. J0.0455
X0.4231 Y-0.8405 I0. J-0.01
G19 G2 Y-0.8505 Z0.47 J0. K0.01
G0 Z0.6
X0.431 Y-1.1833
G1 Z0.47 F200.
X0.4309 Y-1.1831 Z0.4678 F30.
X0.4306 Y-1.1824 Z0.4657
X0.4301 Y-1.1814 Z0.4638
X0.4294 Y-1.1799 Z0.4622
X0.4286 Y-1.1782 Z0.461
X0.4276 Y-1.1763 Z0.4603
X0.4267 Y-1.1743 Z0.46
G17 G3 X0.4133 Y-1.1696 I-0.009 J-0.0043
X0.4528 Y-1.2516 I0.0197 J-0.041
X0.4133 Y-1.1696 I-0.0197 J0.041
X0.4087 Y-1.183 I0.0043 J-0.009
G1 X0.4096 Y-1.185 Z0.4603
X0.4105 Y-1.1869 Z0.461
X0.4114 Y-1.1886 Z0.4622
X0.4121 Y-1.19 Z0.4638
X0.4126 Y-1.1911 Z0.4657
X0.4129 Y-1.1918 Z0.4678
X0.413 Y-1.192 Z0.47
G0 Z0.6
X0.4431 Y-1.5198
G1 Z0.47 F200.
G19 G3 Y-1.5098 Z0.46 J0.01 K0. F30.
G17 G3 X0.4331 Y-1.4998 I-0.01 J0.
Y-1.5908 I0. J-0.0455
Y-1.4998 I0. J0.0455
X0.4231 Y-1.5098 I0. J-0.01
G19 G2 Y-1.5198 Z0.47 J0. K0.01
G0 Z0.6
X0.4431 Y-1.8544
G1 Z0.47 F200.
G3 Y-1.8444 Z0.46 J0.01 K0. F30.
G17 G3 X0.4331 Y-1.8344 I-0.01 J0.
Y-1.9254 I0. J-0.0455
Y-1.8344 I0. J0.0455
X0.4231 Y-1.8444 I0. J-0.01
G19 G2 Y-1.8544 Z0.47 J0. K0.01
G0 Z0.6
X3.7502
G1 Z0.47 F200.
G3 Y-1.8444 Z0.46 J0.01 K0. F30.
G17 G3 X3.7402 Y-1.8344 I-0.01 J0.
Y-1.9254 I0. J-0.0455
Y-1.8344 I0. J0.0455
X3.7302 Y-1.8444 I0. J-0.01
G19 G2 Y-1.8544 Z0.47 J0. K0.01
G0 Z0.6
X3.7502 Y-1.5198
G1 Z0.47 F200.
G3 Y-1.5098 Z0.46 J0.01 K0. F30.
G17 G3 X3.7402 Y-1.4998 I-0.01 J0.
Y-1.5908 I0. J-0.0455
Y-1.4998 I0. J0.0455
X3.7302 Y-1.5098 I0. J-0.01
G19 G2 Y-1.5198 Z0.47 J0. K0.01
G0 Z0.6
X3.7502 Y-1.1851
G1 Z0.47 F200.
G3 Y-1.1751 Z0.46 J0.01 K0. F30.
G17 G3 X3.7402 Y-1.1651 I-0.01 J0.
Y-1.2561 I0. J-0.0455
Y-1.1651 I0. J0.0455
X3.7302 Y-1.1751 I0. J-0.01
G19 G2 Y-1.1851 Z0.47 J0. K0.01
G0 Z0.6
X3.7381 Y-0.8487
G1 Z0.47 F200.
X3.738 Y-0.8484 Z0.4678 F30.
X3.7377 Y-0.8478 Z0.4657
X3.7372 Y-0.8467 Z0.4638
X3.7365 Y-0.8453 Z0.4622
X3.7356 Y-0.8436 Z0.461
X3.7347 Y-0.8417 Z0.4603
X3.7338 Y-0.8397 Z0.46
G17 G3 X3.7204 Y-0.835 I-0.009 J-0.0043
X3.7599 Y-0.917 I0.0197 J-0.041
X3.7204 Y-0.835 I-0.0197 J0.041
X3.7157 Y-0.8483 I0.0043 J-0.009
G1 X3.7167 Y-0.8503 Z0.4603
X3.7176 Y-0.8522 Z0.461
X3.7185 Y-0.854 Z0.4622
X3.7191 Y-0.8554 Z0.4638
X3.7197 Y-0.8565 Z0.4657
X3.72 Y-0.8571 Z0.4678
X3.7201 Y-0.8573 Z0.47
G0 Z0.6
X3.7381 Y-0.514
G1 Z0.47 F200.
X3.738 Y-0.5138 Z0.4678 F30.
X3.7377 Y-0.5131 Z0.4657
X3.7372 Y-0.5121 Z0.4638
X3.7365 Y-0.5106 Z0.4622
X3.7356 Y-0.5089 Z0.461
X3.7347 Y-0.507 Z0.4603
X3.7338 Y-0.505 Z0.46
G3 X3.7204 Y-0.5003 I-0.009 J-0.0043
X3.7599 Y-0.5823 I0.0197 J-0.041
X3.7204 Y-0.5003 I-0.0197 J0.041
X3.7157 Y-0.5137 I0.0043 J-0.009
G1 X3.7167 Y-0.5157 Z0.4603
X3.7176 Y-0.5176 Z0.461
X3.7185 Y-0.5193 Z0.4622
X3.7191 Y-0.5207 Z0.4638
X3.7197 Y-0.5218 Z0.4657
X3.72 Y-0.5225 Z0.4678
X3.7201 Y-0.5227 Z0.47
G0 Z0.7
(2D CHAMFER1 18)
G0 Z1.15
X1.8263 Y-2.1457
Z0.63
G1 Z0.502 F80.
X1.7888 F20.
G3 X1.8147 Y-2.2754 I0.3372 J0.
G2 X1.2561 Y-2.5081 I-0.2793 J-0.1164
Y-2.2754 I0.2793 J0.1164
G3 X1.2821 Y-2.1457 I-0.3113 J0.1297
G1 X1.2446
G0 Z0.75
X1.5772 Y-2.2723
Z0.63
G1 Z0.502 F80.
X1.5895 Y-2.2369 F20.
G3 X1.4813 Y-2.5465 I-0.0541 J-0.1548
X1.5895 Y-2.2369 I0.0541 J0.1548
G1 X1.5772 Y-2.2723
G0 Z0.75
X0.7239 Y-2.1457
Z0.63
G1 Z0.502 F80.
X0.6864 F20.
G3 X0.7124 Y-2.2754 I0.3372 J0.
G2 X0.1538 Y-2.5081 I-0.2793 J-0.1164
Y-2.2754 I0.2793 J0.1164
G3 X0.1797 Y-2.1457 I-0.3113 J0.1297
G1 X0.1422
G0 Z0.75
X0.4748 Y-2.2723
Z0.63
G1 Z0.502 F80.
X0.4872 Y-2.2369 F20.
G3 X0.379 Y-2.5465 I-0.0541 J-0.1548
X0.4872 Y-2.2369 I0.0541 J0.1548
G1 X0.4748 Y-2.2723
G0 Z0.75
X2.6948 Y-2.2788
Z0.63
G1 Z0.502 F80.
X2.7116 Y-2.2453 F20.
G3 X2.564 Y-2.5381 I-0.0738 J-0.1464
X2.7116 Y-2.2453 I0.0738 J0.1464
G1 X2.6948 Y-2.2788
G0 Z0.75
X2.9286 Y-2.1457
Z0.63
G1 Z0.502 F80.
X2.8911 F20.
G3 X2.9171 Y-2.2754 I0.3372 J0.
G2 X2.3585 Y-2.5081 I-0.2793 J-0.1164
Y-2.2754 I0.2793 J0.1164
G3 X2.3844 Y-2.1457 I-0.3113 J0.1297
G1 X2.3469
G0 Z0.75
X3.7971 Y-2.2788
Z0.63
G1 Z0.502 F80.
X3.814 Y-2.2453 F20.
G3 X3.6663 Y-2.5381 I-0.0738 J-0.1464
X3.814 Y-2.2453 I0.0738 J0.1464
G1 X3.7971 Y-2.2788
G0 Z0.75
X4.031 Y-2.1457
Z0.63
G1 Z0.502 F80.
X3.9935 F20.
G3 X4.0194 Y-2.2754 I0.3372 J0.
G2 X3.4609 Y-2.5081 I-0.2793 J-0.1164
Y-2.2754 I0.2793 J0.1164
G3 X3.4868 Y-2.1457 I-0.3113 J0.1297
G1 X3.4493
G0 Z1.15
M5
M9
G53 G0 Z-0.6
M30
%
