%
(OP1 - 2,09X1,77)
(MACHINE)
(  VENDOR CALLUM)
(  MODEL MILL R1)
(  DESCRIPTION 14X8X14 MILL)
(T11 D=0.125 CR=0. TAPER=45DEG - ZMIN=0.2625 - CHAMFER MILL)
(T35 D=0.375 CR=0. - ZMIN=0.155 - FLAT END MILL)
(T53 D=0.264 CR=0. TAPER=118DEG - ZMIN=0.0757 - DRILL)
(T101 D=0.1 CR=0. TAPER=135DEG - ZMIN=0.1343 - DRILL)
G90 G94 G17 G91.1
G20
G53 G0 Z-0.6
(DRILL1)
T53 M6
T35
S5000 M3
G17 G90 G94
G55
M8
G0 X0.2569 Y-1.5167
G43 Z1.0996 H53
G0 Z0.6996
G98 G81 X0.2569 Y-1.5167 Z0.0757 R0.6996 F30.
X1.8317
G80
G0 Z1.0996
M5
G53 G0 Z-0.6
(ADAPTIVE1)
M9
M1
T35 M6
T101
S5000 M3
G17 G90 G94
G55
G64 P0.004 Q0.004
M8
G0 X-0.0381 Y-2.2056
G43 Z1.0996 H35
G0 Z0.23
G1 Z0.1925 F40.
X-0.038 Y-2.2054 Z0.188
X-0.0378 Y-2.2046 Z0.1835
X-0.0375 Y-2.2033 Z0.1792
X-0.037 Y-2.2015 Z0.1751
X-0.0365 Y-2.1992 Z0.1712
X-0.0358 Y-2.1965 Z0.1676
X-0.035 Y-2.1934 Z0.1644
X-0.0341 Y-2.19 Z0.1616
X-0.0331 Y-2.1862 Z0.1593
X-0.0321 Y-2.1822 Z0.1574
X-0.031 Y-2.178 Z0.1561
X-0.0299 Y-2.1737 Z0.1553
X-0.0288 Y-2.1693 Z0.155
G3 X0.0006 Y-1.9652 I-0.9274 J0.2376
G1 Y-1.9592
X-0.0036 Y-1.915
X-0.0067 Y-1.8707
X-0.0087 Y-1.8348
G3 X-0.0295 Y-1.7872 I-0.0741 J-0.004
G2 X-0.078 Y-1.7246 I0.7952 J0.6658
X-0.1211 Y-1.6272 I0.465 J0.2644
G1 X-0.1269 Y-1.6049
G2 X-0.1375 Y-1.5151 I0.6511 J0.122
G1 Y-1.5039
Y-0.2697
G2 X-0.132 Y-0.2023 I0.3918 J0.0021
X-0.1084 Y-0.1126 I0.2783 J-0.0253
X-0.0754 Y-0.0452 I0.3247 J-0.1172
G1 X-0.0555 Y-0.0189
G2 X-0.0107 Y0.0323 I0.251 J-0.1746
X0.0497 Y0.0783 I0.5623 J-0.6749
X0.1211 Y0.1117 I0.2126 J-0.3618
X0.2026 Y0.1319 I0.1005 J-0.2307
X0.2699 Y0.1375 I0.0678 J-0.4054
G1 X1.8186
G2 X1.9196 Y0.1269 I-0.0139 J-0.6209
X1.9869 Y0.1037 I-0.0689 J-0.3087
X2.0547 Y0.0671 I-0.0909 J-0.2496
G1 X2.0879 Y0.0414
G2 X2.1439 Y-0.019 I-0.1669 J-0.2107
G1 X2.1639 Y-0.0453
G2 X2.1969 Y-0.1126 I-0.2948 J-0.1861
X2.2205 Y-0.2024 I-0.2491 J-0.1135
X2.226 Y-0.2697 I-0.3778 J-0.0649
G1 Y-1.5039
G2 X2.2205 Y-1.5712 I-0.3918 J-0.0021
X2.1969 Y-1.661 I-0.2783 J0.0253
X2.1639 Y-1.7283 I-0.3247 J0.1172
G1 X2.144 Y-1.7546
G2 X2.0992 Y-1.8058 I-0.251 J0.1746
X2.0388 Y-1.8518 I-0.5623 J0.6749
X1.9674 Y-1.8852 I-0.2126 J0.3618
X1.8859 Y-1.9054 I-0.1005 J0.2307
X1.8186 Y-1.911 I-0.0678 J0.4054
G1 X0.2699
G2 X0.169 Y-1.9005 I0.0139 J0.6209
X0.1016 Y-1.8772 I0.0689 J0.3087
X0.0338 Y-1.8406 I0.0909 J0.2496
G1 X0.0045 Y-1.818
G3 X-0.0172 Y-1.8111 I-0.0218 J-0.0305
G1 X-0.0211 Y-1.8113
X-0.0249 Y-1.8118
G3 X-0.0447 Y-1.8741 Z0.1553 I0.0076 J-0.0367 F300.
G1 X0.023 Y-1.9691 Z0.1566
G3 X0.0679 Y-2.004 Z0.1575 I0.0803 J0.057
G1 X0.124 Y-2.0253 Z0.1587
X0.225 Y-2.0398 Z0.1613
X1.8635 Y-2.0401 Z0.2531
X1.9645 Y-2.0251 Z0.2596
X2.0655 Y-1.9854 Z0.2664
X2.1384 Y-1.9415 Z0.2715
X2.2055 Y-1.8854 Z0.2766
X2.269 Y-1.8068 Z0.2822
X2.3059 Y-1.7395 Z0.2862
X2.3426 Y-1.6385 Z0.2915
X2.4227 Y-1.1 Z0.3099
G3 X2.2723 Y-0.9977 Z0.3122 I-0.0964 J0.02
X2.2285 Y-1.0691 Z0.3125 I0.054 J-0.0823
G1 X2.2284 Y-1.0705 F40.
G3 X2.226 Y-1.1 I0.9529 J-0.0919
G2 X2.2156 Y-1.1897 I-0.602 J0.0241
X2.1929 Y-1.257 I-0.2944 J0.0618
G1 X2.1833 Y-1.2795
X2.1783 Y-1.2907
X2.1651 Y-1.3131
X2.1569 Y-1.3244
X2.1453 Y-1.3412
X2.1289 Y-1.3704
X2.1107 Y-1.4109
X2.0948 Y-1.4524
X2.0786 Y-1.4937
X2.0598 Y-1.5339
X2.0371 Y-1.572
X2.0095 Y-1.6067
X1.9768 Y-1.6367
X1.9395 Y-1.6608
X1.8993 Y-1.6795
X1.8573 Y-1.6939
X1.8143 Y-1.705
X1.7877 Y-1.7102
G3 X1.7422 Y-1.739 I0.0142 J-0.0728
G1 X1.7336 Y-1.7507
X1.7288 Y-1.7569
X1.7064 Y-1.7856
X1.6963 Y-1.7956
G2 X1.6278 Y-1.8499 I-0.3714 J0.3975
G1 X1.6166 Y-1.857
G2 X1.5156 Y-1.8986 I-0.2619 J0.4922
X1.437 Y-1.9097 I-0.1484 J0.7692
G1 X1.4368 Y-1.9098
G2 X1.4141 Y-1.9305 I-0.382 J0.3967
X1.3211 Y-1.9952 I-0.3593 J0.4174 F300.
X1.303 Y-1.9998 I-0.0181 J0.0328
G1 X0.8082 Y-2.0006
G2 X0.7901 Y-1.996 I-0.0001 J0.0375
X0.6969 Y-1.9316 I0.2647 J0.4829
X0.6742 Y-1.911 I0.358 J0.4185 F40.
G1 X0.6739 Y-1.9109
X0.6627
G2 X0.5658 Y-1.8968 I0.0572 J0.7364
X0.4718 Y-1.8572 I0.2092 J0.6271
G1 X0.4607 Y-1.8499
X0.4495 Y-1.8422
X0.4316 Y-1.83
X0.4019 Y-1.8134
X0.3613 Y-1.7953
X0.3199 Y-1.7794
X0.2786 Y-1.7631
X0.2384 Y-1.7443
X0.2004 Y-1.7214
X0.1658 Y-1.6937
X0.136 Y-1.6608
X0.1121 Y-1.6234
X0.0935 Y-1.5831
X0.0792 Y-1.5411
X0.0683 Y-1.4981
X0.0634 Y-1.4731
G3 X0.0352 Y-1.4279 I-0.0728 J-0.0141
G2 X-0.0236 Y-1.3806 I0.4185 J0.5804
X-0.0765 Y-1.3131 I0.7467 J0.6404
G1 X-0.0897 Y-1.2907
G2 X-0.125 Y-1.201 I0.5808 J0.2802
G1 X-0.1272 Y-1.1897
X-0.1308 Y-1.1673
X-0.1352 Y-1.1336
G3 X-0.1516 Y-1.1084 I-0.037 J-0.0062
X-0.2092 Y-1.1336 I-0.0206 J-0.0314 F300.
G1 X-0.2283 Y-1.2683
G3 X-0.2222 Y-1.3131 I0.098 J-0.0095
G1 X-0.2185 Y-1.3244
G3 X-0.2126 Y-1.3377 I0.0929 J0.0325
G1 X0.0247 Y-1.7283
X0.0728 Y-1.7844
X0.1273 Y-1.8293
X0.1662 Y-1.8517
X0.3821 Y-1.9461
G3 X0.4718 Y-1.8966 I0.0277 J0.0558
G1 X0.4677 Y-1.8672
X0.4495 Y-1.8422 F40.
X0.4158 Y-1.8164
X0.4046 Y-1.8067
X0.3922 Y-1.7956
X0.3821 Y-1.7856
G2 X0.3258 Y-1.7091 I0.6564 J0.5427
X0.292 Y-1.6273 I0.8899 J0.4154
G1 X0.2791 Y-1.5849
X0.2654 Y-1.5427
G3 X0.2046 Y-1.4925 I-0.0704 J-0.0234
X0.1761 Y-1.5018 I-0.0036 J-0.0373
X0.1677 Y-1.547 I0.025 J-0.028 F300.
G1 X0.2221 Y-1.6524
G3 X0.2861 Y-1.6567 I0.0333 J0.0172
X0.2921 Y-1.6273 I-0.0307 J0.0216 F40.
G1 X0.2865 Y-1.6049
G2 X0.2753 Y-1.5263 I2.2799 J0.3627
G3 X0.2475 Y-1.4984 I-0.0382 J-0.0102
G2 X0.1689 Y-1.4874 I1.0607 J7.8616
X0.0898 Y-1.4589 I0.1005 J0.4031
G1 X0.0839 Y-1.4565
G3 X0.0539 Y-1.458 I-0.0133 J-0.0351
X0.0345 Y-1.4814 I0.0167 J-0.0336 F300.
G1 X0.0351 Y-1.5039
X0.2811 Y-1.8683
X0.3372 Y-1.9215
X0.3959 Y-1.9639
X0.4944 Y-2.011
X0.6066 Y-2.0373
X0.7076 Y-2.0418
X1.4483 Y-2.0404
X1.538 Y-2.0262
X1.5993 Y-2.0084
X1.6498 Y-1.9865
X1.6502 Y-1.9863
X1.7661 Y-1.919
X2.043 Y-1.7488
X2.0942 Y-1.7058
X2.144 Y-1.6464
X2.1665 Y-1.6082
X2.2608 Y-1.3917
G3 X2.2115 Y-1.3019 I-0.0558 J0.0278
G1 X2.2114
G3 X2.1815 Y-1.3062 I-0.0063 J-0.062
X2.1569 Y-1.3244 I0.0235 J-0.0577 F40.
G2 X2.1104 Y-1.3822 I-0.6677 J0.4888
X2.0319 Y-1.443 I-0.5172 J0.5867
X1.9421 Y-1.4813 I-0.2939 J0.5643
G1 X1.8999 Y-1.4953
X1.8581 Y-1.5087
G3 X1.8074 Y-1.5695 I0.0226 J-0.0705
X1.8166 Y-1.5981 I0.0373 J-0.0038
X1.8621 Y-1.6065 I0.0281 J0.0248 F300.
G1 X1.9682 Y-1.5509
G3 X1.9716 Y-1.4865 I-0.0174 J0.0332
X1.942 Y-1.4812 I-0.0208 J-0.0312 F40.
G2 X1.8859 Y-1.4921 I-0.078 J0.2535
G1 X1.8523 Y-1.4966
X1.841 Y-1.4984
G3 X1.8133 Y-1.5263 I0.0099 J-0.0376
G2 X1.8022 Y-1.6049 I-4.3784 J0.5789
G1 X1.7961 Y-1.6283
X1.7927 Y-1.6385
X1.7835 Y-1.661
X1.7742 Y-1.6834
Z0.3434
Z0.4896 F300.
X1.773 Y-1.7058
X1.8074 Y-1.7711
G2 X1.7874 Y-1.8893 I-0.087 J-0.0461
G1 X1.725 Y-1.9415
X1.6721 Y-1.9751
X1.5829 Y-2.0149
X1.4793 Y-2.0376
X1.3809 Y-2.0419
X0.6402 Y-2.0403
X0.5617 Y-2.0283
X0.49 Y-2.0088
X0.4046 Y-1.969
X0.3326 Y-1.9179
X0.2765 Y-1.8629
X0.0368 Y-1.56
X0.0256 Y-1.5263
X0.0067 Y-1.4336
X0.0006 Y-1.4033 F40.
Y-1.3922
X0.0072 Y-1.3483
X0.0147 Y-1.3119
G3 X0.0267 Y-1.1349 I-1.7939 J0.2107
X0.0319 Y-0.6913 I-13.4097 J0.3782
G1 X0.0323 Y-0.5581
X0.0324 Y-0.425
X0.033 Y-0.3806
X0.0354 Y-0.3363
X0.0415 Y-0.2924
X0.0528 Y-0.2495
X0.0706 Y-0.2088
X0.0952 Y-0.1719
X0.1265 Y-0.1405
X0.1632 Y-0.1155
X0.2032 Y-0.0962
X0.245 Y-0.0813
X0.2878 Y-0.0699
G2 X0.4634 Y-0.0453 I0.2517 J-1.1604
X0.7738 Y-0.0346 I0.3147 J-4.6296
G1 X0.8182 Y-0.034
X0.9957 Y-0.033
X1.1732 Y-0.0326
X1.3507
X1.6613 Y-0.0325
X1.7056 Y-0.033
X1.75 Y-0.0352
X1.7939 Y-0.041
X1.8369 Y-0.0521
X1.8777 Y-0.0696
X1.9149 Y-0.0938
X1.9466 Y-0.1249
X1.9718 Y-0.1614
X1.9914 Y-0.2012
X2.0065 Y-0.2429
X2.0181 Y-0.2857
G2 X2.043 Y-0.4613 I-1.1437 J-0.2516
X2.0538 Y-0.7717 I-4.5655 J-0.3147
X2.0553 Y-0.9492 I-12.458 J-0.1924
G1 X2.0545 Y-0.9935
X2.0511 Y-1.0378
X2.0434 Y-1.0815
X2.0302 Y-1.1238
X2.0106 Y-1.1636
X1.984 Y-1.1992
X1.9509 Y-1.2286
X1.9141 Y-1.2535
X1.8762 Y-1.2766
X1.8385 Y-1.3
X1.8045 Y-1.3239
X1.7797 Y-1.3448
X1.7603 Y-1.3644
X1.7434 Y-1.385
X1.7246 Y-1.4124
X1.703 Y-1.4511
X1.6827 Y-1.4905
X1.6614 Y-1.5295
X1.6375 Y-1.5668
X1.6098 Y-1.6015
X1.5777 Y-1.6321
X1.5411 Y-1.6573
X1.5012 Y-1.6768
X1.4595 Y-1.6918
X1.4166 Y-1.7034
G2 X1.2411 Y-1.7281 I-0.2517 J1.1498
X0.9307 Y-1.7389 I-0.3147 J4.5888
X0.7532 Y-1.738 I-0.0756 J2.5246
G1 X0.7092 Y-1.7322
X0.6662 Y-1.7213
X0.6253 Y-1.7041
X0.588 Y-1.6801
X0.5561 Y-1.6492
X0.5297 Y-1.6136
X0.5061 Y-1.576
X0.483 Y-1.5381
X0.4585 Y-1.5011
X0.4367 Y-1.4734
X0.4167 Y-1.4522
X0.3973 Y-1.435
X0.3732 Y-1.4173
X0.3352 Y-1.3943
X0.3023 Y-1.3646
X0.2773 Y-1.3279
X0.2585 Y-1.2877
X0.2443 Y-1.2457
X0.2336 Y-1.2026
G2 X0.212 Y-1.0266 I1.2123 J0.238
X0.2036 Y-0.6718 I6.06 J0.3217
X0.2034 Y-0.4943 I6.5428 J0.0969
G1 X0.2059 Y-0.45
X0.2167 Y-0.4069
X0.2388 Y-0.3685
X0.269 Y-0.336
X0.3043 Y-0.3091
X0.3429 Y-0.2872
X0.3837 Y-0.2696
X0.4258 Y-0.2556
G2 X0.6 Y-0.2229 I0.2729 J-0.9754
X0.8213 Y-0.2086 I0.2888 J-2.741
X1.3538 Y-0.2031 I0.4399 J-16.8527
G1 X1.4869 Y-0.2026
X1.5313
X1.5756 Y-0.2029
X1.62 Y-0.2043
X1.664 Y-0.2102
X1.7046 Y-0.228
X1.7396 Y-0.2552
X1.7688 Y-0.2887
X1.7926 Y-0.3261
X1.8119 Y-0.3661
X1.8274 Y-0.4077
G2 X1.8634 Y-0.5812 I-0.8784 J-0.2727
X1.8803 Y-0.8912 I-2.5184 J-0.2931
G1 X1.8752 Y-0.9352
X1.8605 Y-0.9771
X1.8389 Y-1.0159
X1.8129 Y-1.0519
X1.7845 Y-1.0859
X1.7548 Y-1.1189
X1.7248 Y-1.1516
X1.6954 Y-1.1849
X1.6671 Y-1.219
X1.6404 Y-1.2544
X1.6151 Y-1.2909
X1.5907 Y-1.328
X1.566 Y-1.3648
X1.5383 Y-1.3995
X1.5063 Y-1.4302
X1.4705 Y-1.4565
X1.4319 Y-1.4784
X1.3914 Y-1.4966
X1.3496 Y-1.5114
G2 X1.176 Y-1.5471 I-0.2847 J0.9451
X0.9105 Y-1.5647 I-0.3006 J2.5254
G1 X0.8661 Y-1.5636
X0.8226 Y-1.5549
X0.7818 Y-1.5374
X0.7441 Y-1.514
X0.7089 Y-1.487
X0.6754 Y-1.4579
G3 X0.5418 Y-1.3411 I-1.7441 J-1.8601
G1 X0.511 Y-1.3092
X0.4846 Y-1.2735
X0.4626 Y-1.235
X0.4445 Y-1.1945
X0.4298 Y-1.1526
G2 X0.3947 Y-0.9788 I0.9356 J0.2789
X0.3777 Y-0.7132 I2.7827 J0.312
G1 X0.3765 Y-0.6689
X0.376 Y-0.6245
X0.3875 Y-0.5817
X0.4103 Y-0.5436
X0.4406 Y-0.5112
X0.4759 Y-0.4843
X0.5144 Y-0.4622
X0.555 Y-0.4443
X0.5969 Y-0.4298
G2 X0.7708 Y-0.3954 I0.2805 J-0.9633
X1.0808 Y-0.3772 I0.3412 J-3.1519
X1.4357 Y-0.3734 I0.3261 J-13.8053
G1 X1.48 Y-0.3767
X1.5213 Y-0.3929
X1.5573 Y-0.4189
X1.5876 Y-0.4512
X1.6127 Y-0.4879
X1.6331 Y-0.5272
X1.6497 Y-0.5684
G2 X1.6889 Y-0.7412 I-0.7815 J-0.2677
G1 Y-0.7855
X1.6813 Y-0.8293
X1.6678 Y-0.8715
X1.65 Y-0.9122
X1.6294 Y-0.9515
X1.6069 Y-0.9897
G2 X1.4856 Y-1.1754 I-4.0356 J2.5029
G1 X1.4571 Y-1.2095
X1.4251 Y-1.2403
X1.3899 Y-1.2673
X1.3521 Y-1.2905
X1.3123 Y-1.3102
X1.2712 Y-1.3267
G2 X1.099 Y-1.3687 I-0.3051 J0.8778
G1 X1.055 Y-1.3749
X1.0107 Y-1.3778
X0.9666 Y-1.3732
X0.9237 Y-1.362
X0.8823 Y-1.3459
X0.8425 Y-1.3264
X0.8039 Y-1.3045
X0.7665 Y-1.2807
X0.7316 Y-1.2532
X0.7004 Y-1.2216
X0.6732 Y-1.1866
X0.6499 Y-1.1488
X0.6303 Y-1.109
X0.614 Y-1.0677
G2 X0.5729 Y-0.8953 I0.8769 J0.2999
G1 X0.5669 Y-0.8514
X0.562 Y-0.8072
X0.569 Y-0.7634
X0.5889 Y-0.7238
X0.6175 Y-0.6899
X0.6517 Y-0.6616
X0.6895 Y-0.6383
X0.7296 Y-0.6194
X0.7713 Y-0.604
X0.8139 Y-0.5917
X0.8571 Y-0.5817
X0.9008 Y-0.5738
X0.9447 Y-0.5674
G2 X1.2552 Y-0.5605 I0.4409 J-12.8427
G1 X1.2995 Y-0.5625
X1.3409 Y-0.5786
X1.3765 Y-0.605
X1.4062 Y-0.638
X1.427 Y-0.6772
X1.4366 Y-0.7205
X1.4371 Y-0.7649
X1.4312 Y-0.8089
X1.4205 Y-0.8519
X1.4064 Y-0.894
X1.3893 Y-0.935
X1.3687 Y-0.9742
X1.3433 Y-1.0107
X1.3133 Y-1.0434
X1.2794 Y-1.072
X1.2424 Y-1.0965
X1.2032 Y-1.1173
X1.1624 Y-1.1347
X1.1197 Y-1.1467
X1.0755 Y-1.1508
X1.0312 Y-1.1478
X0.9879 Y-1.1382
X0.9471 Y-1.1206
X0.9106 Y-1.0955
X0.8788 Y-1.0645
X0.8519 Y-1.0292
X0.8292 Y-0.991
G2 X0.8212 Y-0.948 I0.0656 J0.0346
G1 X0.8253 Y-0.9262
X0.8461 Y-0.8871
X0.877 Y-0.8552
X0.9138 Y-0.8304
X0.9538 Y-0.8111
X0.9956 Y-0.7961
X1.0384 Y-0.7845
X1.0601 Y-0.78
X1.0655 Y-0.779
G3 X1.0898 Y-0.7613 I-0.0081 J0.0366
G1 X1.0921 Y-0.7574 Z0.4899
X1.0944 Y-0.7535 Z0.4907
X1.0965 Y-0.7498 Z0.4921
X1.0986 Y-0.7462 Z0.4939
X1.1006 Y-0.7429 Z0.4963
X1.1024 Y-0.7398 Z0.4991
X1.104 Y-0.737 Z0.5023
X1.1054 Y-0.7346 Z0.5058
X1.1066 Y-0.7326 Z0.5097
X1.1075 Y-0.731 Z0.5138
X1.1082 Y-0.7298 Z0.5182
X1.1086 Y-0.7291 Z0.5226
X1.1088 Y-0.7289 Z0.5271
G0 Z1.0996
(2D CONTOUR1)
G64 P0.0004 Q0.0004
G0 X0.7077 Y-2.0135
Z1.0996
Z0.6996
G1 Z0.539 F80.
Z0.35
G19 G3 Y-1.976 Z0.3125 J0.0375 K0. F40.
G1 Y-1.9385
G17 G3 X0.6702 Y-1.901 I-0.0375 J0.
G2 X0.2859 Y-1.5167 I0. J0.3844
G3 X0.2569 Y-1.4877 I-0.029 J0.
G2 X-0.1275 Y-1.1033 I0. J0.3844
G3 X-0.165 Y-1.0658 I-0.0375 J0.
G1 X-0.2025
G18 G3 X-0.24 Z0.35 I0. K0.0375
G0 Z0.6996
X0.7077 Y-2.0135
G1 Z0.539 F80.
Z0.35
G19 G3 Y-1.976 Z0.3125 J0.0375 K0. F40.
G1 Y-1.9385
G17 G3 X0.6702 Y-1.901 I-0.0375 J0.
G2 X0.2859 Y-1.5167 I0. J0.3844
G3 X0.2569 Y-1.4877 I-0.029 J0.
G2 X-0.1275 Y-1.1033 I0. J0.3844
G3 X-0.165 Y-1.0658 I-0.0375 J0.
G1 X-0.2025
G18 G3 X-0.24 Z0.35 I0. K0.0375
G0 Z0.6996
X2.3285
G1 Z0.539 F80.
Z0.35
G3 X2.291 Z0.3125 I-0.0375 K0. F40.
G1 X2.2535
G17 G3 X2.216 Y-1.1033 I0. J-0.0375
G2 X1.8317 Y-1.4877 I-0.3844 J0.
G3 X1.8026 Y-1.5167 I0. J-0.029
G2 X1.4183 Y-1.901 I-0.3844 J0.
G3 X1.3808 Y-1.9385 I0. J-0.0375
G1 Y-1.976
G19 G2 Y-2.0135 Z0.35 J0. K0.0375
G0 Z0.6996
X2.3285 Y-1.0658
G1 Z0.539 F80.
Z0.35
G18 G3 X2.291 Z0.3125 I-0.0375 K0. F40.
G1 X2.2535
G17 G3 X2.216 Y-1.1033 I0. J-0.0375
G2 X1.8317 Y-1.4877 I-0.3844 J0.
G3 X1.8026 Y-1.5167 I0. J-0.029
G2 X1.4183 Y-1.901 I-0.3844 J0.
G3 X1.3808 Y-1.9385 I0. J-0.0375
G1 Y-1.976
G19 G2 Y-2.0135 Z0.35 J0. K0.0375
G0 Z1.0996
X-0.24 Y-0.9243
Z0.6996
G1 Z0.539 F80.
Z0.1925
G18 G2 X-0.2025 Z0.155 I0.0375 K0. F40.
G1 X-0.165
G17 G3 X-0.1275 Y-0.8868 I0. J0.0375
G1 Y-0.2569
G2 X0.2569 Y0.1275 I0.3844 J0.
G1 X1.8317
G2 X2.216 Y-0.2569 I0. J-0.3844
G1 Y-1.5167
G2 X1.8317 Y-1.901 I-0.3844 J0.
G1 X0.2569
G2 X-0.1275 Y-1.5167 I0. J0.3844
G1 Y-0.2569
G2 X0.2569 Y0.1275 I0.3844 J0.
G1 X1.8317
G2 X2.216 Y-0.2569 I0. J-0.3844
G1 Y-1.5167
G2 X1.8317 Y-1.901 I-0.3844 J0.
G1 X0.2569
G2 X-0.1275 Y-1.5167 I0. J0.3844
G1 Y-0.8868
G3 X-0.165 Y-0.8493 I-0.0375 J0.
G1 X-0.2025
G18 G3 X-0.24 Z0.1925 I0. K0.0375
G0 Z1.0996
G17
M5
G53 G0 Z-0.6
(DRILL2)
M9
M1
T101 M6
T11
S5000 M3
G17 G90 G94
G55
M8
G0 X0.2175 Y-0.2273
G43 Z1.0996 H101
G0 Z0.6996
Z0.6896
Z0.5696
G1 Z0.3896 F10.
G0 Z0.6896
Z0.4696
G1 Z0.2896 F10.
G0 Z0.6896
Z0.3696
G1 Z0.1896 F10.
G0 Z0.6896
Z0.2696
G1 Z0.1343 F10.
G4 P0.05
G0 Z0.6996
Y-1.0738
Z0.6896
Z0.5696
G1 Z0.3896 F10.
G0 Z0.6896
Z0.4696
G1 Z0.2896 F10.
G0 Z0.6896
Z0.3696
G1 Z0.1896 F10.
G0 Z0.6896
Z0.2696
G1 Z0.1343 F10.
G4 P0.05
G0 Z0.6996
X1.871
Z0.6896
Z0.5696
G1 Z0.3896 F10.
G0 Z0.6896
Z0.4696
G1 Z0.2896 F10.
G0 Z0.6896
Z0.3696
G1 Z0.1896 F10.
G0 Z0.6896
Z0.2696
G1 Z0.1343 F10.
G4 P0.05
G0 Z0.6996
Y-0.2273
Z0.6896
Z0.5696
G1 Z0.3896 F10.
G0 Z0.6896
Z0.4696
G1 Z0.2896 F10.
G0 Z0.6896
Z0.3696
G1 Z0.1896 F10.
G0 Z0.6896
Z0.2696
G1 Z0.1343 F10.
G4 P0.05
G0 Z0.6996
Z1.0996
M5
G53 G0 Z-0.6
(2D CHAMFER2)
M9
M1
T11 M6
T53
S7500 M3
G17 G90 G94
G55
G64 P0.0004 Q0.0004
M8
G0 X0.02 Y-1.1033
G43 Z1.0996 H11
G0 Z0.6996
G1 Z0.5796 F80.
Z0.4396
Y-0.2569 F20.
G2 X0.2569 Y-0.02 I0.2369 J0.
G1 X1.8317
G2 X2.0685 Y-0.2569 I0. J-0.2369
G1 Y-1.1033
G2 X1.8317 Y-1.3402 I-0.2369 J0.
G3 X1.6551 Y-1.5167 I0. J-0.1765
G2 X1.4183 Y-1.7535 I-0.2369 J0.
G1 X0.6702
G2 X0.4334 Y-1.5167 I0. J0.2369
G3 X0.2569 Y-1.3402 I-0.1765 J0.
G2 X0.02 Y-1.1033 I0. J0.2369
G0 Z1.0996
X0.4713 Y-1.7535
Z0.6996
G1 Z0.5796 F80.
Z0.2625
X0.2569 F20.
G2 X0.02 Y-1.5167 I0. J0.2369
G1 Y-1.3022
G0 Z0.6996
X0.3489 Y-1.5167
G1 Z0.5796 F80.
Z0.2625
G3 X0.1649 I-0.092 J0. F20.
X0.3489 I0.092 J0.
G0 Z0.6996
X1.9237
G1 Z0.5796 F80.
Z0.2625
G3 X1.7397 I-0.092 J0. F20.
X1.9237 I0.092 J0.
G0 Z0.6996
X2.0685 Y-1.3022
G1 Z0.5796 F80.
Z0.2625
Y-1.5167 F20.
G2 X1.8317 Y-1.7535 I-0.2369 J0.
G1 X1.6172
G0 Z1.0996
(2D CHAMFER2 2)
G0 X0.2455 Y-1.0738
Z1.0996
Z0.6996
G1 Z0.5796 F80.
Z0.4296
G3 X0.1895 I-0.028 J0. F20.
X0.2455 I0.028 J0.
G0 Z0.6996
Y-0.2273
G1 Z0.5796 F80.
Z0.4296
G3 X0.1895 I-0.028 J0. F20.
X0.2455 I0.028 J0.
G0 Z0.6996
X1.8963 Y-0.2152
G1 Z0.5796 F80.
Z0.4296
G3 X1.8458 Y-0.2395 I-0.0252 J-0.0121 F20.
X1.8963 Y-0.2152 I0.0252 J0.0121
G0 Z0.6996
X1.899 Y-1.0738
G1 Z0.5796 F80.
Z0.4296
G3 X1.843 I-0.028 J0. F20.
X1.899 I0.028 J0.
G0 Z1.0996
M5
M9
G53 G0 Z-0.6
M30
%
