%
(OP2)
(MACHINE)
(  VENDOR CALLUM)
(  MODEL MILL R1)
(  DESCRIPTION 14X8X14 MILL)
(T11 D=0.125 CR=0. TAPER=45DEG - ZMIN=0.2846 - CHAMFER MILL)
(T35 D=0.375 CR=0. - ZMIN=0.3346 - FLAT END MILL)
G90 G94 G17 G91.1
G20
G53 G0 Z-0.6
(ADAPTIVE1 2)
T35 M6
T11
S5000 M3
G17 G90 G94
G55
G64 P0.004 Q0.004
M8
G0 X-0.0981 Y-2.1436
G43 Z1.0896 H35
G0 Z0.4096
G1 Z0.3721 F40.
X-0.098 Y-2.1433 Z0.3676
X-0.0978 Y-2.1425 Z0.3632
X-0.0975 Y-2.1412 Z0.3588
X-0.097 Y-2.1394 Z0.3547
X-0.0965 Y-2.1371 Z0.3508
X-0.0958 Y-2.1344 Z0.3473
X-0.095 Y-2.1313 Z0.3441
X-0.0941 Y-2.1279 Z0.3413
X-0.0931 Y-2.1241 Z0.3389
X-0.0921 Y-2.1201 Z0.3371
X-0.091 Y-2.1159 Z0.3357
X-0.0899 Y-2.1116 Z0.3349
X-0.0888 Y-2.1073 Z0.3346
G3 X-0.0594 Y-1.9031 I-0.9274 J0.2376
G1 Y-1.8971
G2 X-0.074 Y-1.5869 I3.4562 J0.3178
X-0.0768 Y-1.0545 I31.3224 J0.4315
G1 X-0.0769 Y-0.7439
Y-0.1226
X-0.0734 Y-0.1007
X-0.0537 Y-0.061
X-0.0224 Y-0.0296
X0.0147 Y-0.0051
X0.0548 Y0.0139
X0.0967 Y0.0285
X0.1396 Y0.0397
G2 X0.3153 Y0.0638 I0.2519 J-1.1854
X0.6257 Y0.0743 I0.3154 J-4.7256
X1.025 Y0.0763 I0.3504 J-30.3472
G1 X1.2469 Y0.0765
X1.8459 Y0.0766
X1.8569 Y0.0749
X1.8781 Y0.0684
X1.9159 Y0.0452
X1.9456 Y0.0122
X1.9687 Y-0.0257
X1.9866 Y-0.0663
X2.0004 Y-0.1085
G2 X2.03 Y-0.2832 I-0.951 J-0.2508
X2.0429 Y-0.5935 I-3.83 J-0.3147
X2.0453 Y-1.0372 I-28.1801 J-0.3758
G1 X2.0454 Y-1.2591
Y-1.5364
X2.0438 Y-1.5474
X2.0405 Y-1.558
X2.0309 Y-1.578
X2.003 Y-1.6125
X1.9679 Y-1.6396
X1.9288 Y-1.6605
X1.8875 Y-1.6767
X1.8449 Y-1.6892
G2 X1.6696 Y-1.716 I-0.2515 J1.0605
G1 X1.6253 Y-1.7194
X1.581 Y-1.7219
G2 X1.1818 Y-1.7291 I-0.3638 J9.105
G1 X1.093 Y-1.7296
X1.0043 Y-1.7298
X0.8712 Y-1.73
X0.6049 Y-1.7301
X0.2943 Y-1.7302
X0.2726 Y-1.7256
X0.233 Y-1.7056
X0.2015 Y-1.6743
X0.1768 Y-1.6375
X0.1576 Y-1.5975
X0.1428 Y-1.5557
X0.1313 Y-1.5128
G2 X0.1064 Y-1.3372 I1.1637 J0.2543
X0.0966 Y-1.1156 I3.6615 J0.2721
X0.0932 Y-0.5388 I30.5174 J0.4722
G1 X0.0931 Y-0.3169
X0.1075 Y-0.2749
X0.1335 Y-0.239
X0.1665 Y-0.2093
X0.2038 Y-0.1853
X0.2438 Y-0.166
X0.2854 Y-0.1506
G2 X0.4591 Y-0.1153 I0.269 J-0.8776
X0.7247 Y-0.0986 I0.309 J-2.8051
X1.2128 Y-0.094 I0.4143 J-17.9975
G1 X1.3459 Y-0.0936
X1.5677 Y-0.0935
X1.6343
X1.6779 Y-0.1014
X1.7164 Y-0.1235
X1.7485 Y-0.1541
X1.7747 Y-0.19
X1.7958 Y-0.229
X1.8127 Y-0.2701
X1.8261 Y-0.3124
G2 X1.8567 Y-0.487 I-1.0225 J-0.2696
X1.8719 Y-0.7971 I-3.5764 J-0.3306
X1.8751 Y-1.3296 I-26.2277 J-0.4224
G1 X1.8633 Y-1.3723
X1.8387 Y-1.4093
X1.8066 Y-1.4399
X1.7699 Y-1.4648
X1.7303 Y-1.4848
X1.6889 Y-1.5007
X1.6464 Y-1.5134
G2 X1.4714 Y-1.5424 I-0.2699 J1.0875
X1.1612 Y-1.5567 I-0.3312 J3.797
X0.4957 Y-1.5599 I-0.5009 J35.5114
G1 X0.4529 Y-1.5483
X0.4157 Y-1.524
X0.3849 Y-1.4921
X0.3598 Y-1.4555
X0.3396 Y-1.416
X0.3235 Y-1.3747
X0.3106 Y-1.3322
G2 X0.2812 Y-1.1573 I1.0738 J0.2707
X0.2673 Y-0.8915 I3.3809 J0.3095
X0.2637 Y-0.5366 I17.4282 J0.3576
G1 X0.2663 Y-0.4923
X0.2831 Y-0.4512
X0.3098 Y-0.4158
X0.3428 Y-0.3861
X0.3799 Y-0.3618
X0.4197 Y-0.342
X0.4611 Y-0.3261
G2 X0.6342 Y-0.2884 I0.2774 J-0.8584
X0.8997 Y-0.2697 I0.3176 J-2.6164
X1.4321 Y-0.2641 I0.446 J-16.9699
G1 X1.4764 Y-0.2666
X1.5175 Y-0.2835
X1.5529 Y-0.3101
X1.5826 Y-0.3431
X1.607 Y-0.3802
X1.6268 Y-0.4199
X1.6428 Y-0.4613
X1.6556 Y-0.5038
G2 X1.6857 Y-0.6785 I-1.0949 J-0.2786
X1.7015 Y-0.9886 I-3.6142 J-0.3392
G1 X1.7025 Y-1.033
X1.7031 Y-1.0774
X1.7036 Y-1.1217
X1.6994 Y-1.1659
X1.6814 Y-1.2064
X1.6539 Y-1.2413
X1.6203 Y-1.2703
X1.5829 Y-1.2941
X1.5429 Y-1.3135
X1.5014 Y-1.329
G2 X1.328 Y-1.3658 I-0.2777 J0.8832
X1.0625 Y-1.384 I-0.3177 J2.6847
X0.7076 Y-1.3892 I-0.3673 J12.9979
G1 X0.6633 Y-1.3866
X0.6222 Y-1.37
X0.5866 Y-1.3435
X0.5568 Y-1.3106
X0.5323 Y-1.2735
X0.5124 Y-1.2339
X0.4963 Y-1.1925
G2 X0.4583 Y-1.0195 I0.8529 J0.278
X0.4394 Y-0.754 I2.5893 J0.318
G1 X0.4379 Y-0.7097
X0.442 Y-0.6655
X0.4594 Y-0.6247
X0.4862 Y-0.5893
X0.5192 Y-0.5596
X0.5562 Y-0.5351
X0.5958 Y-0.5151
X0.6371 Y-0.4989
G2 X0.81 Y-0.4601 I0.2816 J-0.8507
X1.0754 Y-0.4404 I0.3223 J-2.5382
X1.2528 Y-0.4361 I0.2469 J-6.652
G1 X1.2971 Y-0.4388
X1.3386 Y-0.4546
X1.3747 Y-0.4804
X1.4051 Y-0.5127
X1.4303 Y-0.5492
X1.4509 Y-0.5885
X1.4677 Y-0.6296
X1.4812 Y-0.6718
G2 X1.5135 Y-0.8462 I-1.0445 J-0.2831
G1 X1.518 Y-0.8903
X1.5216 Y-0.9346
X1.5219 Y-0.9789
X1.5075 Y-1.0209
X1.4826 Y-1.0576
X1.4508 Y-1.0885
X1.4145 Y-1.1141
X1.3753 Y-1.135
X1.3343 Y-1.1519
X1.2921 Y-1.1656
G2 X1.1178 Y-1.1981 I-0.2821 J1.0311
X0.8522 Y-1.2141 I-0.3057 J2.8511
G1 X0.8097 Y-1.2014
X0.7721 Y-1.1777
X0.7403 Y-1.1468
X0.7138 Y-1.1112
X0.6922 Y-1.0725
X0.6745 Y-1.0317
G2 X0.6359 Y-0.8816 I0.7161 J0.2644
G1 X0.6361 Y-0.8594
X0.6447 Y-0.8159
X0.6663 Y-0.7771
X0.6961 Y-0.7442
X0.7312 Y-0.717
X0.7695 Y-0.6947
X0.81 Y-0.6766
X0.8519 Y-0.662
G2 X1.0258 Y-0.6273 I0.2818 J-0.9579
G1 X1.0699 Y-0.6223
X1.1142 Y-0.6198
X1.1569 Y-0.632
X1.1946 Y-0.6553
X1.2266 Y-0.686
X1.2502 Y-0.7236
X1.2695 Y-0.7635
X1.2735 Y-0.7739
X1.2758 Y-0.7847
X1.2765 Y-0.7958
X1.2746 Y-0.8179
X1.2595 Y-0.8596
X1.256 Y-0.864
X1.2277 Y-0.8982
X1.1931 Y-0.9259
X1.1547 Y-0.9482
X1.114 Y-0.966
X1.072 Y-0.9802
X1.0505 Y-0.9858
X1.0284 Y-0.9871
X1.0066 Y-0.9829
X0.9963 Y-0.9788
X0.9913 Y-0.9763
X0.9864 Y-0.9737
G3 X0.9564 Y-0.9722 I-0.0166 J-0.0336
G1 X0.9522 Y-0.9739 Z0.3349
X0.948 Y-0.9754 Z0.3357
X0.944 Y-0.977 Z0.3371
X0.9401 Y-0.9785 Z0.3389
X0.9365 Y-0.9798 Z0.3413
X0.9332 Y-0.9811 Z0.3441
X0.9302 Y-0.9823 Z0.3473
X0.9276 Y-0.9832 Z0.3508
X0.9254 Y-0.9841 Z0.3547
X0.9237 Y-0.9847 Z0.3588
X0.9224 Y-0.9852 Z0.3632
X0.9216 Y-0.9855 Z0.3676
X0.9214 Y-0.9856 Z0.3721
G0 Z1.0896
M5
G53 G0 Z-0.6
(2D CHAMFER2 3)
M9
M1
T11 M6
T35
S7500 M3
G17 G90 G94
G55
G64 P0.0004 Q0.0004
M8
G0 X0.1855 Y-1.0138
G43 Z1.0896 H11
G0 Z0.6896
G1 Z0.5696 F80.
Z0.2846
G3 X0.1295 I-0.028 J0. F20.
X0.1855 I0.028 J0.
G0 Z0.6896
X-0.04 Y-0.8268
G1 Z0.5696 F80.
Z0.2846
Y-0.1969 F20.
G2 X0.1969 Y0.04 I0.2369 J0.
G1 X1.7717
G2 X2.0085 Y-0.1969 I0. J-0.2369
G1 Y-1.4567
G2 X1.7717 Y-1.6935 I-0.2369 J0.
G1 X0.1969
G2 X-0.04 Y-1.4567 I0. J0.2369
G1 Y-0.8268
G0 Z0.6896
X0.2889 Y-1.4567
G1 Z0.5696 F80.
Z0.2846
G3 X0.1049 I-0.092 J0. F20.
X0.2889 I0.092 J0.
G0 Z0.6896
X0.1827 Y-0.1552
G1 Z0.5696 F80.
Z0.2846
G3 X0.1323 Y-0.1795 I-0.0252 J-0.0121 F20.
X0.1827 Y-0.1552 I0.0252 J0.0121
G0 Z0.6896
X1.839 Y-0.1673
G1 Z0.5696 F80.
Z0.2846
G3 X1.783 I-0.028 J0. F20.
X1.839 I0.028 J0.
G0 Z0.6896
Y-1.0138
G1 Z0.5696 F80.
Z0.2846
G3 X1.783 I-0.028 J0. F20.
X1.839 I0.028 J0.
G0 Z0.6896
X1.8637 Y-1.4567
G1 Z0.5696 F80.
Z0.2846
G3 X1.6797 I-0.092 J0. F20.
X1.8637 I0.092 J0.
G0 Z1.0896
M5
M9
G53 G0 Z-0.6
M30
%
