%
(FIXTURE PLATE SETUP, Z0 ON TOP)
(T51 D=0.201 CR=0. TAPER=118DEG - ZMIN=-0.03 - DRILL)
(T102 D=0.2 CR=0. TAPER=135DEG - ZMIN=-0.6014 - DRILL)
G90 G94 G17 G91.1
G20
G53 G0 Z0.
(DRILL9)
T51 M6
T102
S5000 M3
G17 G90 G94
G54
M8
G0 X0.2643 Y-0.2362
G43 Z1.0893 H51
G0 Z0.6893
G98 G81 X0.2643 Y-0.2362 Z-0.03 R0.5543 F25.
X1.6395 Y-1.9555
X3.0939 Y-0.3026
G80
G0 Z1.0893
M5
G53 G0 Z0.
(DRILL9 2)
M9
M1
T102 M6
T51
S5000 M3
G17 G90 G94
G54
M8
G0 X0.2643 Y-0.2362
G43 Z1.0893 H102
G0 Z0.6893
G81 X0.2643 Y-0.2362 Z-0.6014 R0.5543 F10.
X1.6395 Y-1.9555
X3.0939 Y-0.3026
G80
G0 Z1.0893
M5
M9
G53 G0 Z0.
M30
%
