%
(OP1 - 4,05X2,9)
(T13 D=0.375 CR=0. TAPER=45DEG - ZMIN=0.3693 - CHAMFER MILL)
(T33 D=0.25 CR=0. - ZMIN=0.2031 - FLAT END MILL)
(T51 D=0.201 CR=0. TAPER=118DEG - ZMIN=-0.0604 - DRILL)
(T101 D=0.1 CR=0. TAPER=135DEG - ZMIN=0.2024 - DRILL)
G90 G94 G17 G91.1
G20
G53 G0 Z0.
(DRILL6)
T51 M6
T101
S5000 M3
G17 G90 G94
G54
M8
G0 X0.9031 Y-0.3626
G43 Z1.0993 H51
G0 Z0.6993
G98 G81 X0.9031 Y-0.3626 Z-0.0604 R0.6893 F25.
X2.3575 Y-2.0155
X3.7327 Y-0.2962
G80
G0 Z1.0993
(DRILL7)
G0 X2.9908 Y-2.4309
Z1.0993
Z0.6993
G81 X2.9908 Y-2.4309 Z0.4643 R0.6893 F25.
X1.1893 Y-2.1876
X0.3553 Y-0.5723
G80
G0 Z1.0993
M5
G53 G0 Z0.
(DRILL8)
M9
M1
T101 M6
T33
S5000 M3
G17 G90 G94
G54
M8
G0 X2.9908 Y-2.4309
G43 Z1.0993 H101
G0 Z0.6993
G81 X2.9908 Y-2.4309 Z0.2024 R0.6893 F15.
X1.1893 Y-2.1876
X0.3553 Y-0.5723
G80
G0 Z1.0993
M5
G53 G0 Z0.
(2D ADAPTIVE ROUGHING1)
M9
M1
T33 M6
T13
S7500 M3
G17 G90 G94
G54
G64 P0.004 Q0.004
M8
G0 X-0.2158 Y-3.0926
G43 Z1.0993 H33
G0 Z0.2531
G1 Z0.2281 F50.
X-0.2155 Y-3.0925 Z0.2242
X-0.2148 Y-3.092 Z0.2204
X-0.2135 Y-3.0912 Z0.2168
X-0.2117 Y-3.0901 Z0.2134
X-0.2096 Y-3.0887 Z0.2104
X-0.2071 Y-3.0872 Z0.2079
X-0.2042 Y-3.0854 Z0.2058
X-0.2012 Y-3.0834 Z0.2043
X-0.1979 Y-3.0814 Z0.2034
X-0.1946 Y-3.0793 Z0.2031
G3 X-0.0867 Y-2.9941 I-0.3395 J0.5405
G1 X-0.0836 Y-2.9908
X-0.0772 Y-2.974
X-0.0704 Y-2.9519
G3 X-0.051 Y-2.8139 I-0.6513 J0.1622
X-0.0456 Y-2.5245 I-5.1004 J0.2399
G1 X-0.0451 Y-2.4522
X-0.045 Y-2.3074
Y-1.5114
Y-1.0049
Y-0.9501
X-0.0451 Y-0.9466
X-0.0453 Y-0.9431
X-0.0458 Y-0.9396
X-0.0612 Y-0.8347
G2 X-0.0739 Y-0.6374 I9.9364 J0.7354
G1 X-0.0742 Y-0.621
Y-0.6128
X-0.0711 Y-0.4566
X-0.0703 Y-0.4319
X-0.0697 Y-0.4237
X-0.0562 Y-0.2922
X-0.0543 Y-0.256
G3 X-0.0465 Y-0.1025 I-2.44 J0.2001
G1 X-0.0421 Y-0.0849
X-0.0261 Y-0.0524
X-0.001 Y-0.0264
X0.0293 Y-0.0066
X0.0623 Y0.0082
X0.0968 Y0.019
G2 X0.24 Y0.0387 I0.1747 J-0.739
X0.3651 Y0.0433 I0.1642 J-2.7703
G1 X0.3696 Y0.0439
X0.3741 Y0.0447
G2 X0.48 Y0.0655 I0.384 J-1.6772
X0.595 Y0.0747 I0.3822 J-4.0429
G1 X0.6197 Y0.074
X0.6936 Y0.0713
X0.7018 Y0.0709
X0.7265 Y0.0687
X0.7676 Y0.0623
X0.8035 Y0.0584
G3 X0.984 Y0.0472 I0.185 J1.5189
X1.3458 Y0.045 I0.2858 J17.5674
G1 X1.7076
X2.7569
X3.5747
X3.5849 Y0.0457
X3.5948 Y0.0479
X3.6044 Y0.0514
X3.6081 Y0.0531
X3.6098 Y0.0539
X3.6345 Y0.0609
X3.6838 Y0.0708
G2 X3.7413 Y0.0731 I0.0373 J-0.2105
X3.7988 Y0.069 I-0.0041 J-0.4575
G1 X3.807 Y0.067
G3 X3.942 Y0.0503 I0.1562 J0.7095
G1 X3.951 Y0.0498
X3.9689 Y0.0467
X4.0019 Y0.0319
X4.0285 Y0.0074
X4.0489 Y-0.0225
X4.0641 Y-0.0554
X4.0752 Y-0.0898
G2 X4.0943 Y-0.2144 I-0.6852 J-0.1692
G1 X4.0956 Y-0.2182
X4.0971 Y-0.2264
X4.0985 Y-0.2346
X4.0998 Y-0.2428
X4.1196 Y-0.3744
X4.1219 Y-0.3908
X4.123 Y-0.399
X4.1235 Y-0.4072
X4.1318 Y-0.5635
X4.1317 Y-0.5717
X4.1313 Y-0.5881
X4.131 Y-0.5963
X4.1256 Y-0.7197
X4.1252 Y-0.7279
X4.1234 Y-0.7525
X4.1176 Y-0.7936
X4.1144 Y-0.8297
G3 X4.104 Y-1.0102 I1.6547 J-0.1854
X4.102 Y-1.4082 I21.0243 J-0.3051
G1 Y-2.2404
Y-2.7831
Y-2.7921
X4.0999 Y-2.8101
X4.0868 Y-2.8439
X4.0632 Y-2.8712
X4.0338 Y-2.8923
X4.0012 Y-2.9081
X3.9669 Y-2.9196
G2 X3.824 Y-2.9409 I-0.1748 J0.6855
X3.5709 Y-2.9469 I-0.2232 J4.0254
G1 X3.5347 Y-2.9473
X3.4623 Y-2.9475
X3.3538 Y-2.9476
X3.0281 Y-2.9477
X2.695
X2.6912 Y-2.9478
X2.6875 Y-2.948
X2.6839 Y-2.9485
G2 X2.583 Y-2.9633 I-0.276 J1.5357
G1 X2.4269 Y-2.9745
X2.4023 Y-2.9762
X2.3941 Y-2.9765
X2.3694 Y-2.9764
X2.2133 Y-2.9746
X2.2051 Y-2.9744
X2.1805 Y-2.9728
X2.0244 Y-2.9581
X1.9883 Y-2.9564
G3 X1.7352 Y-2.9486 I-0.2234 J-3.142
X1.4457 Y-2.9477 I-0.2165 J-23.8386
G1 X0.6859
X0.1794
X0.1704 Y-2.9468
X0.1615 Y-2.9448
X0.1445 Y-2.9386
X0.1145 Y-2.9184
X0.0915 Y-2.8905
X0.0745 Y-2.8585
X0.0623 Y-2.8245
X0.0537 Y-2.7893
G2 X0.039 Y-2.6455 I0.9216 J0.1669
X0.0353 Y-2.3561 I7.1981 J0.2353
G1 X0.035 Y-2.2475
Y-1.8134
Y-1.3022
X0.0346 Y-1.2948
X0.0334 Y-1.2874
X0.0315 Y-1.2802
X0.0151 Y-1.2294
X0.0106 Y-1.2129
X-0.0279 Y-1.0485
X-0.0333 Y-1.0238
X-0.0375 Y-0.9957
X-0.0458 Y-0.9396
G3 X-0.0562 Y-0.9235 I-0.0246 J-0.0045
G1 X-0.0654 Y-0.917
G2 X-0.1496 Y-0.8314 I0.2237 J0.3044 F300.
X-0.1542 Y-0.8174 I0.0204 J0.0145
G1 X-0.1606 Y-0.4181
G2 X-0.1565 Y-0.4039 I0.025 J0.0004
X-0.0748 Y-0.3155 I0.3148 J-0.2087
G1 X-0.0661 Y-0.3088 F50.
G3 X-0.0562 Y-0.2922 I-0.0149 J0.0201
G1 X-0.0511 Y-0.2428
G2 X-0.0153 Y-0.1522 I0.1848 J-0.0207
X0.0199 Y-0.1178 I0.2096 J-0.1787
X0.1186 Y-0.0556 I1.9699 J-3.0161
G1 X0.1372 Y-0.0455
X0.1432 Y-0.0425
X0.2172 Y-0.0074
X0.2239 Y-0.0044
X0.2438 Y0.0038
G2 X0.3568 Y0.0411 I0.7547 J-2.0952
G1 X0.3741 Y0.0447
G3 X0.3895 Y0.0561 I-0.006 J0.0243
G1 X0.3956 Y0.0656
G2 X0.5054 Y0.1497 I0.1805 J-0.1219 F300.
G1 X0.5088 Y0.1507
X0.5124 Y0.1511
X0.6213 Y0.1559
X0.6249 Y0.1558
X0.6284 Y0.1552
G2 X0.7447 Y0.0817 I-0.0523 J-0.2114
G1 X0.7521 Y0.0721 F50.
G3 X0.7676 Y0.0623 I0.0202 J0.0147
G1 X0.8086 Y0.0558
X0.8333 Y0.0518
G2 X0.9483 Y0.0194 I-0.6808 J-2.6368
G1 X0.9565 Y0.0164
X0.9647 Y0.0135
X0.9811 Y0.0067
G3 X1.1052 Y-0.0235 I0.1706 J0.4304
X1.2858 Y-0.0331 I0.1865 J1.8227
X1.6114 Y-0.0349 I0.2641 J17.54
G1 X1.8647 Y-0.035
X2.9502
X3.4428
G3 X3.4879 Y-0.019 I0. J0.0717
G2 X3.5358 Y0.0182 I0.4786 J-0.5674
X3.6044 Y0.0514 I0.3814 J-0.7003
G1 X3.6077 Y0.0534
G2 X3.6308 Y0.0675 I0.1103 J-0.155
G1 X3.6363 Y0.0702 F300.
X3.6392 Y0.0714
X3.6421 Y0.0722
X3.6452 Y0.0726
X3.7635 Y0.0817
X3.7666
X3.7696 Y0.0814
X3.7726 Y0.0807
X3.7784 Y0.0788
G2 X3.8034 Y0.0684 I-0.0604 J-0.1804 F50.
G1 X3.807 Y0.067
X3.8152 Y0.0647
X3.8645 Y0.0502
G2 X3.8974 Y0.0355 I-0.0576 J-0.1733
X3.9549 Y0.0012 I-0.6192 J-1.1051
G1 X3.9631 Y-0.0056
G2 X4.0204 Y-0.0619 I-0.4802 J-0.5465
X4.0699 Y-0.1409 I-0.6054 J-0.4341
X4.0956 Y-0.2181 I-1.2492 J-0.4584
G1 X4.097 Y-0.2218
X4.099 Y-0.2252
X4.1015 Y-0.2282
X4.1044 Y-0.2308
X4.1163 Y-0.2403
G2 X4.2039 Y-0.3477 I-0.2256 J-0.2735 F300.
X4.2068 Y-0.3584 I-0.0221 J-0.0117
G1 X4.2179 Y-0.6441
G2 X4.2159 Y-0.6551 I-0.025 J-0.001
X4.1361 Y-0.7697 I-0.3252 J0.1413
G1 X4.1257 Y-0.7793 F50.
G3 X4.1176 Y-0.7936 I0.0166 J-0.0187
G1 X4.1027 Y-0.8994
X4.1014 Y-0.9087
X4.1 Y-0.917
X4.0963 Y-0.9334
X4.0626 Y-1.0732
X4.0616 Y-1.077
X4.0554 Y-1.0978
X4.0534 Y-1.1041
X4.0462 Y-1.129
G3 X4.0276 Y-1.2697 I0.6976 J-0.1636
X4.0226 Y-1.5229 I4.7864 J-0.2212
G1 X4.0222 Y-1.5953
X4.0221 Y-1.7038
X4.022 Y-1.9571
Y-2.6808
X4.0165 Y-2.7165
X4.0005 Y-2.749
X3.977 Y-2.7764
X3.9484 Y-2.7986
X3.9167 Y-2.8161
X3.8831 Y-2.8295
X3.8484 Y-2.8397
G2 X3.7053 Y-2.8599 I-0.1874 J0.8112
X3.416 Y-2.8669 I-0.2519 J4.4426
G1 X3.0408 Y-2.8681
X3.0332 Y-2.8693
X3.0258 Y-2.8713
X2.9937 Y-2.882
X2.9855 Y-2.8843
X2.9691 Y-2.8886
X2.8048 Y-2.9286
X2.7966 Y-2.9302
X2.7801 Y-2.9333
X2.7719 Y-2.9347
X2.6839 Y-2.9485
G3 X2.6679 Y-2.9591 I0.0047 J-0.0245
G1 X2.6614 Y-2.9683
G2 X2.5755 Y-3.0544 I-0.31 J0.2236 F300.
X2.5612 Y-3.0591 I-0.0147 J0.0203
G1 X2.1509 Y-3.0652
G2 X2.1365 Y-3.0608 I-0.0004 J0.025
X2.0477 Y-2.9768 I0.2149 J0.3161
G1 X2.0414 Y-2.9683 F50.
G3 X2.0244 Y-2.9581 I-0.0203 J-0.0146
G1 X2.0162 Y-2.9573
X1.9915 Y-2.9543
X1.8272 Y-2.9249
X1.8026 Y-2.9203
X1.7944 Y-2.9182
X1.778 Y-2.9139
X1.704 Y-2.8942
G3 X1.5609 Y-2.8738 I-0.1819 J-0.7632
X1.2716 Y-2.8682 I-0.2424 J-5.0968
G1 X1.1992 Y-2.8678
X1.0907 Y-2.8677
X0.7289
X0.2947
X0.259 Y-2.8615
X0.227 Y-2.8446
X0.2003 Y-2.8202
X0.1789 Y-2.791
X0.1622 Y-2.7589
X0.1495 Y-2.725
G2 X0.1243 Y-2.5828 I0.6313 J0.1852
X0.1162 Y-2.3659 I2.9557 J0.2192
X0.1151 Y-2.0765 I24.7587 J0.2439
G1 X0.115 Y-1.8232
Y-1.5239
X0.1144 Y-1.5145
X0.1125 Y-1.5052
X0.1095 Y-1.4963
X0.0838 Y-1.4349
X0.0804 Y-1.4267
X0.0709 Y-1.402
X0.0315 Y-1.2802
X0.02 Y-1.2667
X0.0075 Y-1.2623
X-0.0703 Y-1.2346 F300.
G2 X-0.1361 Y-1.1618 I0.0305 J0.0936
G1 X-0.1667 Y-1.0156
X-0.1934 Y-0.8101
X-0.2052 Y-0.6128
X-0.1978 Y-0.399
X-0.1767 Y-0.2017
X-0.1588 Y-0.1442
G2 X-0.1525 Y-0.1277 I0.0947 J-0.0268
G1 X-0.1114 Y-0.0655
X-0.0763 Y-0.0291
X0.0036 Y0.0259
X0.0766 Y0.0696
X0.209 Y0.1301
X0.3404 Y0.1715
X0.4636 Y0.194
X0.595 Y0.2048
X0.7429 Y0.1969
X0.8579 Y0.1799
G2 X0.9154 Y0.1516 I-0.0123 J-0.0977
G1 X0.9227 Y0.1436
G2 X0.9446 Y0.086 I-0.0764 J-0.062
G1 X0.9449 Y0.0614
G3 X0.9573 Y0.0259 I0.0623 J0.0019
X0.9729 Y0.0112 I0.0498 J0.0374 F50.
G1 X0.9811 Y0.0067
X1.047 Y-0.0209
G2 X1.1056 Y-0.0538 I-0.1 J-0.2464
G3 X1.1724 Y-0.0841 I0.1417 J0.2242
X1.3075 Y-0.1068 I0.1682 J0.5858
X1.5606 Y-0.1141 I0.2277 J3.5334
X1.8139 Y-0.1149 I0.2015 J21.6593
G1 X2.1395 Y-0.115
X3.0803
X3.3335
X3.3697 Y-0.1149
G3 X3.4282 Y-0.0864 I0.0007 J0.0727
G1 X3.4538 Y-0.0526
G2 X3.488 Y-0.019 I0.1408 J-0.1095
G1 X3.4907 Y-0.0163
X3.4929 Y-0.0131
X3.4947 Y-0.0097
X3.4958 Y-0.006
X3.4965 Y-0.0022
Y0.0017
X3.4959 Y0.0055
X3.4947 Y0.0092
G3 X3.4712 Y0.0249 I-0.0232 J-0.0093 F300.
G1 X1.1197 Y-0.0084
G3 X1.0961 Y-0.0264 I0.0004 J-0.025
X1.1056 Y-0.0537 I0.024 J-0.007 F50.
G2 X1.1538 Y-0.089 I-0.1544 J-0.2613
G1 X1.1701 Y-0.1072
G3 X1.2312 Y-0.1481 I0.1275 J0.1245
G1 X1.2506 Y-0.156
G3 X1.3798 Y-0.1831 I0.1753 J0.5129
X1.5965 Y-0.1932 I0.2167 J2.3363
X1.9222 Y-0.1949 I0.2677 J19.3745
G1 X2.1393 Y-0.195
X3.1523
X3.2609
X3.2971 Y-0.1949
X3.3238 Y-0.1937
G3 X3.3705 Y-0.1788 I-0.0013 J0.0845
G1 X3.3799 Y-0.1704
X3.3877 Y-0.1605
X3.3936 Y-0.1495
X3.4045 Y-0.1242
X3.4068 Y-0.1195
X3.411 Y-0.1113
X3.4282 Y-0.0863
G3 X3.428 Y-0.0574 I-0.0205 J0.0144
X3.4075 Y-0.047 I-0.0203 J-0.0146 F300.
G1 X1.1889 Y-0.066
G3 X1.1676 Y-0.0783 I0.0002 J-0.025
X1.1701 Y-0.1072 I0.0215 J-0.0127 F50.
G2 X1.2113 Y-0.1556 I-0.3208 J-0.3147
G1 X1.214 Y-0.1606
G3 X1.2603 Y-0.2054 I0.1165 J0.0742
X1.3344 Y-0.2387 I0.1559 J0.2477
X1.4738 Y-0.2639 I0.1858 J0.6294
X1.7268 Y-0.2735 I0.2421 J3.0525
X2.0163 Y-0.2749 I0.2404 J19.6142
G1 X2.2334 Y-0.275
X3.1741
X3.2103
X3.2465 Y-0.2746
G3 X3.3199 Y-0.2666 I0.0001 J0.3409
X3.3724 Y-0.2115 I-0.018 J0.0697
G2 X3.388 Y-0.1624 I0.1859 J-0.0323
G1 X3.3936 Y-0.1495
G3 X3.3865 Y-0.1214 I-0.0233 J0.0091
X3.3702 Y-0.1154 I-0.0162 J-0.019 F300.
G1 X1.2361 Y-0.1242
G3 X1.2181 Y-0.1319 I0.0001 J-0.025
X1.214 Y-0.1606 I0.0181 J-0.0172 F50.
G1 X1.2186 Y-0.1688
X1.2444 Y-0.2182
X1.2449 Y-0.2195
G3 X1.297 Y-0.2755 I0.1262 J0.0652
X1.3722 Y-0.3121 I0.1646 J0.243
X1.5103 Y-0.3406 I0.1954 J0.5963
X1.7632 Y-0.3528 I0.2509 J2.5743
X2.2698 Y-0.355 I0.3784 J29.7366
G1 X3.1019
X3.1381
X3.1743 Y-0.3548
X3.2105 Y-0.354
X3.2466 Y-0.3519
G3 X3.3141 Y-0.3381 I-0.0207 J0.2746
X3.3628 Y-0.2742 I-0.0232 J0.0681
G1 X3.3631 Y-0.2675
X3.3634 Y-0.2649
X3.3716 Y-0.2152
X3.3724 Y-0.2115
G3 X3.3597 Y-0.1854 I-0.0246 J0.0042
X3.3477 Y-0.1823 I-0.012 J-0.0219 F300.
G1 X1.2682 Y-0.1855
G3 X1.2521 Y-0.1914 I0. J-0.025
X1.2449 Y-0.2195 I0.0162 J-0.0191 F50.
G1 X1.2479 Y-0.2264
X1.2522 Y-0.2369
X1.2542 Y-0.2428
X1.2602 Y-0.2675
G3 X1.305 Y-0.3328 I0.123 J0.0364
X1.3884 Y-0.3815 I0.1777 J0.2086
X1.523 Y-0.4152 I0.205 J0.5327
X1.7394 Y-0.4309 I0.2429 J1.8544
X2.1736 Y-0.4347 I0.3422 J14.3311
G1 X2.3545 Y-0.435
X3.0419
G3 X3.1867 Y-0.433 I0.0255 J3.4026
G1 X3.2227 Y-0.4303
G3 X3.3055 Y-0.4125 I-0.0262 J0.324
X3.348 Y-0.3862 I-0.0331 J0.1007
X3.365 Y-0.3338 I-0.0556 J0.0471
G2 X3.3626 Y-0.2742 I0.3646 J0.045
G1 X3.3624 Y-0.2704
X3.3616 Y-0.2666
X3.3602 Y-0.263
X3.3584 Y-0.2597
X3.356 Y-0.2567
X3.3532 Y-0.254
X3.35 Y-0.2519
X3.3465 Y-0.2502
X3.3437 Y-0.2494 F300.
X3.3408 Y-0.2489
X3.3379 Y-0.2487
X1.2848 Y-0.2375
G3 X1.2719 Y-0.241 I-0.0001 J-0.025
X1.2602 Y-0.2675 I0.0128 J-0.0215 F50.
G2 X1.2722 Y-0.325 I-0.6151 J-0.1587
G3 X1.288 Y-0.3652 I0.0877 J0.0114
X1.3459 Y-0.4221 I0.1634 J0.1081
X1.4352 Y-0.4655 I0.2017 J0.3015
X1.5764 Y-0.4962 I0.2182 J0.6634
X1.8291 Y-0.5116 I0.2698 J2.3463
X2.2271 Y-0.5147 I0.3228 J15.8594
G1 X2.3718 Y-0.5149
X2.8421 Y-0.515
G3 X3.1316 Y-0.5136 I0.087 J11.8379
G1 X3.1677 Y-0.5117
X3.2038 Y-0.5087
X3.2375 Y-0.5041
G3 X3.3184 Y-0.4803 I-0.0483 J0.3141
G1 X3.3303 Y-0.4742
G3 X3.3674 Y-0.4367 I-0.0321 J0.0688
G1 X3.3715 Y-0.4242
X3.3733 Y-0.4111
X3.3726 Y-0.3979
G2 X3.365 Y-0.3338 I0.833 J0.1315
G3 X3.3457 Y-0.3122 I-0.0248 J-0.0028
G1 X3.343 Y-0.3118 F300.
X3.3403 Y-0.3116
X1.2972 Y-0.2998
X1.2943 Y-0.2999
X1.2914 Y-0.3004
X1.2886 Y-0.3012
G3 X1.2721 Y-0.325 I0.0084 J-0.0235 F50.
G1 X1.2728 Y-0.3415
X1.2729 Y-0.3497
X1.2724 Y-0.3707
G3 X1.2957 Y-0.4359 I0.1117 J0.0031
X1.3661 Y-0.5006 I0.1865 J0.1323
G1 X1.3861 Y-0.5125
G3 X1.5081 Y-0.5574 I0.2318 J0.4413
X1.7231 Y-0.5854 I0.2668 J1.2093
X2.0486 Y-0.5937 I0.3038 J5.5095
X2.338 Y-0.5949 I0.2484 J26.4108
G1 X2.5551 Y-0.595
X2.9169
G3 X3.134 Y-0.5918 I0.0385 J4.7539
G1 X3.1701 Y-0.589
X3.206 Y-0.585
X3.2412 Y-0.5792
G3 X3.3279 Y-0.5511 I-0.0647 J0.3475
X3.3638 Y-0.527 I-0.0564 J0.1226
X3.3826 Y-0.4675 I-0.0528 J0.0494
G1 X3.3726 Y-0.3979
G3 X3.3519 Y-0.3776 I-0.0246 J-0.0044
G1 X3.3484 Y-0.3773 F300.
X1.2977 Y-0.3472
X1.2941 Y-0.3474
X1.2906 Y-0.3481
G3 X1.2724 Y-0.3707 I0.0068 J-0.0241 F50.
G1 X1.2717 Y-0.399
X1.2698 Y-0.4237
X1.2696 Y-0.4262
G3 X1.2892 Y-0.4935 I0.1135 J-0.0034
X1.3556 Y-0.5624 I0.1933 J0.12
G1 X1.3744 Y-0.5751
G3 X1.4899 Y-0.6254 I0.2443 J0.4035
X1.6676 Y-0.6578 I0.2628 J0.9369
X1.9566 Y-0.672 I0.3036 J3.2218
X2.3908 Y-0.6749 I0.362 J22.2322
G1 X2.6079 Y-0.675
X2.8612
G3 X3.1144 Y-0.671 I0.0454 J5.2207
G1 X3.1504 Y-0.6681
G3 X3.2864 Y-0.6436 I-0.0483 J0.6583
X3.3525 Y-0.6143 I-0.0866 J0.2846
X3.3873 Y-0.5507 I-0.0373 J0.0617
X3.3827 Y-0.4675 I-0.7932 J-0.002
G1 X3.3817 Y-0.4638
X3.3802 Y-0.4602
X3.3781 Y-0.4569
X3.3755 Y-0.454
X3.3725 Y-0.4516
X3.3692 Y-0.4496
X3.3656 Y-0.4481
X3.3619 Y-0.4473
X3.3585 Y-0.4469 F300.
X1.2949 Y-0.4043
X1.2921 Y-0.4044
X1.2892 Y-0.4049
G3 X1.2696 Y-0.4262 I0.0051 J-0.0245 F50.
G1 X1.264 Y-0.4858
G3 X1.2837 Y-0.5579 I0.1214 J-0.0056
X1.3518 Y-0.6311 I0.2057 J0.1232
G1 X1.3716 Y-0.645
G3 X1.4883 Y-0.6983 I0.2582 J0.411
X1.6654 Y-0.734 I0.2765 J0.9153
X1.9542 Y-0.7511 I0.3151 J2.8764
X2.3884 Y-0.7546 I0.3572 J17.059
G1 X2.5331 Y-0.7549
X2.7864 Y-0.755
G3 X3.0758 Y-0.7515 I0.0575 J7.3149
G1 X3.1119 Y-0.7491
X3.148 Y-0.7459
G3 X3.2868 Y-0.72 I-0.0673 J0.7461
X3.3516 Y-0.6925 I-0.0896 J0.3011
X3.3866 Y-0.6367 I-0.037 J0.062
X3.3872 Y-0.5507 I-0.5743 J0.0476
G1 X3.3867 Y-0.5469
X3.3856 Y-0.5432
X3.3839 Y-0.5397
X3.3817 Y-0.5366
X3.3791 Y-0.5338
X3.376 Y-0.5314
X3.3726 Y-0.5295
X3.369 Y-0.5282
X3.3661 Y-0.5276 F300.
X3.3631 Y-0.5273
X1.2895 Y-0.464
X1.2866 Y-0.4641
X1.2837 Y-0.4645
G3 X1.264 Y-0.4858 I0.0051 J-0.0245 F50.
G1 X1.2597 Y-0.5306
X1.2593 Y-0.5388
X1.2595 Y-0.5635
G3 X1.2927 Y-0.6462 I0.1477 J0.0113
X1.364 Y-0.7129 I0.2225 J0.1662
X1.4802 Y-0.7697 I0.2668 J0.3985
X1.6565 Y-0.8093 I0.289 J0.8759
X1.945 Y-0.8298 I0.3269 J2.564
X2.3792 Y-0.8345 I0.3662 J13.7941
G1 X2.5239 Y-0.835
X2.6686 Y-0.8351
X2.8134 Y-0.8348
X2.9581 Y-0.8341
G3 X3.1387 Y-0.8246 I-0.0334 J2.351
X3.2809 Y-0.7988 I-0.0851 J0.8724
X3.3437 Y-0.7741 I-0.0922 J0.3268
X3.3795 Y-0.7204 I-0.0355 J0.0625
G1 X3.3798 Y-0.7171
X3.3865 Y-0.6367
G3 X3.3709 Y-0.6123 I-0.025 J0.0012
G1 X3.3682 Y-0.6114 F300.
X3.3653 Y-0.6108
X3.3624 Y-0.6105
X1.2853 Y-0.5392
X1.2825
X1.2797 Y-0.5396
X1.2769 Y-0.5403
G3 X1.2595 Y-0.5635 I0.0075 J-0.0238 F50.
G1 X1.2608 Y-0.6374
G3 X1.2938 Y-0.7199 I0.1459 J0.0106
X1.3672 Y-0.7884 I0.2271 J0.1699
G1 X1.3902 Y-0.803
G3 X1.5192 Y-0.8568 I0.2782 J0.486
X1.7326 Y-0.8952 I0.3164 J1.1448
X2.0577 Y-0.9115 I0.3463 J3.6547
X2.6727 Y-0.9147 I0.4532 J28.4115
X3.0345 Y-0.9108 I0.0905 J8.5427
G1 X3.0706 Y-0.9084
X3.1067 Y-0.9056
X3.1427 Y-0.9019
G3 X3.284 Y-0.8751 I-0.0931 J0.8766
G1 X3.307 Y-0.8673
X3.3195 Y-0.8622
G3 X3.3626 Y-0.8099 I-0.0272 J0.0663
G1 X3.3772 Y-0.7361
X3.3786 Y-0.7279
X3.3795 Y-0.7204
G3 X3.3648 Y-0.6954 I-0.0249 J0.0022
G1 X3.3618 Y-0.6943 F300.
X3.3587 Y-0.6936
X3.3556 Y-0.6933
X1.2867 Y-0.6129
X1.2838
X1.2808 Y-0.6134
X1.278 Y-0.6141
G3 X1.2608 Y-0.6374 I0.0078 J-0.0238 F50.
X1.2639 Y-0.6785 I0.3987 J0.0097
G1 X1.2703 Y-0.7279
G3 X1.3077 Y-0.806 I0.1551 J0.0263
X1.3885 Y-0.8747 I0.2353 J0.1947
X1.515 Y-0.9305 I0.2776 J0.4583
X1.7277 Y-0.9719 I0.325 J1.1006
X2.0527 Y-0.9906 I0.3566 J3.3635
X2.5592 Y-0.9946 I0.4056 J19.6115
X2.9934 Y-0.9916 I0.1275 J12.9132
X3.1735 Y-0.9757 I-0.0847 J1.996
G1 X3.2092 Y-0.9697
G3 X3.2958 Y-0.9477 I-0.0815 J0.5018
X3.3371 Y-0.903 I-0.0276 J0.0669
G1 X3.351 Y-0.8594
X3.3552 Y-0.8456
X3.356 Y-0.843
X3.3593 Y-0.8265
X3.3626 Y-0.8099
G3 X3.3498 Y-0.7838 I-0.0247 J0.004
X3.3389 Y-0.7809 I-0.0119 J-0.022 F300.
G1 X1.2962 Y-0.7005
G3 X1.2848 Y-0.7028 I-0.001 J-0.025
X1.2703 Y-0.7279 I0.0104 J-0.0227 F50.
X1.2891 Y-0.8265 I0.6027 J0.0633
X1.3285 Y-0.8946 I0.1618 J0.0482
X1.4173 Y-0.9632 I0.2405 J0.2196
X1.5491 Y-1.0154 I0.2794 J0.5135
X1.7986 Y-1.0565 I0.3472 J1.3279
X2.1238 Y-1.0714 I0.3549 J4.1958
X2.9198 Y-1.073 I0.4559 J28.5816
X3.1364 Y-1.0587 I-0.0631 J2.5944
G1 X3.1722 Y-1.0536
X3.2079 Y-1.0477
X3.2408 Y-1.0407
X3.2564 Y-1.0363
G3 X3.3024 Y-0.9967 I-0.0194 J0.069
G1 X3.3086 Y-0.9827
X3.3192 Y-0.9581
X3.3223 Y-0.9493
X3.3371 Y-0.903
G3 X3.3273 Y-0.8757 I-0.0241 J0.0068
X3.314 Y-0.8712 I-0.0143 J-0.0205 F300.
G1 X1.3145 Y-0.7964
G3 X1.3006 Y-0.7999 I-0.0009 J-0.025
X1.2891 Y-0.8265 I0.0129 J-0.0214 F50.
X1.3083 Y-0.9005 I1.4318 J0.3321
G1 X1.3175 Y-0.9252
G3 X1.3718 Y-0.9989 I0.1758 J0.0726
X1.4544 Y-1.0534 I0.2365 J0.2685
X1.5907 Y-1.1013 I0.2792 J0.5772
X1.841 Y-1.138 I0.3499 J1.5124
X2.2025 Y-1.1521 I0.3775 J5.0511
X2.8899 Y-1.153 I0.3784 J25.8535
X3.1425 Y-1.1361 I-0.0542 J2.705
G1 X3.1783 Y-1.1306
X3.2085 Y-1.1249
X3.2296 Y-1.1194
X3.2376 Y-1.1156
X3.2444 Y-1.11
X3.2498 Y-1.103
X3.2674 Y-1.0732
X3.2718 Y-1.0649
X3.3024 Y-0.9967
G3 X3.2957 Y-0.9685 I-0.0232 J0.0094
X3.2801 Y-0.9623 I-0.0165 J-0.0188 F300.
G1 X1.3421 Y-0.8923
G3 X1.326 Y-0.8975 I-0.0009 J-0.025
X1.3175 Y-0.9252 I0.0152 J-0.0198 F50.
G1 X1.3389 Y-0.9827
X1.3487 Y-1.0074
X1.3508 Y-1.0123
X1.359 Y-1.0286
G3 X1.4131 Y-1.0923 I0.1766 J0.0952
X1.5018 Y-1.1449 I0.2363 J0.2968
X1.6398 Y-1.1876 I0.2754 J0.6463
X1.9269 Y-1.2222 I0.367 J1.8406
X2.2524 Y-1.2324 I0.3518 J5.9969
X2.8674 Y-1.2329 I0.3246 J22.9721
X3.1202 Y-1.217 I-0.0609 J2.9969
G1 X3.1522 Y-1.2124
G3 X3.1995 Y-1.1845 I-0.0098 J0.071
G1 X3.203 Y-1.18
X3.2087 Y-1.1718
X3.214 Y-1.1636
X3.2498 Y-1.103
G3 X3.2464 Y-1.0742 I-0.022 J0.012
X3.2289 Y-1.0661 I-0.0185 J-0.0168 F300.
G1 X1.3827 Y-0.9931
G3 X1.3643 Y-1.0001 I-0.001 J-0.025
X1.359 Y-1.0286 I0.0174 J-0.018 F50.
G1 X1.3919 Y-1.0936
X1.3942 Y-1.0978
X1.4083 Y-1.1229
X1.4165 Y-1.1355
G3 X1.4841 Y-1.1987 I0.1832 J0.128
G1 X1.5046 Y-1.2111
G3 X1.6308 Y-1.2594 I0.2534 J0.4733
X1.8448 Y-1.294 I0.3216 J1.3077
X2.2062 Y-1.3111 I0.3902 J4.4359
X2.8574 Y-1.3124 I0.3663 J19.3716
X3.0846 Y-1.2991 I-0.0729 J3.1709
X3.1294 Y-1.2753 I-0.0102 J0.0734
G1 X3.1337 Y-1.2705
X3.1409 Y-1.2622
X3.1995 Y-1.1845
G3 X3.1994 Y-1.1556 I-0.0205 J0.0144
X3.1798 Y-1.1452 I-0.0203 J-0.0146 F300.
G1 X1.4386 Y-1.0975
G3 X1.4186 Y-1.1065 I-0.0007 J-0.025
X1.4165 Y-1.1355 I0.0193 J-0.0159 F50.
G1 X1.462 Y-1.2047
G3 X1.4905 Y-1.2407 I0.443 J0.3219
X1.5565 Y-1.2949 I0.1814 J0.1535
G1 X1.5773 Y-1.3061
G3 X1.7074 Y-1.3495 I0.2403 J0.5038
X1.9585 Y-1.3807 I0.3305 J1.6305
X2.2839 Y-1.3919 I0.3597 J5.7191
X2.8628 Y-1.3917 I0.2822 J16.7154
X3.0077 Y-1.3838 I-0.086 J2.9262
G1 X3.0185 Y-1.38
X3.0287 Y-1.375
X3.0379 Y-1.3684
X3.043 Y-1.3641
X3.0594 Y-1.3489
X3.064 Y-1.3445
X3.1264 Y-1.2787
X3.1294 Y-1.2753
G3 X3.1315 Y-1.2464 I-0.0193 J0.0159
X3.1106 Y-1.2344 I-0.0214 J-0.013 F300.
G1 X1.5107 Y-1.2004
G3 X1.4893 Y-1.2117 I-0.0005 J-0.025
X1.4904 Y-1.2407 I0.0209 J-0.0137 F50.
G1 X1.5425 Y-1.3034
X1.5479 Y-1.3088
X1.5644 Y-1.3246
X1.5936 Y-1.3527
G3 X1.671 Y-1.4016 I0.1779 J0.1958
X1.8035 Y-1.4396 I0.2229 J0.5263
X2.0554 Y-1.4644 I0.3152 J1.9097
X2.4532 Y-1.4733 I0.3879 J8.4933
X2.8861 Y-1.47 I0.1367 J10.5392
G1 X2.8992 Y-1.4681
X2.9117 Y-1.4641
X2.9233 Y-1.4578
X2.9579 Y-1.4349
X2.9609 Y-1.4328
X2.9691 Y-1.4263
X3.0379 Y-1.3684
G3 X3.0442 Y-1.3401 I-0.0168 J0.0186
X3.0214 Y-1.3248 I-0.023 J-0.0097 F300.
G1 X1.6118 Y-1.3103
G3 X1.5892 Y-1.324 I-0.0003 J-0.025
X1.5936 Y-1.3527 I0.0223 J-0.0112 F50.
X1.6465 Y-1.4003 I0.4885 J0.4897
G1 X1.7205 Y-1.4568
X1.7243 Y-1.4596
X1.7287 Y-1.4626
X1.7451 Y-1.4724
X1.7692 Y-1.4852
X1.7893 Y-1.4943
G3 X1.9206 Y-1.5281 I0.2047 J0.5226
X2.1729 Y-1.5477 I0.2938 J2.1534
X2.7398 Y-1.5527 I0.3932 J12.4303
G1 X2.7507 Y-1.5518
X2.7614 Y-1.5491
X2.7714 Y-1.5449
X2.8459 Y-1.5068
X2.8565 Y-1.5007
X2.8706 Y-1.4924
X2.8787 Y-1.4875
X2.9233 Y-1.4578
G3 X2.9327 Y-1.4304 I-0.0146 J0.0203
X2.9085 Y-1.4125 I-0.024 J-0.0071 F300.
G1 X1.7584 Y-1.4264
G3 X1.7344 Y-1.4455 I0.0003 J-0.025
X1.7451 Y-1.4724 I0.0243 J-0.006 F50.
G1 X1.8108 Y-1.5118
X1.819 Y-1.5164
X1.8357 Y-1.5253
X1.8437 Y-1.5293
X1.9258 Y-1.5666
G3 X1.9962 Y-1.5911 I0.2671 J0.6566
X2.1739 Y-1.6228 I0.2251 J0.746
X2.4743 Y-1.6324 I0.2805 J4.0831
G1 X2.5173 Y-1.6262
X2.5337 Y-1.6229
X2.5419 Y-1.6211
X2.6279 Y-1.5993
X2.6323 Y-1.5982
X2.6487 Y-1.5932
X2.6548 Y-1.5911
X2.7309 Y-1.5624
G3 X2.7715 Y-1.545 I-0.1372 J0.3774
G1 X2.7747 Y-1.5429
X2.7776 Y-1.5402
X2.78 Y-1.5372
X2.7819 Y-1.5339
X2.7833 Y-1.5303
X2.7841 Y-1.5265
X2.7843 Y-1.5226
X2.7839 Y-1.5188
G3 X2.7578 Y-1.4981 I-0.0246 J-0.0043 F300.
G1 X2.0033 Y-1.5426
G3 X1.9798 Y-1.5672 I0.0015 J-0.025
X1.9962 Y-1.5911 I0.025 J-0.0004 F50.
X2.0655 Y-1.612 I0.2645 J0.7525
G1 X2.1476 Y-1.6287
X2.1723 Y-1.6332
X2.1805 Y-1.6342
X2.2791 Y-1.643
X2.2873 Y-1.6437
G3 X2.4023 Y-1.641 I-0.0946 J6.4114
G1 X2.4269 Y-1.6385
X2.4433 Y-1.6363
X2.4743 Y-1.6321
G3 X2.4947 Y-1.6115 I-0.0043 J0.0246
G1 X2.4953 Y-1.6077 Z0.2034
X2.4959 Y-1.6039 Z0.2043
X2.4965 Y-1.6003 Z0.2058
X2.4971 Y-1.597 Z0.2079
X2.4975 Y-1.5941 Z0.2104
X2.498 Y-1.5916 Z0.2134
X2.4983 Y-1.5895 Z0.2168
X2.4985 Y-1.5881 Z0.2204
X2.4987 Y-1.5871 Z0.2242
Y-1.5868 Z0.2281
G0 Z0.6993
X1.7479 Y-2.9281
Z0.2531
G1 Z0.2281 F50.
X1.7477 Y-2.9279 Z0.2242
X1.7471 Y-2.9273 Z0.2204
X1.746 Y-2.9262 Z0.2168
X1.7446 Y-2.9247 Z0.2134
X1.7428 Y-2.9229 Z0.2104
X1.7407 Y-2.9208 Z0.2079
X1.7384 Y-2.9184 Z0.2058
X1.7358 Y-2.9158 Z0.2043
X1.7332 Y-2.9131 Z0.2034
X1.7304 Y-2.9103 Z0.2031
G3 X1.704 Y-2.8942 I-0.0446 J-0.0436
G1 X1.6383 Y-2.8767
X1.6137 Y-2.8701
X1.6054 Y-2.8673
X1.589 Y-2.8616
X1.4846 Y-2.8243
G3 X1.361 Y-2.7981 I-0.1762 J-0.5276
X1.1442 Y-2.7889 I-0.2136 J-2.4838
X0.8547 Y-2.7877 I-0.2407 J-23.0002
G1 X0.5652
X0.4205
X0.3843 Y-2.7876
X0.3491 Y-2.7792
X0.3173 Y-2.762
X0.2902 Y-2.7381
X0.268 Y-2.7095
X0.2503 Y-2.6779
X0.2365 Y-2.6445
X0.2259 Y-2.6099
G2 X0.2041 Y-2.467 I0.7858 J0.1931
X0.196 Y-2.1777 I3.9846 J0.2563
G1 X0.1955 Y-2.1416
X0.1952 Y-2.0692
X0.1951 Y-1.9968
X0.195 Y-1.8521
Y-1.6978
X0.1941 Y-1.6864
X0.1914 Y-1.6753
X0.1869 Y-1.6648
X0.1615 Y-1.6158
X0.1515 Y-1.5961
X0.1491 Y-1.5911
X0.1095 Y-1.4963
G3 X0.0843 Y-1.4818 I-0.0227 J-0.0104
X0.0618 Y-1.5089 I0.0024 J-0.0249 F300.
G1 X0.075 Y-2.479
X0.092 Y-2.6105
X0.1109 Y-2.6763
X0.1382 Y-2.7421
X0.1464 Y-2.7585
X0.1488 Y-2.7627
X0.1514 Y-2.7667
X0.1925 Y-2.824
X0.2004 Y-2.8322
X0.2007 Y-2.8325
X0.2582 Y-2.878
X0.3075 Y-2.9015
X0.3574 Y-2.9148
X0.5129 Y-2.9212
X1.4576 Y-2.9443
G3 X1.5233 Y-2.8736 I0.004 J0.0622
G1 Y-2.8735
G3 X1.5094 Y-2.8422 I-0.0617 J-0.0086
X1.4904 Y-2.8269 I-0.0478 J-0.04 F50.
G1 X1.4846 Y-2.8243
X1.4386 Y-2.8078
X1.4247 Y-2.8027
X1.4165 Y-2.7992
X1.3919 Y-2.7881
X1.3179 Y-2.7545
X1.2887 Y-2.7429
X1.2663 Y-2.7358
G3 X1.1285 Y-2.7148 I-0.1675 J-0.6371
X0.8754 Y-2.7085 I-0.226 J-3.9809
G1 X0.7427 Y-2.7079
X0.61 Y-2.7076
X0.4774
X0.4419 Y-2.7002
X0.4094 Y-2.6843
X0.3812 Y-2.6617
X0.3576 Y-2.6343
X0.3385 Y-2.6035
X0.3234 Y-2.5707
X0.3116 Y-2.5365
G2 X0.2864 Y-2.3942 I0.7103 J0.199
X0.2765 Y-2.1412 I3.0013 J0.2436
X0.2751 Y-1.8442 I19.1145 J0.2384
G1 X0.2738 Y-1.8309
X0.2701 Y-1.818
X0.2641 Y-1.806
X0.2478 Y-1.7802
X0.2336 Y-1.7545
X0.217 Y-1.7226
X0.1869 Y-1.6648
G3 X0.1607 Y-1.6525 I-0.0218 J-0.0123
X0.1432 Y-1.6651 I0.0045 J-0.0246 F300.
G1 X0.1407 Y-1.6897
X0.1548 Y-2.3803
X0.1685 Y-2.4872
X0.1876 Y-2.5776
X0.2177 Y-2.6516
X0.2418 Y-2.6945
X0.2793 Y-2.7421
X0.3322 Y-2.7888
X0.3979 Y-2.8213
X0.4554 Y-2.8357
X1.2851 Y-2.8724
G3 X1.3412 Y-2.7744 I0.0051 J0.0621
X1.3248 Y-2.7585 I-0.051 J-0.0358 F50.
G1 X1.3179 Y-2.7545
X1.2604 Y-2.7284
X1.2545 Y-2.7256
X1.2358 Y-2.7164
X1.2276 Y-2.712
X1.1701 Y-2.6798
G3 X1.088 Y-2.6507 I-0.1477 J-0.2858
X0.9445 Y-2.6335 I-0.1712 J-0.8189
X0.6551 Y-2.6283 I-0.2471 J-5.6911
G1 X0.5828 Y-2.6278
X0.5467 Y-2.6247
X0.5123 Y-2.6135
X0.4814 Y-2.5947
X0.4549 Y-2.57
X0.4329 Y-2.5413
X0.4151 Y-2.5098
X0.401 Y-2.4765
G2 X0.37 Y-2.3355 I0.5875 J0.2031
X0.3577 Y-2.1188 I2.1341 J0.2298
X0.3557 Y-1.9717 I6.8631 J0.164
G1 X0.3544 Y-1.9581
X0.3505 Y-1.9451
X0.3442 Y-1.9331
X0.3404 Y-1.9272
X0.2641 Y-1.806
G3 X0.2369 Y-1.796 I-0.0207 J-0.0141
X0.2184 Y-1.8213 I0.0065 J-0.0241 F300.
G1 X0.2466 Y-2.3968
X0.2697 Y-2.4954
X0.3032 Y-2.5776
X0.3404 Y-2.6344
X0.3872 Y-2.6845
X0.439 Y-2.7208
X0.4883 Y-2.7423
X0.5375 Y-2.7546
X1.1372 Y-2.7954
G3 X1.1947 Y-2.7585 I0.0006 J0.0623
G1 X1.1977 Y-2.7503
G3 X1.1916 Y-2.7017 I-0.0599 J0.0171
X1.1767 Y-2.6845 I-0.0538 J-0.0315 F50.
G1 X1.1701 Y-2.6798
X1.0715 Y-2.6247
X1.0619 Y-2.6187
X1.0496 Y-2.6105
G3 X0.9852 Y-2.5808 I-0.1384 J-0.2154
X0.8506 Y-2.5568 I-0.1712 J-0.5723
X0.6699 Y-2.5494 I-0.1937 J-2.5188
G1 X0.6338 Y-2.5463
X0.5992 Y-2.5356
X0.5679 Y-2.5176
X0.5407 Y-2.4937
X0.518 Y-2.4655
X0.4995 Y-2.4344
X0.4847 Y-2.4014
X0.473 Y-2.3672
G2 X0.4475 Y-2.2249 I0.7344 J0.205
X0.439 Y-2.0817 I2.0459 J0.194
G3 X0.4246 Y-2.0412 I-0.0722 J-0.0029
G1 X0.3642 Y-1.961
X0.3519 Y-1.9446
X0.3486 Y-1.9399
X0.3442 Y-1.9331
G3 X0.3169 Y-1.9233 I-0.0205 J-0.0143
X0.2993 Y-1.9528 I0.0068 J-0.0241 F300.
G1 X0.3384 Y-2.3688
X0.3623 Y-2.4461
X0.365 Y-2.4542
X0.4062 Y-2.5304
X0.4416 Y-2.5776
X0.4883 Y-2.6199
X0.554 Y-2.6574
X0.6115 Y-2.6735
X1.0058 Y-2.7228
G3 X1.0692 Y-2.634 I0.0073 J0.0619
X1.0551 Y-2.6149 I-0.0562 J-0.0269 F50.
G1 X1.0496 Y-2.6105
X0.9318 Y-2.5311
G3 X0.8673 Y-2.5017 I-0.1399 J-0.2213
G1 X0.839 Y-2.4937
X0.8036 Y-2.4863
X0.7678 Y-2.481
X0.7319 Y-2.4768
X0.6968 Y-2.468
X0.6641 Y-2.4524
X0.6352 Y-2.4307
X0.6105 Y-2.4042
X0.59 Y-2.3744
X0.5734 Y-2.3423
X0.5601 Y-2.3086
G2 X0.5335 Y-2.1909 I0.582 J0.1935
G1 X0.5302 Y-2.1771
X0.5242 Y-2.1642
X0.5159 Y-2.1528
G2 X0.4247 Y-2.0412 I0.757 J0.7117
G1 X0.422 Y-2.0384
X0.4189 Y-2.036
X0.4155 Y-2.0341
X0.4119 Y-2.0328
X0.4081 Y-2.0321
X0.4042 Y-2.0319
X0.4004 Y-2.0324
X0.3967 Y-2.0334
G3 X0.3803 Y-2.0597 I0.0085 J-0.0235 F300.
G1 X0.438 Y-2.3557
X0.4677 Y-2.4214
X0.4965 Y-2.4664
X0.5375 Y-2.5156
X0.5962 Y-2.5628
X0.6525 Y-2.5898
X0.8826 Y-2.6426
G3 X0.9514 Y-2.5547 I0.0127 J0.061
X0.9383 Y-2.5365 I-0.0562 J-0.0269 F50.
G1 X0.9318 Y-2.5311
G2 X0.8825 Y-2.4954 I0.2383 J0.3811
G1 X0.8415 Y-2.4625
X0.8289 Y-2.4534
X0.7983 Y-2.4343
X0.7668 Y-2.4164
X0.7375 Y-2.3952
X0.7113 Y-2.3702
X0.6886 Y-2.342
X0.6774 Y-2.3239
X0.6739 Y-2.3189
X0.6701 Y-2.3142
X0.6658 Y-2.3098
G3 X0.637 Y-2.3067 I-0.0166 J-0.0187
X0.6329 Y-2.3474 I0.0123 J-0.0218 F300.
G1 X0.8088 Y-2.5003
G3 X0.8484 Y-2.4907 I0.0164 J0.0189
X0.8415 Y-2.4625 I-0.0232 J0.0092 F50.
G1 X0.7676 Y-2.4032
X0.7495 Y-2.3885
X0.7429 Y-2.3828
X0.7347 Y-2.3751
X0.6102 Y-2.257
X0.5942 Y-2.2406
X0.5722 Y-2.2159
X0.5159 Y-2.1528
G3 X0.4874 Y-2.1474 I-0.0181 J-0.0173
G1 X0.4839 Y-2.149 Z0.2034
X0.4804 Y-2.1506 Z0.2043
X0.4771 Y-2.1521 Z0.2058
X0.4741 Y-2.1535 Z0.2079
X0.4714 Y-2.1547 Z0.2104
X0.469 Y-2.1558 Z0.2134
X0.4672 Y-2.1566 Z0.2168
X0.4658 Y-2.1573 Z0.2204
X0.465 Y-2.1576 Z0.2242
X0.4647 Y-2.1578 Z0.2281
G0 Z0.6993
X4.0905 Y-1.0628
Z0.2531
G1 Z0.2281 F50.
X4.0902 Y-1.063 Z0.2242
X4.0895 Y-1.0636 Z0.2204
X4.0884 Y-1.0645 Z0.2168
X4.0868 Y-1.0658 Z0.2134
X4.0849 Y-1.0675 Z0.2104
X4.0826 Y-1.0694 Z0.2079
X4.08 Y-1.0716 Z0.2058
X4.0773 Y-1.0739 Z0.2043
X4.0744 Y-1.0764 Z0.2034
X4.0714 Y-1.0789 Z0.2031
G3 X4.0534 Y-1.1041 I0.0402 J-0.0476
G1 X4.0072 Y-1.2376
X3.9974 Y-1.2622
X3.9959 Y-1.2658
X3.9877 Y-1.2837
X3.977 Y-1.3104
X3.97 Y-1.3321
G3 X3.949 Y-1.4689 I0.6225 J-0.1657
X3.9428 Y-1.722 I3.9767 J-0.2246
G1 X3.9424 Y-1.7582
X3.9422 Y-1.8306
X3.9421 Y-1.9391
X3.942 Y-2.2286
Y-2.5904
X3.935 Y-2.6259
X3.9191 Y-2.6584
X3.8962 Y-2.6864
X3.8684 Y-2.7095
X3.8373 Y-2.7281
X3.8042 Y-2.7427
X3.7698 Y-2.754
G2 X3.6273 Y-2.7775 I-0.1953 J0.7388
X3.3742 Y-2.7864 I-0.2403 J3.2558
G1 X3.338 Y-2.7869
X3.3018 Y-2.7871
X3.2699 Y-2.7872
X3.2604 Y-2.7879
X3.251 Y-2.7899
X3.242 Y-2.793
X3.1827 Y-2.8184
X3.1745 Y-2.8214
X3.158 Y-2.8272
X3.1498 Y-2.83
X3.0258 Y-2.8713
G3 X3.0096 Y-2.8953 I0.0087 J-0.0234
X3.0348 Y-2.9198 I0.025 J0.0006 F300.
G1 X3.7223 Y-2.8982
X3.8152 Y-2.8762
X3.8973 Y-2.8435
X3.9516 Y-2.8078
X3.9979 Y-2.7667
X4.037 Y-2.7133
X4.0596 Y-2.6598
X4.0707 Y-2.6023
X4.1057 Y-1.3116
G3 X4.0077 Y-1.2606 I-0.0623 J-0.0001
X3.9905 Y-1.2787 I0.0357 J-0.0511 F50.
G1 X3.9877 Y-1.2837
X3.9372 Y-1.3938
G2 X3.9154 Y-1.4349 I-0.3999 J0.1857
G3 X3.8867 Y-1.5114 I0.2658 J-0.1434
X3.8681 Y-1.6547 I0.7448 J-0.1696
X3.8626 Y-1.944 I5.3246 J-0.2459
G1 X3.8622 Y-2.0164
X3.8621 Y-2.1249
X3.862 Y-2.4144
Y-2.4868
X3.8586 Y-2.5228
X3.8466 Y-2.5569
X3.8269 Y-2.5873
X3.8016 Y-2.6132
X3.7724 Y-2.6344
X3.7405 Y-2.6515
X3.7069 Y-2.665
G2 X3.5654 Y-2.6941 I-0.2006 J0.6164
X3.4503 Y-2.7025 I-0.1725 J1.5779
G1 X3.4397 Y-2.7037
X3.4294 Y-2.7065
X3.4196 Y-2.7108
G2 X3.3418 Y-2.7503 I-0.4651 J0.8196
G1 X3.242 Y-2.793
G3 X3.2278 Y-2.8183 I0.0106 J-0.0226
X3.2566 Y-2.8403 I0.0249 J0.0026 F300.
G1 X3.7103 Y-2.7996
X3.8234 Y-2.7543
X3.8849 Y-2.7128
X3.9302 Y-2.6648
X3.9644 Y-2.6105
X3.9826 Y-2.5612
X3.9928 Y-2.479
X4.0305 Y-1.4678
G3 X3.9376 Y-1.4138 I-0.0623 J-0.0003
X3.9155 Y-1.4349 I0.0306 J-0.0543 F50.
G1 X3.8533 Y-1.5418
X3.8437 Y-1.5582
X3.8398 Y-1.5641
G3 X3.8154 Y-1.6191 I0.2038 J-0.1234
G1 X3.8077 Y-1.646
G3 X3.7887 Y-1.7893 I0.7579 J-0.1737
X3.7827 Y-2.0787 I5.0697 J-0.2492
G1 X3.7821 Y-2.2415
X3.782 Y-2.4043
X3.7775 Y-2.4402
X3.765 Y-2.4742
X3.7453 Y-2.5045
X3.72 Y-2.5304
X3.6909 Y-2.5518
X3.6591 Y-2.5691
X3.6256 Y-2.5828
X3.6151 Y-2.5861
X3.6029 Y-2.5911
X3.5918 Y-2.5984
X3.5823 Y-2.6075
G2 X3.531 Y-2.6518 I-0.1606 J0.1341
G1 X3.4948 Y-2.6709
X3.4196 Y-2.7108
G3 X3.4075 Y-2.7371 I0.0125 J-0.0217
X3.4291 Y-2.7573 I0.0246 J0.0047 F300.
G1 X3.5359 Y-2.773
G3 X3.6053 Y-2.7585 I0.016 J0.0971
G1 X3.7906 Y-2.6407
X3.8378 Y-2.5963
X3.8388 Y-2.5952
X3.8398 Y-2.5941
X3.8788 Y-2.5365
X3.9012 Y-2.479
X3.9099 Y-2.4296
X3.9515 Y-1.6075
G3 X3.8638 Y-1.545 I-0.062 J0.0058
X3.8449 Y-1.5582 I0.0258 J-0.0567 F50.
G1 X3.8398 Y-1.5641
X3.8266 Y-1.5829
X3.7675 Y-1.6651
G3 X3.7319 Y-1.747 I0.2278 J-0.1476
G1 X3.7237 Y-1.7807
G3 X3.7064 Y-1.9606 I1.1132 J-0.1977
X3.7022 Y-2.3223 I10.2294 J-0.2987
G1 X3.697 Y-2.3582
X3.6843 Y-2.3921
X3.6645 Y-2.4224
X3.6402 Y-2.4484
G3 X3.621 Y-2.4991 I0.0524 J-0.0489
G2 X3.6087 Y-2.5612 I-0.1929 J0.0059
G1 X3.6079 Y-2.5649
X3.6077 Y-2.5688
X3.608 Y-2.5727
X3.609 Y-2.5764
X3.6105 Y-2.58
X3.6126 Y-2.5832
X3.6151 Y-2.5862
X3.618 Y-2.5887
G3 X3.6507 Y-2.5858 I0.0147 J0.0202 F300.
G1 X3.7577 Y-2.5038
G3 X3.7906 Y-2.4671 I-0.0546 J0.0819
G1 X3.8165 Y-2.4117
X3.8285 Y-2.3557
X3.879 Y-1.7062
G3 X3.7916 Y-1.6462 I-0.0622 J0.003
X3.7675 Y-1.6651 I0.0252 J-0.057 F50.
G2 X3.7015 Y-1.7472 I-0.5961 J0.4114
G3 X3.6644 Y-1.8124 I0.1712 J-0.1406
G1 X3.6563 Y-1.8355
G3 X3.6321 Y-1.9732 I0.6163 J-0.1795
X3.6233 Y-2.2262 I3.2418 J-0.239
G1 X3.6204 Y-2.2623
X3.6114 Y-2.2974
X3.5985 Y-2.3312
X3.5924 Y-2.3454
G3 X3.595 Y-2.4068 I0.066 J-0.028
G2 X3.6066 Y-2.4296 I-0.2703 J-0.1518
G1 X3.6143 Y-2.4543
G2 X3.621 Y-2.4991 I-0.1459 J-0.0449
G3 X3.6384 Y-2.5223 I0.025 J0.0006
X3.6708 Y-2.5014 I0.0076 J0.0238 F300.
G1 X3.7602 Y-1.7575
G3 X3.7277 Y-1.7307 I-0.0248 J0.003
G1 X3.7274 Y-1.7308
G3 X3.7016 Y-1.7473 I0.0196 J-0.0591 F50.
G1 X3.6295 Y-1.8295
X3.6263 Y-1.8328
G3 X3.5854 Y-1.9029 I0.158 J-0.1389
G1 X3.5771 Y-1.9267
G3 X3.5526 Y-2.0654 I0.6305 J-0.1829
G1 X3.5497 Y-2.1014
X3.5476 Y-2.1376
X3.545 Y-2.1736
X3.5397 Y-2.2094
X3.5288 Y-2.26
G3 X3.5377 Y-2.3124 I0.0701 J-0.0151
G1 X3.5941 Y-2.405
X3.595 Y-2.4068
G3 X3.6213 Y-2.4189 I0.0217 J0.0124
X3.6417 Y-2.3956 I-0.0046 J0.0246 F300.
G1 X3.6682 Y-1.8524
G3 X3.655 Y-1.8292 I-0.025 J0.0012
X3.6263 Y-1.8328 I-0.0118 J-0.022 F50.
G1 X3.613 Y-1.8459
X3.6098 Y-1.849
X3.556 Y-1.8996
G3 X3.5109 Y-1.9699 I0.1462 J-0.1434
G1 X3.5022 Y-1.9924
X3.4935 Y-2.021
X3.4853 Y-2.0563
X3.4788 Y-2.0919
X3.4725 Y-2.1275
X3.4664 Y-2.1599
G3 X3.4756 Y-2.2105 I0.0704 J-0.0133
X3.5022 Y-2.2219 I0.0214 J0.013
X3.5207 Y-2.2051 I-0.0053 J0.0244 F300.
G1 X3.6128 Y-1.9177
G3 X3.5836 Y-1.8856 I-0.0238 J0.0076
G1 X3.5833 Y-1.8857
G3 X3.556 Y-1.8996 I0.0138 J-0.0608 F50.
X3.4727 Y-1.9813 I0.8548 J-0.9545
G1 X3.4699 Y-1.9857
X3.4543 Y-2.0104
G3 X3.4403 Y-2.0473 I0.3331 J-0.1474
X3.4349 Y-2.0843 I0.4617 J-0.0863
G1 X3.4361 Y-2.109
X3.4366 Y-2.1172
X3.4373 Y-2.1206
X3.4447 Y-2.1501
G3 X3.4702 Y-2.2016 I0.3434 J0.138
G1 X3.5377 Y-2.3124
G3 X3.5647 Y-2.3229 I0.0209 J0.0137
G1 X3.5685 Y-2.3219 Z0.2034
X3.5722 Y-2.321 Z0.2043
X3.5757 Y-2.3201 Z0.2058
X3.5789 Y-2.3193 Z0.2079
X3.5818 Y-2.3185 Z0.2104
X3.5843 Y-2.3179 Z0.2134
X3.5863 Y-2.3174 Z0.2168
X3.5877 Y-2.317 Z0.2204
X3.5886 Y-2.3168 Z0.2242
X3.5889 Y-2.3167 Z0.2281
G0 Z1.0993
(2D ADAPTIVE ROUGHING2)
G0 X0.5297 Y-0.5169
Z1.0993
Z0.6993
Z0.5993
G3 X0.4861 Y-0.6744 Z0.5836 I0.0635 J-0.1023 F40.
X0.6394 Y-0.7301 Z0.5679 I0.1068 J0.0551
X0.7069 Y-0.5821 Z0.5522 I-0.0463 J0.1106
X0.5651 Y-0.5032 Z0.5365 I-0.1136 J-0.0373
X0.4754 Y-0.6381 Z0.5208 I0.0281 J-0.116
X0.6024 Y-0.7379 Z0.505 I0.1176 J0.0188
X0.7118 Y-0.6195 Z0.4893 I-0.0094 J0.1184
X0.4742 I-0.1188 J0.
X0.7118 I0.1188 J0.
G1 X0.7119 Y-0.615 F50.
X0.7127 Y-0.6106
X0.7261 Y-0.5769
X0.7304 Y-0.5715
X0.7344 Y-0.5647
X0.7379 Y-0.5567
X0.7407 Y-0.5473
X0.7425 Y-0.5366
X0.743 Y-0.5248
X0.742 Y-0.512
X0.7392 Y-0.4984
X0.7344 Y-0.4842
X0.7274 Y-0.4697
X0.7181 Y-0.4552
X0.7063 Y-0.4412
X0.6922 Y-0.4279
X0.6756 Y-0.4159
X0.6567 Y-0.4055
X0.6358 Y-0.3971
X0.6131 Y-0.3911
X0.589 Y-0.3878
X0.5638 Y-0.3875
X0.5381 Y-0.3903
X0.5122 Y-0.3965
X0.4868 Y-0.406
X0.4624 Y-0.4188
X0.4393 Y-0.4347
X0.4181 Y-0.4536
X0.3991 Y-0.4751
X0.3829 Y-0.4991
X0.3695 Y-0.525
X0.3595 Y-0.5526
X0.3528 Y-0.5813
X0.3497 Y-0.6107
X0.3503 Y-0.6404
X0.3545 Y-0.6699
X0.3624 Y-0.6986
X0.3737 Y-0.7263
X0.3883 Y-0.7524
X0.4061 Y-0.7765
X0.4267 Y-0.7982
X0.4499 Y-0.8173
X0.4752 Y-0.8334
X0.5023 Y-0.8463
X0.5309 Y-0.8557
X0.5603 Y-0.8616
X0.5903 Y-0.8638
X0.6203 Y-0.8622
X0.6499 Y-0.8571
X0.6787 Y-0.8483
X0.7062 Y-0.836
X0.7319 Y-0.8205
X0.7556 Y-0.8019
X0.7767 Y-0.7805
X0.7953 Y-0.7564
X0.8138 Y-0.7253
X0.8317 Y-0.6938
X0.8476 Y-0.6613
X0.8604 Y-0.6275
X0.8694 Y-0.5925
X0.8738 Y-0.5583
X0.874 Y-0.5246
X0.8701 Y-0.4914
X0.8621 Y-0.4589
X0.8501 Y-0.4273
X0.8341 Y-0.397
X0.8141 Y-0.3684
X0.7904 Y-0.342
X0.763 Y-0.3183
X0.733 Y-0.2982
X0.7007 Y-0.2817
X0.6668 Y-0.2692
X0.6317 Y-0.2605
X0.5958 Y-0.2558
X0.5596 Y-0.2549
X0.5236 Y-0.258
X0.4881 Y-0.2649
X0.4535 Y-0.2756
X0.4202 Y-0.2897
X0.3884 Y-0.3071
X0.3586 Y-0.3275
X0.331 Y-0.351
X0.3059 Y-0.3771
X0.2835 Y-0.4055
X0.264 Y-0.4359
X0.2475 Y-0.4681
X0.2343 Y-0.5018
X0.2244 Y-0.5366
X0.2179 Y-0.5722
X0.2148 Y-0.6082
X0.2153 Y-0.6444
X0.2193 Y-0.6804
X0.2268 Y-0.7158
X0.2375 Y-0.7504
X0.2514 Y-0.7837
X0.2686 Y-0.8156
X0.2888 Y-0.8456
X0.3117 Y-0.8736
X0.3371 Y-0.8994
X0.3649 Y-0.9225
X0.3949 Y-0.9428
X0.4266 Y-0.9602
X0.4598 Y-0.9746
X0.4942 Y-0.9858
X0.5296 Y-0.9935
X0.5655 Y-0.9978
X0.6016 Y-0.9987
X0.6377 Y-0.9963
X0.6734 Y-0.9903
X0.7084 Y-0.9809
X0.7423 Y-0.9682
X0.7748 Y-0.9525
X0.8058 Y-0.9337
X0.8347 Y-0.912
X0.8614 Y-0.8876
X0.886 Y-0.861
X0.9087 Y-0.8328
X0.9295 Y-0.8033
X0.9484 Y-0.7724
X0.9652 Y-0.7403
X0.9798 Y-0.7072
X0.9902 Y-0.6775
X0.991 Y-0.6745
X0.9915 Y-0.6714
Y-0.6682
X0.9911 Y-0.6585
X0.9908 Y-0.6421
X0.9892 Y-0.5517
Y-0.5435
X0.9893 Y-0.5271
X0.9896 Y-0.5189
X0.9904 Y-0.5107
X0.9916 Y-0.482
X0.9888 Y-0.4459
X0.9816 Y-0.4105
X0.9704 Y-0.3761
X0.9557 Y-0.343
X0.9379 Y-0.3115
X0.9171 Y-0.2819
X0.8936 Y-0.2544
X0.8884 Y-0.2494
X0.8859 Y-0.2472
X0.8831 Y-0.2453
X0.88 Y-0.2439
G3 X0.8521 Y-0.2519 I-0.0083 J-0.0236
X0.8484 Y-0.2766 I0.0195 J-0.0156 F300.
G1 X0.9423 Y-0.5166
G3 X0.9707 Y-0.532 I0.0233 J0.0091
X0.9904 Y-0.5107 I-0.0051 J0.0245 F50.
G1 X0.9997 Y-0.4121
X1.0018 Y-0.3875
X1.0021 Y-0.3793
X1.0027 Y-0.3547
X1.0023 Y-0.3506
X1.0014 Y-0.3464
X0.9975 Y-0.33
X0.9971 Y-0.3287
X0.9939 Y-0.3218
X0.9889 Y-0.3123
X0.9851 Y-0.3054
X0.9807 Y-0.3003
X0.9705 Y-0.289
X0.9673 Y-0.2861
X0.9642 Y-0.2839
X0.947 Y-0.2725
X0.9433 Y-0.2703
X0.9396 Y-0.2686
X0.8901 Y-0.2479
X0.882 Y-0.2447
X0.8656 Y-0.2382
X0.8574 Y-0.2352
X0.808 Y-0.2212
X0.7998 Y-0.2189
X0.7752 Y-0.2124
X0.7669 Y-0.211
X0.693 Y-0.1993
X0.6866 Y-0.1986
X0.6108 Y-0.1959
X0.6025 Y-0.1958
X0.5779 Y-0.1973
X0.5697 Y-0.1979
X0.5203 Y-0.2021
X0.5121 Y-0.2034
X0.4909 Y-0.2068
X0.4381 Y-0.2177
X0.4299 Y-0.2196
X0.4153 Y-0.2233
X0.4135 Y-0.2238
X0.3559 Y-0.2432
X0.3477 Y-0.246
X0.3395 Y-0.249
X0.3313 Y-0.2521
X0.2655 Y-0.2834
X0.2556 Y-0.289
X0.2408 Y-0.2975
X0.2326 Y-0.3024
X0.2244 Y-0.3076
X0.2209 Y-0.3101
X0.219 Y-0.3118
X0.2174 Y-0.3136
X0.2162 Y-0.3152
X0.2142 Y-0.3185
X0.2128 Y-0.3218
X0.2118 Y-0.3259
X0.2113 Y-0.33
X0.2003 Y-0.4368
X0.199 Y-0.4614
X0.1987 Y-0.4696
X0.1961 Y-0.601
X0.196 Y-0.6256
X0.1962 Y-0.6339
X0.2061 Y-0.7899
X0.2067 Y-0.7981
X0.2099 Y-0.8227
X0.2123 Y-0.8392
X0.2196 Y-0.8884
X0.2242 Y-0.9114
X0.2317 Y-0.9342
X0.2441 Y-0.9603
X0.2609 Y-0.9866
X0.2839 Y-1.0146
X0.3101 Y-1.0394
X0.3389 Y-1.0614
X0.3696 Y-1.0805
X0.402 Y-1.0967
X0.4356 Y-1.1101
X0.4701 Y-1.1209
X0.5054 Y-1.1289
X0.5412 Y-1.1342
X0.5773 Y-1.1369
X0.6135 Y-1.1371
X0.6496 Y-1.1345
X0.6854 Y-1.1294
X0.7208 Y-1.1218
X0.7555 Y-1.1118
X0.7895 Y-1.0992
X0.8225 Y-1.0844
X0.8544 Y-1.0673
X0.885 Y-1.048
X0.9141 Y-1.0266
X0.9419 Y-1.0033
X0.9681 Y-0.9785
X0.9929 Y-0.9521
X1.0161 Y-0.9243
X1.0233 Y-0.9146
X1.0268 Y-0.9082
X1.0283 Y-0.901
X1.0276 Y-0.8937
X1.0136 Y-0.8372
X1.0122 Y-0.8309
X1.0107 Y-0.8227
X1.0094 Y-0.8145
X0.9943 Y-0.6996
X0.9922 Y-0.6831
X0.9915 Y-0.6682
G3 X0.973 Y-0.646 I-0.0249 J-0.0019
X0.9595 Y-0.6462 I-0.0064 J-0.0242 F300.
G1 X0.2373 Y-0.8617
X0.2337 Y-0.8631
G3 X0.2196 Y-0.8884 I0.0108 J-0.0226 F50.
G1 X0.2305 Y-0.9623
X0.2352 Y-0.987
X0.2369 Y-0.9952
X0.2561 Y-1.0773
X0.2625 Y-1.0993
X0.2707 Y-1.1187
X0.2823 Y-1.1386
X0.2988 Y-1.1604
X0.3208 Y-1.1829
X0.3487 Y-1.2052
X0.3795 Y-1.2242
X0.4121 Y-1.2398
X0.446 Y-1.2524
X0.4808 Y-1.2623
X0.5163 Y-1.2694
X0.5522 Y-1.2741
X0.5883 Y-1.2764
X0.6245 Y-1.2765
X0.6606 Y-1.2744
X0.6965 Y-1.2701
X0.7321 Y-1.2637
X0.7673 Y-1.2554
X0.802 Y-1.2451
X0.8361 Y-1.2328
X0.8693 Y-1.2186
X0.9018 Y-1.2026
X0.9333 Y-1.1849
X0.9639 Y-1.1655
X0.9933 Y-1.1445
X1.0217 Y-1.122
X1.0488 Y-1.0981
X1.0701 Y-1.0775
X1.0745 Y-1.0718
X1.0771 Y-1.065
X1.0777 Y-1.0579
X1.0761 Y-1.0508
X1.0494 Y-0.9788
X1.0464 Y-0.9681
X1.0426 Y-0.9541
X1.0405 Y-0.9459
X1.0276 Y-0.8937
G3 X1.0049 Y-0.8756 I-0.024 J-0.0069
G1 X1.0013 F300.
X0.9977 Y-0.8762
X0.2749 Y-1.0481
X0.2714 Y-1.0492
X0.268 Y-1.0509
G3 X0.2561 Y-1.0773 I0.0126 J-0.0216 F50.
G1 X0.2677 Y-1.1266
X0.2697 Y-1.1348
X0.274 Y-1.1512
X0.2762 Y-1.1594
X0.3055 Y-1.2497
X0.3128 Y-1.2692
X0.3222 Y-1.2868
X0.3348 Y-1.305
X0.3523 Y-1.3244
X0.3751 Y-1.3442
X0.4039 Y-1.3635
X0.4362 Y-1.3799
X0.47 Y-1.3927
X0.5049 Y-1.4024
X0.5404 Y-1.4093
X0.5763 Y-1.4137
X0.6124 Y-1.4157
X0.6486 Y-1.4156
X0.6847 Y-1.4134
X0.7207 Y-1.4094
X0.7564 Y-1.4036
X0.7917 Y-1.3959
X0.8267 Y-1.3865
X0.8611 Y-1.3754
X0.895 Y-1.3628
X0.9283 Y-1.3486
X0.9609 Y-1.3329
X0.9928 Y-1.3157
X1.0238 Y-1.2971
X1.054 Y-1.2772
X1.0833 Y-1.256
X1.1117 Y-1.2335
X1.1308 Y-1.2156
X1.1357 Y-1.2093
X1.1384 Y-1.2017
X1.1385 Y-1.1937
X1.1361 Y-1.1861
X1.1122 Y-1.1388
X1.1021 Y-1.1184
X1.0983 Y-1.1101
X1.0952 Y-1.1019
X1.0921 Y-1.0937
X1.0761 Y-1.0508
G3 X1.0516 Y-1.0354 I-0.0231 J-0.0095
G1 X1.0492 Y-1.0356 F300.
X1.0469 Y-1.0361
X0.3234 Y-1.2186
X0.3205 Y-1.2196
X0.3177 Y-1.2208
X0.3151 Y-1.2224
G3 X0.3055 Y-1.2497 I0.0144 J-0.0205 F50.
G1 X0.3187 Y-1.2908
X0.3215 Y-1.299
X0.3271 Y-1.3154
X0.3299 Y-1.3236
X0.3677 Y-1.414
X0.3757 Y-1.4307
X0.3863 Y-1.4473
X0.4005 Y-1.4644
X0.4194 Y-1.4822
X0.444 Y-1.5002
X0.4745 Y-1.5172
X0.508 Y-1.5308
X0.5428 Y-1.5408
X0.5783 Y-1.5477
X0.6142 Y-1.5519
X0.6504 Y-1.5538
X0.6865 Y-1.5534
X0.7227 Y-1.5511
X0.7586 Y-1.5468
X0.7943 Y-1.5409
X0.8297 Y-1.5334
X0.8647 Y-1.5244
X0.8993 Y-1.5138
X0.9335 Y-1.5019
X0.9671 Y-1.4885
X1.0001 Y-1.4738
X1.0326 Y-1.4578
X1.0644 Y-1.4406
X1.0956 Y-1.4222
X1.126 Y-1.4026
X1.1555 Y-1.3817
X1.1837 Y-1.3589
X1.2034 Y-1.3391
X1.2083 Y-1.3321
X1.2106 Y-1.3239
X1.21 Y-1.3155
X1.2066 Y-1.3077
X1.1739 Y-1.258
X1.1688 Y-1.2497
X1.1643 Y-1.2415
X1.1517 Y-1.2169
X1.1361 Y-1.1861
G3 X1.11 Y-1.1735 I-0.0219 J-0.0121
G1 X1.1073 Y-1.1741 F300.
X0.3842 Y-1.3811
G3 X0.3751 Y-1.3859 I0.0069 J-0.024
X0.3677 Y-1.414 I0.016 J-0.0192 F50.
G1 X0.3888 Y-1.4645
X0.3919 Y-1.4715
X0.3994 Y-1.4879
X0.4036 Y-1.4961
X0.442 Y-1.57
X0.4517 Y-1.5866
X0.4637 Y-1.6023
X0.4794 Y-1.6184
X0.5 Y-1.6347
X0.5266 Y-1.651
X0.5594 Y-1.6659
X0.5939 Y-1.6766
X0.6294 Y-1.6839
X0.6653 Y-1.6881
X0.7015 Y-1.6897
X0.7377 Y-1.689
X0.7737 Y-1.6864
X0.8096 Y-1.6819
X0.8453 Y-1.6757
X0.8806 Y-1.668
X0.9157 Y-1.6588
X0.9503 Y-1.6483
X0.9845 Y-1.6365
X1.0182 Y-1.6234
X1.0515 Y-1.6092
X1.0842 Y-1.5937
X1.1164 Y-1.5772
X1.1479 Y-1.5595
X1.1788 Y-1.5407
X1.209 Y-1.5207
X1.2379 Y-1.499
X1.2652 Y-1.4751
X1.2855 Y-1.4525
X1.2882 Y-1.4485
X1.2917 Y-1.4412
X1.2927 Y-1.4331
X1.291 Y-1.4252
X1.2869 Y-1.4182
X1.2561 Y-1.3811
X1.2519 Y-1.3755
X1.2387 Y-1.3565
X1.2355 Y-1.3517
X1.2066 Y-1.3077
G3 X1.1792 Y-1.2981 I-0.0204 J-0.0144
G1 X1.1784 Y-1.2984 F300.
X0.4567 Y-1.5355
G3 X0.447 Y-1.5415 I0.0078 J-0.0238
X0.442 Y-1.57 I0.0175 J-0.0178 F50.
G1 X0.4718 Y-1.6275
X0.4765 Y-1.6357
X0.4875 Y-1.654
X0.4914 Y-1.6603
X0.5276 Y-1.7178
X0.5412 Y-1.7371
X0.5546 Y-1.752
X0.5719 Y-1.7669
X0.5942 Y-1.7818
X0.6227 Y-1.7961
X0.6568 Y-1.8083
X0.6921 Y-1.8163
X0.728 Y-1.8209
X0.7641 Y-1.8225
X0.8003 Y-1.8217
X0.8364 Y-1.8188
X0.8722 Y-1.814
X0.9078 Y-1.8075
X0.9431 Y-1.7994
X0.978 Y-1.79
X1.0126 Y-1.7792
X1.0467 Y-1.7673
X1.0804 Y-1.7541
X1.1137 Y-1.7399
X1.1465 Y-1.7246
X1.1788 Y-1.7083
X1.2105 Y-1.6909
X1.2416 Y-1.6723
X1.2718 Y-1.6525
X1.3011 Y-1.6313
X1.3291 Y-1.6084
X1.3551 Y-1.5832
X1.3737 Y-1.5603
X1.3803 Y-1.5497
X1.3835 Y-1.5418
X1.3839 Y-1.5334
X1.3814 Y-1.5253
X1.3764 Y-1.5184
X1.3616 Y-1.5043
X1.3506 Y-1.4934
X1.3451 Y-1.4879
X1.3381 Y-1.4797
X1.3312 Y-1.4715
X1.2869 Y-1.4182
G3 X1.2595 Y-1.4115 I-0.0187 J-0.0166
G1 X1.2587 Y-1.4118
X0.5404 Y-1.6818 F300.
G3 X0.5302 Y-1.6889 I0.0088 J-0.0234
X0.5276 Y-1.7178 I0.019 J-0.0163 F50.
G1 X0.5535 Y-1.7589
X0.5587 Y-1.7671
X0.5749 Y-1.7917
X0.5779 Y-1.796
X0.6303 Y-1.8656
X0.6437 Y-1.8816
X0.6586 Y-1.8956
X0.6776 Y-1.9094
X0.7015 Y-1.9226
X0.732 Y-1.9349
X0.767 Y-1.9442
X0.8028 Y-1.9495
X0.8389 Y-1.9514
X0.8751 Y-1.9506
X0.9111 Y-1.9474
X0.9469 Y-1.9422
X0.9825 Y-1.9353
X1.0176 Y-1.9268
X1.0525 Y-1.917
X1.0869 Y-1.9059
X1.1209 Y-1.8935
X1.1545 Y-1.8801
X1.1876 Y-1.8656
X1.2203 Y-1.8501
X1.2525 Y-1.8335
X1.2841 Y-1.8159
X1.3151 Y-1.7973
X1.3453 Y-1.7773
X1.3746 Y-1.756
X1.4027 Y-1.7333
X1.4293 Y-1.7088
X1.4538 Y-1.6822
X1.4714 Y-1.6581
X1.4811 Y-1.6405
X1.4836 Y-1.6339
X1.4841 Y-1.6268
X1.4827 Y-1.6199
X1.4793 Y-1.6136
X1.4744 Y-1.6086
X1.4657 Y-1.6019
X1.4575 Y-1.5955
X1.4474 Y-1.5864
X1.441 Y-1.5805
X1.3764 Y-1.5184
G3 X1.3496 Y-1.5142 I-0.0167 J-0.0186
G1 X1.3475 Y-1.5151
X0.6407 Y-1.8284 F300.
G3 X0.6306 Y-1.8366 I0.0101 J-0.0229
X0.6303 Y-1.8656 I0.0203 J-0.0147 F50.
G1 X0.6674 Y-1.9149
X0.6802 Y-1.9313
X0.6847 Y-1.9365
X0.7461 Y-2.0052
X0.76 Y-2.0194
X0.7763 Y-2.0322
X0.797 Y-2.0448
X0.8226 Y-2.0563
X0.855 Y-2.0663
X0.8906 Y-2.0726
X0.9267 Y-2.0751
X0.9629 Y-2.0745
X0.9989 Y-2.0712
X1.0347 Y-2.0656
X1.0701 Y-2.0582
X1.1051 Y-2.0492
X1.1398 Y-2.0388
X1.174 Y-2.0271
X1.2078 Y-2.0142
X1.2412 Y-2.0003
X1.2741 Y-1.9852
X1.3065 Y-1.9692
X1.3384 Y-1.9521
X1.3697 Y-1.9339
X1.4004 Y-1.9147
X1.4303 Y-1.8943
X1.4593 Y-1.8727
X1.4872 Y-1.8497
X1.5138 Y-1.8252
X1.5388 Y-1.799
X1.5616 Y-1.7709
X1.5785 Y-1.7447
X1.5901 Y-1.7207
X1.591 Y-1.7178
X1.5923 Y-1.7096
X1.5909 Y-1.7015
X1.5869 Y-1.6942
X1.5808 Y-1.6886
X1.5751 Y-1.685
X1.5637 Y-1.6768
X1.4744 Y-1.6086
G3 X1.4484 Y-1.6068 I-0.0145 J-0.0204
G1 X1.4452 Y-1.6084
X0.7538 Y-1.967 F300.
G3 X0.7439 Y-1.9763 I0.0115 J-0.0222
X0.7461 Y-2.0052 I0.0214 J-0.0129 F50.
G1 X0.7916 Y-2.0562
X0.8063 Y-2.0709
X0.8738 Y-2.1349
X0.8903 Y-2.1491
X0.9079 Y-2.1608
X0.9302 Y-2.1719
X0.9574 Y-2.1815
X0.9917 Y-2.189
X1.0277 Y-2.1924
X1.0639 Y-2.1921
X1.0999 Y-2.1888
X1.1356 Y-2.183
X1.1709 Y-2.1751
X1.2058 Y-2.1655
X1.2403 Y-2.1544
X1.2742 Y-2.142
X1.3077 Y-2.1283
X1.3408 Y-2.1135
X1.3733 Y-2.0977
X1.4053 Y-2.0808
X1.4367 Y-2.0629
X1.4676 Y-2.044
X1.4977 Y-2.0239
X1.527 Y-2.0027
X1.5555 Y-1.9804
X1.583 Y-1.9569
X1.6093 Y-1.932
X1.6341 Y-1.9057
X1.6571 Y-1.8778
X1.678 Y-1.8483
X1.6939 Y-1.8199
X1.7042 Y-1.7943
X1.7067 Y-1.7852
X1.7075 Y-1.7772
X1.7057 Y-1.7693
X1.7015 Y-1.7624
X1.6953 Y-1.7573
X1.663 Y-1.7379
X1.5972 Y-1.6985
X1.5808 Y-1.6886
G3 X1.5557 Y-1.689 I-0.0121 J-0.0219
G1 X1.5517 Y-1.6915
X0.8788 Y-2.096 F300.
G3 X0.8692 Y-2.1063 I0.0129 J-0.0214
X0.8738 Y-2.1349 I0.0224 J-0.0111 F50.
G1 X0.9188 Y-2.1777
X0.9231 Y-2.1816
X0.9478 Y-2.2017
X1.0136 Y-2.2544
X1.0345 Y-2.2695
X1.0532 Y-2.2798
X1.0771 Y-2.2894
X1.1058 Y-2.2969
X1.1417 Y-2.3017
X1.1779 Y-2.3021
X1.2139 Y-2.2989
X1.2496 Y-2.2929
X1.2848 Y-2.2846
X1.3195 Y-2.2744
X1.3537 Y-2.2625
X1.3873 Y-2.2492
X1.4204 Y-2.2346
X1.453 Y-2.2188
X1.485 Y-2.2019
X1.5164 Y-2.1839
X1.5472 Y-2.165
X1.5774 Y-2.145
X1.6068 Y-2.1239
X1.6354 Y-2.1018
X1.6632 Y-2.0786
X1.6899 Y-2.0542
X1.7156 Y-2.0287
X1.7399 Y-2.0019
X1.7626 Y-1.9738
X1.7835 Y-1.9442
X1.8021 Y-1.9132
X1.8166 Y-1.8823
X1.8254 Y-1.8554
X1.8284 Y-1.8401
X1.8287 Y-1.8318
X1.8261 Y-1.8238
X1.8212 Y-1.8172
X1.8143 Y-1.8125
X1.7123 Y-1.7661
X1.7041 Y-1.7619
X1.6958 Y-1.7576
X1.6953 Y-1.7573
G3 X1.669 Y-1.7587 I-0.012 J-0.0219
G1 X1.6664 Y-1.7605
X1.0156 Y-2.215 F300.
G3 X1.0066 Y-2.2263 I0.0143 J-0.0205
X1.0136 Y-2.2544 I0.0232 J-0.0092 F50.
G1 X1.0547 Y-2.2874
X1.0614 Y-2.2926
X1.0854 Y-2.3091
X1.1697 Y-2.3659
X1.1918 Y-2.3792
X1.2116 Y-2.388
X1.2366 Y-2.3956
X1.2669 Y-2.4009
X1.303 Y-2.4027
X1.3391 Y-2.4002
X1.3748 Y-2.3943
X1.4099 Y-2.3857
X1.4445 Y-2.3749
X1.4783 Y-2.3622
X1.5116 Y-2.3479
X1.5442 Y-2.3322
X1.5762 Y-2.3153
X1.6076 Y-2.2973
X1.6383 Y-2.2781
X1.6683 Y-2.2579
X1.6976 Y-2.2367
X1.7262 Y-2.2145
X1.754 Y-2.1914
X1.7808 Y-2.1671
X1.8067 Y-2.1418
X1.8314 Y-2.1154
X1.8549 Y-2.0879
X1.8771 Y-2.0593
X1.8976 Y-2.0295
X1.916 Y-1.9984
X1.9322 Y-1.966
X1.9454 Y-1.9323
X1.9525 Y-1.9042
X1.9552 Y-1.883
X1.9548 Y-1.8744
X1.9515 Y-1.8665
X1.9457 Y-1.8601
X1.9381 Y-1.8561
X1.852 Y-1.8281
X1.8438 Y-1.8252
X1.8192 Y-1.8147
X1.8143 Y-1.8125
X1.8112 Y-1.8115
X1.808 Y-1.8108
X1.8047 Y-1.8106
G3 X1.7888 Y-1.8163 I0. J-0.025
G1 X1.7858 Y-1.8188
X1.1686 Y-2.3263 F300.
G3 X1.1605 Y-2.3384 I0.0159 J-0.0193
X1.1697 Y-2.3659 I0.0239 J-0.0072 F50.
G1 X1.1862 Y-2.3769
X1.1944 Y-2.3824
X1.2217 Y-2.3994
X1.3392 Y-2.4651
X1.3615 Y-2.4761
X1.3822 Y-2.4834
X1.408 Y-2.4889
X1.4394 Y-2.4918
X1.4756 Y-2.4906
X1.5113 Y-2.4852
X1.5465 Y-2.4764
X1.5808 Y-2.4651
X1.6144 Y-2.4516
X1.6472 Y-2.4363
X1.6792 Y-2.4195
X1.7106 Y-2.4014
X1.7412 Y-2.3821
X1.771 Y-2.3617
X1.8001 Y-2.3402
X1.8285 Y-2.3177
X1.856 Y-2.2942
X1.8827 Y-2.2698
X1.9085 Y-2.2444
X1.9333 Y-2.2181
X1.957 Y-2.1907
X1.9794 Y-2.1623
X2.0006 Y-2.133
X2.0203 Y-2.1027
X2.0383 Y-2.0713
X2.0542 Y-2.0388
X2.0678 Y-2.0052
X2.0785 Y-1.9707
X2.084 Y-1.9414
X2.0856 Y-1.9144
X2.0854 Y-1.9105
X2.0836 Y-1.9026
X2.0793 Y-1.8956
X2.073 Y-1.8905
X2.0654 Y-1.8875
X2.0082 Y-1.8758
X1.9836 Y-1.8704
X1.9753 Y-1.8681
X1.9671 Y-1.8655
X1.9381 Y-1.8561
G3 X1.9138 Y-1.8622 I-0.0069 J-0.024
G1 X1.9104 Y-1.8655
X1.3347 Y-2.4258 F300.
G3 X1.3277 Y-2.4385 I0.0174 J-0.0179
X1.3392 Y-2.4651 I0.0244 J-0.0052 F50.
G1 X1.3588 Y-2.476
X1.367 Y-2.48
X1.3753 Y-2.4839
X1.3835 Y-2.4877
X1.4986 Y-2.54
X1.5232 Y-2.551
X1.5516 Y-2.5606
X1.5752 Y-2.5654
X1.6031 Y-2.5676
X1.6373 Y-2.566
X1.6729 Y-2.5599
X1.7078 Y-2.5502
X1.7417 Y-2.5375
X1.7746 Y-2.5225
X1.8066 Y-2.5056
X1.8377 Y-2.487
X1.8678 Y-2.4671
X1.8972 Y-2.446
X1.9257 Y-2.4237
X1.9535 Y-2.4005
X1.9803 Y-2.3762
X2.0063 Y-2.3511
X2.0314 Y-2.325
X2.0555 Y-2.298
X2.0785 Y-2.2701
X2.1005 Y-2.2413
X2.1212 Y-2.2117
X2.1407 Y-2.1812
X2.1586 Y-2.1497
X2.1748 Y-2.1174
X2.1893 Y-2.0843
X2.2017 Y-2.0502
X2.2113 Y-2.0154
X2.2177 Y-1.9803
X2.2194 Y-1.9518
X2.2179 Y-1.9299
X2.2165 Y-1.923
X2.2132 Y-1.9167
X2.2082 Y-1.9117
X2.2021 Y-1.9082
X2.1952 Y-1.9066
X2.148 Y-1.9024
X2.1398 Y-1.9015
X2.1151 Y-1.8977
X2.0654 Y-1.8875
G3 X2.0423 Y-1.896 I-0.0042 J-0.0247
G1 X2.0389 Y-1.8999
X1.5152 Y-2.5123 F300.
G3 X1.5094 Y-2.5256 I0.019 J-0.0162
X1.5232 Y-2.551 I0.0248 J-0.003 F50.
G1 X1.5314 Y-2.5543
X1.663 Y-2.6013
X1.6876 Y-2.61
X1.6958 Y-2.6126
X1.7205 Y-2.6192
X1.7495 Y-2.6254
X1.774 Y-2.6275
X1.8032 Y-2.6264
X1.8385 Y-2.6208
X1.8732 Y-2.6107
X1.9068 Y-2.5972
X1.9392 Y-2.5811
X1.9704 Y-2.5628
X2.0005 Y-2.5427
X2.0296 Y-2.5212
X2.0577 Y-2.4984
X2.0848 Y-2.4745
X2.1111 Y-2.4496
X2.1364 Y-2.4237
X2.1608 Y-2.397
X2.1841 Y-2.3694
X2.2065 Y-2.3409
X2.2278 Y-2.3117
X2.2479 Y-2.2816
X2.2669 Y-2.2508
X2.2846 Y-2.2192
X2.3008 Y-2.1869
X2.3154 Y-2.1538
X2.3283 Y-2.12
X2.3393 Y-2.0855
X2.3479 Y-2.0504
X2.3537 Y-2.0147
X2.356 Y-1.9808
X2.3545 Y-1.9518
X2.3512 Y-1.9337
X2.349 Y-1.927
X2.345 Y-1.9211
X2.3396 Y-1.9167
X2.3331 Y-1.9139
X2.326 Y-1.9131
X2.3042 Y-1.9136
X2.2877 Y-1.9137
X2.2795
X2.2713 Y-1.9133
X2.2384 Y-1.9105
X2.1952 Y-1.9066
G3 X2.1734 Y-1.9172 I-0.0014 J-0.025
G1 X2.1702 Y-1.9218
X1.7073 Y-2.5809 F300.
G3 X1.7028 Y-2.5962 I0.0205 J-0.0144
X1.7205 Y-2.6192 I0.025 J0.001 F50.
G1 X1.852 Y-2.6542
X1.8603 Y-2.6563
X1.8849 Y-2.6609
X1.926 Y-2.6683
X1.9475 Y-2.6711
X1.9717 Y-2.6712
X2.0007 Y-2.6677
X2.0351 Y-2.6592
X2.0689 Y-2.6462
X2.1012 Y-2.6299
X2.132 Y-2.611
X2.1615 Y-2.5901
X2.1898 Y-2.5675
X2.2168 Y-2.5435
X2.2428 Y-2.5183
X2.2678 Y-2.4921
X2.2917 Y-2.4649
X2.3146 Y-2.4369
X2.3364 Y-2.408
X2.3572 Y-2.3784
X2.3769 Y-2.3481
X2.3955 Y-2.317
X2.4129 Y-2.2853
X2.429 Y-2.2529
X2.4437 Y-2.2199
X2.4569 Y-2.1862
X2.4686 Y-2.1519
X2.4785 Y-2.1171
X2.4863 Y-2.0818
X2.4917 Y-2.046
X2.4945 Y-2.0099
X2.494 Y-1.9746
X2.4899 Y-1.9455
X2.4846 Y-1.9253
X2.4817 Y-1.9187
X2.4771 Y-1.9131
X2.4711 Y-1.9091
X2.4642 Y-1.907
X2.457
X2.4439 Y-1.9088
X2.4357 Y-1.9098
X2.411 Y-1.9111
X2.326 Y-1.9131
G3 X2.3057 Y-1.9258 I0.0015 J-0.025
G1 X2.3028 Y-1.9309
X1.9095 Y-2.6316 F300.
G3 X1.9065 Y-2.6469 I0.0218 J-0.0122
X1.926 Y-2.6683 I0.0248 J0.003 F50.
G1 X2.0247 Y-2.686
X2.0493 Y-2.6891
X2.0575 Y-2.69
X2.1233 Y-2.6962
X2.1504 Y-2.6974
X2.1741 Y-2.6956
X2.2023 Y-2.6898
X2.2353 Y-2.6786
X2.2679 Y-2.6629
X2.2987 Y-2.644
X2.3278 Y-2.6225
X2.3553 Y-2.599
X2.3814 Y-2.574
X2.4063 Y-2.5476
X2.4299 Y-2.5202
X2.4523 Y-2.4918
X2.4737 Y-2.4626
X2.4939 Y-2.4327
X2.5131 Y-2.4019
X2.5311 Y-2.3706
X2.5479 Y-2.3385
X2.5636 Y-2.3059
X2.578 Y-2.2727
X2.5911 Y-2.239
X2.6028 Y-2.2048
X2.6129 Y-2.17
X2.6213 Y-2.1349
X2.6281 Y-2.0993
X2.6327 Y-2.0634
X2.6349 Y-2.0273
X2.6345 Y-1.9911
X2.631 Y-1.9551
X2.6244 Y-1.9261
X2.6157 Y-1.9018
X2.6153 Y-1.9009
X2.6104 Y-1.8943
X2.6037 Y-1.8896
X2.5958 Y-1.8873
X2.5876 Y-1.8878
X2.5754 Y-1.8905
X2.5672 Y-1.8919
X2.457 Y-1.907
G3 X2.4385 Y-1.9213 I0.0042 J-0.0246
G1 X2.4358 Y-1.9273
X2.1037 Y-2.6611 F300.
G3 X2.102 Y-2.6765 I0.0228 J-0.0103
X2.1233 Y-2.6962 I0.0245 J0.0051 F50.
G1 X2.1891 Y-2.7024
X2.1992 Y-2.7032
X2.2137 Y-2.7043
X2.222 Y-2.7047
X2.3288 Y-2.7059
X2.3549 Y-2.7049
X2.378 Y-2.7011
X2.4051 Y-2.6931
X2.4365 Y-2.6795
X2.4677 Y-2.6612
X2.4968 Y-2.6397
X2.5239 Y-2.6157
X2.5493 Y-2.5899
X2.5731 Y-2.5627
X2.5954 Y-2.5342
X2.6165 Y-2.5048
X2.6363 Y-2.4745
X2.6549 Y-2.4435
X2.6723 Y-2.4118
X2.6886 Y-2.3794
X2.7036 Y-2.3465
X2.7175 Y-2.3131
X2.7301 Y-2.2792
X2.7414 Y-2.2448
X2.7514 Y-2.2101
X2.7599 Y-2.1749
X2.7669 Y-2.1394
X2.7721 Y-2.1036
X2.7756 Y-2.0676
X2.777 Y-2.0314
X2.7761 Y-1.9952
X2.7725 Y-1.9592
X2.7661 Y-1.9236
X2.7573 Y-1.895
X2.7463 Y-1.8705
X2.7438 Y-1.8664
X2.7385 Y-1.8602
X2.7315 Y-1.856
X2.7235 Y-1.8544
X2.7154 Y-1.8553
X2.707 Y-1.8578
X2.6001 Y-1.8849
X2.5895 Y-1.8873
X2.5876 Y-1.8878
G3 X2.5702 Y-1.9039 I0.0063 J-0.0242
G1 X2.5682 Y-1.9098
X2.3063 Y-2.6728 F300.
G3 X2.306 Y-2.688 I0.0236 J-0.0081
X2.3288 Y-2.7059 I0.024 J0.0071 F50.
G1 X2.3781 Y-2.7064
X2.3864 Y-2.7065
X2.411 Y-2.7049
X2.4357 Y-2.7032
X2.5343 Y-2.696
X2.5594 Y-2.693
X2.5818 Y-2.6873
X2.6077 Y-2.6773
X2.6373 Y-2.6615
X2.6668 Y-2.6406
X2.694 Y-2.6167
X2.7189 Y-2.5905
X2.7419 Y-2.5625
X2.7632 Y-2.5332
X2.7829 Y-2.5029
X2.8012 Y-2.4717
X2.8181 Y-2.4397
X2.8338 Y-2.4071
X2.8483 Y-2.374
X2.8615 Y-2.3403
X2.8735 Y-2.3061
X2.8842 Y-2.2716
X2.8937 Y-2.2367
X2.9018 Y-2.2014
X2.9086 Y-2.1659
X2.9139 Y-2.1301
X2.9175 Y-2.0941
X2.9195 Y-2.0579
X2.9197 Y-2.0218
X2.918 Y-1.9856
X2.9139 Y-1.9497
X2.9073 Y-1.9141
X2.8979 Y-1.8792
X2.8864 Y-1.8503
X2.8733 Y-1.8263
X2.868 Y-1.819
X2.8622 Y-1.8132
X2.8549 Y-1.8096
X2.8467 Y-1.8086
X2.8387 Y-1.8102
X2.7356 Y-1.8492
X2.7316 Y-1.8506
X2.7154 Y-1.8553
G3 X2.6989 Y-1.8732 I0.0078 J-0.0237
G1 X2.6977 Y-1.8786
X2.5091 Y-2.6652 F300.
G3 X2.5101 Y-2.6801 I0.0243 J-0.0058
X2.5343 Y-2.696 I0.0233 J0.0091 F50.
G1 X2.5508 Y-2.6948
X2.5754 Y-2.692
X2.5837 Y-2.6909
X2.7152 Y-2.6703
X2.7234 Y-2.6689
X2.7398 Y-2.6661
X2.7683 Y-2.6591
X2.791 Y-2.6505
X2.816 Y-2.6373
X2.8443 Y-2.6175
X2.8712 Y-2.5933
X2.8954 Y-2.5665
X2.9174 Y-2.5377
X2.9373 Y-2.5075
X2.9553 Y-2.4761
X2.9717 Y-2.4439
X2.9866 Y-2.4109
X3.0002 Y-2.3774
X3.0124 Y-2.3433
X3.0234 Y-2.3088
X3.0331 Y-2.274
X3.0416 Y-2.2388
X3.0487 Y-2.2033
X3.0545 Y-2.1676
X3.0589 Y-2.1317
X3.0619 Y-2.0957
X3.0635 Y-2.0595
X3.0634 Y-2.0233
X3.0616 Y-1.9872
X3.0579 Y-1.9512
X3.0524 Y-1.9154
X3.0445 Y-1.8801
X3.034 Y-1.8455
X3.0207 Y-1.8119
X3.0065 Y-1.7854
X2.9906 Y-1.7631
X2.9866 Y-1.7587
X2.9803 Y-1.7537
X2.9726 Y-1.751
X2.9645 Y-1.7508
X2.9568 Y-1.7533
X2.896 Y-1.7845
X2.8714 Y-1.797
X2.865 Y-1.7999
X2.8412 Y-1.8093
X2.8387 Y-1.8102
G3 X2.8238 Y-1.8298 I0.0098 J-0.023
G1 X2.8231 Y-1.8349
X2.7116 Y-2.6379 F300.
G3 X2.7141 Y-2.6527 I0.0248 J-0.0034
X2.7398 Y-2.6661 I0.0223 J0.0114 F50.
G1 X2.7481 Y-2.6645
X2.9042 Y-2.6265
X2.9125 Y-2.6245
X2.9536 Y-2.6108
X2.9764 Y-2.6019
X2.9988 Y-2.5898
X3.023 Y-2.5727
X3.0497 Y-2.5482
X3.0732 Y-2.5207
X3.0939 Y-2.491
X3.1122 Y-2.4598
X3.1284 Y-2.4275
X3.1428 Y-2.3943
X3.1555 Y-2.3604
X3.1667 Y-2.326
X3.1764 Y-2.2912
X3.1848 Y-2.256
X3.1874 Y-2.2434
X3.1878 Y-2.2397
X3.1877 Y-2.236
X3.1871 Y-2.2323
X3.1815 Y-2.2105
X3.1753 Y-2.1859
X3.1734 Y-2.1777
X3.1697 Y-2.1612
X3.1686 Y-2.153
X3.1672 Y-2.1366
X3.1667 Y-2.1284
X3.165 Y-2.0873
X3.1647 Y-2.0791
X3.1654 Y-2.0627
X3.1659 Y-2.0545
X3.1711 Y-2.0216
X3.1755 Y-1.9938
X3.1797 Y-1.9579
X3.1816 Y-1.9217
X3.1798 Y-1.8856
X3.1747 Y-1.8498
X3.1663 Y-1.8146
X3.1548 Y-1.7803
X3.1402 Y-1.7472
X3.1245 Y-1.7206
X3.1081 Y-1.6994
X3.0986 Y-1.6898
X3.0916 Y-1.6848
X3.0834 Y-1.6825
X3.0748 Y-1.6831
X3.067 Y-1.6866
X3.0276 Y-1.7128
X3.0029 Y-1.729
X2.9947 Y-1.7336
X2.9779 Y-1.7424
X2.9568 Y-1.7533
G3 X2.9443 Y-1.7795 I0.0122 J-0.0218
X2.9499 Y-1.7914 I0.0246 J0.0043 F300.
G1 X3.132 Y-2.0051
G3 X3.1544 Y-2.0136 I0.019 J0.0162
X3.1755 Y-1.9938 I-0.0033 J0.0248 F50.
G1 X3.1764 Y-1.9888
X3.1781 Y-1.9806
X3.1805 Y-1.9724
X3.1861 Y-1.956
X3.189 Y-1.9477
X3.2014 Y-1.9149
X3.2045 Y-1.9067
X3.2078 Y-1.8985
X3.2212 Y-1.8738
X3.2316 Y-1.8574
X3.2408 Y-1.841
X3.2477 Y-1.8241
X3.253 Y-1.8047
X3.2562 Y-1.7824
X3.2567 Y-1.7578
X3.2538 Y-1.7304
X3.2475 Y-1.7031
X3.2383 Y-1.6779
X3.2269 Y-1.6557
X3.2142 Y-1.6371
X3.1997 Y-1.6205
X3.1954 Y-1.6167
X3.1895 Y-1.6128
X3.1827 Y-1.6107
X3.1756 Y-1.6106
X3.1687 Y-1.6125
X3.1627 Y-1.6162
X3.1396 Y-1.6357
X3.1344 Y-1.64
X3.1262 Y-1.6466
X3.1187 Y-1.6521
X3.1098 Y-1.6581
X3.067 Y-1.6866
G3 X3.0576 Y-1.714 I0.0146 J-0.0203
X3.0634 Y-1.7241 I0.024 J0.0071 F300.
G1 X3.1927 Y-1.8606
G3 X3.2044 Y-1.8675 I0.0181 J0.0172
X3.2316 Y-1.8574 I0.0065 J0.0241 F50.
G1 X3.2419 Y-1.841
X3.2524 Y-1.8246
X3.2577 Y-1.8171
X3.2648 Y-1.8081
X3.2742 Y-1.7982
X3.3039 Y-1.7671
X3.3107 Y-1.7594
X3.3188 Y-1.7475
X3.3256 Y-1.7343
X3.3316 Y-1.7178
X3.3357 Y-1.7002
X3.3379 Y-1.6795
X3.3375 Y-1.6579
X3.3342 Y-1.6345
X3.3282 Y-1.6126
X3.3199 Y-1.5922
X3.3099 Y-1.5743
X3.2979 Y-1.5581
X3.2848 Y-1.5442
X3.2814 Y-1.5414
X3.2749 Y-1.5376
X3.2677 Y-1.5358
X3.2602 Y-1.5362
X3.2532 Y-1.5389
X3.2473 Y-1.5434
X3.2455 Y-1.5454
X3.2413 Y-1.5494
X3.2248 Y-1.5638
X3.2177 Y-1.57
X3.1627 Y-1.6162
G3 X3.1564 Y-1.6445 I0.0167 J-0.0186
G1 X3.1577 Y-1.6472 F300.
X3.1593 Y-1.6496
X3.1612 Y-1.6519
X3.2684 Y-1.7661
X3.2705 Y-1.7681
X3.2728 Y-1.7699
X3.2753 Y-1.7713
G3 X3.3039 Y-1.7671 I0.0114 J0.0223 F50.
G1 X3.307 Y-1.7639
X3.329 Y-1.7424
X3.381 Y-1.6935
X3.392 Y-1.6821
X3.3998 Y-1.6717
X3.4073 Y-1.6586
X3.4134 Y-1.6441
X3.4182 Y-1.6268
X3.421 Y-1.6081
X3.4216 Y-1.5877
X3.4194 Y-1.5654
X3.4146 Y-1.5438
X3.4074 Y-1.5235
X3.3982 Y-1.5053
X3.3872 Y-1.4888
X3.3747 Y-1.4744
X3.3609 Y-1.4619
X3.3568 Y-1.459
X3.3505 Y-1.4558
X3.3435 Y-1.4545
X3.3365 Y-1.4552
X3.3299 Y-1.4579
X3.3243 Y-1.4623
X3.2473 Y-1.5434
G3 X3.2442 Y-1.5723 I0.0187 J-0.0166
G1 X3.2455 Y-1.5744 F300.
X3.2471 Y-1.5763
X3.3456 Y-1.691
X3.3476 Y-1.6931
X3.3498 Y-1.6949
X3.3522 Y-1.6964
G3 X3.381 Y-1.6935 I0.0124 J0.0217 F50.
G1 X3.4163 Y-1.6603
X3.4304 Y-1.6469
X3.4332 Y-1.6439
X3.4691 Y-1.6028
X3.4792 Y-1.5901
X3.4862 Y-1.5787
X3.4926 Y-1.5645
X3.4973 Y-1.5491
X3.5005 Y-1.5312
X3.5016 Y-1.5117
X3.5002 Y-1.4913
X3.4958 Y-1.4691
X3.489 Y-1.4482
X3.4798 Y-1.4287
X3.4691 Y-1.4117
X3.4564 Y-1.3962
X3.4428 Y-1.3832
X3.4276 Y-1.3719
X3.4248 Y-1.3703
X3.4181 Y-1.3677
X3.411 Y-1.3671
X3.404 Y-1.3686
X3.3976 Y-1.372
X3.3925 Y-1.377
X3.3523 Y-1.4304
X3.3481 Y-1.4358
X3.3389 Y-1.4468
X3.3312 Y-1.455
X3.3243 Y-1.4623
G3 X3.3213 Y-1.4911 I0.0187 J-0.0166
G1 X3.3232 Y-1.494 F300.
X3.3255 Y-1.4966
X3.4333 Y-1.6035
X3.4356 Y-1.6055
X3.4381 Y-1.6072
X3.4407 Y-1.6085
G3 X3.4691 Y-1.6028 I0.0102 J0.0228 F50.
G1 X3.5267 Y-1.5372
X3.529 Y-1.5342
X3.5388 Y-1.5207
X3.5506 Y-1.5043
X3.5593 Y-1.4908
X3.5652 Y-1.4785
X3.5703 Y-1.4636
X3.5736 Y-1.4476
X3.5751 Y-1.4291
X3.5742 Y-1.4096
X3.5708 Y-1.389
X3.5642 Y-1.3671
X3.5554 Y-1.3469
X3.5443 Y-1.3283
X3.532 Y-1.3124
X3.5179 Y-1.2982
X3.5031 Y-1.2866
X3.4869 Y-1.2768
X3.4865 Y-1.2766
X3.4795 Y-1.2747
X3.4723 Y-1.2748
X3.4654 Y-1.277
X3.4594 Y-1.2811
X3.4548 Y-1.2868
X3.4468 Y-1.3004
X3.4326 Y-1.3236
X3.4304 Y-1.3269
X3.3925 Y-1.377
G3 X3.3927 Y-1.406 I0.0205 J-0.0144
G1 X3.3947 Y-1.4085 F300.
X3.3971 Y-1.4106
X3.5148 Y-1.5083
X3.5173 Y-1.5101
X3.52 Y-1.5116
X3.5228 Y-1.5127
G3 X3.5506 Y-1.5043 I0.008 J0.0237 F50.
G1 X3.6096 Y-1.4222
X3.6112 Y-1.4198
X3.615 Y-1.414
X3.6194 Y-1.4069
X3.6249 Y-1.3976
X3.6312 Y-1.3853
X3.6361 Y-1.3721
X3.6397 Y-1.3566
X3.6415 Y-1.34
X3.6412 Y-1.3212
X3.6384 Y-1.3017
X3.6329 Y-1.2811
X3.6242 Y-1.2596
X3.6134 Y-1.2404
X3.6007 Y-1.2231
X3.587 Y-1.2086
X3.5717 Y-1.1959
X3.5559 Y-1.1858
X3.5439 Y-1.1801
X3.5365 Y-1.1779
X3.5287 Y-1.178
X3.5214 Y-1.1806
X3.5152 Y-1.1853
X3.5107 Y-1.1916
X3.5104 Y-1.1923
X3.5043 Y-1.2028
X3.4961 Y-1.2169
X3.4548 Y-1.2868
G3 X3.4583 Y-1.3155 I0.022 J-0.012
G1 X3.4604 Y-1.3176 F300.
X3.4628 Y-1.3195
X3.5897 Y-1.405
X3.5924 Y-1.4065
X3.5952 Y-1.4077
X3.5981 Y-1.4086
G3 X3.6249 Y-1.3976 I0.0056 J0.0244 F50.
G1 X3.6821 Y-1.299
X3.6852 Y-1.2932
X3.6919 Y-1.2786
X3.6962 Y-1.2651
X3.699 Y-1.2504
X3.7 Y-1.2336
X3.6989 Y-1.2157
X3.6953 Y-1.1967
X3.6889 Y-1.1764
X3.6797 Y-1.1565
X3.6681 Y-1.1377
X3.6545 Y-1.1208
X3.6401 Y-1.1069
X3.6241 Y-1.0948
X3.6079 Y-1.0854
X3.5904 Y-1.078
X3.5858 Y-1.0767
X3.5788 Y-1.0758
X3.5718 Y-1.0769
X3.5653 Y-1.0799
X3.56 Y-1.0846
X3.5562 Y-1.0906
X3.5126 Y-1.1878
X3.5107 Y-1.1916
G3 X3.5164 Y-1.22 I0.0228 J-0.0102
G1 X3.5184 Y-1.2217 F300.
X3.5205 Y-1.2232
X3.6505 Y-1.3022
X3.6531 Y-1.3036
X3.656 Y-1.3047
X3.6589 Y-1.3054
G3 X3.6852 Y-1.2932 I0.0046 J0.0246 F50.
G1 X3.6934 Y-1.2775
X3.695 Y-1.2744
X3.7401 Y-1.1758
X3.744 Y-1.1661
X3.7474 Y-1.1533
X3.7494 Y-1.1384
X3.7495 Y-1.1226
X3.7475 Y-1.1048
X3.7432 Y-1.0867
X3.7359 Y-1.0673
X3.7257 Y-1.0478
X3.7129 Y-1.0293
X3.6983 Y-1.0131
X3.6826 Y-0.9993
X3.666 Y-0.9881
X3.6487 Y-0.9792
X3.631 Y-0.9728
X3.6229 Y-0.9709
X3.6155 Y-0.9704
X3.6083 Y-0.972
X3.6018 Y-0.9757
X3.5967 Y-0.9811
X3.5935 Y-0.9877
X3.5806 Y-1.028
X3.5779 Y-1.0362
X3.5724 Y-1.0527
X3.5701 Y-1.0593
X3.5658 Y-1.0691
X3.5562 Y-1.0906
G3 X3.5628 Y-1.1188 I0.0232 J-0.0094
G1 X3.5657 Y-1.1209 F300.
X3.5688 Y-1.1226
X3.7072 Y-1.1873
X3.7108 Y-1.1886
X3.7145 Y-1.1894
G3 X3.7401 Y-1.1758 I0.0033 J0.0248 F50.
G1 X3.7477 Y-1.1594
X3.7509 Y-1.1517
X3.757 Y-1.1348
X3.7599 Y-1.1266
X3.7827 Y-1.0609
X3.7872 Y-1.0451
X3.7894 Y-1.032
X3.7899 Y-1.0169
X3.7885 Y-1.0008
X3.7848 Y-0.9835
X3.7785 Y-0.9652
X3.7696 Y-0.947
X3.7574 Y-0.9283
X3.7429 Y-0.9113
X3.7268 Y-0.8964
X3.7102 Y-0.8845
X3.6925 Y-0.8748
X3.6747 Y-0.8678
X3.6564 Y-0.8631
X3.6512 Y-0.8624
X3.6437 Y-0.8626
X3.6366 Y-0.865
X3.6305 Y-0.8694
X3.626 Y-0.8753
X3.6234 Y-0.8824
X3.6206 Y-0.8966
X3.6194 Y-0.9017
X3.6145 Y-0.9213
X3.612 Y-0.9295
X3.5935 Y-0.9877
G3 X3.6033 Y-1.015 I0.0241 J-0.0068
G1 X3.6056 Y-1.0165 F300.
X3.6082 Y-1.0176
X3.7499 Y-1.075
X3.7527 Y-1.076
X3.7556 Y-1.0766
X3.7585 Y-1.0769
G3 X3.7827 Y-1.0609 I0.0009 J0.025 F50.
G1 X3.794 Y-1.028
X3.7968 Y-1.0198
X3.8036 Y-0.9952
X3.8057 Y-0.987
X3.8176 Y-0.9377
X3.8206 Y-0.9215
X3.8215 Y-0.9081
X3.8206 Y-0.8927
X3.8176 Y-0.8768
X3.8122 Y-0.8596
X3.8041 Y-0.8419
X3.7933 Y-0.8245
X3.7792 Y-0.8069
X3.7634 Y-0.7915
X3.7462 Y-0.7784
X3.7287 Y-0.7683
X3.7103 Y-0.7605
X3.6921 Y-0.7553
X3.6736 Y-0.7524
X3.6704 Y-0.7523
X3.6634 Y-0.753
X3.6568 Y-0.7557
X3.6513 Y-0.7602
X3.6473 Y-0.766
X3.645 Y-0.7727
X3.6418 Y-0.7899
X3.6234 Y-0.8824
G3 X3.6362 Y-0.9084 I0.0247 J-0.004
G1 X3.6385 Y-0.9094 F300.
X3.6408 Y-0.9103
X3.7862 Y-0.9549
X3.7891 Y-0.9556
X3.792 Y-0.9559
X3.795
G3 X3.8176 Y-0.9377 I-0.0016 J0.025 F50.
G1 X3.8334 Y-0.872
X3.8362 Y-0.8556
X3.8374 Y-0.8474
X3.8432 Y-0.8063
X3.8441 Y-0.7957
X3.8437 Y-0.7822
X3.8413 Y-0.7667
X3.8368 Y-0.7511
X3.8296 Y-0.7342
X3.8198 Y-0.7173
X3.8073 Y-0.7008
X3.7914 Y-0.6846
X3.7743 Y-0.6709
X3.756 Y-0.6596
X3.7379 Y-0.6513
X3.7189 Y-0.6453
X3.7005 Y-0.642
X3.6817 Y-0.6409
X3.6785 Y-0.6411
X3.6716 Y-0.6425
X3.6653 Y-0.6459
X3.6603 Y-0.6508
X3.6568 Y-0.657
X3.6552 Y-0.6639
X3.6475 Y-0.7554
X3.6474 Y-0.757
X3.6464 Y-0.7652
X3.645 Y-0.7727
G3 X3.6581 Y-0.7985 I0.0247 J-0.0037
G1 X3.6617 Y-0.8001 F300.
X3.6655 Y-0.801
X3.8143 Y-0.8266
X3.8171 Y-0.8269
X3.8198
X3.8225 Y-0.8266
G3 X3.8432 Y-0.8063 I-0.004 J0.0247 F50.
G1 X3.8513 Y-0.7488
X3.8524 Y-0.7406
X3.8554 Y-0.716
X3.8559 Y-0.7078
X3.857 Y-0.6831
X3.8569 Y-0.6683
X3.8551 Y-0.6547
X3.8512 Y-0.6395
X3.8452 Y-0.6242
X3.8363 Y-0.6079
X3.8249 Y-0.5921
X3.8107 Y-0.5768
X3.7933 Y-0.562
X3.7748 Y-0.5499
X3.7554 Y-0.5404
X3.7364 Y-0.5339
X3.7168 Y-0.5297
X3.6981 Y-0.5281
X3.6792 Y-0.5288
X3.6785 Y-0.529
X3.6717 Y-0.5311
X3.6657 Y-0.5351
X3.6611 Y-0.5406
X3.6583 Y-0.5472
X3.6575 Y-0.5544
X3.6589 Y-0.601
X3.6587 Y-0.6092
X3.6582 Y-0.6256
X3.6577 Y-0.6339
X3.6552 Y-0.6639
G3 X3.6708 Y-0.6883 I0.025 J-0.0012
G1 X3.6741 Y-0.6894 F300.
X3.6776 Y-0.69
X3.8294 Y-0.706
X3.8324 Y-0.7062
X3.8354 Y-0.7059
X3.8384 Y-0.7054
G3 X3.857 Y-0.6831 I-0.0063 J0.0242 F50.
G1 X3.8616 Y-0.5764
X3.8615 Y-0.5682
X3.8612 Y-0.56
X3.8592 Y-0.5405
X3.8561 Y-0.5269
X3.8506 Y-0.5119
X3.843 Y-0.4971
X3.8324 Y-0.4814
X3.8195 Y-0.4667
X3.8036 Y-0.4525
X3.7845 Y-0.4393
X3.765 Y-0.4291
X3.7449 Y-0.4216
X3.7254 Y-0.4169
X3.7056 Y-0.4147
X3.6869 Y-0.4149
X3.6734 Y-0.4167
X3.6659 Y-0.4189
X3.6595 Y-0.4234
X3.6547 Y-0.4296
X3.6522 Y-0.437
X3.652 Y-0.4449
X3.6541 Y-0.4614
X3.655 Y-0.4696
X3.6558 Y-0.4943
X3.6575 Y-0.5544
G3 X3.6758 Y-0.5769 I0.0249 J0.0016
G1 X3.6785 Y-0.5775 F300.
X3.6813 Y-0.5777
X3.8351 Y-0.5848
X3.8382 Y-0.5847
X3.8413 Y-0.5843
X3.8443 Y-0.5835
G3 X3.8612 Y-0.56 I-0.008 J0.0237 F50.
G1 X3.8547 Y-0.4368
X3.8517 Y-0.4176
X3.8478 Y-0.4039
X3.842 Y-0.3901
X3.8336 Y-0.3755
X3.8227 Y-0.361
X3.8092 Y-0.3471
X3.7926 Y-0.3337
X3.7738 Y-0.3221
X3.7537 Y-0.3128
X3.733 Y-0.3062
X3.7133 Y-0.3025
X3.6932 Y-0.3012
X3.6745 Y-0.3024
X3.6559 Y-0.3059
X3.6535 Y-0.3066
X3.6472 Y-0.3096
X3.642 Y-0.3142
X3.6383 Y-0.3201
X3.6363 Y-0.3268
X3.6362 Y-0.3337
X3.6368 Y-0.3382
X3.6509 Y-0.4368
X3.652 Y-0.4449
G3 X3.6726 Y-0.4653 I0.0246 J0.0042
G1 X3.6749 Y-0.4655 F300.
X3.6772 Y-0.4656
X3.8302 Y-0.4623
X3.833 Y-0.462
X3.8357 Y-0.4615
X3.8383 Y-0.4607
G3 X3.8547 Y-0.4368 I-0.0087 J0.0235 F50.
G1 X3.8521 Y-0.4121
X3.8511 Y-0.4039
X3.8362 Y-0.3054
X3.8342 Y-0.2955
X3.8299 Y-0.2828
X3.8235 Y-0.2693
X3.8148 Y-0.2558
X3.8034 Y-0.242
X3.7898 Y-0.2292
X3.773 Y-0.2169
X3.7538 Y-0.2062
X3.7329 Y-0.1977
X3.7324 Y-0.1976
X3.7291 Y-0.197
X3.7256 Y-0.1968
X3.7222 Y-0.197
G3 X3.7021 Y-0.2179 I0.0046 J-0.0246
X3.7089 Y-0.2391 I0.0247 J-0.0037 F300.
G1 X3.7935 Y-0.3257
G3 X3.8222 Y-0.3308 I0.0179 J0.0175
X3.8362 Y-0.3054 I-0.0108 J0.0225 F50.
G1 X3.8337 Y-0.289
X3.8332 Y-0.286
X3.8294 Y-0.2725
X3.827 Y-0.2643
X3.8242 Y-0.2561
X3.8224 Y-0.252
X3.8199 Y-0.2479
X3.8121 Y-0.2356
X3.8107 Y-0.2335
X3.8089 Y-0.2315
X3.8003 Y-0.2231
X3.792 Y-0.2157
X3.791 Y-0.2151
X3.7756 Y-0.2061
X3.7715 Y-0.204
X3.7674 Y-0.2027
X3.7535 Y-0.1986
X3.7509 Y-0.1979
X3.7468 Y-0.1973
X3.7345 Y-0.1967
X3.7263 Y-0.1964
X3.7181 Y-0.1977
X3.7098 Y-0.1993
X3.7016 Y-0.2011
X3.6934 Y-0.2048
X3.6852 Y-0.2086
X3.6811 Y-0.2106
X3.677 Y-0.2133
X3.6647 Y-0.2233
X3.6605 Y-0.227
X3.6569 Y-0.2315
X3.6476 Y-0.2438
X3.6463 Y-0.2459
X3.6452 Y-0.2479
X3.6381 Y-0.2643
X3.6367 Y-0.2682
X3.6358 Y-0.2725
X3.6331 Y-0.289
X3.6327 Y-0.2931
X3.633 Y-0.2972
X3.6336 Y-0.3054
X3.6359 Y-0.3308
X3.6362 Y-0.3337
X3.6523 Y-0.3582
X3.6534 Y-0.3595
X3.7345 Y-0.4562 F300.
X3.7383 Y-0.5353
X3.737 Y-0.6667
X3.7248 Y-0.7899
X3.6898 Y-0.9541
X3.6404 Y-1.1019
X3.5701 Y-1.2516
X3.4844 Y-1.3893
X3.396 Y-1.5043
X3.2824 Y-1.6219
X3.1507 Y-1.7424
X3.0964 Y-1.8328
X3.0795 Y-1.8738
X2.877 Y-2.5308
G3 X2.9042 Y-2.6047 I0.0589 J-0.0203
X2.923 Y-2.612 I0.0317 J0.0536
X2.9536 Y-2.6108 I0.013 J0.0609 F50.
G1 X3.0769 Y-2.5697
X3.0851 Y-2.5665
X3.1493 Y-2.539
X3.1697 Y-2.529
X3.1901 Y-2.5157
X3.2125 Y-2.4968
X3.2368 Y-2.4706
X3.2579 Y-2.4412
X3.271 Y-2.4185
X3.2735 Y-2.4124
X3.2743 Y-2.4057
X3.2733 Y-2.3991
X3.2707 Y-2.393
G3 X3.2436 Y-2.3825 I-0.0209 J-0.0137
X3.2321 Y-2.3891 I0.0061 J-0.0242 F300.
G1 X3.1227 Y-2.498
G3 X3.1212 Y-2.5319 I0.0176 J-0.0177
X3.1493 Y-2.539 I0.0191 J0.0162 F50.
G1 X3.2166 Y-2.5102
X3.2446 Y-2.4979
X3.2824 Y-2.4779
X3.2906 Y-2.4734
X3.2933 Y-2.4715
X3.2957 Y-2.4692
X3.2974 Y-2.4671
X3.2988 Y-2.4651
X3.2999 Y-2.463
X3.3008 Y-2.461
X3.302 Y-2.4569
X3.3024 Y-2.4528
X3.3021 Y-2.4487
X3.3012 Y-2.4446
X3.3005 Y-2.4425
X3.2995 Y-2.4404
X3.2988 Y-2.4393
X3.2331 Y-2.3313
X3.2295 Y-2.3255
X3.2248 Y-2.317
X3.2209 Y-2.3091
X3.2002 Y-2.2657
X3.1975 Y-2.2598
X3.1909 Y-2.2434
X3.1878 Y-2.2352
X3.1871 Y-2.2323
G3 X3.1643 Y-2.2144 I-0.024 J-0.007
G1 X3.1604 Y-2.2142 Z0.4896
X3.1566 Y-2.214 Z0.4906
X3.153 Y-2.2138 Z0.4921
X3.1496 Y-2.2137 Z0.4941
X3.1466 Y-2.2135 Z0.4967
X3.1441 Y-2.2134 Z0.4996
X3.142 Y-2.2133 Z0.503
X3.1405 Y-2.2132 Z0.5066
X3.1396 Z0.5104
X3.1393 Z0.5143
G0 Z1.0993
(2D CONTOUR4)
G64 P0.0004 Q0.0004
G0 X4.18 Y-0.8322
Z1.0993
Z0.6993
G1 Z0.5387 F80.
Z0.2781
X4.1797 Y-0.8321 Z0.2742 F50.
X4.1788 Y-0.832 Z0.2704
X4.1773 Y-0.8318 Z0.2668
X4.1753 Y-0.8315 Z0.2634
X4.1727 Y-0.8311 Z0.2604
X4.1698 Y-0.8306 Z0.2579
X4.1665 Y-0.8302 Z0.2558
X4.1629 Y-0.8296 Z0.2543
X4.1591 Y-0.829 Z0.2534
X4.1553 Y-0.8285 Z0.2531
X4.1305 Y-0.8248
G3 X4.1021 Y-0.8458 I-0.0037 J-0.0247
G2 X3.4907 Y-1.9471 I-1.7783 J0.2669
G3 X3.4517 Y-2.1904 I0.1233 J-0.1445
G1 X3.5874 Y-2.4133
G2 X3.5301 Y-2.6407 I-0.1404 J-0.0855
X-0.0401 Y-0.2352 I-1.2063 J2.0618
X0.0265 Y-0.1255 I0.1627 J-0.0236
X1.0622 Y-0.0383 I0.5906 J-0.8204
X1.2602 Y-0.417 I-0.1591 J-0.3243
G3 X3.3873 Y-0.7408 I1.0635 J-0.1619
X3.3785 Y-0.3673 I-1.0635 J0.1619
G2 X3.6617 Y0.058 I0.3542 J0.0711
X4.0869 Y-0.2252 I0.0711 J-0.3542
X3.4907 Y-1.9471 I-1.7631 J-0.3537
G3 X3.4517 Y-2.1904 I0.1233 J-0.1445
G1 X3.5874 Y-2.4133
G2 X3.5301 Y-2.6407 I-0.1404 J-0.0855
X-0.0401 Y-0.2352 I-1.2063 J2.0618
X0.0265 Y-0.1255 I0.1627 J-0.0236
X1.0622 Y-0.0383 I0.5906 J-0.8204
X1.2602 Y-0.417 I-0.1591 J-0.3243
G3 X3.3873 Y-0.7408 I1.0635 J-0.1619
X3.3785 Y-0.3673 I-1.0635 J0.1619
G2 X3.6617 Y0.058 I0.3542 J0.0711
X4.0869 Y-0.2252 I0.0711 J-0.3542
X4.1021 Y-0.8458 I-1.7631 J-0.3537
G3 X4.1231 Y-0.8742 I0.0247 J-0.0037
G1 X4.1478 Y-0.8779
X4.1517 Y-0.8785 Z0.2534
X4.1555 Y-0.8791 Z0.2543
X4.1591 Y-0.8796 Z0.2558
X4.1624 Y-0.8801 Z0.2579
X4.1653 Y-0.8805 Z0.2604
X4.1678 Y-0.8809 Z0.2634
X4.1699 Y-0.8812 Z0.2668
X4.1714 Y-0.8814 Z0.2704
X4.1723 Y-0.8816 Z0.2742
X4.1726 Z0.2781
G0 Z1.0993
M5
G53 G0 Z0.
(2D CHAMFER3)
M9
M1
T13 M6
T51
S7500 M3
G17 G90 G94
G54
M8
G0 X4.0739 Y-0.8415
G43 Z1.0993 H13
G0 Z0.6993
G1 Z0.5793 F80.
Z0.3693
G2 X3.4722 Y-1.9254 I-1.7501 J0.2627 F50.
G3 X3.4273 Y-2.2053 I0.1418 J-0.1662
G1 X3.5631 Y-2.4282
G2 X3.5157 Y-2.6161 I-0.116 J-0.0707
X-0.0119 Y-0.2393 I-1.1919 J2.0372
X0.0431 Y-0.1486 I0.1345 J-0.0195
X1.0497 Y-0.0639 I0.5739 J-0.7972
X1.2321 Y-0.4127 I-0.1465 J-0.2987
G3 X3.4155 Y-0.7451 I1.0917 J-0.1662
X3.4065 Y-0.3617 I-1.0917 J0.1662
G2 X3.6673 Y0.03 I0.3262 J0.0655
X4.0589 Y-0.2308 I0.0654 J-0.3262
X4.0739 Y-0.8415 I-1.7352 J-0.3481
G0 Z1.0993
(2D CHAMFER4)
G0 X2.3989 Y-2.0155
Z1.0993
Z0.6993
G1 Z0.5793 F80.
Z0.4193
G3 X2.316 I-0.0415 J0. F50.
X2.3989 I0.0415 J0.
G0 Z0.6993
X3.7681 Y-0.2747
G1 Z0.5793 F80.
Z0.4193
G3 X3.6973 Y-0.3178 I-0.0354 J-0.0216 F50.
X3.7681 Y-0.2747 I0.0354 J0.0216
G0 Z0.6993
X0.9446 Y-0.3626
G1 Z0.5793 F80.
Z0.4193
G3 X0.8617 I-0.0415 J0. F50.
X0.9446 I0.0415 J0.
G0 Z1.0993
M5
M9
G53 G0 Z0.
M30
%
