%
(TS101 OP2 - ON PLATE)
(MACHINE)
(  VENDOR CALLUM)
(  MODEL MILL R1)
(  DESCRIPTION 14X8X14 MILL)
(T13 D=0.375 CR=0. TAPER=45DEG - ZMIN=0.495 - CHAMFER MILL)
(T32 D=0.1875 CR=0. - ZMIN=-0.193 - FLAT END MILL)
G90 G94 G17 G91.1
G20
G53 G0 Z-0.6
(RADIAL2 22)
T32 M6
T13
S7500 M3
G17 G90 G94
G54
G64 P0.0004 Q0.0004
M8
G0 X0.4331 Y-2.2652
G43 Z1.3 H32
G0 Z0.631
G1 Z0.3228 F80.
Z0.3214 F60.
Y-2.2664 Z0.3058
Y-2.2701 Z0.2757
Y-2.2747 Z0.2489
Y-2.366 Z-0.1886
Y-2.3661 Z-0.193
X0.4295 Y-2.3664
Y-2.3663 Z-0.1886
X0.4168 Y-2.276 Z0.2488
X0.4162 Y-2.2714 Z0.2755
X0.4157 Y-2.2678 Z0.3055
X0.4155 Y-2.2665 Z0.3229
X0.3982 Y-2.2701 Z0.3234
X0.3986 Y-2.2715 Z0.3051
X0.3996 Y-2.275 Z0.2754
X0.4008 Y-2.2792 Z0.2499
X0.426 Y-2.3671 Z-0.1886
Y-2.3672 Z-0.193
X0.4227 Y-2.3685
Z-0.189
X0.3855 Y-2.2849 Z0.2497
X0.3837 Y-2.2807 Z0.2757
X0.3822 Y-2.2774 Z0.3057
X0.3816 Y-2.2762 Z0.3231
X0.366 Y-2.2845 Z0.3256
X0.3669 Y-2.2858 Z0.3051
X0.3688 Y-2.2889 Z0.2754
X0.3711 Y-2.2926 Z0.2499
X0.4196 Y-2.3702 Z-0.1889
Z-0.193
X0.4168 Y-2.3724
X0.4167 Y-2.3723 Z-0.1882
X0.358 Y-2.3022 Z0.2499
X0.3551 Y-2.2989 Z0.2759
X0.3529 Y-2.2962 Z0.3047
X0.3518 Y-2.2948 Z0.327
X0.3391 Y-2.3071 Z0.3278
X0.3403 Y-2.3082 Z0.3058
X0.343 Y-2.3107 Z0.2757
X0.3463 Y-2.3136 Z0.2504
X0.4143 Y-2.3748 Z-0.1883
X0.4144 Y-2.3749 Z-0.193
X0.4124 Y-2.3778
X0.4122 Y-2.3777 Z-0.1881
X0.3363 Y-2.3265 Z0.251
X0.3328 Y-2.3241 Z0.2762
X0.3299 Y-2.3221 Z0.305
X0.3282 Y-2.321 Z0.331
X0.3194 Y-2.3363 Z0.3351
X0.3213 Y-2.3372 Z0.3048
X0.3245 Y-2.3388 Z0.2761
X0.3285 Y-2.3407 Z0.25
X0.4107 Y-2.3808 Z-0.1882
X0.4108 Y-2.3809 Z-0.193
X0.4097 Y-2.3841
X0.4095 Z-0.188
X0.3224 Y-2.3558 Z0.251
X0.3195 Y-2.3548 Z0.2685
X0.317 Y-2.354 Z0.286
X0.3151 Y-2.3534 Z0.3036
X0.3136 Y-2.3529 Z0.3213
X0.3127 Y-2.3526 Z0.339
X0.3085 Y-2.3698 Z0.3476
X0.3089 Z0.335
X0.311 Y-2.3702 Z0.3057
X0.3145 Y-2.3708 Z0.2765
X0.3186 Y-2.3715 Z0.2516
X0.4089 Y-2.3875 Z-0.1884
X0.409 Z-0.193
X0.4089 Y-2.3909
X0.4088 Z-0.1884
X0.3171 Y-2.3877 Z0.2515
X0.314 Y-2.3876 Z0.269
X0.3115 Y-2.3875 Z0.2865
X0.3095 Y-2.3874 Z0.3042
X0.308 Z0.3219
X0.307 Y-2.3873 Z0.3397
X0.3066 Z0.3574
Z0.3577
Z0.5604
X0.3065 Y-2.3876 Z0.5628
X0.3061 Y-2.3884 Z0.5652
X0.3056 Y-2.3897 Z0.5672
X0.3048 Y-2.3913 Z0.5688
X0.3038 Y-2.3933 Z0.57
X0.3028 Y-2.3955 Z0.5706
X0.3018 Y-2.3977
X0.3007 Y-2.3999 Z0.57
X0.2998 Y-2.4019 Z0.5688
X0.299 Y-2.4036 Z0.5672
X0.2984 Y-2.4049 Z0.5652
X0.2981 Y-2.4057 Z0.5628
X0.2979 Y-2.4059 Z0.5604
X0.2982 Z0.5583
X0.2989 Y-2.4058 Z0.5563
X0.3 Y-2.4057 Z0.5545
X0.3015 Y-2.4056 Z0.553
X0.3032 Y-2.4054 Z0.5519
X0.3052 Y-2.4052 Z0.5512
X0.3073 Y-2.405 Z0.551
Y-2.4049
X0.3074 Z0.362
X0.308 Z0.335
X0.3101 Y-2.4047 Z0.3057
X0.3137 Y-2.4043 Z0.2757
X0.3179 Y-2.4038 Z0.2515
X0.4091 Y-2.3942 Z-0.1886
X0.4092 Z-0.193
X0.41 Y-2.3975
X0.4099 Z-0.1883
X0.3211 Y-2.4197 Z0.2501
X0.318 Y-2.4204 Z0.2686
X0.3154 Y-2.4211 Z0.2871
X0.3134 Y-2.4216 Z0.3058
X0.3119 Y-2.422 Z0.3245
X0.3109 Y-2.4222 Z0.3432
X0.3105 Y-2.4223 Z0.362
Z0.551
X0.3103
X0.3158 Y-2.4391
X0.3162 Y-2.4389
X0.3163 Z0.362
X0.3168 Y-2.4387 Z0.3347
X0.3188 Y-2.4379 Z0.3055
X0.3222 Y-2.4365 Z0.2755
X0.3261 Y-2.435 Z0.2514
X0.411 Y-2.4006 Z-0.1881
X0.4112 Z-0.193
X0.4128 Y-2.4035
X0.4127 Z-0.1886
X0.3333 Y-2.4493 Z0.2509
X0.3305 Y-2.4509 Z0.2693
X0.3282 Y-2.4523 Z0.2877
X0.3265 Y-2.4533 Z0.3062
X0.3252 Y-2.454 Z0.3248
X0.3244 Y-2.4545 Z0.3433
X0.3241 Y-2.4546 Z0.362
X0.324 Y-2.4547 Z0.551
X0.3235 Y-2.455
X0.3334 Y-2.4696
X0.334 Y-2.4692
Y-2.4691 Z0.362
X0.3346 Y-2.4687 Z0.3345
X0.3363 Y-2.4674 Z0.3054
X0.3391 Y-2.4652 Z0.2763
X0.3424 Y-2.4625 Z0.251
X0.4146 Y-2.4061 Z-0.1885
X0.4147 Z-0.193
X0.417 Y-2.4084
X0.4169 Y-2.4085 Z-0.1883
X0.3533 Y-2.4743 Z0.2506
X0.3511 Y-2.4767 Z0.269
X0.3492 Y-2.4786 Z0.2875
X0.3477 Y-2.4801 Z0.3061
X0.3467 Y-2.4812 Z0.3247
X0.3461 Y-2.4818 Z0.3433
X0.3459 Y-2.482 Z0.362
Z0.551
X0.3452 Y-2.4827
X0.3587 Y-2.4941
X0.3593 Y-2.4932
X0.3594 Z0.362
X0.3598 Y-2.4926 Z0.3361
X0.3611 Y-2.4909 Z0.3048
X0.3631 Y-2.488 Z0.276
X0.3658 Y-2.4843 Z0.2494
X0.4195 Y-2.4105 Z-0.1882
X0.4196 Y-2.4103 Z-0.193
X0.4223 Y-2.4119
X0.4222 Y-2.4121 Z-0.1881
X0.3794 Y-2.4927 Z0.25
X0.3778 Y-2.4956 Z0.2685
X0.3766 Y-2.498 Z0.2871
X0.3756 Y-2.4999 Z0.3057
X0.3748 Y-2.5012 Z0.3245
X0.3744 Y-2.502 Z0.3432
X0.3743 Y-2.5023 Z0.362
X0.3742 Y-2.5024 Z0.551
X0.3737 Y-2.5034
X0.3898 Y-2.5106
X0.3902 Y-2.5095
X0.3903 Y-2.5094 Z0.362
X0.3904 Y-2.5091 Z0.3432
X0.3907 Y-2.5082 Z0.3244
X0.3912 Y-2.5068 Z0.3056
X0.3919 Y-2.5048 Z0.2868
X0.3928 Y-2.5023 Z0.2682
X0.394 Y-2.4992 Z0.2496
X0.4252 Y-2.4133 Z-0.1881
X0.4253 Y-2.4132 Z-0.193
X0.4283 Y-2.414
Y-2.4142 Z-0.1881
X0.4093 Y-2.5034 Z0.2494
X0.4087 Y-2.5066 Z0.268
X0.4081 Y-2.5093 Z0.2867
X0.4076 Y-2.5114 Z0.3055
X0.4073 Y-2.5129 Z0.3243
X0.4071 Y-2.5138 Z0.3431
X0.407 Y-2.5142 Z0.362
Z0.551
X0.4068 Y-2.5155
X0.4242 Y-2.5179
X0.4243 Y-2.5165
Z0.362
X0.4244 Y-2.5159 Z0.3341
X0.4245 Y-2.5138 Z0.3054
X0.4248 Y-2.5101 Z0.2754
X0.4251 Y-2.5055 Z0.2488
X0.4315 Y-2.4146 Z-0.188
Y-2.4144 Z-0.193
X0.4347
Y-2.4146 Z-0.188
X0.441 Y-2.5055 Z0.2488
X0.4413 Y-2.5088 Z0.2675
X0.4415 Y-2.5116 Z0.2863
X0.4416 Y-2.5138 Z0.3051
X0.4417 Y-2.5153 Z0.3241
X0.4418 Y-2.5162 Z0.343
Y-2.5165 Z0.362
Z0.551
X0.4419 Y-2.5179
X0.4594 Y-2.5155
X0.4591 Y-2.5142
Z0.362
X0.459 Y-2.5138 Z0.3432
X0.4588 Y-2.5129 Z0.3243
X0.4585 Y-2.5114 Z0.3055
X0.4581 Y-2.5093 Z0.2867
X0.4575 Y-2.5066 Z0.268
X0.4568 Y-2.5034 Z0.2495
X0.4378 Y-2.4142 Z-0.1881
Y-2.414 Z-0.193
X0.4409 Y-2.4132
Y-2.4133 Z-0.1881
X0.4722 Y-2.4992 Z0.2495
X0.4733 Y-2.5023 Z0.2681
X0.4742 Y-2.5048 Z0.2868
X0.475 Y-2.5068 Z0.3055
X0.4755 Y-2.5082 Z0.3243
X0.4758 Y-2.5091 Z0.3432
X0.4759 Y-2.5094 Z0.362
Y-2.5095 Z0.551
X0.4763 Y-2.5106
X0.4925 Y-2.5034
X0.4919 Y-2.5024
Z0.362
X0.4917 Y-2.5021 Z0.3432
X0.4913 Y-2.5012 Z0.3245
X0.4906 Y-2.4999 Z0.3057
X0.4896 Y-2.498 Z0.2871
X0.4883 Y-2.4956 Z0.2685
X0.4868 Y-2.4927 Z0.25
X0.4439 Y-2.4121 Z-0.1882
X0.4438 Y-2.4119 Z-0.193
X0.4466 Y-2.4103
X0.4467 Y-2.4104 Z-0.1883
X0.5004 Y-2.4844 Z0.2496
X0.5023 Y-2.487 Z0.2681
X0.5039 Y-2.4892 Z0.2868
X0.5051 Y-2.4909 Z0.3055
X0.506 Y-2.4921 Z0.3243
X0.5066 Y-2.4929 Z0.3432
X0.5068 Y-2.4932 Z0.362
Z0.551
X0.5074 Y-2.4941
X0.5209 Y-2.4827
X0.5203 Y-2.482
X0.5202 Z0.362
X0.5201 Y-2.4818 Z0.3433
X0.5194 Y-2.4812 Z0.3247
X0.5184 Y-2.4801 Z0.306
X0.517 Y-2.4786 Z0.2875
X0.5151 Y-2.4767 Z0.269
X0.5128 Y-2.4743 Z0.2506
X0.4492 Y-2.4085 Z-0.1883
X0.4491 Y-2.4084 Z-0.193
X0.4514 Y-2.4061
X0.4515 Z-0.1885
X0.5237 Y-2.4625 Z0.251
X0.5262 Y-2.4645 Z0.2694
X0.5283 Y-2.4661 Z0.2878
X0.5299 Y-2.4674 Z0.3063
X0.5311 Y-2.4683 Z0.3248
X0.5318 Y-2.4689 Z0.3434
X0.5321 Y-2.4691 Z0.362
Z0.551
X0.5328 Y-2.4696
X0.5426 Y-2.455
X0.542 Y-2.4546
Z0.3619
X0.5414 Y-2.4543 Z0.3344
X0.5396 Y-2.4532 Z0.3053
X0.5365 Y-2.4515 Z0.2763
X0.5328 Y-2.4493 Z0.2509
X0.4535 Y-2.4035 Z-0.1886
X0.4534 Z-0.193
X0.4549 Y-2.4006
X0.4551 Z-0.1883
X0.54 Y-2.4349 Z0.251
X0.543 Y-2.4362 Z0.2693
X0.5455 Y-2.4371 Z0.2878
X0.5474 Y-2.4379 Z0.3062
X0.5488 Y-2.4385 Z0.3248
X0.5496 Y-2.4388 Z0.3434
X0.5499 Y-2.4389 Z0.362
X0.55 Y-2.439 Z0.551
X0.5504 Y-2.4391
X0.5558 Y-2.4223
X0.5556
Z0.362
X0.5548 Y-2.4221 Z0.3344
X0.5528 Y-2.4216 Z0.3053
X0.5493 Y-2.4207 Z0.2764
X0.5451 Y-2.4197 Z0.2501
X0.4563 Y-2.3975 Z-0.1883
X0.4561 Z-0.193
X0.4569 Y-2.3942
X0.457 Z-0.1886
X0.5483 Y-2.4038 Z0.2515
X0.5515 Y-2.4042 Z0.2697
X0.5541 Y-2.4045 Z0.2881
X0.5561 Y-2.4047 Z0.3065
X0.5576 Y-2.4048 Z0.325
X0.5585 Y-2.4049 Z0.3435
X0.5588 Z0.362
Z0.551
X0.5589 Y-2.405
X0.561 Y-2.4052 Z0.5512
X0.5629 Y-2.4054 Z0.5519
X0.5647 Y-2.4056 Z0.553
X0.5662 Y-2.4057 Z0.5545
X0.5673 Y-2.4058 Z0.5563
X0.568 Y-2.4059 Z0.5583
X0.5682 Z0.5604
X0.5681 Y-2.4057 Z0.5628
X0.5677 Y-2.4049 Z0.5652
X0.5671 Y-2.4036 Z0.5672
X0.5663 Y-2.4019 Z0.5688
X0.5654 Y-2.3999 Z0.57
X0.5644 Y-2.3977 Z0.5706
X0.5633 Y-2.3955
X0.5623 Y-2.3933 Z0.57
X0.5614 Y-2.3913 Z0.5688
X0.5606 Y-2.3897 Z0.5672
X0.56 Y-2.3884 Z0.5652
X0.5596 Y-2.3876 Z0.5628
X0.5595 Y-2.3873 Z0.5604
Z0.3577
Z0.3574
X0.559 Z0.3361
X0.5567 Y-2.3874 Z0.3047
X0.5532 Y-2.3875 Z0.2759
X0.549 Y-2.3877 Z0.2515
X0.4574 Y-2.3909 Z-0.1884
X0.4572 Z-0.193
X0.4571 Y-2.3875
X0.4572 Z-0.1884
X0.5476 Y-2.3715 Z0.2516
X0.5508 Y-2.371 Z0.2706
X0.5534 Y-2.3705 Z0.2898
X0.5555 Y-2.3702 Z0.309
X0.5569 Y-2.3699 Z0.3282
X0.5577 Y-2.3698 Z0.3476
X0.5534 Y-2.3526 Z0.339
X0.5533 Y-2.3527 Z0.3352
X0.5512 Y-2.3533 Z0.3057
X0.5478 Y-2.3545 Z0.2757
X0.5437 Y-2.3558 Z0.251
X0.4566 Y-2.3841 Z-0.188
X0.4564 Z-0.193
X0.4553 Y-2.3809
X0.4555 Y-2.3808 Z-0.1882
X0.5377 Y-2.3407 Z0.25
X0.5416 Y-2.3388 Z0.2761
X0.5448 Y-2.3372 Z0.3049
X0.5468 Y-2.3363 Z0.3351
X0.5379 Y-2.321 Z0.331
X0.5363 Y-2.3221 Z0.3059
X0.5333 Y-2.3241 Z0.2758
X0.5298 Y-2.3265 Z0.2507
X0.4539 Y-2.3777 Z-0.1882
X0.4537 Y-2.3778 Z-0.193
X0.4517 Y-2.3749
X0.4518 Y-2.3748 Z-0.1883
X0.5198 Y-2.3136 Z0.2504
X0.5231 Y-2.3107 Z0.2757
X0.5258 Y-2.3082 Z0.3056
X0.5271 Y-2.3071 Z0.3278
X0.5144 Y-2.2948 Z0.327
X0.5133 Y-2.2962 Z0.3046
X0.511 Y-2.2989 Z0.276
X0.5082 Y-2.3022 Z0.25
X0.4494 Y-2.3722 Z-0.1882
X0.4493 Y-2.3724 Z-0.193
X0.4465 Y-2.3702
Z-0.1889
X0.495 Y-2.2926 Z0.2499
X0.4973 Y-2.2889 Z0.2754
X0.4993 Y-2.2858 Z0.3053
X0.5001 Y-2.2845 Z0.3256
X0.4845 Y-2.2762 Z0.3231
X0.484 Y-2.2774 Z0.3055
X0.4825 Y-2.2807 Z0.2756
X0.4806 Y-2.2849 Z0.2497
X0.4434 Y-2.3685 Z-0.189
Z-0.193
X0.4401 Y-2.3671
Z-0.1886
X0.4653 Y-2.2793 Z0.2493
X0.4665 Y-2.275 Z0.2756
X0.4676 Y-2.2715 Z0.3056
X0.4679 Y-2.2701 Z0.3234
X0.4507 Y-2.2665 Z0.3229
X0.4505 Y-2.2678 Z0.3054
X0.45 Y-2.2714 Z0.2755
X0.4493 Y-2.276 Z0.2488
X0.4366 Y-2.3663 Z-0.1885
Y-2.3664 Z-0.193
X0.4362 Y-2.3696 Z-0.1927
X0.4357 Y-2.3727 Z-0.1919
X0.4353 Y-2.3757 Z-0.1905
X0.435 Y-2.3783 Z-0.1886
X0.4346 Y-2.3806 Z-0.1863
X0.4344 Y-2.3825 Z-0.1836
X0.4342 Y-2.3838 Z-0.1807
X0.4341 Y-2.3847 Z-0.1775
X0.434 Y-2.385 Z-0.1743
G0 Z1.3
(RADIAL2 23)
G0 X1.5354 Y-2.2652
Z1.3
Z0.631
G1 Z0.3228 F80.
Z0.3214 F60.
Y-2.2664 Z0.3058
Y-2.2701 Z0.2757
Y-2.2747 Z0.2489
Y-2.366 Z-0.1886
Y-2.3661 Z-0.193
X1.5319 Y-2.3664
Y-2.3663 Z-0.1885
X1.5192 Y-2.276 Z0.2488
X1.5185 Y-2.2714 Z0.2755
X1.518 Y-2.2678 Z0.3055
X1.5178 Y-2.2665 Z0.3229
X1.5006 Y-2.2701 Z0.3234
X1.5009 Y-2.2715 Z0.3054
X1.502 Y-2.275 Z0.2756
X1.5032 Y-2.2793 Z0.2493
X1.5284 Y-2.3671 Z-0.1886
Z-0.193
X1.5251 Y-2.3685
Z-0.189
X1.4879 Y-2.2849 Z0.2497
X1.486 Y-2.2807 Z0.2757
X1.4845 Y-2.2774 Z0.3057
X1.484 Y-2.2762 Z0.3231
X1.4684 Y-2.2845 Z0.3256
X1.4692 Y-2.2858 Z0.3051
X1.4712 Y-2.2889 Z0.2754
X1.4735 Y-2.2926 Z0.2499
X1.522 Y-2.3702 Z-0.1889
Z-0.193
X1.5192 Y-2.3724
X1.5191 Y-2.3723 Z-0.1882
X1.4603 Y-2.3021 Z0.2505
X1.4575 Y-2.2989 Z0.2759
X1.4552 Y-2.2961 Z0.306
X1.4541 Y-2.2948 Z0.327
X1.4414 Y-2.3071 Z0.3278
X1.4428 Y-2.3083 Z0.3046
X1.4455 Y-2.3107 Z0.275
X1.4487 Y-2.3136 Z0.2506
X1.5167 Y-2.3748 Z-0.1884
X1.5168 Y-2.3749 Z-0.193
X1.5148 Y-2.3778
X1.5146 Y-2.3777 Z-0.1882
X1.4387 Y-2.3265 Z0.2507
X1.4352 Y-2.3241 Z0.2758
X1.4322 Y-2.3221 Z0.3058
X1.4306 Y-2.321 Z0.331
X1.4217 Y-2.3363 Z0.3351
X1.4237 Y-2.3372 Z0.3047
X1.4269 Y-2.3388 Z0.276
X1.4308 Y-2.3407 Z0.2499
X1.513 Y-2.3808 Z-0.1882
X1.5132 Y-2.3809 Z-0.193
X1.5121 Y-2.3841
X1.5119 Z-0.1881
X1.4248 Y-2.3558 Z0.251
X1.4218 Y-2.3548 Z0.2685
X1.4194 Y-2.354 Z0.286
X1.4174 Y-2.3534 Z0.3036
X1.416 Y-2.3529 Z0.3213
X1.4151 Y-2.3526 Z0.339
X1.4109 Y-2.3698 Z0.3476
X1.4113 Z0.3347
X1.4133 Y-2.3702 Z0.3056
X1.4168 Y-2.3708 Z0.2766
X1.4209 Y-2.3715 Z0.2516
X1.5113 Y-2.3875 Z-0.1886
X1.5114 Z-0.193
X1.5113 Y-2.3909
X1.5111 Z-0.1884
X1.4195 Y-2.3877 Z0.2515
X1.4164 Y-2.3876 Z0.269
X1.4138 Y-2.3875 Z0.2865
X1.4118 Y-2.3874 Z0.3042
X1.4103 Z0.3219
X1.4094 Y-2.3873 Z0.3397
X1.409 Z0.3574
Z0.3577
Z0.5604
X1.4089 Y-2.3876 Z0.5628
X1.4085 Y-2.3884 Z0.5652
X1.4079 Y-2.3897 Z0.5672
X1.4071 Y-2.3913 Z0.5688
X1.4062 Y-2.3933 Z0.57
X1.4052 Y-2.3955 Z0.5706
X1.4041 Y-2.3977
X1.4031 Y-2.3999 Z0.57
X1.4022 Y-2.4019 Z0.5688
X1.4014 Y-2.4036 Z0.5672
X1.4008 Y-2.4049 Z0.5652
X1.4004 Y-2.4057 Z0.5628
X1.4003 Y-2.4059 Z0.5604
X1.4005 Z0.5583
X1.4012 Y-2.4058 Z0.5563
X1.4023 Y-2.4057 Z0.5545
X1.4038 Y-2.4056 Z0.553
X1.4056 Y-2.4054 Z0.5519
X1.4076 Y-2.4052 Z0.5512
X1.4096 Y-2.405 Z0.551
X1.4097 Y-2.4049
X1.4098 Z0.362
X1.4104 Z0.3344
X1.4125 Y-2.4047 Z0.3053
X1.4161 Y-2.4043 Z0.2755
X1.4203 Y-2.4038 Z0.2514
X1.5114 Y-2.3943 Z-0.188
X1.5116 Y-2.3942 Z-0.193
X1.5124 Y-2.3975
X1.5122 Z-0.1884
X1.4235 Y-2.4197 Z0.2499
X1.4203 Y-2.4204 Z0.2684
X1.4178 Y-2.4211 Z0.2871
X1.4157 Y-2.4216 Z0.3057
X1.4142 Y-2.4219 Z0.3245
X1.4133 Y-2.4222 Z0.3432
X1.4129 Y-2.4223 Z0.362
X1.4128 Z0.551
X1.4127
X1.4181 Y-2.4391
X1.4186 Y-2.4389
Z0.362
X1.4189 Y-2.4388 Z0.3434
X1.4197 Y-2.4385 Z0.3249
X1.4211 Y-2.4379 Z0.3064
X1.423 Y-2.4372 Z0.288
X1.4254 Y-2.4362 Z0.2697
X1.4284 Y-2.435 Z0.2514
X1.5134 Y-2.4006 Z-0.1881
X1.5136 Z-0.193
X1.5151 Y-2.4035
X1.515 Z-0.1882
X1.4357 Y-2.4493 Z0.2509
X1.4329 Y-2.4509 Z0.2693
X1.4306 Y-2.4523 Z0.2877
X1.4288 Y-2.4533 Z0.3062
X1.4275 Y-2.454 Z0.3248
X1.4268 Y-2.4545 Z0.3434
X1.4265 Y-2.4546 Z0.362
X1.4264 Y-2.4547 Z0.551
X1.4259 Y-2.455
X1.4357 Y-2.4696
X1.4364 Y-2.4691
Z0.362
X1.437 Y-2.4687 Z0.3341
X1.4386 Y-2.4674 Z0.3054
X1.4414 Y-2.4652 Z0.2763
X1.4448 Y-2.4625 Z0.251
X1.517 Y-2.4061 Z-0.1885
X1.5171 Z-0.193
X1.5194 Y-2.4084
X1.5193 Y-2.4085 Z-0.1883
X1.4557 Y-2.4743 Z0.2506
X1.4534 Y-2.4767 Z0.269
X1.4515 Y-2.4786 Z0.2875
X1.4501 Y-2.4801 Z0.3061
X1.4491 Y-2.4812 Z0.3247
X1.4484 Y-2.4818 Z0.3433
X1.4483 Y-2.482 Z0.362
Z0.551
X1.4476 Y-2.4827
X1.4611 Y-2.4941
X1.4617 Y-2.4932
Z0.362
X1.4621 Y-2.4927 Z0.3371
X1.4634 Y-2.4909 Z0.3052
X1.4655 Y-2.488 Z0.2763
X1.4681 Y-2.4844 Z0.2496
X1.5218 Y-2.4105 Z-0.1882
X1.5219 Y-2.4103 Z-0.193
X1.5247 Y-2.4119
X1.5246 Y-2.4121 Z-0.1882
X1.4817 Y-2.4927 Z0.2499
X1.4802 Y-2.4956 Z0.2684
X1.4789 Y-2.498 Z0.287
X1.4779 Y-2.4999 Z0.3057
X1.4772 Y-2.5012 Z0.3245
X1.4768 Y-2.5021 Z0.3432
X1.4766 Y-2.5023 Z0.362
Y-2.5024 Z0.551
X1.476 Y-2.5034
X1.4922 Y-2.5106
X1.4926 Y-2.5095
Y-2.5094 Z0.362
X1.4927 Y-2.5091 Z0.3432
X1.493 Y-2.5082 Z0.3244
X1.4935 Y-2.5068 Z0.3056
X1.4943 Y-2.5048 Z0.2868
X1.4952 Y-2.5023 Z0.2682
X1.4963 Y-2.4992 Z0.2496
X1.5276 Y-2.4133 Z-0.1881
Y-2.4132 Z-0.193
X1.5307 Y-2.414
Y-2.4142 Z-0.1881
X1.5117 Y-2.5034 Z0.2494
X1.511 Y-2.5066 Z0.268
X1.5104 Y-2.5093 Z0.2867
X1.51 Y-2.5114 Z0.3055
X1.5097 Y-2.5129 Z0.3243
X1.5095 Y-2.5138 Z0.3431
X1.5094 Y-2.5142 Z0.362
Z0.551
X1.5091 Y-2.5155
X1.5266 Y-2.5179
X1.5267 Y-2.5165
Z0.362
X1.5268 Y-2.5159 Z0.3341
X1.5269 Y-2.5138 Z0.3054
X1.5272 Y-2.5101 Z0.2754
X1.5275 Y-2.5055 Z0.2488
X1.5338 Y-2.4146 Z-0.188
Y-2.4144 Z-0.193
X1.537
Y-2.4146 Z-0.188
X1.5434 Y-2.5055 Z0.2488
X1.5436 Y-2.5088 Z0.2675
X1.5438 Y-2.5116 Z0.2863
X1.544 Y-2.5138 Z0.3051
X1.5441 Y-2.5153 Z0.3241
Y-2.5162 Z0.343
X1.5442 Y-2.5165 Z0.362
Z0.551
X1.5443 Y-2.5179
X1.5617 Y-2.5155
X1.5615 Y-2.5142
Z0.362
X1.5613 Y-2.5135 Z0.3347
X1.5609 Y-2.5114 Z0.3055
X1.5601 Y-2.5078 Z0.2756
X1.5592 Y-2.5034 Z0.2494
X1.5402 Y-2.4142 Z-0.1881
Y-2.414 Z-0.193
X1.5432 Y-2.4132
X1.5433 Y-2.4133 Z-0.1881
X1.5745 Y-2.4992 Z0.2496
X1.5757 Y-2.5023 Z0.2682
X1.5766 Y-2.5048 Z0.2868
X1.5773 Y-2.5068 Z0.3056
X1.5778 Y-2.5082 Z0.3243
X1.5781 Y-2.5091 Z0.3431
X1.5782 Y-2.5094 Z0.362
X1.5783 Z0.551
X1.5787 Y-2.5106
X1.5948 Y-2.5034
X1.5943 Y-2.5024
Z0.362
X1.594 Y-2.5018 Z0.3369
X1.5929 Y-2.4998 Z0.3052
X1.5912 Y-2.4966 Z0.2753
X1.5891 Y-2.4927 Z0.2499
X1.5463 Y-2.4121 Z-0.1882
X1.5462 Y-2.4119 Z-0.193
X1.5489 Y-2.4103
X1.549 Y-2.4105 Z-0.1883
X1.6027 Y-2.4844 Z0.2495
X1.6046 Y-2.487 Z0.2681
X1.6062 Y-2.4892 Z0.2868
X1.6075 Y-2.4909 Z0.3055
X1.6084 Y-2.4921 Z0.3243
X1.6089 Y-2.4929 Z0.3431
X1.6091 Y-2.4932 Z0.362
X1.6092 Z0.551
X1.6098 Y-2.4941
X1.6233 Y-2.4827
X1.6227 Y-2.4821
X1.6226 Y-2.482 Z0.362
X1.6222 Y-2.4816 Z0.3352
X1.6207 Y-2.4801 Z0.3058
X1.6182 Y-2.4774 Z0.2757
X1.6151 Y-2.4743 Z0.2504
X1.5516 Y-2.4085 Z-0.1884
X1.5515 Y-2.4084 Z-0.193
X1.5538 Y-2.4061
X1.5539 Z-0.1885
X1.6261 Y-2.4625 Z0.251
X1.6286 Y-2.4645 Z0.2694
X1.6307 Y-2.4661 Z0.2878
X1.6323 Y-2.4674 Z0.3063
X1.6335 Y-2.4683 Z0.3248
X1.6342 Y-2.4689 Z0.3434
X1.6345 Y-2.4691 Z0.362
Z0.551
X1.6351 Y-2.4696
X1.645 Y-2.455
X1.6444 Y-2.4546
Z0.3619
X1.6438 Y-2.4543 Z0.3344
X1.642 Y-2.4532 Z0.3053
X1.6389 Y-2.4515 Z0.2763
X1.6352 Y-2.4493 Z0.2509
X1.5559 Y-2.4035 Z-0.1882
X1.5557 Z-0.193
X1.5573 Y-2.4006
X1.5575 Z-0.1881
X1.6424 Y-2.435 Z0.2514
X1.6454 Y-2.4362 Z0.2697
X1.6479 Y-2.4372 Z0.288
X1.6498 Y-2.4379 Z0.3064
X1.6512 Y-2.4385 Z0.3249
X1.652 Y-2.4388 Z0.3434
X1.6522 Y-2.4389 Z0.3619
X1.6523 Z0.551
X1.6527 Y-2.4391
X1.6582 Y-2.4223
X1.6581
X1.658 Z0.362
X1.6576 Y-2.4222 Z0.3432
X1.6566 Y-2.422 Z0.3244
X1.6551 Y-2.4216 Z0.3057
X1.6531 Y-2.4211 Z0.287
X1.6505 Y-2.4204 Z0.2684
X1.6474 Y-2.4197 Z0.2499
X1.5586 Y-2.3975 Z-0.1884
X1.5585 Z-0.193
X1.5593 Y-2.3942
X1.5594 Y-2.3943 Z-0.1882
X1.6506 Y-2.4038 Z0.2515
X1.6538 Y-2.4042 Z0.2698
X1.6564 Y-2.4045 Z0.2881
X1.6585 Y-2.4047 Z0.3065
X1.6599 Y-2.4048 Z0.325
X1.6608 Y-2.4049 Z0.3435
X1.6611 Z0.362
X1.6612 Z0.551
Y-2.405
X1.6633 Y-2.4052 Z0.5512
X1.6653 Y-2.4054 Z0.5519
X1.6671 Y-2.4056 Z0.553
X1.6685 Y-2.4057 Z0.5545
X1.6696 Y-2.4058 Z0.5563
X1.6703 Y-2.4059 Z0.5583
X1.6706 Z0.5604
X1.6704 Y-2.4057 Z0.5628
X1.6701 Y-2.4049 Z0.5652
X1.6695 Y-2.4036 Z0.5672
X1.6687 Y-2.4019 Z0.5688
X1.6678 Y-2.3999 Z0.57
X1.6667 Y-2.3977 Z0.5706
X1.6657 Y-2.3955
X1.6647 Y-2.3933 Z0.57
X1.6637 Y-2.3913 Z0.5688
X1.663 Y-2.3897 Z0.5672
X1.6624 Y-2.3884 Z0.5652
X1.662 Y-2.3876 Z0.5628
X1.6619 Y-2.3873 Z0.5604
Z0.3577
Z0.3574
X1.6613 Z0.3361
X1.6591 Y-2.3874 Z0.3047
X1.6555 Y-2.3875 Z0.2759
X1.6514 Y-2.3877 Z0.2515
X1.5597 Y-2.3909 Z-0.1884
X1.5596 Z-0.193
X1.5595 Y-2.3875
X1.5596 Z-0.1886
X1.65 Y-2.3715 Z0.2516
X1.6532 Y-2.371 Z0.2706
X1.6558 Y-2.3705 Z0.2898
X1.6578 Y-2.3702 Z0.309
X1.6592 Y-2.3699 Z0.3283
X1.66 Y-2.3698 Z0.3476
X1.6557 Y-2.3526 Z0.339
X1.6556 Y-2.3527 Z0.3346
X1.6536 Y-2.3533 Z0.3056
X1.6501 Y-2.3545 Z0.2756
X1.6461 Y-2.3558 Z0.251
X1.559 Y-2.3841 Z-0.188
X1.5588 Z-0.193
X1.5577 Y-2.3809
X1.5578 Y-2.3808 Z-0.1883
X1.6401 Y-2.3407 Z0.2501
X1.644 Y-2.3388 Z0.2763
X1.6472 Y-2.3372 Z0.3052
X1.6491 Y-2.3363 Z0.3351
X1.6403 Y-2.321 Z0.331
X1.6387 Y-2.3221 Z0.3052
X1.6357 Y-2.3241 Z0.2762
X1.6322 Y-2.3265 Z0.251
X1.5563 Y-2.3777 Z-0.1881
X1.5561 Y-2.3778 Z-0.193
X1.5541 Y-2.3749
X1.5542 Y-2.3748 Z-0.1884
X1.6222 Y-2.3136 Z0.2506
X1.6254 Y-2.3107 Z0.275
X1.6282 Y-2.3082 Z0.3059
X1.6294 Y-2.3071 Z0.3278
X1.6167 Y-2.2948 Z0.327
X1.6157 Y-2.2961 Z0.3055
X1.6134 Y-2.2988 Z0.2764
X1.6106 Y-2.3022 Z0.2503
X1.5518 Y-2.3723 Z-0.1882
X1.5517 Y-2.3724 Z-0.193
X1.5489 Y-2.3702
Z-0.1889
X1.5974 Y-2.2926 Z0.2499
X1.5997 Y-2.2889 Z0.2754
X1.6016 Y-2.2858 Z0.3053
X1.6025 Y-2.2845 Z0.3256
X1.5869 Y-2.2762 Z0.3231
X1.5863 Y-2.2774 Z0.3056
X1.5848 Y-2.2807 Z0.2757
X1.583 Y-2.2849 Z0.2497
X1.5458 Y-2.3684 Z-0.1884
Y-2.3685 Z-0.193
X1.5425 Y-2.3671
Z-0.1886
X1.5677 Y-2.2793 Z0.2493
X1.5689 Y-2.275 Z0.2756
X1.5699 Y-2.2715 Z0.3056
X1.5703 Y-2.2701 Z0.3234
X1.553 Y-2.2665 Z0.3229
X1.5529 Y-2.2678 Z0.3054
X1.5523 Y-2.2714 Z0.2755
X1.5517 Y-2.276 Z0.2488
X1.539 Y-2.3663 Z-0.1885
Y-2.3664 Z-0.193
X1.5385 Y-2.3696 Z-0.1927
X1.5381 Y-2.3727 Z-0.1919
X1.5377 Y-2.3757 Z-0.1905
X1.5373 Y-2.3783 Z-0.1886
X1.537 Y-2.3806 Z-0.1863
X1.5367 Y-2.3825 Z-0.1836
X1.5365 Y-2.3838 Z-0.1807
X1.5364 Y-2.3847 Z-0.1775
Y-2.385 Z-0.1743
G0 Z1.3
(RADIAL2 24)
G0 X2.6378 Y-2.2652
Z1.3
Z0.631
G1 Z0.3228 F80.
Z0.3214 F60.
Y-2.2664 Z0.3057
Y-2.2701 Z0.2756
Y-2.2748 Z0.2488
Y-2.366 Z-0.1886
Y-2.3661 Z-0.193
X2.6342 Y-2.3664
Y-2.3663 Z-0.1885
X2.6215 Y-2.2759 Z0.2494
X2.6209 Y-2.2714 Z0.2754
X2.6204 Y-2.2678 Z0.3053
X2.6202 Y-2.2665 Z0.3229
X2.6029 Y-2.2701 Z0.3234
X2.6033 Y-2.2715 Z0.3054
X2.6043 Y-2.275 Z0.2756
X2.6056 Y-2.2793 Z0.2493
X2.6307 Y-2.3671 Z-0.1886
Z-0.193
X2.6274 Y-2.3685
Z-0.189
X2.5902 Y-2.2849 Z0.2496
X2.5884 Y-2.2808 Z0.2755
X2.5869 Y-2.2774 Z0.3054
X2.5863 Y-2.2762 Z0.3231
X2.5708 Y-2.2845 Z0.3256
X2.5716 Y-2.2858 Z0.3055
X2.5735 Y-2.2889 Z0.2756
X2.5758 Y-2.2926 Z0.2501
X2.6243 Y-2.3702 Z-0.1889
X2.6244 Z-0.193
X2.6216 Y-2.3724
X2.6214 Y-2.3723 Z-0.1882
X2.5627 Y-2.3022 Z0.2503
X2.5598 Y-2.2988 Z0.2764
X2.5576 Y-2.2961 Z0.3054
X2.5565 Y-2.2948 Z0.327
X2.5438 Y-2.3071 Z0.3278
X2.5451 Y-2.3083 Z0.3046
X2.5478 Y-2.3107 Z0.275
X2.551 Y-2.3136 Z0.2506
X2.619 Y-2.3748 Z-0.1884
X2.6191 Y-2.3749 Z-0.193
X2.6171 Y-2.3778
X2.617 Y-2.3777 Z-0.1882
X2.5411 Y-2.3265 Z0.2506
X2.5376 Y-2.3241 Z0.2757
X2.5345 Y-2.3221 Z0.3057
X2.5329 Y-2.321 Z0.331
X2.5241 Y-2.3363 Z0.3351
X2.526 Y-2.3372 Z0.3051
X2.5292 Y-2.3388 Z0.2763
X2.5332 Y-2.3407 Z0.2501
X2.6154 Y-2.3808 Z-0.1883
X2.6155 Y-2.3809 Z-0.193
X2.6144 Y-2.3841
X2.6142 Z-0.1881
X2.5272 Y-2.3558 Z0.251
X2.5242 Y-2.3548 Z0.2685
X2.5217 Y-2.354 Z0.286
X2.5198 Y-2.3534 Z0.3036
X2.5184 Y-2.3529 Z0.3213
X2.5175 Y-2.3526 Z0.339
X2.5132 Y-2.3698 Z0.3476
X2.5136 Z0.3347
X2.5157 Y-2.3702 Z0.3056
X2.5192 Y-2.3708 Z0.2766
X2.5233 Y-2.3715 Z0.2516
X2.6137 Y-2.3875 Z-0.1886
X2.6138 Z-0.193
X2.6136 Y-2.3909
X2.6135 Z-0.1884
X2.5218 Y-2.3877 Z0.2515
X2.5187 Y-2.3876 Z0.269
X2.5162 Y-2.3875 Z0.2865
X2.5142 Y-2.3874 Z0.3042
X2.5127 Z0.3219
X2.5118 Y-2.3873 Z0.3397
X2.5114 Z0.3574
Z0.3577
Z0.5604
X2.5112 Y-2.3876 Z0.5628
X2.5109 Y-2.3884 Z0.5652
X2.5103 Y-2.3897 Z0.5672
X2.5095 Y-2.3913 Z0.5688
X2.5086 Y-2.3933 Z0.57
X2.5075 Y-2.3955 Z0.5706
X2.5065 Y-2.3977
X2.5055 Y-2.3999 Z0.57
X2.5045 Y-2.4019 Z0.5688
X2.5038 Y-2.4036 Z0.5672
X2.5032 Y-2.4049 Z0.5652
X2.5028 Y-2.4057 Z0.5628
X2.5027 Y-2.4059 Z0.5604
X2.5029 Z0.5583
X2.5036 Y-2.4058 Z0.5563
X2.5047 Y-2.4057 Z0.5545
X2.5062 Y-2.4056 Z0.553
X2.5079 Y-2.4054 Z0.5519
X2.5099 Y-2.4052 Z0.5512
X2.512 Y-2.405 Z0.551
Y-2.4049
X2.5121 Z0.362
X2.5124 Z0.3435
X2.5133 Y-2.4048 Z0.325
X2.5147 Y-2.4047 Z0.3065
X2.5168 Y-2.4045 Z0.2881
X2.5194 Y-2.4042 Z0.2697
X2.5226 Y-2.4038 Z0.2515
X2.6139 Y-2.3942 Z-0.1886
X2.614 Z-0.193
X2.6147 Y-2.3975
X2.6146 Z-0.1885
X2.5258 Y-2.4197 Z0.2499
X2.5227 Y-2.4204 Z0.2684
X2.5201 Y-2.4211 Z0.2871
X2.5181 Y-2.4216 Z0.3057
X2.5166 Y-2.4219 Z0.3245
X2.5157 Y-2.4222 Z0.3432
X2.5153 Y-2.4223 Z0.362
X2.5152 Z0.551
X2.5151
X2.5205 Y-2.4391
X2.5209 Y-2.439
X2.521 Y-2.4389 Z0.362
X2.5215 Y-2.4387 Z0.3359
X2.5236 Y-2.4379 Z0.3046
X2.5269 Y-2.4365 Z0.2759
X2.5308 Y-2.4349 Z0.2511
X2.6158 Y-2.4006 Z-0.1883
X2.6159 Z-0.193
X2.6175 Y-2.4035
X2.6174 Z-0.1886
X2.538 Y-2.4493 Z0.2509
X2.5353 Y-2.4509 Z0.2693
X2.533 Y-2.4523 Z0.2877
X2.5312 Y-2.4533 Z0.3062
X2.5299 Y-2.454 Z0.3248
X2.5291 Y-2.4545 Z0.3434
X2.5288 Y-2.4546 Z0.362
Y-2.4547 Z0.551
X2.5282 Y-2.455
X2.5381 Y-2.4696
X2.5387 Y-2.4691
Z0.362
X2.5393 Y-2.4687 Z0.3341
X2.541 Y-2.4674 Z0.3054
X2.5438 Y-2.4652 Z0.2763
X2.5472 Y-2.4625 Z0.251
X2.6194 Y-2.4061 Z-0.1885
X2.6195 Z-0.193
X2.6217 Y-2.4084
X2.6216 Y-2.4085 Z-0.1884
X2.5581 Y-2.4743 Z0.2504
X2.5558 Y-2.4766 Z0.2688
X2.5539 Y-2.4786 Z0.2874
X2.5525 Y-2.4801 Z0.306
X2.5514 Y-2.4812 Z0.3246
X2.5508 Y-2.4818 Z0.3433
X2.5506 Y-2.482 Z0.362
Y-2.4821 Z0.551
X2.5499 Y-2.4827
X2.5634 Y-2.4941
X2.564 Y-2.4933
X2.5641 Y-2.4932 Z0.362
X2.5645 Y-2.4926 Z0.3348
X2.5657 Y-2.4909 Z0.3056
X2.5679 Y-2.4879 Z0.2756
X2.5705 Y-2.4844 Z0.2497
X2.6242 Y-2.4104 Z-0.1883
X2.6243 Y-2.4103 Z-0.193
X2.6271 Y-2.4119
X2.627 Y-2.4121 Z-0.1881
X2.5841 Y-2.4927 Z0.2499
X2.5826 Y-2.4956 Z0.2684
X2.5813 Y-2.498 Z0.287
X2.5803 Y-2.4999 Z0.3057
X2.5796 Y-2.5012 Z0.3244
X2.5791 Y-2.5021 Z0.3432
X2.579 Y-2.5023 Z0.362
Y-2.5024 Z0.551
X2.5784 Y-2.5034
X2.5945 Y-2.5106
X2.5949 Y-2.5095
X2.595 Y-2.5094 Z0.362
X2.5951 Y-2.5091 Z0.3432
X2.5954 Y-2.5082 Z0.3244
X2.5959 Y-2.5068 Z0.3056
X2.5966 Y-2.5048 Z0.2868
X2.5976 Y-2.5023 Z0.2682
X2.5987 Y-2.4992 Z0.2496
X2.6299 Y-2.4133 Z-0.1881
X2.63 Y-2.4132 Z-0.193
X2.6331 Y-2.414
X2.633 Y-2.4142 Z-0.1881
X2.6141 Y-2.5034 Z0.2495
X2.6134 Y-2.5066 Z0.268
X2.6128 Y-2.5093 Z0.2867
X2.6124 Y-2.5114 Z0.3055
X2.612 Y-2.5129 Z0.3243
X2.6118 Y-2.5138 Z0.3432
Y-2.5142 Z0.362
Z0.551
X2.6115 Y-2.5155
X2.629 Y-2.5179
X2.6291 Y-2.5165
Z0.362
Y-2.5159 Z0.3341
X2.6293 Y-2.5138 Z0.3054
X2.6295 Y-2.5101 Z0.2754
X2.6298 Y-2.5055 Z0.2488
X2.6362 Y-2.4146 Z-0.188
Y-2.4144 Z-0.193
X2.6394
Y-2.4146 Z-0.188
X2.6457 Y-2.5055 Z0.2488
X2.646 Y-2.5088 Z0.2675
X2.6462 Y-2.5116 Z0.2862
X2.6463 Y-2.5137 Z0.3051
X2.6464 Y-2.5153 Z0.324
X2.6465 Y-2.5162 Z0.343
Y-2.5165 Z0.362
Z0.551
X2.6466 Y-2.5179
X2.6641 Y-2.5155
X2.6638 Y-2.5142
Z0.3619
X2.6637 Y-2.5138 Z0.343
X2.6635 Y-2.5129 Z0.3242
X2.6632 Y-2.5114 Z0.3053
X2.6628 Y-2.5093 Z0.2866
X2.6622 Y-2.5066 Z0.2679
X2.6615 Y-2.5034 Z0.2493
X2.6426 Y-2.4142 Z-0.1881
X2.6425 Y-2.414 Z-0.193
X2.6456 Y-2.4132
X2.6457 Y-2.4133 Z-0.1882
X2.6769 Y-2.4991 Z0.2495
X2.678 Y-2.5023 Z0.2681
X2.679 Y-2.5048 Z0.2867
X2.6797 Y-2.5068 Z0.3055
X2.6802 Y-2.5082 Z0.3243
X2.6805 Y-2.5091 Z0.3431
X2.6806 Y-2.5094 Z0.362
Y-2.5095 Z0.551
X2.6811 Y-2.5106
X2.6972 Y-2.5034
X2.6966 Y-2.5024
Z0.362
X2.6963 Y-2.5018 Z0.3369
X2.6953 Y-2.4998 Z0.3052
X2.6936 Y-2.4966 Z0.2753
X2.6915 Y-2.4927 Z0.2499
X2.6486 Y-2.4121 Z-0.1882
X2.6485 Y-2.4119 Z-0.193
X2.6513 Y-2.4103
X2.6514 Y-2.4104 Z-0.1883
X2.7051 Y-2.4844 Z0.2497
X2.707 Y-2.487 Z0.2683
X2.7086 Y-2.4892 Z0.2869
X2.7098 Y-2.4909 Z0.3056
X2.7107 Y-2.4921 Z0.3244
X2.7113 Y-2.4929 Z0.3431
X2.7115 Y-2.4932 Z0.362
X2.7116 Y-2.4933 Z0.551
X2.7122 Y-2.4941
X2.7257 Y-2.4827
X2.725 Y-2.482
Z0.362
X2.7246 Y-2.4816 Z0.3357
X2.723 Y-2.48 Z0.3047
X2.7205 Y-2.4774 Z0.275
X2.7175 Y-2.4743 Z0.2506
X2.654 Y-2.4085 Z-0.1883
X2.6539 Y-2.4084 Z-0.193
X2.6561 Y-2.4061
X2.6562 Z-0.1885
X2.7284 Y-2.4625 Z0.251
X2.7309 Y-2.4645 Z0.2693
X2.733 Y-2.4661 Z0.2878
X2.7346 Y-2.4674 Z0.3062
X2.7358 Y-2.4683 Z0.3248
X2.7366 Y-2.4689 Z0.3434
X2.7369 Y-2.4691 Z0.362
Z0.551
X2.7375 Y-2.4696
X2.7473 Y-2.455
X2.7468 Y-2.4547
Y-2.4546 Z0.362
X2.7465 Y-2.4545 Z0.3434
X2.7457 Y-2.454 Z0.3248
X2.7444 Y-2.4533 Z0.3062
X2.7426 Y-2.4522 Z0.2877
X2.7403 Y-2.4509 Z0.2692
X2.7376 Y-2.4493 Z0.2509
X2.6582 Y-2.4035 Z-0.1882
X2.6581 Y-2.4034 Z-0.193
X2.6597 Y-2.4006
X2.6598 Z-0.1883
X2.7447 Y-2.4349 Z0.251
X2.7477 Y-2.4362 Z0.2693
X2.7502 Y-2.4372 Z0.2878
X2.7521 Y-2.4379 Z0.3063
X2.7535 Y-2.4385 Z0.3248
X2.7543 Y-2.4388 Z0.3434
X2.7546 Y-2.4389 Z0.362
X2.7547 Y-2.439 Z0.551
X2.7551 Y-2.4391
X2.7605 Y-2.4223
X2.7603
Z0.362
X2.7596 Y-2.4221 Z0.3348
X2.7575 Y-2.4216 Z0.3055
X2.7541 Y-2.4207 Z0.2764
X2.7498 Y-2.4197 Z0.2501
X2.661 Y-2.3975 Z-0.1883
X2.6609 Z-0.193
X2.6616 Y-2.3942
X2.6617 Z-0.1886
X2.753 Y-2.4038 Z0.2515
X2.7562 Y-2.4042 Z0.2698
X2.7588 Y-2.4045 Z0.2881
X2.7609 Y-2.4047 Z0.3065
X2.7623 Y-2.4048 Z0.325
X2.7632 Y-2.4049 Z0.3435
X2.7635 Z0.362
Z0.551
X2.7636 Y-2.405
X2.7657 Y-2.4052 Z0.5512
X2.7676 Y-2.4054 Z0.5519
X2.7694 Y-2.4056 Z0.553
X2.7709 Y-2.4057 Z0.5545
X2.772 Y-2.4058 Z0.5563
X2.7727 Y-2.4059 Z0.5583
X2.7729 Z0.5604
X2.7728 Y-2.4057 Z0.5628
X2.7724 Y-2.4049 Z0.5652
X2.7718 Y-2.4036 Z0.5672
X2.771 Y-2.4019 Z0.5688
X2.7701 Y-2.3999 Z0.57
X2.7691 Y-2.3977 Z0.5706
X2.768 Y-2.3955
X2.767 Y-2.3933 Z0.57
X2.7661 Y-2.3913 Z0.5688
X2.7653 Y-2.3897 Z0.5672
X2.7647 Y-2.3884 Z0.5652
X2.7643 Y-2.3876 Z0.5628
X2.7642 Y-2.3873 Z0.5604
Z0.3577
Z0.3574
X2.7636 Z0.3343
X2.7615 Y-2.3874 Z0.3053
X2.7578 Y-2.3875 Z0.2754
X2.7537 Y-2.3877 Z0.2511
X2.6621 Y-2.3909 Z-0.1882
X2.662 Z-0.193
X2.6618 Y-2.3875
X2.6619 Z-0.1886
X2.7523 Y-2.3715 Z0.2516
X2.7555 Y-2.371 Z0.2706
X2.7582 Y-2.3705 Z0.2898
X2.7602 Y-2.3702 Z0.309
X2.7616 Y-2.3699 Z0.3283
X2.7624 Y-2.3698 Z0.3476
X2.7581 Y-2.3526 Z0.339
X2.758 Y-2.3527 Z0.335
X2.756 Y-2.3533 Z0.3057
X2.7525 Y-2.3545 Z0.2756
X2.7484 Y-2.3558 Z0.251
X2.6614 Y-2.3841 Z-0.188
X2.6612 Z-0.193
X2.66 Y-2.3809
X2.6602 Y-2.3808 Z-0.1882
X2.7424 Y-2.3407 Z0.25
X2.7464 Y-2.3388 Z0.2761
X2.7495 Y-2.3372 Z0.3049
X2.7515 Y-2.3363 Z0.3351
X2.7427 Y-2.321 Z0.331
X2.741 Y-2.3221 Z0.3052
X2.7381 Y-2.3241 Z0.2762
X2.7345 Y-2.3265 Z0.251
X2.6586 Y-2.3777 Z-0.1881
X2.6585 Y-2.3778 Z-0.193
X2.6565 Y-2.3749
X2.6566 Y-2.3748 Z-0.1883
X2.7246 Y-2.3136 Z0.2504
X2.7278 Y-2.3107 Z0.2757
X2.7305 Y-2.3082 Z0.3058
X2.7318 Y-2.3071 Z0.3278
X2.7191 Y-2.2948 Z0.327
X2.718 Y-2.2961 Z0.3054
X2.7158 Y-2.2988 Z0.2764
X2.7129 Y-2.3022 Z0.2503
X2.6541 Y-2.3723 Z-0.1882
X2.654 Y-2.3724 Z-0.193
X2.6512 Y-2.3702
X2.6513 Z-0.1889
X2.6997 Y-2.2926 Z0.2501
X2.7021 Y-2.2889 Z0.2756
X2.704 Y-2.2858 Z0.3057
X2.7048 Y-2.2845 Z0.3256
X2.6892 Y-2.2762 Z0.3231
X2.6887 Y-2.2774 Z0.3056
X2.6872 Y-2.2807 Z0.2757
X2.6854 Y-2.2849 Z0.2497
X2.6482 Y-2.3684 Z-0.1884
Y-2.3685 Z-0.193
X2.6448 Y-2.3671
X2.6449 Z-0.1886
X2.67 Y-2.2793 Z0.2493
X2.6713 Y-2.275 Z0.2756
X2.6723 Y-2.2715 Z0.3056
X2.6727 Y-2.2701 Z0.3234
X2.6554 Y-2.2665 Z0.3229
X2.6552 Y-2.2678 Z0.3054
X2.6547 Y-2.2714 Z0.2755
X2.6541 Y-2.276 Z0.2488
X2.6414 Y-2.3663 Z-0.1885
Y-2.3664 Z-0.193
X2.6409 Y-2.3696 Z-0.1927
X2.6405 Y-2.3727 Z-0.1919
X2.6401 Y-2.3757 Z-0.1905
X2.6397 Y-2.3783 Z-0.1886
X2.6394 Y-2.3806 Z-0.1863
X2.6391 Y-2.3825 Z-0.1836
X2.6389 Y-2.3838 Z-0.1807
X2.6388 Y-2.3847 Z-0.1775
X2.6387 Y-2.385 Z-0.1743
G0 Z1.3
(RADIAL2 25)
G0 X3.7402 Y-2.2652
Z1.3
Z0.631
G1 Z0.3228 F80.
Z0.3214 F60.
Y-2.2664 Z0.3057
Y-2.2701 Z0.2756
Y-2.2748 Z0.2488
Y-2.366 Z-0.1886
Y-2.3661 Z-0.193
X3.7366 Y-2.3664
Y-2.3663 Z-0.1885
X3.7239 Y-2.2759 Z0.2494
X3.7233 Y-2.2714 Z0.2754
X3.7227 Y-2.2678 Z0.3053
X3.7226 Y-2.2665 Z0.3229
X3.7053 Y-2.2701 Z0.3234
X3.7057 Y-2.2715 Z0.3051
X3.7067 Y-2.275 Z0.2754
X3.7079 Y-2.2792 Z0.2499
X3.7331 Y-2.3671 Z-0.1886
Y-2.3672 Z-0.193
X3.7298 Y-2.3685
Z-0.189
X3.6926 Y-2.2849 Z0.2496
X3.6908 Y-2.2808 Z0.2755
X3.6893 Y-2.2774 Z0.3054
X3.6887 Y-2.2762 Z0.3231
X3.6731 Y-2.2845 Z0.3256
X3.6739 Y-2.2858 Z0.3055
X3.6759 Y-2.2889 Z0.2756
X3.6782 Y-2.2926 Z0.2501
X3.7267 Y-2.3702 Z-0.1889
Z-0.193
X3.7239 Y-2.3724
X3.7238 Y-2.3722 Z-0.1882
X3.6651 Y-2.3022 Z0.25
X3.6622 Y-2.2989 Z0.276
X3.66 Y-2.2961 Z0.3048
X3.6588 Y-2.2948 Z0.327
X3.6461 Y-2.3071 Z0.3278
X3.6474 Y-2.3082 Z0.3056
X3.6501 Y-2.3107 Z0.2757
X3.6534 Y-2.3136 Z0.2504
X3.7214 Y-2.3748 Z-0.1884
X3.7215 Y-2.3749 Z-0.193
X3.7195 Y-2.3778
X3.7193 Y-2.3777 Z-0.1881
X3.6434 Y-2.3265 Z0.251
X3.6399 Y-2.3241 Z0.2762
X3.6369 Y-2.3221 Z0.305
X3.6353 Y-2.321 Z0.331
X3.6265 Y-2.3363 Z0.3351
X3.6284 Y-2.3372 Z0.3051
X3.6316 Y-2.3388 Z0.2763
X3.6355 Y-2.3407 Z0.2501
X3.7178 Y-2.3808 Z-0.1883
X3.7179 Y-2.3809 Z-0.193
X3.7168 Y-2.3841
X3.7166 Z-0.188
X3.6295 Y-2.3558 Z0.251
X3.6266 Y-2.3548 Z0.2685
X3.6241 Y-2.354 Z0.286
X3.6222 Y-2.3534 Z0.3036
X3.6207 Y-2.3529 Z0.3213
X3.6198 Y-2.3526 Z0.339
X3.6156 Y-2.3698 Z0.3476
X3.616 Z0.3348
X3.6181 Y-2.3702 Z0.3057
X3.6216 Y-2.3708 Z0.2765
X3.6256 Y-2.3715 Z0.2515
X3.716 Y-2.3875 Z-0.1886
X3.7161 Z-0.193
X3.716 Y-2.3909
X3.7159 Z-0.1884
X3.6242 Y-2.3877 Z0.2515
X3.6211 Y-2.3876 Z0.269
X3.6186 Y-2.3875 Z0.2865
X3.6165 Y-2.3874 Z0.3042
X3.6151 Z0.3219
X3.6141 Y-2.3873 Z0.3397
X3.6137 Z0.3574
Z0.3577
Z0.5604
X3.6136 Y-2.3876 Z0.5628
X3.6132 Y-2.3884 Z0.5652
X3.6126 Y-2.3897 Z0.5672
X3.6119 Y-2.3913 Z0.5688
X3.6109 Y-2.3933 Z0.57
X3.6099 Y-2.3955 Z0.5706
X3.6089 Y-2.3977
X3.6078 Y-2.3999 Z0.57
X3.6069 Y-2.4019 Z0.5688
X3.6061 Y-2.4036 Z0.5672
X3.6055 Y-2.4049 Z0.5652
X3.6052 Y-2.4057 Z0.5628
X3.605 Y-2.4059 Z0.5604
X3.6053 Z0.5583
X3.606 Y-2.4058 Z0.5563
X3.6071 Y-2.4057 Z0.5545
X3.6085 Y-2.4056 Z0.553
X3.6103 Y-2.4054 Z0.5519
X3.6123 Y-2.4052 Z0.5512
X3.6144 Y-2.405 Z0.551
Y-2.4049
X3.6145 Z0.362
X3.6148 Z0.3435
X3.6156 Y-2.4048 Z0.325
X3.6171 Y-2.4047 Z0.3065
X3.6191 Y-2.4045 Z0.2881
X3.6218 Y-2.4042 Z0.2698
X3.6249 Y-2.4038 Z0.2515
X3.7162 Y-2.3943 Z-0.1882
X3.7163 Y-2.3942 Z-0.193
X3.7171 Y-2.3975
X3.717 Z-0.1885
X3.6282 Y-2.4196 Z0.2499
X3.6251 Y-2.4204 Z0.2684
X3.6225 Y-2.4211 Z0.287
X3.6205 Y-2.4216 Z0.3057
X3.619 Y-2.4219 Z0.3244
X3.618 Y-2.4222 Z0.3432
X3.6176 Y-2.4223 Z0.362
Z0.551
X3.6174
X3.6229 Y-2.4391
X3.6233 Y-2.439
Y-2.4389 Z0.362
X3.6239 Y-2.4387 Z0.3358
X3.626 Y-2.4379 Z0.3046
X3.6293 Y-2.4365 Z0.2759
X3.6332 Y-2.4349 Z0.251
X3.7181 Y-2.4006 Z-0.1883
X3.7183 Z-0.193
X3.7199 Y-2.4035
X3.7198 Z-0.1886
X3.6404 Y-2.4493 Z0.2509
X3.6376 Y-2.4509 Z0.2693
X3.6353 Y-2.4523 Z0.2877
X3.6336 Y-2.4533 Z0.3062
X3.6323 Y-2.454 Z0.3248
X3.6315 Y-2.4545 Z0.3434
X3.6312 Y-2.4546 Z0.362
X3.6311 Y-2.4547 Z0.551
X3.6306 Y-2.455
X3.6405 Y-2.4696
X3.6411 Y-2.4691
Z0.362
X3.6414 Y-2.4689 Z0.3434
X3.6421 Y-2.4683 Z0.3248
X3.6433 Y-2.4674 Z0.3062
X3.6449 Y-2.4661 Z0.2878
X3.647 Y-2.4645 Z0.2693
X3.6495 Y-2.4625 Z0.251
X3.7217 Y-2.4061 Z-0.1885
X3.7218 Z-0.193
X3.7241 Y-2.4084
X3.724 Y-2.4085 Z-0.1884
X3.6605 Y-2.4743 Z0.2504
X3.6582 Y-2.4766 Z0.2689
X3.6563 Y-2.4786 Z0.2874
X3.6548 Y-2.4801 Z0.306
X3.6538 Y-2.4812 Z0.3246
X3.6532 Y-2.4818 Z0.3433
X3.653 Y-2.482 Z0.362
X3.6529 Y-2.4821 Z0.551
X3.6523 Y-2.4827
X3.6658 Y-2.4941
X3.6664 Y-2.4932
Z0.362
X3.6667 Y-2.4929 Z0.3432
X3.6672 Y-2.4921 Z0.3243
X3.6681 Y-2.4909 Z0.3055
X3.6694 Y-2.4892 Z0.2868
X3.6709 Y-2.487 Z0.2681
X3.6729 Y-2.4844 Z0.2496
X3.7266 Y-2.4105 Z-0.1882
Y-2.4103 Z-0.193
X3.7294 Y-2.4119
X3.7293 Y-2.4121 Z-0.1881
X3.6865 Y-2.4927 Z0.2499
X3.6849 Y-2.4956 Z0.2684
X3.6836 Y-2.498 Z0.287
X3.6826 Y-2.4999 Z0.3057
X3.6819 Y-2.5012 Z0.3244
X3.6815 Y-2.5021 Z0.3432
X3.6813 Y-2.5023 Z0.362
Y-2.5024 Z0.551
X3.6808 Y-2.5034
X3.6969 Y-2.5106
X3.6973 Y-2.5095
Y-2.5094 Z0.362
X3.6975 Y-2.5088 Z0.335
X3.6983 Y-2.5068 Z0.3059
X3.6995 Y-2.5034 Z0.2758
X3.7011 Y-2.4992 Z0.2496
X3.7323 Y-2.4133 Z-0.1881
X3.7324 Y-2.4132 Z-0.193
X3.7354 Y-2.414
Y-2.4142 Z-0.1881
X3.7164 Y-2.5034 Z0.2495
X3.7157 Y-2.5066 Z0.268
X3.7152 Y-2.5093 Z0.2867
X3.7147 Y-2.5114 Z0.3055
X3.7144 Y-2.5129 Z0.3243
X3.7142 Y-2.5138 Z0.3432
X3.7141 Y-2.5142 Z0.362
Z0.551
X3.7139 Y-2.5155
X3.7313 Y-2.5179
X3.7314 Y-2.5165
Z0.362
X3.7315 Y-2.5162 Z0.343
Y-2.5153 Z0.324
X3.7316 Y-2.5137 Z0.3051
X3.7318 Y-2.5116 Z0.2863
X3.732 Y-2.5088 Z0.2675
X3.7322 Y-2.5055 Z0.2488
X3.7386 Y-2.4146 Z-0.188
Y-2.4144 Z-0.193
X3.7417
X3.7418 Y-2.4146 Z-0.188
X3.7481 Y-2.5055 Z0.2488
X3.7483 Y-2.5088 Z0.2675
X3.7485 Y-2.5116 Z0.2863
X3.7487 Y-2.5138 Z0.3051
X3.7488 Y-2.5153 Z0.3241
X3.7489 Y-2.5162 Z0.343
Y-2.5165 Z0.362
Z0.551
X3.749 Y-2.5179
X3.7665 Y-2.5155
X3.7662 Y-2.5142
Z0.362
X3.7661 Y-2.5138 Z0.3432
X3.7659 Y-2.5129 Z0.3243
X3.7656 Y-2.5114 Z0.3055
X3.7651 Y-2.5093 Z0.2867
X3.7646 Y-2.5066 Z0.268
X3.7639 Y-2.5034 Z0.2495
X3.7449 Y-2.4142 Z-0.1881
Y-2.414 Z-0.193
X3.748 Y-2.4132
Y-2.4133 Z-0.1881
X3.7793 Y-2.4992 Z0.2496
X3.7804 Y-2.5023 Z0.2682
X3.7813 Y-2.5048 Z0.2868
X3.782 Y-2.5068 Z0.3056
X3.7826 Y-2.5082 Z0.3243
X3.7829 Y-2.5091 Z0.3431
X3.783 Y-2.5094 Z0.362
Z0.551
X3.7834 Y-2.5106
X3.7995 Y-2.5034
X3.799 Y-2.5024
Z0.362
X3.7987 Y-2.5018 Z0.3369
X3.7976 Y-2.4998 Z0.3052
X3.7959 Y-2.4966 Z0.2753
X3.7939 Y-2.4927 Z0.2499
X3.751 Y-2.4121 Z-0.1882
X3.7509 Y-2.4119 Z-0.193
X3.7537 Y-2.4103
X3.7538 Y-2.4105 Z-0.1882
X3.8074 Y-2.4843 Z0.2494
X3.8094 Y-2.487 Z0.268
X3.811 Y-2.4892 Z0.2867
X3.8122 Y-2.4909 Z0.3055
X3.8131 Y-2.4921 Z0.3243
X3.8137 Y-2.4929 Z0.3431
X3.8139 Y-2.4932 Z0.362
Z0.551
X3.8145 Y-2.4941
X3.828 Y-2.4827
X3.8273 Y-2.482
Z0.362
X3.8269 Y-2.4816 Z0.3357
X3.8254 Y-2.48 Z0.3047
X3.8229 Y-2.4774 Z0.275
X3.8199 Y-2.4743 Z0.2506
X3.7563 Y-2.4085 Z-0.1883
X3.7562 Y-2.4084 Z-0.193
X3.7585 Y-2.4061
X3.7586 Z-0.1885
X3.8308 Y-2.4625 Z0.251
X3.8333 Y-2.4645 Z0.2694
X3.8354 Y-2.4661 Z0.2878
X3.837 Y-2.4674 Z0.3062
X3.8382 Y-2.4683 Z0.3248
X3.8389 Y-2.4689 Z0.3434
X3.8392 Y-2.4691 Z0.362
Z0.551
X3.8398 Y-2.4696
X3.8497 Y-2.455
X3.8492 Y-2.4547
X3.8491 Y-2.4546 Z0.3619
X3.8485 Y-2.4543 Z0.334
X3.8467 Y-2.4532 Z0.3053
X3.8436 Y-2.4515 Z0.2763
X3.8399 Y-2.4493 Z0.2509
X3.7606 Y-2.4035 Z-0.1882
X3.7605 Z-0.193
X3.762 Y-2.4006
X3.7622 Z-0.1883
X3.8471 Y-2.4349 Z0.2511
X3.8501 Y-2.4362 Z0.2694
X3.8526 Y-2.4372 Z0.2878
X3.8545 Y-2.4379 Z0.3063
X3.8559 Y-2.4385 Z0.3248
X3.8567 Y-2.4388 Z0.3434
X3.857 Y-2.4389 Z0.362
Y-2.439 Z0.551
X3.8574 Y-2.4391
X3.8629 Y-2.4223
X3.8628
X3.8627 Z0.362
X3.8623 Y-2.4222 Z0.3432
X3.8614 Y-2.422 Z0.3244
X3.8599 Y-2.4216 Z0.3057
X3.8578 Y-2.4211 Z0.287
X3.8553 Y-2.4204 Z0.2684
X3.8521 Y-2.4197 Z0.2499
X3.7633 Y-2.3975 Z-0.1885
X3.7632 Z-0.193
X3.764 Y-2.3942
X3.7642 Y-2.3943 Z-0.1882
X3.8554 Y-2.4038 Z0.2515
X3.8586 Y-2.4042 Z0.2698
X3.8612 Y-2.4045 Z0.2881
X3.8632 Y-2.4047 Z0.3065
X3.8647 Y-2.4048 Z0.325
X3.8655 Y-2.4049 Z0.3435
X3.8658 Z0.362
X3.8659 Z0.551
X3.866 Y-2.405
X3.868 Y-2.4052 Z0.5512
X3.87 Y-2.4054 Z0.5519
X3.8718 Y-2.4056 Z0.553
X3.8733 Y-2.4057 Z0.5545
X3.8744 Y-2.4058 Z0.5563
X3.8751 Y-2.4059 Z0.5583
X3.8753 Z0.5604
X3.8752 Y-2.4057 Z0.5628
X3.8748 Y-2.4049 Z0.5652
X3.8742 Y-2.4036 Z0.5672
X3.8734 Y-2.4019 Z0.5688
X3.8725 Y-2.3999 Z0.57
X3.8715 Y-2.3977 Z0.5706
X3.8704 Y-2.3955
X3.8694 Y-2.3933 Z0.57
X3.8685 Y-2.3913 Z0.5688
X3.8677 Y-2.3897 Z0.5672
X3.8671 Y-2.3884 Z0.5652
X3.8667 Y-2.3876 Z0.5628
X3.8666 Y-2.3873 Z0.5604
Z0.3577
Z0.3574
X3.866 Z0.3347
X3.8639 Y-2.3874 Z0.3055
X3.8602 Y-2.3875 Z0.2755
X3.8561 Y-2.3877 Z0.2511
X3.7645 Y-2.3909 Z-0.1882
X3.7643 Z-0.193
X3.7642 Y-2.3875
X3.7643 Z-0.1886
X3.8547 Y-2.3715 Z0.2516
X3.8579 Y-2.371 Z0.2706
X3.8605 Y-2.3705 Z0.2898
X3.8626 Y-2.3702 Z0.309
X3.864 Y-2.3699 Z0.3283
X3.8648 Y-2.3698 Z0.3476
X3.8605 Y-2.3526 Z0.339
X3.8603 Y-2.3527 Z0.3352
X3.8583 Y-2.3533 Z0.3058
X3.8549 Y-2.3545 Z0.2757
X3.8508 Y-2.3558 Z0.251
X3.7637 Y-2.3841 Z-0.188
X3.7635 Z-0.193
X3.7624 Y-2.3809
X3.7626 Y-2.3808 Z-0.1882
X3.8448 Y-2.3407 Z0.2499
X3.8487 Y-2.3388 Z0.276
X3.8519 Y-2.3372 Z0.3049
X3.8539 Y-2.3363 Z0.3351
X3.845 Y-2.321 Z0.331
X3.8434 Y-2.3221 Z0.3059
X3.8404 Y-2.3241 Z0.2757
X3.8368 Y-2.3265 Z0.2506
X3.761 Y-2.3777 Z-0.1882
X3.7608 Y-2.3778 Z-0.193
X3.7588 Y-2.3749
X3.7589 Y-2.3748 Z-0.1883
X3.8269 Y-2.3136 Z0.2504
X3.8302 Y-2.3107 Z0.2757
X3.8329 Y-2.3082 Z0.3058
X3.8342 Y-2.3071 Z0.3278
X3.8215 Y-2.2948 Z0.327
X3.8204 Y-2.2961 Z0.3054
X3.8181 Y-2.2988 Z0.2764
X3.8153 Y-2.3022 Z0.2503
X3.7565 Y-2.3723 Z-0.1882
X3.7564 Y-2.3724 Z-0.193
X3.7536 Y-2.3702
Z-0.1889
X3.8021 Y-2.2926 Z0.2499
X3.8044 Y-2.2889 Z0.2754
X3.8064 Y-2.2858 Z0.3053
X3.8072 Y-2.2845 Z0.3256
X3.7916 Y-2.2762 Z0.3231
X3.7911 Y-2.2774 Z0.3056
X3.7896 Y-2.2807 Z0.2757
X3.7877 Y-2.2849 Z0.2497
X3.7506 Y-2.3684 Z-0.1884
X3.7505 Y-2.3685 Z-0.193
X3.7472 Y-2.3671
Z-0.1886
X3.7724 Y-2.2793 Z0.2493
X3.7736 Y-2.275 Z0.2756
X3.7746 Y-2.2715 Z0.3056
X3.775 Y-2.2701 Z0.3234
X3.7578 Y-2.2665 Z0.3229
X3.7576 Y-2.2678 Z0.3054
X3.7571 Y-2.2714 Z0.2755
X3.7564 Y-2.276 Z0.2488
X3.7437 Y-2.3663 Z-0.1885
Y-2.3664 Z-0.193
X3.7433 Y-2.3696 Z-0.1927
X3.7428 Y-2.3727 Z-0.1919
X3.7424 Y-2.3757 Z-0.1905
X3.742 Y-2.3783 Z-0.1886
X3.7417 Y-2.3806 Z-0.1863
X3.7415 Y-2.3825 Z-0.1836
X3.7413 Y-2.3838 Z-0.1807
X3.7411 Y-2.3847 Z-0.1775
Y-2.385 Z-0.1743
G0 Z1.3
M5
G53 G0 Z-0.6
(2D CHAMFER2 25)
M9
M1
T13 M6
T32
S7500 M3
G17 G90 G94
G54
M8
G0 X2.2094 Y-2.3205
G43 Z0.7 H13
G0 Z0.6
G1 Z0.495 F80.
G3 X2.3894 Y-2.1405 I0. J0.18 F30.
G1 Y-0.3543
G2 X2.5591 Y-0.1847 I0.1696 J0.
G1 X2.7165
G2 X2.8861 Y-0.3543 I0. J-0.1696
G1 Y-2.1405
G3 X3.0661 Y-2.3205 I0.18 J0.
G0 Z0.6
X3.3118
G1 Z0.495 F80.
G3 X3.4918 Y-2.1405 I0. J0.18 F30.
G1 Y-0.3543
G2 X3.6614 Y-0.1847 I0.1696 J0.
G1 X3.8189
G2 X3.9885 Y-0.3543 I0. J-0.1696
G1 Y-2.1405
G3 X4.1685 Y-2.3205 I0.18 J0.
G0 Z0.6
X1.1071
G1 Z0.495 F80.
G3 X1.2871 Y-2.1405 I0. J0.18 F30.
G1 Y-0.3543
G2 X1.4567 Y-0.1847 I0.1696 J0.
G1 X1.6142
G2 X1.7838 Y-0.3543 I0. J-0.1696
G1 Y-2.1405
G3 X1.9638 Y-2.3205 I0.18 J0.
G0 Z0.6
X0.0047
G1 Z0.495 F80.
G3 X0.1847 Y-2.1405 I0. J0.18 F30.
G1 Y-0.3543
G2 X0.3543 Y-0.1847 I0.1696 J0.
G1 X0.5118
G2 X0.6814 Y-0.3543 I0. J-0.1696
G1 Y-2.1405
G3 X0.8614 Y-2.3205 I0.18 J0.
G0 Z0.7
(2D CHAMFER1 19)
S5000 M3
G0 Z1.15
X1.5924 Y-2.2774
Z0.63
G1 Z0.502 F80.
X1.6093 Y-2.2439 F20.
G3 X1.4616 Y-2.5367 I-0.0738 J-0.1464
X1.6093 Y-2.2439 I0.0738 J0.1464
G1 X1.5924 Y-2.2774
G0 Z0.75
X1.8263 Y-2.1405
Z0.63
G1 Z0.502 F80.
X1.7888 F20.
G3 X1.8154 Y-2.2719 I0.3372 J0.
G2 X1.2554 Y-2.5087 I-0.28 J-0.1184
Y-2.2719 I0.28 J0.1184
G3 X1.2821 Y-2.1405 I-0.3106 J0.1314
G1 X1.2446
G0 Z0.75
X0.7239
Z0.63
G1 Z0.502 F80.
X0.6864 F20.
G3 X0.7131 Y-2.2719 I0.3372 J0.
G2 X0.1531 Y-2.5087 I-0.28 J-0.1184
Y-2.2719 I0.28 J0.1184
G3 X0.1797 Y-2.1405 I-0.3106 J0.1314
G1 X0.1422
G0 Z0.75
X0.49 Y-2.2774
Z0.63
G1 Z0.502 F80.
X0.5069 Y-2.2439 F20.
G3 X0.3592 Y-2.5367 I-0.0738 J-0.1464
X0.5069 Y-2.2439 I0.0738 J0.1464
G1 X0.49 Y-2.2774
G0 Z0.75
X2.9286 Y-2.1405
Z0.63
G1 Z0.502 F80.
X2.8911 F20.
G3 X2.9178 Y-2.2719 I0.3372 J0.
G2 X2.3578 Y-2.5087 I-0.28 J-0.1184
Y-2.2719 I0.28 J0.1184
G3 X2.3844 Y-2.1405 I-0.3106 J0.1314
G1 X2.3469
G0 Z0.75
X3.7971 Y-2.2774
Z0.63
G1 Z0.502 F80.
X3.814 Y-2.2439 F20.
G3 X3.6663 Y-2.5367 I-0.0738 J-0.1464
X3.814 Y-2.2439 I0.0738 J0.1464
G1 X3.7971 Y-2.2774
G0 Z0.75
X4.031 Y-2.1405
Z0.63
G1 Z0.502 F80.
X3.9935 F20.
G3 X4.0201 Y-2.2719 I0.3372 J0.
G2 X3.4602 Y-2.5087 I-0.28 J-0.1184
Y-2.2719 I0.28 J0.1184
G3 X3.4868 Y-2.1405 I-0.3106 J0.1314
G1 X3.4493
G0 Z1.15
M5
M9
G53 G0 Z-0.6
M30
%
