
%
(OP1 - 2,5X2,5X0,75 IN VICE)
(MACHINE)
(  VENDOR CALLUM)
(  MODEL MILL R1)
(  DESCRIPTION 14X8X14 MILL)
(T12 D=0.2362 CR=0. TAPER=45DEG - ZMIN=0.1729 - CHAMFER MILL)
(T32 D=0.1875 CR=0. - ZMIN=0.1679 - FLAT END MILL)
G90 G94 G17 G91.1
G20
G53 G0 Z-0.6
(ADAPTIVE2)
T32 M6
T12
S5000 M3
G17 G90 G94
G54
G64 P0.004 Q0.004
M8
G0 X-0.0186 Y-2.7184
G43 Z1.3507 H32
G0 Z0.2554
G1 Z0.2366 F40.
Y-2.7181 Z0.2333
X-0.0183 Y-2.7173 Z0.2302
X-0.018 Y-2.716 Z0.2272
X-0.0175 Y-2.7141 Z0.2245
X-0.017 Y-2.7119 Z0.2222
X-0.0163 Y-2.7093 Z0.2204
X-0.0156 Y-2.7064 Z0.219
X-0.0148 Y-2.7034 Z0.2181
X-0.014 Y-2.7002 Z0.2179
G3 X0.0007 Y-2.5981 I-0.4637 J0.1188
G1 Y-2.5932
X-0.0181 Y-2.5682
X-0.0315 Y-2.5399
X-0.0405 Y-2.51
G2 X-0.0535 Y-2.3857 I0.619 J0.1274
X-0.0555 Y-2.0728 I10.7866 J0.2271
G1 Y-0.6333
Y-0.0701
X-0.054 Y-0.0545
X-0.0491 Y-0.0396
X-0.0342 Y-0.0121
X-0.0116 Y0.0096
X0.0153 Y0.0255
X0.0446 Y0.0365
X0.075 Y0.0438
G2 X0.1996 Y0.054 I0.1265 J-0.7829
X0.3874 Y0.0555 I0.1518 J-7.3789
G1 X0.5751 Y0.0556
X1.2949 Y0.0555
X2.437
X2.4524 Y0.0527
X2.4814 Y0.041
X2.505 Y0.0204
X2.5227 Y-0.0054
X2.5351 Y-0.0341
X2.5435 Y-0.0643
G2 X2.5553 Y-0.1887 I-0.6767 J-0.127
X2.5571 Y-0.5329 I-12.8492 J-0.2381
G1 Y-0.7207
X2.557 Y-2.4418
X2.5532 Y-2.4569
X2.5399 Y-2.4853
X2.5184 Y-2.508
X2.492 Y-2.5248
X2.463 Y-2.5366
X2.4327 Y-2.5444
X2.4019 Y-2.5494
X2.3707 Y-2.5526
X2.3395 Y-2.5544
G2 X2.1205 Y-2.557 I-0.1737 J5.4838
G1 X1.964 Y-2.5572
X0.3681
X0.1178
X0.0868 Y-2.5527
X0.0591 Y-2.538
X0.0366 Y-2.5163
X0.0193 Y-2.4902
X0.0068 Y-2.4615
X-0.002 Y-2.4315
G2 X-0.0155 Y-2.3072 I0.6453 J0.1331
X-0.0179 Y-2.0882 I5.9757 J0.1742
G1 X-0.018 Y-1.9318
Y-0.8991
Y-0.1481
X-0.0176 Y-0.1168
X-0.0094 Y-0.0866
X0.0069 Y-0.0599
X0.0292 Y-0.0379
X0.0554 Y-0.0208
X0.084 Y-0.0082
X0.114 Y0.0008
G2 X0.2381 Y0.0152 I0.136 J-0.6295
X0.4571 Y0.0179 I0.1759 J-5.3754
G1 X0.5823 Y0.0181
X1.1143 Y0.018
X2.366
X2.3971 Y0.0153
X2.4262 Y0.0037
X2.4512 Y-0.0151
X2.4712 Y-0.0392
X2.4864 Y-0.0665
X2.4975 Y-0.0958
X2.5051 Y-0.1261
G2 X2.5173 Y-0.2506 I-0.7424 J-0.1351
X2.5195 Y-0.4696 I-6.4886 J-0.1754
G1 X2.5196 Y-0.6261
X2.5195 Y-2.3784
X2.5133 Y-2.4091
X2.4986 Y-2.4367
X2.4774 Y-2.4597
X2.4518 Y-2.4778
X2.4236 Y-2.4912
X2.3938 Y-2.5009
X2.3632 Y-2.5075
G2 X2.2073 Y-2.5183 I-0.1493 J1.0213
X1.8318 Y-2.5197 I-0.2605 J20.0878
G1 X0.3923
X0.1733
X0.1423 Y-2.5151
X0.1137 Y-2.5024
X0.0892 Y-2.4829
X0.0694 Y-2.4587
X0.0543 Y-2.4313
X0.0432 Y-2.4021
G2 X0.0239 Y-2.2787 I0.498 J0.141
X0.0199 Y-2.091 I3.1662 J0.1615
G1 X0.0196 Y-2.0284
X0.0195 Y-1.9032
Y-0.8393
Y-0.2135
X0.0196 Y-0.1822
X0.0235 Y-0.1511
X0.035 Y-0.122
X0.0533 Y-0.0966
X0.0766 Y-0.0757
X0.1032 Y-0.0593
X0.132 Y-0.047
X0.162 Y-0.0381
G2 X0.286 Y-0.0229 I0.1412 J-0.6389
X0.5363 Y-0.0197 I0.1964 J-5.5221
G1 X0.6615 Y-0.0194
X1.2561 Y-0.0195
X2.2887
X2.32 Y-0.0196
X2.351 Y-0.0235
X2.3801 Y-0.0352
X2.4055 Y-0.0535
X2.4264 Y-0.0768
X2.4427 Y-0.1035
X2.4549 Y-0.1323
X2.4637 Y-0.1623
G2 X2.4787 Y-0.2864 I-0.6478 J-0.1412
X2.4819 Y-0.5367 I-5.5762 J-0.1965
G1 X2.4821 Y-0.6619
Y-0.8496
X2.482 Y-2.3204
X2.478 Y-2.3514
X2.4662 Y-2.3804
X2.4478 Y-2.4057
X2.4244 Y-2.4265
X2.3977 Y-2.4427
X2.3688 Y-2.4549
X2.3388 Y-2.4637
G2 X2.2147 Y-2.4787 I-0.1412 J0.6474
X2.0583 Y-2.4818 I-0.1457 J3.4536
G1 X2.027 Y-2.482
X1.9644 Y-2.4821
X1.8393 Y-2.4822
X0.2433
X0.2121 Y-2.4815
X0.1815 Y-2.4747
X0.1535 Y-2.4608
X0.1294 Y-2.4409
X0.1097 Y-2.4165
X0.0944 Y-2.3892
X0.083 Y-2.3601
G2 X0.0623 Y-2.237 I0.4863 J0.1452
X0.0574 Y-2.018 I3.2681 J0.1818
G1 X0.0571 Y-1.9554
X0.057 Y-1.8303
Y-0.4534
X0.0571 Y-0.2344
X0.0599 Y-0.2032
X0.0694 Y-0.1734
X0.0857 Y-0.1467
X0.1073 Y-0.124
X0.1327 Y-0.1057
X0.1606 Y-0.0916
X0.19 Y-0.081
G2 X0.3135 Y-0.0619 I0.1465 J-0.5376
X0.5324 Y-0.0574 I0.1826 J-3.5111
G1 X0.595 Y-0.057
X0.7202
X1.7215
X2.2535
X2.2848 Y-0.0578
X2.3154 Y-0.0642
X2.3437 Y-0.0775
X2.3683 Y-0.0969
X2.3885 Y-0.1208
X2.4044 Y-0.1478
X2.4164 Y-0.1767
X2.4252 Y-0.2067
G2 X2.4407 Y-0.3307 I-0.6519 J-0.1445
X2.4444 Y-0.581 I-5.1533 J-0.1996
G1 X2.4446 Y-0.7062
Y-1.3946
X2.4445 Y-2.2708
X2.4411 Y-2.3019
X2.4307 Y-2.3314
X2.4138 Y-2.3577
X2.3917 Y-2.3799
X2.366 Y-2.3977
X2.3378 Y-2.4114
X2.3082 Y-2.4216
G2 X2.1846 Y-2.4399 I-0.1462 J0.56
X1.9657 Y-2.4443 I-0.1826 J3.6766
G1 X1.9031 Y-2.4446
X1.7779 Y-2.4447
X1.4337
X0.3072
X0.2759 Y-2.4445
X0.2447 Y-2.4419
X0.2148 Y-2.4327
X0.1878 Y-2.417
X0.1647 Y-2.3958
X0.146 Y-2.3708
X0.1313 Y-2.3431
X0.1203 Y-2.3138
X0.1123 Y-2.2835
X0.1086 Y-2.2707
X0.1024 Y-2.2589
X0.094 Y-2.2485
G2 X0.0647 Y-2.1823 I0.0748 J0.0727
G1 X0.0644 Y-2.1609
Y-0.3406
X0.0647 Y-0.3193
G2 X0.0733 Y-0.2838 I0.1029 J-0.0061
G1 X0.0759 Y-0.2767
X0.0854 Y-0.2469
X0.0971 Y-0.2179
X0.1138 Y-0.1914
X0.1351 Y-0.1685
X0.16 Y-0.1496
X0.1875 Y-0.1346
X0.2155 Y-0.1235
X0.2239 Y-0.1195
X0.2317 Y-0.1143
X0.2388 Y-0.1082
G3 X0.2438 Y-0.0954 Z0.2217 I-0.0137 J0.0128
X0.2379 Y-0.0817 Z0.2259 I-0.0188 J0.
G1 X0.2376 Y-0.0815
G3 X0.2114 Y-0.0826 I-0.0125 J-0.014 F300.
G1 X0.043 Y-0.2621
G3 X0.0379 Y-0.2749 I0.0137 J-0.0128
G1 Y-0.275
G3 X0.0476 Y-0.2913 I0.0187 J0.
G1 X0.0479 Y-0.2915 F40.
G3 X0.0733 Y-0.2837 Z0.2179 I0.0088 J0.0166
G2 X0.0989 Y-0.2482 I0.1027 J-0.0469
G1 X0.177 Y-0.1698
X0.2554 Y-0.0917
G2 X0.3193 Y-0.0646 I0.0708 J-0.0782
G1 X0.3406 Y-0.0644
X2.1609
X2.1823 Y-0.0647
G2 X2.2178 Y-0.0733 I-0.0061 J-0.1029
G1 X2.2256 Y-0.0762
X2.2555 Y-0.0857
X2.2845 Y-0.0974
X2.3109 Y-0.1142
X2.3337 Y-0.1356
X2.3526 Y-0.1605
X2.3676 Y-0.188
X2.3785 Y-0.2158
X2.3825 Y-0.2243
X2.3876 Y-0.2321
X2.3938 Y-0.2392
G3 X2.4066 Y-0.2443 Z0.2217 I0.0128 J0.0137
X2.4203 Y-0.2383 Z0.2259 I0. J0.0188
G1 X2.4206 Y-0.238
G3 X2.4194 Y-0.2118 I-0.014 J0.0125 F300.
G1 X2.2394 Y-0.043
G3 X2.2266 Y-0.0379 I-0.0128 J-0.0137
X2.2102 Y-0.0476 I0. J-0.0187
G1 X2.21 Y-0.0479 F40.
G3 X2.2178 Y-0.0733 Z0.2179 I0.0166 J-0.0088
G2 X2.2534 Y-0.0989 I-0.0469 J-0.1027
X2.4098 Y-0.2554 I-26.8489 J-26.9936
X2.4369 Y-0.3193 I-0.0782 J-0.0708
G1 X2.4372 Y-0.3406
Y-2.1609
X2.4369 Y-2.1823
G2 X2.4283 Y-2.2178 I-0.1029 J0.0061
G1 X2.4256 Y-2.2251
X2.4161 Y-2.2549
X2.4043 Y-2.2839
X2.3877 Y-2.3104
X2.3663 Y-2.3332
X2.3414 Y-2.3522
X2.3139 Y-2.3672
X2.286 Y-2.3782
X2.2776 Y-2.3822
X2.2698 Y-2.3873
X2.2627 Y-2.3934
G3 X2.2577 Y-2.4062 Z0.2217 I0.0137 J-0.0128
X2.2636 Y-2.4199 Z0.2259 I0.0187 J0.
G1 X2.2639 Y-2.4202
G3 X2.2901 Y-2.4191 I0.0125 J0.014 F300.
G1 X2.4586 Y-2.2394
G3 X2.4636 Y-2.2266 I-0.0137 J0.0128
X2.454 Y-2.2102 I-0.0187 J0.
G1 X2.4537 Y-2.21 F40.
G3 X2.4283 Y-2.2178 Z0.2179 I-0.0088 J-0.0166
G2 X2.4027 Y-2.2534 I-0.1027 J0.0469
G1 X2.3246 Y-2.3317
X2.2462 Y-2.4098
G2 X2.1823 Y-2.4369 I-0.0708 J0.0782
G1 X2.1609 Y-2.4372
X0.3406
X0.3193 Y-2.4369
G2 X0.2643 Y-2.417 I0.0059 J0.1022
G1 X0.2386 Y-2.399
X0.2149 Y-2.3786
G2 X0.1844 Y-2.3391 I0.2386 J0.2158
G1 X0.1807 Y-2.3353
G3 X0.1542 Y-2.3362 Z0.2259 I-0.0128 J-0.0137
G1 X0.1539 Y-2.3365
G3 X0.1548 Y-2.3624 I0.014 J-0.0125 F300.
G1 X0.2392 Y-2.4448
G3 X0.2664 Y-2.4436 I0.0131 J0.0134
G1 X0.2667 Y-2.4433 F40.
G3 X0.2643 Y-2.4169 Z0.2179 I-0.0144 J0.012
G1 X0.2624 Y-2.4155
X0.2553 Y-2.4098
X0.1745 Y-2.3292
X0.094 Y-2.2485
G3 X0.0832 Y-2.2435 I-0.0129 J-0.0136
G1 X0.0812 Y-2.2434 Z0.218
X0.0786 Y-2.2439 Z0.2184
X0.076 Y-2.2444 Z0.2193
X0.0737 Y-2.2449 Z0.2205
X0.0717 Y-2.2463 Z0.2223
X0.07 Y-2.2475 Z0.2244
X0.0686 Y-2.2485 Z0.2268
X0.0675 Y-2.2493 Z0.2294
X0.067 Y-2.2499 Z0.2317
X0.0666 Y-2.2502 Z0.2341
X0.0665 Y-2.2503 Z0.2366
G0 Z0.9507
X1.1563 Y-1.2219
Z0.7907
G3 X1.2589 Y-1.3493 Z0.7738 I0.0945 J-0.0289 F40.
X1.3391 Y-1.2073 Z0.757 I-0.008 J0.0982
X1.1781 Y-1.1853 Z0.7401 I-0.088 J-0.0436
X1.2169 Y-1.3426 Z0.7233 I0.0728 J-0.0655
X1.3483 Y-1.2487 Z0.7064 I0.0338 J0.0916
X1.2129 Y-1.1615 Z0.6896 I-0.0973 J-0.0024
X1.182 Y-1.3191 Z0.6727 I0.038 J-0.0893
X1.3394 Y-1.2897 Z0.6559 I0.0687 J0.0681
X1.2542 Y-1.1547 Z0.639 I-0.0884 J0.0386
X1.1605 Y-1.2833 Z0.6222 I-0.0032 J-0.0961
X1.3142 Y-1.3227 Z0.6053 I0.0902 J0.0324
X1.2941 Y-1.1659 Z0.5885 I-0.0633 J0.0716
X1.1562 Y-1.2422 Z0.5716 I-0.0431 J-0.085
X1.2777 Y-1.3419 Z0.5548 I0.0946 J-0.0086
X1.3253 Y-1.1926 Z0.538 I-0.0269 J0.0908
X1.1695 Y-1.2035 Z0.5211 I-0.0742 J-0.0583
X1.2369 Y-1.3438 Z0.5043 I0.0813 J-0.0473
X1.3421 Y-1.2297 Z0.4874 I0.0139 J0.0928
X1.1976 Y-1.1743 Z0.4706 I-0.091 J-0.0213
X1.1995 Y-1.3285 Z0.4537 I0.0533 J-0.0765
X1.3417 Y-1.27 Z0.4369 I0.0512 J0.0775
X1.2351 Y-1.1598 Z0.42 I-0.0907 J0.0189
X1.1723 Y-1.2991 Z0.4032 I0.0159 J-0.091
X1.3245 Y-1.306 Z0.3863 I0.0784 J0.0482
X1.2748 Y-1.1625 Z0.3695 I-0.0735 J0.0549
X1.1602 Y-1.2613 Z0.3526 I-0.0238 J-0.0883
X1.2939 Y-1.3311 Z0.3358 I0.0906 J0.0105
X1.3094 Y-1.1816 Z0.3189 I-0.043 J0.08
X1.1651 Y-1.2223 Z0.3021 I-0.0583 J-0.0693
X1.256 Y-1.3409 Z0.2852 I0.0857 J-0.0285
X1.3324 Y-1.2131 Z0.2684 I-0.0052 J0.0898
X1.1859 Y-1.1894 Z0.2515 I-0.0813 J-0.0379
X1.2178 Y-1.3338 Z0.2347 I0.065 J-0.0614
X1.3398 Y-1.251 Z0.2179 I0.0329 J0.0828
X1.1617 I-0.0891 J0.
X1.3398 I0.0891 J0.
G1 X1.3408 Y-1.2197
G3 X1.3193 Y-1.1682 I-0.0631 J0.0039
X1.2025 Y-1.1508 I-0.0706 J-0.0734
X1.2987 Y-1.3521 I0.0481 J-0.1007
X1.3536 Y-1.2943 I-0.0481 J0.1007
X1.3648 Y-1.2029 I-0.1321 J0.0626
X1.2406 Y-1.1167 I-0.1143 J-0.0321
X1.1221 Y-1.2957 I0.0077 J-0.1338
X1.3674 Y-1.3218 I0.1287 J0.0443
X1.3768 Y-1.1655 I-0.1266 J0.0861
X1.1733 Y-1.1093 I-0.1303 J-0.0753
X1.1009 Y-1.1883 I0.0713 J-0.138
X1.3753 Y-1.3558 I0.1498 J-0.063
X1.3821 Y-1.126 I-0.1311 J0.1188
X1.1168 Y-1.1171 I-0.1367 J-0.1178
X1.327 Y-1.4253 I0.1333 J-0.1348
X1.4041 Y-1.1085 I-0.0829 J0.1879
X1.3603 Y-1.0694 I-0.1733 J-0.1501
X1.059 Y-1.1465 I-0.1153 J-0.1767
X1.358 Y-1.4421 I0.1914 J-0.1054
X1.3675 Y-1.039 I-0.1121 J0.2043
X1.0141 Y-1.1755 I-0.1225 J-0.2087
X1.008 Y-1.3064 I0.2279 J-0.0762
X1.4041 Y-1.4479 I0.2431 J0.0554
X1.2087 Y-0.9779 I-0.1573 J0.2102
X0.99 Y-1.3512 I0.0378 J-0.2729
X1.1999 Y-1.5261 I0.2594 J0.0979
X1.5055 Y-1.3754 I0.0507 J0.2822
X1.2491 Y-0.9444 I-0.258 J0.1383
X0.9402 Y-1.2432 I-0.004 J-0.3049
X1.2841 Y-1.5604 I0.31 J-0.0089
X1.5585 Y-1.1454 I-0.0362 J0.3221
X1.1701 Y-0.921 I-0.3126 J-0.0928
X0.9299 Y-1.3718 I0.0762 J-0.33
X1.1699 Y-1.5846 I0.3194 J0.1184
X1.5689 Y-1.3919 I0.0813 J0.3412
X1.2698 Y-0.8811 I-0.3215 J0.1547
X0.8759 Y-1.2391 I-0.0251 J-0.3681
X0.9215 Y-1.4319 I0.3664 J-0.0151
X1.4625 Y-1.5626 I0.3301 J0.1816
X1.2733 Y-0.8484 I-0.2154 J0.3251
X0.9301 Y-0.9996 I-0.0298 J-0.3972
X1.3107 Y-1.6553 I0.3199 J-0.2526
X1.6673 Y-1.2848 I-0.0608 J0.4154
X1.4899 Y-0.8912 I-0.4186 J0.0481
X0.8921 Y-0.9949 I-0.2465 J-0.3538
X1.2493 Y-1.6931 I0.3576 J-0.2576
X1.55 Y-1.5796 I0.0036 J0.4456
X1.2585 Y-0.7806 I-0.3033 J0.3421
X0.7774 Y-1.208 I-0.0142 J-0.4685
X0.7958 Y-1.3907 I0.4591 J-0.0459
X1.4736 Y-1.6727 I0.4558 J0.1399
X1.4033 Y-0.7724 I-0.2261 J0.4352
X0.7703 Y-1.0829 I-0.1598 J-0.4748
X1.3205 Y-1.7565 I0.4799 J-0.1695
X1.4652 Y-1.7151 I-0.0617 J0.4895
X1.7715 Y-1.2157 I-0.2172 J0.4768
G1 X1.7703 Y-1.201
X1.7697 Y-1.1939
X1.7691 Y-1.1868
X1.7668 Y-1.1655
X1.7652 Y-1.1583
X1.7499 Y-1.0944
G3 X1.7182 Y-1.0161 I-1.1057 J-0.4021
G1 X1.7059 Y-0.9948
X1.7016 Y-0.9877
X1.6754 Y-0.945
G3 X1.6211 Y-0.881 I-1.9986 J-1.6427
X1.5566 Y-0.8261 I-1.927 J-2.1972
X1.4814 Y-0.7814 I-0.7729 J-1.2123
G1 X1.4357 Y-0.7626
X1.4118 Y-0.753
X1.4072 Y-0.7517
X1.3432 Y-0.7363
X1.3361 Y-0.7347
G3 X1.2366 Y-0.7283 I-0.0999 J-0.7678
X1.1583 Y-0.7361 I0.0554 J-0.9501
G1 X1.0944 Y-0.7517
G3 X1.0161 Y-0.7834 I0.4021 J-1.1057
G1 X0.9948 Y-0.7957
X0.9877 Y-0.8
X0.945 Y-0.8262
G3 X0.8805 Y-0.881 I1.6121 J-1.9595
X0.8261 Y-0.945 I2.0617 J-1.8091
X0.7814 Y-1.0201 I1.205 J-0.7687
G1 X0.7626 Y-1.0659
X0.753 Y-1.0897
X0.7517 Y-1.0944
X0.7363 Y-1.1583
X0.7347 Y-1.1655
G3 X0.7283 Y-1.265 I0.7678 J-0.0999
X0.7361 Y-1.3433 I0.9501 J0.0554
G1 X0.7517 Y-1.4072
G3 X0.7834 Y-1.4855 I1.1057 J0.4021
G1 X0.7957 Y-1.5068
X0.8 Y-1.5139
X0.8262 Y-1.5565
G3 X0.881 Y-1.621 I1.9594 J1.612
X0.945 Y-1.6755 I1.8093 J2.0619
X1.0201 Y-1.7202 I0.7687 J1.205
G1 X1.0659 Y-1.739
X1.0897 Y-1.7485
X1.0944 Y-1.7499
X1.1583 Y-1.7652
X1.1655 Y-1.7668
G3 X1.265 Y-1.7733 I0.0999 J0.7678
X1.3433 Y-1.7655 I-0.0554 J0.9502
G1 X1.4072 Y-1.7499
G3 X1.4855 Y-1.7182 I-0.4021 J1.1057
G1 X1.5068 Y-1.7059
X1.5139 Y-1.7016
X1.5565 Y-1.6754
G3 X1.6205 Y-1.6211 I-1.6425 J1.9983
X1.6755 Y-1.5566 I-2.1937 J1.924
X1.7202 Y-1.4814 I-1.2108 J0.772
G1 X1.739 Y-1.4357
X1.7485 Y-1.4118
X1.7499 Y-1.4072
X1.7652 Y-1.3432
X1.7668 Y-1.3361
G3 X1.7733 Y-1.2366 I-0.7678 J0.0999
G1 X1.7715 Y-1.2157
G3 X1.7664 Y-1.2049 I-0.0186 J-0.0021
G1 X1.7642 Y-1.2034 Z0.218
X1.7622 Y-1.202 Z0.2186
X1.7601 Y-1.2006 Z0.2195
X1.7574 Y-1.2 Z0.2211
X1.7549 Y-1.1995 Z0.2231
X1.7528 Y-1.1991 Z0.2256
X1.7513 Y-1.1992 Z0.2281
X1.7502 Y-1.1993 Z0.2308
X1.7495 Y-1.1994 Z0.2337
X1.7493 Z0.2366
G0 Z0.9507
X0.1543 Y-2.4391
Z0.7672
G1 Z0.7484 F40.
X0.1546 Z0.7452
X0.1554 Z0.742
X0.1568 Z0.739
X0.1587 Z0.7364
X0.161 Y-2.439 Z0.734
X0.1637 Z0.7322
X0.1666 Y-2.4389 Z0.7308
X0.1698 Z0.7299
X0.173 Y-2.4388 Z0.7297
G3 X0.2754 Y-2.4262 I-0.0071 J0.4786
G1 X0.2792 Y-2.4252
G3 X0.2539 Y-2.3725 I-0.1417 J-0.0356
X0.184 Y-2.2882 I-0.5091 J-0.3508
G1 X0.1625 Y-2.2654
X0.1426 Y-2.2413
X0.1282 Y-2.2135
X0.1184 Y-2.1838
G2 X0.1042 Y-2.0597 I0.5654 J0.1278
X0.1019 Y-1.8406 I6.5939 J0.1771
G1 Y-1.6216
Y-0.4951
Y-0.4012
X0.102 Y-0.3699
X0.1082 Y-0.3392
X0.12 Y-0.3102
X0.1356 Y-0.2831
G2 X0.2156 Y-0.187 I0.5834 J-0.4039
G1 X0.2371 Y-0.1643
X0.2609 Y-0.144
X0.2884 Y-0.1292
X0.3181 Y-0.119
X0.3486 Y-0.1124
G2 X0.4734 Y-0.1033 I0.1262 J-0.8675
X0.6611 Y-0.1019 I0.1565 J-8.5898
G1 X0.8802
X1.8189
X2.1006
X2.1318 Y-0.102
X2.1625 Y-0.1082
X2.1915 Y-0.1201
X2.2186 Y-0.1357
G2 X2.3147 Y-0.2157 I-0.4051 J-0.5847
G1 X2.3374 Y-0.2372
X2.3577 Y-0.261
X2.3724 Y-0.2886
X2.3826 Y-0.3182
X2.3892 Y-0.3488
G2 X2.3983 Y-0.4735 I-0.8694 J-0.1262
X2.3997 Y-0.6613 I-8.6098 J-0.1564
G1 Y-0.8803
Y-1.6313
Y-2.1007
X2.3996 Y-2.132
X2.3933 Y-2.1627
X2.3815 Y-2.1916
X2.3658 Y-2.2187
G2 X2.2858 Y-2.3148 I-0.5859 J0.4064
G1 X2.2643 Y-2.3375
X2.2405 Y-2.3578
X2.2128 Y-2.3725
X2.1832 Y-2.3826
X2.1526 Y-2.3892
G2 X2.0279 Y-2.3983 I-0.1262 J0.8714
X1.8402 Y-2.3997 I-0.1564 J8.6307
G1 X1.6211
X1.0579
X0.4007
X0.37 Y-2.3936
X0.3416 Y-2.3805
X0.3157 Y-2.3629
G2 X0.2047 Y-2.2529 I0.6308 J0.7479
G1 X0.1871 Y-2.227
X0.1732 Y-2.199
X0.1627 Y-2.1695
G2 X0.1438 Y-2.0461 I0.5271 J0.1439
X0.1397 Y-1.7958 I4.3249 J0.1962
G1 X0.1394 Y-1.6706
Y-1.2012
Y-0.4502
X0.1397 Y-0.4189
X0.1435 Y-0.3879
X0.1516 Y-0.3577
X0.1635 Y-0.3287
G2 X0.2347 Y-0.2262 I0.4128 J-0.2108
G1 X0.2572 Y-0.2045
X0.2829 Y-0.1866
X0.3109 Y-0.1726
X0.3404 Y-0.1622
G2 X0.4639 Y-0.1436 I0.1428 J-0.5303
X0.7142 Y-0.1397 I0.1956 J-4.4574
G1 X0.8394 Y-0.1394
X1.1836
X2.0598
X2.091 Y-0.1403
X2.1219 Y-0.1453
X2.1518 Y-0.1546
X2.1804 Y-0.1674
G2 X2.2816 Y-0.2405 I-0.2303 J-0.4253
G1 X2.3023 Y-0.2639
X2.3191 Y-0.2903
X2.3321 Y-0.3188
X2.3417 Y-0.3486
G2 X2.3584 Y-0.4724 I-0.5832 J-0.1419
X2.3619 Y-0.7227 I-5.0042 J-0.1953
G1 X2.3622 Y-0.8479
Y-1.0669
Y-2.0683
X2.3603 Y-2.0995
X2.3541 Y-2.1302
X2.3438 Y-2.1597
X2.3302 Y-2.1879
G2 X2.2551 Y-2.2876 I-0.4205 J0.2386
G1 X2.2307 Y-2.3073
X2.2037 Y-2.3231
X2.1748 Y-2.3351
X2.1448 Y-2.3439
G2 X2.0207 Y-2.3589 I-0.1408 J0.6437
X1.7704 Y-2.362 I-0.195 J5.6618
G1 X1.614 Y-2.3622
X1.5514
X0.4561
X0.425 Y-2.3589
X0.3949 Y-2.3504
X0.3664 Y-2.3375
G2 X0.2679 Y-2.2609 I0.2111 J0.3729
G1 X0.2476 Y-2.2371
X0.2303 Y-2.2111
X0.2162 Y-2.1831
X0.2051 Y-2.1539
G2 X0.1832 Y-2.0309 I0.5142 J0.155
X0.1774 Y-1.812 I2.8537 J0.1857
G1 X0.1771 Y-1.7807
X0.1769 Y-1.7181
Y-1.6242
Y-0.4977
X0.1771 Y-0.4664
X0.1793 Y-0.4352
X0.1846 Y-0.4044
X0.1935 Y-0.3743
X0.2055 Y-0.3455
X0.2202 Y-0.3178
X0.2372 Y-0.2916
X0.2571 Y-0.2674
X0.2801 Y-0.2462
X0.306 Y-0.2286
X0.3339 Y-0.2145
X0.3633 Y-0.2037
G2 X0.4864 Y-0.1827 I0.1521 J-0.5221
X0.7053 Y-0.1774 I0.1843 J-3.0496
G1 X0.7679 Y-0.177
X0.8305 Y-0.1769
X1.1434
X1.9883
X2.0196
X2.0509 Y-0.1779
X2.082 Y-0.1816
X2.1124 Y-0.1887
G2 X2.2225 Y-0.2469 I-0.0986 J-0.32
G1 X2.2452 Y-0.2684
X2.2646 Y-0.2929
X2.2804 Y-0.3199
X2.2929 Y-0.3486
G2 X2.3175 Y-0.471 I-0.4497 J-0.1543
X2.324 Y-0.6586 I-2.188 J-0.1694
G1 X2.3244 Y-0.6899
X2.3245 Y-0.7212
X2.3246 Y-0.7838
X2.3247 Y-0.9089
Y-2.0042
X2.3244 Y-2.0354
X2.3222 Y-2.0667
X2.3168 Y-2.0975
X2.3079 Y-2.1275
X2.2958 Y-2.1564
X2.2811 Y-2.184
X2.2641 Y-2.2103
X2.2442 Y-2.2344
X2.2211 Y-2.2555
X2.1953 Y-2.2731
X2.1673 Y-2.2872
X2.138 Y-2.2981
G2 X2.0148 Y-2.3189 I-0.1518 J0.5236
X1.7959 Y-2.3242 I-0.1845 J3.0732
G1 X1.7646 Y-2.3245
X1.702 Y-2.3246
X1.5143 Y-2.3247
X0.5129
X0.4816 Y-2.3236
X0.4507 Y-2.319
X0.4206 Y-2.3105
X0.3917 Y-2.2984
X0.3643 Y-2.2833
X0.3385 Y-2.2655
X0.3148 Y-2.2452
X0.2936 Y-2.2221
X0.2754 Y-2.1967
X0.2603 Y-2.1692
X0.2483 Y-2.1404
G2 X0.2229 Y-2.0181 I0.478 J0.1627
X0.2151 Y-1.7993 I2.3068 J0.1918
G1 X0.2147 Y-1.768
X0.2146 Y-1.7367
X0.2145 Y-1.6741
X0.2144 Y-1.5489
Y-0.5476
Y-0.5163
X0.2154 Y-0.485
X0.2186 Y-0.4539
X0.2245 Y-0.4232
X0.2335 Y-0.3932
X0.2455 Y-0.3643
X0.2609 Y-0.337
X0.2798 Y-0.3121
X0.3022 Y-0.2903
X0.3276 Y-0.272
X0.3551 Y-0.2571
X0.3842 Y-0.2454
G2 X0.5068 Y-0.2219 I0.1584 J-0.493
X0.7257 Y-0.215 I0.1894 J-2.5558
G1 X0.757 Y-0.2146
X0.8195 Y-0.2145
X0.9447 Y-0.2144
X1.9461
X1.9774
X2.0086 Y-0.2151
X2.0398 Y-0.2176
X2.0707 Y-0.2228
X2.1009 Y-0.231
X2.1301 Y-0.2423
X2.1578 Y-0.2568
X2.1835 Y-0.2747
X2.2061 Y-0.2963
X2.2253 Y-0.3211
X2.241 Y-0.3481
X2.2534 Y-0.3768
G2 X2.2789 Y-0.499 I-0.4592 J-0.1596
X2.2865 Y-0.7179 I-2.3309 J-0.1902
G1 X2.2869 Y-0.7492
X2.287 Y-0.7805
X2.2871 Y-0.843
X2.2872 Y-0.9995
Y-1.9383
Y-1.9696
X2.2867 Y-2.0009
X2.2848 Y-2.0321
X2.2803 Y-2.0631
X2.2728 Y-2.0934
X2.2623 Y-2.1229
X2.2487 Y-2.1511
X2.2317 Y-2.1773
X2.2109 Y-2.2007
X2.1869 Y-2.2208
X2.1604 Y-2.2374
X2.132 Y-2.2507
G2 X2.0103 Y-2.2781 I-0.1603 J0.4269
X1.8228 Y-2.2863 I-0.181 J1.9917
X1.6976 Y-2.2871 I-0.1213 J9.9213
G1 X1.6037 Y-2.2872
X1.2282
X0.5711
X0.5398 Y-2.2869
X0.5086 Y-2.2851
X0.4776 Y-2.2804
X0.4474 Y-2.2723
X0.4182 Y-2.261
X0.3906 Y-2.2462
X0.3652 Y-2.2281
X0.3423 Y-2.2067
X0.3225 Y-2.1824
X0.3059 Y-2.1559
X0.2924 Y-2.1277
G2 X0.263 Y-2.0064 I0.4282 J0.1682
X0.2532 Y-1.819 I1.6765 J0.1813
X0.252 Y-1.6313 I9.4475 J0.1549
G1 X0.2519 Y-1.5061
Y-0.5986
Y-0.5673
X0.2522 Y-0.536
X0.2538 Y-0.5048
X0.2574 Y-0.4737
X0.2636 Y-0.443
X0.273 Y-0.4132
X0.2862 Y-0.3848
X0.3036 Y-0.3588
X0.3248 Y-0.3358
X0.3493 Y-0.3163
X0.3762 Y-0.3003
X0.4048 Y-0.2876
G2 X0.5268 Y-0.2611 I0.1626 J-0.4538
X0.7143 Y-0.2528 I0.1835 J-2.0362
X0.9646 Y-0.2519 I0.1961 J-19.2701
G1 X1.6217
X1.9034
G2 X2.0283 Y-0.2574 I0.0245 J-0.8627
G1 X2.059 Y-0.2638
X2.0888 Y-0.2732
X2.1171 Y-0.2865
X2.1431 Y-0.3039
X2.166 Y-0.3253
X2.1854 Y-0.3498
X2.2013 Y-0.3768
X2.214 Y-0.4054
G2 X2.2404 Y-0.5274 I-0.4561 J-0.1628
X2.2487 Y-0.7149 I-2.0394 J-0.1839
X2.2496 Y-1.0591 I-26.8293 J-0.243
G1 X2.2497 Y-1.904
G2 X2.2441 Y-2.0289 I-0.8764 J-0.0236
G1 X2.2376 Y-2.0595
X2.2281 Y-2.0893
X2.2148 Y-2.1177
X2.1972 Y-2.1436
X2.1758 Y-2.1664
X2.1513 Y-2.1858
X2.1243 Y-2.2017
X2.0957 Y-2.2143
G2 X1.9736 Y-2.2405 I-0.1623 J0.4576
X1.7861 Y-2.2487 I-0.1839 J2.0612
X1.348 Y-2.2497 I-0.2896 J31.4755
G1 X0.6283
X0.597 Y-2.2496
X0.5657 Y-2.2491
X0.5345 Y-2.247
X0.5036 Y-2.2423
X0.4733 Y-2.2344
X0.4442 Y-2.223
X0.4169 Y-2.2076
X0.3922 Y-2.1884
X0.3705 Y-2.1658
X0.3522 Y-2.1405
X0.337 Y-2.1131
X0.325 Y-2.0842
G2 X0.2992 Y-1.962 I0.4901 J0.1673
X0.2904 Y-1.7433 I2.1992 J0.1982
X0.2894 Y-1.5242 I14.0229 J0.1708
G1 Y-1.2113
Y-0.6167
G2 X0.2961 Y-0.4919 I0.763 J0.0212
G1 X0.3033 Y-0.4614
X0.3145 Y-0.4322
X0.3301 Y-0.4051
X0.35 Y-0.3809
X0.3735 Y-0.3602
X0.3997 Y-0.3431
X0.4278 Y-0.3294
G2 X0.5491 Y-0.3002 I0.1651 J-0.4184
X0.7365 Y-0.2907 I0.1806 J-1.7135
X0.9869 Y-0.2894 I0.1986 J-14.2164
G1 X1.2998
X1.4562
X1.863
G2 X1.9881 Y-0.2932 I0.0247 J-1.2379
G1 X2.019 Y-0.2981
X2.0492 Y-0.3064
X2.0779 Y-0.3188
X2.1042 Y-0.3359
X2.1272 Y-0.357
X2.1468 Y-0.3814
X2.1628 Y-0.4083
X2.1756 Y-0.4369
G2 X2.2024 Y-0.5588 I-0.4559 J-0.1643
X2.2111 Y-0.7463 I-1.9923 J-0.1862
X2.2122 Y-0.9966 I-18.1738 J-0.2038
G1 Y-1.3721
Y-1.6224
Y-1.8728
G2 X2.2073 Y-1.9978 I-1.0352 J-0.0216
G1 X2.2013 Y-2.0285
X2.1918 Y-2.0583
X2.1779 Y-2.0864
X2.1595 Y-2.1117
X2.1373 Y-2.1337
X2.1121 Y-2.1522
X2.0846 Y-2.1672
X2.0556 Y-2.179
G2 X1.9332 Y-2.2035 I-0.1627 J0.4964
X1.7144 Y-2.2113 I-0.1955 J2.3894
X1.464 Y-2.2122 I-0.186 J18.051
G1 X0.713
X0.6504
X0.6191 Y-2.212
X0.5878 Y-2.2112
X0.5566 Y-2.2087
X0.5258 Y-2.2036
X0.4956 Y-2.1951
X0.4671 Y-2.1824
X0.4408 Y-2.1654
X0.4174 Y-2.1446
X0.3974 Y-2.1205
X0.3809 Y-2.0939
X0.3675 Y-2.0656
G2 X0.3385 Y-1.9443 I0.4394 J0.1694
X0.3284 Y-1.7569 I1.6976 J0.1849
X0.3269 Y-1.4752 I15.3173 J0.2232
G1 Y-1.0997
Y-0.6616
G2 X0.3311 Y-0.5366 I1.1475 J0.0239
G1 X0.3366 Y-0.5058
X0.3462 Y-0.476
X0.3605 Y-0.4482
X0.3794 Y-0.4233
X0.4022 Y-0.4018
X0.428 Y-0.384
X0.4558 Y-0.3697
X0.485 Y-0.3584
G2 X0.6077 Y-0.3353 I0.1631 J-0.5266
X0.8266 Y-0.3277 I0.1964 J-2.5211
X1.0769 Y-0.3269 I0.1872 J-18.7566
G1 X1.8279
G2 X1.953 Y-0.3299 I0.0236 J-1.5976
G1 X1.984 Y-0.3342
X2.0143 Y-0.3421
X2.043 Y-0.3546
X2.069 Y-0.3719
X2.0918 Y-0.3934
X2.111 Y-0.4181
X2.1267 Y-0.4452
X2.1391 Y-0.4739
X2.1487 Y-0.5037
G2 X2.1698 Y-0.6584 I-0.7058 J-0.1754
X2.1743 Y-0.94 I-5.2847 J-0.2249
G1 X2.1747 Y-1.0338
Y-1.3468
Y-1.8162
G2 X2.1727 Y-1.9413 I-2.3066 J-0.0247
G1 X2.1693 Y-1.9724
X2.163 Y-2.0031
X2.1522 Y-2.0324
X2.1367 Y-2.0596
X2.1168 Y-2.0838
X2.0933 Y-2.1044
X2.067 Y-2.1214
X2.0388 Y-2.1349
G2 X1.9174 Y-2.1638 I-0.1652 J0.4246
X1.7612 Y-2.1728 I-0.1665 J1.5294
X1.4796 Y-2.1747 I-0.2273 J13.3283
G1 X1.198
X0.6973
G2 X0.5723 Y-2.1696 I-0.0242 J0.9393
G1 X0.5417 Y-2.163
X0.5124 Y-2.1522
X0.4851 Y-2.1369
X0.4607 Y-2.1173
X0.4397 Y-2.094
X0.4223 Y-2.0681
X0.4081 Y-2.0402
G2 X0.3771 Y-1.9193 I0.411 J0.17
X0.3661 Y-1.732 I1.5808 J0.1863
X0.3645 Y-1.4817 I11.5245 J0.1993
G1 X0.3644 Y-1.2939
Y-0.6994
G2 X0.3675 Y-0.5743 I1.5178 J0.024
G1 X0.3725 Y-0.5433
X0.3815 Y-0.5134
X0.3957 Y-0.4855
X0.4146 Y-0.4606
X0.4374 Y-0.4391
X0.4631 Y-0.4213
X0.491 Y-0.407
X0.5202 Y-0.3959
G2 X0.643 Y-0.3728 I0.1632 J-0.5315
X0.8618 Y-0.3652 I0.1975 J-2.5402
X1.0809 Y-0.3644 I0.1714 J-16.0733
G1 X1.3312
X1.8006
G2 X1.9257 Y-0.3674 I0.022 J-1.682
G1 X1.9566 Y-0.3722
X1.9866 Y-0.3811
X2.0146 Y-0.3951
X2.0398 Y-0.4137
X2.0614 Y-0.4363
X2.0794 Y-0.4619
X2.0939 Y-0.4896
X2.1052 Y-0.5188
G2 X2.1286 Y-0.6415 I-0.5225 J-0.163
X2.1363 Y-0.8603 I-2.506 J-0.1978
X2.1372 Y-1.0794 I-15.7843 J-0.1717
G1 Y-1.4236
Y-1.6426
G2 X2.1363 Y-1.8929 I-10.5689 J-0.0859
G1 X2.1342 Y-1.9242
X2.1297 Y-1.9551
X2.121 Y-1.9852
X2.1074 Y-2.0134
X2.089 Y-2.0387
X2.0666 Y-2.0605
X2.0411 Y-2.0787
X2.0134 Y-2.0933
X1.9843 Y-2.1048
G2 X1.8617 Y-2.1285 I-0.1634 J0.516
X1.6429 Y-2.1363 I-0.1976 J2.4631
X1.4238 Y-2.1372 I-0.1716 J15.562
G1 X1.0796
X0.7354
G2 X0.6103 Y-2.1333 I-0.0243 J1.2257
G1 X0.5796 Y-2.1274
X0.5499 Y-2.1173
X0.5225 Y-2.1024
X0.498 Y-2.0829
X0.4769 Y-2.0597
X0.4594 Y-2.0338
X0.4453 Y-2.0059
X0.4342 Y-1.9766
G2 X0.4109 Y-1.8539 I0.5421 J0.1664
X0.4029 Y-1.635 I2.4706 J0.2008
X0.4019 Y-1.416 I15.0589 J0.1747
G1 Y-1.1657
Y-0.7276
G2 X0.4052 Y-0.6025 I1.4887 J0.0235
G1 X0.4108 Y-0.5717
X0.4212 Y-0.5422
X0.4367 Y-0.515
X0.4567 Y-0.491
X0.4805 Y-0.4706
X0.5069 Y-0.4539
X0.5353 Y-0.4406
G2 X0.6569 Y-0.4126 I0.1646 J-0.4364
G1 X0.688 Y-0.4094
X0.7192 Y-0.4072
G2 X0.9695 Y-0.4023 I0.2144 J-4.6316
G1 X1.0321 Y-0.402
X1.1572 Y-0.4019
X1.7518
G2 X1.8769 Y-0.4034 I0.0248 J-3.0203
G1 X1.9081 Y-0.4066
X1.9386 Y-0.4134
X1.9676 Y-0.4253
X1.9939 Y-0.4421
X2.0169 Y-0.4634
X2.0362 Y-0.4881
X2.0518 Y-0.5152
X2.0641 Y-0.5439
G2 X2.09 Y-0.6661 I-0.4756 J-0.1643
X2.0987 Y-0.8849 I-2.2424 J-0.1989
X2.0996 Y-1.1039 I-13.539 J-0.1692
G1 X2.0997 Y-1.3542
Y-1.761
G2 X2.0975 Y-1.8862 I-2.1461 J-0.0246
G1 X2.0935 Y-1.9172
X2.0853 Y-1.9474
X2.0719 Y-1.9757
X2.0536 Y-2.0011
X2.0312 Y-2.023
X2.0058 Y-2.0412
X1.9781 Y-2.0558
X1.949 Y-2.0673
G2 X1.8263 Y-2.0909 I-0.1634 J0.5175
X1.6075 Y-2.0988 I-0.1984 J2.4706
X1.3885 Y-2.0997 I-0.1727 J15.4305
G1 X1.0755
X1.013
X0.7626
G2 X0.6376 Y-2.0954 I-0.024 J1.1266
G1 X0.607 Y-2.0888
X0.5778 Y-2.0774
X0.5511 Y-2.0611
X0.5276 Y-2.0404
X0.5077 Y-2.0163
X0.4914 Y-1.9896
X0.4783 Y-1.9611
G2 X0.4505 Y-1.8395 I0.4509 J0.1671
X0.4406 Y-1.6207 I2.0423 J0.2019
X0.4394 Y-1.3704 I14.9076 J0.1973
G1 Y-1.0888
Y-0.7759
G2 X0.4411 Y-0.6507 I2.5506 J0.0264
G1 X0.445 Y-0.6197
X0.4534 Y-0.5895
X0.4669 Y-0.5613
X0.4854 Y-0.536
X0.508 Y-0.5144
X0.5337 Y-0.4965
X0.5615 Y-0.4822
X0.5907 Y-0.4709
G2 X0.7135 Y-0.4479 I0.163 J-0.5305
X0.9323 Y-0.4403 I0.1986 J-2.5497
X1.1514 Y-0.4394 I0.1731 J-15.8461
G1 X1.4643
X1.7146
G2 X1.8398 Y-0.4406 I0.0258 J-3.6688
G1 X1.8709 Y-0.4433
X1.9015 Y-0.4499
X1.9306 Y-0.4616
X1.9569 Y-0.4785
X1.9798 Y-0.4998
X1.9991 Y-0.5245
X2.0147 Y-0.5516
X2.0269 Y-0.5804
G2 X2.0525 Y-0.7026 I-0.479 J-0.164
X2.0605 Y-0.8588 I-1.7561 J-0.1677
X2.0622 Y-1.1404 I-14.7987 J-0.2301
G1 Y-1.3908
Y-1.735
G2 X2.0597 Y-1.8601 I-1.8678 J-0.0247
G1 X2.0546 Y-1.891
X2.0447 Y-1.9207
X2.0296 Y-1.9481
X2.0098 Y-1.9723
X1.9862 Y-1.9929
X1.9598 Y-2.0097
X1.9315 Y-2.0231
G2 X1.8099 Y-2.0514 I-0.1648 J0.433
X1.6225 Y-2.0607 I-0.1837 J1.7936
X1.1844 Y-2.0621 I-0.2999 J26.2829
G1 X0.8089 Y-2.0622
G2 X0.6838 Y-2.0596 I-0.0267 J1.7496
G1 X0.6529 Y-2.0547
X0.6231 Y-2.0451
X0.5955 Y-2.0304
X0.571 Y-2.0109
X0.55 Y-1.9877
X0.5327 Y-1.9616
X0.5188 Y-1.9336
G2 X0.489 Y-1.8124 I0.4187 J0.1675
X0.4786 Y-1.6251 I1.6737 J0.1865
X0.4769 Y-1.3434 I14.4311 J0.227
G1 Y-1.0931
Y-0.8115
G2 X0.4784 Y-0.6863 I2.8274 J0.027
G1 X0.4823 Y-0.6553
X0.4906 Y-0.6251
X0.5044 Y-0.597
X0.5231 Y-0.5719
X0.5459 Y-0.5505
X0.5717 Y-0.5328
X0.5997 Y-0.5187
X0.629 Y-0.5077
G2 X0.7518 Y-0.4852 I0.1626 J-0.542
X0.9707 Y-0.4778 I0.1988 J-2.6235
X1.1897 Y-0.4769 I0.1737 J-16.2116
G1 X1.4714
X1.6904
G2 X1.8156 Y-0.4784 I0.0256 J-3.0095
G1 X1.8466 Y-0.4823
X1.8767 Y-0.4908
X1.9048 Y-0.5047
X1.9299 Y-0.5234
X1.9512 Y-0.5463
X1.9689 Y-0.5721
X1.983 Y-0.6001
X1.9939 Y-0.6294
G2 X2.0164 Y-0.7523 I-0.5432 J-0.1627
X2.0232 Y-0.9085 I-2.0264 J-0.1669
X2.0247 Y-1.1902 I-17.3019 J-0.2302
G1 Y-1.4718
Y-1.6908
G2 X2.0231 Y-1.816 I-2.7079 J-0.0272
G1 X2.0192 Y-1.847
X2.0107 Y-1.8771
X1.9968 Y-1.9052
X1.9779 Y-1.9302
X1.955 Y-1.9515
X1.9291 Y-1.9691
X1.9012 Y-1.9831
X1.8719 Y-1.9941
G2 X1.7489 Y-2.0164 I-0.1626 J0.545
X1.5301 Y-2.0238 I-0.1987 J2.6396
X1.311 Y-2.0247 I-0.1736 J16.3246
G1 X1.0607
X0.8417
G2 X0.7165 Y-2.0222 I-0.0265 J1.8316
G1 X0.6857 Y-2.0169
X0.6561 Y-2.0069
X0.6288 Y-1.9915
X0.6047 Y-1.9715
X0.5843 Y-1.9478
X0.5675 Y-1.9214
X0.5541 Y-1.8931
G2 X0.5257 Y-1.7716 I0.4369 J0.1662
X0.516 Y-1.5842 I1.778 J0.1862
X0.5144 Y-1.3026 I15.3807 J0.2272
G1 Y-1.0522
Y-0.8332
G2 X0.5169 Y-0.7081 I1.7096 J0.0283
G1 X0.5227 Y-0.6773
X0.5337 Y-0.648
X0.5499 Y-0.6213
X0.5708 Y-0.598
X0.5953 Y-0.5784
X0.6223 Y-0.5626
X0.651 Y-0.5501
G2 X0.7731 Y-0.5242 I0.1636 J-0.47
X0.9919 Y-0.5155 I0.1993 J-2.2433
X1.2109 Y-0.5144 I0.1743 J-13.8186
G1 X1.43
X1.6803
X1.7116
X1.7429 Y-0.5147
X1.7742 Y-0.5156
X1.8053 Y-0.5186
X1.8357 Y-0.5263
X1.8641 Y-0.5393
X1.8896 Y-0.5575
X1.9114 Y-0.5799
X1.9295 Y-0.6054
X1.944 Y-0.6332
X1.9553 Y-0.6623
G2 X1.9785 Y-0.7851 I-0.5251 J-0.1628
X1.9863 Y-1.0039 I-2.536 J-0.1991
X1.9871 Y-1.2542 I-17.5468 J-0.1861
G1 X1.9872 Y-1.6298
G2 X1.9854 Y-1.7862 I-3.2943 J-0.0408
G1 X1.9806 Y-1.8171
X1.9709 Y-1.8469
X1.9558 Y-1.8743
X1.936 Y-1.8985
X1.9123 Y-1.9189
X1.8858 Y-1.9356
X1.8575 Y-1.9488
G2 X1.7358 Y-1.9766 I-0.1637 J0.4373
X1.5483 Y-1.9858 I-0.1898 J1.9436
X1.2354 Y-1.9872 I-0.2461 J20.7536
G1 X0.8912
G2 X0.766 Y-1.986 I-0.0283 J3.4846
G1 X0.7349 Y-1.9825
X0.7046 Y-1.9747
X0.6762 Y-1.9616
X0.6508 Y-1.9434
X0.6289 Y-1.921
X0.6119 Y-1.8947
X0.5981 Y-1.8666
G2 X0.5679 Y-1.7456 I0.4256 J0.1705
X0.5571 Y-1.5582 I1.6357 J0.1882
X0.5553 Y-1.2023 I18.4002 J0.2732
G1 Y-0.8581
Y-0.8268
X0.5555 Y-0.7955
X0.5563 Y-0.7642
X0.5596 Y-0.7331
X0.5676 Y-0.7028
X0.5811 Y-0.6746
X0.5998 Y-0.6495
X0.6227 Y-0.6282
X0.6486 Y-0.6106
X0.6766 Y-0.5966
X0.7059 Y-0.5857
G2 X0.8288 Y-0.5635 I0.1627 J-0.5499
X1.0477 Y-0.5562 I0.1993 J-2.6591
X1.2354 Y-0.5554 I0.1529 J-13.69
G1 X1.4232 Y-0.5552
X1.6422 Y-0.5553
X1.6735
X1.7048 Y-0.5555
X1.7361 Y-0.5563
X1.7673 Y-0.5595
X1.7976 Y-0.5672
X1.8258 Y-0.5806
X1.8511 Y-0.5991
X1.8727 Y-0.6218
X1.8904 Y-0.6476
X1.9046 Y-0.6755
X1.9155 Y-0.7048
G2 X1.9379 Y-0.8277 I-0.5426 J-0.1624
X1.9454 Y-1.0465 I-2.6367 J-0.1995
X1.9463 Y-1.3281 I-24.2182 J-0.2194
G1 Y-1.6411
Y-1.6724
X1.9461 Y-1.7037
X1.9454 Y-1.7349
X1.9424 Y-1.7661
X1.9348 Y-1.7964
X1.9217 Y-1.8249
X1.9033 Y-1.8502
X1.8808 Y-1.8719
X1.8551 Y-1.8898
X1.8272 Y-1.904
X1.798 Y-1.9151
G2 X1.6751 Y-1.9378 I-0.1627 J0.5373
X1.4563 Y-1.9454 I-0.1995 J2.5981
X1.2333 Y-1.9463 I-0.1783 J16.5395
G1 X0.9517
G2 X0.7953 Y-1.9448 I-0.042 J3.6753
G1 X0.7643 Y-1.9402
X0.7345 Y-1.9307
X0.7072 Y-1.9154
X0.6834 Y-1.8951
X0.6634 Y-1.871
X0.6472 Y-1.8443
X0.6343 Y-1.8157
G2 X0.6071 Y-1.6939 I0.4598 J0.1666
X0.5976 Y-1.4947 I1.9466 J0.193
G1 X0.597 Y-1.4595
G3 X0.5938 Y-1.4499 Z0.7325 I-0.0187 J-0.0008
G1 X0.5924 Y-1.4475 Z0.7332
X0.5915 Y-1.445 Z0.7339
X0.5874 Y-1.4319 Z0.7377
X0.5872 Y-1.4315
X0.5021 Y-1.1591 F300.
G2 X0.5246 Y-1.1353 I0.0179 J0.0056
G1 X0.5257 Y-1.1356
X0.5261 Y-1.1357 F40.
G3 X0.5552 Y-1.1397 Z0.7297 I0.0341 J0.1394
G1 X0.5592
G3 X0.5801 Y-1.0906 I-0.0885 J0.0668
X0.5923 Y-0.9826 I-0.5165 J0.1131
X0.5959 Y-0.8341 I-2.7884 J0.1412
G1 X0.5969 Y-0.8028
X0.6003 Y-0.7717
X0.6085 Y-0.7415
X0.6224 Y-0.7134
X0.6414 Y-0.6886
X0.6644 Y-0.6674
X0.6905 Y-0.6501
X0.7186 Y-0.6364
X0.7481 Y-0.6257
G2 X0.8711 Y-0.6042 I0.1621 J-0.5636
X1.0431 Y-0.5974 I0.1758 J-2.269
G1 X1.0456 Y-0.5971 Z0.7304
X1.0481 Y-0.5964 Z0.7311
X1.0505 Y-0.5954 Z0.7318
X1.0527 Y-0.5941 Z0.7325
X1.0551 Y-0.5927 Z0.7332
X1.0576 Y-0.5917 Z0.7339
X1.0706 Y-0.5876 Z0.7377
X1.071 Y-0.5875
X1.3412 Y-0.5021 F300.
G2 X1.365 Y-0.5246 I0.0056 J-0.0179
G1 X1.3647 Y-0.5257
X1.3646 Y-0.5261 F40.
G3 X1.3606 Y-0.5553 Z0.7297 I0.1394 J-0.0341
G1 Y-0.5592
G3 X1.4098 Y-0.5801 I0.0668 J0.0885
X1.5177 Y-0.5923 I0.1131 J0.5166
X1.6669 Y-0.5959 I0.1426 J2.8258
G1 X1.6982 Y-0.597
X1.7293 Y-0.6003
X1.7596 Y-0.6084
X1.7876 Y-0.6221
X1.8126 Y-0.641
X1.8338 Y-0.664
X1.8512 Y-0.69
X1.865 Y-0.7181
X1.8757 Y-0.7475
G2 X1.8974 Y-0.8706 I-0.5598 J-0.1619
X1.9042 Y-1.0425 I-2.2598 J-0.1758
G1 X1.9045 Y-1.0451 Z0.7304
X1.9052 Y-1.0476 Z0.7311
X1.9062 Y-1.05 Z0.7318
X1.9075 Y-1.0522 Z0.7325
X1.9088 Y-1.0545 Z0.7332
X1.9098 Y-1.057 Z0.7339
X1.914 Y-1.0701 Z0.7377
X1.9141 Y-1.0705
X1.9995 Y-1.34 F300.
G2 X1.9769 Y-1.3638 I-0.0179 J-0.0057
G1 X1.9758 Y-1.3636
X1.9754 Y-1.3635 F40.
G3 X1.9463 Y-1.3594 Z0.7297 I-0.0341 J-0.1394
G1 X1.9424
G3 X1.9215 Y-1.4086 I0.0885 J-0.0668
X1.9092 Y-1.5165 I0.5166 J-0.1131
X1.9051 Y-1.6958 I4.1542 J-0.1848
G1 X1.9018 Y-1.7269
X1.8941 Y-1.7573
X1.8808 Y-1.7856
X1.8622 Y-1.8108
X1.8395 Y-1.8323
X1.8137 Y-1.85
X1.7857 Y-1.864
X1.7564 Y-1.8749
G2 X1.6335 Y-1.8971 I-0.1623 J0.5481
X1.4576 Y-1.9042 I-0.1777 J2.2302
G1 X1.4551 Y-1.9045 Z0.7304
X1.4526 Y-1.9052 Z0.7311
X1.4502 Y-1.9062 Z0.7318
X1.448 Y-1.9075 Z0.7325
X1.4456 Y-1.9088 Z0.7332
X1.4431 Y-1.9099 Z0.7339
X1.43 Y-1.914 Z0.7377
X1.4296 Y-1.9141
X1.1589 Y-1.9995 F300.
G2 X1.1351 Y-1.9769 I-0.0056 J0.0179
G1 X1.1353 Y-1.9758
X1.1354 Y-1.9754 F40.
G3 X1.1395 Y-1.9463 Z0.7297 I-0.1394 J0.0341
G1 Y-1.9424
G3 X1.0903 Y-1.9215 I-0.0668 J-0.0885
X0.9822 Y-1.9092 I-0.1132 J-0.5171
X0.8675 Y-1.9058 I-0.1267 J-2.3272
G1 X0.8362 Y-1.9044
X0.8052 Y-1.9001
X0.7755 Y-1.8905
X0.7482 Y-1.8751
X0.7243 Y-1.8549
X0.7042 Y-1.8309
X0.6879 Y-1.8042
X0.675 Y-1.7757
G2 X0.6478 Y-1.6539 I0.4559 J0.1654
G1 X0.6447 Y-1.6227
X0.6434 Y-1.6032
X0.6425 Y-1.5876
G3 X0.6389 Y-1.5781 Z0.7325 I-0.0187 J-0.0016
G1 X0.6374 Y-1.5757 Z0.7332
X0.6363 Y-1.5731 Z0.734
X0.6355 Y-1.5704 Z0.7348
X0.6336 Y-1.5599 Z0.7377
X0.6335 Y-1.5595
X0.5357 Y-1.0336 F300.
G2 X0.5603 Y-1.0125 I0.0184 J0.0034
G1 X0.5614 Y-1.0128
X0.5618 Y-1.013 F40.
G3 X0.5904 Y-1.0194 Z0.7297 I0.0454 J0.1362
G1 X0.5943 Y-1.0197
G3 X0.6176 Y-0.9717 I-0.0788 J0.0678
X0.6312 Y-0.8829 I-0.411 J0.1082
G1 X0.634 Y-0.8517
X0.6374 Y-0.8206
X0.6446 Y-0.7902
X0.6572 Y-0.7615
X0.675 Y-0.7358
X0.6971 Y-0.7137
X0.7225 Y-0.6954
X0.7502 Y-0.6807
X0.7793 Y-0.6693
G2 X0.9137 Y-0.645 I0.1688 J-0.5486
G1 X0.9163 Y-0.6445 Z0.7304
X0.9187 Y-0.6437 Z0.7311
X0.921 Y-0.6425 Z0.7318
X0.9232 Y-0.641 Z0.7325
X0.9256 Y-0.6394 Z0.7333
X0.9283 Y-0.6382 Z0.7341
X0.9312 Y-0.6374 Z0.7349
X0.9413 Y-0.6356 Z0.7377
X0.9417 Y-0.6355
X1.4724 Y-0.5363 F300.
G2 X1.4936 Y-0.5607 I0.0034 J-0.0184
G1 X1.4933 Y-0.5618
X1.4931 Y-0.5622 F40.
G3 X1.4869 Y-0.5909 Z0.7297 I0.1365 J-0.0445
G1 X1.4866 Y-0.5948
G3 X1.5347 Y-0.6179 I0.0678 J0.0796
X1.6176 Y-0.6309 I0.1046 J0.3966
G1 X1.6487 Y-0.6338
X1.6798 Y-0.6372
X1.7103 Y-0.6443
X1.7391 Y-0.6566
X1.7649 Y-0.6742
X1.7872 Y-0.6963
X1.8056 Y-0.7215
X1.8204 Y-0.7491
X1.8319 Y-0.7782
G2 X1.8565 Y-0.9126 I-0.5425 J-0.1688
G1 X1.857 Y-0.9151 Z0.7304
X1.8578 Y-0.9176 Z0.7311
X1.859 Y-0.9199 Z0.7318
X1.8604 Y-0.922 Z0.7325
X1.8621 Y-0.9245 Z0.7333
X1.8633 Y-0.9272 Z0.7341
X1.8641 Y-0.9301 Z0.7349
X1.8659 Y-0.9401 Z0.7377
X1.866 Y-0.9405
X1.9653 Y-1.4712 F300.
G2 X1.9409 Y-1.4924 I-0.0184 J-0.0034
G1 X1.9398 Y-1.4921
X1.9394 Y-1.4919 F40.
G3 X1.9107 Y-1.4857 Z0.7297 I-0.0445 J-0.1365
G1 X1.9068 Y-1.4855
G3 X1.8837 Y-1.5335 I0.0796 J-0.0678
X1.8707 Y-1.6164 I0.3983 J-0.1049
G1 X1.8678 Y-1.6476
X1.8645 Y-1.6787
X1.8577 Y-1.7092
X1.8456 Y-1.7381
X1.8281 Y-1.764
X1.8062 Y-1.7864
X1.781 Y-1.805
X1.7535 Y-1.8199
X1.7245 Y-1.8315
G2 X1.5902 Y-1.8564 I-0.1689 J0.5368
G1 X1.5876 Y-1.8569 Z0.7304
X1.5852 Y-1.8577 Z0.7311
X1.5829 Y-1.8589 Z0.7318
X1.5808 Y-1.8603 Z0.7325
X1.5783 Y-1.862 Z0.7333
X1.5756 Y-1.8632 Z0.7341
X1.5727 Y-1.864 Z0.7349
X1.5627 Y-1.8659 Z0.7377
X1.5623
X1.0334 Y-1.9658 F300.
G2 X1.0122 Y-1.9413 I-0.0035 J0.0184
G1 X1.0126 Y-1.9402
X1.0127 Y-1.9398 F40.
G3 X1.0191 Y-1.9111 Z0.7297 I-0.1362 J0.0454
G1 X1.0195 Y-1.9072
G3 X0.9715 Y-1.884 I-0.0679 J-0.0789
X0.8875 Y-1.8697 I-0.124 J-0.4752
G1 X0.8565 Y-1.8649
X0.8264 Y-1.8564
X0.7983 Y-1.8428
X0.7732 Y-1.824
X0.7518 Y-1.8011
X0.7342 Y-1.7753
G2 X0.6985 Y-1.6723 I0.2709 J0.1516
G1 X0.6977 Y-1.6698 Z0.7304
X0.6966 Y-1.6675 Z0.7311
X0.6952 Y-1.6653 Z0.7318
X0.6935 Y-1.6634 Z0.7325
G2 X0.6884 Y-1.6535 Z0.7355 I0.0134 J0.0131
G1 X0.6871 Y-1.6458 Z0.7377
Y-1.6454
X0.5687 Y-0.9529 F300.
G2 X0.595 Y-0.9327 I0.0185 J0.0032
G1 X0.596 Y-0.9331
X0.5964 Y-0.9333 F40.
G3 X0.6243 Y-0.9425 Z0.7297 I0.0585 J0.1311
G1 X0.6282 Y-0.9432
G3 X0.6525 Y-0.9025 I-0.0642 J0.066
X0.6695 Y-0.8498 I-0.5552 J0.2083
G1 X0.6808 Y-0.8207
X0.6965 Y-0.7936
X0.7164 Y-0.7694
X0.74 Y-0.7488
X0.7663 Y-0.7319
X0.7698 Y-0.7302
X0.7982 Y-0.717
X0.813 Y-0.7119
X0.8205 Y-0.7097
G3 X0.8289 Y-0.704 Z0.7325 I-0.0059 J0.0178
G2 X0.8399 Y-0.6976 Z0.736 I0.0143 J-0.0121
G1 X0.846 Y-0.6965 Z0.7377
X0.8464
X1.5533 Y-0.569 F300.
G2 X1.5737 Y-0.5952 I0.0033 J-0.0185
G1 X1.5733 Y-0.5962
X1.5731 Y-0.5966 F40.
G3 X1.564 Y-0.6245 Z0.7297 I0.1312 J-0.0582
G1 X1.5633 Y-0.6284
G3 X1.604 Y-0.6528 I0.0666 J0.0651
X1.6507 Y-0.6686 I0.2002 J0.5152
G1 X1.6798 Y-0.6799
X1.707 Y-0.6955
X1.7312 Y-0.7153
X1.752 Y-0.7387
X1.7691 Y-0.7649
X1.7708 Y-0.7684
X1.7841 Y-0.7968
X1.7892 Y-0.8115
X1.7915 Y-0.819
G3 X1.7972 Y-0.8274 Z0.7325 I0.0178 J0.0059
G2 X1.8036 Y-0.8384 Z0.736 I-0.0121 J-0.0144
G1 X1.8047 Y-0.8445 Z0.7377
X1.8048 Y-0.8449
X1.9326 Y-1.5521 F300.
G2 X1.9064 Y-1.5725 I-0.0185 J-0.0033
G1 X1.9054 Y-1.5721
X1.905 Y-1.5719 F40.
G3 X1.877 Y-1.5628 Z0.7297 I-0.0582 J-0.1312
G1 X1.8732 Y-1.5621
G3 X1.8488 Y-1.6028 I0.0649 J-0.0665
X1.8332 Y-1.6496 I0.5052 J-0.1952
G1 X1.822 Y-1.6788
X1.8066 Y-1.706
X1.787 Y-1.7304
X1.7637 Y-1.7513
X1.7376 Y-1.7685
X1.7341 Y-1.7702
X1.7058 Y-1.7837
X1.691 Y-1.7889
X1.6835 Y-1.7911
G3 X1.6751 Y-1.7969 Z0.7325 I0.006 J-0.0178
G2 X1.6641 Y-1.8033 Z0.736 I-0.0144 J0.012
G1 X1.6581 Y-1.8044 Z0.7377
X1.6577 Y-1.8045
X0.9527 Y-1.9328 F300.
G2 X0.9324 Y-1.9065 I-0.0034 J0.0184
G1 X0.9328 Y-1.9054
X0.933 Y-1.9051 F40.
G3 X0.9422 Y-1.8772 Z0.7297 I-0.1309 J0.0588
G1 X0.9429 Y-1.8733
G3 X0.9084 Y-1.8501 I-0.069 J-0.0653
G1 X0.8802 Y-1.8364
X0.8525 Y-1.822
X0.8269 Y-1.804
X0.8043 Y-1.7823
X0.785 Y-1.7576
X0.7831 Y-1.7543
G3 X0.7756 Y-1.7474 Z0.7325 I-0.0159 J-0.0099
G2 X0.7656 Y-1.7341 Z0.7371 I0.0084 J0.0168
G1 X0.7652 Y-1.7323 Z0.7377
X0.7651 Y-1.7318
X0.6042 Y-0.8859 F300.
G2 X0.6325 Y-0.8664 I0.0184 J0.0035
G1 X0.6334 Y-0.867
X0.6338 Y-0.8672 F40.
G3 X0.6604 Y-0.8798 Z0.7297 I0.0742 J0.1228
G1 X0.6678 Y-0.8821
X0.6722 Y-0.878
X0.6797 Y-0.8703
X0.7211 Y-0.8234
X0.7239 Y-0.8207
X0.7268 Y-0.818
G3 X0.7319 Y-0.8092 Z0.7325 I-0.0131 J0.0134
G2 X0.7444 Y-0.7959 Z0.7377 I0.0182 J-0.0045
G1 X0.7448 Y-0.7957
X0.746 Y-0.7954 F300.
X1.6149 Y-0.6028
G2 X1.6347 Y-0.6313 I0.0041 J-0.0183
G1 X1.6341 Y-0.6322
X1.6339 Y-0.6326 F40.
G3 X1.6209 Y-0.6589 Z0.7297 I0.1215 J-0.0764
G1 X1.6184 Y-0.6663
X1.6224 Y-0.6708
X1.6291 Y-0.6774
X1.6524 Y-0.6983
X1.6761 Y-0.7189
X1.6815 Y-0.7245
X1.6841 Y-0.7274
G3 X1.6929 Y-0.7325 Z0.7325 I0.0134 J0.0131
G2 X1.7062 Y-0.7451 Z0.7377 I-0.0046 J-0.0182
G1 X1.7064 Y-0.7455
X1.7067 Y-0.7466 F300.
X1.8988 Y-1.6137
G2 X1.8704 Y-1.6335 I-0.0183 J-0.0041
G1 X1.8695 Y-1.6329
X1.8691 Y-1.6327 F40.
G3 X1.8427 Y-1.6198 Z0.7297 I-0.076 J-0.1217
G1 X1.8353 Y-1.6173
X1.8308 Y-1.6213
X1.8244 Y-1.6279
X1.8036 Y-1.6513
X1.7833 Y-1.675
X1.7777 Y-1.6805
X1.7748 Y-1.6832
G3 X1.7757 Y-1.7107 I0.0132 J-0.0133
G1 X1.7782 Y-1.7128 Z0.7299
X1.7806 Y-1.7149 Z0.7308
X1.7828 Y-1.7168 Z0.7322
X1.7848 Y-1.7186 Z0.734
X1.7866 Y-1.7201 Z0.7364
X1.788 Y-1.7213 Z0.739
X1.789 Y-1.7222 Z0.742
X1.7897 Y-1.7228 Z0.7452
X1.7899 Y-1.7229 Z0.7484
G0 Z1.3507
(2D CONTOUR4)
G64 P0.0004 Q0.0004
G0 X0.0181 Y-1.2695
Z1.3507
Z0.9507
G1 Z0.7882 F80.
Z0.2366
G18 G2 X0.0369 Z0.2179 I0.0187 K0. F40.
G1 X0.0556
G17 G3 X0.0744 Y-1.2508 I0. J0.0187
G1 Y-0.3256
G2 X0.1018 Y-0.2593 I0.0938 J0.
G1 X0.2593 Y-0.1018
G2 X0.3256 Y-0.0744 I0.0663 J-0.0663
G1 X2.176
G2 X2.2423 Y-0.1018 I0. J-0.0938
G1 X2.3998 Y-0.2593
G2 X2.4272 Y-0.3256 I-0.0663 J-0.0663
G1 Y-2.176
G2 X2.3998 Y-2.2423 I-0.0937 J0.
G1 X2.2423 Y-2.3998
G2 X2.176 Y-2.4272 I-0.0663 J0.0663
G1 X0.3256
G2 X0.2593 Y-2.3998 I0. J0.0937
G1 X0.1018 Y-2.2423
G2 X0.0744 Y-2.176 I0.0663 J0.0663
G1 Y-0.3256
G2 X0.1018 Y-0.2593 I0.0938 J0.
G1 X0.2593 Y-0.1018
G2 X0.3256 Y-0.0744 I0.0663 J-0.0663
G1 X2.176
G2 X2.2423 Y-0.1018 I0. J-0.0938
G1 X2.3998 Y-0.2593
G2 X2.4272 Y-0.3256 I-0.0663 J-0.0663
G1 Y-2.176
G2 X2.3998 Y-2.2423 I-0.0937 J0.
G1 X2.2423 Y-2.3998
G2 X2.176 Y-2.4272 I-0.0663 J0.0663
G1 X0.3256
G2 X0.2593 Y-2.3998 I0. J0.0937
G1 X0.1018 Y-2.2423
G2 X0.0744 Y-2.176 I0.0663 J0.0663
G1 Y-1.2508
G3 X0.0556 Y-1.232 I-0.0187 J0.
G1 X0.0369
G18 G3 X0.0181 Z0.2366 I0. K0.0188
G0 Z1.3507
G17
(2D CONTOUR4 2)
G0 X-0.105 Y-1.2695
Z1.3507
Z0.9507
G1 Z0.7882 F80.
Z0.1866
G18 G2 X-0.0862 Z0.1679 I0.0188 K0. F20.
G1 X-0.0675
G17 G3 X-0.0488 Y-1.2508 I0. J0.0187
G1 Y-0.2862
G2 X-0.0198 Y-0.2164 I0.0987 J0.
G1 X0.2164 Y0.0198
G2 X0.2862 Y0.0488 I0.0698 J-0.0698
G1 X2.2154
G2 X2.2852 Y0.0198 I0. J-0.0987
G1 X2.5214 Y-0.2164
G2 X2.5503 Y-0.2862 I-0.0698 J-0.0698
G1 Y-2.2154
G2 X2.5214 Y-2.2852 I-0.0988 J0.
G1 X2.2852 Y-2.5214
G2 X2.2154 Y-2.5503 I-0.0698 J0.0698
G1 X0.2862
G2 X0.2164 Y-2.5214 I0. J0.0988
G1 X-0.0198 Y-2.2852
G2 X-0.0488 Y-2.2154 I0.0698 J0.0698
G1 Y-1.2508
G3 X-0.0675 Y-1.232 I-0.0187 J0.
G1 X-0.0862
G18 G3 X-0.105 Z0.1866 I0. K0.0187
G0 Z1.3507
G17
M5
G53 G0 Z-0.6
(2D CHAMFER4)
M9
M1
T12 M6
T32
S7500 M3
G17 G90 G94
G54
M8
G0 X1.7747 Y-1.2508
G43 Z1.3507 H12
G0 Z0.9507
G1 Z0.8307 F80.
Z0.6297
X1.7983 F40.
G3 X0.7033 I-0.5475 J0.
X1.7983 I0.5475 J0.
G1 X1.7747
G0 Z0.9507
X2.4371
G1 Z0.8307 F80.
Z0.6297
X2.4135 F40.
Y-2.176
G2 X2.39 Y-2.2326 I-0.08 J0.
G1 X2.2326 Y-2.39
G2 X2.176 Y-2.4135 I-0.0566 J0.0566
G1 X0.3256
G2 X0.269 Y-2.39 I0. J0.08
G1 X0.1903 Y-2.3113
X0.1115 Y-2.2326
G2 X0.0881 Y-2.176 I0.0566 J0.0566
G1 Y-0.3256
G2 X0.1115 Y-0.269 I0.08 J0.
G1 X0.269 Y-0.1115
G2 X0.3256 Y-0.0881 I0.0566 J-0.0566
G1 X2.176
G2 X2.2326 Y-0.1115 I0. J-0.08
G1 X2.39 Y-0.269
G2 X2.4135 Y-0.3256 I-0.0566 J-0.0566
G1 Y-1.2508
X2.4371
G0 Z1.3507
(2D CHAMFER4 2)
G0 X0.0014 Y-1.2508
Z1.3507
Z0.9507
G1 Z0.8307 F80.
Z0.1729
X0.025 F15.
Y-0.2862
G2 X0.0323 Y-0.2685 I0.025 J0.
G1 X0.2685 Y-0.0323
G2 X0.2862 Y-0.025 I0.0177 J-0.0177
G1 X2.2154
G2 X2.233 Y-0.0323 I0. J-0.025
G1 X2.4693 Y-0.2685
G2 X2.4766 Y-0.2862 I-0.0177 J-0.0177
G1 Y-2.2154
G2 X2.4693 Y-2.233 I-0.025 J0.
G1 X2.233 Y-2.4693
G2 X2.2154 Y-2.4766 I-0.0177 J0.0177
G1 X0.2862
G2 X0.2685 Y-2.4693 I0. J0.025
G1 X0.0323 Y-2.233
G2 X0.025 Y-2.2154 I0.0177 J0.0177
G1 Y-1.2508
X0.0014
G0 Z1.3507
M5
M9
G53 G0 Z-0.6
M30
%
