%
(OP3)
(MACHINE)
(  VENDOR CALLUM)
(  MODEL MILL R1)
(  DESCRIPTION 14X8X14 MILL)
(T32 D=0.1875 CR=0. - ZMIN=0. - FLAT END MILL)
G90 G94 G17 G91.1
G20
G53 G0 Z-0.6
(2D CONTOUR5 2)
T32 M6
S5000 M3
G17 G90 G94
G55
G64 P0.0004 Q0.0004
M8
G0 X1.5642 Y-1.1014
G43 Z1.3297 H32
G0 Z0.9297
G1 Z0.7672 F80.
Z0.0187
G18 G2 X1.5829 Z0. I0.0187 K0. F40.
G1 X1.6017
G17 G3 X1.6204 Y-1.0827 I0. J0.0187
X0.5449 I-0.5378 J0.
X1.6204 I0.5378 J0.
X0.5449 I-0.5378 J0.
X1.6204 I0.5378 J0.
X1.6017 Y-1.0639 I-0.0188 J0.
G1 X1.5829
G18 G3 X1.5642 Z0.0187 I0. K0.0187
G0 Z1.3297
G17
M5
M9
G53 G0 Z-0.6
M30
%
