%
(JUST SQUARE HOLD)
(MACHINE)
(  VENDOR CALLUM)
(  MODEL MILL R1)
(  DESCRIPTION 14X8X14 MILL)
(T21 D=0.125 CR=0.008 - ZMIN=0.17 - BULLNOSE END MILL)
G90 G94 G17 G91.1
G20
G53 G0 Z-0.6
(2D CONTOUR2)
T21 M6
S7500 M3
G17 G90 G94
G54
G64 P0.0004 Q0.0004
M8
G0 X1.5266 Y-0.5153
G43 Z1.1 H21
G0 Z0.7
G1 Z0.525 F80.
Z0.4025
G18 G2 X1.5391 Z0.39 I0.0125 K0. F30.
G1 X1.5516
G17 G3 X1.5641 Y-0.5028 I0. J0.0125
G1 Y-0.3773
Y-0.3762
X1.5631 Y-0.3763
X1.3121
X1.3111 Y-0.3762
Y-0.3773
Y-0.6283
Y-0.6293
X1.3121
X1.5631
X1.5641
Y-0.6283
Y-0.5028
Y-0.3773
Y-0.3762
X1.5631 Y-0.3763
X1.3121
X1.3111 Y-0.3762
Y-0.3773
Y-0.6283
Y-0.6293
X1.3121
X1.5631
X1.5641
Y-0.6283
Y-0.5028
G3 X1.5516 Y-0.4903 I-0.0125 J0.
G1 X1.5391
G18 G3 X1.5266 Z0.4025 I0. K0.0125
G0 Z0.7
Y-0.5153
G1 Z0.4182 F80.
Z0.2925
G2 X1.5391 Z0.28 I0.0125 K0. F30.
G1 X1.5516
G17 G3 X1.5641 Y-0.5028 I0. J0.0125
G1 Y-0.3773
Y-0.3762
X1.5631 Y-0.3763
X1.3121
X1.3111 Y-0.3762
Y-0.3773
Y-0.6283
Y-0.6293
X1.3121
X1.5631
X1.5641
Y-0.6283
Y-0.5028
Y-0.3773
Y-0.3762
X1.5631 Y-0.3763
X1.3121
X1.3111 Y-0.3762
Y-0.3773
Y-0.6283
Y-0.6293
X1.3121
X1.5631
X1.5641
Y-0.6283
Y-0.5028
G3 X1.5516 Y-0.4903 I-0.0125 J0.
G1 X1.5391
G18 G3 X1.5266 Z0.2925 I0. K0.0125
G0 Z0.7
Y-0.5153
G1 Z0.3082 F80.
Z0.1825
G2 X1.5391 Z0.17 I0.0125 K0. F30.
G1 X1.5516
G17 G3 X1.5641 Y-0.5028 I0. J0.0125
G1 Y-0.3773
Y-0.3762
X1.5631 Y-0.3763
X1.3121
X1.3111 Y-0.3762
Y-0.3773
Y-0.6283
Y-0.6293
X1.3121
X1.5631
X1.5641
Y-0.6283
Y-0.5028
Y-0.3773
Y-0.3762
X1.5631 Y-0.3763
X1.3121
X1.3111 Y-0.3762
Y-0.3773
Y-0.6283
Y-0.6293
X1.3121
X1.5631
X1.5641
Y-0.6283
Y-0.5028
G3 X1.5516 Y-0.4903 I-0.0125 J0.
G1 X1.5391
G18 G3 X1.5266 Z0.1825 I0. K0.0125
G0 Z1.1
G17
M5
M9
G53 G0 Z-0.6
M30
%
