%
(OP1 - 1,88X1X0,5)
(MACHINE)
(  VENDOR CALLUM)
(  MODEL MILL R1)
(  DESCRIPTION 14X8X14 MILL)
(T11 D=0.125 CR=0. TAPER=45DEG - ZMIN=0.1987 - CHAMFER MILL)
(T21 D=0.125 CR=0.008 - ZMIN=0.17 - BULLNOSE END MILL)
(T22 D=0.1875 CR=0.008 - ZMIN=0.17 - BULLNOSE END MILL)
(T50 D=0.25 CR=0. TAPER=140DEG - ZMIN=0.475 - DRILL)
(T52 D=0.5 CR=0. TAPER=135DEG - ZMIN=-0.1036 - DRILL)
(T101 D=0.1 CR=0. TAPER=135DEG - ZMIN=0.1493 - DRILL)
(T103 D=0.3 CR=0. TAPER=135DEG - ZMIN=-0.0621 - DRILL)
G90 G94 G17 G91.1
G20
G53 G0 Z-0.6
(FACE1)
T22 M6
T50
S7500 M3
G17 G90 G94
G54
G64 P0.0004 Q0.0004
M8
G0 X2.0412 Y-1.0389
G43 Z1.1 H22
G0 Z0.7
G1 Z0.5037 F80.
G18 G3 X2.0225 Z0.485 I-0.0187 K0. F40.
G1 X-0.1
G17 G2 Y-0.9791 I0. J0.0299
G1 X2.0225
G3 Y-0.9193 I0. J0.0299
G1 X-0.1
G2 Y-0.8595 I0. J0.0299
G1 X2.0225
G3 Y-0.7997 I0. J0.0299
G1 X-0.1
G2 Y-0.7399 I0. J0.0299
G1 X2.0225
G3 Y-0.6801 I0. J0.0299
G1 X-0.1
G2 Y-0.6203 I0. J0.0299
G1 X2.0225
G3 Y-0.5605 I0. J0.0299
G1 X-0.1
G2 Y-0.5007 I0. J0.0299
G1 X2.0225
G3 Y-0.4409 I0. J0.0299
G1 X-0.1
G2 Y-0.3811 I0. J0.0299
G1 X2.0225
G3 Y-0.3213 I0. J0.0299
G1 X-0.1
G2 Y-0.2615 I0. J0.0299
G1 X2.0225
G3 Y-0.2017 I0. J0.0299
G1 X-0.1
G2 Y-0.1419 I0. J0.0299
G1 X2.0225
G3 Y-0.0821 I0. J0.0299
G1 X-0.1
G18 G3 X-0.1187 Z0.5037 I0. K0.0187
G0 Z1.1
G17
M5
G53 G0 Z-0.6
(DRILL4)
M9
M1
T50 M6
T101
S4000 M3
G17 G90 G94
G54
M8
G0 X0.804 Y-0.6824
G43 Z1.1 H50
G0 Z0.7
G98 G82 X0.804 Y-0.6824 Z0.475 R0.685 P0.05 F20.
X0.4928 Y-0.8621
X0.1815 Y-0.6824
Y-0.3231
X0.4928 Y-0.1434
X0.804 Y-0.3231
X1.2809 Y-0.346
Y-0.6595
X1.5944
Y-0.346
G80
G0 Z1.1
M5
G53 G0 Z-0.6
(DRILL5)
M9
M1
T101 M6
T52
S4000 M3
G17 G90 G94
G54
M8
G0 X0.804 Y-0.6824
G43 Z1.1 H101
G0 Z0.7
Z0.685
Z0.565
G1 Z0.435 F6.
G0 Z0.685
Z0.515
G1 Z0.385 F6.
G0 Z0.685
Z0.465
G1 Z0.335 F6.
G0 Z0.685
Z0.415
G1 Z0.285 F6.
G0 Z0.685
Z0.365
G1 Z0.235 F6.
G0 Z0.685
Z0.315
G1 Z0.228 F6.
G4 P0.05
G0 Z0.7
X0.4928 Y-0.8621
Z0.685
Z0.565
G1 Z0.435 F6.
G0 Z0.685
Z0.515
G1 Z0.385 F6.
G0 Z0.685
Z0.465
G1 Z0.335 F6.
G0 Z0.685
Z0.415
G1 Z0.285 F6.
G0 Z0.685
Z0.365
G1 Z0.235 F6.
G0 Z0.685
Z0.315
G1 Z0.228 F6.
G4 P0.05
G0 Z0.7
X0.1815 Y-0.6824
Z0.685
Z0.565
G1 Z0.435 F6.
G0 Z0.685
Z0.515
G1 Z0.385 F6.
G0 Z0.685
Z0.465
G1 Z0.335 F6.
G0 Z0.685
Z0.415
G1 Z0.285 F6.
G0 Z0.685
Z0.365
G1 Z0.235 F6.
G0 Z0.685
Z0.315
G1 Z0.228 F6.
G4 P0.05
G0 Z0.7
Y-0.3231
Z0.685
Z0.565
G1 Z0.435 F6.
G0 Z0.685
Z0.515
G1 Z0.385 F6.
G0 Z0.685
Z0.465
G1 Z0.335 F6.
G0 Z0.685
Z0.415
G1 Z0.285 F6.
G0 Z0.685
Z0.365
G1 Z0.235 F6.
G0 Z0.685
Z0.315
G1 Z0.228 F6.
G4 P0.05
G0 Z0.7
X0.4928 Y-0.1434
Z0.685
Z0.565
G1 Z0.435 F6.
G0 Z0.685
Z0.515
G1 Z0.385 F6.
G0 Z0.685
Z0.465
G1 Z0.335 F6.
G0 Z0.685
Z0.415
G1 Z0.285 F6.
G0 Z0.685
Z0.365
G1 Z0.235 F6.
G0 Z0.685
Z0.315
G1 Z0.228 F6.
G4 P0.05
G0 Z0.7
X0.804 Y-0.3231
Z0.685
Z0.565
G1 Z0.435 F6.
G0 Z0.685
Z0.515
G1 Z0.385 F6.
G0 Z0.685
Z0.465
G1 Z0.335 F6.
G0 Z0.685
Z0.415
G1 Z0.285 F6.
G0 Z0.685
Z0.365
G1 Z0.235 F6.
G0 Z0.685
Z0.315
G1 Z0.228 F6.
G4 P0.05
G0 Z0.7
X1.2809 Y-0.346
Z0.685
Z0.565
G1 Z0.435 F6.
G0 Z0.685
Z0.515
G1 Z0.385 F6.
G0 Z0.685
Z0.465
G1 Z0.335 F6.
G0 Z0.685
Z0.415
G1 Z0.285 F6.
G0 Z0.685
Z0.365
G1 Z0.235 F6.
G0 Z0.685
Z0.315
G1 Z0.185 F6.
G0 Z0.685
Z0.265
G1 Z0.1493 F6.
G4 P0.05
G0 Z0.7
Y-0.6595
Z0.685
Z0.565
G1 Z0.435 F6.
G0 Z0.685
Z0.515
G1 Z0.385 F6.
G0 Z0.685
Z0.465
G1 Z0.335 F6.
G0 Z0.685
Z0.415
G1 Z0.285 F6.
G0 Z0.685
Z0.365
G1 Z0.235 F6.
G0 Z0.685
Z0.315
G1 Z0.185 F6.
G0 Z0.685
Z0.265
G1 Z0.1493 F6.
G4 P0.05
G0 Z0.7
X1.5944
Z0.685
Z0.565
G1 Z0.435 F6.
G0 Z0.685
Z0.515
G1 Z0.385 F6.
G0 Z0.685
Z0.465
G1 Z0.335 F6.
G0 Z0.685
Z0.415
G1 Z0.285 F6.
G0 Z0.685
Z0.365
G1 Z0.235 F6.
G0 Z0.685
Z0.315
G1 Z0.185 F6.
G0 Z0.685
Z0.265
G1 Z0.1493 F6.
G4 P0.05
G0 Z0.7
Y-0.346
Z0.685
Z0.565
G1 Z0.435 F6.
G0 Z0.685
Z0.515
G1 Z0.385 F6.
G0 Z0.685
Z0.465
G1 Z0.335 F6.
G0 Z0.685
Z0.415
G1 Z0.285 F6.
G0 Z0.685
Z0.365
G1 Z0.235 F6.
G0 Z0.685
Z0.315
G1 Z0.185 F6.
G0 Z0.685
Z0.265
G1 Z0.1493 F6.
G4 P0.05
G0 Z0.7
Z1.1
M5
G53 G0 Z-0.6
(DRILL2)
M9
M1
T52 M6
T103
S2000 M3
G17 G90 G94
G54
M8
G0 X0.4928 Y-0.5028
G43 Z1.1 H52
G0 Z0.7
G81 X0.4928 Y-0.5028 Z-0.1036 R0.7 F8.
G80
G0 Z1.1
M5
G53 G0 Z-0.6
(DRILL3)
M9
M1
T103 M6
T22
S2500 M3
G17 G90 G94
G54
M8
G0 X1.4376 Y-0.5028
G43 Z1.1 H103
G0 Z0.7
G81 X1.4376 Y-0.5028 Z-0.0621 R0.7 F8.
G80
G0 Z1.1
M5
G53 G0 Z-0.6
(ADAPTIVE1)
M9
M1
T22 M6
T21
S7500 M3
G17 G90 G94
G54
G64 P0.004 Q0.004
M8
G0 X2.0882 Y0.1398
G43 Z1.1 H22
G0 Z0.2075
G1 Z0.1888 F60.
X2.088 Y0.1396 Z0.1855
X2.0872 Y0.1392 Z0.1823
X2.0861 Y0.1385 Z0.1794
X2.0844 Y0.1375 Z0.1767
X2.0825 Y0.1363 Z0.1744
X2.0802 Y0.1349 Z0.1725
X2.0777 Y0.1334 Z0.1711
X2.075 Y0.1317 Z0.1703
X2.0722 Y0.13 Z0.17
G3 X1.9903 Y0.0673 I0.2487 J-0.409
G1 X1.9876 Y0.0645
X1.9946 Y0.034
G2 X2.0005 Y-0.0909 I-0.8444 J-0.1023
G1 X2.0007 Y-0.1222
X2.0006 Y-0.1848
X1.9992 Y-0.9671
X1.9944 Y-0.998
X1.9795 Y-1.0255
X1.9573 Y-1.0475
X1.9303 Y-1.0633
X1.9007 Y-1.0734
X1.8699 Y-1.0791
G2 X1.7449 Y-1.0837 I-0.1028 J1.0939
G1 X1.7136 Y-1.0839
X1.5884 Y-1.084
X1.119 Y-1.0839
X0.0238 Y-1.0838
X-0.0058 Y-1.0737
X-0.0308 Y-1.0549
X-0.0498 Y-1.03
X-0.0627 Y-1.0015
X-0.0705 Y-0.9712
X-0.0746 Y-0.9402
G2 X-0.0775 Y-0.8151 I1.6043 J0.1001
G1 X-0.0776 Y-0.7525
X-0.077 Y-0.2518
X-0.0767 Y-0.0328
X-0.0702 Y-0.0022
X-0.0537 Y0.0244
X-0.0304 Y0.0453
X-0.0028 Y0.06
X0.0271 Y0.0692
X0.058 Y0.0742
G2 X0.1831 Y0.0781 I0.1014 J-1.2572
G1 X0.2144 Y0.0783
X0.3708 Y0.0782
X1.6225 Y0.0771
X1.8728 Y0.0768
X1.9035 Y0.0708
X1.9312 Y0.0561
X1.9529 Y0.0336
X1.968 Y0.0062
X1.9772 Y-0.0237
X1.9821 Y-0.0546
G2 X1.9855 Y-0.1797 I-1.345 J-0.099
G1 Y-0.2423
X1.9843 Y-0.9307
X1.9819 Y-0.9619
X1.9709 Y-0.9912
X1.9523 Y-1.0164
X1.928 Y-1.0361
X1.9 Y-1.0501
X1.8701 Y-1.0591
X1.8392 Y-1.0642
G2 X1.7142 Y-1.0688 I-0.1083 J1.2587
G1 X1.6829 Y-1.0689
X1.589 Y-1.069
X1.4012 Y-1.0689
X0.0557 Y-1.0688
X0.0254 Y-1.0611
X-0.0016 Y-1.0452
X-0.0234 Y-1.0227
X-0.0394 Y-0.9958
X-0.0501 Y-0.9664
X-0.0565 Y-0.9358
G2 X-0.0624 Y-0.8108 I0.9675 J0.1078
G1 X-0.0625 Y-0.7796
Y-0.717
X-0.0623 Y-0.4979
X-0.0618 Y-0.0598
X-0.0553 Y-0.0292
X-0.0406 Y-0.0016
X-0.019 Y0.0211
X0.0073 Y0.038
X0.0364 Y0.0494
X0.0669 Y0.0564
X0.098 Y0.0601
G2 X0.2231 Y0.0631 I0.1028 J-1.6855
G1 X0.2857 Y0.0632
X1.4122 Y0.0622
X1.819 Y0.0619
X1.8503 Y0.0616
X1.8809 Y0.0551
X1.9084 Y0.0401
X1.9308 Y0.0183
X1.9473 Y-0.0083
X1.9581 Y-0.0377
X1.9646 Y-0.0683
X1.968 Y-0.0994
G2 X1.9704 Y-0.2245 I-1.8957 J-0.0997
G1 X1.9705 Y-0.2871
X1.9694 Y-0.8817
X1.9692 Y-0.913
X1.9654 Y-0.944
X1.9539 Y-0.9731
X1.9353 Y-0.9983
X1.9112 Y-1.0183
X1.8835 Y-1.0327
X1.8537 Y-1.0423
X1.8229 Y-1.048
G2 X1.698 Y-1.0536 I-0.1081 J1.0136
G1 X1.6667 Y-1.0539
X1.6041 Y-1.054
X1.5415
G3 X1.5059 Y-1.0545 I-0.0135 J-0.2608
G2 X1.4047 Y-1.0593 I-0.0818 J0.6677
G1 X0.5023
X0.4952 Y-1.0592
X0.4739 Y-1.0579
X0.4668 Y-1.0573
G3 X0.3104 Y-1.0539 I-0.1328 J-2.5167
G1 X0.154 Y-1.0538
X0.0914
X0.0603 Y-1.0498
X0.0314 Y-1.0378
X0.0066 Y-1.0188
X-0.0131 Y-0.9944
X-0.0273 Y-0.9666
X-0.0366 Y-0.9367
X-0.0421 Y-0.9059
G2 X-0.0473 Y-0.7809 I1.1199 J0.1094
G1 X-0.0475 Y-0.7496
Y-0.687
X-0.0474 Y-0.6382
X-0.0476 Y-0.6335
X-0.048 Y-0.6288
X-0.0487 Y-0.6242
X-0.0581 Y-0.5738
G2 X-0.0618 Y-0.5241 I0.2065 J0.0403
G1 Y-0.4815
G2 X-0.054 Y-0.4105 I0.2679 J0.0065
G3 X-0.0474 Y-0.298 I-0.795 J0.1033
G1 X-0.0471 Y-0.2667
X-0.047 Y-0.2355
X-0.0468 Y-0.1103
X-0.0461 Y-0.079
X-0.039 Y-0.0485
X-0.0243 Y-0.0209
X-0.0031 Y0.0021
X0.0228 Y0.0196
X0.0516 Y0.0318
X0.082 Y0.0396
G2 X0.2067 Y0.0478 I0.1092 J-0.7105
X0.4284 Y0.0482 I0.1738 J-32.6633
G1 X0.4307 Y0.0484
X0.4668 Y0.0518
X0.4739 Y0.0524
X0.4952 Y0.0537
X0.5521
X1.4331
G2 X1.49 Y0.0511 I-0.0076 J-0.7787
G3 X1.6187 Y0.0472 I0.1076 J1.4452
G1 X1.6813 Y0.047
X1.8064 Y0.0469
X1.8377 Y0.0452
X1.8677 Y0.0363
X1.8942 Y0.0196
X1.9157 Y-0.0031
X1.9317 Y-0.03
X1.9424 Y-0.0594
X1.9489 Y-0.09
G2 X1.9552 Y-0.2149 I-0.8734 J-0.1067
G1 X1.9554 Y-0.2462
Y-0.3088
X1.9544 Y-0.8721
X1.9534 Y-0.9033
X1.9471 Y-0.934
X1.9336 Y-0.9622
X1.9135 Y-0.9862
X1.8886 Y-1.0051
X1.8604 Y-1.0187
X1.8304 Y-1.0276
X1.7996 Y-1.0331
G2 X1.6746 Y-1.0386 I-0.1099 J1.0684
G1 X1.6433 Y-1.0389
X1.5948
X1.5884 Y-1.0392
X1.5821 Y-1.04
X1.5759 Y-1.0413
G2 X1.5059 Y-1.0546 I-0.1261 J0.4758
G1 X1.5057 Y-1.0547 Z0.1701
G2 X1.4819 Y-1.0716 Z0.178 I-0.5212 J0.7065
G1 X1.4815 Y-1.0719
G2 X1.3051 Y-1.1655 I-0.497 J0.7237 F200.
G1 X1.3029 Y-1.1662
X1.3006 Y-1.1666
X1.2983 Y-1.1668
X0.675 Y-1.1684
X0.6727 Y-1.1683
X0.6704 Y-1.1679
X0.6682 Y-1.1672
G2 X0.4912 Y-1.0744 I0.3163 J0.819
G1 X0.4909 Y-1.0742 F60.
G2 X0.467 Y-1.0574 Z0.1701 I0.4936 J0.726
G1 X0.4668 Y-1.0573 Z0.17
X0.4029 Y-1.0514
X0.3958 Y-1.0505
X0.3899 Y-1.0496
X0.3815 Y-1.0477
G3 X0.3085 Y-1.0402 I-0.0768 J-0.3886
X0.1208 Y-1.0389 I-0.1321 J-5.5045
G1 X0.0896 Y-1.0363
X0.0598 Y-1.0269
X0.0332 Y-1.0103
X0.0113 Y-0.9879
X-0.0053 Y-0.9614
X-0.0168 Y-0.9323
X-0.0242 Y-0.9019
G2 X-0.032 Y-0.7771 I0.7643 J0.1106
G3 X-0.0329 Y-0.687 I-6.8044 J-0.0181
G1 X-0.0347 Y-0.6779
X-0.0375 Y-0.669
G2 X-0.0487 Y-0.6241 I0.232 J0.0815
G1 X-0.0488
G2 X-0.0583 Y-0.5963 Z0.178 I0.2886 J0.1142
G1 X-0.0584 Y-0.5959
G2 X-0.0642 Y-0.5722 I0.2982 J0.086 F200.
G1 X-0.0646 Y-0.5689
X-0.0672 Y-0.4664
X-0.067 Y-0.463
G2 X-0.0624 Y-0.4391 I0.3068 J-0.0468
G1 X-0.0623 Y-0.4387 F60.
G2 X-0.0542 Y-0.4105 Z0.17 I0.3021 J-0.0712
G1 Y-0.4104
X-0.0462 Y-0.3678
X-0.0446 Y-0.3607
X-0.0428 Y-0.3536
G3 X-0.0335 Y-0.2727 I-0.4133 J0.0882
X-0.0318 Y-0.1163 I-4.7757 J0.1311
G1 X-0.0284 Y-0.0852
X-0.0181 Y-0.0556
X-0.0008 Y-0.0296
X0.0222 Y-0.0084
X0.0491 Y0.0076
X0.0784 Y0.0186
X0.109 Y0.0254
G2 X0.2338 Y0.0328 I0.1106 J-0.8179
G1 X0.3463 Y0.0335
X0.3532 Y0.0345
X0.36 Y0.0361
G2 X0.4029 Y0.0459 I0.0647 J-0.1835
G1 X0.4307 Y0.0484
X0.4384 Y0.0512 Z0.1722
X0.447 Y0.0654 Z0.1767
X0.4455 Y0.0698 Z0.178
X0.4454 Y0.0702
X0.4422 Y0.0796 F200.
X0.3247 Y0.1506
G3 X0.275 Y0.1632 I-0.0482 J-0.0858
G1 X0.1471 Y0.159
X0.005 Y0.1298
X-0.067 Y0.0867
X-0.1042 Y0.0481
X-0.134 Y0.0015
X-0.1547 Y-0.0553
X-0.1648 Y-0.3323
G3 X-0.1513 Y-0.3749 I0.0622 J-0.0038
X-0.0576 Y-0.3792 I0.0488 J0.0388
G1 X-0.0573 Y-0.3789 F60.
G3 X-0.0448 Y-0.3594 Z0.1717 I-0.0453 J0.0428
G1 X-0.0428 Y-0.3536 Z0.17
X-0.041 Y-0.3465
X-0.0387 Y-0.3394
X-0.0332 Y-0.3252
G3 X-0.0201 Y-0.2495 I-0.2494 J0.0822
X-0.0165 Y-0.129 I-2.1426 J0.1244
G1 X-0.0116 Y-0.0981
X-0.0001 Y-0.069
X0.018 Y-0.0435
X0.0415 Y-0.0228
X0.0687 Y-0.0073
X0.0981 Y0.0034
X0.1286 Y0.0101
G2 X0.2535 Y0.0177 I0.1122 J-0.8202
G1 X0.2867 Y0.018
X0.2944 Y0.0185
X0.3021 Y0.0197
X0.3096 Y0.0217
X0.3134 Y0.0228
X0.36 Y0.0361
G3 X0.3721 Y0.0596 Z0.178 I-0.0058 J0.0178
G1 X0.372 Y0.06
G3 X0.3602 Y0.0717 I-0.0177 J-0.0061 F200.
G1 X0.2608 Y0.1305
G3 X0.2039 Y0.147 I-0.0546 J-0.0819
G1 X0.1187 Y0.1406
X0.0334 Y0.1184
X-0.0093 Y0.0979
X-0.055 Y0.0654
X-0.089 Y0.0288
X-0.1196 Y-0.0198
X-0.1352 Y-0.0624
X-0.1527 Y-0.2968
G3 X-0.1442 Y-0.3322 I0.0622 J-0.0039
G1 Y-0.3323
G3 X-0.0509 Y-0.3489 I0.0537 J0.0316
G1 X-0.0506 Y-0.3486 F60.
G3 X-0.0368 Y-0.3323 Z0.1722 I-0.0399 J0.0479
G1 X-0.0332 Y-0.3252 Z0.17
X-0.0186 Y-0.2875
G3 X-0.0053 Y-0.211 I-0.263 J0.0853
G1 X-0.0032 Y-0.1798
X-0.0018 Y-0.1485
X0.0029 Y-0.1176
X0.014 Y-0.0884
X0.0317 Y-0.0625
X0.0547 Y-0.0413
X0.0814 Y-0.0251
X0.1106 Y-0.0137
X0.141 Y-0.0062
G2 X0.2473 Y0.0022 I0.1036 J-0.6315
G1 X0.258 Y0.0033
X0.2684 Y0.0059
X0.2784 Y0.0099
X0.2892 Y0.0151
X0.3096 Y0.0217
G3 X0.3209 Y0.0456 Z0.178 I-0.0063 J0.0176
G1 X0.3208 Y0.046
G3 X0.3105 Y0.0566 I-0.0175 J-0.0067 F200.
G1 X0.1972 Y0.1151
G3 X0.14 Y0.1257 I-0.0458 J-0.0871
G1 X0.0689 Y0.1097
X0.0618 Y0.1077
X0.0026 Y0.0796
X-0.0469 Y0.0427
X-0.0874 Y-0.0062
X-0.1101 Y-0.0482
X-0.135 Y-0.2329
X-0.1376 Y-0.2542
G3 X-0.1229 Y-0.3039 I0.0617 J-0.0088
X-0.0803 Y-0.3252 I0.047 J0.0409
G1 X-0.0732 Y-0.3253
G3 X-0.0364 Y-0.3112 I-0.0027 J0.0622
G1 X-0.0361 Y-0.3109 F60.
G3 X-0.0235 Y-0.2968 Z0.1728 I-0.0398 J0.0479
G1 X-0.0186 Y-0.2875 Z0.17
X-0.0139 Y-0.2755
X-0.0083 Y-0.2613
X-0.0065 Y-0.2574
G3 X0.0068 Y-0.204 I-0.175 J0.0719
G1 X0.0108 Y-0.173
X0.0154 Y-0.1421
X0.0252 Y-0.1123
X0.0414 Y-0.0856
X0.0631 Y-0.063
X0.0889 Y-0.0453
X0.1174 Y-0.0324
X0.1474 Y-0.0237
G2 X0.2258 Y-0.0136 I0.1278 J-0.6817
G1 X0.2353 Y-0.0107
X0.2444 Y-0.0069
X0.2679 Y0.0048
X0.2784 Y0.0099
G3 X0.2862 Y0.0352 Z0.178 I-0.0088 J0.0166
G1 X0.286 Y0.0355
G3 X0.2759 Y0.0441 I-0.0164 J-0.0091 F200.
G1 X0.1613 Y0.0908
G3 X0.0939 Y0.0918 I-0.0349 J-0.0795
G1 X0.033 Y0.0654
X-0.0189 Y0.0299
X-0.0637 Y-0.0198
X-0.0845 Y-0.0553
X-0.1229 Y-0.2158
G3 X-0.0258 Y-0.2798 I0.0608 J-0.0134
G1 X-0.0255 Y-0.2796 F60.
G3 X-0.0065 Y-0.2574 Z0.17 I-0.0366 J0.0504
G1 X-0.005 Y-0.2542
X-0.0021 Y-0.2489
X0.0024 Y-0.2414
G3 X0.0182 Y-0.1981 I-0.1259 J0.0704
G1 X0.0254 Y-0.1677
X0.0346 Y-0.1378
X0.0493 Y-0.1101
X0.0695 Y-0.0862
X0.0941 Y-0.0669
X0.1217 Y-0.0522
X0.1513 Y-0.042
X0.182 Y-0.0353
X0.1896 Y-0.0336
X0.197 Y-0.031
X0.2039 Y-0.0275
G3 X0.213 Y-0.0114 Z0.1752 I-0.0097 J0.0161
G1 X0.2092 Y-0.002 Z0.178
X0.2091 Y-0.0016
X0.2078 Y0.0015 F200.
X0.1542 Y0.019
X0.0895 Y0.037
G3 X0.0263 Y0.0266 I-0.0216 J-0.0658
G1 X-0.0198 Y-0.0127
X-0.0448 Y-0.0486
X-0.1071 Y-0.1832
G3 X-0.0192 Y-0.2616 I0.0575 J-0.024
G1 X-0.0188 Y-0.2614 F60.
G3 X0.0024 Y-0.2414 Z0.17 I-0.0308 J0.0542
G1 X0.0121 Y-0.2256
X0.0172 Y-0.2173
X0.0219 Y-0.2087
X0.0245 Y-0.2033
X0.0288 Y-0.1936
X0.0406 Y-0.1646
X0.0545 Y-0.1366
X0.0731 Y-0.1115
X0.0962 Y-0.0903
X0.1227 Y-0.0737
X0.1516 Y-0.0617
X0.1573 Y-0.0594
X0.1628 Y-0.0566
X0.1679 Y-0.0532
G3 X0.1706 Y-0.0268 Z0.178 I-0.0118 J0.0146
G1 X0.1703 Y-0.0265
G3 X0.1422 Y-0.0259 I-0.0143 J-0.0121 F200.
G1 X-0.0122 Y-0.1942
G3 X-0.0091 Y-0.2222 I0.0138 J-0.0127
G1 X-0.0088 Y-0.2225 F60.
G3 X0.0172 Y-0.2173 Z0.17 I0.0104 J0.0156
G2 X0.0555 Y-0.1592 I0.4691 J-0.267
G1 X0.1049 Y-0.105
G2 X0.1368 Y-0.0767 I0.1325 J-0.1168
X0.2038 Y-0.0273 I0.7128 J-0.8971
G1 X0.211 Y-0.0236
X0.2252 Y-0.0164
X0.2444 Y-0.0069
G3 X0.252 Y0.0185 Z0.178 I-0.0089 J0.0165
G1 X0.2518 Y0.0189
G3 X0.2394 Y0.0279 I-0.0163 J-0.0093 F200.
G1 X0.1207 Y0.037
G3 X0.076 Y0.0335 I-0.0148 J-0.0973
G1 X0.0689 Y0.031
G3 X0.0405 Y0.0157 I0.0317 J-0.0932
G1 X-0.0519 Y-0.0855
X-0.1186 Y-0.1903
X-0.1455 Y-0.2542
X-0.1718 Y-0.3323
X-0.1914 Y-0.4459
X-0.1886 Y-0.588
X-0.1507 Y-0.936
X-0.1298 Y-0.9999
X-0.1087 Y-1.0377
X-0.0661 Y-1.0943
X-0.0527 Y-1.1064
G3 X-0.0448 Y-1.1134 I0.0692 J0.07
G1 X0.0154 Y-1.149
X0.0704 Y-1.1632
X0.3602 Y-1.1693
G3 X0.4067 Y-1.0632 I0.0022 J0.0623
G1 X0.4064 Y-1.0629 F60.
G3 X0.3867 Y-1.0496 Z0.1715 I-0.044 J-0.0441
G1 X0.3815 Y-1.0477 Z0.17
X0.3389 Y-1.0356
G3 X0.2716 Y-1.0263 I-0.0805 J-0.3359
X0.1473 Y-1.0239 I-0.1037 J-2.13
G1 X0.116 Y-1.0221
X0.0857 Y-1.0146
X0.058 Y-1.
X0.0345 Y-0.9792
X0.0161 Y-0.954
X0.0027 Y-0.9257
X-0.0062 Y-0.8957
X-0.0116 Y-0.8649
G2 X-0.0172 Y-0.7347 I1.1219 J0.1132
G1 X-0.0179 Y-0.7257
X-0.0196 Y-0.7168
X-0.0224 Y-0.7082
X-0.0375 Y-0.669
X-0.0478 Y-0.659 Z0.1739
X-0.0618 Z0.1777
X-0.0625 Y-0.6598 Z0.178
X-0.0628 Y-0.6601
X-0.0732 Y-0.6719 F200.
X-0.134 Y-0.801
X-0.1371 Y-0.8081
Y-0.8083
G3 X-0.1427 Y-0.8579 I0.0918 J-0.0354
G1 X-0.1283 Y-0.9431
X-0.106 Y-0.9999
X-0.0732 Y-1.0526
X-0.0306 Y-1.0936
X0.0078 Y-1.1206
X0.0577 Y-1.1419
X0.1044 Y-1.1475
X0.3176 Y-1.1571
G3 X0.3641 Y-1.0511 I0.0022 J0.0623
G1 X0.3638 Y-1.0508 F60.
G3 X0.346 Y-1.0384 Z0.1721 I-0.044 J-0.0441
G1 X0.3389 Y-1.0356 Z0.17
X0.3134 Y-1.0283
X0.3105 Y-1.0275
X0.2963 Y-1.0229
G3 X0.2249 Y-1.0117 I-0.0829 J-0.2949
G1 X0.1936 Y-1.0099
X0.1623 Y-1.0091
X0.1311 Y-1.0066
X0.101 Y-0.9983
X0.0735 Y-0.9833
X0.0502 Y-0.9624
X0.0319 Y-0.9371
X0.0185 Y-0.9088
X0.0095 Y-0.8788
G2 X-0.0012 Y-0.7736 I0.5112 J0.105
G1 X-0.0023 Y-0.7636
X-0.0046 Y-0.7538
X-0.0083 Y-0.7444
X-0.0139 Y-0.73
X-0.0224 Y-0.7082
G3 X-0.047 Y-0.6983 Z0.178 I-0.0172 J-0.0074
G1 X-0.0474 Y-0.6985
G3 X-0.0571 Y-0.7087 I0.0077 J-0.0171 F200.
G1 X-0.115 Y-0.8152
G3 X-0.1229 Y-0.8855 I0.0873 J-0.0454
G1 X-0.1016 Y-0.9598
X-0.0661 Y-1.0233
X-0.0235 Y-1.0712
X0.0193 Y-1.1018
X0.0405 Y-1.1123
G3 X0.0831 Y-1.1266 I0.0518 J0.0837
G1 X0.2679 Y-1.1434
G3 X0.3209 Y-1.0392 I0.0074 J0.0619
G1 X0.3207 Y-1.0389 F60.
G3 X0.3034 Y-1.026 Z0.1721 I-0.0454 J-0.0426
G1 X0.2963 Y-1.0229 Z0.17
X0.2892 Y-1.0206
X0.2757 Y-1.0141
G3 X0.2138 Y-0.9993 I-0.0746 J-0.1752
G1 X0.1515 Y-0.9927
X0.1212 Y-0.9848
X0.0934 Y-0.9704
X0.0696 Y-0.9502
X0.0504 Y-0.9254
X0.0362 Y-0.8976
X0.0264 Y-0.8679
X0.0202 Y-0.8372
X0.0165 Y-0.8061
G3 X0.0053 Y-0.7688 I-0.0793 J-0.0034
G1 X-0.0021 Y-0.7566
X-0.005 Y-0.7513
X-0.0083 Y-0.7444
X-0.0163 Y-0.7362 Z0.1731
X-0.0306 Y-0.735 Z0.177
X-0.0334 Y-0.7373 Z0.178
X-0.0337 Y-0.7376
X-0.0416 Y-0.7442 F200.
X-0.0841 Y-0.8792
G3 X-0.0803 Y-0.9394 I0.0834 J-0.0249
G1 X-0.0491 Y-0.9999
X-0.0092 Y-1.0454
X0.0334 Y-1.0782
X0.0689 Y-1.0968
X0.2323 Y-1.1298
G3 X0.2979 Y-1.0337 I0.0143 J0.0606
G1 X0.2976 Y-1.0334 F60.
G3 X0.2821 Y-1.0179 Z0.172 I-0.051 J-0.0358
G1 X0.2757 Y-1.0141 Z0.17
X0.2679 Y-1.0103
X0.2483 Y-1.0006
G3 X0.2133 Y-0.9891 I-0.0661 J-0.1425
G1 X0.1521 Y-0.976
X0.1231 Y-0.9642
X0.0972 Y-0.9466
X0.0756 Y-0.924
X0.0588 Y-0.8976
X0.0467 Y-0.8687
X0.0386 Y-0.8385
G3 X0.0269 Y-0.8038 I-0.0893 J-0.0108
G1 X0.025 Y-0.8014 Z0.1708
X0.0227 Y-0.7993 Z0.1717
X0.0202 Y-0.7977 Z0.1725
X0.0173 Y-0.7965 Z0.1733
X0.0144 Y-0.7957 Z0.1742
X0.0113 Y-0.7955 Z0.175
X0.0011 Y-0.7998 Z0.178
X0.0008 Y-0.7999
X-0.0021 Y-0.8012 F200.
X-0.0093 Y-0.8223
X-0.0321 Y-0.936
G3 X-0.0164 Y-0.9928 I0.0687 J-0.0116
G1 X0.0335 Y-1.0425
X0.0689 Y-1.0646
X0.1963 Y-1.1135
G3 X0.2702 Y-1.0204 I0.0223 J0.0582
G1 X0.27 Y-1.0201 F60.
G3 X0.2483 Y-1.0006 Z0.17 I-0.0514 J-0.0353
G1 X0.2142 Y-0.9836
X0.2095 Y-0.9815
X0.204 Y-0.9791
X0.1749 Y-0.9677
X0.146 Y-0.9557
X0.1195 Y-0.9389
X0.097 Y-0.9172
X0.079 Y-0.8916
X0.0655 Y-0.8634
X0.0627 Y-0.857
X0.0592 Y-0.851
X0.0548 Y-0.8455
G3 X0.0283 Y-0.8452 Z0.178 I-0.0134 J-0.0131
G1 X0.028 Y-0.8455
G3 X0.0291 Y-0.8728 I0.0134 J-0.0131 F200.
G1 X0.193 Y-1.0142
G3 X0.2215 Y-1.0094 I0.0123 J0.0142
G1 X0.2217 Y-1.009 F60.
G3 X0.2142 Y-0.9836 Z0.17 I-0.0165 J0.009
G2 X0.1839 Y-0.9644 I0.068 J0.1409
G1 X0.1578 Y-0.9471
X0.1331 Y-0.928
G3 X0.1225 Y-0.9178 I-0.0731 J-0.0649
X0.0963 Y-0.9215 Z0.178 I-0.0113 J-0.015
G1 X0.096 Y-0.9218
G3 X0.0999 Y-0.9477 I0.0152 J-0.011 F200.
G1 X0.161 Y-0.994
G3 X0.1868 Y-0.991 I0.0113 J0.0149
G1 X0.187 Y-0.9907 F60.
G3 X0.1839 Y-0.9644 Z0.17 I-0.0147 J0.0116
G2 X0.1186 Y-0.9147 I0.9773 J1.3517
G1 X0.1115 Y-0.9075
X0.1044 Y-0.9
X0.0547 Y-0.8454
X0.0405 Y-0.8254
X0.0384 Y-0.8223
X0.012 Y-0.7797
X0.0053 Y-0.7688
X-0.0092 Y-0.7604 Z0.1746
X-0.0215 Y-0.7574 Z0.178
X-0.0219 Y-0.7573
X-0.1016 Y-0.7376 F200.
G2 X-0.1513 Y-0.7078 I0.0234 J0.0956
G1 X-0.1566 Y-0.7016
G2 X-0.1812 Y-0.6448 I0.0735 J0.0655
G1 X-0.1916 Y-0.5383
X-0.1884 Y-0.4175
X-0.1656 Y-0.3079
X-0.1226 Y-0.1974
X-0.0556 Y-0.0908
X-0.0021 Y-0.0304
X0.0445 Y0.0157
X0.1329 Y0.0816
X0.2323 Y0.13
X0.346 Y0.166
X0.41 Y0.1776
X0.5094 Y0.1828
X1.2626 Y0.1836
G2 X1.317 Y0.1648 I-0.0036 J-0.0984
G1 X1.4634 Y0.0637
X1.4637 Y0.0635 F60.
X1.4758 Y0.0551 Z0.174
X1.49 Y0.0511 Z0.17
G2 X1.5551 Y0.0409 I-0.0693 J-0.6561
G3 X1.6572 Y0.0327 I0.0947 J0.5413
G1 X1.6885 Y0.0322
X1.7198 Y0.0321
X1.7824 Y0.0319
X1.8136 Y0.0304
X1.8439 Y0.0224
X1.8712 Y0.0071
X1.8939 Y-0.0144
X1.9113 Y-0.0404
X1.9235 Y-0.0692
X1.9314 Y-0.0995
G2 X1.9399 Y-0.2242 I-0.6892 J-0.1098
G1 X1.9403 Y-0.2555
X1.9404 Y-0.2868
X1.9403 Y-0.3494
X1.9394 Y-0.8501
X1.9385 Y-0.8814
X1.9329 Y-0.9121
X1.9202 Y-0.9407
X1.9011 Y-0.9655
X1.8769 Y-0.9854
X1.8493 Y-1.0001
X1.8197 Y-1.0102
X1.7891 Y-1.0165
G2 X1.6642 Y-1.0234 I-0.1117 J0.8858
G1 X1.6446 Y-1.0237
X1.6363 Y-1.0242
X1.6282 Y-1.0256
X1.6202 Y-1.0279
G2 X1.5759 Y-1.0413 I-0.1158 J0.3038
G1 X1.5729 Y-1.0425 Z0.1709
X1.5701 Y-1.0442 Z0.1718
X1.5676 Y-1.0464 Z0.1727
X1.5656 Y-1.0489 Z0.1736
X1.564 Y-1.0518 Z0.1744
X1.563 Y-1.0549 Z0.1753
X1.5625 Y-1.0581 Z0.1762
X1.5626 Y-1.0614 Z0.1771
X1.5633 Y-1.0646 Z0.178
X1.5634 Y-1.065
G3 X1.5752 Y-1.0771 I0.0179 J0.0057 F200.
G1 X1.6889 Y-1.1376
G3 X1.7529 Y-1.1504 I0.0502 J0.0846
G1 X1.8381 Y-1.1386
X1.9021 Y-1.1179
X1.9594 Y-1.0851
X2.0055 Y-1.0425
X2.0371 Y-0.9971
X2.0564 Y-0.9502
X2.0687 Y-0.8863
X2.0684 Y-0.1477
X2.058 Y-0.0695
X2.0371 Y-0.0032
X2.02 Y0.0299
X2.0158 Y0.037
X1.9802 Y0.0828
X1.9376 Y0.1181
X1.895 Y0.1408
X1.8595 Y0.1518
X1.5752 Y0.1631
G3 X1.5293 Y0.0552 I-0.0036 J-0.0622
G1 X1.5296 Y0.0549 F60.
G3 X1.5551 Y0.0408 Z0.17 I0.042 J0.046
G2 X1.6 Y0.0294 I-0.2161 J-0.9438
G3 X1.6766 Y0.0191 I0.0817 J0.3181
G1 X1.7079 Y0.0177
X1.7392 Y0.0173
X1.7705 Y0.0168
X1.8016 Y0.0139
X1.8314 Y0.0043
X1.858 Y-0.0121
X1.8801 Y-0.0343
X1.8969 Y-0.0607
X1.9087 Y-0.0897
X1.9163 Y-0.1201
G2 X1.9249 Y-0.2448 I-0.7143 J-0.1118
X1.9253 Y-0.3304 I-4.6579 J-0.0683
G1 X1.9254 Y-0.3326
X1.9256 Y-0.3347
X1.926 Y-0.3394
X1.9262 Y-0.3607
Y-0.6448
X1.926 Y-0.6661
X1.9259 Y-0.6673
G3 X1.9245 Y-0.8373 I6.1178 J-0.1359
G1 X1.9228 Y-0.8685
X1.9159 Y-0.8991
X1.9023 Y-0.9273
X1.8826 Y-0.9515
X1.858 Y-0.9709
X1.8302 Y-0.9853
X1.8005 Y-0.9951
X1.7699 Y-1.0014
G2 X1.6743 Y-1.0084 I-0.1152 J0.9111
G1 X1.6647 Y-1.011
X1.6555 Y-1.0145
G2 X1.6202 Y-1.0279 I-0.1299 J0.2885
G1 X1.6108 Y-1.0359 Z0.1734
X1.6087 Y-1.0496 Z0.1771
X1.6107 Y-1.0522 Z0.178
X1.6109 Y-1.0525
X1.6179 Y-1.0618 F200.
X1.7316 Y-1.1203
G3 X1.7955 Y-1.1295 I0.0452 J0.0875
G1 X1.8595 Y-1.1125
X1.9163 Y-1.0872
X1.966 Y-1.0495
X1.9953 Y-1.0194
X2.0229 Y-0.977
X2.0447 Y-0.9218
X2.0482 Y-0.865
X2.05 Y-0.6732
G3 X1.966 Y-0.6164 I-0.0623 J-0.0016
X1.9363 Y-0.6396 I0.0217 J-0.0584
G1 X1.9361 Y-0.64 F60.
G3 X1.9259 Y-0.6673 Z0.17 I0.0517 J-0.0348
G2 X1.9183 Y-0.7322 I-0.728 J0.052
G3 X1.9105 Y-0.8125 I0.4689 J-0.0865
G1 X1.9089 Y-0.8438
X1.9032 Y-0.8746
X1.8913 Y-0.9035
X1.873 Y-0.9289
X1.8497 Y-0.9497
X1.8227 Y-0.9656
X1.7935 Y-0.9769
X1.7631 Y-0.9844
X1.7322 Y-0.9888
G3 X1.69 Y-0.9985 I-0.0004 J-0.0947
G2 X1.6555 Y-1.0145 I-0.222 J0.4361
G3 X1.647 Y-1.0396 Z0.178 I0.0083 J-0.0168
G1 X1.6471 Y-1.0399
G3 X1.6599 Y-1.0496 I0.0166 J0.0087 F200.
G1 X1.7742 Y-1.0939
G3 X1.831 Y-1.0948 I0.0298 J0.0804
G1 X1.8808 Y-1.0742
X1.9544 Y-1.0212
X1.9945 Y-0.9696
X2.0198 Y-0.9147
X2.0399 Y-0.7584
G3 X1.9324 Y-0.7062 I-0.0615 J0.0101
G1 X1.9322 Y-0.7065 F60.
G3 X1.9182 Y-0.7322 Z0.17 I0.0462 J-0.0418
G1 X1.9171 Y-0.7371
X1.9105 Y-0.7584
X1.907 Y-0.7694
G3 X1.8955 Y-0.8311 I0.4475 J-0.1156
G1 X1.8883 Y-0.8615
X1.8751 Y-0.8899
X1.8562 Y-0.9148
X1.8325 Y-0.9353
X1.8053 Y-0.9508
X1.7761 Y-0.9619
X1.7495 Y-0.9683
X1.7424 Y-0.9703
X1.7356 Y-0.9731
X1.729 Y-0.9765
G3 X1.706 Y-0.9947 Z0.178 I0.0751 J-0.119
G1 X1.7057 Y-0.995
G3 X1.7084 Y-1.1985 I0.0984 J-0.1005 F200.
X1.9116 Y-1.1862 I0.0957 J0.1031
G1 X2.1471 Y-0.9071
G3 X2.1803 Y-0.8164 I-0.1075 J0.0907
X2.0396 Y-0.6757 I-0.1407 J0.
X1.9199 Y-0.7426 I0. J-0.1407
G1 X1.9197 Y-0.7429 F60.
G3 X1.907 Y-0.7694 Z0.17 I0.12 J-0.0735
G2 X1.895 Y-0.802 I-0.2759 J0.0831
G1 X1.8923 Y-0.8074
X1.8808 Y-0.8365
X1.868 Y-0.8651
X1.8504 Y-0.8909
X1.8279 Y-0.9127
X1.8018 Y-0.9299
G3 X1.7786 Y-0.9422 I0.0383 J-0.1001
G1 X1.7763 Y-0.9445 Z0.1709
X1.7743 Y-0.9471 Z0.1718
X1.7729 Y-0.9501 Z0.1727
X1.772 Y-0.9532 Z0.1736
X1.7716 Y-0.9565 Z0.1744
X1.7718 Y-0.9597 Z0.1753
X1.7726 Y-0.9629 Z0.1762
X1.7739 Y-0.9659 Z0.1771
X1.7757 Y-0.9686 Z0.178
X1.776 Y-0.9689
G3 X1.8048 I0.0144 J0.012 F200.
G1 X1.9255 Y-0.8237
G3 X1.9211 Y-0.7958 I-0.0144 J0.012
G1 X1.9207 Y-0.7956 F60.
G3 X1.895 Y-0.802 Z0.17 I-0.0096 J-0.0161
G2 X1.8629 Y-0.8579 I-0.7548 J0.3958
X1.8115 Y-0.9148 I-0.4727 J0.3761
X1.69 Y-0.9985 I-0.3715 J0.4089
G1 X1.6874 Y-1.0004 Z0.1709
X1.6851 Y-1.0027 Z0.1718
X1.6832 Y-1.0054 Z0.1727
X1.6818 Y-1.0084 Z0.1736
X1.681 Y-1.0116 Z0.1744
X1.6807 Y-1.0149 Z0.1753
X1.6811 Y-1.0181 Z0.1762
X1.6819 Y-1.0213 Z0.1771
X1.6833 Y-1.0242 Z0.178
X1.6835 Y-1.0246
G3 X1.696 Y-1.0332 I0.016 J0.0098 F200.
G1 X1.8239 Y-1.038
G3 X1.9092 Y-1.0035 I0.01 J0.0979
G1 X1.9774 Y-0.9218
X2.0211 Y-0.8365
X2.0474 Y-0.7513
X2.0562 Y-0.6519
X2.0539 Y-0.2045
X2.0448 Y-0.0979
X2.0229 Y-0.0258
X1.9941 Y0.0299
X1.9559 Y0.0725
X1.9163 Y0.1056
X1.8666 Y0.1301
X1.8239 Y0.1409
X1.625 Y0.1502
G3 X1.5754 Y0.0457 I-0.0038 J-0.0622
G1 X1.5757 Y0.0454 F60.
G3 X1.6 Y0.0294 Z0.17 I0.0455 J0.0426
G1 X1.6037 Y0.0282
X1.625 Y0.0208
X1.636 Y0.0168
G3 X1.7025 Y0.0054 I0.0793 J0.2633
G1 X1.7337 Y0.0032
X1.765 Y0.0015
X1.7957 Y-0.0042
X1.8245 Y-0.0164
X1.8496 Y-0.0351
X1.8699 Y-0.0589
X1.8852 Y-0.0862
X1.8957 Y-0.1157
X1.9024 Y-0.1463
G2 X1.9096 Y-0.2409 I-0.7253 J-0.1032
G1 X1.9109 Y-0.2475
X1.9126 Y-0.254
G2 X1.9218 Y-0.2968 I-0.1568 J-0.0558
G1 X1.9247 Y-0.3252
X1.9255 Y-0.3336
X1.9256 Y-0.3347
G3 X1.9465 Y-0.3511 Z0.178 I0.0186 J0.0023
G1 X1.9469 Y-0.351
G3 X1.9616 Y-0.3394 I-0.0027 J0.0186 F200.
G1 X2.022 Y-0.2329
G3 X2.0358 Y-0.169 I-0.0838 J0.0516
G1 X2.0271 Y-0.105
X2.0042 Y-0.034
X1.9731 Y0.0198
X1.9305 Y0.0668
X1.8797 Y0.1009
X1.831 Y0.1201
X1.6676 Y0.1364
G3 X1.6119 Y0.034 I-0.0086 J-0.0617
G1 X1.6121 Y0.0336 F60.
G3 X1.636 Y0.0168 Z0.17 I0.0469 J0.0411
G1 X1.6463 Y0.0131
X1.6627 Y0.0057
G3 X1.707 Y-0.0059 I0.0677 J0.1688
G1 X1.738 Y-0.0105
X1.7688 Y-0.0156
X1.7983 Y-0.026
X1.8247 Y-0.0428
X1.8468 Y-0.065
X1.864 Y-0.0912
X1.8763 Y-0.1199
G2 X1.8909 Y-0.193 I-0.3108 J-0.1
G1 X1.8929 Y-0.1989
X1.8955 Y-0.2045
G3 X1.9207 Y-0.2127 Z0.178 I0.0167 J0.0085
G1 X1.9211 Y-0.2125
G3 X1.9305 Y-0.2002 I-0.0089 J0.0165 F200.
G1 X1.9684 Y-0.0837
G3 X1.9589 Y-0.0256 I-0.0671 J0.019
G1 X1.9343 Y0.0086
X1.907 Y0.037
X1.7173 Y0.1177
G3 X1.6392 Y0.0259 I-0.0271 J-0.0561
G1 X1.64 Y0.0252
X1.6403 Y0.0249 F60.
X1.6627 Y0.0057 Z0.17
G2 X1.6901 Y-0.0069 I-0.1998 J-0.4721
G3 X1.714 Y-0.0161 I0.0618 J0.1247
G1 X1.744 Y-0.0249
X1.7736 Y-0.0351
X1.8008 Y-0.0506
X1.8241 Y-0.0714
X1.8428 Y-0.0965
X1.8568 Y-0.1245
X1.8629 Y-0.1433
X1.865 Y-0.1488
X1.8674 Y-0.1541
X1.8702 Y-0.1592
G3 X1.8887 Y-0.1821 Z0.178 I0.1269 J0.0834
G1 X1.889 Y-0.1824
G3 X2.1241 Y0.0075 I0.1082 J0.1066 F200.
X1.683 Y0.0339 I-0.2303 J-0.1513
X1.6767 Y0.0181 I0.0207 J-0.0174
G1 Y0.0177 F60.
G3 X1.6901 Y-0.0069 Z0.17 I0.027 J-0.0012
G1 X1.696 Y-0.0101
X1.7173 Y-0.0222
X1.7213 Y-0.0245
X1.7491 Y-0.0389
X1.776 Y-0.0548
X1.8001 Y-0.0747
G3 X1.8232 Y-0.1023 I1.1055 J0.9014
G1 X1.8258 Y-0.1043 Z0.1709
X1.8287 Y-0.1058 Z0.1718
X1.8318 Y-0.1067 Z0.1727
X1.8351 Y-0.1072 Z0.1736
X1.8383 Y-0.107 Z0.1744
X1.8415 Y-0.1063 Z0.1753
X1.8445 Y-0.105 Z0.1762
X1.8473 Y-0.1033 Z0.1771
X1.8497 Y-0.1011 Z0.178
X1.8499 Y-0.1008
G3 X1.8472 Y-0.0735 I-0.0141 J0.0123 F200.
G1 X1.7426 Y0.0063
G3 X1.7156 Y0.0017 I-0.0114 J-0.0149
G1 X1.7154 Y0.0013 F60.
G3 X1.7213 Y-0.0245 Z0.17 I0.0159 J-0.01
G2 X1.8677 Y-0.1546 I-0.232 J-0.4087
X1.8986 Y-0.2115 I-0.6769 J-0.4037
G1 X1.9038 Y-0.2258
X1.9117 Y-0.2509
X1.9126 Y-0.254
G3 X1.92 Y-0.2635 I0.0177 J0.0062
G1 X1.9224 Y-0.2644 Z0.1702
X1.9247 Y-0.2654 Z0.1707
X1.927 Y-0.2663 Z0.1716
X1.9287 Y-0.2665 Z0.1725
X1.9303 Y-0.2666 Z0.1736
X1.9327 Y-0.2661 Z0.1756
X1.9346 Y-0.2657 Z0.178
X1.9361 Y-0.2654 Z0.1807
X1.9372 Y-0.2652 Z0.1836
X1.9378 Y-0.2651 Z0.1867
X1.9379 Y-0.265 Z0.1888
G0 Z0.7
X1.3935 Y-0.4871
Z0.2075
G1 Z0.1888 F60.
X1.3937 Y-0.4872 Z0.1855
X1.3946 Y-0.4874 Z0.1823
X1.3959 Y-0.4877 Z0.1794
X1.3977 Y-0.4882 Z0.1767
X1.4 Y-0.4888 Z0.1744
X1.4025 Y-0.4894 Z0.1725
X1.4054 Y-0.4902 Z0.1711
X1.4085 Y-0.4909 Z0.1703
X1.4116 Y-0.4917 Z0.17
G3 X1.4882 Y-0.5028 I0.0891 J0.3478
G1 X1.4899
X1.4916 Y-0.5003
G3 X1.4834 Y-0.4664 I-0.0423 J0.0078
X1.4601 Y-0.4482 I-0.042 J-0.0299
X1.3941 Y-0.4624 I-0.023 J-0.0534
X1.4198 Y-0.5589 I0.042 J-0.0405
X1.4434 Y-0.5615 I0.0166 J0.0426
X1.466 Y-0.5545 I-0.0018 J0.0462
X1.4878 Y-0.5345 I-0.0224 J0.0463
X1.497 Y-0.4771 I-0.0576 J0.0387
X1.3782 Y-0.4723 I-0.0605 J-0.0241
X1.4153 Y-0.5654 I0.0581 J-0.0308
X1.4999 Y-0.528 I0.0226 J0.0633
X1.4404 Y-0.4289 I-0.0607 J0.031
X1.3628 Y-0.5059 I-0.0036 J-0.0739
X1.4464 Y-0.5762 I0.074 J0.003
X1.5129 Y-0.5157 I-0.0092 J0.0769
X1.4275 Y-0.4214 I-0.0745 J0.0183
X1.4401 Y-0.5848 I0.0091 J-0.0815
X1.5222 Y-0.5039 I-0.002 J0.0841
G1 X1.5219 Y-0.4935
G3 X1.5012 Y-0.4412 I-0.075 J0.0005
X1.4469 Y-0.4185 I-0.0545 J-0.0538
X1.4288 Y-0.4379 Z0.178 I0.0007 J-0.0187
G1 Y-0.4383
G3 X1.4343 Y-0.4505 I0.0187 J0.0011 F200.
G1 X1.4899 Y-0.5061
G3 X1.5021 Y-0.5116 I0.0133 J0.0133
G1 X1.5025 F60.
G3 X1.5219 Y-0.4935 Z0.17 I0.0006 J0.0187
G1 Y-0.4743
G3 X1.5164 Y-0.4512 I-0.0465 J0.0013
X1.46 Y-0.4185 I-0.0564 J-0.0324
X1.4419 Y-0.4379 Z0.178 I0.0007 J-0.0187
G1 Y-0.4383
G3 X1.4484 Y-0.4515 I0.0187 J0.0011 F200.
G1 X1.4909 Y-0.4879
G3 X1.5021 Y-0.4924 I0.0122 J0.0142
G1 X1.5025 F60.
G3 X1.5219 Y-0.4743 Z0.17 I0.0006 J0.0187
G1 Y-0.4601
X1.5216 Y-0.4542
X1.5199 Y-0.4484
G3 X1.4725 Y-0.4185 I-0.0474 J-0.0227
X1.4544 Y-0.4379 Z0.178 I0.0007 J-0.0187
G1 Y-0.4383
G3 X1.462 Y-0.4523 I0.0187 J0.0011 F200.
G1 X1.492 Y-0.4745
G3 X1.5021 Y-0.4782 I0.0112 J0.0151
G1 X1.5025 F60.
G3 X1.5219 Y-0.4601 Z0.17 I0.0006 J0.0187
G1 Y-0.4501
X1.5216 Y-0.4441
G3 X1.4832 Y-0.4185 I-0.0383 J-0.016
X1.4583 Y-0.4321 Z0.178 I0.0011 J-0.0317
G1 X1.4581 Y-0.4324
G3 X1.4561 Y-0.4647 I0.0263 J-0.0178 F200.
X1.5089 Y-0.476 I0.031 J0.0158
G1 X1.5093 Y-0.4757 F60.
G3 X1.5219 Y-0.4501 Z0.17 I-0.0222 J0.0268
G1 Y-0.443
X1.5216 Y-0.437
G3 X1.5007 Y-0.4194 I-0.0268 J-0.0106
G1 X1.4933 Y-0.4185
G3 X1.4711 Y-0.435 Z0.178 I0.0008 J-0.0243
G1 X1.471 Y-0.4354
G3 X1.472 Y-0.4528 I0.0232 J-0.0074 F200.
X1.5058 Y-0.4662 I0.0238 J0.0107
G1 X1.5062 Y-0.466 F60.
G3 X1.5219 Y-0.443 Z0.17 I-0.0104 J0.024
G1 Y-0.4388
X1.5217 Y-0.4353
X1.5214 Y-0.4335
X1.5209 Y-0.4317
X1.5193 Y-0.4286
X1.5184 Y-0.4269
G3 X1.5044 Y-0.4243 I-0.0087 J-0.0077
X1.4984 Y-0.4374 I0.0053 J-0.0103
G1 X1.499 Y-0.4391 F200.
X1.4998 Y-0.4407
X1.5009 Y-0.4422
G3 X1.5209 Y-0.4317 I0.0087 J0.0076 F60.
G1 X1.5199 Y-0.4293
X1.5184 Y-0.4269
X1.5165 Y-0.4246
G3 X1.4971 Y-0.4186 I-0.0153 J-0.015
G1 X1.4204 Y-0.4185
G3 X1.397 Y-0.4233 I-0.0001 J-0.0592
X1.3534 Y-0.4917 I0.0319 J-0.0684
X1.3728 Y-0.5098 Z0.178 I0.0187 J0.0007
G1 X1.3732
G3 X1.3862 Y-0.5035 I-0.0011 J0.0187 F200.
G1 X1.4338 Y-0.4497
G3 X1.4384 Y-0.4383 I-0.014 J0.0124
G1 Y-0.4379 F60.
G3 X1.4204 Y-0.4185 Z0.17 I-0.0187 J0.0006
G1 X1.4047
G3 X1.382 Y-0.425 I-0.0003 J-0.0417
X1.3534 Y-0.4781 I0.0347 J-0.0529
X1.3728 Y-0.4961 Z0.178 I0.0187 J0.0007
G1 X1.3732
G3 X1.3868 Y-0.4891 I-0.0011 J0.0187 F200.
G1 X1.4187 Y-0.4489
G3 X1.4228 Y-0.4383 I-0.0147 J0.0117
G1 Y-0.4379 F60.
G3 X1.4047 Y-0.4185 Z0.17 I-0.0187 J0.0006
G1 X1.3919
X1.3859 Y-0.4188
X1.3803 Y-0.4207
G3 X1.3534 Y-0.4654 I0.0237 J-0.0447
X1.365 Y-0.4917 Z0.178 I0.0387 J0.0014
G1 X1.3653 Y-0.492
G3 X1.4094 Y-0.4987 I0.0268 J0.0279 F200.
X1.419 Y-0.4296 I-0.019 J0.0379
G1 X1.4187 Y-0.4293 F60.
G3 X1.3919 Y-0.4185 Z0.17 I-0.0282 J-0.0316
G1 X1.3834
X1.3774 Y-0.4188
G3 X1.3534 Y-0.4546 I0.0147 J-0.0358
X1.3676 Y-0.4791 Z0.178 I0.03 J0.001
G1 X1.3679 Y-0.4793
G3 X1.3966 Y-0.4806 I0.0155 J0.0257 F200.
X1.4088 Y-0.4321 I-0.0143 J0.0294
G1 X1.4086 Y-0.4318 F60.
G3 X1.3834 Y-0.4185 Z0.17 I-0.0263 J-0.0194
G1 X1.3775
X1.3763
X1.3743
X1.372 Y-0.4186
X1.3704 Y-0.4188
X1.3689 Y-0.419
X1.3674 Y-0.4193
X1.3669 Y-0.42 Z0.1702
X1.3667 Y-0.4209 Z0.1705
G3 X1.3776 Y-0.4457 Z0.178 I0.0393 J0.0024
G1 X1.3779 Y-0.446
G3 X1.3899 Y-0.4543 I0.0281 J0.0276 F200.
X1.404 Y-0.4272 I0.0063 J0.014
G1 X1.4028 Y-0.4265
X1.4024 Y-0.4263 F60.
G3 X1.3743 Y-0.4185 Z0.17 I-0.0303 J-0.0545
G1 X1.3727
X1.371 Y-0.4186
X1.3692 Y-0.4189
X1.3674 Y-0.4193
X1.3656 Y-0.4199
X1.3639 Y-0.4208
X1.3629 Y-0.4214
X1.3611 Y-0.4226
X1.3604 Y-0.4231
G3 X1.3591 Y-0.4387 I0.0084 J-0.0085
X1.3715 Y-0.4433 I0.0096 J0.007
G1 X1.3738 Y-0.4425 F200.
X1.3759 Y-0.4412
X1.3777 Y-0.4395
X1.3791 Y-0.4375
G3 X1.3629 Y-0.4214 I-0.0104 J0.0058 F60.
G1 X1.3621 Y-0.4219
X1.3604 Y-0.4231
X1.3595 Y-0.424
X1.3588 Y-0.4246
X1.3576 Y-0.426
X1.3565 Y-0.4275
X1.355 Y-0.4303
X1.3544 Y-0.4317
X1.3539 Y-0.4335
X1.3536 Y-0.4353
X1.3534 Y-0.4388
Y-0.5209
G3 X1.3643 Y-0.5549 I0.0605 J0.0006
X1.4262 Y-0.587 I0.0617 J0.0433
X1.4442 Y-0.5676 Z0.178 I-0.0007 J0.0187
G1 Y-0.5672
G3 X1.4379 Y-0.5542 I-0.0187 J-0.0011 F200.
G1 X1.3845 Y-0.5074
G3 X1.3732 Y-0.5028 I-0.0124 J-0.0141
G1 X1.3728 F60.
G3 X1.3534 Y-0.5209 Z0.17 I-0.0006 J-0.0187
G1 Y-0.5368
G3 X1.3602 Y-0.5595 I0.0403 J-0.0003
X1.4122 Y-0.587 I0.0519 J0.0352
X1.4302 Y-0.5676 Z0.178 I-0.0007 J0.0187
G1 Y-0.5672
G3 X1.423 Y-0.5535 I-0.0187 J-0.0011 F200.
G1 X1.3837 Y-0.5227
G3 X1.3732 Y-0.5188 I-0.0115 J-0.0148
G1 X1.3728 Y-0.5187 F60.
G3 X1.3534 Y-0.5368 Z0.17 I-0.0006 J-0.0187
G1 Y-0.549
X1.3537 Y-0.555
G3 X1.3887 Y-0.5858 I0.0448 J0.0156
G1 X1.3994 Y-0.587
G3 X1.4256 Y-0.5753 Z0.178 I-0.0013 J0.0381
G1 X1.4259 Y-0.575
G3 X1.4322 Y-0.532 I-0.0278 J0.026 F200.
X1.3646 Y-0.522 I-0.0373 J-0.0184
G1 X1.3643 Y-0.5223 F60.
G3 X1.3534 Y-0.549 Z0.17 I0.0306 J-0.0281
G1 Y-0.5581
X1.3537 Y-0.5641
G3 X1.389 Y-0.587 I0.0353 J0.0158
X1.4131 Y-0.5725 Z0.178 I-0.001 J0.0291
G1 X1.4134 Y-0.5721
G3 X1.4138 Y-0.5445 I-0.0254 J0.0142 F200.
X1.3672 Y-0.5329 I-0.0284 J-0.0147
G1 X1.3669 Y-0.5331 F60.
G3 X1.3534 Y-0.5581 Z0.17 I0.0185 J-0.0261
G1 Y-0.5652
Y-0.5667
X1.3535 Y-0.5686
X1.3537 Y-0.5709
X1.354 Y-0.5723
X1.3544 Y-0.5738
X1.3552 Y-0.5749
X1.3563 Y-0.5756
X1.3577 Y-0.5758
X1.359 Y-0.5754
X1.36 Y-0.5745
X1.3606 Y-0.5733
X1.3607 Y-0.5719
X1.36 Y-0.568
X1.3595 Y-0.5667
X1.3585 Y-0.5658
X1.3572 Y-0.5653
X1.3558 Y-0.5654
X1.3546 Y-0.5661
X1.3538 Y-0.5673
X1.3535 Y-0.5686
X1.3536 Y-0.5702
X1.3539 Y-0.572
X1.3544 Y-0.5738
X1.355 Y-0.5752
X1.3558 Y-0.5768
X1.3565 Y-0.5781
X1.3576 Y-0.5795
X1.3588 Y-0.5809
X1.3597 Y-0.5817
X1.3615 Y-0.5831
X1.3627 Y-0.584
X1.3639 Y-0.5847
G3 X1.3817 Y-0.5799 I0.0059 J0.0136
X1.3845 Y-0.5696 I-0.0118 J0.0087
X1.3663 Y-0.5571 I-0.0145 J-0.0017 F200.
X1.3597 Y-0.5817 I0.0036 J-0.0142 F60.
G1 X1.3604 Y-0.5824
X1.3621 Y-0.5836
X1.3639 Y-0.5847
X1.3656 Y-0.5856
X1.3674 Y-0.5862
X1.3692 Y-0.5867
X1.371 Y-0.5869
X1.3727 Y-0.587
X1.4544
G3 X1.4779 Y-0.5824 I0.0001 J0.0607
X1.5219 Y-0.5139 I-0.0312 J0.0684
X1.5025 Y-0.4958 Z0.178 I-0.0187 J-0.0007
G1 X1.5021 Y-0.4959
G3 X1.4892 Y-0.5021 I0.0011 J-0.0187 F200.
G1 X1.4411 Y-0.5558
G3 X1.4364 Y-0.5672 I0.014 J-0.0125
G1 Y-0.5676 F60.
G3 X1.4544 Y-0.587 Z0.17 I0.0187 J-0.0006
G1 X1.4698
G3 X1.4927 Y-0.5808 I0.0005 J0.0431
X1.5219 Y-0.5275 I-0.034 J0.0532
X1.5025 Y-0.5094 Z0.178 I-0.0187 J-0.0007
G1 X1.5021
G3 X1.4886 Y-0.5163 I0.0011 J-0.0187 F200.
G1 X1.456 Y-0.5564
G3 X1.4518 Y-0.5672 I0.0145 J-0.0118
G1 Y-0.5676 F60.
G3 X1.4698 Y-0.587 Z0.17 I0.0187 J-0.0006
G1 X1.4829
X1.4889 Y-0.5867
X1.4946 Y-0.5848
G3 X1.5219 Y-0.5401 I-0.0231 J0.0448
X1.5104 Y-0.5137 Z0.178 I-0.039 J-0.0014
G1 X1.5101 Y-0.5134
G3 X1.4657 Y-0.5063 I-0.0272 J-0.028 F200.
X1.4558 Y-0.576 I0.0186 J-0.0382
G1 X1.4561 Y-0.5763 F60.
G3 X1.4829 Y-0.587 Z0.17 I0.0283 J0.0318
G1 X1.4912
X1.4972 Y-0.5867
G3 X1.5219 Y-0.5514 I-0.0123 J0.0349
X1.5079 Y-0.5269 Z0.178 I-0.0304 J-0.0011
G1 X1.5075 Y-0.5266
G3 X1.4792 Y-0.5246 I-0.0161 J-0.0259 F200.
X1.4658 Y-0.5734 I0.0131 J-0.0298
G1 X1.466 Y-0.5737 F60.
G3 X1.4912 Y-0.587 Z0.17 I0.0263 J0.0192
G1 X1.5001
X1.5013
X1.5029
X1.5049 Y-0.5868
X1.5063 Y-0.5866
X1.5077 Y-0.5863
X1.5088 Y-0.5856
X1.5095 Y-0.5846
X1.5097 Y-0.5833
X1.5094 Y-0.5821
X1.5087 Y-0.5811
X1.5075 Y-0.5804
X1.5063 Y-0.5803
X1.5026 Y-0.5808
X1.5014 Y-0.5812
X1.5004 Y-0.5821
X1.4999 Y-0.5834
X1.5 Y-0.5847
X1.5006 Y-0.5858
X1.5016 Y-0.5866
X1.5029 Y-0.587
X1.5042 Y-0.5869
X1.506 Y-0.5867
X1.5077 Y-0.5863
X1.5095 Y-0.5857
X1.5113 Y-0.5849
X1.5127 Y-0.584
X1.5146 Y-0.5826
X1.5163 Y-0.581
X1.5179 Y-0.5792
G3 X1.5093 Y-0.5545 I-0.0125 J0.0095
X1.493 Y-0.5602 I-0.0039 J-0.0152 F200.
G1 X1.4924 Y-0.5609
G3 X1.4893 Y-0.5724 I0.0124 J-0.0096
X1.5127 Y-0.584 I0.0156 J0.002 F60.
G1 X1.5139 Y-0.5833
X1.5152 Y-0.5822
X1.5165 Y-0.5809
X1.5184 Y-0.5786
X1.5199 Y-0.5762
X1.5209 Y-0.5738
X1.5214 Y-0.572
X1.5217 Y-0.5702
X1.5219 Y-0.5667
Y-0.5038
G3 X1.5177 Y-0.4926 I-0.0187 J-0.0007
G1 X1.5157 Y-0.491 Z0.1702
X1.5137 Y-0.4894 Z0.1707
X1.5118 Y-0.4879 Z0.1716
X1.509 Y-0.4871 Z0.1733
X1.5066 Y-0.4864 Z0.1754
X1.5045 Y-0.4858 Z0.1779
X1.5031 Y-0.4857 Z0.1801
X1.502 Y-0.4858 Z0.1828
X1.5013 Y-0.4859 Z0.1858
X1.501 Z0.1887
G0 Z0.7
X0.5235 Y-0.4834
Z0.2862
G1 Z0.2675 F60.
X0.5238 Y-0.4835 Z0.2642
X0.5246 Y-0.4837 Z0.2611
X0.5259 Y-0.484 Z0.2581
X0.5277 Y-0.4845 Z0.2554
X0.53 Y-0.4851 Z0.2531
X0.5326 Y-0.4857 Z0.2513
X0.5354 Y-0.4865 Z0.2499
X0.5385 Y-0.4873 Z0.249
X0.5417 Y-0.4881 Z0.2487
G3 X0.6437 Y-0.5028 I0.1188 J0.4637
G1 X0.6457
G3 X0.6478 Y-0.4724 I-0.0771 J0.0206
X0.6378 Y-0.4351 I-0.0718 J0.0007
X0.6135 Y-0.395 I-0.1383 J-0.0564
X0.5695 Y-0.3597 I-0.2118 J-0.2184
X0.5083 Y-0.3413 I-0.1164 J-0.2761
X0.4459 Y-0.3473 I-0.0038 J-0.2876
X0.3896 Y-0.3775 I0.1113 J-0.2751
X0.3495 Y-0.4264 I0.2075 J-0.2114
X0.3306 Y-0.4918 I0.1977 J-0.0926
X0.3375 Y-0.551 I0.2591 J0.0004
X0.3673 Y-0.6059 I0.2626 J0.1073
X0.4162 Y-0.6459 I0.2081 J0.2042
X0.476 Y-0.6644 I0.1139 J0.2624
X0.5402 Y-0.6579 I0.0023 J0.3001
X0.596 Y-0.628 I-0.1102 J0.2718
X0.636 Y-0.5791 I-0.2033 J0.2075
X0.6585 Y-0.4983 I-0.2781 J0.121
X0.6107 Y-0.3786 I-0.147 J0.0107
X0.525 Y-0.334 I-0.1146 J-0.1156
X0.4599 Y-0.6716 I-0.0326 J-0.1688
X0.6196 Y-0.6186 I0.0326 J0.1688
X0.6622 Y-0.5373 I-0.1366 J0.1234
X0.5906 Y-0.3493 I-0.157 J0.0478
X0.3099 Y-0.5021 I-0.0986 J-0.1531
X0.66 Y-0.5761 I0.1827 J-0.0005
X0.6531 Y-0.3963 I-0.1635 J0.0838
X0.3216 Y-0.5929 I-0.1611 J-0.1062
X0.6661 Y-0.5886 I0.1712 J0.0902
X0.6143 Y-0.3388 I-0.1684 J0.0954
X0.3706 Y-0.6669 I-0.1219 J-0.164
X0.6587 Y-0.6217 I0.1219 J0.164
X0.6803 Y-0.4001 I-0.1681 J0.1282
X0.641 Y-0.3473 I-0.2017 J-0.1094
X0.3432 Y-0.6584 I-0.1489 J-0.1556
X0.5918 Y-0.6938 I0.1489 J0.1556
X0.7085 Y-0.5382 I-0.1037 J0.1993
X0.5567 Y-0.2857 I-0.2105 J0.0453
X0.2786 Y-0.5783 I-0.0649 J-0.2168
X0.681 Y-0.6297 I0.2142 J0.0759
X0.7238 Y-0.5127 I-0.1865 J0.1346
G1 X0.7237 Y-0.4886
G3 X0.6581 Y-0.333 I-0.2193 J-0.0008
G1 X0.6524 Y-0.3287
X0.6465 Y-0.3249
G3 X0.6211 Y-0.3326 Z0.2567 I-0.0088 J-0.0166
G1 X0.6209 Y-0.333
G3 X0.6206 Y-0.3493 I0.0167 J-0.0084 F200.
G1 X0.6879 Y-0.4957
G3 X0.7039 Y-0.5066 I0.017 J0.0078
G1 X0.7043 F60.
G3 X0.7237 Y-0.4886 Z0.2487 I0.0006 J0.0187
G1 Y-0.4438
G3 X0.6903 Y-0.3549 I-0.1531 J-0.0068
G1 X0.6815 Y-0.3463
X0.6714 Y-0.3393
G3 X0.646 Y-0.347 Z0.2567 I-0.0088 J-0.0166
G1 X0.6458 Y-0.3474
G3 X0.6457 Y-0.364 I0.0167 J-0.0084 F200.
G1 X0.688 Y-0.4513
G3 X0.7039 Y-0.4619 I0.0169 J0.0082
G1 X0.7043 F60.
G3 X0.7237 Y-0.4438 Z0.2487 I0.0006 J0.0187
G1 Y-0.4154
G3 X0.6853 Y-0.3471 I-0.0792 J0.0003
G1 X0.6822 Y-0.3459 Z0.2496
X0.679 Y-0.3451 Z0.2505
X0.6757 Y-0.345 Z0.2514
X0.6725 Y-0.3454 Z0.2523
X0.6694 Y-0.3464 Z0.2532
X0.6664 Y-0.3479 Z0.2541
X0.6638 Y-0.3498 Z0.255
X0.6616 Y-0.3522 Z0.2559
X0.6598 Y-0.355 Z0.2567
X0.6596 Y-0.3553
G3 X0.66 Y-0.373 I0.0167 J-0.0084 F200.
G1 X0.6886 Y-0.4239
G3 X0.7039 Y-0.4334 I0.0164 J0.0092
G1 X0.7043 Y-0.4335 F60.
G3 X0.7237 Y-0.4154 Z0.2487 I0.0006 J0.0187
G1 Y-0.395
G3 X0.7004 Y-0.3561 I-0.0454 J-0.0007
G1 X0.6974 Y-0.3548 Z0.2496
X0.6942 Y-0.3541 Z0.2505
X0.691 Y-0.3539 Z0.2514
X0.6877 Y-0.3543 Z0.2523
X0.6846 Y-0.3552 Z0.2532
X0.6817 Y-0.3567 Z0.2541
X0.6791 Y-0.3587 Z0.255
X0.6768 Y-0.361 Z0.2559
X0.6751 Y-0.3638 Z0.2567
X0.6749 Y-0.3641
G3 X0.6756 Y-0.3824 I0.0167 J-0.0084 F200.
G1 X0.6889 Y-0.4042
G3 X0.7039 Y-0.4131 I0.016 J0.0098
G1 X0.7043 F60.
G3 X0.7237 Y-0.395 Z0.2487 I0.0006 J0.0187
G1 Y-0.3835
Y-0.382
X0.7236 Y-0.3801
X0.7233 Y-0.3774
X0.7231 Y-0.3762
X0.7228 Y-0.3749
G3 X0.7052 Y-0.3643 Z0.2548 I-0.0152 J-0.0054
G1 X0.7029 Y-0.3648 Z0.2554
X0.7007 Y-0.3657 Z0.2561
X0.6986 Y-0.3669 Z0.2567
X0.6982 Y-0.3671
G3 X0.703 Y-0.3956 I0.0093 J-0.013 F200.
G1 X0.7034 Y-0.3957 F60.
G3 X0.7236 Y-0.3801 Z0.2487 I0.0041 J0.0155
G1 X0.7235 Y-0.3785
X0.7232 Y-0.3767
X0.7228 Y-0.3749
X0.7226 Y-0.3742
X0.722 Y-0.3726
X0.7212 Y-0.371
G3 X0.7084 Y-0.3607 I-0.0217 J-0.0137
G1 X0.5805 Y-0.2868
G3 X0.4616 Y-0.2671 I-0.0889 J-0.1673
X0.419 Y-0.2786 I0.0053 J-0.1039
G1 X0.4163 Y-0.2806 Z0.2496
X0.4141 Y-0.283 Z0.2505
X0.4123 Y-0.2858 Z0.2514
X0.4111 Y-0.2888 Z0.2523
X0.4103 Y-0.292 Z0.2532
X0.4102 Y-0.2953 Z0.2541
X0.4106 Y-0.2985 Z0.255
X0.4115 Y-0.3016 Z0.2559
X0.413 Y-0.3045 Z0.2567
X0.4133 Y-0.3049
G3 X0.4279 Y-0.3133 I0.0157 J0.0103 F200.
G1 X0.5695 Y-0.3214
G3 X0.5862 Y-0.313 I0.0011 J0.0187
G1 X0.5865 Y-0.3126 F60.
G3 X0.5805 Y-0.2868 Z0.2487 I-0.0159 J0.0099
G1 X0.5502 Y-0.2693
G3 X0.4665 Y-0.2561 I-0.0624 J-0.1239
G1 X0.4545 Y-0.2594
X0.4433 Y-0.2647
G3 X0.4373 Y-0.2905 Z0.2567 I0.0099 J-0.0159
G1 X0.4375 Y-0.2909
G3 X0.4522 Y-0.2993 I0.0157 J0.0103 F200.
G1 X0.5393 Y-0.3039
G3 X0.5559 Y-0.2955 I0.001 J0.0187
G1 X0.5561 Y-0.2951 F60.
G3 X0.5502 Y-0.2693 Z0.2487 I-0.0159 J0.0099
G1 X0.5287 Y-0.2569
G3 X0.4553 Y-0.2579 I-0.0359 J-0.0645
G1 X0.4527 Y-0.2598 Z0.2496
X0.4504 Y-0.2622 Z0.2505
X0.4486 Y-0.2649 Z0.2514
X0.4474 Y-0.2679 Z0.2523
X0.4466 Y-0.2711 Z0.2532
X0.4464 Y-0.2744 Z0.2541
X0.4468 Y-0.2776 Z0.255
X0.4478 Y-0.2807 Z0.2559
X0.4493 Y-0.2836 Z0.2567
X0.4495 Y-0.284
G3 X0.4655 Y-0.2925 I0.0157 J0.0103 F200.
G1 X0.5191 Y-0.2916
G3 X0.5345 Y-0.2831 I-0.0003 J0.0187
G1 X0.5347 Y-0.2827 F60.
G3 X0.5287 Y-0.2569 Z0.2487 I-0.0159 J0.0099
G1 X0.5139 Y-0.2483
G3 X0.4711 Y-0.2487 I-0.0211 J-0.0369
G1 X0.4685 Y-0.2507 Z0.2496
X0.4662 Y-0.253 Z0.2505
X0.4645 Y-0.2558 Z0.2514
X0.4632 Y-0.2588 Z0.2523
X0.4624 Y-0.262 Z0.2532
X0.4623 Y-0.2652 Z0.2541
X0.4627 Y-0.2685 Z0.255
X0.4636 Y-0.2716 Z0.2559
X0.4651 Y-0.2745 Z0.2567
X0.4653 Y-0.2748
G3 X0.4813 Y-0.2833 I0.0157 J0.0103 F200.
G1 X0.5042 Y-0.283
G3 X0.5196 Y-0.2745 I-0.0003 J0.0187
G1 X0.5199 Y-0.2742 F60.
G3 X0.5139 Y-0.2483 Z0.2487 I-0.0159 J0.0099
G1 X0.5046 Y-0.243
X0.5033 Y-0.2423
X0.5023 Y-0.2417
X0.4963 Y-0.2398
X0.4901 Y-0.2397
X0.4841 Y-0.2412
G3 X0.4754 Y-0.2561 I0.0094 J-0.0154
X0.4796 Y-0.268 I0.0176 J-0.0005
X0.506 Y-0.2685 I0.0134 J0.0114 F200.
X0.5023 Y-0.2417 I-0.0129 J0.0119 F60.
G1 X0.5004 Y-0.2407
X0.4985 Y-0.24
X0.4969 Y-0.2395
G3 X0.481 Y-0.2429 I-0.004 J-0.0198
G1 X0.3482 Y-0.3196
G3 X0.2723 Y-0.413 I0.1011 J-0.1597
X0.2618 Y-0.4534 I0.0859 J-0.0439
G1 X0.2622 Y-0.4567 Z0.2496
X0.2631 Y-0.4598 Z0.2505
X0.2646 Y-0.4627 Z0.2514
X0.2666 Y-0.4654 Z0.2523
X0.269 Y-0.4676 Z0.2532
X0.2718 Y-0.4694 Z0.2541
X0.2748 Y-0.4706 Z0.255
X0.278 Y-0.4714 Z0.2559
X0.2812 Y-0.4715 Z0.2567
X0.2817
G3 X0.2963 Y-0.4631 I-0.0011 J0.0187 F200.
G1 X0.3727 Y-0.3464
G3 X0.3737 Y-0.3277 I-0.0157 J0.0103
G1 X0.3735 Y-0.3274 F60.
G3 X0.3482 Y-0.3196 Z0.2487 I-0.0165 J-0.0088
G1 X0.319 Y-0.3364
G3 X0.2663 Y-0.4008 I0.074 J-0.1144
G1 X0.2629 Y-0.4132
X0.2619 Y-0.426
G3 X0.2812 Y-0.4441 Z0.2567 I0.0187 J0.0007
G1 X0.2817 Y-0.444
G3 X0.2963 Y-0.4356 I-0.0011 J0.0187 F200.
G1 X0.3435 Y-0.3632
G3 X0.3446 Y-0.3445 I-0.0157 J0.0103
G1 X0.3444 Y-0.3442 F60.
G3 X0.319 Y-0.3364 Z0.2487 I-0.0165 J-0.0088
G1 X0.2974 Y-0.349
G3 X0.2619 Y-0.4126 I0.038 J-0.0628
G1 X0.2623 Y-0.4159 Z0.2496
X0.2633 Y-0.419 Z0.2505
X0.2647 Y-0.4219 Z0.2514
X0.2667 Y-0.4245 Z0.2523
X0.2691 Y-0.4267 Z0.2532
X0.2718 Y-0.4285 Z0.2541
X0.2748 Y-0.4298 Z0.255
X0.278 Y-0.4305 Z0.2559
X0.2812 Y-0.4307 Z0.2567
X0.2817
G3 X0.297 Y-0.421 I-0.0011 J0.0187 F200.
G1 X0.3226 Y-0.3745
G3 X0.3229 Y-0.3571 I-0.0164 J0.009
G1 X0.3227 Y-0.3567 F60.
G3 X0.2974 Y-0.349 Z0.2487 I-0.0165 J-0.0088
G1 X0.2821 Y-0.3578
G3 X0.2619 Y-0.3945 I0.0217 J-0.0358
G1 X0.2624 Y-0.3993 Z0.2501
X0.2635 Y-0.4041 Z0.2514
X0.2651 Y-0.4087 Z0.2527
X0.2673 Y-0.4131 Z0.2541
X0.2701 Y-0.4172 Z0.2554
X0.2733 Y-0.4209 Z0.2567
X0.2736 Y-0.4211
G3 X0.3404 Y-0.3981 I0.0277 J0.0281 F200.
X0.311 Y-0.3544 I-0.0396 J0.0051
G1 X0.3106 Y-0.3543 F60.
G3 X0.2821 Y-0.3578 Z0.2487 I-0.0098 J-0.0387
G1 X0.2725 Y-0.3633
X0.2714 Y-0.3639
X0.2704 Y-0.3646
X0.2687 Y-0.366
X0.2679 Y-0.3667
G3 X0.2762 Y-0.3761 I0.0043 J-0.0046
G1 X0.2778 Y-0.3747
G3 X0.2704 Y-0.3646 I-0.004 J0.0048
G1 X0.2696 Y-0.3651
X0.2679 Y-0.3667
X0.2668 Y-0.3678
X0.2654 Y-0.3696
X0.2643 Y-0.3714
X0.2634 Y-0.3731
X0.2627 Y-0.3749
X0.2623 Y-0.3767
X0.262 Y-0.3785
X0.2619 Y-0.382
Y-0.5383
G3 X0.3015 Y-0.6443 I0.1858 J0.009
X0.335 Y-0.6785 I0.0954 J0.0601
G1 X0.338 Y-0.6797 Z0.2496
X0.3412 Y-0.6805 Z0.2505
X0.3445 Y-0.6806 Z0.2514
X0.3478 Y-0.6802 Z0.2523
X0.3509 Y-0.6792 Z0.2532
X0.3538 Y-0.6777 Z0.2541
X0.3564 Y-0.6757 Z0.255
X0.3586 Y-0.6733 Z0.2559
X0.3604 Y-0.6706 Z0.2567
X0.3606 Y-0.6702
G3 X0.3605 Y-0.6532 I-0.0167 J0.0084 F200.
G1 X0.2973 Y-0.5303
G3 X0.2817 Y-0.5202 I-0.0167 J-0.0086
G1 X0.2812 F60.
G3 X0.2619 Y-0.5383 Z0.2487 I-0.0006 J-0.0187
G1 Y-0.5706
G3 X0.292 Y-0.6487 I0.1364 J0.0078
G1 X0.3008 Y-0.6574
X0.311 Y-0.6644
G3 X0.3363 Y-0.6567 Z0.2567 I0.0088 J0.0166
G1 X0.3365 Y-0.6563
G3 Y-0.6393 I-0.0167 J0.0084 F200.
G1 X0.2973 Y-0.5627
G3 X0.2817 Y-0.5525 I-0.0167 J-0.0085
G1 X0.2812 F60.
G3 X0.2619 Y-0.5706 Z0.2487 I-0.0006 J-0.0187
G1 Y-0.5951
G3 X0.2993 Y-0.6576 I0.0735 J0.0015
G1 X0.3023 Y-0.6589 Z0.2496
X0.3055 Y-0.6596 Z0.2505
X0.3087 Y-0.6598 Z0.2514
X0.312 Y-0.6594 Z0.2523
X0.3151 Y-0.6585 Z0.2532
X0.318 Y-0.657 Z0.2541
X0.3206 Y-0.655 Z0.255
X0.3228 Y-0.6527 Z0.2559
X0.3246 Y-0.6499 Z0.2567
X0.3248 Y-0.6496
G3 X0.3241 Y-0.6314 I-0.0167 J0.0084 F200.
G1 X0.2966 Y-0.586
G3 X0.2817 Y-0.577 I-0.016 J-0.0097
G1 X0.2812 F60.
G3 X0.2619 Y-0.5951 Z0.2487 I-0.0006 J-0.0187
G1 Y-0.6114
X0.2622 Y-0.6174
X0.2631 Y-0.6234
X0.2675 Y-0.6332
X0.2743 Y-0.6417
X0.283 Y-0.6482
G3 X0.3083 Y-0.6405 Z0.2567 I0.0088 J0.0166
G1 X0.3085 Y-0.6401
G3 X0.308 Y-0.6224 I-0.0167 J0.0084 F200.
G1 X0.2969 Y-0.6028
G3 X0.2817 Y-0.5934 I-0.0163 J-0.0093
G1 X0.2812 Y-0.5933 F60.
X0.2806 Z0.2566
G3 X0.2619 Y-0.6114 Z0.2487 I0. J-0.0187
G1 Y-0.6235
Y-0.6254
X0.262 Y-0.627
G3 X0.2668 Y-0.6377 I0.0251 J0.005
X0.2923 Y-0.6322 I0.011 J0.011
X0.2837 Y-0.6124 I-0.0145 J0.0055 F200.
G1 X0.2812 Y-0.6116 F60.
X0.2786 Y-0.6112
X0.276 Y-0.6113
G3 X0.262 Y-0.627 I0.0019 J-0.0157
G1 X0.2623 Y-0.6288
G3 X0.2714 Y-0.6416 I0.0197 J0.0045
G1 X0.4068 Y-0.7197
G3 X0.5253 Y-0.7383 I0.087 J0.1677
X0.5664 Y-0.727 I-0.0054 J0.0996
G1 X0.569 Y-0.725 Z0.2496
X0.5712 Y-0.7226 Z0.2505
X0.573 Y-0.7198 Z0.2514
X0.5743 Y-0.7168 Z0.2523
X0.575 Y-0.7136 Z0.2532
X0.5752 Y-0.7104 Z0.2541
X0.5748 Y-0.7071 Z0.255
X0.5738 Y-0.704 Z0.2559
X0.5723 Y-0.7011 Z0.2567
X0.5721 Y-0.7007
G3 X0.5574 Y-0.6923 I-0.0157 J-0.0103 F200.
G1 X0.4177 Y-0.6851
G3 X0.401 Y-0.6936 I-0.001 J-0.0187
G1 X0.4008 Y-0.6939 F60.
G3 X0.4068 Y-0.7197 Z0.2487 I0.0159 J-0.0099
G1 X0.4358 Y-0.7365
G3 X0.519 Y-0.7495 I0.0619 J0.1233
G1 X0.5309 Y-0.7462
X0.5421 Y-0.7409
G3 X0.5481 Y-0.7151 Z0.2567 I-0.0099 J0.0159
G1 X0.5479 Y-0.7147
G3 X0.5331 Y-0.7062 I-0.0157 J-0.0103 F200.
G1 X0.4467 Y-0.7018
G3 X0.43 Y-0.7103 I-0.001 J-0.0187
G1 X0.4298 Y-0.7106 F60.
G3 X0.4358 Y-0.7365 Z0.2487 I0.0159 J-0.0099
G1 X0.4565 Y-0.7484
G3 X0.5303 Y-0.7476 I0.0362 J0.0644
G1 X0.5329 Y-0.7457 Z0.2496
X0.5351 Y-0.7433 Z0.2505
X0.5369 Y-0.7406 Z0.2514
X0.5382 Y-0.7376 Z0.2523
X0.5389 Y-0.7344 Z0.2532
X0.5391 Y-0.7312 Z0.2541
X0.5387 Y-0.7279 Z0.255
X0.5377 Y-0.7248 Z0.2559
X0.5363 Y-0.7219 Z0.2567
X0.536 Y-0.7215
G3 X0.5201 Y-0.713 I-0.0157 J-0.0103 F200.
G1 X0.4662 Y-0.7138
G3 X0.4508 Y-0.7223 I0.0003 J-0.0187
G1 X0.4505 Y-0.7226 F60.
G3 X0.4565 Y-0.7484 Z0.2487 I0.0159 J-0.0099
G1 X0.4724 Y-0.7576
G3 X0.5146 Y-0.7567 I0.0203 J0.037
G1 X0.5172 Y-0.7547 Z0.2496
X0.5194 Y-0.7524 Z0.2505
X0.5212 Y-0.7496 Z0.2514
X0.5225 Y-0.7466 Z0.2523
X0.5232 Y-0.7435 Z0.2532
X0.5234 Y-0.7402 Z0.2541
X0.523 Y-0.737 Z0.255
X0.522 Y-0.7339 Z0.2559
X0.5206 Y-0.7309 Z0.2567
X0.5203 Y-0.7306
G3 X0.5039 Y-0.7221 I-0.0157 J-0.0103 F200.
G1 X0.4816 Y-0.723
G3 X0.4666 Y-0.7314 I0.0007 J-0.0187
G1 X0.4664 Y-0.7318 F60.
G3 X0.4724 Y-0.7576 Z0.2487 I0.0159 J-0.0099
G1 X0.481 Y-0.7626
X0.4827 Y-0.7635
X0.4841 Y-0.7643
X0.4891 Y-0.766
G3 X0.5061 Y-0.7466 I0.0026 J0.0149
X0.4834 Y-0.7384 I-0.0145 J-0.0045 F200.
X0.4784 Y-0.7583 I0.0083 J-0.0127 F60.
G1 X0.4799 Y-0.7606
X0.4818 Y-0.7627
X0.4841 Y-0.7643
X0.4872 Y-0.7655
X0.4881 Y-0.7658
X0.4899 Y-0.7662
X0.4917 Y-0.7664
X0.4935
X0.4952 Y-0.7663
X0.4969 Y-0.766
X0.4985 Y-0.7655
X0.5004 Y-0.7648
X0.5023 Y-0.7638
X0.6373 Y-0.6859
G3 X0.7133 Y-0.5962 I-0.1052 J0.1661
X0.7237 Y-0.5577 I-0.0685 J0.0391
X0.7043 Y-0.5396 Z0.2567 I-0.0188 J-0.0007
G1 X0.7039
G3 X0.6895 Y-0.5477 I0.0011 J-0.0187 F200.
G1 X0.6131 Y-0.6587
G3 X0.6098 Y-0.6693 I0.0154 J-0.0106
G1 X0.61 Y-0.6722
X0.6107 Y-0.6751
X0.6118 Y-0.6778
X0.612 Y-0.6782 F60.
G3 X0.6373 Y-0.6859 Z0.2487 I0.0165 J0.0088
G1 X0.6675 Y-0.6685
G3 X0.7188 Y-0.6083 I-0.0738 J0.1148
G1 X0.7224 Y-0.5952
X0.7237 Y-0.5817
G3 X0.7043 Y-0.5636 Z0.2567 I-0.0187 J-0.0007
G1 X0.7039
G3 X0.6893 Y-0.572 I0.0011 J-0.0187 F200.
G1 X0.6431 Y-0.6415
G3 X0.642 Y-0.6604 I0.0156 J-0.0104
G1 X0.6422 Y-0.6607 F60.
G3 X0.6675 Y-0.6685 Z0.2487 I0.0165 J0.0088
G1 X0.6892 Y-0.6559
G3 X0.7236 Y-0.5947 I-0.0369 J0.061
X0.7043 Y-0.5767 Z0.2567 I-0.0187 J-0.0007
G1 X0.7039
G3 X0.6885 Y-0.5863 I0.0011 J-0.0187 F200.
G1 X0.664 Y-0.6303
G3 X0.6637 Y-0.6478 I0.0164 J-0.0091
G1 X0.6639 Y-0.6482 F60.
G3 X0.6892 Y-0.6559 Z0.2487 I0.0165 J0.0088
G1 X0.7034 Y-0.6477
G3 X0.7236 Y-0.6115 I-0.0211 J0.0355
G1 X0.7231 Y-0.6066 Z0.2501
X0.7221 Y-0.6019 Z0.2514
X0.7204 Y-0.5973 Z0.2527
X0.7182 Y-0.5929 Z0.2541
X0.7154 Y-0.5888 Z0.2554
X0.7122 Y-0.5852 Z0.2567
X0.7119 Y-0.5849
G3 X0.6459 Y-0.6075 I-0.0273 J-0.028 F200.
X0.6745 Y-0.6509 I0.039 J-0.0054
G1 X0.6749 Y-0.651 F60.
G3 X0.7034 Y-0.6477 Z0.2487 I0.0101 J0.0381
G1 X0.7124 Y-0.6425
X0.7133 Y-0.642
X0.7145 Y-0.6413
X0.7164 Y-0.64
X0.7172 Y-0.6394
G3 X0.7181 Y-0.6258 I-0.0078 J0.0073
X0.7037 Y-0.623 I-0.0087 J-0.0061
G1 X0.7024 Y-0.624 F200.
G3 X0.7145 Y-0.6413 I0.007 J-0.008 F60.
G1 X0.7155 Y-0.6407
X0.7172 Y-0.6394
X0.7181 Y-0.6385
X0.7189 Y-0.6377
X0.7202 Y-0.6361
X0.7212 Y-0.6345
G3 X0.7236 Y-0.6235 I-0.0179 J0.0098
G1 X0.7237 Y-0.5127
G3 X0.7028 Y-0.4947 I-0.0187 J-0.0007
G1 X0.6996 Y-0.4951 Z0.249
X0.6964 Y-0.4954 Z0.2499
X0.6935 Y-0.4958 Z0.2513
X0.6908 Y-0.4961 Z0.2531
X0.6885 Y-0.4963 Z0.2554
X0.6867 Y-0.4965 Z0.2581
X0.6853 Y-0.4967 Z0.2611
X0.6844 Y-0.4968 Z0.2642
X0.6842 Z0.2675
G0 Z1.1
(2D CONTOUR1)
G64 P0.0004 Q0.0004
G0 X0.6013 Y-0.3522
Z1.1
Z0.7
G1 Z0.5375 F80.
Z0.2675
X0.6015 Y-0.352 Z0.2642 F60.
X0.6019 Y-0.3512 Z0.2611
X0.6026 Y-0.35 Z0.2581
X0.6035 Y-0.3484 Z0.2554
X0.6047 Y-0.3464 Z0.2531
X0.606 Y-0.3441 Z0.2513
X0.6075 Y-0.3415 Z0.2499
X0.6091 Y-0.3388 Z0.249
X0.6107 Y-0.336 Z0.2487
X0.6201 Y-0.3197
G3 X0.6132 Y-0.2941 I-0.0162 J0.0094
G1 X0.4928 Y-0.2246
X0.2519 Y-0.3637
Y-0.6418
X0.4928 Y-0.7809
X0.7337 Y-0.6418
Y-0.3637
X0.6132 Y-0.2941
X0.4928 Y-0.2246
X0.2519 Y-0.3637
Y-0.6418
X0.4928 Y-0.7809
X0.7337 Y-0.6418
Y-0.3637
X0.6132 Y-0.2941
G3 X0.5876 Y-0.301 I-0.0094 J-0.0162
G1 X0.5782 Y-0.3172
X0.5766 Y-0.3201 Z0.249
X0.575 Y-0.3228 Z0.2499
X0.5735 Y-0.3254 Z0.2513
X0.5722 Y-0.3277 Z0.2531
X0.571 Y-0.3297 Z0.2554
X0.5701 Y-0.3313 Z0.2581
X0.5694 Y-0.3325 Z0.2611
X0.569 Y-0.3332 Z0.2642
X0.5688 Y-0.3335 Z0.2675
G0 Z1.1
X0.5987 Y-0.5215
Z0.7
G1 Z0.5375 F80.
Z0.1887
G18 G2 X0.6174 Z0.17 I0.0187 K0. F60.
G1 X0.6362
G17 G3 X0.6549 Y-0.5028 I0. J0.0187
X0.3306 I-0.1622 J0.
X0.6549 I0.1622 J0.
X0.3306 I-0.1622 J0.
X0.6549 I0.1622 J0.
X0.6362 Y-0.484 I-0.0187 J0.
G1 X0.6174
G18 G3 X0.5987 Z0.1887 I0. K0.0188
G0 Z0.7
X1.9725
G1 Z0.5375 F80.
Z0.1887
G3 X1.9537 Z0.17 I-0.0187 K0. F60.
G1 X1.935
G17 G3 X1.9162 Y-0.5028 I0. J-0.0188
G1 Y-0.6602
G2 X1.8128 Y-0.9002 I-0.33 J0.
X1.4376 Y-1.0493 I-0.3751 J0.3974
G1 X0.4928
G2 Y0.0438 I0. J0.5465
G1 X1.4376
G2 X1.8128 Y-0.1053 I0. J-0.5465
X1.9162 Y-0.3453 I-0.2265 J-0.24
G1 Y-0.5028
Y-0.6602
G2 X1.8128 Y-0.9002 I-0.33 J0.
X1.4376 Y-1.0493 I-0.3751 J0.3974
G1 X0.4928
G2 Y0.0438 I0. J0.5465
G1 X1.4376
G2 X1.8128 Y-0.1053 I0. J-0.5465
X1.9162 Y-0.3453 I-0.2265 J-0.24
G1 Y-0.5028
G3 X1.935 Y-0.5215 I0.0187 J0.
G1 X1.9537
G18 G2 X1.9725 Z0.1887 I0. K0.0188
G0 Z0.7
X1.4756
G1 Z0.5375 F80.
Z0.1887
G2 X1.4944 Z0.17 I0.0187 K0. F60.
G1 X1.5131
G17 G3 X1.5319 Y-0.5028 I0. J0.0187
G1 Y-0.4085
X1.3434
Y-0.597
X1.5319
Y-0.5028
Y-0.4085
X1.3434
Y-0.597
X1.5319
Y-0.5028
G3 X1.5131 Y-0.484 I-0.0187 J0.
G1 X1.4944
G18 G3 X1.4756 Z0.1887 I0. K0.0188
G0 Z1.1
G17
M5
G53 G0 Z-0.6
(2D CONTOUR2)
M9
M1
T21 M6
T11
S7500 M3
G17 G90 G94
G54
M8
G0 X1.5256 Y-0.5153
G43 Z1.1 H21
G0 Z0.7
G1 Z0.525 F80.
Z0.4025
G18 G2 X1.5381 Z0.39 I0.0125 K0. F30.
G1 X1.5506
G17 G3 X1.5631 Y-0.5028 I0. J0.0125
G1 Y-0.3773
X1.3121
Y-0.6283
X1.5631
Y-0.3773
X1.3121
Y-0.6283
X1.5631
Y-0.5028
G3 X1.5506 Y-0.4903 I-0.0125 J0.
G1 X1.5381
G18 G3 X1.5256 Z0.4025 I0. K0.0125
G0 Z0.7
Y-0.5153
G1 Z0.4182 F80.
Z0.2925
G2 X1.5381 Z0.28 I0.0125 K0. F30.
G1 X1.5506
G17 G3 X1.5631 Y-0.5028 I0. J0.0125
G1 Y-0.3773
X1.3121
Y-0.6283
X1.5631
Y-0.3773
X1.3121
Y-0.6283
X1.5631
Y-0.5028
G3 X1.5506 Y-0.4903 I-0.0125 J0.
G1 X1.5381
G18 G3 X1.5256 Z0.2925 I0. K0.0125
G0 Z0.7
Y-0.5153
G1 Z0.3082 F80.
Z0.1825
G2 X1.5381 Z0.17 I0.0125 K0. F30.
G1 X1.5506
G17 G3 X1.5631 Y-0.5028 I0. J0.0125
G1 Y-0.3773
X1.3121
Y-0.6283
X1.5631
Y-0.3773
X1.3121
Y-0.6283
X1.5631
Y-0.5028
G3 X1.5506 Y-0.4903 I-0.0125 J0.
G1 X1.5381
G18 G3 X1.5256 Z0.1825 I0. K0.0125
G0 Z1.1
G17
M5
G53 G0 Z-0.6
(2D CHAMFER1)
M9
M1
T11 M6
T22
S7500 M3
G17 G90 G94
G54
M8
G0 X0.7749 Y-0.3637
G43 Z1.1 H11
G0 Z0.7
G1 Z0.58 F80.
Z0.435
X0.7874 F7.
G2 X0.8074 Y-0.329 I0.04 J0.
G3 X0.8005 Y-0.3171 I-0.0034 J0.006
G2 X0.7605 I-0.02 J0.0346
G1 X0.5196 Y-0.178
G2 X0.4996 Y-0.1434 I0.02 J0.0346
G3 X0.4859 I-0.0069 J0.
G2 X0.4659 Y-0.178 I-0.04 J0.
G1 X0.225 Y-0.3171
G2 X0.185 I-0.02 J0.0346
G3 X0.1781 Y-0.329 I-0.0034 J-0.006
G2 X0.1981 Y-0.3637 I-0.02 J-0.0346
G1 Y-0.6418
G2 X0.1781 Y-0.6765 I-0.04 J0.
G3 X0.1756 Y-0.6859 I0.0034 J-0.006
X0.185 Y-0.6884 I0.006 J0.0034
G2 X0.225 I0.02 J-0.0346
G1 X0.4659 Y-0.8275
G2 X0.4859 Y-0.8621 I-0.02 J-0.0346
G3 X0.4996 I0.0069 J0.
G2 X0.5196 Y-0.8275 I0.04 J0.
G1 X0.7605 Y-0.6884
G2 X0.8005 I0.02 J-0.0346
G3 X0.8074 Y-0.6765 I0.0034 J0.006
G2 X0.7874 Y-0.6418 I0.02 J0.0346
G1 Y-0.3637
X0.7749
G0 Z0.7
X1.875 Y-0.5028
G1 Z0.58 F80.
Z0.435
X1.8625 F7.
Y-0.6602
G2 X1.7759 Y-0.8611 I-0.2762 J0.
X1.4376 Y-0.9955 I-0.3382 J0.3583
G1 X0.4928
G2 Y-0.01 I0. J0.4928
G1 X1.4376
G2 X1.7759 Y-0.1444 I0. J-0.4928
X1.8625 Y-0.3453 I-0.1896 J-0.2009
G1 Y-0.5028
X1.875
G0 Z0.7
X1.5731 Y-0.6283
G1 Z0.58 F80.
Z0.435
X1.5856 F7.
Y-0.3773
G2 X1.5974 Y-0.349 I0.04 J0.
G1 X1.5982 Y-0.3478
X1.5986 Y-0.3464
X1.5984 Y-0.3449
X1.5978 Y-0.3436
X1.5968 Y-0.3426
X1.5955 Y-0.342
X1.594 Y-0.3418
X1.5926 Y-0.3422
X1.5914 Y-0.343
G2 X1.5631 Y-0.3548 I-0.0283 J0.0283
G1 X1.3121
G2 X1.2839 Y-0.343 I0. J0.04
G1 X1.2827 Y-0.3422
X1.2813 Y-0.3418
X1.2798 Y-0.342
X1.2785 Y-0.3426
X1.2775 Y-0.3436
X1.2768 Y-0.3449
X1.2767 Y-0.3464
X1.2771 Y-0.3478
X1.2779 Y-0.349
G2 X1.2896 Y-0.3773 I-0.0283 J-0.0283
G1 Y-0.6283
G2 X1.2779 Y-0.6565 I-0.04 J0.
G1 X1.2771 Y-0.6577
X1.2767 Y-0.6591
X1.2768 Y-0.6606
X1.2775 Y-0.6619
X1.2785 Y-0.6629
X1.2798 Y-0.6636
X1.2813 Y-0.6637
X1.2827 Y-0.6633
X1.2839 Y-0.6625
G2 X1.3121 Y-0.6508 I0.0283 J-0.0283
G1 X1.5631
G2 X1.5914 Y-0.6625 I0. J-0.04
G1 X1.5926 Y-0.6633
X1.594 Y-0.6637
X1.5955 Y-0.6636
X1.5968 Y-0.6629
X1.5978 Y-0.6619
X1.5984 Y-0.6606
X1.5986 Y-0.6591
X1.5982 Y-0.6577
X1.5974 Y-0.6565
G2 X1.5856 Y-0.6283 I0.0283 J0.0283
G1 X1.5731
G0 Z1.1
X0.6962 Y-0.5028
Z0.7
G1 Z0.58 F80.
Z0.1987
X0.7087 F7.
G3 X0.2769 I-0.2159 J0.
X0.7087 I0.2159 J0.
G1 X0.6962
G0 Z1.1
M5
M9
G53 G0 Z-0.6
M30
%
