%
(OP2)
(MACHINE)
(  VENDOR CALLUM)
(  MODEL MILL R1)
(  DESCRIPTION 14X8X14 MILL)
(T11 D=0.125 CR=0. TAPER=45DEG - ZMIN=0.265 - CHAMFER MILL)
(T22 D=0.1875 CR=0.008 - ZMIN=0.315 - BULLNOSE END MILL)
G90 G94 G17 G91.1
G20
G53 G0 Z-0.6
(ADAPTIVE1 2)
T22 M6
T11
S7500 M3
G17 G90 G94
G54
G64 P0.004 Q0.004
M8
G0 X-0.1185 Y-1.173
G43 Z1.085 H22
G0 Z0.3525
G1 Z0.3337 F60.
X-0.1184 Y-1.1727 Z0.3305
X-0.1182 Y-1.1719 Z0.3273
X-0.1178 Y-1.1705 Z0.3243
X-0.1174 Y-1.1687 Z0.3217
X-0.1168 Y-1.1665 Z0.3193
X-0.1161 Y-1.1639 Z0.3175
X-0.1154 Y-1.161 Z0.3161
X-0.1146 Y-1.158 Z0.3152
X-0.1138 Y-1.1548 Z0.315
G3 X-0.0991 Y-1.0527 I-0.4637 J0.1188
G1 Y-1.0469
X-0.1237 Y-1.0275
X-0.1424 Y-1.0024
X-0.1553 Y-0.9739
X-0.1634 Y-0.9437
G2 X-0.172 Y-0.819 I0.6909 J0.1104
G1 X-0.1724 Y-0.7877
X-0.1725 Y-0.7564
Y-0.6938
X-0.1718 Y-0.0054
X-0.1712 Y0.0102
X-0.1678 Y0.0255
X-0.1555 Y0.0543
X-0.135 Y0.0779
X-0.1092 Y0.0956
X-0.0803 Y0.1076
X-0.0499 Y0.115
G2 X0.0749 Y0.1227 I0.1101 J-0.7662
G1 X0.1062 Y0.1231
X0.1375 Y0.1232
X0.2001
X0.6695 Y0.1228
X1.7647 Y0.1218
X1.7804
X1.7957 Y0.1189
X1.8248 Y0.1073
X1.8489 Y0.0873
X1.867 Y0.0617
X1.8793 Y0.033
X1.887 Y0.0026
G2 X1.895 Y-0.1221 I-0.7319 J-0.1097
G1 X1.8954 Y-0.1534
X1.8955 Y-0.1847
X1.8954 Y-0.2473
X1.8947 Y-0.6854
X1.8943 Y-0.9044
X1.8928 Y-0.92
X1.8844 Y-0.9501
X1.8664 Y-0.9758
X1.8422 Y-0.9956
X1.8142 Y-1.0095
X1.7842 Y-1.0184
X1.7533 Y-1.0236
G2 X1.6283 Y-1.0287 I-0.1118 J1.21
G1 X1.597 Y-1.0289
X1.5344
X0.9399
X0.1889 Y-1.0288
X-0.0302
X-0.0608 Y-1.0224
X-0.088 Y-1.0069
X-0.11 Y-0.9847
X-0.1264 Y-0.958
X-0.1374 Y-0.9287
X-0.1443 Y-0.8982
G2 X-0.152 Y-0.7734 I0.8178 J0.1127
G1 X-0.1524 Y-0.7421
X-0.1525 Y-0.7108
Y-0.6482
X-0.1519 Y-0.1163
X-0.1518 Y-0.0537
X-0.1514 Y-0.0224
X-0.1439 Y0.008
X-0.1284 Y0.0352
X-0.1065 Y0.0575
X-0.0802 Y0.0744
X-0.0512 Y0.0862
X-0.0208 Y0.0938
G2 X0.1039 Y0.1025 I0.1142 J-0.7362
X0.4794 Y0.1029 I0.2193 J-28.1159
G1 X1.7311 Y0.1019
X1.7623 Y0.0995
X1.7918 Y0.089
X1.8172 Y0.0708
X1.8375 Y0.0469
X1.8522 Y0.0193
X1.8621 Y-0.0104
X1.8682 Y-0.0411
G2 X1.875 Y-0.166 I-0.9206 J-0.1123
G1 X1.8753 Y-0.1972
X1.8754 Y-0.2285
X1.8753 Y-0.2911
X1.8749 Y-0.5415
X1.8744 Y-0.8544
X1.8736 Y-0.8857
X1.8657 Y-0.916
X1.8498 Y-0.9429
X1.8275 Y-0.9649
X1.8009 Y-0.9813
X1.7717 Y-0.9926
X1.7413 Y-0.9999
G2 X1.6165 Y-1.0082 I-0.1147 J0.7745
G1 X1.5852 Y-1.0087
X1.5539 Y-1.0088
X1.4913 Y-1.0089
X1.1471
X0.3022 Y-1.0088
X0.0206
X-0.0107 Y-1.0073
X-0.0406 Y-0.9981
X-0.067 Y-0.9813
X-0.0884 Y-0.9586
X-0.1046 Y-0.9318
X-0.1159 Y-0.9026
X-0.1231 Y-0.8721
G2 X-0.1318 Y-0.7474 I0.7701 J0.116
X-0.1324 Y-0.5597 I10.2828 J0.1284
G1 X-0.1319 Y-0.0903
X-0.1317 Y-0.059
X-0.1266 Y-0.0281
X-0.1139 Y0.0005
X-0.0946 Y0.0251
X-0.0701 Y0.0446
X-0.0423 Y0.059
X-0.0126 Y0.0688
X0.0181 Y0.0751
G2 X0.1429 Y0.0825 I0.116 J-0.8932
X0.4558 Y0.083 I0.1882 J-22.2244
G1 X1.6762 Y0.0819
X1.7075 Y0.0818
X1.7386 Y0.0782
X1.7679 Y0.0671
X1.7933 Y0.0489
X1.8138 Y0.0252
X1.8292 Y-0.002
X1.8398 Y-0.0315
X1.8466 Y-0.062
G2 X1.8547 Y-0.1868 I-0.8192 J-0.1162
X1.8548 Y-0.5623 I-27.3347 J-0.1971
G1 X1.8544 Y-0.8127
X1.8542 Y-0.844
X1.85 Y-0.875
X1.838 Y-0.9039
X1.8192 Y-0.9288
X1.795 Y-0.9488
X1.7675 Y-0.9636
X1.7379 Y-0.9738
X1.7073 Y-0.9803
G2 X1.5825 Y-0.9882 I-0.1165 J0.8549
X1.3947 Y-0.9889 I-0.1392 J11.4544
G1 X0.2369 Y-0.9888
X0.0491
X0.0179 Y-0.9871
X-0.0122 Y-0.9787
X-0.0393 Y-0.963
X-0.0619 Y-0.9414
X-0.0794 Y-0.9154
X-0.092 Y-0.8868
X-0.1004 Y-0.8566
G2 X-0.1114 Y-0.7321 I0.6461 J0.1199
X-0.1124 Y-0.5757 I6.3696 J0.1195
G1 X-0.1121 Y-0.3253
X-0.1119 Y-0.1063
X-0.1106 Y-0.075
X-0.1034 Y-0.0446
X-0.089 Y-0.0168
X-0.0685 Y0.0068
X-0.0434 Y0.0255
X-0.0153 Y0.0393
X0.0145 Y0.0488
X0.0452 Y0.0549
G2 X0.1701 Y0.0624 I0.1183 J-0.9254
X0.3578 Y0.0631 I0.1325 J-11.2297
G1 X0.6081 Y0.0629
X1.6408 Y0.062
X1.6721 Y0.0619
X1.7033 Y0.0598
X1.7334 Y0.0512
X1.7605 Y0.0356
X1.7833 Y0.0141
X1.8009 Y-0.0117
X1.8138 Y-0.0403
X1.8225 Y-0.0703
G2 X1.8342 Y-0.1947 I-0.6162 J-0.1205
X1.8352 Y-0.3512 I-5.9054 J-0.1171
G1 X1.8349 Y-0.5702
X1.8345 Y-0.758
Y-0.7893
X1.8339 Y-0.8206
X1.829 Y-0.8515
X1.817 Y-0.8804
X1.7983 Y-0.9055
X1.7745 Y-0.9258
X1.7472 Y-0.9411
X1.7178 Y-0.9519
X1.6874 Y-0.9589
G2 X1.5626 Y-0.968 I-0.12 J0.7889
X1.4062 Y-0.9689 I-0.1261 J7.8603
G1 X0.9994
X0.0919 Y-0.9688
X0.0606 Y-0.9684
X0.0296 Y-0.964
X0.0004 Y-0.9527
X-0.0252 Y-0.9348
X-0.0461 Y-0.9115
X-0.0622 Y-0.8846
X-0.0736 Y-0.8555
X-0.0813 Y-0.8252
G2 X-0.0914 Y-0.7006 I0.7149 J0.1205
X-0.0924 Y-0.5441 I6.7559 J0.1204
G1 X-0.0921 Y-0.3251
X-0.0919 Y-0.1373
X-0.091 Y-0.106
X-0.0853 Y-0.0753
X-0.0727 Y-0.0466
X-0.0539 Y-0.0217
X-0.03 Y-0.0014
X-0.0028 Y0.014
X0.0265 Y0.025
X0.0569 Y0.0323
G2 X0.1816 Y0.0421 I0.1215 J-0.7519
X0.338 Y0.0431 I0.1225 J-6.9665
G1 X0.5571 Y0.0429
X0.9326 Y0.0426
X1.621 Y0.042
X1.6523 Y0.0417
X1.6835 Y0.0387
X1.7133 Y0.0293
X1.7401 Y0.0132
X1.7626 Y-0.0086
X1.7802 Y-0.0345
X1.793 Y-0.063
X1.8018 Y-0.0931
G2 X1.814 Y-0.2174 I-0.615 J-0.1227
X1.8151 Y-0.4052 I-6.9663 J-0.1375
G1 X1.8145 Y-0.7494
X1.8143 Y-0.7807
X1.812 Y-0.8119
X1.8038 Y-0.8421
X1.7886 Y-0.8694
X1.7676 Y-0.8926
X1.7422 Y-0.9109
X1.714 Y-0.9245
X1.6842 Y-0.934
G2 X1.56 Y-0.9473 I-0.1236 J0.5658
X1.3722 Y-0.9489 I-0.1493 J6.4691
G1 X0.9654
X0.1205 Y-0.9488
X0.0893 Y-0.9485
X0.0582 Y-0.9449
X0.0286 Y-0.9348
X0.0021 Y-0.9182
X-0.0201 Y-0.8961
X-0.0374 Y-0.87
X-0.0501 Y-0.8414
X-0.0588 Y-0.8113
G2 X-0.071 Y-0.6869 I0.6214 J0.1238
X-0.0723 Y-0.5305 I5.2612 J0.1213
G1 X-0.0722 Y-0.4053
X-0.072 Y-0.1863
X-0.0718 Y-0.155
X-0.0702 Y-0.1237
X-0.0633 Y-0.0932
X-0.0499 Y-0.065
X-0.0303 Y-0.0405
X-0.0061 Y-0.0207
X0.0214 Y-0.0057
X0.0508 Y0.0051
X0.0812 Y0.0122
G2 X0.2059 Y0.022 I0.1232 J-0.7739
X0.5501 Y0.0229 I0.2191 J-16.9717
G1 X1.4263 Y0.0221
X1.5827 Y0.022
X1.614 Y0.0219
X1.6453 Y0.0207
X1.676 Y0.0146
X1.7045 Y0.0017
X1.7294 Y-0.0172
X1.7497 Y-0.0411
X1.7652 Y-0.0682
X1.7763 Y-0.0975
X1.7839 Y-0.1278
G2 X1.7941 Y-0.2524 I-0.7246 J-0.1222
X1.795 Y-0.4715 I-9.6088 J-0.1499
G1 X1.7946 Y-0.7218
X1.7945 Y-0.7531
X1.7925 Y-0.7843
X1.7851 Y-0.8147
X1.771 Y-0.8427
X1.7511 Y-0.8668
X1.7266 Y-0.8862
X1.6989 Y-0.9009
X1.6694 Y-0.9113
X1.6389 Y-0.9183
G2 X1.5142 Y-0.9278 I-0.1232 J0.7968
X1.17 Y-0.9289 I-0.2292 J17.6389
G1 X0.9823
X0.1687 Y-0.9288
X0.1374
X0.1061 Y-0.9279
X0.0752 Y-0.9231
X0.0459 Y-0.912
X0.02 Y-0.8944
X-0.0015 Y-0.8717
X-0.0183 Y-0.8453
X-0.0306 Y-0.8165
X-0.039 Y-0.7864
G2 X-0.0509 Y-0.6619 I0.6499 J0.125
X-0.0523 Y-0.4742 I6.7902 J0.144
G1 X-0.052 Y-0.2239
X-0.0519 Y-0.1926
X-0.0513 Y-0.1613
X-0.0472 Y-0.1303
X-0.037 Y-0.1007
X-0.0204 Y-0.0741
X0.0015 Y-0.0518
X0.0274 Y-0.0342
X0.0558 Y-0.0211
X0.0858 Y-0.012
X0.1165 Y-0.0059
G2 X0.2726 Y0.0024 I0.1376 J-1.1075
G1 X0.3038 Y0.0029
X0.3351 Y0.003
X0.3977
X0.6168 Y0.0029
X1.5555 Y0.002
X1.5868
X1.6181 Y0.0009
X1.649 Y-0.0044
X1.678 Y-0.0161
X1.7036 Y-0.034
X1.7249 Y-0.057
X1.7414 Y-0.0835
X1.7535 Y-0.1124
X1.7619 Y-0.1425
G2 X1.7738 Y-0.267 I-0.6509 J-0.1249
X1.775 Y-0.3921 I-4.1405 J-0.1044
G1 Y-0.4547
X1.7747 Y-0.6738
X1.7746 Y-0.705
X1.7742 Y-0.7363
X1.7715 Y-0.7675
X1.7629 Y-0.7976
X1.7479 Y-0.8251
X1.7272 Y-0.8486
X1.7023 Y-0.8674
X1.6744 Y-0.8817
X1.6448 Y-0.8917
X1.6142 Y-0.8985
G2 X1.4895 Y-0.9077 I-0.1246 J0.8323
X1.1766 Y-0.9089 I-0.217 J15.8054
G1 X0.2378 Y-0.9088
X0.1752
X0.1439 Y-0.9085
X0.1127 Y-0.906
X0.0824 Y-0.8982
X0.0546 Y-0.8838
X0.0307 Y-0.8637
X0.0113 Y-0.8391
X-0.0034 Y-0.8115
X-0.014 Y-0.7821
X-0.0212 Y-0.7516
G2 X-0.0311 Y-0.627 I0.7701 J0.1241
X-0.032 Y-0.2515 I18.345 J0.2305
G1 Y-0.2202
X-0.0315 Y-0.1889
X-0.0282 Y-0.1578
X-0.0191 Y-0.1278
X-0.0037 Y-0.1006
X0.0172 Y-0.0773
X0.0422 Y-0.0586
X0.0702 Y-0.0445
X0.0998 Y-0.0344
X0.1303 Y-0.0276
G2 X0.255 Y-0.0181 I0.1248 J-0.8179
X0.4741 Y-0.017 I0.1599 J-9.9811
G1 X0.9435 Y-0.0174
X1.538 Y-0.018
X1.5693 Y-0.0181
X1.6006 Y-0.0197
X1.6312 Y-0.026
X1.6599 Y-0.0384
X1.6851 Y-0.0569
X1.706 Y-0.0803
X1.7221 Y-0.1071
X1.7339 Y-0.1361
X1.742 Y-0.1663
G2 X1.7537 Y-0.2908 I-0.6767 J-0.1261
X1.7549 Y-0.4785 I-6.4347 J-0.1376
G1 X1.7547 Y-0.6663
X1.7545 Y-0.6976
X1.7534 Y-0.7288
X1.7481 Y-0.7597
X1.7366 Y-0.7888
X1.719 Y-0.8146
X1.6963 Y-0.8362
X1.67 Y-0.8531
X1.6413 Y-0.8656
X1.6112 Y-0.8743
G2 X1.4869 Y-0.8871 I-0.1269 J0.6229
X1.2992 Y-0.8888 I-0.1485 J5.9648
G1 X1.1114 Y-0.8889
X0.2039 Y-0.8888
X0.1727 Y-0.8887
X0.1414 Y-0.8868
X0.1108 Y-0.8803
X0.0823 Y-0.8674
X0.0573 Y-0.8486
X0.0367 Y-0.825
X0.0207 Y-0.7981
X0.009 Y-0.7691
X0.001 Y-0.7388
G2 X-0.0108 Y-0.6144 I0.6775 J0.1265
X-0.012 Y-0.2702 I13.4108 J0.22
G1 Y-0.2389
X-0.0112 Y-0.2076
X-0.0075 Y-0.1765
X0.0022 Y-0.1468
X0.018 Y-0.1197
X0.0391 Y-0.0967
X0.0644 Y-0.0782
X0.0924 Y-0.0643
X0.1221 Y-0.0544
G2 X0.2461 Y-0.0392 I0.1296 J-0.5439
X0.4651 Y-0.037 I0.1696 J-6.0964
G1 X0.778 Y-0.0373
X1.4978 Y-0.0379
X1.5291 Y-0.038
X1.5603 Y-0.0385
X1.5915 Y-0.0417
X1.6216 Y-0.0504
X1.649 Y-0.0653
X1.6727 Y-0.0858
X1.6917 Y-0.1106
X1.7063 Y-0.1384
X1.7167 Y-0.1679
X1.7239 Y-0.1983
G2 X1.7338 Y-0.323 I-0.7806 J-0.1252
X1.7341 Y-0.6985 I-14.315 J-0.1984
G1 X1.73 Y-0.7295
X1.7203 Y-0.7592
X1.7044 Y-0.7862
X1.6831 Y-0.8091
X1.6578 Y-0.8275
X1.6298 Y-0.8414
X1.6001 Y-0.8514
G2 X1.4761 Y-0.8666 I-0.1296 J0.5414
X1.2571 Y-0.8689 I-0.174 J6.1874
G1 X0.9442
X0.2245 Y-0.8688
X0.1932 Y-0.8685
X0.162 Y-0.8665
X0.1314 Y-0.8597
X0.103 Y-0.8467
X0.0779 Y-0.8279
X0.0573 Y-0.8044
X0.0413 Y-0.7775
X0.0295 Y-0.7485
X0.0214 Y-0.7183
G2 X0.0094 Y-0.5938 I0.6748 J0.1279
X0.0082 Y-0.2496 I11.7866 J0.2113
G1 X0.0096 Y-0.2184
X0.0153 Y-0.1876
X0.0269 Y-0.1585
X0.0445 Y-0.1327
X0.0672 Y-0.1111
X0.0934 Y-0.0941
X0.122 Y-0.0814
X0.152 Y-0.0724
G2 X0.2762 Y-0.059 I0.1289 J-0.6117
X0.5266 Y-0.0571 I0.1851 J-7.9551
G1 X1.1211 Y-0.0576
X1.4966 Y-0.0579
X1.5279 Y-0.0582
X1.5591 Y-0.0602
X1.5898 Y-0.0667
X1.6183 Y-0.0794
X1.6435 Y-0.098
X1.6643 Y-0.1214
X1.6806 Y-0.1481
X1.6926 Y-0.177
X1.701 Y-0.2072
G2 X1.7134 Y-0.3315 I-0.6512 J-0.1276
X1.714 Y-0.6757 I-10.0298 J-0.1913
G1 X1.7102 Y-0.7068
X1.7007 Y-0.7366
X1.6852 Y-0.7638
X1.6643 Y-0.787
X1.6392 Y-0.8058
X1.6114 Y-0.8201
X1.5818 Y-0.8303
G2 X1.4579 Y-0.8464 I-0.1311 J0.525
X1.2389 Y-0.8489 I-0.175 J5.6914
G1 X0.9886
X0.9573
X0.2689 Y-0.8488
X0.2376
X0.2063 Y-0.8482
X0.1751 Y-0.8452
X0.145 Y-0.8368
X0.1172 Y-0.8223
X0.0932 Y-0.8022
X0.0737 Y-0.7778
X0.0586 Y-0.7504
X0.0477 Y-0.7211
X0.0402 Y-0.6907
G2 X0.0293 Y-0.5661 I0.7429 J0.1279
X0.0286 Y-0.2532 I9.7129 J0.179
G1 X0.0322 Y-0.2221
X0.0411 Y-0.1921
X0.0562 Y-0.1647
X0.0767 Y-0.1411
X0.1015 Y-0.1219
X0.1291 Y-0.1072
X0.1585 Y-0.0966
X0.1889 Y-0.0892
G2 X0.3135 Y-0.0785 I0.1277 J-0.7563
X0.4699 Y-0.0772 I0.1275 J-5.624
G1 X0.5638 Y-0.0771
X1.4713 Y-0.0779
X1.5026 Y-0.0781
X1.5338 Y-0.0798
X1.5646 Y-0.0856
X1.5935 Y-0.0975
X1.6192 Y-0.1153
X1.6408 Y-0.138
X1.6578 Y-0.1643
X1.6705 Y-0.1929
X1.6795 Y-0.2229
G2 X1.6931 Y-0.3471 I-0.6072 J-0.1293
X1.6937 Y-0.66 I-7.1774 J-0.1714
G1 X1.6888 Y-0.6909
X1.6784 Y-0.7204
X1.662 Y-0.7471
X1.6403 Y-0.7697
X1.6148 Y-0.7878
X1.5867 Y-0.8015
X1.557 Y-0.8112
X1.5264 Y-0.8179
G2 X1.3704 Y-0.8279 I-0.1432 J1.0047
X1.2139 Y-0.8289 I-0.1265 J7.9969
G1 X0.9949
X0.2752 Y-0.8288
X0.2439 Y-0.8286
X0.2126 Y-0.8273
X0.1818 Y-0.8219
X0.1526 Y-0.8107
X0.1264 Y-0.7935
X0.1044 Y-0.7712
X0.0869 Y-0.7453
X0.0737 Y-0.7169
X0.0644 Y-0.6871
G2 X0.05 Y-0.563 I0.5771 J0.1298
X0.0484 Y-0.2814 I7.0644 J0.1799
G1 X0.0511 Y-0.2502
X0.0586 Y-0.2198
X0.0723 Y-0.1917
X0.0916 Y-0.1671
X0.1154 Y-0.1468
X0.1424 Y-0.1309
X0.1715 Y-0.1193
X0.2017 Y-0.1111
G2 X0.3261 Y-0.0989 I0.1294 J-0.6751
X0.5138 Y-0.0972 I0.1468 J-5.8791
G1 X0.6703
X1.4213 Y-0.0979
X1.4526
X1.4839 Y-0.0982
X1.5151 Y-0.1001
X1.5458 Y-0.1065
X1.5745 Y-0.1188
X1.6001 Y-0.1368
X1.6214 Y-0.1597
X1.6382 Y-0.1861
X1.6507 Y-0.2148
X1.6595 Y-0.2448
G2 X1.673 Y-0.3691 I-0.6212 J-0.13
G1 X1.6739 Y-0.4004
X1.6744 Y-0.4317
X1.6747 Y-0.4629
G2 X1.6744 Y-0.6194 I-9.6158 J-0.0631
G1 X1.6723 Y-0.6506
X1.6656 Y-0.6812
X1.653 Y-0.7098
X1.6345 Y-0.7351
X1.6114 Y-0.7561
X1.5848 Y-0.7726
X1.556 Y-0.7849
X1.5259 Y-0.7936
G2 X1.4017 Y-0.8068 I-0.1303 J0.6365
X1.1826 Y-0.8089 I-0.1759 J6.9196
G1 X0.901
X0.3064 Y-0.8088
X0.2752 Y-0.8087
X0.2439 Y-0.808
X0.2128 Y-0.8042
X0.1829 Y-0.795
X0.1556 Y-0.7797
X0.1321 Y-0.7591
X0.113 Y-0.7343
X0.0983 Y-0.7066
X0.0876 Y-0.6772
X0.0802 Y-0.6468
X0.0754 Y-0.6159
G2 X0.0684 Y-0.4597 I1.3933 J0.1403
Y-0.3032 I6.0159 J0.0804
G1 X0.071 Y-0.272
X0.0784 Y-0.2417
X0.0919 Y-0.2134
X0.1109 Y-0.1886
X0.1345 Y-0.168
X0.1614 Y-0.152
X0.1904 Y-0.1401
X0.2205 Y-0.1317
G2 X0.3449 Y-0.119 I0.1305 J-0.6607
X0.5639 Y-0.1171 I0.1706 J-7.0933
G1 X0.8455 Y-0.1173
X1.4127 Y-0.1179
X1.444 Y-0.118
X1.4753 Y-0.1187
X1.5064 Y-0.122
X1.5365 Y-0.1306
X1.5642 Y-0.1452
X1.5882 Y-0.1652
X1.6078 Y-0.1896
X1.623 Y-0.217
X1.6341 Y-0.2462
X1.6418 Y-0.2765
G2 X1.6534 Y-0.4049 I-0.7306 J-0.1303
X1.6545 Y-0.5927 I-5.5432 J-0.128
G1 X1.6529 Y-0.6239
X1.6473 Y-0.6547
X1.6358 Y-0.6838
X1.6184 Y-0.7098
X1.596 Y-0.7318
X1.5701 Y-0.7492
X1.5417 Y-0.7624
X1.5118 Y-0.7718
G2 X1.376 Y-0.7868 I-0.1363 J0.6105
X1.157 Y-0.7889 I-0.175 J6.7936
G1 X0.8754
X0.3434 Y-0.7888
X0.3121
X0.2808 Y-0.7885
X0.2496 Y-0.7867
X0.2189 Y-0.7804
X0.1901 Y-0.7683
X0.1645 Y-0.7503
X0.143 Y-0.7276
X0.1259 Y-0.7013
X0.1132 Y-0.6727
X0.1041 Y-0.6428
G2 X0.09 Y-0.5186 I0.5965 J0.1304
X0.0882 Y-0.3309 I4.4161 J0.1353
G1 X0.0902 Y-0.2997
X0.0963 Y-0.269
X0.1084 Y-0.2401
X0.1263 Y-0.2145
X0.1489 Y-0.1929
X0.1751 Y-0.1758
X0.2037 Y-0.1629
X0.2336 Y-0.1537
G2 X0.3577 Y-0.1394 I0.1319 J-0.5961
X0.5767 Y-0.1372 I0.1721 J-6.1518
G1 X0.7958 Y-0.1373
X1.3864 Y-0.1378
X1.4177 Y-0.1379
X1.449 Y-0.1384
X1.4802 Y-0.1412
X1.5105 Y-0.1487
X1.5387 Y-0.1622
X1.5635 Y-0.1814
X1.584 Y-0.205
X1.6 Y-0.2319
X1.6119 Y-0.2608
G2 X1.6283 Y-0.3451 I-0.3572 J-0.1133
G1 X1.629 Y-0.3484 Z0.3159
X1.6304 Y-0.3516 Z0.3168
X1.6322 Y-0.3544 Z0.3177
X1.6345 Y-0.3568 Z0.3186
X1.6373 Y-0.3588 Z0.3196
X1.6403 Y-0.3603 Z0.3205
X1.6436 Y-0.3612 Z0.3214
X1.6469 Y-0.3615 Z0.3223
X1.6491 Y-0.3605 Z0.323
X1.6495 Y-0.3603
X1.6612 Y-0.3549 F200.
X1.7086 Y-0.2255
G3 X1.6896 Y-0.1294 I-0.0856 J0.033
G1 X1.6328 Y-0.0751
X1.5902 Y-0.046
X1.5404 Y-0.0258
X1.4907 Y-0.0245
X1.3699 Y-0.0294
G3 X1.2895 Y-0.0886 I0.0054 J-0.0916
G1 X1.2893 Y-0.089 F60.
G3 X1.2836 Y-0.1177 Z0.315 I0.086 J-0.032
G1 Y-0.1529
X1.2914 Y-0.1832
X1.2887 Y-0.2144
X1.2781 Y-0.2439
X1.2616 Y-0.2705
G2 X1.2289 Y-0.3073 I-0.5823 J0.4852
G3 X1.1856 Y-0.3647 I0.4249 J-0.3656
X1.163 Y-0.4328 I0.2059 J-0.1059
X1.1689 Y-0.4984 I0.239 J-0.0117
X1.1991 Y-0.5568 I0.235 J0.0845
X1.2443 Y-0.5962 I0.2224 J0.2096
X1.3032 Y-0.6216 I1.1011 J2.4688
G1 X1.309 Y-0.6233
G3 X1.3685 Y-0.6164 I-0.0179 J0.4149
X1.4326 Y-0.5842 I-0.082 J0.2431
X1.4689 Y-0.5442 I-0.2155 J0.2321
X1.4881 Y-0.518 I-0.0489 J0.0559
G2 X1.6192 Y-0.5261 I0.0636 J-0.0347
G1 X1.6291 Y-0.5558
X1.6302 Y-0.5871
X1.6275 Y-0.6183
X1.6191 Y-0.6484
X1.6045 Y-0.6761
X1.5843 Y-0.7
X1.5782 Y-0.7049
X1.575 Y-0.7072
X1.5495 Y-0.7254
X1.5214 Y-0.739
X1.4917 Y-0.7489
X1.4611 Y-0.7556
X1.4534 Y-0.7567
X1.4456 Y-0.7577
G3 X1.4301 Y-0.7792 Z0.323 I0.003 J-0.0185
G1 X1.4302 Y-0.7796
G3 X1.4418 Y-0.7936 I0.0184 J0.0034 F200.
G1 X1.5546 Y-0.8302
G3 X1.6523 Y-0.811 I0.0324 J0.0929
G1 X1.6932 Y-0.7723
X1.7188 Y-0.7368
X1.7448 Y-0.68
X1.7577 Y-0.6232
X1.7554 Y-0.4386
G3 X1.6798 Y-0.341 I-0.0984 J0.0018
G1 X1.6794 Y-0.3409 F60.
G3 X1.6502 Y-0.3385 Z0.315 I-0.0224 J-0.0958
G1 X1.623 Y-0.3414
X1.617 Y-0.3465
X1.6106 Y-0.3509
X1.6037 Y-0.3546
X1.5892 Y-0.3604
X1.5584 Y-0.3662
X1.5273 Y-0.3623
X1.4981 Y-0.3513
X1.47 Y-0.3375
X1.4428 Y-0.3221
G2 X1.4138 Y-0.296 I0.1181 J0.1603
X1.4994 Y-0.1857 I0.0585 J0.043
G1 X1.5219 Y-0.2048 Z0.323
X1.5222 Y-0.2051
X1.538 Y-0.2184 F200.
X1.7305 Y-0.4812
X1.7505 Y-0.5309
G2 X1.7576 Y-0.5806 I-0.0906 J-0.0384
G1 X1.745 Y-0.68
X1.7273 Y-0.7226
G2 X1.7144 Y-0.7439 I-0.0899 J0.0401
G1 X1.6805 Y-0.7865
X1.6328 Y-0.8254
X1.5908 Y-0.8505
G2 X1.5759 Y-0.8575 I-0.0495 J0.0851
G1 X1.4694 Y-0.8807
G2 X1.3529 Y-0.8165 I-0.0232 J0.0956
G1 X1.3527 Y-0.8161 F60.
X1.3524 Y-0.815 Z0.3226
X1.3447 Y-0.7878 Z0.315
X1.3439 Y-0.7545
X1.3134 Y-0.7616
X1.2823 Y-0.7654
G2 X1.1259 Y-0.7687 I-0.1238 J2.1414
G1 X1.032 Y-0.7689
X0.3436 Y-0.7688
X0.3123 Y-0.7687
X0.281 Y-0.7677
X0.2501 Y-0.7631
X0.2204 Y-0.7531
X0.1936 Y-0.7371
X0.1705 Y-0.7159
X0.1519 Y-0.6907
X0.1376 Y-0.6629
X0.1272 Y-0.6334
G2 X0.1106 Y-0.5096 I0.5172 J0.1326
X0.1083 Y-0.3532 I2.9315 J0.12
G1 X0.1101 Y-0.3219
X0.116 Y-0.2912
X0.1277 Y-0.2622
X0.1453 Y-0.2363
X0.1676 Y-0.2144
X0.1936 Y-0.197
X0.2221 Y-0.1839
X0.2519 Y-0.1745
G2 X0.376 Y-0.1596 I0.1327 J-0.5811
X0.4767 Y-0.159 I0.06 J-1.7551
G1 X0.5706
X0.7897 Y-0.1591
X1.1339 Y-0.1594
G2 X1.2026 Y-0.2229 I-0.0032 J-0.0723
G1 X1.2047 Y-0.2541
X1.1976 Y-0.2846
G2 X1.173 Y-0.3408 I-0.7677 J0.3017
G3 X1.1465 Y-0.4386 I0.2462 J-0.1193
X1.2244 Y-0.6013 I0.1898 J-0.0091
G2 X1.2194 Y-0.7162 I-0.0462 J-0.0556
G1 X1.1928 Y-0.7327
X1.1623 Y-0.7397
G2 X1.0374 Y-0.7466 I-0.1093 J0.8427
G1 X1.0061 Y-0.7469
X0.9748 Y-0.747
X0.881 Y-0.7471
X0.6619
X0.6306
G2 X0.3177 Y-0.7483 I-0.1893 J8.5647
G1 X0.2865 Y-0.746
X0.256 Y-0.7389
X0.2275 Y-0.726
X0.2024 Y-0.7074
X0.1814 Y-0.6842
X0.1649 Y-0.6576
X0.1525 Y-0.6289
X0.1437 Y-0.5988
G2 X0.13 Y-0.4746 I0.619 J0.1308
X0.1295 Y-0.3495 I1.4911 J0.0689
G1 X0.1343 Y-0.3186
X0.1447 Y-0.289
X0.161 Y-0.2623
X0.1823 Y-0.2394
X0.2076 Y-0.221
X0.2355 Y-0.2069
X0.2651 Y-0.1966
G2 X0.3889 Y-0.1801 I0.1319 J-0.5168
X0.5766 Y-0.179 I0.1329 J-6.4892
G1 X0.7957 Y-0.1791
X1.0773 Y-0.1793
G2 X1.1061 Y-0.1911 I-0.0124 J-0.0714
G1 X1.1185 Y-0.2007
X1.1388 Y-0.2244
X1.1502 Y-0.2536
X1.1535 Y-0.2847
X1.1508 Y-0.3159
X1.1444 Y-0.3465
G3 X1.1303 Y-0.4526 I0.3507 J-0.1009
X1.1613 Y-0.5546 I0.2205 J0.0115
G1 X1.1784 Y-0.5809
G2 X1.1833 Y-0.6268 I-0.0658 J-0.0303
G1 X1.1792 Y-0.6418
X1.1645 Y-0.6695
X1.142 Y-0.6912
X1.1146 Y-0.7064
X1.0849 Y-0.7161
X1.0541 Y-0.7216
G2 X0.9291 Y-0.7268 I-0.1104 J1.1577
G1 X0.7622 Y-0.7271
X0.5953 Y-0.7279
X0.4284 Y-0.7292
X0.3971 Y-0.7288
X0.3658 Y-0.7287
X0.3345 Y-0.7281
X0.3034 Y-0.7254
X0.2731 Y-0.7176
X0.2449 Y-0.704
X0.2201 Y-0.6849
X0.1995 Y-0.6613
X0.1834 Y-0.6345
X0.1715 Y-0.6056
G2 X0.1541 Y-0.5135 I0.3538 J0.1144
X0.1491 Y-0.3885 I1.143 J0.1083
G1 X0.1512 Y-0.3573
X0.1581 Y-0.3268
X0.1708 Y-0.2982
X0.1892 Y-0.2729
X0.2123 Y-0.2518
X0.2387 Y-0.235
X0.2674 Y-0.2225
X0.2974 Y-0.2135
X0.3281 Y-0.2074
G2 X0.4529 Y-0.1996 I0.1158 J-0.8492
X0.7345 Y-0.1991 I0.18 J-20.7224
G1 X1.0161 Y-0.1993
X1.0317 Y-0.2008
X1.0468 Y-0.2051
X1.0748 Y-0.2189
X1.0965 Y-0.2414
X1.1105 Y-0.2694
X1.1174 Y-0.3
X1.1186 Y-0.3312
X1.1165 Y-0.3625
G3 X1.1144 Y-0.4643 I0.4317 J-0.0601
X1.1311 Y-0.5287 I0.2607 J0.0333
G1 X1.1435 Y-0.5574
X1.1462 Y-0.5728
X1.1461 Y-0.5884
X1.1403 Y-0.6192
X1.1248 Y-0.6463
X1.1021 Y-0.668
X1.075 Y-0.6836
X1.0455 Y-0.6939
X1.0148 Y-0.7001
G2 X0.8899 Y-0.7066 I-0.1109 J0.934
G1 X0.7543 Y-0.7069
X0.6187 Y-0.7076
X0.4831 Y-0.7087
X0.4205 Y-0.7088
X0.3892
X0.358 Y-0.7082
X0.3268 Y-0.7057
X0.2965 Y-0.6975
X0.2684 Y-0.6839
X0.2435 Y-0.6649
X0.2228 Y-0.6415
X0.2065 Y-0.6148
X0.205 Y-0.6112
X0.1931 Y-0.5822
X0.1849 Y-0.552
G2 X0.1722 Y-0.3964 I0.6893 J0.1344
G1 X0.176 Y-0.3653
X0.1853 Y-0.3354
X0.2007 Y-0.3082
X0.2033 Y-0.3053
X0.2245 Y-0.2823
X0.2497 Y-0.2637
X0.2775 Y-0.2494
X0.3071 Y-0.239
X0.3375 Y-0.2318
G2 X0.4621 Y-0.2219 I0.1228 J-0.7527
X0.9941 Y-0.2217 I0.2743 J-27.5971
G1 X1.024 Y-0.2313
X1.0492 Y-0.2498
X1.068 Y-0.2748
X1.0802 Y-0.3036
X1.0866 Y-0.3342
X1.0892 Y-0.3654
G3 X1.0974 Y-0.478 I0.6727 J-0.0074
X1.1138 Y-0.537 I0.7621 J0.18
G1 X1.1152 Y-0.5683
X1.1066 Y-0.5984
X1.0895 Y-0.6246
X1.0661 Y-0.6454
X1.0387 Y-0.6605
X1.0092 Y-0.6708
X0.9786 Y-0.6772
X0.9475 Y-0.681
X0.9163 Y-0.6831
X0.885 Y-0.6842
G2 X0.6034 Y-0.6877 I-0.2593 J9.4955
X0.3922 Y-0.6885 I-0.1429 J9.3579
G1 X0.3609 Y-0.6872
X0.3301 Y-0.6817
X0.3008 Y-0.6708
X0.2743 Y-0.6541
X0.2517 Y-0.6324
X0.2495 Y-0.6292
X0.2472 Y-0.626
G3 X0.221 Y-0.6222 Z0.323 I-0.015 J-0.0112
G1 X0.2207 Y-0.6224
G3 X0.2149 Y-0.6445 I0.0115 J-0.0148 F200.
G1 X0.2615 Y-0.7579
G3 X0.3467 Y-0.8157 I0.0897 J0.0405
G1 X0.432 Y-0.8187
X0.908 Y-0.8133
X0.9436 Y-0.8119
X0.9507 Y-0.8117
X1.0573 Y-0.7922
X1.0786 Y-0.7841
G3 X1.1315 Y-0.7368 I-0.0347 J0.0921
G1 X1.2047 Y-0.6019
G2 X1.2704 Y-0.5522 I0.0868 J-0.0465
G1 X1.2775 Y-0.5509
G2 X1.3628 Y-0.5805 I0.0139 J-0.0974
G1 X1.3673 Y-0.5864
X1.3675 Y-0.5867 F60.
X1.3854 Y-0.6101 Z0.315
X1.3898 Y-0.621
G3 X1.4583 Y-0.5792 I-0.0444 J0.15
G2 X1.5608 Y-0.5771 I0.0523 J-0.0511
G1 X1.5717 Y-0.5948 Z0.3206
X1.5741 Y-0.5984 Z0.3218
X1.5764 Y-0.6022 Z0.323
X1.5766 Y-0.6025
G2 X1.5049 Y-0.7481 I-0.0859 J-0.0481 F200.
G1 X0.9294 Y-0.8128
X0.3894 Y-0.819
X0.3183 Y-0.812
X0.2544 Y-0.7923
X0.2046 Y-0.764
X0.1656 Y-0.7226
X0.1387 Y-0.68
X0.0721 Y-0.5025
X0.0696 Y-0.4955
Y-0.4954
G2 X0.1464 Y-0.369 I0.0939 J0.0294
G1 X0.1468 F60.
X0.1549 Y-0.3679 Z0.3207
X0.176 Y-0.3653 Z0.315
X0.1799 Y-0.3658
X0.1847 Y-0.3603
X0.2045 Y-0.336
X0.2151 Y-0.3245
X0.218 Y-0.3218
X0.2208 Y-0.3192
G3 X0.2258 Y-0.3103 Z0.3178 I-0.0132 J0.0133
G2 X0.2315 Y-0.3008 Z0.3208 I0.0182 J-0.0044
G1 X0.2374 Y-0.2955 Z0.323
X0.2377 Y-0.2953
X0.3702 Y-0.1765 F200.
G2 X0.4012 Y-0.1934 I0.0125 J-0.014
G1 X0.401 Y-0.1945
Y-0.1949 F60.
G3 X0.3996 Y-0.2243 Z0.315 I0.1419 J-0.0213
G1 X0.4 Y-0.2282
G3 X0.4493 Y-0.2371 I0.0576 J0.1784
X0.5654 Y-0.2406 I0.096 J1.262
G1 X0.6279 Y-0.2408
X0.9096 Y-0.241
X0.9409 Y-0.2411
X0.972 Y-0.2443
X1.0008 Y-0.2566
X1.0247 Y-0.2767
X1.0428 Y-0.3023
X1.055 Y-0.3311
X1.0624 Y-0.3615
X1.0669 Y-0.3925
G3 X1.0884 Y-0.5235 I0.9648 J0.0907
G1 X1.0857 Y-0.5547
X1.0742 Y-0.5838
X1.055 Y-0.6086
X1.0305 Y-0.628
X1.0026 Y-0.6421
X0.9728 Y-0.6516
X0.942 Y-0.6576
G2 X0.8172 Y-0.6657 I-0.1403 J1.2043
X0.4065 Y-0.6685 I-0.361 J22.4006
X0.3754 Y-0.6651 I0.0103 J0.2411
G3 X0.3478 Y-0.6729 Z0.323 I-0.0048 J-0.0357
G1 X0.3475 Y-0.6731
G3 X0.3573 Y-0.7344 I0.023 J-0.0277 F200.
X0.4178 Y-0.7166 I0.0189 J0.0477
G1 X0.4181 Y-0.7162 F60.
G3 X0.4274 Y-0.6887 Z0.315 I-0.0419 J0.0295
G1 X0.4275 Y-0.6621
X0.4195 Y-0.6486
X0.4097 Y-0.6189
X0.4096 Y-0.5876
G2 X0.4379 Y-0.5105 I0.2958 J-0.0647
G3 X0.4489 Y-0.472 I-0.2394 J0.0894
X0.4473 Y-0.4412 I-0.1193 J0.0092
X0.4375 Y-0.4194 I-0.0914 J-0.0279
G1 X0.422 Y-0.3922
G2 X0.4223 Y-0.3535 I0.07 J0.0187
G1 X0.4274 Y-0.3387
X0.4437 Y-0.312
X0.4675 Y-0.2917
X0.4956 Y-0.2778
X0.5257 Y-0.2694
X0.5567 Y-0.2649
G2 X0.713 Y-0.2611 I0.1211 J-1.7664
G1 X0.8069 Y-0.2609
X0.9008 Y-0.261
X0.932 Y-0.2625
X0.962 Y-0.2716
X0.9883 Y-0.2886
X1.0095 Y-0.3116
X1.0252 Y-0.3387
X1.0362 Y-0.368
X1.0437 Y-0.3983
X1.0496 Y-0.4291
X1.0554 Y-0.4598
X1.0613 Y-0.4905
Y-0.5218
X1.0524 Y-0.5519
X1.0357 Y-0.5783
X1.0131 Y-0.5999
X0.9863 Y-0.6161
X0.9571 Y-0.6275
X0.9267 Y-0.6349
G2 X0.8022 Y-0.6455 I-0.1304 J0.7988
X0.544 Y-0.648 I-0.2312 J10.2838
X0.5024 Y-0.6279 I0.0104 J0.0749
G1 X0.4918 Y-0.6164
X0.4756 Y-0.5896
X0.4676 Y-0.5594
X0.466 Y-0.5281
X0.4668 Y-0.5125
X0.4675 Y-0.4938
G3 X0.4627 Y-0.4461 I-0.1749 J0.0063
G1 X0.4542 Y-0.416
X0.4543 Y-0.3847
X0.4652 Y-0.3554
X0.4844 Y-0.3307
X0.5094 Y-0.3119
X0.5378 Y-0.2988
X0.568 Y-0.2906
G2 X0.6927 Y-0.2815 I0.1117 J-0.6767
X0.8805 Y-0.2812 I0.1134 J-9.3434
G1 X0.9116 Y-0.2843
X0.941 Y-0.2949
X0.9668 Y-0.3126
X0.9879 Y-0.3358
X1.004 Y-0.3626
X1.0159 Y-0.3915
X1.0249 Y-0.4215
X1.0323 Y-0.4519
X1.0362 Y-0.4829
X1.032 Y-0.5139
X1.0194 Y-0.5426
X0.9999 Y-0.5671
X0.9753 Y-0.5864
X0.9474 Y-0.6006
X0.9177 Y-0.6104
G2 X0.7936 Y-0.6249 I-0.1281 J0.5578
X0.6059 Y-0.6278 I-0.1932 J6.4268
G1 X0.5903 Y-0.6266
X0.5752 Y-0.6226
X0.5467 Y-0.6096
X0.524 Y-0.588
X0.5082 Y-0.5611
X0.4983 Y-0.5314
X0.4924 Y-0.5006
X0.4892 Y-0.4815
X0.4829 Y-0.4508
X0.4811 Y-0.4196
X0.4892 Y-0.3894
X0.5059 Y-0.3629
X0.5289 Y-0.3416
X0.556 Y-0.326
X0.5854 Y-0.3154
X0.616 Y-0.3089
G2 X0.7409 Y-0.3015 I0.1134 J-0.8641
G1 X0.7722 Y-0.3011
X0.8035 Y-0.301
X0.8348
X0.866 Y-0.3018
X0.8968 Y-0.3074
X0.9254 Y-0.3202
X0.9502 Y-0.3392
X0.9706 Y-0.363
X0.9865 Y-0.3899
X0.9988 Y-0.4187
X1.0066 Y-0.449
X1.0065 Y-0.4803
X0.9976 Y-0.5103
X0.9809 Y-0.5368
X0.9583 Y-0.5584
X0.9317 Y-0.5749
X0.9027 Y-0.5866
X0.8724 Y-0.5945
G2 X0.7479 Y-0.6056 I-0.1266 J0.7151
X0.6227 Y-0.6066 I-0.0784 J1.9867
G1 X0.5927 Y-0.5978
X0.5665 Y-0.5807
X0.5456 Y-0.5573
X0.5301 Y-0.5302
X0.5187 Y-0.501
X0.5105 Y-0.4708
X0.5102 Y-0.4396
X0.5192 Y-0.4096
X0.5364 Y-0.3835
X0.5596 Y-0.3625
X0.5868 Y-0.347
X0.6162 Y-0.3363
X0.6468 Y-0.3295
G2 X0.7716 Y-0.3217 I0.1153 J-0.8325
G1 X0.8029 Y-0.3212
X0.8342 Y-0.3215
X0.8652 Y-0.3256
X0.8946 Y-0.3362
X0.921 Y-0.3531
X0.9433 Y-0.3751
X0.961 Y-0.4009
X0.9718 Y-0.4302
X0.973 Y-0.4615
X0.9646 Y-0.4916
X0.948 Y-0.5182
X0.9253 Y-0.5397
X0.8985 Y-0.556
X0.8695 Y-0.5676
X0.8391 Y-0.5753
G2 X0.7146 Y-0.5859 I-0.126 J0.7415
G1 X0.6833 Y-0.5868
X0.652 Y-0.5858
X0.6218 Y-0.5775
X0.5954 Y-0.5608
X0.5734 Y-0.5386
X0.5564 Y-0.5123
X0.5477 Y-0.4822
X0.5498 Y-0.451
X0.5616 Y-0.422
X0.5811 Y-0.3976
X0.606 Y-0.3786
X0.6341 Y-0.3649
X0.6641 Y-0.3557
G2 X0.7885 Y-0.3441 I0.1181 J-0.5903
G1 X0.8197 Y-0.3447
X0.8505 Y-0.3506
X0.8793 Y-0.3628
X0.8918 Y-0.3722
G2 X0.9187 Y-0.4269 I-0.0509 J-0.059
G1 X0.9176 Y-0.4582
X0.906 Y-0.4873
X0.8863 Y-0.5116
X0.8612 Y-0.5302
X0.8328 Y-0.5435
X0.8028 Y-0.5523
G2 X0.6784 Y-0.5621 I-0.0979 J0.4508
G1 X0.6483 Y-0.5534
G2 X0.6127 Y-0.4805 I0.0361 J0.0628
G1 X0.6157 Y-0.4652
X0.6277 Y-0.4363
X0.648 Y-0.4125
X0.6737 Y-0.3946
X0.7025 Y-0.3824
X0.7328 Y-0.3746
X0.7638 Y-0.3702
X0.7794 Y-0.3698
G2 X0.8287 Y-0.4949 I-0.0005 J-0.0724
G1 X0.8048 Y-0.5151
G2 X0.7752 Y-0.5251 I-0.0764 J0.1761
G3 X0.7633 Y-0.55 I0.0055 J-0.0179
G1 X0.7645 Y-0.553 Z0.3152
X0.7656 Y-0.5559 Z0.3161
X0.7667 Y-0.5587 Z0.3175
X0.7677 Y-0.5612 Z0.3193
X0.7685 Y-0.5633 Z0.3217
X0.7692 Y-0.5651 Z0.3243
X0.7697 Y-0.5664 Z0.3273
X0.77 Y-0.5671 Z0.3305
X0.7701 Y-0.5674 Z0.3337
G0 Z1.085
M5
G53 G0 Z-0.6
(2D CHAMFER1 2)
M9
M1
T11 M6
T22
S7500 M3
G17 G90 G94
G54
G64 P0.0004 Q0.0004
M8
G0 X1.5328 Y-0.4409
G43 Z1.085 H11
G0 Z0.685
G1 Z0.565 F80.
Z0.265
X1.5453 Y-0.4402 F7.
G3 X1.1142 Y-0.4653 I-0.2155 J-0.0126
X1.5453 Y-0.4402 I0.2155 J0.0126
G1 X1.5328 Y-0.4409
G0 Z0.685
X-0.0525 Y-0.4528
G1 Z0.565 F80.
Z0.265
X-0.04 F7.
Y-0.2953
G2 X0.0466 Y-0.0944 I0.2762 J0.
X0.3849 Y0.04 I0.3382 J-0.3583
G1 X1.3297
G2 Y-0.9455 I0. J-0.4928
G1 X0.3849
G2 X0.0466 Y-0.8111 I0. J0.4928
X-0.04 Y-0.6102 I0.1896 J0.2009
G1 Y-0.4528
X-0.0525
G0 Z0.685
X0.2594 Y-0.5883
G1 Z0.565 F80.
Z0.265
Y-0.6008 F7.
X0.5104
G2 X0.5386 Y-0.6125 I0. J-0.04
G1 X0.5398 Y-0.6133
X0.5412 Y-0.6137
X0.5427 Y-0.6136
X0.544 Y-0.6129
X0.545 Y-0.6119
X0.5456 Y-0.6106
X0.5458 Y-0.6091
X0.5454 Y-0.6077
X0.5446 Y-0.6065
G2 X0.5329 Y-0.5783 I0.0283 J0.0283
G1 Y-0.3273
G2 X0.5446 Y-0.299 I0.04 J0.
G1 X0.5454 Y-0.2978
X0.5458 Y-0.2964
X0.5457 Y-0.2949
X0.545 Y-0.2936
X0.544 Y-0.2926
X0.5427 Y-0.292
X0.5412 Y-0.2918
X0.5398 Y-0.2922
X0.5386 Y-0.293
G2 X0.5104 Y-0.3048 I-0.0283 J0.0283
G1 X0.2594
G2 X0.2311 Y-0.293 I0. J0.04
G1 X0.2299 Y-0.2922
X0.2285 Y-0.2918
X0.227 Y-0.292
X0.2257 Y-0.2926
X0.2247 Y-0.2936
X0.224 Y-0.2949
X0.2239 Y-0.2964
X0.2243 Y-0.2978
X0.2251 Y-0.299
G2 X0.2369 Y-0.3273 I-0.0283 J-0.0283
G1 Y-0.5783
G2 X0.2251 Y-0.6065 I-0.04 J0.
G1 X0.2243 Y-0.6077
X0.2239 Y-0.6091
X0.224 Y-0.6106
X0.2247 Y-0.6119
X0.2257 Y-0.6129
X0.227 Y-0.6136
X0.2285 Y-0.6137
X0.2299 Y-0.6133
X0.2311 Y-0.6125
G2 X0.2594 Y-0.6008 I0.0283 J-0.0283
G1 Y-0.5883
G0 Z1.085
M5
M9
G53 G0 Z-0.6
M30
%
